{"type":"FeatureCollection","features":[{"type":"Feature","properties":{"source":"OpenStreetMap/Nominatim","display_name":"Lede, Aalst, Oost-Vlaanderen, Vlaanderen, 9340, België / Belgique / Belgien","osm_type":"relation","osm_id":1266491,"municipality":"Lede"},"geometry":{"type":"Polygon","coordinates":[[[3.867538,50.956043],[3.867653,50.955879],[3.868025,50.955738],[3.868087,50.955181],[3.86843,50.95502],[3.868262,50.95475],[3.868063,50.954696],[3.86815,50.954498],[3.867867,50.954406],[3.8680196,50.9542604],[3.8684186,50.9542419],[3.868905,50.9542611],[3.8691868,50.9538191],[3.8696744,50.9538887],[3.8697357,50.9538795],[3.8699589,50.9539151],[3.8700862,50.9537268],[3.8702088,50.9536974],[3.8704785,50.9535879],[3.8706761,50.953438],[3.8708367,50.953392],[3.8712368,50.9531657],[3.8709652,50.9529259],[3.8709535,50.9528472],[3.8713262,50.9524313],[3.8713332,50.9522366],[3.8714763,50.9520692],[3.8717245,50.9519275],[3.8715522,50.9518116],[3.8714938,50.9517528],[3.871485,50.9516718],[3.8715843,50.9515578],[3.8719414,50.9514236],[3.873418,50.951084],[3.874703,50.950641],[3.8748202,50.9508255],[3.8752209,50.951233],[3.8764533,50.952316],[3.8778372,50.9535364],[3.8781337,50.9536497],[3.8794077,50.9539425],[3.879898,50.9541926],[3.8809092,50.9534343],[3.8823356,50.9526149],[3.882911,50.952129],[3.8841639,50.9510147],[3.885205,50.9502774],[3.885652,50.9500049],[3.885864,50.949749],[3.8860041,50.9495623],[3.8862537,50.9492479],[3.8877668,50.949874],[3.8892609,50.9504124],[3.8903481,50.9498664],[3.8900568,50.949634],[3.8909702,50.9490886],[3.8911183,50.9492138],[3.8922842,50.9486011],[3.8925529,50.9487759],[3.8930348,50.9483858],[3.8929034,50.9482202],[3.8937776,50.9475498],[3.8956278,50.9483935],[3.8972611,50.9477144],[3.8991104,50.9485432],[3.8997485,50.9487824],[3.8999738,50.9489052],[3.9005901,50.9493272],[3.9014041,50.9499451],[3.9027296,50.9492031],[3.9039101,50.9485375],[3.9045796,50.9479607],[3.9051095,50.9483125],[3.9056982,50.9486563],[3.9055635,50.9488507],[3.9062565,50.9491258],[3.9068392,50.9492934],[3.9073811,50.9493591],[3.9074779,50.9492886],[3.907858,50.949508],[3.9084028,50.9497629],[3.9090394,50.9498955],[3.9094324,50.9499405],[3.909699,50.9499408],[3.9108019,50.9502562],[3.9109359,50.95037],[3.911442,50.9505351],[3.9124721,50.9507902],[3.9131181,50.9508971],[3.9132789,50.9509665],[3.9134096,50.9509793],[3.9138446,50.951124],[3.9139845,50.9511972],[3.914571,50.9513904],[3.914866,50.951515],[3.9153793,50.9516914],[3.9157172,50.9517505],[3.9159777,50.9517861],[3.9161564,50.9517983],[3.9164681,50.9518937],[3.9166819,50.9518986],[3.9167191,50.9519559],[3.9170391,50.952134],[3.9172282,50.9522006],[3.9173532,50.9522766],[3.9175438,50.9523572],[3.9177864,50.9524154],[3.9182672,50.9526095],[3.9185218,50.9526958],[3.9185992,50.952767],[3.9188766,50.9530281],[3.9190475,50.9531561],[3.9191841,50.9532695],[3.9192939,50.9533587],[3.9261106,50.9520918],[3.9377746,50.9498637],[3.9381624,50.949929],[3.9383961,50.9500146],[3.9385911,50.9501075],[3.9387727,50.9501422],[3.9389052,50.9502059],[3.9391423,50.9502546],[3.9393748,50.9502532],[3.939422,50.9502894],[3.9395141,50.9503449],[3.9396452,50.9503965],[3.9397782,50.9504094],[3.9398581,50.950461],[3.9400874,50.9504687],[3.9405309,50.9507222],[3.9407384,50.9507847],[3.9407834,50.9508311],[3.9409882,50.9508646],[3.9411008,50.950942],[3.9412256,50.9509498],[3.9414775,50.9510964],[3.9415819,50.9511136],[3.9418275,50.9512142],[3.9419627,50.9513354],[3.9420915,50.9514092],[3.9425277,50.9515637],[3.9429617,50.9516604],[3.9436858,50.9519374],[3.9438646,50.9519699],[3.9439628,50.952046],[3.9440918,50.9520938],[3.9443964,50.952088],[3.9446191,50.9521887],[3.944665,50.952184],[3.944706,50.9521066],[3.9449614,50.9519698],[3.9450663,50.9518758],[3.9454983,50.951712],[3.9456248,50.9516436],[3.9459405,50.9516862],[3.9464697,50.9518907],[3.9465772,50.9518552],[3.9466816,50.9519029],[3.9468476,50.9518658],[3.9472914,50.952093],[3.9476317,50.9521621],[3.9481761,50.9523427],[3.948129,50.9524033],[3.9482584,50.952514],[3.9485569,50.9526406],[3.949517,50.9529011],[3.9495769,50.9528969],[3.9501081,50.9524623],[3.9503802,50.9526158],[3.950645,50.9523298],[3.950848,50.952232],[3.9511607,50.9521361],[3.9513494,50.9519732],[3.951615,50.9518937],[3.9517351,50.9518071],[3.951706,50.9516682],[3.9520044,50.9515792],[3.9522241,50.9514911],[3.9522824,50.9512961],[3.9526677,50.9512903],[3.9528233,50.9512722],[3.9528808,50.9511894],[3.9527742,50.950893],[3.952922,50.9507896],[3.9529168,50.950687],[3.9527072,50.9505581],[3.9525224,50.9504455],[3.9524304,50.9502949],[3.9525101,50.9502017],[3.9527232,50.950183],[3.9527107,50.9500831],[3.9527361,50.9498412],[3.9529175,50.9497438],[3.9529769,50.9495659],[3.9530321,50.9495104],[3.9532082,50.9495633],[3.9533238,50.949532],[3.9533577,50.9492718],[3.9534375,50.9491996],[3.9535926,50.9492103],[3.9538838,50.9492937],[3.9539483,50.9492238],[3.9539534,50.9496961],[3.953761,50.9497013],[3.9537415,50.9498319],[3.9537133,50.9500206],[3.9536868,50.9501979],[3.953675,50.9502765],[3.953811,50.9508502],[3.9538045,50.9516673],[3.9529482,50.9518723],[3.9533272,50.9524346],[3.9531459,50.9524803],[3.9540506,50.9530038],[3.9540394,50.9530984],[3.9537919,50.9535348],[3.9541757,50.9539301],[3.9543468,50.954112],[3.9544652,50.9542282],[3.9546576,50.9544155],[3.954883,50.9546349],[3.9563138,50.9542013],[3.9576897,50.9537953],[3.9577863,50.9538805],[3.9579607,50.9539719],[3.9581544,50.9536607],[3.9586764,50.9534309],[3.9589241,50.9533615],[3.9592,50.9533291],[3.9597553,50.9533435],[3.9601441,50.9533786],[3.9605046,50.9536474],[3.9618971,50.9540499],[3.9625459,50.9541787],[3.9631829,50.9542788],[3.9640385,50.9542779],[3.964695,50.9543343],[3.9651928,50.9542733],[3.965586,50.9540982],[3.9661742,50.9538362],[3.9661775,50.9536936],[3.9662619,50.9535507],[3.9672549,50.9539553],[3.96749,50.9537914],[3.9677826,50.9539496],[3.9683817,50.9535211],[3.9686273,50.9536532],[3.9697506,50.953112],[3.9700182,50.9533228],[3.9700427,50.9533138],[3.970227,50.9534698],[3.9707831,50.9538555],[3.9713896,50.9535532],[3.9720289,50.953928],[3.9722415,50.953791],[3.9722824,50.9536414],[3.9724155,50.9533641],[3.9725203,50.9532146],[3.9726264,50.9531642],[3.9726571,50.9531087],[3.9726755,50.9528959],[3.9729376,50.9525554],[3.9744195,50.9529745],[3.9750203,50.9531485],[3.9751022,50.9531941],[3.975188,50.9532124],[3.9757821,50.9533783],[3.9777179,50.9539857],[3.9789538,50.9543885],[3.9798612,50.9546822],[3.9800026,50.9547281],[3.9801622,50.954605],[3.9810017,50.9549014],[3.9831513,50.9556055],[3.9831659,50.9555878],[3.9832833,50.9556043],[3.9837421,50.9557634],[3.9838455,50.9557611],[3.9838559,50.9557564],[3.9838613,50.9556479],[3.9838844,50.9556082],[3.9839529,50.9554881],[3.9840119,50.9554329],[3.9845586,50.9549813],[3.9850602,50.9545984],[3.9852277,50.9544312],[3.9855083,50.9540566],[3.985694,50.9539857],[3.9866864,50.9530091],[3.98843,50.9535234],[3.9885973,50.9533723],[3.9898049,50.9540263],[3.9899359,50.9539332],[3.9899598,50.953922],[3.9909129,50.9545498],[3.9911084,50.9544565],[3.9912241,50.9543984],[3.9915092,50.9542503],[3.9916862,50.9541583],[3.9918528,50.9540718],[3.9921824,50.9539038],[3.9922566,50.9538662],[3.9929025,50.9535531],[3.9938709,50.9538547],[3.9939679,50.9536764],[3.9956764,50.9541856],[3.996008,50.9542836],[3.9962423,50.9542837],[3.996397,50.9542565],[3.9965342,50.95422],[3.9966631,50.954085],[3.9968228,50.9539793],[3.9970378,50.9538155],[3.9971979,50.9537954],[3.9978567,50.9539457],[3.9979795,50.953929],[3.9981915,50.9540004],[3.998434,50.9541663],[3.99885,50.95433],[3.9995392,50.9545283],[3.9997279,50.9546963],[4.0001046,50.9548833],[4.0004199,50.9550393],[4.0008176,50.9552817],[4.0007597,50.9553664],[4.001208,50.9555861],[4.001524,50.9557868],[4.0016298,50.9557628],[4.0018079,50.9556532],[4.0029011,50.9552792],[4.003053,50.9551692],[4.0032778,50.9552753],[4.0034334,50.9552844],[4.0043367,50.9554999],[4.0049095,50.9556158],[4.0058097,50.9558402],[4.0064753,50.9559796],[4.0067602,50.9560749],[4.0073048,50.9560569],[4.0076089,50.9561684],[4.0081153,50.9555318],[4.0084459,50.9553513],[4.0086241,50.9554291],[4.0094065,50.9558207],[4.0097938,50.9558642],[4.0102058,50.9559557],[4.0107519,50.9561576],[4.0112543,50.9562033],[4.0123328,50.9562477],[4.0126071,50.956191],[4.0127866,50.9562626],[4.0099793,50.9577796],[4.0103756,50.9579396],[4.0104739,50.9579216],[4.0115546,50.9584265],[4.0125989,50.9589326],[4.0130289,50.9591208],[4.013308,50.9593285],[4.0135898,50.9597604],[4.0139092,50.9599203],[4.0143309,50.9603072],[4.014726,50.96054],[4.0148264,50.9606708],[4.0150647,50.9611297],[4.0149846,50.9611868],[4.0141631,50.9614507],[4.0137298,50.961676],[4.0134671,50.9618372],[4.0130656,50.9620836],[4.012695,50.9623421],[4.0125036,50.962437],[4.0121152,50.9627062],[4.0117971,50.962945],[4.0118251,50.9631929],[4.0120331,50.9633806],[4.0117583,50.9638104],[4.0113952,50.9637732],[4.0103958,50.9637585],[4.0099621,50.9644385],[4.0093879,50.9649902],[4.0107071,50.9655409],[4.0104898,50.9660191],[4.0104616,50.9663003],[4.0105494,50.9664616],[4.0109448,50.9669062],[4.0111326,50.9670317],[4.0114965,50.9672032],[4.011997,50.9673667],[4.0126124,50.9675285],[4.0130225,50.9676147],[4.0131886,50.9676386],[4.0135063,50.9677349],[4.0138405,50.9685645],[4.0139542,50.9687731],[4.0144005,50.9690103],[4.0149779,50.969294],[4.0145788,50.9696205],[4.0146053,50.9696769],[4.014939,50.9698406],[4.0151284,50.9699062],[4.0148974,50.9702283],[4.0137356,50.9717064],[4.0141005,50.9718161],[4.0138437,50.9724396],[4.0131149,50.9724422],[4.0129959,50.9736125],[4.0129874,50.973726],[4.0129749,50.9739809],[4.012941,50.974975],[4.0134506,50.9749688],[4.0135325,50.9750229],[4.0143439,50.9750243],[4.0148755,50.9753581],[4.0149372,50.9759183],[4.0147261,50.9763648],[4.0145895,50.976445],[4.0147168,50.9766149],[4.0147098,50.9766627],[4.0147864,50.9766718],[4.0147144,50.9772779],[4.0151293,50.9772375],[4.0152031,50.9772977],[4.0154849,50.9771805],[4.0155879,50.9776345],[4.0155281,50.977696],[4.0165575,50.978474],[4.0166915,50.9784061],[4.0173924,50.9791637],[4.017689,50.9794227],[4.0180732,50.9796589],[4.0183327,50.9797889],[4.0185731,50.9798662],[4.0187662,50.9798847],[4.0189548,50.9798668],[4.0191392,50.9798012],[4.0192995,50.979731],[4.0193276,50.9797102],[4.019486,50.9796009],[4.0195692,50.9795362],[4.0196873,50.9794453],[4.0198706,50.9792827],[4.0200231,50.979128],[4.0201748,50.9789721],[4.0203644,50.978773],[4.0204771,50.9787041],[4.0207116,50.9785997],[4.0211137,50.9784231],[4.0217849,50.9781528],[4.0224244,50.9779007],[4.0226195,50.9778188],[4.0226551,50.9777976],[4.0235111,50.9780142],[4.0236319,50.9781561],[4.0238667,50.9786681],[4.0240394,50.9795961],[4.0223316,50.9802305],[4.0215946,50.9805837],[4.0205526,50.9810202],[4.0206236,50.9815637],[4.0197562,50.9821811],[4.0196286,50.9821592],[4.019179,50.9822647],[4.0189063,50.9823447],[4.0186961,50.9824187],[4.0185741,50.9824624],[4.0184547,50.9824863],[4.0182884,50.9825201],[4.0179612,50.982528],[4.017471,50.9826034],[4.016582,50.9827057],[4.0158801,50.9827057],[4.0156981,50.9827671],[4.0155869,50.9828401],[4.0152512,50.9829935],[4.0148924,50.9832587],[4.0147803,50.9833733],[4.0146918,50.9834915],[4.0137488,50.9844897],[4.0138619,50.984576],[4.013929,50.9846859],[4.014006,50.9848229],[4.0140277,50.9849182],[4.0141092,50.9852428],[4.0141837,50.9853201],[4.014221,50.9855315],[4.0142008,50.9856948],[4.014315,50.985839],[4.0144792,50.9860328],[4.0147872,50.9862594],[4.0150734,50.9865655],[4.0153129,50.9868727],[4.0153615,50.9870268],[4.0153713,50.9871694],[4.0152086,50.9871703],[4.0149353,50.9871374],[4.0146986,50.9871194],[4.0143473,50.9870811],[4.0139829,50.9870292],[4.0136177,50.9869681],[4.0134891,50.9869587],[4.0133947,50.9869391],[4.0133313,50.9869259],[4.0124494,50.9867411],[4.0118859,50.9866322],[4.0118617,50.9866273],[4.0118069,50.9866162],[4.0117973,50.9866135],[4.011421,50.9865393],[4.0103129,50.9863591],[4.0097544,50.9862422],[4.0091168,50.9860456],[4.008909,50.9859694],[4.007983,50.9857433],[4.0077266,50.9856223],[4.0075081,50.9855654],[4.0073715,50.9855082],[4.0070561,50.9854359],[4.006788,50.9853199],[4.0065089,50.9851907],[4.0064002,50.9851445],[4.0063422,50.9851181],[4.0062859,50.9850923],[4.0058843,50.9849438],[4.005587,50.9848321],[4.0053207,50.9847495],[4.004845,50.9846251],[4.0041828,50.9844339],[4.0038563,50.9843522],[4.0035428,50.9842279],[4.0032404,50.9841529],[4.0028956,50.9840867],[4.0027293,50.9840756],[4.0025357,50.9841119],[4.0023215,50.9840869],[4.002202,50.9840633],[4.0019453,50.9840525],[4.0017736,50.9840124],[4.0015313,50.9839822],[4.0010276,50.9839553],[4.0008417,50.9839305],[4.0007873,50.9838848],[4.0007577,50.9838123],[4.0007521,50.9837071],[4.000436,50.9835895],[4.0001519,50.9834672],[3.9998272,50.9833107],[3.9992501,50.9830349],[3.9988636,50.9828702],[3.9986737,50.9828319],[3.9983603,50.982793],[3.997858,50.9827507],[3.9976877,50.9827231],[3.9974244,50.9826605],[3.9967021,50.9824437],[3.9959314,50.9822381],[3.9949579,50.9819329],[3.9948966,50.9819038],[3.9948016,50.9818621],[3.9946467,50.9817907],[3.9940692,50.9815439],[3.9936501,50.9813775],[3.9934803,50.9813357],[3.9933721,50.9813096],[3.9926637,50.9811284],[3.9925208,50.981167],[3.9923398,50.9811828],[3.9922142,50.9811842],[3.9920255,50.9811523],[3.9917533,50.9811336],[3.9912581,50.9811196],[3.9911951,50.9812418],[3.9909937,50.9817349],[3.9909556,50.9817906],[3.9908599,50.9817892],[3.9906282,50.9817415],[3.9904172,50.9816788],[3.9895315,50.9813688],[3.9890755,50.9812066],[3.9887215,50.9810624],[3.9878359,50.9807061],[3.987514,50.9805785],[3.9871356,50.9804378],[3.9869696,50.9804145],[3.9861954,50.9803361],[3.985914,50.9803361],[3.9854931,50.9802934],[3.9852588,50.9802649],[3.9849426,50.9802693],[3.9845602,50.9803489],[3.9841327,50.9804883],[3.9839758,50.9805077],[3.9838155,50.9804921],[3.9836898,50.9804663],[3.9835499,50.9804608],[3.9834365,50.9805321],[3.9833547,50.9805672],[3.9830466,50.9805952],[3.9828711,50.9806039],[3.9825302,50.9807396],[3.9823472,50.9808022],[3.9821281,50.9808533],[3.9818241,50.9809323],[3.9815696,50.980994],[3.9812027,50.9810701],[3.9805169,50.9811976],[3.9802969,50.9812177],[3.9797713,50.9812771],[3.9791231,50.981325],[3.9788538,50.9813241],[3.9787348,50.9813316],[3.9780044,50.9813886],[3.9773818,50.9814467],[3.9769644,50.9814949],[3.9764889,50.9815261],[3.9764139,50.9815243],[3.9762276,50.9815199],[3.9757673,50.9814916],[3.9753242,50.9814733],[3.974896,50.9814697],[3.9746344,50.9814867],[3.9745381,50.9814889],[3.9735998,50.9818267],[3.9733856,50.9818882],[3.9732324,50.9819421],[3.972968,50.9820374],[3.9726581,50.982143],[3.972047,50.982299],[3.9708022,50.9825083],[3.9700707,50.9825884],[3.9691612,50.982716],[3.9690527,50.982671],[3.9687994,50.982128],[3.9675158,50.9822559],[3.9672252,50.9822824],[3.965633,50.982189],[3.9626099,50.98231],[3.9625443,50.9819275],[3.9619401,50.9819353],[3.9609813,50.9819571],[3.9604655,50.9819609],[3.9581831,50.9813145],[3.9576304,50.9811592],[3.9580807,50.9829836],[3.9582792,50.9836756],[3.9552344,50.9840977],[3.9550425,50.9840662],[3.9548951,50.98407],[3.9536863,50.9839883],[3.9535596,50.9833928],[3.9539739,50.9828676],[3.9539045,50.9825911],[3.950592,50.982631],[3.950745,50.98159],[3.9511446,50.9811534],[3.9513179,50.9807644],[3.9514885,50.9802356],[3.9515654,50.9796108],[3.9516984,50.9789096],[3.9516093,50.9787791],[3.9516547,50.9785835],[3.9508006,50.9777866],[3.9501699,50.9770845],[3.9504076,50.9768946],[3.9505263,50.9767528],[3.9504976,50.9766317],[3.9505947,50.9764419],[3.9507197,50.9758962],[3.9510586,50.9752653],[3.9510913,50.9751518],[3.951195,50.9750439],[3.9514803,50.9749224],[3.9517588,50.9748631],[3.9523074,50.9747806],[3.9530155,50.9745965],[3.9528283,50.9744807],[3.951419,50.973609],[3.9513966,50.9735863],[3.9507198,50.9727552],[3.9507945,50.9726926],[3.950449,50.9723867],[3.950035,50.972419],[3.949839,50.972164],[3.9498069,50.9721768],[3.94961,50.972255],[3.948931,50.971801],[3.9487675,50.9716947],[3.9485669,50.9715616],[3.9484136,50.9713315],[3.948112,50.9713297],[3.947963,50.9713738],[3.9478666,50.9713738],[3.9477017,50.9713119],[3.9469654,50.9716971],[3.946876,50.9717685],[3.9469264,50.9718761],[3.9473817,50.9721889],[3.9477336,50.9725701],[3.9479542,50.972809],[3.9480704,50.9730256],[3.9481755,50.9731314],[3.9478983,50.9733251],[3.9475784,50.9735935],[3.9473899,50.9737225],[3.9473559,50.9737653],[3.9474458,50.973815],[3.9463785,50.974567],[3.9457029,50.9749761],[3.9451623,50.9754294],[3.9447919,50.9758089],[3.9443405,50.9760945],[3.9436024,50.9766209],[3.9435749,50.9766494],[3.9434575,50.9767641],[3.9432496,50.9768992],[3.9430431,50.9770031],[3.9429687,50.9770242],[3.9423821,50.977234],[3.9414415,50.9775515],[3.9409076,50.9777076],[3.9407815,50.9777193],[3.9406814,50.9777183],[3.9404704,50.977673],[3.9401373,50.9775185],[3.9394591,50.9772752],[3.9390328,50.9772163],[3.938663,50.9771923],[3.9375075,50.9768562],[3.936243,50.9765844],[3.9360896,50.9765871],[3.9360179,50.9766057],[3.9358135,50.976387],[3.9356882,50.9761738],[3.9353854,50.9764011],[3.9352196,50.9765195],[3.934694,50.976833],[3.9340192,50.9770886],[3.9336922,50.9771986],[3.9335816,50.9772254],[3.9328079,50.9772413],[3.9320302,50.9772723],[3.9316127,50.9773125],[3.9310316,50.9773852],[3.9305107,50.9774487],[3.9300074,50.9775224],[3.9299601,50.9777563],[3.9298731,50.9778871],[3.9295114,50.9784024],[3.9288528,50.9789678],[3.9288422,50.9789967],[3.9288672,50.9790254],[3.9287229,50.9791488],[3.9285208,50.9792306],[3.9282993,50.9793659],[3.9280038,50.9793889],[3.92713,50.979286],[3.926789,50.979251],[3.9260677,50.9790666],[3.9256113,50.979055],[3.9252329,50.9790721],[3.9249643,50.9790511],[3.9247146,50.9789983],[3.9243276,50.9787856],[3.9240142,50.978685],[3.9234084,50.9785535],[3.9215127,50.9791052],[3.9213916,50.9790527],[3.9213334,50.9790612],[3.9207646,50.9790879],[3.9204839,50.9791336],[3.9203294,50.9791974],[3.920175,50.9792213],[3.9200817,50.979221],[3.9198363,50.9792719],[3.9194189,50.9794127],[3.9191278,50.9795327],[3.9187735,50.9796294],[3.9185132,50.9796961],[3.9184281,50.9797468],[3.9182255,50.9798826],[3.9166853,50.9815297],[3.9168785,50.9816998],[3.9162267,50.9818829],[3.9158827,50.9819318],[3.9155328,50.9820881],[3.9153464,50.9821909],[3.9151457,50.9824281],[3.9149571,50.9825683],[3.9147056,50.9826175],[3.914497,50.9825766],[3.9138375,50.9829436],[3.9134854,50.9832491],[3.9131165,50.9834216],[3.9126194,50.9835197],[3.9125046,50.9835436],[3.91183,50.982986],[3.911984,50.981853],[3.911104,50.98151],[3.911137,50.981094],[3.911224,50.980899],[3.910891,50.97998],[3.9108526,50.979809],[3.9107564,50.979653],[3.9108366,50.9795469],[3.9108017,50.9794013],[3.9095531,50.9791401],[3.9091391,50.9793063],[3.9084773,50.9789939],[3.907992,50.979377],[3.907758,50.979984],[3.907413,50.980361],[3.906928,50.980434],[3.906669,50.98072],[3.9065133,50.9806873],[3.9059385,50.9805516],[3.905533,50.9804557],[3.9051806,50.9803733],[3.9048528,50.9802973],[3.9047555,50.9802831],[3.9044611,50.9802395],[3.9038839,50.9801557],[3.9037979,50.9801444],[3.9037669,50.9801743],[3.9032427,50.9803123],[3.9031555,50.9803444],[3.9030257,50.9804175],[3.9029406,50.9804572],[3.9025807,50.9805612],[3.9024794,50.9805763],[3.9022439,50.9806347],[3.9019335,50.9803247],[3.9009285,50.979335],[3.900861,50.9793067],[3.8993575,50.978438],[3.8986629,50.9780345],[3.8981261,50.9777224],[3.8979898,50.9776433],[3.8975387,50.9777464],[3.8973369,50.9777925],[3.8971244,50.9778412],[3.8969201,50.9778889],[3.8967149,50.9779372],[3.8964649,50.9779966],[3.8962499,50.9780476],[3.8961084,50.9780807],[3.8959751,50.9781129],[3.8956137,50.9782014],[3.8955135,50.9782261],[3.8952547,50.9779894],[3.8947225,50.9775027],[3.8946434,50.9774052],[3.8945963,50.9773709],[3.8944803,50.9772615],[3.8944446,50.9772238],[3.8944031,50.9771697],[3.8943777,50.9771216],[3.8943524,50.977085],[3.8943359,50.9770718],[3.8943118,50.9770565],[3.894203,50.977003],[3.8941307,50.9769635],[3.8940793,50.9769259],[3.8940641,50.9769103],[3.8940515,50.9768914],[3.894436,50.976463],[3.893958,50.975852],[3.893561,50.975669],[3.893309,50.975185],[3.893282,50.97504],[3.893,50.974803],[3.892691,50.974281],[3.892408,50.974155],[3.892155,50.973758],[3.892131,50.973381],[3.890537,50.973285],[3.889966,50.973354],[3.889942,50.972885],[3.889544,50.972885],[3.8861229,50.9718173],[3.884773,50.971481],[3.884632,50.971321],[3.883894,50.971118],[3.88358,50.971118],[3.883185,50.970794],[3.882502,50.970718],[3.881761,50.970825],[3.880733,50.971073],[3.88022,50.971107],[3.879309,50.971084],[3.878546,50.970489],[3.878577,50.970253],[3.878663,50.970146],[3.877902,50.969352],[3.878586,50.969284],[3.8788861,50.9691789],[3.8791,50.969104],[3.879046,50.968872],[3.87882,50.968692],[3.87868,50.968437],[3.878767,50.968185],[3.878911,50.968063],[3.877807,50.967376],[3.877638,50.967174],[3.877296,50.967174],[3.876874,50.966671],[3.876139,50.966075],[3.875406,50.965335],[3.874926,50.964935],[3.874102,50.964733],[3.873591,50.9645],[3.87291,50.964336],[3.871288,50.964149],[3.870745,50.964363],[3.868613,50.963958],[3.868617,50.963581],[3.868762,50.963275],[3.86916,50.963333],[3.869332,50.963207],[3.869393,50.962829],[3.869767,50.962436],[3.8705878,50.9618722],[3.870655,50.961826],[3.870685,50.961666],[3.870402,50.961574],[3.870546,50.961414],[3.870464,50.961017],[3.870235,50.961124],[3.870209,50.960891],[3.869926,50.960674],[3.869927,50.960601],[3.870127,50.960495],[3.870044,50.960296],[3.870244,50.960208],[3.870132,50.959991],[3.870333,50.959793],[3.870335,50.959594],[3.870479,50.959472],[3.870196,50.959236],[3.870114,50.958892],[3.868984,50.957992],[3.868872,50.957794],[3.868959,50.95763],[3.868847,50.957416],[3.86919,50.957309],[3.868994,50.956966],[3.86888,50.956874],[3.868653,50.956821],[3.868455,50.956695],[3.868514,50.956531],[3.868144,50.956424],[3.868004,50.95626],[3.867538,50.956043]]]}}]}