{"type":"FeatureCollection","name":"Dender County official railway crossings","bbox":[3.867538,50.8741244,4.1634322,50.9948309],"features":[{"type":"Feature","id":"infrabel/geoow/376","properties":{"fld_naam_ramses":"L-50-6","fld_actief_passief":"Actieve signalisatie met halve slagbomen","fld_geo_x":"4.017693088160543","fld_geo_y":"50.95361389737366","fld_postcode_en_gemeente":"9308 HOFSTADE (AALST)","source":"Infrabel Open Data","source_dataset":"geoow","source_id":"infrabel/geoow/376","kind":"level_crossing"},"geometry":{"type":"Point","coordinates":[4.017693088160543,50.95361389737366]}},{"type":"Feature","id":"infrabel/geoow/377","properties":{"fld_naam_ramses":"L-50-9","fld_actief_passief":"Actieve signalisatie met halve slagbomen","fld_geo_x":"4.00884605771118","fld_geo_y":"50.95832412214602","fld_postcode_en_gemeente":"9340 LEDE (LEDE)","source":"Infrabel Open Data","source_dataset":"geoow","source_id":"infrabel/geoow/377","kind":"level_crossing"},"geometry":{"type":"Point","coordinates":[4.00884605771118,50.95832412214602]}},{"type":"Feature","id":"infrabel/geoow/378","properties":{"fld_naam_ramses":"L-50-10","fld_actief_passief":"Actieve signalisatie met halve slagbomen","fld_geo_x":"4.004255366295968","fld_geo_y":"50.96076705685225","fld_postcode_en_gemeente":"9340 LEDE (LEDE)","source":"Infrabel Open Data","source_dataset":"geoow","source_id":"infrabel/geoow/378","kind":"level_crossing"},"geometry":{"type":"Point","coordinates":[4.004255366295968,50.96076705685225]}},{"type":"Feature","id":"infrabel/geoow/379","properties":{"fld_naam_ramses":"L-50-12","fld_actief_passief":"Actieve signalisatie met halve slagbomen","fld_geo_x":"3.996676810253038","fld_geo_y":"50.96480033018058","fld_postcode_en_gemeente":"9340 LEDE (LEDE)","source":"Infrabel Open Data","source_dataset":"geoow","source_id":"infrabel/geoow/379","kind":"level_crossing"},"geometry":{"type":"Point","coordinates":[3.996676810253038,50.96480033018058]}},{"type":"Feature","id":"infrabel/geoow/382","properties":{"fld_naam_ramses":"L-50-15","fld_actief_passief":"Actieve signalisatie met halve slagbomen","fld_geo_x":"3.987281637397676","fld_geo_y":"50.96979898932925","fld_postcode_en_gemeente":"9340 LEDE (LEDE)","source":"Infrabel Open Data","source_dataset":"geoow","source_id":"infrabel/geoow/382","kind":"level_crossing"},"geometry":{"type":"Point","coordinates":[3.987281637397676,50.96979898932925]}},{"type":"Feature","id":"infrabel/geoow/384","properties":{"fld_naam_ramses":"L-50-18","fld_actief_passief":"Actieve signalisatie met halve slagbomen","fld_geo_x":"3.9831843482155596","fld_geo_y":"50.9719760736945","fld_postcode_en_gemeente":"9340 LEDE (LEDE)","source":"Infrabel Open Data","source_dataset":"geoow","source_id":"infrabel/geoow/384","kind":"level_crossing"},"geometry":{"type":"Point","coordinates":[3.9831843482155596,50.9719760736945]}},{"type":"Feature","id":"infrabel/geoow/385","properties":{"fld_naam_ramses":"L-50-19","fld_actief_passief":"Actieve signalisatie met halve slagbomen","fld_geo_x":"3.9750159463932997","fld_geo_y":"50.9763152483778","fld_postcode_en_gemeente":"9340 LEDE (LEDE)","source":"Infrabel Open Data","source_dataset":"geoow","source_id":"infrabel/geoow/385","kind":"level_crossing"},"geometry":{"type":"Point","coordinates":[3.9750159463932997,50.9763152483778]}},{"type":"Feature","id":"infrabel/geoow/387","properties":{"fld_naam_ramses":"L-50-22","fld_actief_passief":"Actieve signalisatie met halve slagbomen","fld_geo_x":"3.970408142240194","fld_geo_y":"50.978763993497644","fld_postcode_en_gemeente":"9340 LEDE (LEDE)","source":"Infrabel Open Data","source_dataset":"geoow","source_id":"infrabel/geoow/387","kind":"level_crossing"},"geometry":{"type":"Point","coordinates":[3.970408142240194,50.978763993497644]}},{"type":"Feature","id":"infrabel/geoow/388","properties":{"fld_naam_ramses":"L-50-24","fld_actief_passief":"Actieve signalisatie met halve slagbomen","fld_geo_x":"3.962458964489737","fld_geo_y":"50.98298689411566","fld_postcode_en_gemeente":"9260 SERSKAMP (WICHELEN)","source":"Infrabel Open Data","source_dataset":"geoow","source_id":"infrabel/geoow/388","kind":"level_crossing"},"geometry":{"type":"Point","coordinates":[3.962458964489737,50.98298689411566]}},{"type":"Feature","id":"infrabel/geoow/389","properties":{"fld_naam_ramses":"L-50-25","fld_actief_passief":"Actieve signalisatie met halve slagbomen","fld_geo_x":"3.958100666712023","fld_geo_y":"50.985302166093355","fld_postcode_en_gemeente":"9260 SERSKAMP (WICHELEN)","source":"Infrabel Open Data","source_dataset":"geoow","source_id":"infrabel/geoow/389","kind":"level_crossing"},"geometry":{"type":"Point","coordinates":[3.958100666712023,50.985302166093355]}},{"type":"Feature","id":"infrabel/geoow/391","properties":{"fld_naam_ramses":"L-50-27","fld_actief_passief":"Actieve signalisatie met halve slagbomen","fld_geo_x":"3.9467559447553087","fld_geo_y":"50.99132678670152","fld_postcode_en_gemeente":"9260 SCHELLEBELLE (WICHELEN)","source":"Infrabel Open Data","source_dataset":"geoow","source_id":"infrabel/geoow/391","kind":"level_crossing"},"geometry":{"type":"Point","coordinates":[3.9467559447553087,50.99132678670152]}},{"type":"Feature","id":"infrabel/geoow/392","properties":{"fld_naam_ramses":"L-50-31","fld_actief_passief":"Actieve signalisatie met halve slagbomen","fld_geo_x":"4.163244811265816","fld_geo_y":"50.874754872544344","fld_postcode_en_gemeente":"1740 TERNAT (TERNAT)","source":"Infrabel Open Data","source_dataset":"geoow","source_id":"infrabel/geoow/392","kind":"level_crossing"},"geometry":{"type":"Point","coordinates":[4.163244811265816,50.874754872544344]}},{"type":"Feature","id":"infrabel/geoow/395","properties":{"fld_naam_ramses":"L-50-34","fld_actief_passief":"Actieve signalisatie met halve slagbomen","fld_geo_x":"4.155365557720297","fld_geo_y":"50.8751297396833","fld_postcode_en_gemeente":"1742 SINT-KATHERINA-LOMBEEK (TERNAT)","source":"Infrabel Open Data","source_dataset":"geoow","source_id":"infrabel/geoow/395","kind":"level_crossing"},"geometry":{"type":"Point","coordinates":[4.155365557720297,50.8751297396833]}},{"type":"Feature","id":"infrabel/geoow/396","properties":{"fld_naam_ramses":"L-50-36","fld_actief_passief":"Actieve signalisatie met halve slagbomen","fld_geo_x":"4.143568152693342","fld_geo_y":"50.877911671166245","fld_postcode_en_gemeente":"1742 SINT-KATHERINA-LOMBEEK (TERNAT)","source":"Infrabel Open Data","source_dataset":"geoow","source_id":"infrabel/geoow/396","kind":"level_crossing"},"geometry":{"type":"Point","coordinates":[4.143568152693342,50.877911671166245]}},{"type":"Feature","id":"infrabel/geoow/397","properties":{"fld_naam_ramses":"L-50-38","fld_actief_passief":"Actieve signalisatie met halve slagbomen","fld_geo_x":"4.130531763945677","fld_geo_y":"50.88166059936829","fld_postcode_en_gemeente":"1742 SINT-KATHERINA-LOMBEEK (TERNAT)","source":"Infrabel Open Data","source_dataset":"geoow","source_id":"infrabel/geoow/397","kind":"level_crossing"},"geometry":{"type":"Point","coordinates":[4.130531763945677,50.88166059936829]}},{"type":"Feature","id":"infrabel/geoow/398","properties":{"fld_naam_ramses":"L-50-39","fld_actief_passief":"Actieve signalisatie met halve slagbomen","fld_geo_x":"4.11700658362647","fld_geo_y":"50.88237371791721","fld_postcode_en_gemeente":"1742 SINT-KATHERINA-LOMBEEK (TERNAT)","source":"Infrabel Open Data","source_dataset":"geoow","source_id":"infrabel/geoow/398","kind":"level_crossing"},"geometry":{"type":"Point","coordinates":[4.11700658362647,50.88237371791721]}},{"type":"Feature","id":"infrabel/geoow/592","properties":{"fld_naam_ramses":"L-60-31","fld_actief_passief":"Actieve signalisatie met halve slagbomen","fld_geo_x":"4.156211110234949","fld_geo_y":"50.98950920887057","fld_postcode_en_gemeente":"9280 LEBBEKE (LEBBEKE)","source":"Infrabel Open Data","source_dataset":"geoow","source_id":"infrabel/geoow/592","kind":"level_crossing"},"geometry":{"type":"Point","coordinates":[4.156211110234949,50.98950920887057]}},{"type":"Feature","id":"infrabel/geoow/791","properties":{"fld_naam_ramses":"L-82-1","fld_actief_passief":"Actieve signalisatie met halve slagbomen","fld_geo_x":"4.025032839919692","fld_geo_y":"50.94821138054785","fld_postcode_en_gemeente":"9300 AALST (AALST)","source":"Infrabel Open Data","source_dataset":"geoow","source_id":"infrabel/geoow/791","kind":"level_crossing"},"geometry":{"type":"Point","coordinates":[4.025032839919692,50.94821138054785]}},{"type":"Feature","id":"infrabel/geoow/792","properties":{"fld_naam_ramses":"L-82-2","fld_actief_passief":"Actieve signalisatie met halve slagbomen","fld_geo_x":"4.015948132903459","fld_geo_y":"50.94845635265576","fld_postcode_en_gemeente":"9300 AALST (AALST)","source":"Infrabel Open Data","source_dataset":"geoow","source_id":"infrabel/geoow/792","kind":"level_crossing"},"geometry":{"type":"Point","coordinates":[4.015948132903459,50.94845635265576]}},{"type":"Feature","id":"infrabel/geoow/793","properties":{"fld_naam_ramses":"L-82-3","fld_actief_passief":"Actieve signalisatie zonder slagbomen","fld_geo_x":"4.002738406135211","fld_geo_y":"50.946795793653074","fld_postcode_en_gemeente":"9420 ERPE (ERPE-MERE)","source":"Infrabel Open Data","source_dataset":"geoow","source_id":"infrabel/geoow/793","kind":"level_crossing"},"geometry":{"type":"Point","coordinates":[4.002738406135211,50.946795793653074]}},{"type":"Feature","id":"infrabel/geoow/794","properties":{"fld_naam_ramses":"L-82-4","fld_actief_passief":"Actieve signalisatie met halve slagbomen","fld_geo_x":"3.9997466425035753","fld_geo_y":"50.94590091385194","fld_postcode_en_gemeente":"9420 ERPE (ERPE-MERE)","source":"Infrabel Open Data","source_dataset":"geoow","source_id":"infrabel/geoow/794","kind":"level_crossing"},"geometry":{"type":"Point","coordinates":[3.9997466425035753,50.94590091385194]}},{"type":"Feature","id":"infrabel/geoow/795","properties":{"fld_naam_ramses":"L-82-5","fld_actief_passief":"Actieve signalisatie met halve slagbomen","fld_geo_x":"3.997558064265587","fld_geo_y":"50.9455320329128","fld_postcode_en_gemeente":"9420 ERPE (ERPE-MERE)","source":"Infrabel Open Data","source_dataset":"geoow","source_id":"infrabel/geoow/795","kind":"level_crossing"},"geometry":{"type":"Point","coordinates":[3.997558064265587,50.9455320329128]}},{"type":"Feature","id":"infrabel/geoow/796","properties":{"fld_naam_ramses":"L-82-6","fld_actief_passief":"Actieve signalisatie met halve slagbomen","fld_geo_x":"3.990053096499607","fld_geo_y":"50.94457063186754","fld_postcode_en_gemeente":"9420 ERPE (ERPE-MERE)","source":"Infrabel Open Data","source_dataset":"geoow","source_id":"infrabel/geoow/796","kind":"level_crossing"},"geometry":{"type":"Point","coordinates":[3.990053096499607,50.94457063186754]}},{"type":"Feature","id":"infrabel/geoow/797","properties":{"fld_naam_ramses":"L-82-7","fld_actief_passief":"Actieve signalisatie met halve slagbomen","fld_geo_x":"3.983869688312733","fld_geo_y":"50.943561568965926","fld_postcode_en_gemeente":"9420 ERPE (ERPE-MERE)","source":"Infrabel Open Data","source_dataset":"geoow","source_id":"infrabel/geoow/797","kind":"level_crossing"},"geometry":{"type":"Point","coordinates":[3.983869688312733,50.943561568965926]}},{"type":"Feature","id":"infrabel/geoow/798","properties":{"fld_naam_ramses":"L-82-9","fld_actief_passief":"Actieve signalisatie met halve slagbomen","fld_geo_x":"3.975493926235752","fld_geo_y":"50.940223006390724","fld_postcode_en_gemeente":"9420 ERPE (ERPE-MERE)","source":"Infrabel Open Data","source_dataset":"geoow","source_id":"infrabel/geoow/798","kind":"level_crossing"},"geometry":{"type":"Point","coordinates":[3.975493926235752,50.940223006390724]}},{"type":"Feature","id":"infrabel/geoow/799","properties":{"fld_naam_ramses":"L-82-10","fld_actief_passief":"Actieve signalisatie met halve slagbomen","fld_geo_x":"3.971249736306937","fld_geo_y":"50.937534584134795","fld_postcode_en_gemeente":"9420 ERPE (ERPE-MERE)","source":"Infrabel Open Data","source_dataset":"geoow","source_id":"infrabel/geoow/799","kind":"level_crossing"},"geometry":{"type":"Point","coordinates":[3.971249736306937,50.937534584134795]}},{"type":"Feature","id":"infrabel/geoow/800","properties":{"fld_naam_ramses":"L-82-11","fld_actief_passief":"Actieve signalisatie met halve slagbomen","fld_geo_x":"3.9664989086178384","fld_geo_y":"50.93427614321806","fld_postcode_en_gemeente":"9420 ERPE (ERPE-MERE)","source":"Infrabel Open Data","source_dataset":"geoow","source_id":"infrabel/geoow/800","kind":"level_crossing"},"geometry":{"type":"Point","coordinates":[3.9664989086178384,50.93427614321806]}},{"type":"Feature","id":"infrabel/geoow/801","properties":{"fld_naam_ramses":"L-82-12","fld_actief_passief":"Actieve signalisatie met halve slagbomen","fld_geo_x":"3.963073877191502","fld_geo_y":"50.9297072881885","fld_postcode_en_gemeente":"9420 ERPE (ERPE-MERE)","source":"Infrabel Open Data","source_dataset":"geoow","source_id":"infrabel/geoow/801","kind":"level_crossing"},"geometry":{"type":"Point","coordinates":[3.963073877191502,50.9297072881885]}},{"type":"Feature","id":"infrabel/geoow/802","properties":{"fld_naam_ramses":"L-82-13","fld_actief_passief":"Actieve signalisatie met halve slagbomen","fld_geo_x":"3.9612636480599437","fld_geo_y":"50.9261138887101","fld_postcode_en_gemeente":"9420 MERE (ERPE-MERE)","source":"Infrabel Open Data","source_dataset":"geoow","source_id":"infrabel/geoow/802","kind":"level_crossing"},"geometry":{"type":"Point","coordinates":[3.9612636480599437,50.9261138887101]}},{"type":"Feature","id":"infrabel/geoow/803","properties":{"fld_naam_ramses":"L-82-14","fld_actief_passief":"Actieve signalisatie zonder slagbomen","fld_geo_x":"3.9527207387049943","fld_geo_y":"50.92107722840418","fld_postcode_en_gemeente":"9420 MERE (ERPE-MERE)","source":"Infrabel Open Data","source_dataset":"geoow","source_id":"infrabel/geoow/803","kind":"level_crossing"},"geometry":{"type":"Point","coordinates":[3.9527207387049943,50.92107722840418]}},{"type":"Feature","id":"infrabel/geoow/804","properties":{"fld_naam_ramses":"L-82-15","fld_actief_passief":"Actieve signalisatie zonder slagbomen","fld_geo_x":"3.9455052542743125","fld_geo_y":"50.91794068682734","fld_postcode_en_gemeente":"9420 MERE (ERPE-MERE)","source":"Infrabel Open Data","source_dataset":"geoow","source_id":"infrabel/geoow/804","kind":"level_crossing"},"geometry":{"type":"Point","coordinates":[3.9455052542743125,50.91794068682734]}},{"type":"Feature","id":"infrabel/geoow/805","properties":{"fld_naam_ramses":"L-82-16","fld_actief_passief":"Actieve signalisatie zonder slagbomen","fld_geo_x":"3.940454997870142","fld_geo_y":"50.91574542662731","fld_postcode_en_gemeente":"9420 BAMBRUGGE (ERPE-MERE)","source":"Infrabel Open Data","source_dataset":"geoow","source_id":"infrabel/geoow/805","kind":"level_crossing"},"geometry":{"type":"Point","coordinates":[3.940454997870142,50.91574542662731]}},{"type":"Feature","id":"infrabel/geoow/806","properties":{"fld_naam_ramses":"L-82-17","fld_actief_passief":"Actieve signalisatie met halve slagbomen","fld_geo_x":"3.9353404522237043","fld_geo_y":"50.913479501316075","fld_postcode_en_gemeente":"9420 BAMBRUGGE (ERPE-MERE)","source":"Infrabel Open Data","source_dataset":"geoow","source_id":"infrabel/geoow/806","kind":"level_crossing"},"geometry":{"type":"Point","coordinates":[3.9353404522237043,50.913479501316075]}},{"type":"Feature","id":"infrabel/geoow/807","properties":{"fld_naam_ramses":"L-82-18","fld_actief_passief":"Actieve signalisatie met halve slagbomen","fld_geo_x":"3.9253831402007107","fld_geo_y":"50.90769494867085","fld_postcode_en_gemeente":"9420 BURST (ERPE-MERE)","source":"Infrabel Open Data","source_dataset":"geoow","source_id":"infrabel/geoow/807","kind":"level_crossing"},"geometry":{"type":"Point","coordinates":[3.9253831402007107,50.90769494867085]}},{"type":"Feature","id":"infrabel/geoow/848","properties":{"fld_naam_ramses":"L-89-2","fld_actief_passief":"Actieve signalisatie met halve slagbomen","fld_geo_x":"4.056266873323455","fld_geo_y":"50.901374310886744","fld_postcode_en_gemeente":"9473 WELLE (DENDERLEEUW)","source":"Infrabel Open Data","source_dataset":"geoow","source_id":"infrabel/geoow/848","kind":"level_crossing"},"geometry":{"type":"Point","coordinates":[4.056266873323455,50.901374310886744]}},{"type":"Feature","id":"infrabel/geoow/849","properties":{"fld_naam_ramses":"L-89-3","fld_actief_passief":"Actieve signalisatie met halve slagbomen","fld_geo_x":"4.0504567742902005","fld_geo_y":"50.90316337099093","fld_postcode_en_gemeente":"9473 WELLE (DENDERLEEUW)","source":"Infrabel Open Data","source_dataset":"geoow","source_id":"infrabel/geoow/849","kind":"level_crossing"},"geometry":{"type":"Point","coordinates":[4.0504567742902005,50.90316337099093]}},{"type":"Feature","id":"infrabel/geoow/850","properties":{"fld_naam_ramses":"L-89-5","fld_actief_passief":"Actieve signalisatie met halve slagbomen","fld_geo_x":"4.042153566165094","fld_geo_y":"50.904417300076005","fld_postcode_en_gemeente":"9473 WELLE (DENDERLEEUW)","source":"Infrabel Open Data","source_dataset":"geoow","source_id":"infrabel/geoow/850","kind":"level_crossing"},"geometry":{"type":"Point","coordinates":[4.042153566165094,50.904417300076005]}},{"type":"Feature","id":"infrabel/geoow/851","properties":{"fld_naam_ramses":"L-89-8","fld_actief_passief":"Actieve signalisatie met halve slagbomen","fld_geo_x":"4.027027942478396","fld_geo_y":"50.906385465248675","fld_postcode_en_gemeente":"9450 HAALTERT (HAALTERT)","source":"Infrabel Open Data","source_dataset":"geoow","source_id":"infrabel/geoow/851","kind":"level_crossing"},"geometry":{"type":"Point","coordinates":[4.027027942478396,50.906385465248675]}},{"type":"Feature","id":"infrabel/geoow/852","properties":{"fld_naam_ramses":"L-89-9","fld_actief_passief":"Actieve signalisatie met halve slagbomen","fld_geo_x":"4.024234523508433","fld_geo_y":"50.90674831409524","fld_postcode_en_gemeente":"9450 HAALTERT (HAALTERT)","source":"Infrabel Open Data","source_dataset":"geoow","source_id":"infrabel/geoow/852","kind":"level_crossing"},"geometry":{"type":"Point","coordinates":[4.024234523508433,50.90674831409524]}},{"type":"Feature","id":"infrabel/geoow/853","properties":{"fld_naam_ramses":"L-89-10","fld_actief_passief":"Actieve signalisatie met halve slagbomen","fld_geo_x":"4.0157685224263355","fld_geo_y":"50.90812530625385","fld_postcode_en_gemeente":"9320 NIEUWERKERKEN (AALST)","source":"Infrabel Open Data","source_dataset":"geoow","source_id":"infrabel/geoow/853","kind":"level_crossing"},"geometry":{"type":"Point","coordinates":[4.0157685224263355,50.90812530625385]}},{"type":"Feature","id":"infrabel/geoow/854","properties":{"fld_naam_ramses":"L-89-12","fld_actief_passief":"Actieve signalisatie met halve slagbomen","fld_geo_x":"4.003429148908261","fld_geo_y":"50.91093451196286","fld_postcode_en_gemeente":"9450 HAALTERT (HAALTERT)","source":"Infrabel Open Data","source_dataset":"geoow","source_id":"infrabel/geoow/854","kind":"level_crossing"},"geometry":{"type":"Point","coordinates":[4.003429148908261,50.91093451196286]}},{"type":"Feature","id":"infrabel/geoow/855","properties":{"fld_naam_ramses":"L-89-16","fld_actief_passief":"Actieve signalisatie met halve slagbomen","fld_geo_x":"3.986910556425426","fld_geo_y":"50.91095370750714","fld_postcode_en_gemeente":"9450 HAALTERT (HAALTERT)","source":"Infrabel Open Data","source_dataset":"geoow","source_id":"infrabel/geoow/855","kind":"level_crossing"},"geometry":{"type":"Point","coordinates":[3.986910556425426,50.91095370750714]}},{"type":"Feature","id":"infrabel/geoow/856","properties":{"fld_naam_ramses":"L-89-19","fld_actief_passief":"Actieve signalisatie met halve slagbomen","fld_geo_x":"3.97318727915381","fld_geo_y":"50.91025851662811","fld_postcode_en_gemeente":"9420 MERE (ERPE-MERE)","source":"Infrabel Open Data","source_dataset":"geoow","source_id":"infrabel/geoow/856","kind":"level_crossing"},"geometry":{"type":"Point","coordinates":[3.97318727915381,50.91025851662811]}},{"type":"Feature","id":"infrabel/geoow/857","properties":{"fld_naam_ramses":"L-89-20","fld_actief_passief":"Actieve signalisatie met halve slagbomen","fld_geo_x":"3.968609865429275","fld_geo_y":"50.910070707672865","fld_postcode_en_gemeente":"9420 MERE (ERPE-MERE)","source":"Infrabel Open Data","source_dataset":"geoow","source_id":"infrabel/geoow/857","kind":"level_crossing"},"geometry":{"type":"Point","coordinates":[3.968609865429275,50.910070707672865]}},{"type":"Feature","id":"infrabel/geoow/858","properties":{"fld_naam_ramses":"L-89-24","fld_actief_passief":"Actieve signalisatie met halve slagbomen","fld_geo_x":"3.9386588493488985","fld_geo_y":"50.9077053194211","fld_postcode_en_gemeente":"9420 AAIGEM (ERPE-MERE)","source":"Infrabel Open Data","source_dataset":"geoow","source_id":"infrabel/geoow/858","kind":"level_crossing"},"geometry":{"type":"Point","coordinates":[3.9386588493488985,50.9077053194211]}},{"type":"Feature","id":"infrabel/geoow/859","properties":{"fld_naam_ramses":"L-89-25","fld_actief_passief":"Actieve signalisatie met halve slagbomen","fld_geo_x":"3.9256228761352987","fld_geo_y":"50.907421312294105","fld_postcode_en_gemeente":"9420 BURST (ERPE-MERE)","source":"Infrabel Open Data","source_dataset":"geoow","source_id":"infrabel/geoow/859","kind":"level_crossing"},"geometry":{"type":"Point","coordinates":[3.9256228761352987,50.907421312294105]}},{"type":"Feature","id":"infrabel/geoow/860","properties":{"fld_naam_ramses":"L-89-26","fld_actief_passief":"Actieve signalisatie met halve slagbomen","fld_geo_x":"3.9226257116430125","fld_geo_y":"50.90713858799026","fld_postcode_en_gemeente":"9420 BURST (ERPE-MERE)","source":"Infrabel Open Data","source_dataset":"geoow","source_id":"infrabel/geoow/860","kind":"level_crossing"},"geometry":{"type":"Point","coordinates":[3.9226257116430125,50.90713858799026]}},{"type":"Feature","id":"infrabel/geoow/861","properties":{"fld_naam_ramses":"L-89-27","fld_actief_passief":"Actieve signalisatie met halve slagbomen","fld_geo_x":"3.9171340329387503","fld_geo_y":"50.906415726082535","fld_postcode_en_gemeente":"9420 BURST (ERPE-MERE)","source":"Infrabel Open Data","source_dataset":"geoow","source_id":"infrabel/geoow/861","kind":"level_crossing"},"geometry":{"type":"Point","coordinates":[3.9171340329387503,50.906415726082535]}},{"type":"Feature","id":"infrabel/geoow/862","properties":{"fld_naam_ramses":"L-89-30","fld_actief_passief":"Actieve signalisatie met halve slagbomen","fld_geo_x":"3.8965481069270242","fld_geo_y":"50.90153337222965","fld_postcode_en_gemeente":"9552 BORSBEKE (HERZELE)","source":"Infrabel Open Data","source_dataset":"geoow","source_id":"infrabel/geoow/862","kind":"level_crossing"},"geometry":{"type":"Point","coordinates":[3.8965481069270242,50.90153337222965]}},{"type":"Feature","id":"infrabel/geoow/863","properties":{"fld_naam_ramses":"L-89-31","fld_actief_passief":"Actieve signalisatie met halve slagbomen","fld_geo_x":"3.889450912167531","fld_geo_y":"50.89945890180614","fld_postcode_en_gemeente":"9552 BORSBEKE (HERZELE)","source":"Infrabel Open Data","source_dataset":"geoow","source_id":"infrabel/geoow/863","kind":"level_crossing"},"geometry":{"type":"Point","coordinates":[3.889450912167531,50.89945890180614]}},{"type":"Feature","id":"infrabel/geoow/864","properties":{"fld_naam_ramses":"L-89-32","fld_actief_passief":"Actieve signalisatie met halve slagbomen","fld_geo_x":"3.8810169553046046","fld_geo_y":"50.897306094590576","fld_postcode_en_gemeente":"9550 HERZELE (HERZELE)","source":"Infrabel Open Data","source_dataset":"geoow","source_id":"infrabel/geoow/864","kind":"level_crossing"},"geometry":{"type":"Point","coordinates":[3.8810169553046046,50.897306094590576]}},{"type":"Feature","id":"infrabel/geoow/865","properties":{"fld_naam_ramses":"L-89-34","fld_actief_passief":"Actieve signalisatie met halve slagbomen","fld_geo_x":"3.8676141850531134","fld_geo_y":"50.89388375508004","fld_postcode_en_gemeente":"9550 HILLEGEM (HERZELE)","source":"Infrabel Open Data","source_dataset":"geoow","source_id":"infrabel/geoow/865","kind":"level_crossing"},"geometry":{"type":"Point","coordinates":[3.8676141850531134,50.89388375508004]}},{"type":"Feature","id":"infrabel/geoow/907","properties":{"fld_naam_ramses":"L-90-48","fld_actief_passief":"Actieve signalisatie met halve slagbomen","fld_geo_x":"4.074284105745652","fld_geo_y":"50.88464921646281","fld_postcode_en_gemeente":"9470 DENDERLEEUW (DENDERLEEUW)","source":"Infrabel Open Data","source_dataset":"geoow","source_id":"infrabel/geoow/907","kind":"level_crossing"},"geometry":{"type":"Point","coordinates":[4.074284105745652,50.88464921646281]}},{"type":"Feature","id":"infrabel/geoow/908","properties":{"fld_naam_ramses":"L-90-49","fld_actief_passief":"Actieve signalisatie met halve slagbomen","fld_geo_x":"4.072790273007436","fld_geo_y":"50.882611775094915","fld_postcode_en_gemeente":"9470 DENDERLEEUW (DENDERLEEUW)","source":"Infrabel Open Data","source_dataset":"geoow","source_id":"infrabel/geoow/908","kind":"level_crossing"},"geometry":{"type":"Point","coordinates":[4.072790273007436,50.882611775094915]}},{"type":"Feature","id":"infrabel/geoow/909","properties":{"fld_naam_ramses":"L-90-50","fld_actief_passief":"Actieve signalisatie met halve slagbomen","fld_geo_x":"4.068437301653589","fld_geo_y":"50.87667513129049","fld_postcode_en_gemeente":"9470 DENDERLEEUW (DENDERLEEUW)","source":"Infrabel Open Data","source_dataset":"geoow","source_id":"infrabel/geoow/909","kind":"level_crossing"},"geometry":{"type":"Point","coordinates":[4.068437301653589,50.87667513129049]}}]}