{"type":"FeatureCollection","features":[{"type":"Feature","id":"gebouw/Gebouw.9563683/0","properties":{"source":"Digitaal Vlaanderen Gebouwenregister","source_id":"gebouw/Gebouw.9563683/0","kind":"building","height_m":7.16,"status":null},"geometry":{"type":"Polygon","coordinates":[[[3.91250176,50.98296212],[3.91254132,50.98298881],[3.91255204,50.98299737],[3.91251827,50.9830157],[3.91250725,50.98300695],[3.91248191,50.98302088],[3.91249324,50.98302907],[3.91246099,50.98304574],[3.91241403,50.98300847],[3.91250176,50.98296212]]]}},{"type":"Feature","id":"gebouw/Gebouw.31001648/0","properties":{"source":"Digitaal Vlaanderen Gebouwenregister","source_id":"gebouw/Gebouw.31001648/0","kind":"building","height_m":9.32,"status":null},"geometry":{"type":"Polygon","coordinates":[[[3.91195777,50.98186271],[3.91197894,50.98183567],[3.91210676,50.98187557],[3.91208559,50.9819026],[3.91195777,50.98186271]]]}}]}