{"type":"FeatureCollection","features":[{"type":"Feature","id":"gebouw/Gebouw.9043787/0","properties":{"source":"Digitaal Vlaanderen Gebouwenregister","source_id":"gebouw/Gebouw.9043787/0","kind":"building","height_m":7.88,"status":null},"geometry":{"type":"Polygon","coordinates":[[[3.91306576,50.97485506],[3.91305117,50.97486317],[3.91310814,50.97490363],[3.91320327,50.97485022],[3.91314668,50.97481004],[3.91306576,50.97485506]]]}},{"type":"Feature","id":"gebouw/Gebouw.9044154/0","properties":{"source":"Digitaal Vlaanderen Gebouwenregister","source_id":"gebouw/Gebouw.9044154/0","kind":"building","height_m":5.0,"status":null},"geometry":{"type":"Polygon","coordinates":[[[3.91383732,50.97551859],[3.91374687,50.97544983],[3.91386451,50.97538814],[3.91393358,50.97544028],[3.91390526,50.97545456],[3.9139261,50.97547204],[3.91383732,50.97551859]]]}},{"type":"Feature","id":"gebouw/Gebouw.9044505/0","properties":{"source":"Digitaal Vlaanderen Gebouwenregister","source_id":"gebouw/Gebouw.9044505/0","kind":"building","height_m":5.72,"status":null},"geometry":{"type":"Polygon","coordinates":[[[3.91333529,50.97482744],[3.91329585,50.974797],[3.91332386,50.97478291],[3.913363,50.97481353],[3.91333529,50.97482744]]]}},{"type":"Feature","id":"gebouw/Gebouw.9056957/0","properties":{"source":"Digitaal Vlaanderen Gebouwenregister","source_id":"gebouw/Gebouw.9056957/0","kind":"building","height_m":5.0,"status":null},"geometry":{"type":"Polygon","coordinates":[[[3.91221992,50.97443948],[3.91213616,50.97447186],[3.91205947,50.97439547],[3.91214536,50.9743611],[3.91214987,50.97436497],[3.91219267,50.9743472],[3.91226658,50.97442086],[3.91224736,50.97442887],[3.91221992,50.97443948]]]}},{"type":"Feature","id":"gebouw/Gebouw.9057122/0","properties":{"source":"Digitaal Vlaanderen Gebouwenregister","source_id":"gebouw/Gebouw.9057122/0","kind":"building","height_m":7.88,"status":null},"geometry":{"type":"Polygon","coordinates":[[[3.91231768,50.97429897],[3.91232428,50.97430635],[3.91234622,50.97429706],[3.91242641,50.97437368],[3.91240389,50.97438297],[3.91234678,50.97432797],[3.91231948,50.97433832],[3.91229214,50.97430972],[3.91231768,50.97429897]]]}},{"type":"Feature","id":"gebouw/Gebouw.9057206/0","properties":{"source":"Digitaal Vlaanderen Gebouwenregister","source_id":"gebouw/Gebouw.9057206/0","kind":"building","height_m":7.88,"status":null},"geometry":{"type":"Polygon","coordinates":[[[3.91071385,50.97445617],[3.91050748,50.97455578],[3.91043146,50.97449248],[3.91063844,50.97439339],[3.91063985,50.97439456],[3.91068286,50.97443037],[3.91069329,50.97443905],[3.91071385,50.97445617]]]}},{"type":"Feature","id":"gebouw/Gebouw.9064944/0","properties":{"source":"Digitaal Vlaanderen Gebouwenregister","source_id":"gebouw/Gebouw.9064944/0","kind":"building","height_m":5.0,"status":null},"geometry":{"type":"Polygon","coordinates":[[[3.91346636,50.97526333],[3.91337981,50.9753091],[3.91337907,50.97530854],[3.91332387,50.97526694],[3.9134117,50.9752205],[3.91346636,50.97526333]]]}},{"type":"Feature","id":"gebouw/Gebouw.9069421/0","properties":{"source":"Digitaal Vlaanderen Gebouwenregister","source_id":"gebouw/Gebouw.9069421/0","kind":"building","height_m":7.88,"status":null},"geometry":{"type":"Polygon","coordinates":[[[3.91427915,50.97567521],[3.9142427,50.97564711],[3.91426275,50.97563467],[3.91425516,50.9756297],[3.91422172,50.97560778],[3.9141858,50.97562852],[3.91417303,50.975619],[3.91402729,50.975701],[3.91407671,50.9757353],[3.9140601,50.97574503],[3.91410837,50.9757782],[3.91424204,50.97570279],[3.91423552,50.97569777],[3.91427915,50.97567521]]]}},{"type":"Feature","id":"gebouw/Gebouw.9069424/0","properties":{"source":"Digitaal Vlaanderen Gebouwenregister","source_id":"gebouw/Gebouw.9069424/0","kind":"building","height_m":5.0,"status":null},"geometry":{"type":"Polygon","coordinates":[[[3.91300965,50.97476364],[3.91297321,50.97478175],[3.91294391,50.97476023],[3.91298006,50.97474119],[3.91300965,50.97476364]]]}},{"type":"Feature","id":"gebouw/Gebouw.9069766/0","properties":{"source":"Digitaal Vlaanderen Gebouwenregister","source_id":"gebouw/Gebouw.9069766/0","kind":"building","height_m":9.32,"status":null},"geometry":{"type":"Polygon","coordinates":[[[3.91396682,50.97572932],[3.91400081,50.97575344],[3.91391639,50.97580281],[3.91383903,50.97575007],[3.91395532,50.97568704],[3.91399338,50.9757139],[3.91396682,50.97572932]]]}},{"type":"Feature","id":"gebouw/Gebouw.9100779/0","properties":{"source":"Digitaal Vlaanderen Gebouwenregister","source_id":"gebouw/Gebouw.9100779/0","kind":"building","height_m":6.44,"status":null},"geometry":{"type":"Polygon","coordinates":[[[3.91309824,50.97500688],[3.91315281,50.97504658],[3.913002,50.97512932],[3.91287165,50.97503464],[3.91299033,50.97496953],[3.91306599,50.97502392],[3.91309824,50.97500688]]]}},{"type":"Feature","id":"gebouw/Gebouw.9125383/0","properties":{"source":"Digitaal Vlaanderen Gebouwenregister","source_id":"gebouw/Gebouw.9125383/0","kind":"building","height_m":5.72,"status":null},"geometry":{"type":"Polygon","coordinates":[[[3.9136828,50.97545564],[3.91374175,50.97542866],[3.91367561,50.97537107],[3.91361666,50.97539805],[3.9136828,50.97545564]]]}},{"type":"Feature","id":"gebouw/Gebouw.9125384/0","properties":{"source":"Digitaal Vlaanderen Gebouwenregister","source_id":"gebouw/Gebouw.9125384/0","kind":"building","height_m":6.44,"status":null},"geometry":{"type":"Polygon","coordinates":[[[3.91404017,50.97485846],[3.91398436,50.97488945],[3.91390441,50.97483437],[3.91394997,50.97480888],[3.91400023,50.97484487],[3.91401542,50.97484187],[3.91404017,50.97485846]]]}},{"type":"Feature","id":"gebouw/Gebouw.9132318/0","properties":{"source":"Digitaal Vlaanderen Gebouwenregister","source_id":"gebouw/Gebouw.9132318/0","kind":"building","height_m":9.32,"status":null},"geometry":{"type":"Polygon","coordinates":[[[3.91395575,50.97654708],[3.91386168,50.97648771],[3.91398974,50.97641169],[3.91408327,50.97646917],[3.91395575,50.97654708]]]}},{"type":"Feature","id":"gebouw/Gebouw.9134736/0","properties":{"source":"Digitaal Vlaanderen Gebouwenregister","source_id":"gebouw/Gebouw.9134736/0","kind":"building","height_m":6.44,"status":null},"geometry":{"type":"Polygon","coordinates":[[[3.91517846,50.97635934],[3.91521821,50.9763896],[3.91517002,50.97641375],[3.91513073,50.9763842],[3.91517846,50.97635934]]]}},{"type":"Feature","id":"gebouw/Gebouw.9155395/0","properties":{"source":"Digitaal Vlaanderen Gebouwenregister","source_id":"gebouw/Gebouw.9155395/0","kind":"building","height_m":7.88,"status":null},"geometry":{"type":"Polygon","coordinates":[[[3.9137408,50.97555095],[3.91378176,50.97558394],[3.91368493,50.97563457],[3.91355682,50.97553692],[3.91352804,50.97555301],[3.91350093,50.97553368],[3.91346989,50.97551156],[3.91345907,50.9755174],[3.91338541,50.97546317],[3.91348978,50.97540665],[3.91344074,50.97537188],[3.91352446,50.97533017],[3.91354761,50.97534778],[3.91357523,50.97536879],[3.91351582,50.97540124],[3.91353617,50.97541534],[3.91354582,50.97540984],[3.91359282,50.97544561],[3.91359884,50.97544268],[3.91364855,50.97547826],[3.91366479,50.97548973],[3.91373082,50.97545436],[3.91380881,50.97551541],[3.9137408,50.97555095]]]}},{"type":"Feature","id":"gebouw/Gebouw.9192188/0","properties":{"source":"Digitaal Vlaanderen Gebouwenregister","source_id":"gebouw/Gebouw.9192188/0","kind":"building","height_m":8.6,"status":null},"geometry":{"type":"Polygon","coordinates":[[[3.91009552,50.97864989],[3.9101453,50.97867183],[3.91008292,50.97873402],[3.91002955,50.97871279],[3.91009552,50.97864989]]]}},{"type":"Feature","id":"gebouw/Gebouw.9192357/0","properties":{"source":"Digitaal Vlaanderen Gebouwenregister","source_id":"gebouw/Gebouw.9192357/0","kind":"building","height_m":9.32,"status":null},"geometry":{"type":"Polygon","coordinates":[[[3.91269725,50.97506005],[3.91268786,50.97506527],[3.91260311,50.97499833],[3.91270418,50.97494939],[3.91274937,50.97492632],[3.91280156,50.97496703],[3.91275784,50.97499067],[3.91276798,50.97499884],[3.91275381,50.97500635],[3.91277184,50.97501856],[3.91269725,50.97506005]]]}},{"type":"Feature","id":"gebouw/Gebouw.9192799/0","properties":{"source":"Digitaal Vlaanderen Gebouwenregister","source_id":"gebouw/Gebouw.9192799/0","kind":"building","height_m":5.0,"status":null},"geometry":{"type":"Polygon","coordinates":[[[3.91349198,50.97509546],[3.91357641,50.97515958],[3.91345886,50.9752215],[3.91331637,50.97511436],[3.91343272,50.9750528],[3.91343648,50.97505603],[3.91346874,50.97503899],[3.91352214,50.97507896],[3.91349198,50.97509546]]]}},{"type":"Feature","id":"gebouw/Gebouw.9610198/0","properties":{"source":"Digitaal Vlaanderen Gebouwenregister","source_id":"gebouw/Gebouw.9610198/0","kind":"building","height_m":7.16,"status":null},"geometry":{"type":"Polygon","coordinates":[[[3.91601648,50.97683341],[3.91601895,50.97683545],[3.91598758,50.97685057],[3.9159607,50.97682834],[3.91604243,50.97678895],[3.9160668,50.97680759],[3.91601648,50.97683341]]]}},{"type":"Feature","id":"gebouw/Gebouw.9610199/0","properties":{"source":"Digitaal Vlaanderen Gebouwenregister","source_id":"gebouw/Gebouw.9610199/0","kind":"building","height_m":7.88,"status":null},"geometry":{"type":"Polygon","coordinates":[[[3.91441736,50.97574327],[3.91445253,50.97576785],[3.91439851,50.97579849],[3.91436427,50.97577261],[3.91441736,50.97574327]]]}},{"type":"Feature","id":"gebouw/Gebouw.9731400/0","properties":{"source":"Digitaal Vlaanderen Gebouwenregister","source_id":"gebouw/Gebouw.9731400/0","kind":"building","height_m":5.0,"status":null},"geometry":{"type":"Polygon","coordinates":[[[3.91140764,50.97448551],[3.91156669,50.97441885],[3.91160682,50.97445702],[3.91157351,50.97447099],[3.91170308,50.97459417],[3.91150095,50.97467893],[3.91144877,50.97462824],[3.91149226,50.97461024],[3.91143077,50.97455104],[3.91146219,50.97453803],[3.91140764,50.97448551]]]}},{"type":"Feature","id":"gebouw/Gebouw.9731981/0","properties":{"source":"Digitaal Vlaanderen Gebouwenregister","source_id":"gebouw/Gebouw.9731981/0","kind":"building","height_m":5.0,"status":null},"geometry":{"type":"Polygon","coordinates":[[[3.91382844,50.97534426],[3.91378687,50.97536512],[3.91371523,50.97531014],[3.91375682,50.97528815],[3.91382844,50.97534426]]]}},{"type":"Feature","id":"gebouw/Gebouw.9732200/0","properties":{"source":"Digitaal Vlaanderen Gebouwenregister","source_id":"gebouw/Gebouw.9732200/0","kind":"building","height_m":6.44,"status":null},"geometry":{"type":"Polygon","coordinates":[[[3.91396075,50.97568373],[3.91389226,50.97563692],[3.91377434,50.97570614],[3.91383903,50.97575007],[3.91391639,50.97580281],[3.91400081,50.97575344],[3.91396682,50.97572932],[3.91399338,50.9757139],[3.91395532,50.97568704],[3.91396075,50.97568373]]]}},{"type":"Feature","id":"gebouw/Gebouw.9841010/0","properties":{"source":"Digitaal Vlaanderen Gebouwenregister","source_id":"gebouw/Gebouw.9841010/0","kind":"building","height_m":7.88,"status":null},"geometry":{"type":"Polygon","coordinates":[[[3.91117021,50.97436632],[3.9110551,50.97442292],[3.91084084,50.97424853],[3.91101425,50.9741636],[3.91111578,50.97424624],[3.91116177,50.97422362],[3.91124698,50.97418174],[3.91135909,50.97427242],[3.91135648,50.9742737],[3.91138317,50.97429535],[3.91119612,50.97438732],[3.91117021,50.97436632]]]}},{"type":"Feature","id":"gebouw/Gebouw.18361994/0","properties":{"source":"Digitaal Vlaanderen Gebouwenregister","source_id":"gebouw/Gebouw.18361994/0","kind":"building","height_m":5.0,"status":null},"geometry":{"type":"Polygon","coordinates":[[[3.91292071,50.97479639],[3.91271998,50.9749046],[3.91266468,50.97486563],[3.91265541,50.97485909],[3.91281141,50.97477968],[3.91281657,50.97478349],[3.91287107,50.97475497],[3.91288456,50.97476435],[3.91289535,50.97477186],[3.91289155,50.97477406],[3.91292071,50.97479639]]]}},{"type":"Feature","id":"gebouw/Gebouw.18362704/0","properties":{"source":"Digitaal Vlaanderen Gebouwenregister","source_id":"gebouw/Gebouw.18362704/0","kind":"building","height_m":7.16,"status":null},"geometry":{"type":"Polygon","coordinates":[[[3.91312325,50.97478617],[3.9130405,50.97483117],[3.91303671,50.97483323],[3.91296921,50.97478374],[3.91294349,50.97476488],[3.91294737,50.97476277],[3.91301818,50.97472427],[3.91304674,50.97474521],[3.91307472,50.97476571],[3.91308656,50.97475927],[3.91312325,50.97478617]]]}},{"type":"Feature","id":"gebouw/Gebouw.18736777/0","properties":{"source":"Digitaal Vlaanderen Gebouwenregister","source_id":"gebouw/Gebouw.18736777/0","kind":"building","height_m":7.16,"status":null},"geometry":{"type":"Polygon","coordinates":[[[3.91591566,50.97708497],[3.9159229,50.97709037],[3.91574834,50.97718255],[3.91574647,50.97718107],[3.91572503,50.9771911],[3.91572687,50.97719252],[3.9156397,50.97723451],[3.91564699,50.97724077],[3.91562289,50.97725305],[3.91565461,50.9772777],[3.91578768,50.97721216],[3.91578287,50.97720866],[3.91600211,50.97709422],[3.91595881,50.97706192],[3.91591566,50.97708497]]]}},{"type":"Feature","id":"gebouw/Gebouw.19525576/0","properties":{"source":"Digitaal Vlaanderen Gebouwenregister","source_id":"gebouw/Gebouw.19525576/0","kind":"building","height_m":5.0,"status":null},"geometry":{"type":"Polygon","coordinates":[[[3.91355984,50.97553921],[3.91366274,50.9754883],[3.91365534,50.97548314],[3.91359767,50.97551271],[3.91355711,50.97548125],[3.91357077,50.97547423],[3.91359472,50.97549279],[3.913655,50.97546182],[3.91361481,50.97543065],[3.91359197,50.97544238],[3.91355997,50.97541832],[3.91344278,50.97548187],[3.91347291,50.97550401],[3.91346289,50.97550954],[3.91352749,50.97555619],[3.91355984,50.97553921]]]}},{"type":"Feature","id":"gebouw/Gebouw.19525577/0","properties":{"source":"Digitaal Vlaanderen Gebouwenregister","source_id":"gebouw/Gebouw.19525577/0","kind":"building","height_m":5.72,"status":null},"geometry":{"type":"Polygon","coordinates":[[[3.91373082,50.97545436],[3.91380881,50.97551541],[3.9137408,50.97555095],[3.91366479,50.97548973],[3.91373082,50.97545436]]]}},{"type":"Feature","id":"gebouw/Gebouw.20722251/0","properties":{"source":"Digitaal Vlaanderen Gebouwenregister","source_id":"gebouw/Gebouw.20722251/0","kind":"building","height_m":7.88,"status":null},"geometry":{"type":"Polygon","coordinates":[[[3.91161751,50.97468095],[3.91172034,50.97476567],[3.91194068,50.97465577],[3.91183588,50.97456853],[3.91161751,50.97468095]]]}},{"type":"Feature","id":"gebouw/Gebouw.20722252/0","properties":{"source":"Digitaal Vlaanderen Gebouwenregister","source_id":"gebouw/Gebouw.20722252/0","kind":"building","height_m":8.6,"status":null},"geometry":{"type":"Polygon","coordinates":[[[3.91161751,50.97468095],[3.91183588,50.97456853],[3.9117371,50.97447628],[3.91151871,50.97459121],[3.91161751,50.97468095]]]}},{"type":"Feature","id":"gebouw/Gebouw.20722398/0","properties":{"source":"Digitaal Vlaanderen Gebouwenregister","source_id":"gebouw/Gebouw.20722398/0","kind":"building","height_m":7.88,"status":null},"geometry":{"type":"Polygon","coordinates":[[[3.91095765,50.97448347],[3.9109761,50.97452404],[3.91089372,50.97453262],[3.9108874,50.97451761],[3.9108575,50.97444656],[3.91093695,50.97443795],[3.91095765,50.97448347]]]}},{"type":"Feature","id":"gebouw/Gebouw.30589903/0","properties":{"source":"Digitaal Vlaanderen Gebouwenregister","source_id":"gebouw/Gebouw.30589903/0","kind":"building","height_m":5.72,"status":null},"geometry":{"type":"Polygon","coordinates":[[[3.91148875,50.97476756],[3.91147154,50.97477479],[3.91105127,50.97495109],[3.91100643,50.97490849],[3.91142264,50.97473389],[3.91144392,50.97472496],[3.91148875,50.97476756]]]}},{"type":"Feature","id":"gebouw/Gebouw.31112643/0","properties":{"source":"Digitaal Vlaanderen Gebouwenregister","source_id":"gebouw/Gebouw.31112643/0","kind":"building","height_m":6.44,"status":null},"geometry":{"type":"Polygon","coordinates":[[[3.91158181,50.97443323],[3.91156669,50.97441885],[3.91140764,50.97448551],[3.91146219,50.97453803],[3.91143077,50.97455104],[3.91149226,50.97461024],[3.91144877,50.97462824],[3.91150095,50.97467893],[3.91150718,50.97467632],[3.91163266,50.9746237],[3.9116982,50.97459621],[3.91170308,50.97459417],[3.91157351,50.97447099],[3.91160682,50.97445702],[3.91158181,50.97443323]]]}},{"type":"Feature","id":"gebouw/Gebouw.31762224/0","properties":{"source":"Digitaal Vlaanderen Gebouwenregister","source_id":"gebouw/Gebouw.31762224/0","kind":"building","height_m":7.88,"status":null},"geometry":{"type":"Polygon","coordinates":[[[3.91443957,50.9757222],[3.91437816,50.97567694],[3.91435025,50.97569203],[3.91440895,50.97573876],[3.91441585,50.97573503],[3.91443957,50.9757222]]]}},{"type":"Feature","id":"gebouw/Gebouw.31762260/0","properties":{"source":"Digitaal Vlaanderen Gebouwenregister","source_id":"gebouw/Gebouw.31762260/0","kind":"building","height_m":8.6,"status":null},"geometry":{"type":"Polygon","coordinates":[[[3.91180064,50.97562327],[3.91185302,50.97566961],[3.91193914,50.97563082],[3.91188676,50.97558447],[3.91180064,50.97562327]]]}},{"type":"Feature","id":"gebouw/Gebouw.31762400/0","properties":{"source":"Digitaal Vlaanderen Gebouwenregister","source_id":"gebouw/Gebouw.31762400/0","kind":"building","height_m":8.6,"status":null},"geometry":{"type":"Polygon","coordinates":[[[3.91403912,50.97550107],[3.91420469,50.97541379],[3.9141394,50.97536443],[3.91410523,50.97538245],[3.91411454,50.97538949],[3.91408423,50.97540547],[3.91407479,50.97539833],[3.91403823,50.9754176],[3.91404669,50.97542401],[3.91401644,50.97543995],[3.91400752,50.97543321],[3.91397326,50.97545127],[3.91403912,50.97550107]]]}},{"type":"Feature","id":"gebouw/Gebouw.31762554/0","properties":{"source":"Digitaal Vlaanderen Gebouwenregister","source_id":"gebouw/Gebouw.31762554/0","kind":"building","height_m":8.6,"status":null},"geometry":{"type":"Polygon","coordinates":[[[3.91273314,50.97474371],[3.91283226,50.97469221],[3.91279426,50.97466306],[3.91269514,50.97471456],[3.91273314,50.97474371]]]}},{"type":"Feature","id":"gebouw/Gebouw.31975759/0","properties":{"source":"Digitaal Vlaanderen Gebouwenregister","source_id":"gebouw/Gebouw.31975759/0","kind":"building","height_m":7.88,"status":null},"geometry":{"type":"Polygon","coordinates":[[[3.91356128,50.97534472],[3.91354371,50.97533022],[3.91353239,50.9753362],[3.91346156,50.97537364],[3.91350959,50.97540986],[3.91358923,50.97536777],[3.91356128,50.97534472]]]}},{"type":"Feature","id":"gebouw/Gebouw.31975803/0","properties":{"source":"Digitaal Vlaanderen Gebouwenregister","source_id":"gebouw/Gebouw.31975803/0","kind":"building","height_m":9.32,"status":null},"geometry":{"type":"Polygon","coordinates":[[[3.91374577,50.97555495],[3.9137408,50.97555095],[3.91366479,50.97548973],[3.91366274,50.9754883],[3.91355984,50.97553921],[3.9136486,50.97560662],[3.91374577,50.97555495]]]}},{"type":"Feature","id":"way/174941066","properties":{"source":"OpenStreetMap","source_id":"way/174941066","kind":"vegetation","name":null,"waterway":null,"landuse":"forest"},"geometry":{"type":"Polygon","coordinates":[[[3.9135017,50.9763375],[3.9141658,50.9766966],[3.9141033,50.9767457],[3.9138883,50.9766198],[3.913533,50.9769243],[3.9132882,50.9770503],[3.9131031,50.9771217],[3.9129956,50.9771442],[3.9129001,50.9771292],[3.9127896,50.977101],[3.9127747,50.9770578],[3.9128613,50.9769882],[3.9136644,50.9765201],[3.9134181,50.9763915],[3.9135017,50.9763375]]]}},{"type":"Feature","id":"way/174941080","properties":{"source":"OpenStreetMap","source_id":"way/174941080","kind":"vegetation","name":null,"waterway":null,"landuse":"forest"},"geometry":{"type":"Polygon","coordinates":[[[3.9141033,50.9767457],[3.9134435,50.9771781],[3.91333,50.9773097],[3.9132763,50.97743],[3.9139114,50.9778461],[3.914518,50.9782731],[3.9150936,50.9779551],[3.9153132,50.9778354],[3.9153782,50.9777712],[3.9155253,50.9776862],[3.9151748,50.9774395],[3.915219,50.9773401],[3.914912,50.9771708],[3.9144983,50.9769382],[3.9145384,50.9769076],[3.914507,50.9768898],[3.9141658,50.9766966],[3.9141033,50.9767457]]]}},{"type":"Feature","id":"way/174941113","properties":{"source":"OpenStreetMap","source_id":"way/174941113","kind":"vegetation","name":"Serskampse bossen","waterway":null,"landuse":"forest"},"geometry":{"type":"Polygon","coordinates":[[[3.9129856,50.9747928],[3.9132022,50.9749775],[3.9138754,50.9754615],[3.9129232,50.9759627],[3.9135017,50.9763375],[3.9134181,50.9763915],[3.9122923,50.9771187],[3.9112708,50.9777785],[3.911008,50.9774853],[3.9106378,50.9772108],[3.910399,50.9771055],[3.9107348,50.9763031],[3.9109206,50.975782],[3.910967,50.9757847],[3.9111148,50.9751679],[3.9111613,50.9750642],[3.9112457,50.9750376],[3.9112837,50.9750695],[3.9112753,50.975128],[3.9110853,50.975774],[3.911423,50.9756411],[3.9120184,50.9752477],[3.912469,50.9750312],[3.9126728,50.9752317],[3.9128079,50.9753141],[3.9129093,50.9753434],[3.9130233,50.9753327],[3.9130908,50.9752689],[3.9130824,50.9752158],[3.913019,50.9751466],[3.9128755,50.9749791],[3.9130148,50.974918],[3.912905,50.9748276],[3.9129856,50.9747928]]]}},{"type":"Feature","id":"way/174941115","properties":{"source":"OpenStreetMap","source_id":"way/174941115","kind":"vegetation","name":"Serskampse bossen","waterway":null,"landuse":"forest"},"geometry":{"type":"Polygon","coordinates":[[[3.9122923,50.9771187],[3.9128613,50.9775221],[3.9130165,50.977477],[3.9131658,50.9775522],[3.9132912,50.9777025],[3.913333,50.9778304],[3.9134285,50.9779432],[3.9136793,50.9780522],[3.9140137,50.9781574],[3.9142884,50.9782928],[3.9147636,50.9785346],[3.9134823,50.9790635],[3.9132315,50.9789206],[3.9117208,50.9798304],[3.91147,50.9797064],[3.9130404,50.9787515],[3.9124314,50.9784206],[3.9121806,50.9785973],[3.9119955,50.9786499],[3.9118701,50.9786349],[3.9117566,50.9786387],[3.9116611,50.9786913],[3.9115476,50.9787214],[3.9114939,50.9786951],[3.9115596,50.978586],[3.9116133,50.9785522],[3.9117029,50.9784883],[3.9117507,50.9783793],[3.9117208,50.9782966],[3.9115655,50.978195],[3.9114879,50.9780785],[3.9114923,50.9780511],[3.9114999,50.9780033],[3.9112708,50.9777785],[3.9122923,50.9771187]]]}},{"type":"Feature","id":"way/175109221","properties":{"source":"OpenStreetMap","source_id":"way/175109221","kind":"vegetation","name":null,"waterway":null,"landuse":"forest"},"geometry":{"type":"Polygon","coordinates":[[[3.911332,50.9779966],[3.9110784,50.9778855],[3.9111005,50.9778461],[3.9110656,50.9778091],[3.9109662,50.9777732],[3.9108633,50.9777176],[3.9107474,50.9776724],[3.9105267,50.9775752],[3.9104533,50.9776373],[3.9111604,50.9779557],[3.9111812,50.9779999],[3.9112462,50.9780392],[3.911319,50.9780294],[3.911332,50.9779966]]]}},{"type":"Feature","id":"way/175109236","properties":{"source":"OpenStreetMap","source_id":"way/175109236","kind":"vegetation","name":null,"waterway":null,"landuse":"forest"},"geometry":{"type":"Polygon","coordinates":[[[3.9114879,50.9780785],[3.9115655,50.978195],[3.9117208,50.9782966],[3.9117507,50.9783793],[3.9117029,50.9784883],[3.9116133,50.9785522],[3.9115596,50.978586],[3.9115219,50.9785272],[3.9115167,50.9784748],[3.9114829,50.9784093],[3.9114387,50.9783667],[3.911384,50.9783307],[3.911293,50.9783078],[3.911293,50.978239],[3.9113294,50.978203],[3.9113736,50.9781653],[3.9114439,50.9781145],[3.9114879,50.9780785]]]}},{"type":"Feature","id":"way/175109291","properties":{"source":"OpenStreetMap","source_id":"way/175109291","kind":"vegetation","name":null,"waterway":null,"landuse":"forest"},"geometry":{"type":"Polygon","coordinates":[[[3.9093816,50.9783332],[3.9096624,50.9780996],[3.9098653,50.9779227],[3.9100655,50.9776869],[3.9101904,50.9775264],[3.9103452,50.9775887],[3.9103158,50.977635],[3.9102643,50.9776663],[3.9102275,50.9776859],[3.910119,50.9777577],[3.9100712,50.9777902],[3.9100197,50.9778469],[3.9100455,50.9778689],[3.9100381,50.977899],[3.9100216,50.977921],[3.9099627,50.9779442],[3.909913,50.9779488],[3.9097825,50.9780657],[3.9098248,50.9780866],[3.9098487,50.978104],[3.9098193,50.9781815],[3.9097678,50.9781931],[3.9096942,50.9782058],[3.9096611,50.9782186],[3.9096225,50.9782556],[3.9095526,50.978302],[3.9094919,50.978324],[3.9094275,50.9783367],[3.9093816,50.9783332]]]}},{"type":"Feature","id":"way/175109314","properties":{"source":"OpenStreetMap","source_id":"way/175109314","kind":"vegetation","name":null,"waterway":null,"landuse":"forest"},"geometry":{"type":"Polygon","coordinates":[[[3.9097821,50.9792524],[3.909724,50.979127],[3.9103677,50.9792621],[3.910389,50.9792163],[3.9105971,50.9792687],[3.9106959,50.9792638],[3.9107557,50.979249],[3.9108572,50.9792343],[3.9109586,50.9791639],[3.9110288,50.9791164],[3.9111407,50.9789788],[3.9111979,50.9789117],[3.9112447,50.9788577],[3.9112733,50.9788085],[3.9113305,50.9787741],[3.9113955,50.9787823],[3.9114397,50.9788118],[3.9114632,50.9788544],[3.9114762,50.9788888],[3.9114423,50.9789297],[3.9113695,50.978951],[3.9113019,50.9789657],[3.9112395,50.9789854],[3.9111719,50.9790509],[3.9110782,50.9791622],[3.9110002,50.9792245],[3.9110522,50.9792359],[3.911086,50.9792687],[3.9110574,50.9793473],[3.9110054,50.9794193],[3.9113305,50.9796125],[3.9112577,50.979642],[3.91093,50.979457],[3.9109118,50.9795077],[3.9109196,50.9795667],[3.9109144,50.9796125],[3.9108676,50.9796567],[3.9108129,50.9796895],[3.9108338,50.9797435],[3.9108988,50.9797321],[3.9109898,50.9798205],[3.9110574,50.9800252],[3.9110314,50.9800596],[3.9109612,50.980094],[3.9108676,50.980089],[3.9106465,50.9797239],[3.9107375,50.9796584],[3.9107271,50.9796387],[3.9106959,50.9795896],[3.9106153,50.9794881],[3.9105945,50.9794488],[3.9104098,50.9793964],[3.9100405,50.9793309],[3.9097821,50.9792524]]]}},{"type":"Feature","id":"way/175109344","properties":{"source":"OpenStreetMap","source_id":"way/175109344","kind":"vegetation","name":null,"waterway":null,"landuse":"forest"},"geometry":{"type":"Polygon","coordinates":[[[3.9109139,50.974456],[3.9108912,50.9744861],[3.9109445,50.9745335],[3.9109191,50.9745906],[3.910622,50.9743809],[3.9106613,50.9743621],[3.910412,50.974176],[3.9104796,50.9741449],[3.9109139,50.974456]]]}},{"type":"Feature","id":"way/175199450","properties":{"source":"OpenStreetMap","source_id":"way/175199450","kind":"vegetation","name":null,"waterway":null,"landuse":"forest"},"geometry":{"type":"Polygon","coordinates":[[[3.9134386,50.9750926],[3.9131041,50.9748198],[3.9133859,50.9746861],[3.9136903,50.9745548],[3.9138463,50.9744956],[3.913805,50.9744589],[3.9140605,50.9743524],[3.9141366,50.9744123],[3.9131849,50.974824],[3.9134855,50.9750701],[3.9134386,50.9750926]]]}},{"type":"Feature","id":"way/175199476","properties":{"source":"OpenStreetMap","source_id":"way/175199476","kind":"vegetation","name":null,"waterway":null,"landuse":"forest"},"geometry":{"type":"Polygon","coordinates":[[[3.9191766,50.9747896],[3.9191468,50.9747122],[3.9190937,50.9746754],[3.9189369,50.9746235],[3.9188785,50.9746318],[3.9188944,50.9746603],[3.9189422,50.9747122],[3.9190007,50.9747858],[3.9189927,50.9748226],[3.9189396,50.9748745],[3.9188997,50.9749196],[3.9188944,50.9749765],[3.9189289,50.9749999],[3.9189898,50.9750332],[3.9190671,50.9750772],[3.919148,50.9750077],[3.9191793,50.9748482],[3.9191766,50.9747896]]]}},{"type":"Feature","id":"way/175199510","properties":{"source":"OpenStreetMap","source_id":"way/175199510","kind":"vegetation","name":null,"waterway":null,"landuse":"forest"},"geometry":{"type":"Polygon","coordinates":[[[3.9144172,50.9746141],[3.9141734,50.9744388],[3.9141244,50.9744643],[3.9143649,50.9746465],[3.9144172,50.9746141]]]}},{"type":"Feature","id":"way/175199517","properties":{"source":"OpenStreetMap","source_id":"way/175199517","kind":"vegetation","name":"Serskampse bossen","waterway":null,"landuse":null},"geometry":{"type":"Polygon","coordinates":[[[3.9159333,50.9765686],[3.9154478,50.9763486],[3.9167535,50.9756816],[3.9167399,50.9756732],[3.9166287,50.9756045],[3.9165512,50.9755566],[3.9171949,50.9752115],[3.9177319,50.9755728],[3.9159333,50.9765686]]]}},{"type":"Feature","id":"way/661210095","properties":{"source":"OpenStreetMap","source_id":"way/661210095","kind":"waterway","name":"Roebeek","waterway":"stream","landuse":null},"geometry":{"type":"LineString","coordinates":[[3.920032,50.9760209],[3.9200728,50.9760541]]}},{"type":"Feature","id":"way/661210097","properties":{"source":"OpenStreetMap","source_id":"way/661210097","kind":"waterway","name":"Roebeek","waterway":"stream","landuse":null},"geometry":{"type":"LineString","coordinates":[[3.9188607,50.9742272],[3.9189125,50.9743318],[3.9188099,50.9745569],[3.9191036,50.9747797],[3.9190612,50.974987],[3.9193832,50.9751407],[3.9195071,50.9754126],[3.920032,50.9760209]]}},{"type":"Feature","id":"way/1031827601","properties":{"source":"OpenStreetMap","source_id":"way/1031827601","kind":"vegetation","name":"Serskampse bossen","waterway":null,"landuse":null},"geometry":{"type":"Polygon","coordinates":[[[3.9190221,50.9760473],[3.916897,50.9771534],[3.9163379,50.9767377],[3.9185206,50.9755309],[3.9186294,50.9753574],[3.9189898,50.9750332],[3.9190671,50.9750772],[3.919148,50.9750077],[3.9193908,50.9751258],[3.9195071,50.9754126],[3.9196896,50.9756836],[3.919315,50.9758949],[3.9191037,50.9760049],[3.9190221,50.9760473]]]}},{"type":"Feature","id":"way/1031827603","properties":{"source":"OpenStreetMap","source_id":"way/1031827603","kind":"water","name":null,"waterway":null,"landuse":null},"geometry":{"type":"Polygon","coordinates":[[[3.9184678,50.9795072],[3.9185227,50.9794948],[3.9185296,50.9794757],[3.9185586,50.9794566],[3.918614,50.9794201],[3.9184875,50.9793265],[3.918494,50.9793018],[3.9184105,50.9792756],[3.9183627,50.9792916],[3.9182788,50.9793199],[3.9183088,50.9793905],[3.9183662,50.9794045],[3.9184001,50.9794546],[3.9184678,50.9795072]]]}},{"type":"Feature","id":"way/1031827604","properties":{"source":"OpenStreetMap","source_id":"way/1031827604","kind":"water","name":null,"waterway":null,"landuse":null},"geometry":{"type":"Polygon","coordinates":[[[3.9186984,50.9761345],[3.9187793,50.9761066],[3.918838,50.9760483],[3.9189489,50.9760245],[3.9189945,50.9759793],[3.9189071,50.9759415],[3.918538,50.9760335],[3.9185615,50.976082],[3.9186528,50.9761288],[3.9186984,50.9761345]]]}},{"type":"Feature","id":"way/1031827605","properties":{"source":"OpenStreetMap","source_id":"way/1031827605","kind":"water","name":null,"waterway":null,"landuse":null},"geometry":{"type":"Polygon","coordinates":[[[3.9169688,50.9755613],[3.9168741,50.9754468],[3.9167981,50.9754554],[3.9166658,50.9755183],[3.9166287,50.9756045],[3.9167399,50.9756732],[3.9169688,50.9755613]]]}},{"type":"Feature","id":"way/1031827606","properties":{"source":"OpenStreetMap","source_id":"way/1031827606","kind":"water","name":null,"waterway":null,"landuse":null},"geometry":{"type":"Polygon","coordinates":[[[3.915324,50.9770028],[3.9154244,50.9771252],[3.9155483,50.97708],[3.9156762,50.9769749],[3.9156292,50.9769354],[3.9155862,50.9769305],[3.9155823,50.9769067],[3.9154818,50.9768796],[3.915324,50.9770028]]]}},{"type":"Feature","id":"way/1031827607","properties":{"source":"OpenStreetMap","source_id":"way/1031827607","kind":"water","name":null,"waterway":null,"landuse":null},"geometry":{"type":"Polygon","coordinates":[[[3.9146548,50.9794478],[3.9145698,50.9793964],[3.9145562,50.979338],[3.9145891,50.9793116],[3.9146819,50.979328],[3.9146933,50.9793444],[3.9147216,50.9793408],[3.9147748,50.9793572],[3.9147816,50.9793936],[3.9147182,50.9794364],[3.9146548,50.9794478]]]}},{"type":"Feature","id":"way/1031827614","properties":{"source":"OpenStreetMap","source_id":"way/1031827614","kind":"water","name":null,"waterway":null,"landuse":null},"geometry":{"type":"Polygon","coordinates":[[[3.9106429,50.9791138],[3.910576,50.9791231],[3.9104404,50.9790775],[3.9103178,50.9789898],[3.9103457,50.978936],[3.9104144,50.9789348],[3.9104868,50.9789734],[3.9105166,50.9789699],[3.910576,50.9790378],[3.9106596,50.9790752],[3.9106429,50.9791138]]]}},{"type":"Feature","id":"way/1037119398","properties":{"source":"OpenStreetMap","source_id":"way/1037119398","kind":"vegetation","name":null,"waterway":null,"landuse":"orchard"},"geometry":{"type":"Polygon","coordinates":[[[3.9196896,50.9756836],[3.9201145,50.9761552],[3.919528,50.9764476],[3.9191037,50.9760049],[3.9196896,50.9756836]]]}},{"type":"Feature","id":"way/1037119399","properties":{"source":"OpenStreetMap","source_id":"way/1037119399","kind":"water","name":null,"waterway":null,"landuse":null},"geometry":{"type":"Polygon","coordinates":[[[3.9115608,50.9755353],[3.9114818,50.9755428],[3.9114076,50.9755232],[3.9113741,50.9754674],[3.9114459,50.9754026],[3.9114363,50.9753318],[3.9114746,50.97527],[3.9115057,50.9752624],[3.911568,50.9752866],[3.9115991,50.9753363],[3.9116087,50.9754011],[3.9115799,50.9754418],[3.9115991,50.9754901],[3.9115608,50.9755353]]]}},{"type":"Feature","id":"way/1210372819","properties":{"source":"OpenStreetMap","source_id":"way/1210372819","kind":"water","name":null,"waterway":null,"landuse":null},"geometry":{"type":"Polygon","coordinates":[[[3.9149183,50.9786068],[3.9151341,50.9787589],[3.9151695,50.9787696],[3.915188,50.9787685],[3.9152299,50.9787508],[3.9152565,50.9787224],[3.9151896,50.9786656],[3.9151832,50.9786337],[3.9151284,50.9785952],[3.9150737,50.9785901],[3.9150375,50.9785845],[3.9150592,50.9785587],[3.9150721,50.9785272],[3.9150463,50.9785156],[3.9150012,50.9785146],[3.9149553,50.9785688],[3.9149247,50.9785744],[3.9149183,50.9786068]]]}},{"type":"Feature","id":"way/1464306552","properties":{"source":"OpenStreetMap","source_id":"way/1464306552","kind":"vegetation","name":"Serskampse bossen","waterway":null,"landuse":null},"geometry":{"type":"Polygon","coordinates":[[[3.9164058,50.978061],[3.9175427,50.9774669],[3.9175611,50.9774394],[3.9190642,50.9766319],[3.9188358,50.9764414],[3.9171765,50.9773224],[3.9170905,50.9773554],[3.9167577,50.9771362],[3.9164313,50.976879],[3.9153881,50.9774673],[3.9164058,50.978061]]]}}]}