{"type":"FeatureCollection","features":[{"type":"Feature","id":"gebouw/Gebouw.9040332/0","properties":{"source":"Digitaal Vlaanderen Gebouwenregister","source_id":"gebouw/Gebouw.9040332/0","kind":"building","height_m":5.0,"status":null},"geometry":{"type":"Polygon","coordinates":[[[3.94585527,50.95517571],[3.9458129,50.95512935],[3.94574191,50.95516374],[3.94572399,50.9551478],[3.94566687,50.95517449],[3.94567496,50.9551817],[3.94565333,50.95519119],[3.94561224,50.95515625],[3.94561664,50.95515419],[3.94568416,50.95512265],[3.94569453,50.95511781],[3.94571256,50.95510939],[3.94575931,50.95508755],[3.94576149,50.95508654],[3.94586489,50.95503824],[3.94591446,50.95508029],[3.94591328,50.9550811],[3.94595661,50.95512994],[3.94594614,50.95513466],[3.94586577,50.95517099],[3.94585527,50.95517571]]]}},{"type":"Feature","id":"gebouw/Gebouw.9040797/0","properties":{"source":"Digitaal Vlaanderen Gebouwenregister","source_id":"gebouw/Gebouw.9040797/0","kind":"building","height_m":7.16,"status":null},"geometry":{"type":"Polygon","coordinates":[[[3.9471368,50.95521099],[3.94717927,50.95525872],[3.9471006,50.95528665],[3.94701383,50.95518914],[3.94705582,50.95517301],[3.94706369,50.95518213],[3.9470995,50.95522359],[3.9471368,50.95521099]]]}},{"type":"Feature","id":"gebouw/Gebouw.9044569/0","properties":{"source":"Digitaal Vlaanderen Gebouwenregister","source_id":"gebouw/Gebouw.9044569/0","kind":"building","height_m":6.44,"status":null},"geometry":{"type":"Polygon","coordinates":[[[3.94598777,50.95228225],[3.94598223,50.9522893],[3.94604979,50.95231144],[3.94600836,50.95236977],[3.94589076,50.95233507],[3.94593313,50.95227469],[3.94594167,50.95227685],[3.9459475,50.95226998],[3.94598777,50.95228225]]]}},{"type":"Feature","id":"gebouw/Gebouw.9044570/0","properties":{"source":"Digitaal Vlaanderen Gebouwenregister","source_id":"gebouw/Gebouw.9044570/0","kind":"building","height_m":7.16,"status":null},"geometry":{"type":"Polygon","coordinates":[[[3.94605805,50.95348244],[3.94602819,50.95345906],[3.94606581,50.9534402],[3.94609448,50.95346357],[3.94605805,50.95348244]]]}},{"type":"Feature","id":"gebouw/Gebouw.9048302/0","properties":{"source":"Digitaal Vlaanderen Gebouwenregister","source_id":"gebouw/Gebouw.9048302/0","kind":"building","height_m":7.88,"status":null},"geometry":{"type":"Polygon","coordinates":[[[3.94558455,50.9523924],[3.94538123,50.95233614],[3.94538685,50.95232804],[3.94536633,50.95232237],[3.94539875,50.95227561],[3.94562106,50.95234],[3.9456226,50.95233796],[3.94570937,50.95236238],[3.94567564,50.95241087],[3.94558884,50.95238758],[3.94558455,50.9523924]]]}},{"type":"Feature","id":"gebouw/Gebouw.9048542/0","properties":{"source":"Digitaal Vlaanderen Gebouwenregister","source_id":"gebouw/Gebouw.9048542/0","kind":"building","height_m":9.32,"status":null},"geometry":{"type":"Polygon","coordinates":[[[3.94803415,50.95528758],[3.94796897,50.95522878],[3.94805108,50.95519285],[3.94808171,50.95522031],[3.9480864,50.95521857],[3.94812287,50.95525013],[3.94811696,50.9552527],[3.94817101,50.95530351],[3.9480966,50.95533591],[3.94803927,50.95528596],[3.94803415,50.95528758]]]}},{"type":"Feature","id":"gebouw/Gebouw.9048543/0","properties":{"source":"Digitaal Vlaanderen Gebouwenregister","source_id":"gebouw/Gebouw.9048543/0","kind":"building","height_m":5.0,"status":null},"geometry":{"type":"Polygon","coordinates":[[[3.94939214,50.95395162],[3.94936601,50.95411653],[3.94935419,50.954187],[3.94928017,50.95418752],[3.94929352,50.95410565],[3.94929636,50.95408819],[3.94930229,50.95405179],[3.94931444,50.95397722],[3.9493255,50.95395463],[3.94933307,50.95393917],[3.94935233,50.95394303],[3.94929946,50.95388876],[3.94950378,50.95380665],[3.94955337,50.95384876],[3.94962186,50.95390691],[3.94958292,50.95392214],[3.94953959,50.95393909],[3.94952251,50.95392262],[3.94945445,50.95395047],[3.9494407,50.95393383],[3.94939214,50.95395162]]]}},{"type":"Feature","id":"gebouw/Gebouw.9048578/0","properties":{"source":"Digitaal Vlaanderen Gebouwenregister","source_id":"gebouw/Gebouw.9048578/0","kind":"building","height_m":5.0,"status":null},"geometry":{"type":"Polygon","coordinates":[[[3.94734931,50.95519951],[3.94722577,50.95524471],[3.94714221,50.95515039],[3.94714595,50.95514907],[3.94726206,50.95510828],[3.94726477,50.95510733],[3.94734931,50.95519951]]]}},{"type":"Feature","id":"gebouw/Gebouw.9048882/0","properties":{"source":"Digitaal Vlaanderen Gebouwenregister","source_id":"gebouw/Gebouw.9048882/0","kind":"building","height_m":7.16,"status":null},"geometry":{"type":"Polygon","coordinates":[[[3.94476204,50.95343066],[3.9447288,50.95340087],[3.94477566,50.95338044],[3.94486807,50.95343526],[3.94481814,50.95345941],[3.94477555,50.95342501],[3.94476204,50.95343066]]]}},{"type":"Feature","id":"gebouw/Gebouw.9048883/0","properties":{"source":"Digitaal Vlaanderen Gebouwenregister","source_id":"gebouw/Gebouw.9048883/0","kind":"building","height_m":7.88,"status":null},"geometry":{"type":"Polygon","coordinates":[[[3.94732736,50.95250248],[3.94728821,50.95248218],[3.94732797,50.95245061],[3.9473659,50.95247202],[3.94732736,50.95250248]]]}},{"type":"Feature","id":"gebouw/Gebouw.9048992/0","properties":{"source":"Digitaal Vlaanderen Gebouwenregister","source_id":"gebouw/Gebouw.9048992/0","kind":"building","height_m":5.72,"status":null},"geometry":{"type":"Polygon","coordinates":[[[3.947003,50.95254486],[3.94686727,50.95247692],[3.94690435,50.95244736],[3.94694483,50.95246777],[3.94699161,50.95243034],[3.94708886,50.95247884],[3.947003,50.95254486]]]}},{"type":"Feature","id":"gebouw/Gebouw.9049105/0","properties":{"source":"Digitaal Vlaanderen Gebouwenregister","source_id":"gebouw/Gebouw.9049105/0","kind":"building","height_m":6.44,"status":null},"geometry":{"type":"Polygon","coordinates":[[[3.94514345,50.95432009],[3.94500819,50.95439133],[3.94497221,50.95436134],[3.94502185,50.95433781],[3.94503487,50.95434901],[3.94505714,50.95433765],[3.9450464,50.95432985],[3.94511204,50.95429577],[3.94514345,50.95432009]]]}},{"type":"Feature","id":"gebouw/Gebouw.9057265/0","properties":{"source":"Digitaal Vlaanderen Gebouwenregister","source_id":"gebouw/Gebouw.9057265/0","kind":"building","height_m":5.0,"status":null},"geometry":{"type":"Polygon","coordinates":[[[3.94936399,50.95375612],[3.94932422,50.95377777],[3.94930129,50.95376083],[3.94920652,50.9538178],[3.94918473,50.95380312],[3.9491291,50.95376563],[3.94912479,50.95376273],[3.94922951,50.95369969],[3.94924344,50.95371034],[3.94928357,50.95368664],[3.94936399,50.95375612]]]}},{"type":"Feature","id":"gebouw/Gebouw.9057292/0","properties":{"source":"Digitaal Vlaanderen Gebouwenregister","source_id":"gebouw/Gebouw.9057292/0","kind":"building","height_m":9.32,"status":null},"geometry":{"type":"Polygon","coordinates":[[[3.94620721,50.95515271],[3.94615584,50.95517541],[3.94610447,50.95512958],[3.94625187,50.95506405],[3.94626331,50.95507468],[3.94631769,50.9550504],[3.94633502,50.95506633],[3.94649005,50.95499059],[3.94651203,50.9550083],[3.94648444,50.95502146],[3.94635603,50.9550827],[3.94628283,50.95511761],[3.94628276,50.95511764],[3.946256,50.95513006],[3.94624769,50.95513392],[3.94620728,50.95515268],[3.94620721,50.95515271]]]}},{"type":"Feature","id":"gebouw/Gebouw.9057714/0","properties":{"source":"Digitaal Vlaanderen Gebouwenregister","source_id":"gebouw/Gebouw.9057714/0","kind":"building","height_m":5.72,"status":null},"geometry":{"type":"Polygon","coordinates":[[[3.94791748,50.9555147],[3.94781016,50.95539686],[3.94795959,50.95534298],[3.94803193,50.95542302],[3.94794986,50.95545158],[3.948018,50.95553553],[3.94795597,50.95555785],[3.94791748,50.9555147]]]}},{"type":"Feature","id":"gebouw/Gebouw.9057719/0","properties":{"source":"Digitaal Vlaanderen Gebouwenregister","source_id":"gebouw/Gebouw.9057719/0","kind":"building","height_m":9.32,"status":null},"geometry":{"type":"Polygon","coordinates":[[[3.944981,50.95322861],[3.9450905,50.95330334],[3.94500541,50.95335309],[3.94487723,50.95326561],[3.94491459,50.9532425],[3.94490527,50.95323678],[3.94494268,50.95321473],[3.9449754,50.95323159],[3.944981,50.95322861]]]}},{"type":"Feature","id":"gebouw/Gebouw.9057856/0","properties":{"source":"Digitaal Vlaanderen Gebouwenregister","source_id":"gebouw/Gebouw.9057856/0","kind":"building","height_m":7.16,"status":null},"geometry":{"type":"Polygon","coordinates":[[[3.94959703,50.95383232],[3.94959303,50.9538344],[3.94958222,50.95384003],[3.94952937,50.95379091],[3.94958198,50.95376528],[3.94963982,50.95381005],[3.94959703,50.95383232]]]}},{"type":"Feature","id":"gebouw/Gebouw.9069414/0","properties":{"source":"Digitaal Vlaanderen Gebouwenregister","source_id":"gebouw/Gebouw.9069414/0","kind":"building","height_m":7.88,"status":null},"geometry":{"type":"Polygon","coordinates":[[[3.94611594,50.95468659],[3.94616019,50.95472472],[3.94603572,50.95478322],[3.9459648,50.95472339],[3.94594886,50.95473089],[3.94587912,50.95467146],[3.94602161,50.9546053],[3.94606656,50.95464404],[3.94611594,50.95468659]]]}},{"type":"Feature","id":"gebouw/Gebouw.9069415/0","properties":{"source":"Digitaal Vlaanderen Gebouwenregister","source_id":"gebouw/Gebouw.9069415/0","kind":"building","height_m":8.6,"status":null},"geometry":{"type":"Polygon","coordinates":[[[3.94528816,50.95489698],[3.945242,50.95486482],[3.94523182,50.95485689],[3.94518923,50.95482375],[3.9451684,50.95480584],[3.94518559,50.95479645],[3.94520379,50.9548123],[3.94521012,50.95480882],[3.94525652,50.95484494],[3.94536239,50.95479372],[3.94531483,50.95475684],[3.9453383,50.95474512],[3.94533222,50.95473999],[3.94539241,50.95470997],[3.9454008,50.954717],[3.9454457,50.95469261],[3.94551997,50.95474929],[3.94541402,50.95480313],[3.9454105,50.95480098],[3.94538797,50.95481163],[3.94541491,50.95483154],[3.94528816,50.95489698]]]}},{"type":"Feature","id":"gebouw/Gebouw.9069850/0","properties":{"source":"Digitaal Vlaanderen Gebouwenregister","source_id":"gebouw/Gebouw.9069850/0","kind":"building","height_m":9.32,"status":null},"geometry":{"type":"Polygon","coordinates":[[[3.94514996,50.95312707],[3.94530573,50.95321625],[3.94522094,50.95327534],[3.94513048,50.95322355],[3.9450963,50.95324677],[3.94500017,50.95320161],[3.94500274,50.95319913],[3.94502146,50.95320796],[3.94510944,50.95314833],[3.94511221,50.95314646],[3.94511864,50.95314953],[3.94514735,50.95312894],[3.94514996,50.95312707]]]}},{"type":"Feature","id":"gebouw/Gebouw.9100273/0","properties":{"source":"Digitaal Vlaanderen Gebouwenregister","source_id":"gebouw/Gebouw.9100273/0","kind":"building","height_m":5.0,"status":null},"geometry":{"type":"Polygon","coordinates":[[[3.94558258,50.95479909],[3.94564075,50.95487918],[3.94545473,50.95493284],[3.94540626,50.95486597],[3.94550497,50.95483677],[3.94549495,50.95482448],[3.94558258,50.95479909]]]}},{"type":"Feature","id":"gebouw/Gebouw.9100274/0","properties":{"source":"Digitaal Vlaanderen Gebouwenregister","source_id":"gebouw/Gebouw.9100274/0","kind":"building","height_m":5.72,"status":null},"geometry":{"type":"Polygon","coordinates":[[[3.94600831,50.95320409],[3.94607174,50.95324603],[3.94599482,50.95329066],[3.94578913,50.95315435],[3.94585309,50.95311651],[3.94586676,50.95312584],[3.94595939,50.95307091],[3.94608703,50.95315836],[3.94600831,50.95320409]]]}},{"type":"Feature","id":"gebouw/Gebouw.9100275/0","properties":{"source":"Digitaal Vlaanderen Gebouwenregister","source_id":"gebouw/Gebouw.9100275/0","kind":"building","height_m":6.44,"status":null},"geometry":{"type":"Polygon","coordinates":[[[3.94509818,50.95359345],[3.94514973,50.95359517],[3.94514751,50.95362043],[3.94509686,50.95361853],[3.94509818,50.95359345]]]}},{"type":"Feature","id":"gebouw/Gebouw.9100664/0","properties":{"source":"Digitaal Vlaanderen Gebouwenregister","source_id":"gebouw/Gebouw.9100664/0","kind":"building","height_m":9.32,"status":null},"geometry":{"type":"Polygon","coordinates":[[[3.94646017,50.95531711],[3.946307,50.95536874],[3.94626693,50.95532106],[3.94625918,50.95531183],[3.94626133,50.95531102],[3.94626036,50.95530991],[3.94626889,50.955307],[3.94637586,50.95527066],[3.94638428,50.95528128],[3.94640713,50.9553101],[3.94644164,50.95529608],[3.94646017,50.95531711]]]}},{"type":"Feature","id":"gebouw/Gebouw.9100756/0","properties":{"source":"Digitaal Vlaanderen Gebouwenregister","source_id":"gebouw/Gebouw.9100756/0","kind":"building","height_m":5.0,"status":null},"geometry":{"type":"Polygon","coordinates":[[[3.94520169,50.95520908],[3.94529255,50.95528909],[3.9452514,50.95530716],[3.94518027,50.95524452],[3.94516099,50.95522752],[3.94520169,50.95520908]]]}},{"type":"Feature","id":"gebouw/Gebouw.9100823/0","properties":{"source":"Digitaal Vlaanderen Gebouwenregister","source_id":"gebouw/Gebouw.9100823/0","kind":"building","height_m":7.88,"status":null},"geometry":{"type":"Polygon","coordinates":[[[3.9462185,50.9534002],[3.94618627,50.95337641],[3.94630765,50.95331207],[3.9463408,50.95333456],[3.9462185,50.9534002]]]}},{"type":"Feature","id":"gebouw/Gebouw.9100824/0","properties":{"source":"Digitaal Vlaanderen Gebouwenregister","source_id":"gebouw/Gebouw.9100824/0","kind":"building","height_m":8.6,"status":null},"geometry":{"type":"Polygon","coordinates":[[[3.9474213,50.95494348],[3.94735867,50.95487688],[3.94740012,50.95486133],[3.94746268,50.95492785],[3.9474213,50.95494348]]]}},{"type":"Feature","id":"gebouw/Gebouw.9100864/0","properties":{"source":"Digitaal Vlaanderen Gebouwenregister","source_id":"gebouw/Gebouw.9100864/0","kind":"building","height_m":7.16,"status":null},"geometry":{"type":"Polygon","coordinates":[[[3.9461266,50.9529702],[3.94616202,50.95299608],[3.94622748,50.95295807],[3.946365,50.95305238],[3.94635777,50.95305642],[3.94637635,50.95307012],[3.94635372,50.95308353],[3.94635952,50.95308809],[3.94635016,50.95309379],[3.94635219,50.9530955],[3.94632657,50.95310963],[3.94632396,50.95310754],[3.94622806,50.95316262],[3.94616556,50.95311937],[3.94620114,50.95309918],[3.94617289,50.95308144],[3.94613941,50.95310072],[3.94609727,50.95307119],[3.94612231,50.95305669],[3.94605604,50.95301022],[3.9461266,50.9529702]]]}},{"type":"Feature","id":"gebouw/Gebouw.9125031/0","properties":{"source":"Digitaal Vlaanderen Gebouwenregister","source_id":"gebouw/Gebouw.9125031/0","kind":"building","height_m":9.32,"status":null},"geometry":{"type":"Polygon","coordinates":[[[3.94634733,50.95502021],[3.94626429,50.95505761],[3.94620477,50.95500463],[3.94632055,50.95495178],[3.94636103,50.95498759],[3.94632856,50.95500295],[3.94634733,50.95502021]]]}},{"type":"Feature","id":"gebouw/Gebouw.9125354/0","properties":{"source":"Digitaal Vlaanderen Gebouwenregister","source_id":"gebouw/Gebouw.9125354/0","kind":"building","height_m":5.0,"status":null},"geometry":{"type":"Polygon","coordinates":[[[3.94581574,50.95535551],[3.94574195,50.95538809],[3.94570409,50.95540481],[3.94564759,50.95542975],[3.94561353,50.95539789],[3.94578145,50.95532398],[3.94581574,50.95535551]]]}},{"type":"Feature","id":"gebouw/Gebouw.9125356/0","properties":{"source":"Digitaal Vlaanderen Gebouwenregister","source_id":"gebouw/Gebouw.9125356/0","kind":"building","height_m":6.44,"status":null},"geometry":{"type":"Polygon","coordinates":[[[3.94500819,50.95439133],[3.94504476,50.95441693],[3.94489057,50.95449793],[3.94485455,50.95447225],[3.94500819,50.95439133]]]}},{"type":"Feature","id":"gebouw/Gebouw.9125360/0","properties":{"source":"Digitaal Vlaanderen Gebouwenregister","source_id":"gebouw/Gebouw.9125360/0","kind":"building","height_m":9.32,"status":null},"geometry":{"type":"Polygon","coordinates":[[[3.94635603,50.9550827],[3.94637876,50.95510346],[3.9462661,50.95515255],[3.94624769,50.95513392],[3.946256,50.95513006],[3.94628276,50.95511764],[3.94628283,50.95511761],[3.94635603,50.9550827]]]}},{"type":"Feature","id":"gebouw/Gebouw.9125374/0","properties":{"source":"Digitaal Vlaanderen Gebouwenregister","source_id":"gebouw/Gebouw.9125374/0","kind":"building","height_m":9.32,"status":null},"geometry":{"type":"Polygon","coordinates":[[[3.94553367,50.95346632],[3.94546172,50.95350912],[3.94539133,50.95346068],[3.94534322,50.95342756],[3.94541705,50.95338496],[3.94546481,50.95341828],[3.94553367,50.95346632]]]}},{"type":"Feature","id":"gebouw/Gebouw.9125380/0","properties":{"source":"Digitaal Vlaanderen Gebouwenregister","source_id":"gebouw/Gebouw.9125380/0","kind":"building","height_m":8.6,"status":null},"geometry":{"type":"Polygon","coordinates":[[[3.94491727,50.95316265],[3.94488134,50.95319286],[3.94477894,50.95314484],[3.94471953,50.95311774],[3.94475655,50.95308713],[3.94479067,50.95310316],[3.94481634,50.95311522],[3.94485768,50.95313465],[3.94491727,50.95316265]]]}},{"type":"Feature","id":"gebouw/Gebouw.9127316/0","properties":{"source":"Digitaal Vlaanderen Gebouwenregister","source_id":"gebouw/Gebouw.9127316/0","kind":"building","height_m":6.44,"status":null},"geometry":{"type":"Polygon","coordinates":[[[3.94472098,50.95502754],[3.944678,50.95499633],[3.94475056,50.95495877],[3.94476731,50.95497432],[3.94479501,50.95495966],[3.94481707,50.9549764],[3.94472098,50.95502754]]]}},{"type":"Feature","id":"gebouw/Gebouw.9127317/0","properties":{"source":"Digitaal Vlaanderen Gebouwenregister","source_id":"gebouw/Gebouw.9127317/0","kind":"building","height_m":7.16,"status":null},"geometry":{"type":"Polygon","coordinates":[[[3.9445962,50.95455577],[3.94463358,50.95458598],[3.94459992,50.95460133],[3.9445613,50.95457297],[3.9445962,50.95455577]]]}},{"type":"Feature","id":"gebouw/Gebouw.9127318/0","properties":{"source":"Digitaal Vlaanderen Gebouwenregister","source_id":"gebouw/Gebouw.9127318/0","kind":"building","height_m":7.88,"status":null},"geometry":{"type":"Polygon","coordinates":[[[3.94718184,50.95261206],[3.94714822,50.95259575],[3.94720195,50.95255273],[3.94723615,50.95256979],[3.94718184,50.95261206]]]}},{"type":"Feature","id":"gebouw/Gebouw.9127319/0","properties":{"source":"Digitaal Vlaanderen Gebouwenregister","source_id":"gebouw/Gebouw.9127319/0","kind":"building","height_m":8.6,"status":null},"geometry":{"type":"Polygon","coordinates":[[[3.94650153,50.95292547],[3.94649601,50.95292185],[3.94640522,50.95297455],[3.94637644,50.95295455],[3.94636138,50.95296262],[3.94625441,50.95288833],[3.94642148,50.95279212],[3.94656127,50.9528902],[3.94650153,50.95292547]]]}},{"type":"Feature","id":"gebouw/Gebouw.9131835/0","properties":{"source":"Digitaal Vlaanderen Gebouwenregister","source_id":"gebouw/Gebouw.9131835/0","kind":"building","height_m":9.32,"status":null},"geometry":{"type":"Polygon","coordinates":[[[3.94508586,50.95370364],[3.94520502,50.95366217],[3.94522909,50.95369105],[3.94525699,50.95367995],[3.94532215,50.95375432],[3.94527511,50.95377082],[3.94527937,50.9537763],[3.94518495,50.95380875],[3.94518301,50.9538065],[3.94516283,50.95378307],[3.94514962,50.95376774],[3.94514289,50.95376992],[3.94513486,50.95375982],[3.94508586,50.95370364]]]}},{"type":"Feature","id":"gebouw/Gebouw.9132128/0","properties":{"source":"Digitaal Vlaanderen Gebouwenregister","source_id":"gebouw/Gebouw.9132128/0","kind":"building","height_m":8.6,"status":null},"geometry":{"type":"Polygon","coordinates":[[[3.94746692,50.95498757],[3.94756936,50.95509258],[3.94752283,50.95511069],[3.94752491,50.95511288],[3.94749711,50.95512377],[3.94749438,50.95512115],[3.94743847,50.95514282],[3.94741506,50.95511873],[3.94740262,50.95511709],[3.94738878,50.95510381],[3.94739174,50.95509355],[3.94736532,50.95506402],[3.94740549,50.95504913],[3.94737843,50.95502072],[3.94746692,50.95498757]]]}},{"type":"Feature","id":"gebouw/Gebouw.9132168/0","properties":{"source":"Digitaal Vlaanderen Gebouwenregister","source_id":"gebouw/Gebouw.9132168/0","kind":"building","height_m":7.16,"status":null},"geometry":{"type":"Polygon","coordinates":[[[3.94958198,50.95376528],[3.94956751,50.95375407],[3.94967628,50.95369446],[3.94977199,50.95376899],[3.9496619,50.95382713],[3.94963982,50.95381005],[3.94958198,50.95376528]]]}},{"type":"Feature","id":"gebouw/Gebouw.9155388/0","properties":{"source":"Digitaal Vlaanderen Gebouwenregister","source_id":"gebouw/Gebouw.9155388/0","kind":"building","height_m":7.88,"status":null},"geometry":{"type":"Polygon","coordinates":[[[3.94461221,50.95463762],[3.94448666,50.95470266],[3.94445822,50.95468098],[3.94452277,50.95464698],[3.94465732,50.95457612],[3.94470178,50.9545527],[3.94474099,50.95458386],[3.94469704,50.9546062],[3.94468715,50.95459972],[3.94461221,50.95463762]]]}},{"type":"Feature","id":"gebouw/Gebouw.9155389/0","properties":{"source":"Digitaal Vlaanderen Gebouwenregister","source_id":"gebouw/Gebouw.9155389/0","kind":"building","height_m":8.6,"status":null},"geometry":{"type":"Polygon","coordinates":[[[3.94652573,50.95201501],[3.94657545,50.95197775],[3.94667655,50.95202912],[3.94662739,50.95206788],[3.94652573,50.95201501]]]}},{"type":"Feature","id":"gebouw/Gebouw.9171953/0","properties":{"source":"Digitaal Vlaanderen Gebouwenregister","source_id":"gebouw/Gebouw.9171953/0","kind":"building","height_m":5.0,"status":null},"geometry":{"type":"Polygon","coordinates":[[[3.94603281,50.95334073],[3.94609705,50.95330383],[3.9461572,50.95334358],[3.94609446,50.95338147],[3.94603281,50.95334073]]]}},{"type":"Feature","id":"gebouw/Gebouw.9171954/0","properties":{"source":"Digitaal Vlaanderen Gebouwenregister","source_id":"gebouw/Gebouw.9171954/0","kind":"building","height_m":5.72,"status":null},"geometry":{"type":"Polygon","coordinates":[[[3.94719245,50.95485305],[3.94715496,50.95486832],[3.94711625,50.95483038],[3.94715374,50.95481512],[3.94719245,50.95485305]]]}},{"type":"Feature","id":"gebouw/Gebouw.9172022/0","properties":{"source":"Digitaal Vlaanderen Gebouwenregister","source_id":"gebouw/Gebouw.9172022/0","kind":"building","height_m":9.32,"status":null},"geometry":{"type":"Polygon","coordinates":[[[3.9465273,50.95500101],[3.94653802,50.95501006],[3.94649619,50.95503074],[3.94648444,50.95502146],[3.94651203,50.9550083],[3.9465273,50.95500101]]]}},{"type":"Feature","id":"gebouw/Gebouw.9172323/0","properties":{"source":"Digitaal Vlaanderen Gebouwenregister","source_id":"gebouw/Gebouw.9172323/0","kind":"building","height_m":9.32,"status":null},"geometry":{"type":"Polygon","coordinates":[[[3.94596795,50.95524316],[3.94591988,50.9552647],[3.94592914,50.95527268],[3.9458501,50.95530866],[3.94577056,50.95523937],[3.94577476,50.95523755],[3.94575573,50.95522051],[3.94585527,50.95517571],[3.94586577,50.95517099],[3.94588502,50.95518844],[3.94590066,50.95518113],[3.94596795,50.95524316]]]}},{"type":"Feature","id":"gebouw/Gebouw.9172855/0","properties":{"source":"Digitaal Vlaanderen Gebouwenregister","source_id":"gebouw/Gebouw.9172855/0","kind":"building","height_m":9.32,"status":null},"geometry":{"type":"Polygon","coordinates":[[[3.94489875,50.95282837],[3.94494439,50.9528598],[3.94489555,50.95288733],[3.94484871,50.95285626],[3.94489875,50.95282837]]]}},{"type":"Feature","id":"gebouw/Gebouw.9172856/0","properties":{"source":"Digitaal Vlaanderen Gebouwenregister","source_id":"gebouw/Gebouw.9172856/0","kind":"building","height_m":5.0,"status":null},"geometry":{"type":"Polygon","coordinates":[[[3.94716415,50.95228145],[3.94725941,50.95233012],[3.94714929,50.95241557],[3.94702098,50.95235097],[3.94705374,50.95232587],[3.94708586,50.9523431],[3.94716415,50.95228145]]]}},{"type":"Feature","id":"gebouw/Gebouw.9192322/0","properties":{"source":"Digitaal Vlaanderen Gebouwenregister","source_id":"gebouw/Gebouw.9192322/0","kind":"building","height_m":9.32,"status":null},"geometry":{"type":"Polygon","coordinates":[[[3.94627636,50.95484664],[3.94627983,50.95484964],[3.94634585,50.95490676],[3.94619435,50.95497552],[3.94613656,50.95500174],[3.94610531,50.95497398],[3.94609371,50.95497919],[3.94606429,50.95495306],[3.94607589,50.95494785],[3.94607095,50.95494346],[3.94625738,50.95485559],[3.94627636,50.95484664]]]}},{"type":"Feature","id":"gebouw/Gebouw.9192323/0","properties":{"source":"Digitaal Vlaanderen Gebouwenregister","source_id":"gebouw/Gebouw.9192323/0","kind":"building","height_m":5.0,"status":null},"geometry":{"type":"Polygon","coordinates":[[[3.94681232,50.95301691],[3.94677277,50.95299023],[3.94663632,50.9528982],[3.94668083,50.95287269],[3.94654222,50.95277893],[3.9466917,50.95269077],[3.94680139,50.95276497],[3.94671016,50.95281793],[3.94685001,50.95291377],[3.9468708,50.95290258],[3.94692281,50.95293934],[3.94691556,50.95294334],[3.94693829,50.95295787],[3.94687496,50.95299104],[3.9468672,50.95298571],[3.94681232,50.95301691]]]}},{"type":"Feature","id":"gebouw/Gebouw.9192325/0","properties":{"source":"Digitaal Vlaanderen Gebouwenregister","source_id":"gebouw/Gebouw.9192325/0","kind":"building","height_m":6.44,"status":null},"geometry":{"type":"Polygon","coordinates":[[[3.94625738,50.95485559],[3.94607095,50.95494346],[3.94601155,50.95489255],[3.94617634,50.95481584],[3.94620257,50.95483797],[3.94622541,50.95482737],[3.94625738,50.95485559]]]}},{"type":"Feature","id":"gebouw/Gebouw.9192327/0","properties":{"source":"Digitaal Vlaanderen Gebouwenregister","source_id":"gebouw/Gebouw.9192327/0","kind":"building","height_m":7.88,"status":null},"geometry":{"type":"Polygon","coordinates":[[[3.94482674,50.95436795],[3.94480351,50.95435083],[3.94490057,50.9543033],[3.94515383,50.95417932],[3.94516881,50.95419213],[3.94517229,50.95419055],[3.94517936,50.95419663],[3.94519345,50.95419786],[3.94520808,50.95421037],[3.94520586,50.9542192],[3.94521293,50.95422528],[3.94504423,50.95430352],[3.94502828,50.95429012],[3.94501745,50.95429524],[3.94503514,50.95430912],[3.94500209,50.95432409],[3.94498739,50.9543095],[3.94493903,50.95433369],[3.94492099,50.95431866],[3.94482674,50.95436795]]]}},{"type":"Feature","id":"gebouw/Gebouw.9192346/0","properties":{"source":"Digitaal Vlaanderen Gebouwenregister","source_id":"gebouw/Gebouw.9192346/0","kind":"building","height_m":6.44,"status":null},"geometry":{"type":"Polygon","coordinates":[[[3.94807589,50.95490778],[3.9480731,50.95490918],[3.94802818,50.95487344],[3.94802273,50.95487641],[3.94801535,50.95487054],[3.94802099,50.95486771],[3.94811883,50.95481866],[3.94812293,50.95482192],[3.94813469,50.95483127],[3.94821376,50.95478763],[3.94820437,50.95477763],[3.94830328,50.95474172],[3.94839064,50.95483772],[3.94829448,50.95487215],[3.94829332,50.95487087],[3.9482327,50.95489269],[3.94819292,50.9548491],[3.94807589,50.95490778]]]}},{"type":"Feature","id":"gebouw/Gebouw.9192720/0","properties":{"source":"Digitaal Vlaanderen Gebouwenregister","source_id":"gebouw/Gebouw.9192720/0","kind":"building","height_m":8.6,"status":null},"geometry":{"type":"Polygon","coordinates":[[[3.94515337,50.95543526],[3.94513028,50.95544586],[3.94508965,50.95546449],[3.94506936,50.95544853],[3.94511073,50.95542894],[3.9451319,50.95541891],[3.94515337,50.95543526]]]}},{"type":"Feature","id":"gebouw/Gebouw.9419570/0","properties":{"source":"Digitaal Vlaanderen Gebouwenregister","source_id":"gebouw/Gebouw.9419570/0","kind":"building","height_m":9.32,"status":null},"geometry":{"type":"Polygon","coordinates":[[[3.94531576,50.95437878],[3.94513654,50.95443145],[3.94509661,50.95437763],[3.94514316,50.95434745],[3.94519395,50.95432425],[3.94526081,50.95430419],[3.94531576,50.95437878]]]}},{"type":"Feature","id":"gebouw/Gebouw.9462424/0","properties":{"source":"Digitaal Vlaanderen Gebouwenregister","source_id":"gebouw/Gebouw.9462424/0","kind":"building","height_m":9.32,"status":null},"geometry":{"type":"Polygon","coordinates":[[[3.94531456,50.95283309],[3.94539018,50.95276457],[3.94548181,50.95280553],[3.94551344,50.95281938],[3.94561175,50.9528651],[3.94553534,50.95293227],[3.94536288,50.95285479],[3.94531456,50.95283309]]]}},{"type":"Feature","id":"gebouw/Gebouw.9462425/0","properties":{"source":"Digitaal Vlaanderen Gebouwenregister","source_id":"gebouw/Gebouw.9462425/0","kind":"building","height_m":5.0,"status":null},"geometry":{"type":"Polygon","coordinates":[[[3.94553534,50.95293227],[3.94547968,50.9529812],[3.94534766,50.95292179],[3.94535161,50.95291866],[3.9453109,50.95290114],[3.94536288,50.95285479],[3.94553534,50.95293227]]]}},{"type":"Feature","id":"gebouw/Gebouw.9462941/0","properties":{"source":"Digitaal Vlaanderen Gebouwenregister","source_id":"gebouw/Gebouw.9462941/0","kind":"building","height_m":8.6,"status":null},"geometry":{"type":"Polygon","coordinates":[[[3.94614066,50.95444079],[3.94603348,50.95449443],[3.9460319,50.95449318],[3.94603132,50.95449272],[3.94596484,50.95452646],[3.94591409,50.95448656],[3.94598062,50.95445279],[3.94596818,50.95444301],[3.94593115,50.95441403],[3.9460381,50.95435952],[3.94614066,50.95444079]]]}},{"type":"Feature","id":"gebouw/Gebouw.9476052/0","properties":{"source":"Digitaal Vlaanderen Gebouwenregister","source_id":"gebouw/Gebouw.9476052/0","kind":"building","height_m":8.6,"status":null},"geometry":{"type":"Polygon","coordinates":[[[3.94661023,50.95486161],[3.94665191,50.95489693],[3.94655064,50.95494277],[3.94651079,50.95490597],[3.94661023,50.95486161]]]}},{"type":"Feature","id":"gebouw/Gebouw.9476053/0","properties":{"source":"Digitaal Vlaanderen Gebouwenregister","source_id":"gebouw/Gebouw.9476053/0","kind":"building","height_m":9.32,"status":null},"geometry":{"type":"Polygon","coordinates":[[[3.94519686,50.95489782],[3.94523291,50.95492259],[3.94517086,50.95495414],[3.94513753,50.95492798],[3.94519686,50.95489782]]]}},{"type":"Feature","id":"gebouw/Gebouw.9487757/0","properties":{"source":"Digitaal Vlaanderen Gebouwenregister","source_id":"gebouw/Gebouw.9487757/0","kind":"building","height_m":9.32,"status":null},"geometry":{"type":"Polygon","coordinates":[[[3.94564035,50.95324678],[3.94569993,50.95321204],[3.94571697,50.9532237],[3.94573341,50.95321439],[3.94582649,50.95327691],[3.94578947,50.95329845],[3.94584508,50.95333846],[3.94583275,50.95334613],[3.94586359,50.95336701],[3.94583855,50.95338177],[3.94578903,50.95334853],[3.94574969,50.95332161],[3.94564035,50.95324678]]]}},{"type":"Feature","id":"gebouw/Gebouw.9487758/0","properties":{"source":"Digitaal Vlaanderen Gebouwenregister","source_id":"gebouw/Gebouw.9487758/0","kind":"building","height_m":5.0,"status":null},"geometry":{"type":"Polygon","coordinates":[[[3.94574969,50.95332161],[3.94567567,50.95336469],[3.94558496,50.9533022],[3.94559764,50.95329487],[3.94557935,50.95328235],[3.94564035,50.95324678],[3.94574969,50.95332161]]]}},{"type":"Feature","id":"gebouw/Gebouw.9487759/0","properties":{"source":"Digitaal Vlaanderen Gebouwenregister","source_id":"gebouw/Gebouw.9487759/0","kind":"building","height_m":5.72,"status":null},"geometry":{"type":"Polygon","coordinates":[[[3.94600775,50.95532258],[3.9460325,50.95531363],[3.94611162,50.95540089],[3.94599378,50.95544352],[3.94597723,50.95542402],[3.94596795,50.95542709],[3.94593868,50.95539341],[3.94594589,50.95539013],[3.94591383,50.95535655],[3.9459244,50.95535273],[3.94600775,50.95532258]]]}},{"type":"Feature","id":"gebouw/Gebouw.9494133/0","properties":{"source":"Digitaal Vlaanderen Gebouwenregister","source_id":"gebouw/Gebouw.9494133/0","kind":"building","height_m":8.6,"status":null},"geometry":{"type":"Polygon","coordinates":[[[3.94694051,50.95270747],[3.94700643,50.95274532],[3.94697586,50.9527665],[3.94691055,50.95272828],[3.94694051,50.95270747]]]}},{"type":"Feature","id":"gebouw/Gebouw.9494134/0","properties":{"source":"Digitaal Vlaanderen Gebouwenregister","source_id":"gebouw/Gebouw.9494134/0","kind":"building","height_m":9.32,"status":null},"geometry":{"type":"Polygon","coordinates":[[[3.9463986,50.95317208],[3.94642044,50.95312457],[3.94648298,50.95313579],[3.94645997,50.95318253],[3.9463986,50.95317208]]]}},{"type":"Feature","id":"gebouw/Gebouw.9494135/0","properties":{"source":"Digitaal Vlaanderen Gebouwenregister","source_id":"gebouw/Gebouw.9494135/0","kind":"building","height_m":5.0,"status":null},"geometry":{"type":"Polygon","coordinates":[[[3.94770893,50.95490335],[3.94768386,50.95487815],[3.94772797,50.95486049],[3.94775482,50.95488572],[3.94770893,50.95490335]]]}},{"type":"Feature","id":"gebouw/Gebouw.9494410/0","properties":{"source":"Digitaal Vlaanderen Gebouwenregister","source_id":"gebouw/Gebouw.9494410/0","kind":"building","height_m":6.44,"status":null},"geometry":{"type":"Polygon","coordinates":[[[3.94523153,50.95497015],[3.94519949,50.95494579],[3.94524565,50.95492292],[3.94527641,50.95494651],[3.94523153,50.95497015]]]}},{"type":"Feature","id":"gebouw/Gebouw.9494411/0","properties":{"source":"Digitaal Vlaanderen Gebouwenregister","source_id":"gebouw/Gebouw.9494411/0","kind":"building","height_m":7.16,"status":null},"geometry":{"type":"Polygon","coordinates":[[[3.94498056,50.95464657],[3.94507544,50.95459616],[3.94510613,50.95462162],[3.94501077,50.9546703],[3.94498056,50.95464657]]]}},{"type":"Feature","id":"gebouw/Gebouw.9494636/0","properties":{"source":"Digitaal Vlaanderen Gebouwenregister","source_id":"gebouw/Gebouw.9494636/0","kind":"building","height_m":7.88,"status":null},"geometry":{"type":"Polygon","coordinates":[[[3.94512649,50.95354107],[3.9452382,50.95347593],[3.94533256,50.95354048],[3.94522026,50.95360522],[3.94517855,50.95357669],[3.94512649,50.95354107]]]}},{"type":"Feature","id":"gebouw/Gebouw.9494763/0","properties":{"source":"Digitaal Vlaanderen Gebouwenregister","source_id":"gebouw/Gebouw.9494763/0","kind":"building","height_m":8.6,"status":null},"geometry":{"type":"Polygon","coordinates":[[[3.94654671,50.95539507],[3.94653268,50.95537886],[3.94651657,50.95536057],[3.94664082,50.9553169],[3.94660655,50.955278],[3.94657042,50.95530287],[3.94647667,50.95533582],[3.94646017,50.95531711],[3.946307,50.95536874],[3.9463636,50.95543575],[3.94637952,50.9554546],[3.94654671,50.95539507]]]}},{"type":"Feature","id":"gebouw/Gebouw.9563422/0","properties":{"source":"Digitaal Vlaanderen Gebouwenregister","source_id":"gebouw/Gebouw.9563422/0","kind":"building","height_m":5.72,"status":null},"geometry":{"type":"Polygon","coordinates":[[[3.94638146,50.95492228],[3.94633419,50.95494176],[3.94633681,50.95494436],[3.9463682,50.9549755],[3.94641609,50.95495579],[3.94638146,50.95492228]]]}},{"type":"Feature","id":"gebouw/Gebouw.9564027/0","properties":{"source":"Digitaal Vlaanderen Gebouwenregister","source_id":"gebouw/Gebouw.9564027/0","kind":"building","height_m":7.88,"status":null},"geometry":{"type":"Polygon","coordinates":[[[3.94757517,50.95475046],[3.94753535,50.95471254],[3.94756116,50.95470198],[3.9475998,50.95473988],[3.94757517,50.95475046]]]}},{"type":"Feature","id":"gebouw/Gebouw.9575157/0","properties":{"source":"Digitaal Vlaanderen Gebouwenregister","source_id":"gebouw/Gebouw.9575157/0","kind":"building","height_m":7.88,"status":null},"geometry":{"type":"Polygon","coordinates":[[[3.94689062,50.952061],[3.94689764,50.95205601],[3.94696257,50.95208947],[3.94688394,50.95215035],[3.9467294,50.9520707],[3.94673418,50.9520665],[3.94668303,50.95204099],[3.94673673,50.9519991],[3.94678727,50.95202534],[3.9468018,50.95201502],[3.94689062,50.952061]]]}},{"type":"Feature","id":"gebouw/Gebouw.9575811/0","properties":{"source":"Digitaal Vlaanderen Gebouwenregister","source_id":"gebouw/Gebouw.9575811/0","kind":"building","height_m":5.0,"status":null},"geometry":{"type":"Polygon","coordinates":[[[3.94575931,50.95508755],[3.94571256,50.95510939],[3.94569453,50.95511781],[3.94563899,50.95507227],[3.94563298,50.9550752],[3.94555487,50.95500761],[3.94558102,50.95499574],[3.94552551,50.9549464],[3.94560944,50.95490849],[3.9457353,50.95502044],[3.94570018,50.95503617],[3.94575931,50.95508755]]]}},{"type":"Feature","id":"gebouw/Gebouw.9731475/0","properties":{"source":"Digitaal Vlaanderen Gebouwenregister","source_id":"gebouw/Gebouw.9731475/0","kind":"building","height_m":8.6,"status":null},"geometry":{"type":"Polygon","coordinates":[[[3.94701254,50.95529888],[3.94705552,50.95534771],[3.94701141,50.95536319],[3.94696831,50.95531422],[3.94701254,50.95529888]]]}},{"type":"Feature","id":"gebouw/Gebouw.9731476/0","properties":{"source":"Digitaal Vlaanderen Gebouwenregister","source_id":"gebouw/Gebouw.9731476/0","kind":"building","height_m":9.32,"status":null},"geometry":{"type":"Polygon","coordinates":[[[3.94692038,50.95543431],[3.94685665,50.95545662],[3.9468267,50.95542249],[3.94688983,50.95539949],[3.94692038,50.95543431]]]}},{"type":"Feature","id":"gebouw/Gebouw.9731624/0","properties":{"source":"Digitaal Vlaanderen Gebouwenregister","source_id":"gebouw/Gebouw.9731624/0","kind":"building","height_m":5.0,"status":null},"geometry":{"type":"Polygon","coordinates":[[[3.94656557,50.95547317],[3.94664747,50.95544433],[3.94663582,50.95543183],[3.94658742,50.95537993],[3.94654671,50.95539507],[3.94637952,50.9554546],[3.94642426,50.95550765],[3.94654339,50.95546757],[3.94655651,50.9554625],[3.94656557,50.95547317]]]}},{"type":"Feature","id":"gebouw/Gebouw.9732016/0","properties":{"source":"Digitaal Vlaanderen Gebouwenregister","source_id":"gebouw/Gebouw.9732016/0","kind":"building","height_m":5.0,"status":null},"geometry":{"type":"Polygon","coordinates":[[[3.94545839,50.95496004],[3.94547951,50.95497808],[3.945398,50.95501778],[3.94536786,50.95499346],[3.94541392,50.95496983],[3.94542347,50.95497799],[3.94545839,50.95496004]]]}},{"type":"Feature","id":"gebouw/Gebouw.9732017/0","properties":{"source":"Digitaal Vlaanderen Gebouwenregister","source_id":"gebouw/Gebouw.9732017/0","kind":"building","height_m":5.72,"status":null},"geometry":{"type":"Polygon","coordinates":[[[3.94591351,50.9521336],[3.94596175,50.9521469],[3.94594202,50.9521729],[3.9458938,50.95215885],[3.94591351,50.9521336]]]}},{"type":"Feature","id":"gebouw/Gebouw.9732018/0","properties":{"source":"Digitaal Vlaanderen Gebouwenregister","source_id":"gebouw/Gebouw.9732018/0","kind":"building","height_m":6.44,"status":null},"geometry":{"type":"Polygon","coordinates":[[[3.94649365,50.95345265],[3.94646878,50.95343101],[3.9465241,50.95340467],[3.94655018,50.95342595],[3.94649365,50.95345265]]]}},{"type":"Feature","id":"gebouw/Gebouw.9732019/0","properties":{"source":"Digitaal Vlaanderen Gebouwenregister","source_id":"gebouw/Gebouw.9732019/0","kind":"building","height_m":7.16,"status":null},"geometry":{"type":"Polygon","coordinates":[[[3.94659652,50.95497664],[3.94657449,50.95495916],[3.94668606,50.95490557],[3.94670783,50.95492174],[3.94659652,50.95497664]]]}},{"type":"Feature","id":"gebouw/Gebouw.9737226/0","properties":{"source":"Digitaal Vlaanderen Gebouwenregister","source_id":"gebouw/Gebouw.9737226/0","kind":"building","height_m":6.44,"status":null},"geometry":{"type":"Polygon","coordinates":[[[3.94581212,50.95427774],[3.9458218,50.95428515],[3.9459067,50.95424119],[3.94598083,50.95429989],[3.94577002,50.95440907],[3.9457608,50.95440228],[3.94575607,50.95440471],[3.94570354,50.95436407],[3.94571933,50.95435593],[3.9457185,50.95435529],[3.94569915,50.9543389],[3.94568826,50.95434454],[3.94568471,50.95434169],[3.94581212,50.95427774]]]}},{"type":"Feature","id":"gebouw/Gebouw.9746068/0","properties":{"source":"Digitaal Vlaanderen Gebouwenregister","source_id":"gebouw/Gebouw.9746068/0","kind":"building","height_m":7.16,"status":null},"geometry":{"type":"Polygon","coordinates":[[[3.94637586,50.95527066],[3.94626889,50.955307],[3.94626884,50.95530694],[3.94623753,50.95527457],[3.9462367,50.95527485],[3.94616653,50.95520132],[3.9462323,50.95517629],[3.94620721,50.95515271],[3.94620728,50.95515268],[3.94624769,50.95513392],[3.9462661,50.95515255],[3.9462733,50.95515983],[3.94627899,50.95515784],[3.94630408,50.95518382],[3.94632016,50.95520046],[3.94649415,50.95512174],[3.94650109,50.95512782],[3.94653442,50.95511341],[3.94656888,50.95514209],[3.9464156,50.95520951],[3.94635415,50.95523724],[3.9463871,50.95526684],[3.94637586,50.95527066]]]}},{"type":"Feature","id":"gebouw/Gebouw.9746071/0","properties":{"source":"Digitaal Vlaanderen Gebouwenregister","source_id":"gebouw/Gebouw.9746071/0","kind":"building","height_m":9.32,"status":null},"geometry":{"type":"Polygon","coordinates":[[[3.94560811,50.95342463],[3.94553367,50.95346632],[3.94546481,50.95341828],[3.94541705,50.95338496],[3.94549051,50.95334295],[3.94560811,50.95342463]]]}},{"type":"Feature","id":"gebouw/Gebouw.9746816/0","properties":{"source":"Digitaal Vlaanderen Gebouwenregister","source_id":"gebouw/Gebouw.9746816/0","kind":"building","height_m":6.44,"status":null},"geometry":{"type":"Polygon","coordinates":[[[3.94480676,50.95336113],[3.94478624,50.95337325],[3.94475734,50.95335775],[3.94473616,50.95337211],[3.94470523,50.95335489],[3.94472683,50.95334138],[3.94474902,50.95332749],[3.94480676,50.95336113]]]}},{"type":"Feature","id":"gebouw/Gebouw.9761310/0","properties":{"source":"Digitaal Vlaanderen Gebouwenregister","source_id":"gebouw/Gebouw.9761310/0","kind":"building","height_m":9.32,"status":null},"geometry":{"type":"Polygon","coordinates":[[[3.94569546,50.95524659],[3.94568231,50.95523498],[3.94562793,50.95525926],[3.94564218,50.95527155],[3.94564223,50.95527159],[3.94566843,50.9552942],[3.9457225,50.95527047],[3.94569624,50.95524728],[3.94569619,50.95524723],[3.94569546,50.95524659]]]}},{"type":"Feature","id":"gebouw/Gebouw.9776056/0","properties":{"source":"Digitaal Vlaanderen Gebouwenregister","source_id":"gebouw/Gebouw.9776056/0","kind":"building","height_m":7.16,"status":null},"geometry":{"type":"Polygon","coordinates":[[[3.94661071,50.95402772],[3.94665593,50.95406346],[3.94660536,50.95408947],[3.94655895,50.95405372],[3.94661071,50.95402772]]]}},{"type":"Feature","id":"gebouw/Gebouw.9776068/0","properties":{"source":"Digitaal Vlaanderen Gebouwenregister","source_id":"gebouw/Gebouw.9776068/0","kind":"building","height_m":5.72,"status":null},"geometry":{"type":"Polygon","coordinates":[[[3.94510018,50.95280504],[3.94521969,50.95285588],[3.94517797,50.95289379],[3.94505899,50.95284484],[3.94506387,50.9528404],[3.94504103,50.95283039],[3.94507184,50.95280059],[3.945095,50.95281004],[3.94510018,50.95280504]]]}},{"type":"Feature","id":"gebouw/Gebouw.9776069/0","properties":{"source":"Digitaal Vlaanderen Gebouwenregister","source_id":"gebouw/Gebouw.9776069/0","kind":"building","height_m":6.44,"status":null},"geometry":{"type":"Polygon","coordinates":[[[3.94609392,50.95246667],[3.94620229,50.95250295],[3.94607776,50.95265566],[3.94587361,50.95258867],[3.9459517,50.9524933],[3.94604719,50.95252382],[3.94609392,50.95246667]]]}},{"type":"Feature","id":"gebouw/Gebouw.9776070/0","properties":{"source":"Digitaal Vlaanderen Gebouwenregister","source_id":"gebouw/Gebouw.9776070/0","kind":"building","height_m":7.16,"status":null},"geometry":{"type":"Polygon","coordinates":[[[3.94567136,50.95365609],[3.94567568,50.95365935],[3.94576336,50.95361295],[3.94582774,50.95366277],[3.94576363,50.95369556],[3.94578164,50.9537085],[3.94575635,50.95372031],[3.94578941,50.95374528],[3.94582823,50.95377461],[3.94583879,50.95378259],[3.94567379,50.95386871],[3.94561609,50.95382328],[3.94562723,50.9538176],[3.94557732,50.95377994],[3.94556674,50.95378674],[3.94550817,50.95374111],[3.94567136,50.95365609]]]}},{"type":"Feature","id":"gebouw/Gebouw.9776401/0","properties":{"source":"Digitaal Vlaanderen Gebouwenregister","source_id":"gebouw/Gebouw.9776401/0","kind":"building","height_m":8.6,"status":null},"geometry":{"type":"Polygon","coordinates":[[[3.94774249,50.95492108],[3.94781944,50.95500129],[3.94777875,50.95501686],[3.94777115,50.95500885],[3.94766343,50.9550507],[3.94759381,50.9549792],[3.94774249,50.95492108]]]}},{"type":"Feature","id":"gebouw/Gebouw.9776406/0","properties":{"source":"Digitaal Vlaanderen Gebouwenregister","source_id":"gebouw/Gebouw.9776406/0","kind":"building","height_m":7.16,"status":null},"geometry":{"type":"Polygon","coordinates":[[[3.9448369,50.95352999],[3.94478239,50.95354918],[3.94469043,50.95344501],[3.9446718,50.95342391],[3.94478028,50.9533857],[3.94486549,50.95343481],[3.94479444,50.95345883],[3.94482084,50.95348869],[3.94480524,50.95349419],[3.9448369,50.95352999]]]}},{"type":"Feature","id":"gebouw/Gebouw.9776943/0","properties":{"source":"Digitaal Vlaanderen Gebouwenregister","source_id":"gebouw/Gebouw.9776943/0","kind":"building","height_m":5.72,"status":null},"geometry":{"type":"Polygon","coordinates":[[[3.94561984,50.95397276],[3.94571243,50.95404634],[3.94554949,50.95412862],[3.94545665,50.95405589],[3.94561984,50.95397276]]]}},{"type":"Feature","id":"gebouw/Gebouw.9776944/0","properties":{"source":"Digitaal Vlaanderen Gebouwenregister","source_id":"gebouw/Gebouw.9776944/0","kind":"building","height_m":6.44,"status":null},"geometry":{"type":"Polygon","coordinates":[[[3.94529107,50.95469746],[3.94515602,50.95459897],[3.9452524,50.95454764],[3.94531268,50.95459165],[3.94538445,50.95455262],[3.94545808,50.95460662],[3.94529107,50.95469746]]]}},{"type":"Feature","id":"gebouw/Gebouw.9841704/0","properties":{"source":"Digitaal Vlaanderen Gebouwenregister","source_id":"gebouw/Gebouw.9841704/0","kind":"building","height_m":8.6,"status":null},"geometry":{"type":"Polygon","coordinates":[[[3.94517556,50.95295632],[3.94508963,50.95300414],[3.94512392,50.95302896],[3.94511911,50.95303153],[3.94517486,50.95307226],[3.94519351,50.9530605],[3.9453022,50.95312925],[3.94530788,50.95313307],[3.94535453,50.95310678],[3.94537601,50.95310742],[3.94537721,50.95309392],[3.94539287,50.95308488],[3.94533681,50.95304023],[3.94533888,50.95303014],[3.94531818,50.95302803],[3.94528627,50.95300368],[3.94526759,50.95301396],[3.94521552,50.95297908],[3.9452098,50.95298219],[3.94517556,50.95295632]]]}},{"type":"Feature","id":"gebouw/Gebouw.15219012/0","properties":{"source":"Digitaal Vlaanderen Gebouwenregister","source_id":"gebouw/Gebouw.15219012/0","kind":"building","height_m":7.88,"status":null},"geometry":{"type":"Polygon","coordinates":[[[3.94461816,50.95401624],[3.94457185,50.95398205],[3.94458319,50.95397741],[3.9445786,50.95397374],[3.94464294,50.9539381],[3.9445525,50.95387049],[3.94457191,50.95385962],[3.94459858,50.95384468],[3.94456339,50.95381684],[3.94458346,50.95380519],[3.94458397,50.95380554],[3.94458807,50.95380846],[3.9446109,50.95379608],[3.9446443,50.95382052],[3.94464983,50.95381762],[3.9446899,50.95384859],[3.94478008,50.9539183],[3.94479767,50.9539319],[3.94470238,50.95398129],[3.94469257,50.95397479],[3.94461816,50.95401624]]]}},{"type":"Feature","id":"gebouw/Gebouw.18196627/0","properties":{"source":"Digitaal Vlaanderen Gebouwenregister","source_id":"gebouw/Gebouw.18196627/0","kind":"building","height_m":5.72,"status":null},"geometry":{"type":"Polygon","coordinates":[[[3.94489066,50.95414024],[3.9449268,50.95416707],[3.94476085,50.9542532],[3.94472673,50.95422697],[3.94483929,50.95416855],[3.94472779,50.95408283],[3.94491096,50.9539877],[3.94495842,50.95402384],[3.94494779,50.9540294],[3.94500436,50.95407249],[3.94501477,50.95406676],[3.94501931,50.95407006],[3.94489066,50.95414024]]]}},{"type":"Feature","id":"gebouw/Gebouw.18196636/0","properties":{"source":"Digitaal Vlaanderen Gebouwenregister","source_id":"gebouw/Gebouw.18196636/0","kind":"building","height_m":7.16,"status":null},"geometry":{"type":"Polygon","coordinates":[[[3.94574545,50.9542422],[3.94573308,50.95423268],[3.94569438,50.95425273],[3.94566664,50.95426711],[3.94560775,50.95422075],[3.94559267,50.95420888],[3.94562154,50.95419425],[3.94560913,50.95418434],[3.94574382,50.95411609],[3.94578061,50.95414505],[3.94583615,50.9541169],[3.94589164,50.95416058],[3.94583509,50.95418924],[3.94584092,50.95419382],[3.94576174,50.95423395],[3.94574545,50.9542422]]]}},{"type":"Feature","id":"gebouw/Gebouw.18241758/0","properties":{"source":"Digitaal Vlaanderen Gebouwenregister","source_id":"gebouw/Gebouw.18241758/0","kind":"building","height_m":7.16,"status":null},"geometry":{"type":"Polygon","coordinates":[[[3.94775618,50.9522701],[3.94776027,50.95227181],[3.94778837,50.95224505],[3.94770998,50.95221277],[3.94763682,50.95218265],[3.94762996,50.95219022],[3.94761072,50.95221148],[3.94752089,50.95217405],[3.94746623,50.95222478],[3.94742838,50.9522087],[3.94737855,50.95218753],[3.94733782,50.95222645],[3.94739746,50.95225115],[3.9474768,50.95228402],[3.94746857,50.95229421],[3.94757791,50.9523385],[3.94768068,50.95223846],[3.94775618,50.9522701]]]}},{"type":"Feature","id":"gebouw/Gebouw.18361985/0","properties":{"source":"Digitaal Vlaanderen Gebouwenregister","source_id":"gebouw/Gebouw.18361985/0","kind":"building","height_m":8.6,"status":null},"geometry":{"type":"Polygon","coordinates":[[[3.94661423,50.9548072],[3.94658974,50.95478221],[3.94663174,50.95476579],[3.94665623,50.95479079],[3.94661423,50.9548072]]]}},{"type":"Feature","id":"gebouw/Gebouw.18361986/0","properties":{"source":"Digitaal Vlaanderen Gebouwenregister","source_id":"gebouw/Gebouw.18361986/0","kind":"building","height_m":9.32,"status":null},"geometry":{"type":"Polygon","coordinates":[[[3.94641357,50.95507443],[3.94643854,50.95509883],[3.94636521,50.95512976],[3.94633913,50.95510782],[3.94641357,50.95507443]]]}},{"type":"Feature","id":"gebouw/Gebouw.18361987/0","properties":{"source":"Digitaal Vlaanderen Gebouwenregister","source_id":"gebouw/Gebouw.18361987/0","kind":"building","height_m":5.0,"status":null},"geometry":{"type":"Polygon","coordinates":[[[3.94795314,50.95499787],[3.94798616,50.95502637],[3.94798642,50.95502659],[3.94793579,50.95505],[3.94793527,50.95504955],[3.94789758,50.95501703],[3.94794821,50.95499362],[3.94795314,50.95499787]]]}},{"type":"Feature","id":"gebouw/Gebouw.18361988/0","properties":{"source":"Digitaal Vlaanderen Gebouwenregister","source_id":"gebouw/Gebouw.18361988/0","kind":"building","height_m":5.72,"status":null},"geometry":{"type":"Polygon","coordinates":[[[3.94949819,50.95412005],[3.94950928,50.95417222],[3.94948662,50.95417462],[3.94945025,50.95417846],[3.94943806,50.9541271],[3.94949413,50.95412052],[3.94949819,50.95412005]]]}},{"type":"Feature","id":"gebouw/Gebouw.18362109/0","properties":{"source":"Digitaal Vlaanderen Gebouwenregister","source_id":"gebouw/Gebouw.18362109/0","kind":"building","height_m":7.16,"status":null},"geometry":{"type":"Polygon","coordinates":[[[3.94451501,50.95276393],[3.94457245,50.95278713],[3.94453052,50.95282755],[3.9444734,50.95280221],[3.94451501,50.95276393]]]}},{"type":"Feature","id":"gebouw/Gebouw.18362110/0","properties":{"source":"Digitaal Vlaanderen Gebouwenregister","source_id":"gebouw/Gebouw.18362110/0","kind":"building","height_m":7.88,"status":null},"geometry":{"type":"Polygon","coordinates":[[[3.94525217,50.95267244],[3.94521994,50.95270161],[3.94516068,50.95267353],[3.94516341,50.95267108],[3.94518702,50.95264988],[3.94519504,50.95265353],[3.94520207,50.95265672],[3.9452056,50.95265199],[3.94525217,50.95267244]]]}},{"type":"Feature","id":"gebouw/Gebouw.18362111/0","properties":{"source":"Digitaal Vlaanderen Gebouwenregister","source_id":"gebouw/Gebouw.18362111/0","kind":"building","height_m":8.6,"status":null},"geometry":{"type":"Polygon","coordinates":[[[3.94653434,50.95215593],[3.94659073,50.95211107],[3.94672711,50.95218059],[3.94675774,50.95215651],[3.94682988,50.95219377],[3.94674401,50.9522601],[3.94666862,50.95222185],[3.94669327,50.95220218],[3.94667221,50.95219124],[3.94664218,50.95221399],[3.94653434,50.95215593]]]}},{"type":"Feature","id":"gebouw/Gebouw.18362310/0","properties":{"source":"Digitaal Vlaanderen Gebouwenregister","source_id":"gebouw/Gebouw.18362310/0","kind":"building","height_m":5.72,"status":null},"geometry":{"type":"Polygon","coordinates":[[[3.945885,50.95349165],[3.94589511,50.95349791],[3.94588154,50.95350541],[3.94584969,50.953523],[3.94580808,50.9534981],[3.94585233,50.95346774],[3.94585834,50.95347184],[3.94590474,50.9534439],[3.94593279,50.95346059],[3.945885,50.95349165]]]}},{"type":"Feature","id":"gebouw/Gebouw.18362311/0","properties":{"source":"Digitaal Vlaanderen Gebouwenregister","source_id":"gebouw/Gebouw.18362311/0","kind":"building","height_m":6.44,"status":null},"geometry":{"type":"Polygon","coordinates":[[[3.94571485,50.95349136],[3.94575176,50.95347066],[3.945831,50.95352706],[3.94579408,50.95354775],[3.94571485,50.95349136]]]}},{"type":"Feature","id":"gebouw/Gebouw.18362312/0","properties":{"source":"Digitaal Vlaanderen Gebouwenregister","source_id":"gebouw/Gebouw.18362312/0","kind":"building","height_m":7.16,"status":null},"geometry":{"type":"Polygon","coordinates":[[[3.94551307,50.9535223],[3.94557475,50.95356588],[3.94552163,50.95359663],[3.94546007,50.95355313],[3.94551307,50.9535223]]]}},{"type":"Feature","id":"gebouw/Gebouw.18362313/0","properties":{"source":"Digitaal Vlaanderen Gebouwenregister","source_id":"gebouw/Gebouw.18362313/0","kind":"building","height_m":7.88,"status":null},"geometry":{"type":"Polygon","coordinates":[[[3.94588759,50.95382053],[3.94595971,50.95387731],[3.94588901,50.95391472],[3.94581918,50.95385736],[3.94588759,50.95382053]]]}},{"type":"Feature","id":"gebouw/Gebouw.18362644/0","properties":{"source":"Digitaal Vlaanderen Gebouwenregister","source_id":"gebouw/Gebouw.18362644/0","kind":"building","height_m":9.32,"status":null},"geometry":{"type":"Polygon","coordinates":[[[3.94770998,50.95221277],[3.9477345,50.95218829],[3.94775978,50.95219746],[3.94777502,50.95217928],[3.94782818,50.9522017],[3.94781276,50.9522191],[3.94790436,50.95225795],[3.94788099,50.95228319],[3.94787401,50.95228032],[3.94778837,50.95224505],[3.94770998,50.95221277]]]}},{"type":"Feature","id":"gebouw/Gebouw.18362645/0","properties":{"source":"Digitaal Vlaanderen Gebouwenregister","source_id":"gebouw/Gebouw.18362645/0","kind":"building","height_m":5.0,"status":null},"geometry":{"type":"Polygon","coordinates":[[[3.94702577,50.95260312],[3.94712928,50.95265565],[3.94710424,50.95267881],[3.94700313,50.95262484],[3.94702577,50.95260312]]]}},{"type":"Feature","id":"gebouw/Gebouw.18362646/0","properties":{"source":"Digitaal Vlaanderen Gebouwenregister","source_id":"gebouw/Gebouw.18362646/0","kind":"building","height_m":5.72,"status":null},"geometry":{"type":"Polygon","coordinates":[[[3.94595215,50.95341106],[3.94600065,50.95344489],[3.9460798,50.95340428],[3.94600657,50.95335001],[3.9459666,50.95337264],[3.94599008,50.95338815],[3.94595215,50.95341106]]]}},{"type":"Feature","id":"gebouw/Gebouw.18362812/0","properties":{"source":"Digitaal Vlaanderen Gebouwenregister","source_id":"gebouw/Gebouw.18362812/0","kind":"building","height_m":9.32,"status":null},"geometry":{"type":"Polygon","coordinates":[[[3.94504167,50.95278969],[3.94501623,50.95281451],[3.94496677,50.95279361],[3.94498926,50.95276794],[3.94504167,50.95278969]]]}},{"type":"Feature","id":"gebouw/Gebouw.18374759/0","properties":{"source":"Digitaal Vlaanderen Gebouwenregister","source_id":"gebouw/Gebouw.18374759/0","kind":"building","height_m":7.88,"status":null},"geometry":{"type":"Polygon","coordinates":[[[3.94483783,50.95437608],[3.94477978,50.95440586],[3.94474696,50.95438269],[3.94480351,50.95435083],[3.94482674,50.95436795],[3.94483783,50.95437608]]]}},{"type":"Feature","id":"gebouw/Gebouw.18463379/0","properties":{"source":"Digitaal Vlaanderen Gebouwenregister","source_id":"gebouw/Gebouw.18463379/0","kind":"building","height_m":7.88,"status":null},"geometry":{"type":"Polygon","coordinates":[[[3.94549662,50.9527429],[3.94550106,50.95273744],[3.94549386,50.95273511],[3.94554331,50.95267441],[3.9457392,50.9527391],[3.94574971,50.95274257],[3.94571674,50.95278241],[3.94576937,50.95279921],[3.9457598,50.95281134],[3.94573281,50.95284557],[3.9456557,50.95282044],[3.94565999,50.95281519],[3.94563805,50.95280804],[3.945645,50.95279954],[3.94555678,50.95277077],[3.9455621,50.95276425],[3.94549662,50.9527429]]]}},{"type":"Feature","id":"gebouw/Gebouw.18505283/0","properties":{"source":"Digitaal Vlaanderen Gebouwenregister","source_id":"gebouw/Gebouw.18505283/0","kind":"building","height_m":9.32,"status":null},"geometry":{"type":"Polygon","coordinates":[[[3.94514191,50.9535979],[3.94510513,50.95361921],[3.94505537,50.95358469],[3.94509216,50.95356339],[3.94514191,50.9535979]]]}},{"type":"Feature","id":"gebouw/Gebouw.18505285/0","properties":{"source":"Digitaal Vlaanderen Gebouwenregister","source_id":"gebouw/Gebouw.18505285/0","kind":"building","height_m":5.72,"status":null},"geometry":{"type":"Polygon","coordinates":[[[3.9448207,50.95334842],[3.94480901,50.95335606],[3.94477835,50.95337609],[3.94472718,50.95334486],[3.94475637,50.95332579],[3.94476953,50.95331718],[3.9448207,50.95334842]]]}},{"type":"Feature","id":"gebouw/Gebouw.18735117/0","properties":{"source":"Digitaal Vlaanderen Gebouwenregister","source_id":"gebouw/Gebouw.18735117/0","kind":"building","height_m":6.44,"status":null},"geometry":{"type":"Polygon","coordinates":[[[3.94641613,50.95490275],[3.94639309,50.95488151],[3.94646061,50.9548523],[3.94648364,50.95487354],[3.94641613,50.95490275]]]}},{"type":"Feature","id":"gebouw/Gebouw.18735118/0","properties":{"source":"Digitaal Vlaanderen Gebouwenregister","source_id":"gebouw/Gebouw.18735118/0","kind":"building","height_m":7.16,"status":null},"geometry":{"type":"Polygon","coordinates":[[[3.94603881,50.95380117],[3.94599379,50.95376644],[3.94611597,50.95370324],[3.94616099,50.95373797],[3.94603881,50.95380117]]]}},{"type":"Feature","id":"gebouw/Gebouw.18735119/0","properties":{"source":"Digitaal Vlaanderen Gebouwenregister","source_id":"gebouw/Gebouw.18735119/0","kind":"building","height_m":7.88,"status":null},"geometry":{"type":"Polygon","coordinates":[[[3.94598302,50.9540133],[3.94594252,50.95398202],[3.94605203,50.95392547],[3.94609252,50.95395676],[3.94598302,50.9540133]]]}},{"type":"Feature","id":"gebouw/Gebouw.18735120/0","properties":{"source":"Digitaal Vlaanderen Gebouwenregister","source_id":"gebouw/Gebouw.18735120/0","kind":"building","height_m":8.6,"status":null},"geometry":{"type":"Polygon","coordinates":[[[3.94538458,50.95376597],[3.94538738,50.9537682],[3.94534918,50.95378453],[3.94532325,50.95376383],[3.94535931,50.95374581],[3.94538458,50.95376597]]]}},{"type":"Feature","id":"gebouw/Gebouw.18735121/0","properties":{"source":"Digitaal Vlaanderen Gebouwenregister","source_id":"gebouw/Gebouw.18735121/0","kind":"building","height_m":9.32,"status":null},"geometry":{"type":"Polygon","coordinates":[[[3.9452255,50.95270581],[3.94525606,50.9526793],[3.94537331,50.95273322],[3.94534275,50.95275973],[3.9452255,50.95270581]]]}},{"type":"Feature","id":"gebouw/Gebouw.19523037/0","properties":{"source":"Digitaal Vlaanderen Gebouwenregister","source_id":"gebouw/Gebouw.19523037/0","kind":"building","height_m":6.44,"status":null},"geometry":{"type":"Polygon","coordinates":[[[3.9464156,50.95520951],[3.9464494,50.95524741],[3.9463871,50.95526684],[3.94635415,50.95523724],[3.9464156,50.95520951]]]}},{"type":"Feature","id":"gebouw/Gebouw.19524795/0","properties":{"source":"Digitaal Vlaanderen Gebouwenregister","source_id":"gebouw/Gebouw.19524795/0","kind":"building","height_m":7.16,"status":null},"geometry":{"type":"Polygon","coordinates":[[[3.94928218,50.9541875],[3.94928017,50.95418752],[3.94929352,50.95410565],[3.94929636,50.95408819],[3.94930229,50.95405179],[3.94931444,50.95397722],[3.9493255,50.95395463],[3.94933307,50.95393917],[3.94935233,50.95394303],[3.94929946,50.95388876],[3.94950378,50.95380665],[3.94955337,50.95384876],[3.9495699,50.95386279],[3.94949336,50.95389494],[3.94952251,50.95392262],[3.94945445,50.95395047],[3.9494407,50.95393383],[3.94939214,50.95395162],[3.94936601,50.95411653],[3.94935419,50.954187],[3.94928218,50.9541875]]]}},{"type":"Feature","id":"gebouw/Gebouw.19524796/0","properties":{"source":"Digitaal Vlaanderen Gebouwenregister","source_id":"gebouw/Gebouw.19524796/0","kind":"building","height_m":7.88,"status":null},"geometry":{"type":"Polygon","coordinates":[[[3.9495699,50.95386279],[3.94962186,50.95390691],[3.94958292,50.95392214],[3.94953959,50.95393909],[3.94952251,50.95392262],[3.94949336,50.95389494],[3.9495699,50.95386279]]]}},{"type":"Feature","id":"gebouw/Gebouw.19525459/0","properties":{"source":"Digitaal Vlaanderen Gebouwenregister","source_id":"gebouw/Gebouw.19525459/0","kind":"building","height_m":6.44,"status":null},"geometry":{"type":"Polygon","coordinates":[[[3.9454457,50.95469261],[3.94551479,50.95474533],[3.94538797,50.95481163],[3.94538148,50.95481502],[3.94540837,50.9548349],[3.94528791,50.95489681],[3.94519633,50.95494387],[3.94515622,50.95491326],[3.9452458,50.95486643],[3.94529266,50.95484193],[3.94528105,50.95483308],[3.94523369,50.95479693],[3.94531304,50.95475545],[3.94539533,50.95471242],[3.94544063,50.95468874],[3.9454457,50.95469261]]]}},{"type":"Feature","id":"gebouw/Gebouw.19525460/0","properties":{"source":"Digitaal Vlaanderen Gebouwenregister","source_id":"gebouw/Gebouw.19525460/0","kind":"building","height_m":7.16,"status":null},"geometry":{"type":"Polygon","coordinates":[[[3.94525652,50.95484494],[3.94523228,50.95485667],[3.94518923,50.95482375],[3.94516919,50.95480651],[3.94516926,50.95480647],[3.94518688,50.95479757],[3.94520379,50.9548123],[3.94521012,50.95480882],[3.94525652,50.95484494]]]}},{"type":"Feature","id":"gebouw/Gebouw.19526375/0","properties":{"source":"Digitaal Vlaanderen Gebouwenregister","source_id":"gebouw/Gebouw.19526375/0","kind":"building","height_m":5.72,"status":null},"geometry":{"type":"Polygon","coordinates":[[[3.94489485,50.95310393],[3.94485768,50.95313465],[3.94481634,50.95311522],[3.94479067,50.95310316],[3.94475655,50.95308713],[3.94473916,50.95307895],[3.94476884,50.9530542],[3.94481288,50.95307684],[3.94482193,50.95307003],[3.94489485,50.95310393]]]}},{"type":"Feature","id":"gebouw/Gebouw.19527239/0","properties":{"source":"Digitaal Vlaanderen Gebouwenregister","source_id":"gebouw/Gebouw.19527239/0","kind":"building","height_m":7.88,"status":null},"geometry":{"type":"Polygon","coordinates":[[[3.94515383,50.95417932],[3.94516881,50.95419213],[3.94517229,50.95419055],[3.94517936,50.95419663],[3.94519345,50.95419786],[3.94520808,50.95421037],[3.94520586,50.9542192],[3.94521293,50.95422528],[3.94504423,50.95430352],[3.94502828,50.95429012],[3.94501745,50.95429524],[3.94503514,50.95430912],[3.94500209,50.95432409],[3.94500933,50.95433027],[3.94496266,50.95435209],[3.94493524,50.95433053],[3.94492099,50.95431866],[3.94490057,50.9543033],[3.94515383,50.95417932]]]}},{"type":"Feature","id":"gebouw/Gebouw.19527240/0","properties":{"source":"Digitaal Vlaanderen Gebouwenregister","source_id":"gebouw/Gebouw.19527240/0","kind":"building","height_m":8.6,"status":null},"geometry":{"type":"Polygon","coordinates":[[[3.94493524,50.95433053],[3.94483783,50.95437608],[3.94482674,50.95436795],[3.94480351,50.95435083],[3.94490057,50.9543033],[3.94492099,50.95431866],[3.94493524,50.95433053]]]}},{"type":"Feature","id":"gebouw/Gebouw.19527241/0","properties":{"source":"Digitaal Vlaanderen Gebouwenregister","source_id":"gebouw/Gebouw.19527241/0","kind":"building","height_m":9.32,"status":null},"geometry":{"type":"Polygon","coordinates":[[[3.9468181,50.95302081],[3.9467617,50.95305034],[3.94669245,50.95300251],[3.94658449,50.95292793],[3.94663632,50.9528982],[3.94677277,50.95299023],[3.94681232,50.95301691],[3.9468181,50.95302081]]]}},{"type":"Feature","id":"gebouw/Gebouw.19527245/0","properties":{"source":"Digitaal Vlaanderen Gebouwenregister","source_id":"gebouw/Gebouw.19527245/0","kind":"building","height_m":7.16,"status":null},"geometry":{"type":"Polygon","coordinates":[[[3.94512633,50.95544767],[3.94508965,50.95546449],[3.94506936,50.95544853],[3.94510666,50.95543086],[3.94512633,50.95544767]]]}},{"type":"Feature","id":"gebouw/Gebouw.19527246/0","properties":{"source":"Digitaal Vlaanderen Gebouwenregister","source_id":"gebouw/Gebouw.19527246/0","kind":"building","height_m":7.88,"status":null},"geometry":{"type":"Polygon","coordinates":[[[3.94510666,50.95543086],[3.9451319,50.95541891],[3.94515337,50.95543526],[3.94512633,50.95544767],[3.94510666,50.95543086]]]}},{"type":"Feature","id":"gebouw/Gebouw.20193862/0","properties":{"source":"Digitaal Vlaanderen Gebouwenregister","source_id":"gebouw/Gebouw.20193862/0","kind":"building","height_m":7.16,"status":null},"geometry":{"type":"Polygon","coordinates":[[[3.94426261,50.95398709],[3.94421551,50.95401336],[3.94419972,50.95402217],[3.94417039,50.95400118],[3.94419403,50.953988],[3.94423328,50.95396611],[3.94426261,50.95398709]]]}},{"type":"Feature","id":"gebouw/Gebouw.20193863/0","properties":{"source":"Digitaal Vlaanderen Gebouwenregister","source_id":"gebouw/Gebouw.20193863/0","kind":"building","height_m":7.88,"status":null},"geometry":{"type":"Polygon","coordinates":[[[3.9462318,50.95417223],[3.94628512,50.95414237],[3.94631419,50.95416308],[3.94626087,50.95419294],[3.9462318,50.95417223]]]}},{"type":"Feature","id":"gebouw/Gebouw.20194459/0","properties":{"source":"Digitaal Vlaanderen Gebouwenregister","source_id":"gebouw/Gebouw.20194459/0","kind":"building","height_m":8.6,"status":null},"geometry":{"type":"Polygon","coordinates":[[[3.94662538,50.9530722],[3.94665557,50.9530949],[3.94661323,50.95311796],[3.94657105,50.95312277],[3.94656544,50.9530918],[3.94659732,50.95308789],[3.94662538,50.9530722]]]}},{"type":"Feature","id":"gebouw/Gebouw.20194460/0","properties":{"source":"Digitaal Vlaanderen Gebouwenregister","source_id":"gebouw/Gebouw.20194460/0","kind":"building","height_m":9.32,"status":null},"geometry":{"type":"Polygon","coordinates":[[[3.94574513,50.95345513],[3.945783,50.95343274],[3.94584279,50.95347308],[3.94585336,50.95346683],[3.94589417,50.95349436],[3.94584573,50.95352301],[3.94574513,50.95345513]]]}},{"type":"Feature","id":"gebouw/Gebouw.20194461/0","properties":{"source":"Digitaal Vlaanderen Gebouwenregister","source_id":"gebouw/Gebouw.20194461/0","kind":"building","height_m":5.0,"status":null},"geometry":{"type":"Polygon","coordinates":[[[3.94706118,50.95510527],[3.94706426,50.95510731],[3.94703871,50.95512271],[3.94703379,50.95511945],[3.94701155,50.95510472],[3.94700741,50.95510721],[3.94695583,50.95507305],[3.94698956,50.95505273],[3.94703929,50.95508568],[3.94703526,50.95508811],[3.94706118,50.95510527]]]}},{"type":"Feature","id":"gebouw/Gebouw.20194462/0","properties":{"source":"Digitaal Vlaanderen Gebouwenregister","source_id":"gebouw/Gebouw.20194462/0","kind":"building","height_m":5.72,"status":null},"geometry":{"type":"Polygon","coordinates":[[[3.94847245,50.95474614],[3.94843511,50.95477976],[3.94843062,50.9547838],[3.94839413,50.95476764],[3.94841059,50.95475282],[3.94843598,50.95472997],[3.94847245,50.95474614]]]}},{"type":"Feature","id":"gebouw/Gebouw.20194463/0","properties":{"source":"Digitaal Vlaanderen Gebouwenregister","source_id":"gebouw/Gebouw.20194463/0","kind":"building","height_m":6.44,"status":null},"geometry":{"type":"Polygon","coordinates":[[[3.94561415,50.95260151],[3.9454861,50.95256021],[3.94548285,50.95256424],[3.94540644,50.95253959],[3.94543866,50.95249974],[3.94551568,50.95252458],[3.94552571,50.95251217],[3.9455686,50.95252604],[3.94555695,50.95254042],[3.94557928,50.95254764],[3.94559144,50.95253263],[3.94565362,50.95255273],[3.94564146,50.95256774],[3.94561415,50.95260151]]]}},{"type":"Feature","id":"gebouw/Gebouw.20194647/0","properties":{"source":"Digitaal Vlaanderen Gebouwenregister","source_id":"gebouw/Gebouw.20194647/0","kind":"building","height_m":7.88,"status":null},"geometry":{"type":"Polygon","coordinates":[[[3.94459238,50.95305476],[3.94461954,50.95303142],[3.94468785,50.95306314],[3.94466069,50.95308647],[3.94459238,50.95305476]]]}},{"type":"Feature","id":"gebouw/Gebouw.20195435/0","properties":{"source":"Digitaal Vlaanderen Gebouwenregister","source_id":"gebouw/Gebouw.20195435/0","kind":"building","height_m":5.72,"status":null},"geometry":{"type":"Polygon","coordinates":[[[3.94568416,50.95512265],[3.94561664,50.95515419],[3.94558579,50.95512784],[3.94565331,50.95509631],[3.94568416,50.95512265]]]}},{"type":"Feature","id":"gebouw/Gebouw.30589776/0","properties":{"source":"Digitaal Vlaanderen Gebouwenregister","source_id":"gebouw/Gebouw.30589776/0","kind":"building","height_m":5.0,"status":null},"geometry":{"type":"Polygon","coordinates":[[[3.94554739,50.95264898],[3.94549564,50.95271435],[3.94531356,50.95265688],[3.94536532,50.95259151],[3.94554739,50.95264898]]]}},{"type":"Feature","id":"gebouw/Gebouw.31001705/0","properties":{"source":"Digitaal Vlaanderen Gebouwenregister","source_id":"gebouw/Gebouw.31001705/0","kind":"building","height_m":5.0,"status":null},"geometry":{"type":"Polygon","coordinates":[[[3.94686222,50.95525751],[3.94694129,50.95522041],[3.9469599,50.95523624],[3.94694888,50.95524141],[3.94699641,50.95528181],[3.94694519,50.95530584],[3.94691061,50.95527644],[3.94689378,50.95528434],[3.94686222,50.95525751]]]}},{"type":"Feature","id":"gebouw/Gebouw.31001706/0","properties":{"source":"Digitaal Vlaanderen Gebouwenregister","source_id":"gebouw/Gebouw.31001706/0","kind":"building","height_m":5.72,"status":null},"geometry":{"type":"Polygon","coordinates":[[[3.94459512,50.95327596],[3.94457011,50.95329287],[3.94450704,50.95325565],[3.94453204,50.95323874],[3.94459512,50.95327596]]]}},{"type":"Feature","id":"gebouw/Gebouw.31547808/0","properties":{"source":"Digitaal Vlaanderen Gebouwenregister","source_id":"gebouw/Gebouw.31547808/0","kind":"building","height_m":8.6,"status":null},"geometry":{"type":"Polygon","coordinates":[[[3.94459865,50.95365531],[3.94450181,50.95358355],[3.94448823,50.95359079],[3.94437872,50.95350834],[3.94439158,50.95350155],[3.94438683,50.95349796],[3.9442475,50.95357508],[3.94446135,50.95372923],[3.94459865,50.95365531]]]}},{"type":"Feature","id":"gebouw/Gebouw.31762128/0","properties":{"source":"Digitaal Vlaanderen Gebouwenregister","source_id":"gebouw/Gebouw.31762128/0","kind":"building","height_m":9.32,"status":null},"geometry":{"type":"Polygon","coordinates":[[[3.94367878,50.954953],[3.94367286,50.95494856],[3.94362436,50.9549744],[3.94363002,50.95497864],[3.94370709,50.95503634],[3.94375558,50.9550105],[3.94367878,50.954953]]]}},{"type":"Feature","id":"gebouw/Gebouw.31762318/0","properties":{"source":"Digitaal Vlaanderen Gebouwenregister","source_id":"gebouw/Gebouw.31762318/0","kind":"building","height_m":5.0,"status":null},"geometry":{"type":"Polygon","coordinates":[[[3.94788099,50.95228319],[3.94787401,50.95228032],[3.94778837,50.95224505],[3.94776027,50.95227181],[3.94775618,50.9522701],[3.9477352,50.95229008],[3.94785786,50.95234148],[3.94790744,50.95229428],[3.94788099,50.95228319]]]}},{"type":"Feature","id":"gebouw/Gebouw.31762479/0","properties":{"source":"Digitaal Vlaanderen Gebouwenregister","source_id":"gebouw/Gebouw.31762479/0","kind":"building","height_m":5.0,"status":null},"geometry":{"type":"Polygon","coordinates":[[[3.9465494,50.95504326],[3.94658317,50.95507382],[3.94661722,50.9550588],[3.94658346,50.95502825],[3.9465494,50.95504326]]]}},{"type":"Feature","id":"gebouw/Gebouw.32032186/0","properties":{"source":"Digitaal Vlaanderen Gebouwenregister","source_id":"gebouw/Gebouw.32032186/0","kind":"building","height_m":7.88,"status":null},"geometry":{"type":"Polygon","coordinates":[[[3.94429914,50.95386049],[3.94442905,50.95378954],[3.94434634,50.95372912],[3.94421643,50.95380007],[3.94429914,50.95386049]]]}},{"type":"Feature","id":"gebouw/Gebouw.32032312/0","properties":{"source":"Digitaal Vlaanderen Gebouwenregister","source_id":"gebouw/Gebouw.32032312/0","kind":"building","height_m":7.88,"status":null},"geometry":{"type":"Polygon","coordinates":[[[3.94568231,50.95523498],[3.94569546,50.95524659],[3.94574145,50.95522649],[3.94571749,50.95520462],[3.94567002,50.95522536],[3.94568231,50.95523498]]]}},{"type":"Feature","id":"way/175422414","properties":{"source":"OpenStreetMap","source_id":"way/175422414","kind":"vegetation","name":null,"waterway":null,"landuse":"forest"},"geometry":{"type":"Polygon","coordinates":[[[3.9433557,50.955731],[3.9442756,50.955143],[3.9440748,50.9550299],[3.9435832,50.9549599],[3.9436516,50.9548603],[3.9438269,50.9549303],[3.9440106,50.9548495],[3.9440491,50.9549465],[3.9442244,50.9550488],[3.9445962,50.9552722],[3.94478,50.9553799],[3.9448954,50.9554257],[3.945034,50.9554316],[3.944907,50.955501],[3.9447892,50.9554686],[3.9445836,50.9553467],[3.9443449,50.9552211],[3.9434412,50.9557732],[3.9433557,50.955731]]]}},{"type":"Feature","id":"way/175422440","properties":{"source":"OpenStreetMap","source_id":"way/175422440","kind":"vegetation","name":null,"waterway":null,"landuse":"forest"},"geometry":{"type":"Polygon","coordinates":[[[3.9420515,50.9553617],[3.9419315,50.9553057],[3.9422086,50.955058],[3.9423311,50.9551382],[3.9420515,50.9553617]]]}},{"type":"Feature","id":"way/175459000","properties":{"source":"OpenStreetMap","source_id":"way/175459000","kind":"vegetation","name":null,"waterway":null,"landuse":"forest"},"geometry":{"type":"Polygon","coordinates":[[[3.9476062,50.9521653],[3.94751,50.9522697],[3.947603,50.9523084],[3.9475604,50.9523372],[3.9476078,50.9523571],[3.9475253,50.9524177],[3.9474989,50.9524048],[3.9473853,50.9524704],[3.9471708,50.952375],[3.9472781,50.9522081],[3.9471621,50.9521724],[3.9472482,50.9520825],[3.9474737,50.9521369],[3.9476062,50.9521653]]]}},{"type":"Feature","id":"way/175459093","properties":{"source":"OpenStreetMap","source_id":"way/175459093","kind":"vegetation","name":null,"waterway":null,"landuse":"forest"},"geometry":{"type":"Polygon","coordinates":[[[3.9475478,50.9527715],[3.9472434,50.9529712],[3.9465619,50.9527805],[3.9465998,50.9527347],[3.9463379,50.9526652],[3.9464578,50.9524903],[3.9475478,50.9527715]]]}},{"type":"Feature","id":"way/175459106","properties":{"source":"OpenStreetMap","source_id":"way/175459106","kind":"vegetation","name":null,"waterway":null,"landuse":"forest"},"geometry":{"type":"Polygon","coordinates":[[[3.9459312,50.9523871],[3.9464578,50.9524903],[3.9463379,50.9526652],[3.9465998,50.9527347],[3.9465619,50.9527805],[3.9472434,50.9529712],[3.9468995,50.953176],[3.945715,50.9526771],[3.9459312,50.9523871]]]}},{"type":"Feature","id":"way/175459110","properties":{"source":"OpenStreetMap","source_id":"way/175459110","kind":"vegetation","name":null,"waterway":null,"landuse":"forest"},"geometry":{"type":"Polygon","coordinates":[[[3.9481216,50.9523309],[3.9479548,50.9524684],[3.9478302,50.9525658],[3.9475253,50.9524177],[3.9476078,50.9523571],[3.9475604,50.9523372],[3.947603,50.9523084],[3.94751,50.9522697],[3.9476062,50.9521653],[3.9481216,50.9523309]]]}},{"type":"Feature","id":"way/404556895","properties":{"source":"OpenStreetMap","source_id":"way/404556895","kind":"waterway","name":"Zijpbeek","waterway":"stream","landuse":null},"geometry":{"type":"LineString","coordinates":[[3.9482077,50.9524549],[3.9485511,50.9526475],[3.9494362,50.9528773],[3.9495837,50.9529016],[3.9495864,50.9529719],[3.9496776,50.9530902],[3.9496186,50.9532693],[3.9495864,50.9536411],[3.9496377,50.9539136],[3.9496747,50.9539808]]}},{"type":"Feature","id":"way/404556898","properties":{"source":"OpenStreetMap","source_id":"way/404556898","kind":"water","name":null,"waterway":null,"landuse":null},"geometry":{"type":"Polygon","coordinates":[[[3.9478045,50.9535266],[3.9477616,50.9534962],[3.9478283,50.9533637],[3.9479493,50.9533104],[3.9481156,50.9533442],[3.9481425,50.9533847],[3.9480888,50.9534286],[3.9479172,50.9534929],[3.9478045,50.9535266]]]}},{"type":"Feature","id":"way/404556899","properties":{"source":"OpenStreetMap","source_id":"way/404556899","kind":"waterway","name":null,"waterway":"stream","landuse":null},"geometry":{"type":"LineString","coordinates":[[3.9496747,50.9539808],[3.9497015,50.954018]]}},{"type":"Feature","id":"way/404556901","properties":{"source":"OpenStreetMap","source_id":"way/404556901","kind":"waterway","name":"Zijpbeek","waterway":"stream","landuse":null},"geometry":{"type":"LineString","coordinates":[[3.9503177,50.9544713],[3.9504055,50.9544781],[3.9504538,50.9544779],[3.950599,50.9544511],[3.9506519,50.9544494],[3.9506861,50.9544565],[3.9507096,50.9544802],[3.9507311,50.9545098],[3.9507753,50.9545258],[3.9508162,50.9545326],[3.9509054,50.9545326],[3.9509624,50.9545317],[3.9510287,50.9544705]]}},{"type":"Feature","id":"way/404559253","properties":{"source":"OpenStreetMap","source_id":"way/404559253","kind":"waterway","name":"Zijpbeek","waterway":"stream","landuse":null},"geometry":{"type":"LineString","coordinates":[[3.9381586,50.949924],[3.9383149,50.9499753],[3.9384158,50.9500205],[3.9385266,50.9500759],[3.9386992,50.950121],[3.9388001,50.950162],[3.9388623,50.9502046],[3.9390501,50.9502395],[3.9391806,50.950237],[3.9392636,50.950227],[3.9393486,50.9502171],[3.9394198,50.9502245],[3.9395048,50.950298],[3.939574,50.9503678],[3.9396353,50.950379],[3.9397302,50.9503827],[3.9398231,50.95044],[3.9398963,50.9504662],[3.9399991,50.9504674],[3.9400723,50.9504637],[3.9401276,50.9504811],[3.9402245,50.9505285],[3.9402996,50.950577],[3.9404025,50.950663],[3.9404796,50.9506991],[3.9406041,50.9507552],[3.940699,50.9507714],[3.9407405,50.95079],[3.9407761,50.9508262],[3.9408157,50.9508336],[3.9408809,50.9508336],[3.9409383,50.9508561],[3.9409936,50.950861],[3.9410332,50.9509059],[3.9410984,50.9509308],[3.9412032,50.950942],[3.9413119,50.9509943],[3.9414029,50.9510678],[3.9414741,50.9511151],[3.9415294,50.9511164],[3.941569,50.9511089],[3.9416204,50.9511226],[3.9417173,50.9511662],[3.9417825,50.9511836],[3.941826,50.9512123],[3.9418675,50.9512497],[3.9418893,50.9512883],[3.9419842,50.9513605],[3.9420692,50.9514166],[3.9421542,50.9514265],[3.9424429,50.9515212],[3.9425635,50.9515685],[3.9427493,50.9516233],[3.9429391,50.951657],[3.9430835,50.9517068],[3.9434057,50.9518301],[3.9436904,50.9519546],[3.9437537,50.9519621],[3.9438348,50.9519621],[3.9438664,50.9519609],[3.9438901,50.9519808],[3.9439554,50.9520244],[3.9440404,50.9520705],[3.9440997,50.9520917],[3.9441749,50.9520867],[3.9442441,50.9520804],[3.9443805,50.9520804],[3.9445307,50.9521365],[3.9445861,50.9521751],[3.9446177,50.9521925],[3.9446474,50.9521963],[3.9446691,50.9521888],[3.9446632,50.9521726],[3.9446652,50.9521465],[3.9447186,50.9520941],[3.9448115,50.9520506],[3.9449301,50.951987],[3.9449756,50.9519696],[3.9450171,50.9519173],[3.9450745,50.9518687],[3.9452326,50.9518077],[3.9455865,50.9516744],[3.94563,50.9516433],[3.9456617,50.9516358],[3.945719,50.951652],[3.9457704,50.9516657],[3.9458535,50.9516694],[3.9459464,50.9516968],[3.9459978,50.951713],[3.9460927,50.9517603],[3.9462093,50.9517977],[3.9462647,50.9518201],[3.946322,50.9518401],[3.9463675,50.9518687],[3.9463972,50.9518998],[3.9464347,50.9519135],[3.9464842,50.9518998],[3.9465316,50.9518562],[3.9465534,50.9518488],[3.9465988,50.9518662],[3.9466324,50.9518749],[3.9466819,50.9519061],[3.9467293,50.951916],[3.9467491,50.9519011],[3.9467886,50.9518737],[3.9468381,50.9518699],[3.9468915,50.9518886]]}},{"type":"Feature","id":"way/404559254","properties":{"source":"OpenStreetMap","source_id":"way/404559254","kind":"waterway","name":"Zijpbeek","waterway":"stream","landuse":null},"geometry":{"type":"LineString","coordinates":[[3.9481311,50.9523246],[3.948143,50.9523333],[3.9480955,50.9523769],[3.9482077,50.9524549]]}},{"type":"Feature","id":"way/457956209","properties":{"source":"OpenStreetMap","source_id":"way/457956209","kind":"waterway","name":"Zijpbeek","waterway":"stream","landuse":null},"geometry":{"type":"LineString","coordinates":[[3.950172,50.9544682],[3.9501936,50.9544709],[3.9503177,50.9544713]]}},{"type":"Feature","id":"way/457956210","properties":{"source":"OpenStreetMap","source_id":"way/457956210","kind":"waterway","name":"Zijpbeek","waterway":"stream","landuse":null},"geometry":{"type":"LineString","coordinates":[[3.9497015,50.954018],[3.9498196,50.9542241],[3.949605,50.9542815],[3.9495299,50.9542984],[3.9495014,50.9543314],[3.9498417,50.9547788],[3.9499606,50.9547013],[3.950084,50.9545932],[3.950172,50.9544682]]}},{"type":"Feature","id":"way/457956212","properties":{"source":"OpenStreetMap","source_id":"way/457956212","kind":"waterway","name":"Molenbeek","waterway":"stream","landuse":null},"geometry":{"type":"LineString","coordinates":[[3.9505321,50.9540274],[3.9505602,50.9540534]]}},{"type":"Feature","id":"way/459900987","properties":{"source":"OpenStreetMap","source_id":"way/459900987","kind":"waterway","name":null,"waterway":"drain","landuse":null},"geometry":{"type":"LineString","coordinates":[[3.9444447,50.9524353],[3.9444904,50.9524056]]}},{"type":"Feature","id":"way/459900989","properties":{"source":"OpenStreetMap","source_id":"way/459900989","kind":"waterway","name":null,"waterway":"drain","landuse":null},"geometry":{"type":"LineString","coordinates":[[3.9444904,50.9524056],[3.9445523,50.9523304],[3.9446039,50.9522515],[3.9446177,50.9521925]]}},{"type":"Feature","id":"way/459900991","properties":{"source":"OpenStreetMap","source_id":"way/459900991","kind":"waterway","name":null,"waterway":"drain","landuse":null},"geometry":{"type":"LineString","coordinates":[[3.9439098,50.9528085],[3.9439157,50.9527797],[3.9439672,50.9527435],[3.9442797,50.9525514],[3.9444447,50.9524353]]}}]}