{"type":"FeatureCollection","features":[{"type":"Feature","id":"gebouw/Gebouw.9044042/0","properties":{"source":"Digitaal Vlaanderen Gebouwenregister","source_id":"gebouw/Gebouw.9044042/0","kind":"building","height_m":5.0,"status":null},"geometry":{"type":"Polygon","coordinates":[[[3.88971876,50.95376013],[3.88968241,50.95372672],[3.88972147,50.95370959],[3.88975813,50.95374281],[3.88971876,50.95376013]]]}},{"type":"Feature","id":"gebouw/Gebouw.9044043/0","properties":{"source":"Digitaal Vlaanderen Gebouwenregister","source_id":"gebouw/Gebouw.9044043/0","kind":"building","height_m":5.72,"status":null},"geometry":{"type":"Polygon","coordinates":[[[3.88956537,50.95371602],[3.88959532,50.9537429],[3.88955265,50.95376149],[3.88952382,50.95373417],[3.88954425,50.95372543],[3.88952899,50.95371045],[3.88954942,50.9537017],[3.88958656,50.95368552],[3.88959251,50.95369136],[3.88955574,50.95370738],[3.88956537,50.95371602]]]}},{"type":"Feature","id":"gebouw/Gebouw.9044335/0","properties":{"source":"Digitaal Vlaanderen Gebouwenregister","source_id":"gebouw/Gebouw.9044335/0","kind":"building","height_m":9.32,"status":null},"geometry":{"type":"Polygon","coordinates":[[[3.89013238,50.95385482],[3.89019537,50.9539062],[3.89007196,50.95396593],[3.89001044,50.95391143],[3.89013238,50.95385482]]]}},{"type":"Feature","id":"gebouw/Gebouw.9044593/0","properties":{"source":"Digitaal Vlaanderen Gebouwenregister","source_id":"gebouw/Gebouw.9044593/0","kind":"building","height_m":8.6,"status":null},"geometry":{"type":"Polygon","coordinates":[[[3.89733753,50.95021628],[3.89730984,50.95022899],[3.89718912,50.95012189],[3.89721769,50.95010963],[3.89733536,50.95005599],[3.89737991,50.95009558],[3.89735723,50.95010576],[3.89743538,50.95017523],[3.89733895,50.95021754],[3.89733753,50.95021628]]]}},{"type":"Feature","id":"gebouw/Gebouw.9044598/0","properties":{"source":"Digitaal Vlaanderen Gebouwenregister","source_id":"gebouw/Gebouw.9044598/0","kind":"building","height_m":7.16,"status":null},"geometry":{"type":"Polygon","coordinates":[[[3.89219255,50.95356651],[3.89227074,50.95366785],[3.89219977,50.95369079],[3.89212157,50.95358945],[3.89219255,50.95356651]]]}},{"type":"Feature","id":"gebouw/Gebouw.9049101/0","properties":{"source":"Digitaal Vlaanderen Gebouwenregister","source_id":"gebouw/Gebouw.9049101/0","kind":"building","height_m":8.6,"status":null},"geometry":{"type":"Polygon","coordinates":[[[3.88875315,50.95167951],[3.88868966,50.95170453],[3.88860897,50.95161684],[3.88867129,50.95159549],[3.88864339,50.95156724],[3.88860172,50.95158191],[3.88855664,50.95153323],[3.88859918,50.95151876],[3.88858826,50.95151731],[3.88856935,50.95149536],[3.88853966,50.95150642],[3.88849888,50.95146248],[3.88862986,50.95141629],[3.88866687,50.95145739],[3.88867256,50.95145577],[3.88877787,50.95157186],[3.88892795,50.95151186],[3.88881327,50.95141027],[3.88889905,50.95136925],[3.88890263,50.95136754],[3.88897181,50.9514257],[3.8890136,50.95146646],[3.88909181,50.95154257],[3.88908898,50.95154396],[3.88908254,50.95154665],[3.88905531,50.95155803],[3.88895254,50.95160094],[3.88875315,50.95167951]]]}},{"type":"Feature","id":"gebouw/Gebouw.9064405/0","properties":{"source":"Digitaal Vlaanderen Gebouwenregister","source_id":"gebouw/Gebouw.9064405/0","kind":"building","height_m":5.0,"status":null},"geometry":{"type":"Polygon","coordinates":[[[3.8955947,50.95221815],[3.89553471,50.95217201],[3.89550801,50.95218586],[3.89542807,50.95212437],[3.89545311,50.95211138],[3.89544649,50.95210629],[3.89544919,50.95210482],[3.89553689,50.95205716],[3.89559986,50.95210096],[3.8956272,50.95208528],[3.89566225,50.95211201],[3.89563454,50.95212629],[3.8956908,50.95216817],[3.8955947,50.95221815]]]}},{"type":"Feature","id":"gebouw/Gebouw.9064410/0","properties":{"source":"Digitaal Vlaanderen Gebouwenregister","source_id":"gebouw/Gebouw.9064410/0","kind":"building","height_m":8.6,"status":null},"geometry":{"type":"Polygon","coordinates":[[[3.898411,50.95123244],[3.89840745,50.95123379],[3.89828082,50.95128189],[3.89827972,50.95128072],[3.8980917,50.95108135],[3.89821236,50.95103723],[3.89822184,50.95103377],[3.898411,50.95123244]]]}},{"type":"Feature","id":"gebouw/Gebouw.9064889/0","properties":{"source":"Digitaal Vlaanderen Gebouwenregister","source_id":"gebouw/Gebouw.9064889/0","kind":"building","height_m":5.72,"status":null},"geometry":{"type":"Polygon","coordinates":[[[3.88949374,50.95061941],[3.88945196,50.95057901],[3.88948678,50.95056519],[3.88953096,50.9506045],[3.88949374,50.95061941]]]}},{"type":"Feature","id":"gebouw/Gebouw.9064978/0","properties":{"source":"Digitaal Vlaanderen Gebouwenregister","source_id":"gebouw/Gebouw.9064978/0","kind":"building","height_m":9.32,"status":null},"geometry":{"type":"Polygon","coordinates":[[[3.88881327,50.95141027],[3.88881106,50.95141132],[3.88865335,50.95131474],[3.88872861,50.95126544],[3.88884927,50.95133893],[3.88885005,50.95133941],[3.88889905,50.95136925],[3.88881327,50.95141027]]]}},{"type":"Feature","id":"gebouw/Gebouw.9065214/0","properties":{"source":"Digitaal Vlaanderen Gebouwenregister","source_id":"gebouw/Gebouw.9065214/0","kind":"building","height_m":7.88,"status":null},"geometry":{"type":"Polygon","coordinates":[[[3.89486055,50.95257009],[3.89484578,50.95258789],[3.89480464,50.95257541],[3.89478334,50.95260344],[3.89469809,50.95257844],[3.8947231,50.95254559],[3.89473628,50.95252787],[3.8947628,50.95253689],[3.89486055,50.95257009]]]}},{"type":"Feature","id":"gebouw/Gebouw.9069267/0","properties":{"source":"Digitaal Vlaanderen Gebouwenregister","source_id":"gebouw/Gebouw.9069267/0","kind":"building","height_m":7.88,"status":null},"geometry":{"type":"Polygon","coordinates":[[[3.88956712,50.95380269],[3.88960138,50.95378774],[3.88963836,50.95382003],[3.88960291,50.95383534],[3.88956712,50.95380269]]]}},{"type":"Feature","id":"gebouw/Gebouw.9069268/0","properties":{"source":"Digitaal Vlaanderen Gebouwenregister","source_id":"gebouw/Gebouw.9069268/0","kind":"building","height_m":8.6,"status":null},"geometry":{"type":"Polygon","coordinates":[[[3.88958014,50.95349654],[3.88961627,50.95353056],[3.88949214,50.95358544],[3.88945047,50.95355123],[3.88947382,50.95354138],[3.88950574,50.95352792],[3.88948819,50.95351028],[3.88956005,50.95347762],[3.88958014,50.95349654]]]}},{"type":"Feature","id":"gebouw/Gebouw.9069270/0","properties":{"source":"Digitaal Vlaanderen Gebouwenregister","source_id":"gebouw/Gebouw.9069270/0","kind":"building","height_m":5.0,"status":null},"geometry":{"type":"Polygon","coordinates":[[[3.8897465,50.95179591],[3.88986017,50.95173425],[3.88980125,50.95168878],[3.88976069,50.95171049],[3.88973377,50.95172489],[3.88965715,50.95166758],[3.88965237,50.95166401],[3.88960383,50.95169009],[3.88954962,50.95171921],[3.88959124,50.95174999],[3.88958617,50.95175273],[3.88962669,50.9517827],[3.88963154,50.95178009],[3.88969252,50.95182519],[3.8897465,50.95179591]]]}},{"type":"Feature","id":"gebouw/Gebouw.9069605/0","properties":{"source":"Digitaal Vlaanderen Gebouwenregister","source_id":"gebouw/Gebouw.9069605/0","kind":"building","height_m":9.32,"status":null},"geometry":{"type":"Polygon","coordinates":[[[3.88987907,50.95352495],[3.88986239,50.95353213],[3.88987884,50.95354737],[3.88974773,50.95360614],[3.88977914,50.95363629],[3.88970224,50.95366908],[3.88967003,50.95363974],[3.88966183,50.95363226],[3.88970445,50.95361554],[3.88966462,50.95357947],[3.88970517,50.95356216],[3.88970315,50.95356045],[3.88972507,50.95355154],[3.88969535,50.95352402],[3.88973681,50.95350654],[3.88973335,50.95350313],[3.88974056,50.95350022],[3.88971661,50.95347801],[3.8897706,50.95345471],[3.8897909,50.95347357],[3.88979444,50.95347686],[3.8898001,50.95347444],[3.88982783,50.95350013],[3.8898445,50.95349295],[3.88987907,50.95352495]]]}},{"type":"Feature","id":"gebouw/Gebouw.9069681/0","properties":{"source":"Digitaal Vlaanderen Gebouwenregister","source_id":"gebouw/Gebouw.9069681/0","kind":"building","height_m":8.6,"status":null},"geometry":{"type":"Polygon","coordinates":[[[3.89888796,50.95156986],[3.89887563,50.95153618],[3.89911878,50.95150064],[3.89914118,50.95156206],[3.89900499,50.95158187],[3.89899498,50.9515511],[3.89894229,50.95155777],[3.89894394,50.95156229],[3.89888796,50.95156986]]]}},{"type":"Feature","id":"gebouw/Gebouw.9069971/0","properties":{"source":"Digitaal Vlaanderen Gebouwenregister","source_id":"gebouw/Gebouw.9069971/0","kind":"building","height_m":5.72,"status":null},"geometry":{"type":"Polygon","coordinates":[[[3.89880165,50.95068352],[3.89874146,50.95071831],[3.89871855,50.95070248],[3.89866794,50.95073181],[3.89861071,50.95076508],[3.89850691,50.9506934],[3.89851325,50.95068974],[3.89862705,50.95062398],[3.89867507,50.95059623],[3.89880165,50.95068352]]]}},{"type":"Feature","id":"gebouw/Gebouw.9122100/0","properties":{"source":"Digitaal Vlaanderen Gebouwenregister","source_id":"gebouw/Gebouw.9122100/0","kind":"building","height_m":5.72,"status":null},"geometry":{"type":"Polygon","coordinates":[[[3.89872135,50.95183515],[3.89865813,50.95184676],[3.89864359,50.95180781],[3.89870584,50.95179863],[3.89872135,50.95183515]]]}},{"type":"Feature","id":"gebouw/Gebouw.9122146/0","properties":{"source":"Digitaal Vlaanderen Gebouwenregister","source_id":"gebouw/Gebouw.9122146/0","kind":"building","height_m":8.6,"status":null},"geometry":{"type":"Polygon","coordinates":[[[3.88846977,50.95300312],[3.888235,50.95310762],[3.88814257,50.95302633],[3.8883788,50.95292242],[3.88846977,50.95300312]]]}},{"type":"Feature","id":"gebouw/Gebouw.9122147/0","properties":{"source":"Digitaal Vlaanderen Gebouwenregister","source_id":"gebouw/Gebouw.9122147/0","kind":"building","height_m":9.32,"status":null},"geometry":{"type":"Polygon","coordinates":[[[3.88925845,50.9534974],[3.8893067,50.95353975],[3.88917409,50.95360015],[3.88912766,50.95355669],[3.88925845,50.9534974]]]}},{"type":"Feature","id":"gebouw/Gebouw.9122448/0","properties":{"source":"Digitaal Vlaanderen Gebouwenregister","source_id":"gebouw/Gebouw.9122448/0","kind":"building","height_m":9.32,"status":null},"geometry":{"type":"Polygon","coordinates":[[[3.89553984,50.95226769],[3.89550114,50.95223314],[3.89553153,50.9522187],[3.89556989,50.95225457],[3.89553984,50.95226769]]]}},{"type":"Feature","id":"gebouw/Gebouw.9122491/0","properties":{"source":"Digitaal Vlaanderen Gebouwenregister","source_id":"gebouw/Gebouw.9122491/0","kind":"building","height_m":5.0,"status":null},"geometry":{"type":"Polygon","coordinates":[[[3.88905942,50.95309038],[3.88901123,50.95305234],[3.88927122,50.95292091],[3.88931931,50.952959],[3.88905942,50.95309038]]]}},{"type":"Feature","id":"gebouw/Gebouw.9122545/0","properties":{"source":"Digitaal Vlaanderen Gebouwenregister","source_id":"gebouw/Gebouw.9122545/0","kind":"building","height_m":8.6,"status":null},"geometry":{"type":"Polygon","coordinates":[[[3.89004767,50.95311132],[3.88992336,50.95319167],[3.88983447,50.95323799],[3.88975739,50.95317835],[3.88984569,50.95313282],[3.88987,50.9531517],[3.88994497,50.95310465],[3.88997231,50.95312221],[3.89001536,50.95309126],[3.89004767,50.95311132]]]}},{"type":"Feature","id":"gebouw/Gebouw.9122546/0","properties":{"source":"Digitaal Vlaanderen Gebouwenregister","source_id":"gebouw/Gebouw.9122546/0","kind":"building","height_m":9.32,"status":null},"geometry":{"type":"Polygon","coordinates":[[[3.89009944,50.95192573],[3.88992998,50.95181698],[3.89057181,50.95139832],[3.89058844,50.95140732],[3.890626,50.95138118],[3.89070404,50.95142857],[3.89066232,50.95145504],[3.89079971,50.95154024],[3.89074555,50.95157611],[3.89076275,50.9515867],[3.89082997,50.95162808],[3.890686,50.9517215],[3.89061793,50.95167992],[3.89060215,50.95167029],[3.89065119,50.95163716],[3.89060408,50.95160625],[3.89009944,50.95192573]]]}},{"type":"Feature","id":"gebouw/Gebouw.9122727/0","properties":{"source":"Digitaal Vlaanderen Gebouwenregister","source_id":"gebouw/Gebouw.9122727/0","kind":"building","height_m":8.6,"status":null},"geometry":{"type":"Polygon","coordinates":[[[3.88877389,50.95112508],[3.88874571,50.95111575],[3.88877984,50.95107095],[3.88868299,50.9510415],[3.88864842,50.95108687],[3.88863669,50.95110226],[3.88862745,50.95109891],[3.88858837,50.95108436],[3.88855726,50.95111862],[3.88855998,50.9511196],[3.8885943,50.95113203],[3.88860846,50.95113716],[3.88860172,50.95114571],[3.88872366,50.9511841],[3.88872522,50.95118459],[3.88877063,50.95112906],[3.88877389,50.95112508]]]}},{"type":"Feature","id":"gebouw/Gebouw.9122786/0","properties":{"source":"Digitaal Vlaanderen Gebouwenregister","source_id":"gebouw/Gebouw.9122786/0","kind":"building","height_m":5.72,"status":null},"geometry":{"type":"Polygon","coordinates":[[[3.88940639,50.95375374],[3.88954585,50.95387232],[3.88947766,50.95390312],[3.88933868,50.95378646],[3.88940639,50.95375374]]]}},{"type":"Feature","id":"gebouw/Gebouw.9122787/0","properties":{"source":"Digitaal Vlaanderen Gebouwenregister","source_id":"gebouw/Gebouw.9122787/0","kind":"building","height_m":6.44,"status":null},"geometry":{"type":"Polygon","coordinates":[[[3.88885722,50.95101209],[3.88886078,50.95100719],[3.88880722,50.95098387],[3.88881025,50.95098166],[3.88868703,50.95092829],[3.88863974,50.95097211],[3.88875944,50.95102432],[3.88882489,50.95105658],[3.88885722,50.95101209]]]}},{"type":"Feature","id":"gebouw/Gebouw.9122856/0","properties":{"source":"Digitaal Vlaanderen Gebouwenregister","source_id":"gebouw/Gebouw.9122856/0","kind":"building","height_m":5.72,"status":null},"geometry":{"type":"Polygon","coordinates":[[[3.89677573,50.95023242],[3.89702268,50.95014007],[3.89724866,50.95038119],[3.897105,50.9504351],[3.89711101,50.95044248],[3.8964536,50.95068896],[3.89622602,50.95044759],[3.89626787,50.95043184],[3.89620365,50.95036373],[3.89650883,50.95024891],[3.89656748,50.95031111],[3.89660776,50.95029596],[3.89658053,50.95026473],[3.89674935,50.9502025],[3.89677573,50.95023242]]]}},{"type":"Feature","id":"gebouw/Gebouw.9131730/0","properties":{"source":"Digitaal Vlaanderen Gebouwenregister","source_id":"gebouw/Gebouw.9131730/0","kind":"building","height_m":9.32,"status":null},"geometry":{"type":"Polygon","coordinates":[[[3.89084694,50.95417043],[3.89078551,50.95412311],[3.8908444,50.95409211],[3.8908374,50.95408665],[3.89087331,50.9540678],[3.89084765,50.95404818],[3.89083839,50.9540411],[3.89078367,50.95399804],[3.89092932,50.9539211],[3.89098514,50.95396459],[3.89091044,50.95400422],[3.89096677,50.9540487],[3.8909978,50.95403204],[3.89103268,50.95405876],[3.89093393,50.95410859],[3.89095307,50.95412436],[3.89090003,50.95415201],[3.89089269,50.95414661],[3.89084694,50.95417043]]]}},{"type":"Feature","id":"gebouw/Gebouw.9131904/0","properties":{"source":"Digitaal Vlaanderen Gebouwenregister","source_id":"gebouw/Gebouw.9131904/0","kind":"building","height_m":8.6,"status":null},"geometry":{"type":"Polygon","coordinates":[[[3.89024543,50.9519318],[3.89028203,50.95190887],[3.89031528,50.95193004],[3.89027869,50.95195297],[3.89024543,50.9519318]]]}},{"type":"Feature","id":"gebouw/Gebouw.9131905/0","properties":{"source":"Digitaal Vlaanderen Gebouwenregister","source_id":"gebouw/Gebouw.9131905/0","kind":"building","height_m":9.32,"status":null},"geometry":{"type":"Polygon","coordinates":[[[3.89016012,50.95306023],[3.89014501,50.95304993],[3.89027142,50.95296866],[3.89028748,50.95297691],[3.89016012,50.95306023]]]}},{"type":"Feature","id":"gebouw/Gebouw.9131908/0","properties":{"source":"Digitaal Vlaanderen Gebouwenregister","source_id":"gebouw/Gebouw.9131908/0","kind":"building","height_m":6.44,"status":null},"geometry":{"type":"Polygon","coordinates":[[[3.89898638,50.95270632],[3.898729,50.95271579],[3.89874397,50.95267327],[3.89877789,50.95257695],[3.89877892,50.95257403],[3.89903669,50.95256176],[3.89898638,50.95270632]]]}},{"type":"Feature","id":"gebouw/Gebouw.9131970/0","properties":{"source":"Digitaal Vlaanderen Gebouwenregister","source_id":"gebouw/Gebouw.9131970/0","kind":"building","height_m":5.72,"status":null},"geometry":{"type":"Polygon","coordinates":[[[3.89893648,50.95162096],[3.89894671,50.95164773],[3.89886834,50.95166047],[3.89886968,50.95166517],[3.8988056,50.95167582],[3.89879267,50.95164252],[3.89881292,50.95163939],[3.89880374,50.95160931],[3.89892471,50.95159015],[3.89893648,50.95162096]]]}},{"type":"Feature","id":"gebouw/Gebouw.9132588/0","properties":{"source":"Digitaal Vlaanderen Gebouwenregister","source_id":"gebouw/Gebouw.9132588/0","kind":"building","height_m":7.16,"status":null},"geometry":{"type":"Polygon","coordinates":[[[3.8887552,50.95269395],[3.88878356,50.95271543],[3.8889293,50.95264682],[3.88896953,50.95268092],[3.88882497,50.95274898],[3.88891546,50.952827],[3.88883814,50.95286371],[3.88876611,50.95280384],[3.88871375,50.95282906],[3.88865472,50.95278077],[3.88870679,50.95275536],[3.88869727,50.95274644],[3.88860587,50.95278767],[3.88863705,50.95281577],[3.88853489,50.95285987],[3.88849156,50.95282188],[3.88859199,50.95277627],[3.88858735,50.95277246],[3.8887552,50.95269395]]]}},{"type":"Feature","id":"gebouw/Gebouw.9132589/0","properties":{"source":"Digitaal Vlaanderen Gebouwenregister","source_id":"gebouw/Gebouw.9132589/0","kind":"building","height_m":7.88,"status":null},"geometry":{"type":"Polygon","coordinates":[[[3.89013238,50.95385483],[3.89000998,50.95391108],[3.88997797,50.95392579],[3.8899075,50.95386887],[3.88993678,50.9538544],[3.88993243,50.95385103],[3.88990499,50.95382887],[3.88999858,50.95378373],[3.88994456,50.95373695],[3.89003443,50.95370011],[3.89005105,50.95371629],[3.89008805,50.95370138],[3.89009175,50.95370001],[3.89012756,50.95373489],[3.89003344,50.95377356],[3.89013238,50.95385483]]]}},{"type":"Feature","id":"gebouw/Gebouw.9132626/0","properties":{"source":"Digitaal Vlaanderen Gebouwenregister","source_id":"gebouw/Gebouw.9132626/0","kind":"building","height_m":9.32,"status":null},"geometry":{"type":"Polygon","coordinates":[[[3.88890503,50.95079988],[3.88891452,50.9507913],[3.88896714,50.95081423],[3.88896394,50.95082206],[3.88897153,50.9508259],[3.88895538,50.9508405],[3.88900135,50.9508596],[3.88893537,50.9509252],[3.88887217,50.95089984],[3.88888842,50.95088368],[3.8888291,50.95085987],[3.88888076,50.95080851],[3.88888432,50.95080994],[3.88889848,50.95079715],[3.88890503,50.95079988]]]}},{"type":"Feature","id":"gebouw/Gebouw.9132629/0","properties":{"source":"Digitaal Vlaanderen Gebouwenregister","source_id":"gebouw/Gebouw.9132629/0","kind":"building","height_m":6.44,"status":null},"geometry":{"type":"Polygon","coordinates":[[[3.8988259,50.95128688],[3.8986317,50.95132928],[3.89862601,50.95131869],[3.89861452,50.95129728],[3.89859776,50.95126608],[3.89877726,50.95122761],[3.89877649,50.95122617],[3.89879154,50.95122316],[3.89879699,50.95123405],[3.89879427,50.95123459],[3.89882066,50.9512828],[3.89882334,50.95128222],[3.8988259,50.95128688]]]}},{"type":"Feature","id":"gebouw/Gebouw.9134333/0","properties":{"source":"Digitaal Vlaanderen Gebouwenregister","source_id":"gebouw/Gebouw.9134333/0","kind":"building","height_m":8.6,"status":null},"geometry":{"type":"Polygon","coordinates":[[[3.8982283,50.95128795],[3.89815373,50.95131435],[3.89811478,50.95126547],[3.89818775,50.95124227],[3.8982283,50.95128795]]]}},{"type":"Feature","id":"gebouw/Gebouw.9135197/0","properties":{"source":"Digitaal Vlaanderen Gebouwenregister","source_id":"gebouw/Gebouw.9135197/0","kind":"building","height_m":5.72,"status":null},"geometry":{"type":"Polygon","coordinates":[[[3.89531741,50.95201096],[3.89528793,50.9520196],[3.89522464,50.95195465],[3.89518823,50.95192274],[3.89519964,50.95191801],[3.89515403,50.951877],[3.89527147,50.95182728],[3.89530568,50.95181383],[3.89532873,50.95183621],[3.89534286,50.95182982],[3.89535409,50.95184101],[3.89531376,50.95186075],[3.89531804,50.95186624],[3.89532314,50.95186424],[3.89532941,50.95186851],[3.89533883,50.95187491],[3.89535384,50.95188858],[3.89536179,50.95190029],[3.89536849,50.95192037],[3.89538898,50.95194074],[3.8952881,50.95198121],[3.89531741,50.95201096]]]}},{"type":"Feature","id":"gebouw/Gebouw.9135198/0","properties":{"source":"Digitaal Vlaanderen Gebouwenregister","source_id":"gebouw/Gebouw.9135198/0","kind":"building","height_m":6.44,"status":null},"geometry":{"type":"Polygon","coordinates":[[[3.88898524,50.95128497],[3.88897797,50.95131488],[3.88897648,50.95131474],[3.88897428,50.95132381],[3.88888703,50.95131518],[3.88870962,50.95120935],[3.88870818,50.95120849],[3.88877063,50.95112906],[3.88882613,50.95115287],[3.88882305,50.9511665],[3.88881244,50.95117406],[3.88882064,50.95117753],[3.88879424,50.95119725],[3.88883912,50.95122327],[3.88884201,50.951216],[3.8889086,50.95122036],[3.88899722,50.95122898],[3.88898372,50.95128482],[3.88898524,50.95128497]]]}},{"type":"Feature","id":"gebouw/Gebouw.9154899/0","properties":{"source":"Digitaal Vlaanderen Gebouwenregister","source_id":"gebouw/Gebouw.9154899/0","kind":"building","height_m":8.6,"status":null},"geometry":{"type":"Polygon","coordinates":[[[3.89090142,50.95386748],[3.89084967,50.95389195],[3.89078947,50.9538429],[3.89084214,50.95381713],[3.89090142,50.95386748]]]}},{"type":"Feature","id":"gebouw/Gebouw.9154900/0","properties":{"source":"Digitaal Vlaanderen Gebouwenregister","source_id":"gebouw/Gebouw.9154900/0","kind":"building","height_m":9.32,"status":null},"geometry":{"type":"Polygon","coordinates":[[[3.89062973,50.95033422],[3.8902698,50.95046599],[3.89026506,50.95046083],[3.8902028,50.95039296],[3.89019693,50.95038657],[3.89019637,50.95038596],[3.89017401,50.95036148],[3.89016783,50.95035471],[3.89014067,50.95032498],[3.89013284,50.95031641],[3.89038616,50.95022404],[3.89043193,50.95027301],[3.89029912,50.95032104],[3.89034144,50.95037288],[3.8903879,50.95035639],[3.89040197,50.95037173],[3.8904856,50.95034183],[3.89047158,50.95032499],[3.89054803,50.95029726],[3.89055004,50.95029934],[3.89058722,50.95028593],[3.89062973,50.95033422]]]}},{"type":"Feature","id":"gebouw/Gebouw.9155764/0","properties":{"source":"Digitaal Vlaanderen Gebouwenregister","source_id":"gebouw/Gebouw.9155764/0","kind":"building","height_m":6.44,"status":null},"geometry":{"type":"Polygon","coordinates":[[[3.89878762,50.95376542],[3.89878088,50.95374305],[3.89886987,50.95373232],[3.89887602,50.95375468],[3.89878762,50.95376542]]]}},{"type":"Feature","id":"gebouw/Gebouw.9155765/0","properties":{"source":"Digitaal Vlaanderen Gebouwenregister","source_id":"gebouw/Gebouw.9155765/0","kind":"building","height_m":7.16,"status":null},"geometry":{"type":"Polygon","coordinates":[[[3.89838381,50.95395988],[3.89836926,50.95401983],[3.89825971,50.95401402],[3.89818711,50.95400229],[3.89818419,50.95401068],[3.89804056,50.95399435],[3.89806066,50.95391742],[3.89820587,50.95393058],[3.8982805,50.95395358],[3.89838381,50.95395988]]]}},{"type":"Feature","id":"gebouw/Gebouw.9192448/0","properties":{"source":"Digitaal Vlaanderen Gebouwenregister","source_id":"gebouw/Gebouw.9192448/0","kind":"building","height_m":9.32,"status":null},"geometry":{"type":"Polygon","coordinates":[[[3.89905298,50.95091505],[3.89900453,50.95094184],[3.89895102,50.95097143],[3.89888904,50.95092888],[3.89884997,50.95090205],[3.89884357,50.95090564],[3.89884266,50.95090498],[3.89889548,50.95087485],[3.89894963,50.95084394],[3.89905298,50.95091505]]]}},{"type":"Feature","id":"gebouw/Gebouw.9192650/0","properties":{"source":"Digitaal Vlaanderen Gebouwenregister","source_id":"gebouw/Gebouw.9192650/0","kind":"building","height_m":8.6,"status":null},"geometry":{"type":"Polygon","coordinates":[[[3.89889548,50.95087485],[3.89884266,50.95090498],[3.89880454,50.95087836],[3.89881089,50.95087468],[3.8987459,50.95082914],[3.89873932,50.95083283],[3.89873763,50.95083162],[3.89883796,50.95077207],[3.89884441,50.9507767],[3.89890589,50.95082083],[3.89892007,50.95081258],[3.89895695,50.95083868],[3.89894963,50.95084394],[3.89889548,50.95087485]]]}},{"type":"Feature","id":"gebouw/Gebouw.9192678/0","properties":{"source":"Digitaal Vlaanderen Gebouwenregister","source_id":"gebouw/Gebouw.9192678/0","kind":"building","height_m":8.6,"status":null},"geometry":{"type":"Polygon","coordinates":[[[3.88964674,50.95098258],[3.88970985,50.95101368],[3.88966183,50.95105244],[3.88959782,50.95102151],[3.88964674,50.95098258]]]}},{"type":"Feature","id":"gebouw/Gebouw.9192700/0","properties":{"source":"Digitaal Vlaanderen Gebouwenregister","source_id":"gebouw/Gebouw.9192700/0","kind":"building","height_m":9.32,"status":null},"geometry":{"type":"Polygon","coordinates":[[[3.89523216,50.95168501],[3.89519154,50.951703],[3.89506536,50.95175887],[3.89517236,50.95184931],[3.89496938,50.95194355],[3.89509729,50.95205272],[3.89500918,50.95209392],[3.89476571,50.95189377],[3.89496547,50.95179682],[3.89491917,50.9517588],[3.89514601,50.9516588],[3.89518476,50.95164171],[3.89523216,50.95168501]]]}},{"type":"Feature","id":"gebouw/Gebouw.9192753/0","properties":{"source":"Digitaal Vlaanderen Gebouwenregister","source_id":"gebouw/Gebouw.9192753/0","kind":"building","height_m":7.16,"status":null},"geometry":{"type":"Polygon","coordinates":[[[3.88982156,50.9536458],[3.88980493,50.95363035],[3.88994506,50.95356998],[3.8900029,50.95362354],[3.88995371,50.95364489],[3.88996397,50.95365434],[3.88980852,50.95372172],[3.88980772,50.95372112],[3.88975813,50.95374281],[3.88972147,50.95370959],[3.88982123,50.95366658],[3.88980593,50.95365273],[3.88982156,50.9536458]]]}},{"type":"Feature","id":"gebouw/Gebouw.9192888/0","properties":{"source":"Digitaal Vlaanderen Gebouwenregister","source_id":"gebouw/Gebouw.9192888/0","kind":"building","height_m":8.6,"status":null},"geometry":{"type":"Polygon","coordinates":[[[3.89882272,50.95144152],[3.89878879,50.95137602],[3.89898113,50.95133592],[3.89901635,50.95140329],[3.8988846,50.95143078],[3.89888388,50.95142933],[3.89882272,50.95144152]]]}},{"type":"Feature","id":"gebouw/Gebouw.9192890/0","properties":{"source":"Digitaal Vlaanderen Gebouwenregister","source_id":"gebouw/Gebouw.9192890/0","kind":"building","height_m":5.0,"status":null},"geometry":{"type":"Polygon","coordinates":[[[3.88968249,50.95055538],[3.88968161,50.95055396],[3.88985904,50.95048756],[3.88992255,50.95055525],[3.88962061,50.95066919],[3.88950934,50.95055156],[3.88959311,50.95052002],[3.88963966,50.95056929],[3.88968249,50.95055538]]]}},{"type":"Feature","id":"gebouw/Gebouw.9193070/0","properties":{"source":"Digitaal Vlaanderen Gebouwenregister","source_id":"gebouw/Gebouw.9193070/0","kind":"building","height_m":8.6,"status":null},"geometry":{"type":"Polygon","coordinates":[[[3.8987372,50.95142588],[3.89868112,50.95143682],[3.89866968,50.9514129],[3.89863986,50.95141854],[3.89862993,50.95139369],[3.89861084,50.95139721],[3.89860588,50.95138479],[3.89865175,50.95137539],[3.89870524,50.95136444],[3.8987372,50.95142588]]]}},{"type":"Feature","id":"gebouw/Gebouw.9193071/0","properties":{"source":"Digitaal Vlaanderen Gebouwenregister","source_id":"gebouw/Gebouw.9193071/0","kind":"building","height_m":9.32,"status":null},"geometry":{"type":"Polygon","coordinates":[[[3.89858043,50.95337708],[3.89858099,50.9533488],[3.8986409,50.9533484],[3.89863946,50.95337648],[3.89858043,50.95337708]]]}},{"type":"Feature","id":"gebouw/Gebouw.9462162/0","properties":{"source":"Digitaal Vlaanderen Gebouwenregister","source_id":"gebouw/Gebouw.9462162/0","kind":"building","height_m":7.16,"status":null},"geometry":{"type":"Polygon","coordinates":[[[3.8907925,50.9500376],[3.89084719,50.9500922],[3.89076139,50.95012526],[3.89072915,50.95009302],[3.89076573,50.9500796],[3.89074357,50.95005742],[3.8907925,50.9500376]]]}},{"type":"Feature","id":"gebouw/Gebouw.9462203/0","properties":{"source":"Digitaal Vlaanderen Gebouwenregister","source_id":"gebouw/Gebouw.9462203/0","kind":"building","height_m":6.44,"status":null},"geometry":{"type":"Polygon","coordinates":[[[3.89049794,50.95064413],[3.89044295,50.95066427],[3.89037815,50.95059368],[3.89043314,50.95057354],[3.89049794,50.95064413]]]}},{"type":"Feature","id":"gebouw/Gebouw.9462512/0","properties":{"source":"Digitaal Vlaanderen Gebouwenregister","source_id":"gebouw/Gebouw.9462512/0","kind":"building","height_m":7.16,"status":null},"geometry":{"type":"Polygon","coordinates":[[[3.89726969,50.95054965],[3.89722341,50.95050096],[3.89734275,50.95045706],[3.89738846,50.950505],[3.89726969,50.95054965]]]}},{"type":"Feature","id":"gebouw/Gebouw.9475853/0","properties":{"source":"Digitaal Vlaanderen Gebouwenregister","source_id":"gebouw/Gebouw.9475853/0","kind":"building","height_m":6.44,"status":null},"geometry":{"type":"Polygon","coordinates":[[[3.89558037,50.95076632],[3.89560672,50.95079736],[3.89556209,50.95081199],[3.89553635,50.95078059],[3.89558037,50.95076632]]]}},{"type":"Feature","id":"gebouw/Gebouw.9475939/0","properties":{"source":"Digitaal Vlaanderen Gebouwenregister","source_id":"gebouw/Gebouw.9475939/0","kind":"building","height_m":7.88,"status":null},"geometry":{"type":"Polygon","coordinates":[[[3.8951064,50.95088837],[3.8951524,50.95085746],[3.89511554,50.95083098],[3.89506662,50.95086036],[3.8951064,50.95088837]]]}},{"type":"Feature","id":"gebouw/Gebouw.9475940/0","properties":{"source":"Digitaal Vlaanderen Gebouwenregister","source_id":"gebouw/Gebouw.9475940/0","kind":"building","height_m":8.6,"status":null},"geometry":{"type":"Polygon","coordinates":[[[3.89890806,50.95242123],[3.89887976,50.95251417],[3.89880028,50.95250479],[3.89880143,50.95250059],[3.898811,50.95246586],[3.89882158,50.9524275],[3.89890806,50.95242123]]]}},{"type":"Feature","id":"gebouw/Gebouw.9563376/0","properties":{"source":"Digitaal Vlaanderen Gebouwenregister","source_id":"gebouw/Gebouw.9563376/0","kind":"building","height_m":7.88,"status":null},"geometry":{"type":"Polygon","coordinates":[[[3.89424309,50.95226691],[3.89428565,50.95228147],[3.89423367,50.95233366],[3.89419266,50.95231706],[3.89424309,50.95226691]]]}},{"type":"Feature","id":"gebouw/Gebouw.9563377/0","properties":{"source":"Digitaal Vlaanderen Gebouwenregister","source_id":"gebouw/Gebouw.9563377/0","kind":"building","height_m":8.6,"status":null},"geometry":{"type":"Polygon","coordinates":[[[3.89279532,50.95116103],[3.89285427,50.95120238],[3.89282979,50.95121763],[3.89277054,50.95117646],[3.89279532,50.95116103]]]}},{"type":"Feature","id":"gebouw/Gebouw.9689143/0","properties":{"source":"Digitaal Vlaanderen Gebouwenregister","source_id":"gebouw/Gebouw.9689143/0","kind":"building","height_m":6.44,"status":null},"geometry":{"type":"Polygon","coordinates":[[[3.8889847,50.95128498],[3.88901817,50.95114759],[3.88902567,50.95112019],[3.88905922,50.95103986],[3.88890328,50.95101371],[3.88890099,50.95101915],[3.88886909,50.95109504],[3.88890621,50.95110127],[3.88889305,50.95113255],[3.88889856,50.95113348],[3.88889214,50.95114875],[3.8889161,50.95115277],[3.88890228,50.95121768],[3.8888805,50.95121583],[3.88887445,50.95124427],[3.88880947,50.95120779],[3.88876043,50.95123992],[3.88888703,50.95131518],[3.88897429,50.95132376],[3.88897532,50.95132386],[3.88897547,50.95132313],[3.88897748,50.95131483],[3.8889847,50.95128498]]]}},{"type":"Feature","id":"gebouw/Gebouw.9689144/0","properties":{"source":"Digitaal Vlaanderen Gebouwenregister","source_id":"gebouw/Gebouw.9689144/0","kind":"building","height_m":7.16,"status":null},"geometry":{"type":"Polygon","coordinates":[[[3.88941225,50.95299269],[3.88949626,50.95306515],[3.88939796,50.95311079],[3.88931326,50.9530384],[3.88941225,50.95299269]]]}},{"type":"Feature","id":"gebouw/Gebouw.9689147/0","properties":{"source":"Digitaal Vlaanderen Gebouwenregister","source_id":"gebouw/Gebouw.9689147/0","kind":"building","height_m":9.32,"status":null},"geometry":{"type":"Polygon","coordinates":[[[3.89538403,50.952057],[3.8954399,50.95209801],[3.89536403,50.95213925],[3.89530815,50.95209825],[3.89538403,50.952057]]]}},{"type":"Feature","id":"gebouw/Gebouw.9689223/0","properties":{"source":"Digitaal Vlaanderen Gebouwenregister","source_id":"gebouw/Gebouw.9689223/0","kind":"building","height_m":8.6,"status":null},"geometry":{"type":"Polygon","coordinates":[[[3.89732583,50.94994863],[3.8973839,50.94992266],[3.89741641,50.94995165],[3.89735835,50.94997763],[3.89732583,50.94994863]]]}},{"type":"Feature","id":"gebouw/Gebouw.9689227/0","properties":{"source":"Digitaal Vlaanderen Gebouwenregister","source_id":"gebouw/Gebouw.9689227/0","kind":"building","height_m":6.44,"status":null},"geometry":{"type":"Polygon","coordinates":[[[3.89021107,50.953395],[3.89002774,50.95324481],[3.89002601,50.95324339],[3.890127,50.95319469],[3.89025898,50.95330193],[3.89027334,50.95329466],[3.89032651,50.95333658],[3.89021107,50.953395]]]}},{"type":"Feature","id":"gebouw/Gebouw.9689983/0","properties":{"source":"Digitaal Vlaanderen Gebouwenregister","source_id":"gebouw/Gebouw.9689983/0","kind":"building","height_m":6.44,"status":null},"geometry":{"type":"Polygon","coordinates":[[[3.89888428,50.95147504],[3.89880055,50.95148845],[3.89878843,50.95145759],[3.89887157,50.95144416],[3.89888428,50.95147504]]]}},{"type":"Feature","id":"gebouw/Gebouw.9731975/0","properties":{"source":"Digitaal Vlaanderen Gebouwenregister","source_id":"gebouw/Gebouw.9731975/0","kind":"building","height_m":5.72,"status":null},"geometry":{"type":"Polygon","coordinates":[[[3.89896922,50.95149066],[3.8989594,50.9514604],[3.89909548,50.95143965],[3.89911878,50.95150064],[3.89887563,50.95153618],[3.89886356,50.95150345],[3.89891897,50.95149512],[3.89892034,50.95149869],[3.89896922,50.95149066]]]}},{"type":"Feature","id":"gebouw/Gebouw.9731977/0","properties":{"source":"Digitaal Vlaanderen Gebouwenregister","source_id":"gebouw/Gebouw.9731977/0","kind":"building","height_m":7.16,"status":null},"geometry":{"type":"Polygon","coordinates":[[[3.88968464,50.95285843],[3.88969243,50.95286534],[3.8895907,50.95291058],[3.88949141,50.95282152],[3.88947428,50.95280132],[3.88949815,50.9527913],[3.88947111,50.95276618],[3.88946723,50.95276257],[3.88953025,50.95273551],[3.8895408,50.95273097],[3.88965313,50.95283051],[3.88968464,50.95285843]]]}},{"type":"Feature","id":"gebouw/Gebouw.9737012/0","properties":{"source":"Digitaal Vlaanderen Gebouwenregister","source_id":"gebouw/Gebouw.9737012/0","kind":"building","height_m":8.6,"status":null},"geometry":{"type":"Polygon","coordinates":[[[3.8952042,50.95164834],[3.89531177,50.95160168],[3.89534869,50.95163621],[3.89524116,50.95168175],[3.8952042,50.95164834]]]}},{"type":"Feature","id":"gebouw/Gebouw.9746237/0","properties":{"source":"Digitaal Vlaanderen Gebouwenregister","source_id":"gebouw/Gebouw.9746237/0","kind":"building","height_m":7.88,"status":null},"geometry":{"type":"Polygon","coordinates":[[[3.89045221,50.95322464],[3.89051882,50.95323041],[3.89050791,50.95328064],[3.8904413,50.95327487],[3.89045221,50.95322464]]]}},{"type":"Feature","id":"gebouw/Gebouw.9746240/0","properties":{"source":"Digitaal Vlaanderen Gebouwenregister","source_id":"gebouw/Gebouw.9746240/0","kind":"building","height_m":5.0,"status":null},"geometry":{"type":"Polygon","coordinates":[[[3.89866548,50.95366688],[3.89874634,50.95366335],[3.89875416,50.95373494],[3.8986733,50.95373847],[3.89866548,50.95366688]]]}},{"type":"Feature","id":"gebouw/Gebouw.9746554/0","properties":{"source":"Digitaal Vlaanderen Gebouwenregister","source_id":"gebouw/Gebouw.9746554/0","kind":"building","height_m":9.32,"status":null},"geometry":{"type":"Polygon","coordinates":[[[3.89863185,50.95113204],[3.89857619,50.95114807],[3.898579,50.95115211],[3.89852135,50.9511685],[3.89852131,50.95116845],[3.89843855,50.9510544],[3.89849539,50.95103758],[3.89850886,50.95105345],[3.89856469,50.95103799],[3.89863185,50.95113204]]]}},{"type":"Feature","id":"gebouw/Gebouw.9746753/0","properties":{"source":"Digitaal Vlaanderen Gebouwenregister","source_id":"gebouw/Gebouw.9746753/0","kind":"building","height_m":6.44,"status":null},"geometry":{"type":"Polygon","coordinates":[[[3.88977858,50.95391969],[3.88995409,50.95407839],[3.88988701,50.95410999],[3.88971035,50.95395014],[3.88977858,50.95391969]]]}},{"type":"Feature","id":"gebouw/Gebouw.9746829/0","properties":{"source":"Digitaal Vlaanderen Gebouwenregister","source_id":"gebouw/Gebouw.9746829/0","kind":"building","height_m":5.72,"status":null},"geometry":{"type":"Polygon","coordinates":[[[3.88906569,50.95305658],[3.88909955,50.95302533],[3.88915724,50.95304944],[3.88938949,50.95315527],[3.88938338,50.95316119],[3.88948757,50.95320702],[3.88944097,50.95324748],[3.8893346,50.95320326],[3.88921658,50.95315262],[3.88908291,50.953095],[3.88906569,50.95305658]]]}},{"type":"Feature","id":"gebouw/Gebouw.9746830/0","properties":{"source":"Digitaal Vlaanderen Gebouwenregister","source_id":"gebouw/Gebouw.9746830/0","kind":"building","height_m":6.44,"status":null},"geometry":{"type":"Polygon","coordinates":[[[3.89586918,50.95240932],[3.89580828,50.95243275],[3.89577607,50.9523994],[3.89583552,50.95237501],[3.89586918,50.95240932]]]}},{"type":"Feature","id":"gebouw/Gebouw.9761096/0","properties":{"source":"Digitaal Vlaanderen Gebouwenregister","source_id":"gebouw/Gebouw.9761096/0","kind":"building","height_m":6.44,"status":null},"geometry":{"type":"Polygon","coordinates":[[[3.88971682,50.95230377],[3.88978197,50.95233621],[3.88975217,50.95236058],[3.88975975,50.95236479],[3.8897236,50.95239339],[3.88967801,50.95237111],[3.88967345,50.95237499],[3.88964568,50.95236173],[3.88971682,50.95230377]]]}},{"type":"Feature","id":"gebouw/Gebouw.9761097/0","properties":{"source":"Digitaal Vlaanderen Gebouwenregister","source_id":"gebouw/Gebouw.9761097/0","kind":"building","height_m":7.16,"status":null},"geometry":{"type":"Polygon","coordinates":[[[3.89031888,50.95297804],[3.89048165,50.95302833],[3.8904406,50.95308159],[3.89027932,50.95303113],[3.89031888,50.95297804]]]}},{"type":"Feature","id":"gebouw/Gebouw.9761252/0","properties":{"source":"Digitaal Vlaanderen Gebouwenregister","source_id":"gebouw/Gebouw.9761252/0","kind":"building","height_m":7.88,"status":null},"geometry":{"type":"Polygon","coordinates":[[[3.89891431,50.95327956],[3.89891781,50.95322228],[3.89896169,50.95322244],[3.89896146,50.95327956],[3.89891431,50.95327956]]]}},{"type":"Feature","id":"gebouw/Gebouw.9761557/0","properties":{"source":"Digitaal Vlaanderen Gebouwenregister","source_id":"gebouw/Gebouw.9761557/0","kind":"building","height_m":5.72,"status":null},"geometry":{"type":"Polygon","coordinates":[[[3.89889092,50.95213276],[3.89892934,50.95213734],[3.89891973,50.95217075],[3.89887954,50.95216615],[3.89889092,50.95213276]]]}},{"type":"Feature","id":"gebouw/Gebouw.9761558/0","properties":{"source":"Digitaal Vlaanderen Gebouwenregister","source_id":"gebouw/Gebouw.9761558/0","kind":"building","height_m":6.44,"status":null},"geometry":{"type":"Polygon","coordinates":[[[3.89896042,50.95276108],[3.89895655,50.95271233],[3.89900824,50.9527092],[3.89901268,50.95275871],[3.89896042,50.95276108]]]}},{"type":"Feature","id":"gebouw/Gebouw.9841237/0","properties":{"source":"Digitaal Vlaanderen Gebouwenregister","source_id":"gebouw/Gebouw.9841237/0","kind":"building","height_m":5.0,"status":null},"geometry":{"type":"Polygon","coordinates":[[[3.89637546,50.95084162],[3.89611928,50.95092977],[3.89598269,50.95076872],[3.89623621,50.95068036],[3.89637546,50.95084162]]]}},{"type":"Feature","id":"gebouw/Gebouw.9841238/0","properties":{"source":"Digitaal Vlaanderen Gebouwenregister","source_id":"gebouw/Gebouw.9841238/0","kind":"building","height_m":5.72,"status":null},"geometry":{"type":"Polygon","coordinates":[[[3.8961102,50.94873104],[3.89604827,50.94869995],[3.89612045,50.94863657],[3.89617971,50.94866744],[3.8961102,50.94873104]]]}},{"type":"Feature","id":"gebouw/Gebouw.11930949/0","properties":{"source":"Digitaal Vlaanderen Gebouwenregister","source_id":"gebouw/Gebouw.11930949/0","kind":"building","height_m":6.44,"status":null},"geometry":{"type":"Polygon","coordinates":[[[3.88958906,50.95243456],[3.88967829,50.95246119],[3.8896607,50.95248584],[3.88957134,50.95246061],[3.88958906,50.95243456]]]}},{"type":"Feature","id":"gebouw/Gebouw.11930952/0","properties":{"source":"Digitaal Vlaanderen Gebouwenregister","source_id":"gebouw/Gebouw.11930952/0","kind":"building","height_m":8.6,"status":null},"geometry":{"type":"Polygon","coordinates":[[[3.89017439,50.95399324],[3.89012729,50.9540163],[3.89008198,50.95398041],[3.89006635,50.95398659],[3.8900253,50.9539565],[3.88999844,50.95396835],[3.88995586,50.95393555],[3.88997797,50.95392579],[3.89000998,50.95391108],[3.89013238,50.95385483],[3.89016959,50.9538851],[3.89016953,50.95388512],[3.89015205,50.95389383],[3.8901779,50.95391465],[3.8901986,50.95393132],[3.89020199,50.95392979],[3.89020937,50.95393582],[3.89024026,50.953961],[3.89017439,50.95399324]]]}},{"type":"Feature","id":"gebouw/Gebouw.11951458/0","properties":{"source":"Digitaal Vlaanderen Gebouwenregister","source_id":"gebouw/Gebouw.11951458/0","kind":"building","height_m":5.72,"status":null},"geometry":{"type":"Polygon","coordinates":[[[3.88923151,50.95290224],[3.88900457,50.95300842],[3.88892095,50.95293761],[3.88914652,50.95283026],[3.88923151,50.95290224]]]}},{"type":"Feature","id":"gebouw/Gebouw.18143046/0","properties":{"source":"Digitaal Vlaanderen Gebouwenregister","source_id":"gebouw/Gebouw.18143046/0","kind":"building","height_m":8.6,"status":null},"geometry":{"type":"Polygon","coordinates":[[[3.89877311,50.95211549],[3.89877525,50.95207686],[3.89867757,50.9520747],[3.89867013,50.95220886],[3.89878543,50.95221141],[3.89879072,50.95211589],[3.89877311,50.95211549]]]}},{"type":"Feature","id":"gebouw/Gebouw.18362169/0","properties":{"source":"Digitaal Vlaanderen Gebouwenregister","source_id":"gebouw/Gebouw.18362169/0","kind":"building","height_m":5.0,"status":null},"geometry":{"type":"Polygon","coordinates":[[[3.89877778,50.95356096],[3.89877634,50.9535251],[3.89887666,50.95352381],[3.89887778,50.9535597],[3.89877778,50.95356096]]]}},{"type":"Feature","id":"gebouw/Gebouw.18362202/0","properties":{"source":"Digitaal Vlaanderen Gebouwenregister","source_id":"gebouw/Gebouw.18362202/0","kind":"building","height_m":8.6,"status":null},"geometry":{"type":"Polygon","coordinates":[[[3.89573155,50.95245209],[3.89560118,50.95251348],[3.8955672,50.95248203],[3.89561807,50.95245729],[3.89561035,50.95245001],[3.89568777,50.9524156],[3.89573155,50.95245209]]]}},{"type":"Feature","id":"gebouw/Gebouw.18362600/0","properties":{"source":"Digitaal Vlaanderen Gebouwenregister","source_id":"gebouw/Gebouw.18362600/0","kind":"building","height_m":7.88,"status":null},"geometry":{"type":"Polygon","coordinates":[[[3.889348,50.95377297],[3.88920742,50.95383325],[3.88917144,50.95380118],[3.8893128,50.95374066],[3.88931678,50.95374431],[3.889348,50.95377297]]]}},{"type":"Feature","id":"gebouw/Gebouw.18362601/0","properties":{"source":"Digitaal Vlaanderen Gebouwenregister","source_id":"gebouw/Gebouw.18362601/0","kind":"building","height_m":8.6,"status":null},"geometry":{"type":"Polygon","coordinates":[[[3.88961119,50.95398285],[3.88955456,50.95400682],[3.88953422,50.95398585],[3.88958928,50.95396263],[3.88961119,50.95398285]]]}},{"type":"Feature","id":"gebouw/Gebouw.18362852/0","properties":{"source":"Digitaal Vlaanderen Gebouwenregister","source_id":"gebouw/Gebouw.18362852/0","kind":"building","height_m":7.88,"status":null},"geometry":{"type":"Polygon","coordinates":[[[3.89722232,50.95202524],[3.89720786,50.95202669],[3.89713272,50.95203423],[3.89709465,50.95183788],[3.89717582,50.95183037],[3.89718724,50.95182932],[3.89722232,50.95202524]]]}},{"type":"Feature","id":"gebouw/Gebouw.18362853/0","properties":{"source":"Digitaal Vlaanderen Gebouwenregister","source_id":"gebouw/Gebouw.18362853/0","kind":"building","height_m":8.6,"status":null},"geometry":{"type":"Polygon","coordinates":[[[3.89848451,50.9524827],[3.89848737,50.95245302],[3.89862863,50.95245861],[3.89862395,50.95251289],[3.89854602,50.95251026],[3.8985466,50.95248591],[3.89848451,50.9524827]]]}},{"type":"Feature","id":"gebouw/Gebouw.18374289/0","properties":{"source":"Digitaal Vlaanderen Gebouwenregister","source_id":"gebouw/Gebouw.18374289/0","kind":"building","height_m":7.16,"status":null},"geometry":{"type":"Polygon","coordinates":[[[3.88936542,50.95359378],[3.88939354,50.95358015],[3.88942788,50.95361349],[3.88939854,50.95362551],[3.88936542,50.95359378]]]}},{"type":"Feature","id":"gebouw/Gebouw.18374413/0","properties":{"source":"Digitaal Vlaanderen Gebouwenregister","source_id":"gebouw/Gebouw.18374413/0","kind":"building","height_m":5.72,"status":null},"geometry":{"type":"Polygon","coordinates":[[[3.88949502,50.95394775],[3.88948629,50.95395156],[3.88946073,50.95392851],[3.88953644,50.95389422],[3.88956295,50.95391813],[3.88953736,50.95392931],[3.88955772,50.95394767],[3.88951541,50.95396614],[3.88949502,50.95394775]]]}},{"type":"Feature","id":"gebouw/Gebouw.18374414/0","properties":{"source":"Digitaal Vlaanderen Gebouwenregister","source_id":"gebouw/Gebouw.18374414/0","kind":"building","height_m":6.44,"status":null},"geometry":{"type":"Polygon","coordinates":[[[3.88959999,50.95349165],[3.88963303,50.95352295],[3.88956901,50.95354992],[3.88957165,50.95355242],[3.88947709,50.95359349],[3.88946302,50.95358016],[3.88942984,50.95359414],[3.88940538,50.95357128],[3.88943223,50.95355968],[3.88943826,50.95355708],[3.88953325,50.95351606],[3.88953596,50.95351863],[3.88959999,50.95349165]]]}},{"type":"Feature","id":"gebouw/Gebouw.18374972/0","properties":{"source":"Digitaal Vlaanderen Gebouwenregister","source_id":"gebouw/Gebouw.18374972/0","kind":"building","height_m":5.0,"status":null},"geometry":{"type":"Polygon","coordinates":[[[3.89056937,50.9513969],[3.89002149,50.9517509],[3.88992438,50.95169093],[3.88997553,50.95165788],[3.88970009,50.95148779],[3.89019795,50.95116724],[3.89056937,50.9513969]]]}},{"type":"Feature","id":"gebouw/Gebouw.18452259/0","properties":{"source":"Digitaal Vlaanderen Gebouwenregister","source_id":"gebouw/Gebouw.18452259/0","kind":"building","height_m":5.0,"status":null},"geometry":{"type":"Polygon","coordinates":[[[3.88977632,50.95392071],[3.88971726,50.95394707],[3.88969765,50.95392773],[3.88975358,50.9539045],[3.88976474,50.95390752],[3.88977632,50.95392071]]]}},{"type":"Feature","id":"gebouw/Gebouw.18733483/0","properties":{"source":"Digitaal Vlaanderen Gebouwenregister","source_id":"gebouw/Gebouw.18733483/0","kind":"building","height_m":9.32,"status":null},"geometry":{"type":"Polygon","coordinates":[[[3.89089907,50.95387475],[3.89084854,50.95389863],[3.89079803,50.95385573],[3.89085021,50.9538328],[3.89089907,50.95387475]]]}},{"type":"Feature","id":"gebouw/Gebouw.18734588/0","properties":{"source":"Digitaal Vlaanderen Gebouwenregister","source_id":"gebouw/Gebouw.18734588/0","kind":"building","height_m":8.6,"status":null},"geometry":{"type":"Polygon","coordinates":[[[3.89883045,50.95072775],[3.89894583,50.95066328],[3.89899665,50.95069957],[3.89888127,50.95076404],[3.89887511,50.95075964],[3.89883045,50.95072775]]]}},{"type":"Feature","id":"gebouw/Gebouw.18734589/0","properties":{"source":"Digitaal Vlaanderen Gebouwenregister","source_id":"gebouw/Gebouw.18734589/0","kind":"building","height_m":9.32,"status":null},"geometry":{"type":"Polygon","coordinates":[[[3.89435529,50.95235752],[3.89436907,50.95233981],[3.89439224,50.95234701],[3.89439976,50.95233735],[3.89446989,50.95235912],[3.89444859,50.95238649],[3.89435529,50.95235752]]]}},{"type":"Feature","id":"gebouw/Gebouw.18734590/0","properties":{"source":"Digitaal Vlaanderen Gebouwenregister","source_id":"gebouw/Gebouw.18734590/0","kind":"building","height_m":5.0,"status":null},"geometry":{"type":"Polygon","coordinates":[[[3.89772013,50.95139766],[3.89762626,50.95141804],[3.8976096,50.95142165],[3.89758017,50.95137017],[3.89769008,50.9513451],[3.89772013,50.95139766]]]}},{"type":"Feature","id":"gebouw/Gebouw.18734591/0","properties":{"source":"Digitaal Vlaanderen Gebouwenregister","source_id":"gebouw/Gebouw.18734591/0","kind":"building","height_m":5.72,"status":null},"geometry":{"type":"Polygon","coordinates":[[[3.89853175,50.95354302],[3.89859921,50.95354614],[3.89859693,50.95356576],[3.89859614,50.95357262],[3.89852584,50.95356937],[3.8985205,50.95356912],[3.89852358,50.95354264],[3.89853175,50.95354302]]]}},{"type":"Feature","id":"gebouw/Gebouw.18734594/0","properties":{"source":"Digitaal Vlaanderen Gebouwenregister","source_id":"gebouw/Gebouw.18734594/0","kind":"building","height_m":7.88,"status":null},"geometry":{"type":"Polygon","coordinates":[[[3.88931678,50.95374431],[3.88934824,50.95373082],[3.88937917,50.9537596],[3.889348,50.95377297],[3.88931678,50.95374431]]]}},{"type":"Feature","id":"gebouw/Gebouw.18734597/0","properties":{"source":"Digitaal Vlaanderen Gebouwenregister","source_id":"gebouw/Gebouw.18734597/0","kind":"building","height_m":5.0,"status":null},"geometry":{"type":"Polygon","coordinates":[[[3.88941763,50.9540214],[3.88938634,50.95403524],[3.8893487,50.95400502],[3.88935363,50.95400284],[3.88938277,50.95398995],[3.88941763,50.9540214]]]}},{"type":"Feature","id":"gebouw/Gebouw.18735039/0","properties":{"source":"Digitaal Vlaanderen Gebouwenregister","source_id":"gebouw/Gebouw.18735039/0","kind":"building","height_m":5.72,"status":null},"geometry":{"type":"Polygon","coordinates":[[[3.88946001,50.95373997],[3.88949325,50.95376898],[3.88945427,50.9537868],[3.88942103,50.95375779],[3.88946001,50.95373997]]]}},{"type":"Feature","id":"gebouw/Gebouw.18735040/0","properties":{"source":"Digitaal Vlaanderen Gebouwenregister","source_id":"gebouw/Gebouw.18735040/0","kind":"building","height_m":6.44,"status":null},"geometry":{"type":"Polygon","coordinates":[[[3.89030937,50.95190719],[3.8902849,50.95189179],[3.89034088,50.9518563],[3.89036535,50.9518717],[3.89030937,50.95190719]]]}},{"type":"Feature","id":"gebouw/Gebouw.18735041/0","properties":{"source":"Digitaal Vlaanderen Gebouwenregister","source_id":"gebouw/Gebouw.18735041/0","kind":"building","height_m":7.16,"status":null},"geometry":{"type":"Polygon","coordinates":[[[3.88901457,50.95303911],[3.88894502,50.95307103],[3.88893607,50.95306325],[3.88889058,50.95302372],[3.88896014,50.9529918],[3.88900559,50.9530313],[3.88901457,50.95303911]]]}},{"type":"Feature","id":"gebouw/Gebouw.18735043/0","properties":{"source":"Digitaal Vlaanderen Gebouwenregister","source_id":"gebouw/Gebouw.18735043/0","kind":"building","height_m":8.6,"status":null},"geometry":{"type":"Polygon","coordinates":[[[3.88843042,50.95289244],[3.88840663,50.95286921],[3.88848137,50.95283867],[3.88850517,50.9528619],[3.88843042,50.95289244]]]}},{"type":"Feature","id":"gebouw/Gebouw.18735403/0","properties":{"source":"Digitaal Vlaanderen Gebouwenregister","source_id":"gebouw/Gebouw.18735403/0","kind":"building","height_m":5.72,"status":null},"geometry":{"type":"Polygon","coordinates":[[[3.89009623,50.95202867],[3.89021178,50.95195337],[3.89032389,50.952022],[3.8902087,50.95209707],[3.89009623,50.95202867]]]}},{"type":"Feature","id":"gebouw/Gebouw.19522899/0","properties":{"source":"Digitaal Vlaanderen Gebouwenregister","source_id":"gebouw/Gebouw.19522899/0","kind":"building","height_m":7.88,"status":null},"geometry":{"type":"Polygon","coordinates":[[[3.89852135,50.9511685],[3.89845755,50.95118676],[3.89845468,50.95118274],[3.89839886,50.95119874],[3.89832868,50.95110101],[3.89838638,50.95108448],[3.89837732,50.95107251],[3.89843855,50.9510544],[3.89852131,50.95116845],[3.89852135,50.9511685]]]}},{"type":"Feature","id":"gebouw/Gebouw.19525346/0","properties":{"source":"Digitaal Vlaanderen Gebouwenregister","source_id":"gebouw/Gebouw.19525346/0","kind":"building","height_m":5.72,"status":null},"geometry":{"type":"Polygon","coordinates":[[[3.88974773,50.95360614],[3.88987884,50.95354737],[3.88986239,50.95353213],[3.88987907,50.95352495],[3.8898445,50.95349295],[3.88982783,50.95350013],[3.8898001,50.95347444],[3.88979444,50.95347686],[3.8897909,50.95347357],[3.8897706,50.95345471],[3.88971661,50.95347801],[3.88974056,50.95350022],[3.88973335,50.95350313],[3.88973681,50.95350654],[3.88969535,50.95352402],[3.88972507,50.95355154],[3.88970315,50.95356045],[3.88970517,50.95356216],[3.88966462,50.95357947],[3.88966752,50.9535821],[3.8897033,50.9536145],[3.88971141,50.95362185],[3.88974773,50.95360614]]]}},{"type":"Feature","id":"gebouw/Gebouw.19525347/0","properties":{"source":"Digitaal Vlaanderen Gebouwenregister","source_id":"gebouw/Gebouw.19525347/0","kind":"building","height_m":6.44,"status":null},"geometry":{"type":"Polygon","coordinates":[[[3.88974773,50.95360614],[3.88977914,50.95363629],[3.88970224,50.95366908],[3.88967003,50.95363974],[3.88971141,50.95362185],[3.88974773,50.95360614]]]}},{"type":"Feature","id":"gebouw/Gebouw.19526282/0","properties":{"source":"Digitaal Vlaanderen Gebouwenregister","source_id":"gebouw/Gebouw.19526282/0","kind":"building","height_m":9.32,"status":null},"geometry":{"type":"Polygon","coordinates":[[[3.89009944,50.95192573],[3.89055303,50.95163932],[3.89059922,50.9516685],[3.89065004,50.95163641],[3.89074555,50.95157611],[3.89080106,50.95154106],[3.89057191,50.95140105],[3.89007561,50.95172262],[3.89003553,50.95174859],[3.89003548,50.95174862],[3.88992998,50.95181698],[3.89009944,50.95192573]]]}},{"type":"Feature","id":"gebouw/Gebouw.19526283/0","properties":{"source":"Digitaal Vlaanderen Gebouwenregister","source_id":"gebouw/Gebouw.19526283/0","kind":"building","height_m":5.0,"status":null},"geometry":{"type":"Polygon","coordinates":[[[3.89076275,50.9515867],[3.89074555,50.95157611],[3.89065004,50.95163641],[3.89059922,50.9516685],[3.89062322,50.95168315],[3.890686,50.9517215],[3.89082997,50.95162808],[3.8907704,50.95159141],[3.89076275,50.9515867]]]}},{"type":"Feature","id":"gebouw/Gebouw.19526665/0","properties":{"source":"Digitaal Vlaanderen Gebouwenregister","source_id":"gebouw/Gebouw.19526665/0","kind":"building","height_m":7.88,"status":null},"geometry":{"type":"Polygon","coordinates":[[[3.89893648,50.95162096],[3.89892471,50.95159015],[3.89878085,50.95161366],[3.89879267,50.95164252],[3.89885424,50.95163322],[3.89893648,50.95162096]]]}},{"type":"Feature","id":"gebouw/Gebouw.19526666/0","properties":{"source":"Digitaal Vlaanderen Gebouwenregister","source_id":"gebouw/Gebouw.19526666/0","kind":"building","height_m":8.6,"status":null},"geometry":{"type":"Polygon","coordinates":[[[3.89893601,50.95165828],[3.89898129,50.95165133],[3.89898729,50.95165049],[3.89897387,50.95161538],[3.89893648,50.95162096],[3.89885424,50.95163322],[3.89879267,50.95164252],[3.89880494,50.95167412],[3.89893405,50.95165314],[3.89893601,50.95165828]]]}},{"type":"Feature","id":"gebouw/Gebouw.19526685/0","properties":{"source":"Digitaal Vlaanderen Gebouwenregister","source_id":"gebouw/Gebouw.19526685/0","kind":"building","height_m":7.16,"status":null},"geometry":{"type":"Polygon","coordinates":[[[3.89877789,50.95257695],[3.89874397,50.95267327],[3.89866038,50.95265986],[3.89869525,50.95256361],[3.89877789,50.95257695]]]}},{"type":"Feature","id":"gebouw/Gebouw.19527178/0","properties":{"source":"Digitaal Vlaanderen Gebouwenregister","source_id":"gebouw/Gebouw.19527178/0","kind":"building","height_m":9.32,"status":null},"geometry":{"type":"Polygon","coordinates":[[[3.8987372,50.95142588],[3.89868112,50.95143682],[3.89866968,50.9514129],[3.89865175,50.95137539],[3.89870524,50.95136444],[3.8987372,50.95142588]]]}},{"type":"Feature","id":"gebouw/Gebouw.19527179/0","properties":{"source":"Digitaal Vlaanderen Gebouwenregister","source_id":"gebouw/Gebouw.19527179/0","kind":"building","height_m":5.0,"status":null},"geometry":{"type":"Polygon","coordinates":[[[3.89866968,50.9514129],[3.89863986,50.95141854],[3.89862993,50.95139369],[3.89861084,50.95139721],[3.89860588,50.95138479],[3.89865175,50.95137539],[3.89866968,50.9514129]]]}},{"type":"Feature","id":"gebouw/Gebouw.19530256/0","properties":{"source":"Digitaal Vlaanderen Gebouwenregister","source_id":"gebouw/Gebouw.19530256/0","kind":"building","height_m":7.88,"status":null},"geometry":{"type":"Polygon","coordinates":[[[3.89874937,50.95254951],[3.89876473,50.95255134],[3.89875902,50.95257051],[3.89869717,50.95256317],[3.89872075,50.95249251],[3.89876636,50.95249858],[3.89874937,50.95254951]]]}},{"type":"Feature","id":"gebouw/Gebouw.20073783/0","properties":{"source":"Digitaal Vlaanderen Gebouwenregister","source_id":"gebouw/Gebouw.20073783/0","kind":"building","height_m":6.44,"status":null},"geometry":{"type":"Polygon","coordinates":[[[3.88945731,50.95321094],[3.88949113,50.95324007],[3.88939988,50.95328241],[3.88936599,50.95325321],[3.88945731,50.95321094]]]}},{"type":"Feature","id":"gebouw/Gebouw.20073785/0","properties":{"source":"Digitaal Vlaanderen Gebouwenregister","source_id":"gebouw/Gebouw.20073785/0","kind":"building","height_m":7.88,"status":null},"geometry":{"type":"Polygon","coordinates":[[[3.89822142,50.95139978],[3.89821466,50.95137706],[3.89833213,50.95136246],[3.89836878,50.95149713],[3.89834666,50.95149967],[3.89826085,50.95143124],[3.89822142,50.95139978]]]}},{"type":"Feature","id":"gebouw/Gebouw.20193794/0","properties":{"source":"Digitaal Vlaanderen Gebouwenregister","source_id":"gebouw/Gebouw.20193794/0","kind":"building","height_m":8.6,"status":null},"geometry":{"type":"Polygon","coordinates":[[[3.8889581,50.95321072],[3.88892005,50.95318058],[3.88903318,50.95312358],[3.88907125,50.95315373],[3.8889581,50.95321072]]]}},{"type":"Feature","id":"gebouw/Gebouw.20194284/0","properties":{"source":"Digitaal Vlaanderen Gebouwenregister","source_id":"gebouw/Gebouw.20194284/0","kind":"building","height_m":8.6,"status":null},"geometry":{"type":"Polygon","coordinates":[[[3.88988498,50.95378376],[3.88986698,50.95376577],[3.88992176,50.9537439],[3.88993976,50.95376189],[3.88988498,50.95378376]]]}},{"type":"Feature","id":"gebouw/Gebouw.20194367/0","properties":{"source":"Digitaal Vlaanderen Gebouwenregister","source_id":"gebouw/Gebouw.20194367/0","kind":"building","height_m":7.88,"status":null},"geometry":{"type":"Polygon","coordinates":[[[3.8976103,50.95142083],[3.89758033,50.95136633],[3.89768993,50.95134221],[3.89771994,50.95139678],[3.8976103,50.95142083]]]}},{"type":"Feature","id":"gebouw/Gebouw.20194615/0","properties":{"source":"Digitaal Vlaanderen Gebouwenregister","source_id":"gebouw/Gebouw.20194615/0","kind":"building","height_m":5.0,"status":null},"geometry":{"type":"Polygon","coordinates":[[[3.89039274,50.95198668],[3.89036857,50.95197092],[3.89043042,50.95193314],[3.89045455,50.95194888],[3.89039274,50.95198668]]]}},{"type":"Feature","id":"gebouw/Gebouw.20194617/0","properties":{"source":"Digitaal Vlaanderen Gebouwenregister","source_id":"gebouw/Gebouw.20194617/0","kind":"building","height_m":6.44,"status":null},"geometry":{"type":"Polygon","coordinates":[[[3.89690638,50.95054118],[3.89695726,50.9505952],[3.89668596,50.95069715],[3.89663509,50.95064313],[3.89690638,50.95054118]]]}},{"type":"Feature","id":"gebouw/Gebouw.20194618/0","properties":{"source":"Digitaal Vlaanderen Gebouwenregister","source_id":"gebouw/Gebouw.20194618/0","kind":"building","height_m":7.16,"status":null},"geometry":{"type":"Polygon","coordinates":[[[3.89841501,50.95100522],[3.89839651,50.95097837],[3.89846349,50.95095996],[3.89848198,50.95098681],[3.89841501,50.95100522]]]}},{"type":"Feature","id":"gebouw/Gebouw.20194635/0","properties":{"source":"Digitaal Vlaanderen Gebouwenregister","source_id":"gebouw/Gebouw.20194635/0","kind":"building","height_m":9.32,"status":null},"geometry":{"type":"Polygon","coordinates":[[[3.88964877,50.95236162],[3.88971975,50.95230407],[3.8897465,50.95231724],[3.88974418,50.95231912],[3.88978059,50.95233703],[3.88975194,50.95236027],[3.88976071,50.95236458],[3.88972349,50.95239475],[3.88968031,50.9523735],[3.88967752,50.95237577],[3.88964877,50.95236162]]]}},{"type":"Feature","id":"gebouw/Gebouw.20194636/0","properties":{"source":"Digitaal Vlaanderen Gebouwenregister","source_id":"gebouw/Gebouw.20194636/0","kind":"building","height_m":5.0,"status":null},"geometry":{"type":"Polygon","coordinates":[[[3.88913366,50.95385765],[3.88911125,50.95383572],[3.88916507,50.95381377],[3.88918749,50.9538357],[3.88913366,50.95385765]]]}},{"type":"Feature","id":"gebouw/Gebouw.20880429/0","properties":{"source":"Digitaal Vlaanderen Gebouwenregister","source_id":"gebouw/Gebouw.20880429/0","kind":"building","height_m":7.16,"status":null},"geometry":{"type":"Polygon","coordinates":[[[3.89853261,50.95148383],[3.89843957,50.95149818],[3.8984347,50.95149893],[3.89841667,50.95143724],[3.89842077,50.95143635],[3.89850127,50.95141874],[3.89853261,50.95148383]]]}},{"type":"Feature","id":"gebouw/Gebouw.30584744/0","properties":{"source":"Digitaal Vlaanderen Gebouwenregister","source_id":"gebouw/Gebouw.30584744/0","kind":"building","height_m":5.72,"status":null},"geometry":{"type":"Polygon","coordinates":[[[3.89852113,50.95304234],[3.89852726,50.95300179],[3.8984468,50.95299768],[3.89843981,50.95303738],[3.89852113,50.95304234]]]}},{"type":"Feature","id":"gebouw/Gebouw.30585031/0","properties":{"source":"Digitaal Vlaanderen Gebouwenregister","source_id":"gebouw/Gebouw.30585031/0","kind":"building","height_m":5.72,"status":null},"geometry":{"type":"Polygon","coordinates":[[[3.89901296,50.95327937],[3.89897004,50.95328023],[3.89896851,50.95325027],[3.89901143,50.95324941],[3.89901296,50.95327937]]]}},{"type":"Feature","id":"gebouw/Gebouw.30589945/0","properties":{"source":"Digitaal Vlaanderen Gebouwenregister","source_id":"gebouw/Gebouw.30589945/0","kind":"building","height_m":5.72,"status":null},"geometry":{"type":"Polygon","coordinates":[[[3.88955651,50.95401993],[3.88951909,50.95403613],[3.88951653,50.95403378],[3.88947836,50.95399876],[3.88951578,50.95398256],[3.88955397,50.95401761],[3.88955651,50.95401993]]]}},{"type":"Feature","id":"gebouw/Gebouw.31001714/0","properties":{"source":"Digitaal Vlaanderen Gebouwenregister","source_id":"gebouw/Gebouw.31001714/0","kind":"building","height_m":6.44,"status":null},"geometry":{"type":"Polygon","coordinates":[[[3.89865169,50.95341363],[3.89865218,50.95338615],[3.89872298,50.95338665],[3.8987225,50.95341413],[3.89865169,50.95341363]]]}},{"type":"Feature","id":"gebouw/Gebouw.31001715/0","properties":{"source":"Digitaal Vlaanderen Gebouwenregister","source_id":"gebouw/Gebouw.31001715/0","kind":"building","height_m":7.16,"status":null},"geometry":{"type":"Polygon","coordinates":[[[3.89878855,50.95328217],[3.89864934,50.95328443],[3.89865078,50.9533197],[3.89878999,50.95331744],[3.89878855,50.95328217]]]}},{"type":"Feature","id":"gebouw/Gebouw.31526310/0","properties":{"source":"Digitaal Vlaanderen Gebouwenregister","source_id":"gebouw/Gebouw.31526310/0","kind":"building","height_m":7.88,"status":null},"geometry":{"type":"Polygon","coordinates":[[[3.89771812,50.95149097],[3.89773138,50.95151982],[3.89776754,50.95151299],[3.89775415,50.95148421],[3.89771812,50.95149097]]]}},{"type":"Feature","id":"gebouw/Gebouw.31686445/0","properties":{"source":"Digitaal Vlaanderen Gebouwenregister","source_id":"gebouw/Gebouw.31686445/0","kind":"building","height_m":5.0,"status":null},"geometry":{"type":"Polygon","coordinates":[[[3.88933946,50.95229233],[3.88940287,50.95235439],[3.88921387,50.95243144],[3.88915046,50.95236938],[3.88933946,50.95229233]]]}},{"type":"Feature","id":"gebouw/Gebouw.31686448/0","properties":{"source":"Digitaal Vlaanderen Gebouwenregister","source_id":"gebouw/Gebouw.31686448/0","kind":"building","height_m":7.16,"status":null},"geometry":{"type":"Polygon","coordinates":[[[3.88914477,50.95236907],[3.88909546,50.95231943],[3.88928269,50.95224524],[3.889332,50.95229488],[3.88914477,50.95236907]]]}},{"type":"Feature","id":"gebouw/Gebouw.31686451/0","properties":{"source":"Digitaal Vlaanderen Gebouwenregister","source_id":"gebouw/Gebouw.31686451/0","kind":"building","height_m":9.32,"status":null},"geometry":{"type":"Polygon","coordinates":[[[3.88929901,50.95207193],[3.889343,50.9521193],[3.88915093,50.95219046],[3.88910694,50.95214309],[3.88929901,50.95207193]]]}},{"type":"Feature","id":"gebouw/Gebouw.31686453/0","properties":{"source":"Digitaal Vlaanderen Gebouwenregister","source_id":"gebouw/Gebouw.31686453/0","kind":"building","height_m":5.72,"status":null},"geometry":{"type":"Polygon","coordinates":[[[3.88929747,50.95207048],[3.88910463,50.95214049],[3.88905758,50.95208877],[3.88925041,50.95201877],[3.88929747,50.95207048]]]}},{"type":"Feature","id":"gebouw/Gebouw.31686457/0","properties":{"source":"Digitaal Vlaanderen Gebouwenregister","source_id":"gebouw/Gebouw.31686457/0","kind":"building","height_m":8.6,"status":null},"geometry":{"type":"Polygon","coordinates":[[[3.88925428,50.95185229],[3.889308,50.95190476],[3.88914137,50.95197283],[3.88908764,50.95192036],[3.88925428,50.95185229]]]}},{"type":"Feature","id":"gebouw/Gebouw.31686460/0","properties":{"source":"Digitaal Vlaanderen Gebouwenregister","source_id":"gebouw/Gebouw.31686460/0","kind":"building","height_m":5.72,"status":null},"geometry":{"type":"Polygon","coordinates":[[[3.8892571,50.95184967],[3.88918919,50.95179265],[3.88901322,50.95187626],[3.88907285,50.95192633],[3.8892571,50.95184967]]]}},{"type":"Feature","id":"gebouw/Gebouw.31762245/0","properties":{"source":"Digitaal Vlaanderen Gebouwenregister","source_id":"gebouw/Gebouw.31762245/0","kind":"building","height_m":7.88,"status":null},"geometry":{"type":"Polygon","coordinates":[[[3.89771559,50.95139774],[3.8976865,50.95134513],[3.89758266,50.95136804],[3.8976118,50.95142073],[3.89761436,50.95142018],[3.89771559,50.95139774]]]}},{"type":"Feature","id":"gebouw/Gebouw.31762412/0","properties":{"source":"Digitaal Vlaanderen Gebouwenregister","source_id":"gebouw/Gebouw.31762412/0","kind":"building","height_m":7.16,"status":null},"geometry":{"type":"Polygon","coordinates":[[[3.88930183,50.95345271],[3.88934399,50.95349019],[3.88938059,50.95347377],[3.88933843,50.95343629],[3.88930183,50.95345271]]]}},{"type":"Feature","id":"gebouw/Gebouw.31762422/0","properties":{"source":"Digitaal Vlaanderen Gebouwenregister","source_id":"gebouw/Gebouw.31762422/0","kind":"building","height_m":9.32,"status":null},"geometry":{"type":"Polygon","coordinates":[[[3.89046293,50.95184628],[3.89051786,50.95181226],[3.89047011,50.95178151],[3.89041519,50.95181553],[3.89046293,50.95184628]]]}},{"type":"Feature","id":"gebouw/Gebouw.31762440/0","properties":{"source":"Digitaal Vlaanderen Gebouwenregister","source_id":"gebouw/Gebouw.31762440/0","kind":"building","height_m":7.16,"status":null},"geometry":{"type":"Polygon","coordinates":[[[3.88991662,50.95209771],[3.88997425,50.95206115],[3.88994047,50.95203991],[3.88988284,50.95207647],[3.88991662,50.95209771]]]}},{"type":"Feature","id":"gebouw/Gebouw.31762494/0","properties":{"source":"Digitaal Vlaanderen Gebouwenregister","source_id":"gebouw/Gebouw.31762494/0","kind":"building","height_m":5.72,"status":null},"geometry":{"type":"Polygon","coordinates":[[[3.88967322,50.95247786],[3.88972114,50.95249132],[3.88974022,50.95246423],[3.8896923,50.95245077],[3.88967322,50.95247786]]]}},{"type":"Feature","id":"gebouw/Gebouw.31762511/0","properties":{"source":"Digitaal Vlaanderen Gebouwenregister","source_id":"gebouw/Gebouw.31762511/0","kind":"building","height_m":7.88,"status":null},"geometry":{"type":"Polygon","coordinates":[[[3.89875791,50.95293852],[3.89875467,50.95286652],[3.89869711,50.95286756],[3.89870035,50.95293955],[3.89875791,50.95293852]]]}},{"type":"Feature","id":"gebouw/Gebouw.31762579/0","properties":{"source":"Digitaal Vlaanderen Gebouwenregister","source_id":"gebouw/Gebouw.31762579/0","kind":"building","height_m":6.44,"status":null},"geometry":{"type":"Polygon","coordinates":[[[3.88924446,50.95337282],[3.8893616,50.95331814],[3.88932248,50.9532847],[3.88920534,50.95333938],[3.88924446,50.95337282]]]}},{"type":"Feature","id":"gebouw/Gebouw.31762589/0","properties":{"source":"Digitaal Vlaanderen Gebouwenregister","source_id":"gebouw/Gebouw.31762589/0","kind":"building","height_m":8.6,"status":null},"geometry":{"type":"Polygon","coordinates":[[[3.88873921,50.95094526],[3.8888547,50.950997],[3.88901912,50.95085056],[3.88890363,50.95079882],[3.88873921,50.95094526]]]}},{"type":"Feature","id":"gebouw/Gebouw.32042020/0","properties":{"source":"Digitaal Vlaanderen Gebouwenregister","source_id":"gebouw/Gebouw.32042020/0","kind":"building","height_m":7.16,"status":null},"geometry":{"type":"Polygon","coordinates":[[[3.89023627,50.95346381],[3.89033696,50.95353389],[3.89046244,50.95344001],[3.89036678,50.95338899],[3.89023627,50.95346381]]]}},{"type":"Feature","id":"way/198312633","properties":{"source":"OpenStreetMap","source_id":"way/198312633","kind":"vegetation","name":null,"waterway":null,"landuse":"forest"},"geometry":{"type":"Polygon","coordinates":[[[3.8989171,50.9516735],[3.898951,50.9517839],[3.8987854,50.951813],[3.8988044,50.9518472],[3.8984495,50.9519105],[3.898435,50.9518763],[3.8984242,50.9518369],[3.898435,50.951801],[3.8984567,50.9517771],[3.8985052,50.9517587],[3.8989171,50.9516735]]]}},{"type":"Feature","id":"way/198312640","properties":{"source":"OpenStreetMap","source_id":"way/198312640","kind":"vegetation","name":null,"waterway":null,"landuse":"forest"},"geometry":{"type":"Polygon","coordinates":[[[3.8976169,50.951055],[3.8977475,50.9512364],[3.8973615,50.9513852],[3.8977184,50.9518917],[3.8977269,50.9519104],[3.89774,50.9519393],[3.8978149,50.9519272],[3.8978322,50.9519925],[3.8975057,50.9520107],[3.8974844,50.9519778],[3.8974633,50.9519451],[3.8970208,50.9512604],[3.8976169,50.951055]]]}},{"type":"Feature","id":"way/198312641","properties":{"source":"OpenStreetMap","source_id":"way/198312641","kind":"vegetation","name":null,"waterway":null,"landuse":"forest"},"geometry":{"type":"Polygon","coordinates":[[[3.8984788,50.9519529],[3.8985413,50.9519444],[3.8986526,50.9519444],[3.898764,50.9519461],[3.8988156,50.9519769],[3.8988808,50.9519889],[3.8989079,50.9520145],[3.8988971,50.9520419],[3.8988455,50.9520522],[3.8987477,50.9520385],[3.8986906,50.9520385],[3.8986934,50.9520744],[3.8987205,50.9521326],[3.8986119,50.9521583],[3.8984788,50.9519529]]]}},{"type":"Feature","id":"way/198312660","properties":{"source":"OpenStreetMap","source_id":"way/198312660","kind":"vegetation","name":null,"waterway":null,"landuse":"forest"},"geometry":{"type":"Polygon","coordinates":[[[3.8907574,50.950516],[3.8908388,50.9505793],[3.8906352,50.9507042],[3.8906718,50.9507419],[3.8904573,50.9508291],[3.8902861,50.9509025],[3.8900662,50.9509968],[3.8899548,50.9510447],[3.8899127,50.9510259],[3.8897335,50.9511252],[3.8895433,50.951298],[3.889394,50.9513168],[3.8891332,50.951416],[3.8890572,50.9513698],[3.8880686,50.9517462],[3.8885629,50.9523246],[3.8883782,50.9523793],[3.8883278,50.9523095],[3.8882021,50.9521352],[3.8879436,50.951777],[3.8872212,50.9520679],[3.8871451,50.9520132],[3.8892364,50.9511679],[3.8907574,50.950516]]]}},{"type":"Feature","id":"way/198312674","properties":{"source":"OpenStreetMap","source_id":"way/198312674","kind":"vegetation","name":null,"waterway":null,"landuse":"forest"},"geometry":{"type":"Polygon","coordinates":[[[3.8899844,50.9528266],[3.8899104,50.9528629],[3.8895549,50.9527353],[3.8896522,50.9526899],[3.8899844,50.9528266]]]}},{"type":"Feature","id":"way/198312683","properties":{"source":"OpenStreetMap","source_id":"way/198312683","kind":"vegetation","name":null,"waterway":null,"landuse":"forest"},"geometry":{"type":"Polygon","coordinates":[[[3.8946325,50.9525753],[3.8951058,50.9519509],[3.8950192,50.9519561],[3.8942923,50.9528872],[3.894407,50.9528901],[3.8946325,50.9525753]]]}},{"type":"Feature","id":"way/198312690","properties":{"source":"OpenStreetMap","source_id":"way/198312690","kind":"vegetation","name":null,"waterway":null,"landuse":"forest"},"geometry":{"type":"Polygon","coordinates":[[[3.8975436,50.9492578],[3.8978394,50.9494224],[3.8978778,50.9494635],[3.8982805,50.9499831],[3.8979194,50.9501476],[3.8976275,50.9503896],[3.8964483,50.9509292],[3.8964869,50.9509799],[3.8961845,50.9511232],[3.8953752,50.9504354],[3.8952394,50.9505038],[3.8951796,50.9506646],[3.895071,50.9507126],[3.8949569,50.9506818],[3.8948591,50.9506407],[3.89443,50.9510103],[3.8947505,50.9511951],[3.8956902,50.9515817],[3.8955055,50.9517871],[3.8941747,50.951243],[3.8942779,50.9511506],[3.8933436,50.9507297],[3.8928113,50.9504319],[3.892594,50.9502437],[3.8925071,50.9500624],[3.8922627,50.9501513],[3.8923822,50.9502677],[3.892355,50.9503703],[3.8921866,50.9504696],[3.8918933,50.9505586],[3.8916706,50.9503361],[3.891241,50.9504884],[3.8911277,50.9503768],[3.8925397,50.9498228],[3.8942888,50.9491179],[3.8952083,50.9487283],[3.8952707,50.9487788],[3.8946962,50.9490255],[3.8945332,50.9491007],[3.8944925,50.9491914],[3.8944979,50.9492582],[3.8948727,50.9494532],[3.8951924,50.9495906],[3.8952231,50.9496038],[3.8954186,50.9496774],[3.8956603,50.9497202],[3.8960406,50.949739],[3.8964561,50.9497646],[3.8966462,50.9497578],[3.8967956,50.949715],[3.8975436,50.9492578]]]}},{"type":"Feature","id":"way/198312698","properties":{"source":"OpenStreetMap","source_id":"way/198312698","kind":"vegetation","name":null,"waterway":null,"landuse":"forest"},"geometry":{"type":"Polygon","coordinates":[[[3.88904,50.9532794],[3.8890952,50.9533332],[3.8887883,50.9534684],[3.8889543,50.9536013],[3.8883093,50.9538961],[3.8880987,50.9537019],[3.88904,50.9532794]]]}},{"type":"Feature","id":"way/198312704","properties":{"source":"OpenStreetMap","source_id":"way/198312704","kind":"vegetation","name":null,"waterway":null,"landuse":"forest"},"geometry":{"type":"Polygon","coordinates":[[[3.891813,50.9514157],[3.8913828,50.9508629],[3.8912769,50.9507431],[3.891377,50.95072],[3.8915422,50.950916],[3.8916171,50.9509838],[3.8919052,50.9513927],[3.891813,50.9514157]]]}},{"type":"Feature","id":"way/198312706","properties":{"source":"OpenStreetMap","source_id":"way/198312706","kind":"vegetation","name":null,"waterway":null,"landuse":"forest"},"geometry":{"type":"Polygon","coordinates":[[[3.8976178,50.947758],[3.8958783,50.9484536],[3.8959715,50.948493],[3.8967517,50.9488227],[3.8977222,50.9479193],[3.8978221,50.9478757],[3.8976992,50.9478031],[3.8976178,50.947758]]]}},{"type":"Feature","id":"way/198312707","properties":{"source":"OpenStreetMap","source_id":"way/198312707","kind":"vegetation","name":null,"waterway":null,"landuse":"forest"},"geometry":{"type":"Polygon","coordinates":[[[3.8981351,50.9518618],[3.8983264,50.9518041],[3.8986724,50.9523264],[3.8987261,50.9524159],[3.8988337,50.9524328],[3.8986724,50.9532434],[3.8978658,50.9531781],[3.8976507,50.9532047],[3.8973664,50.9532289],[3.8973121,50.9532027],[3.8972512,50.9531732],[3.8967865,50.952999],[3.8966482,50.9530958],[3.8953845,50.9526627],[3.8950235,50.9530692],[3.8952654,50.9531539],[3.8950542,50.9533499],[3.8945318,50.9531031],[3.8944896,50.9530571],[3.8945626,50.9530353],[3.8947008,50.9530813],[3.8947738,50.9530232],[3.8946471,50.9529821],[3.8947277,50.9528877],[3.894939,50.9529627],[3.8956242,50.9522171],[3.895578,50.952159],[3.8955384,50.9521291],[3.8954531,50.9520649],[3.8953608,50.9520221],[3.8952892,50.9519877],[3.8952457,50.9519741],[3.8952155,50.9519522],[3.895205,50.9519099],[3.8952281,50.9518842],[3.8952539,50.9518791],[3.8952946,50.9518791],[3.8953286,50.9518945],[3.8953652,50.9519202],[3.8953707,50.951933],[3.8953616,50.9519467],[3.8953442,50.9519732],[3.8954066,50.9519894],[3.8954868,50.9520297],[3.8956174,50.9521174],[3.8957729,50.9522498],[3.8958191,50.9522289],[3.8958958,50.9521942],[3.896086,50.9523406],[3.89623,50.9522789],[3.8962516,50.9523013],[3.8962821,50.9523329],[3.8963433,50.9523962],[3.8965572,50.9525903],[3.8964821,50.9526393],[3.8966434,50.9527942],[3.8968495,50.9528957],[3.8968332,50.9529675],[3.8970424,50.9530257],[3.897269,50.9531201],[3.8974687,50.9531515],[3.8975225,50.9531322],[3.8976012,50.9530959],[3.8977548,50.9530584],[3.8978758,50.9530245],[3.8980487,50.9529579],[3.8982657,50.952918],[3.8982657,50.9528079],[3.8982522,50.9525877],[3.8982753,50.9522865],[3.8981581,50.9522925],[3.8981293,50.9521014],[3.8981351,50.9518618]]]}},{"type":"Feature","id":"way/198332511","properties":{"source":"OpenStreetMap","source_id":"way/198332511","kind":"vegetation","name":null,"waterway":null,"landuse":"forest"},"geometry":{"type":"Polygon","coordinates":[[[3.8928902,50.9535964],[3.8933467,50.9542294],[3.8932625,50.9542517],[3.8932436,50.9542236],[3.8929583,50.9538],[3.8925346,50.9538975],[3.8925944,50.9539968],[3.892608,50.9540635],[3.8922739,50.9541935],[3.8922522,50.9539506],[3.8920132,50.9539933],[3.8920729,50.9540669],[3.8919724,50.9541063],[3.8918455,50.9540255],[3.8919777,50.9539215],[3.8929337,50.9537538],[3.8928821,50.9536768],[3.8923552,50.9535622],[3.8924095,50.9535057],[3.8928902,50.9535964]]]}},{"type":"Feature","id":"way/198572478","properties":{"source":"OpenStreetMap","source_id":"way/198572478","kind":"vegetation","name":null,"waterway":null,"landuse":"forest"},"geometry":{"type":"Polygon","coordinates":[[[3.8873267,50.9514477],[3.8880025,50.9511426],[3.8886822,50.9508325],[3.8891066,50.9506509],[3.8892056,50.9506086],[3.8896353,50.9504018],[3.8900396,50.950248],[3.8902486,50.9501779],[3.890315,50.9502173],[3.8904127,50.9502443],[3.8904556,50.9502862],[3.8887642,50.9509679],[3.8873951,50.9515092],[3.8873267,50.9514477]]]}},{"type":"Feature","id":"way/198582996","properties":{"source":"OpenStreetMap","source_id":"way/198582996","kind":"vegetation","name":null,"waterway":null,"landuse":"forest"},"geometry":{"type":"Polygon","coordinates":[[[3.8902378,50.9498434],[3.8904948,50.9500706],[3.8903795,50.9501039],[3.8901764,50.9499414],[3.8900514,50.949987],[3.8900092,50.9499552],[3.8902378,50.9498434]]]}},{"type":"Feature","id":"way/860570966","properties":{"source":"OpenStreetMap","source_id":"way/860570966","kind":"water","name":null,"waterway":null,"landuse":null},"geometry":{"type":"Polygon","coordinates":[[[3.890689,50.9514909],[3.8906367,50.9514495],[3.8906126,50.9514233],[3.8906246,50.9514047],[3.8906944,50.9513777],[3.8907748,50.9514216],[3.8907842,50.9514444],[3.890689,50.9514909]]]}}]}