{"type":"FeatureCollection","features":[{"type":"Feature","id":"gebouw/Gebouw.8347789/0","properties":{"source":"Digitaal Vlaanderen Gebouwenregister","source_id":"gebouw/Gebouw.8347789/0","kind":"building","height_m":6.44,"status":null},"geometry":{"type":"Polygon","coordinates":[[[3.89640586,50.97395715],[3.8964008,50.97396206],[3.89625906,50.97409956],[3.89622205,50.9740849],[3.89622542,50.97408138],[3.89620725,50.97407367],[3.89626198,50.97401982],[3.89625087,50.97401445],[3.89634067,50.97392861],[3.896271,50.97389957],[3.89633576,50.97383765],[3.89633689,50.9738381],[3.89633698,50.97383813],[3.89647314,50.97389167],[3.89647213,50.97389286],[3.89640586,50.97395715]]]}},{"type":"Feature","id":"gebouw/Gebouw.8347790/0","properties":{"source":"Digitaal Vlaanderen Gebouwenregister","source_id":"gebouw/Gebouw.8347790/0","kind":"building","height_m":7.16,"status":null},"geometry":{"type":"Polygon","coordinates":[[[3.89428906,50.97290974],[3.89418055,50.97302431],[3.89408513,50.97298586],[3.89410289,50.97296467],[3.89406169,50.97294758],[3.89399222,50.97302231],[3.89403533,50.97303875],[3.89402277,50.9730519],[3.89407373,50.97307155],[3.89408881,50.97305596],[3.89420268,50.97309987],[3.89436455,50.97292896],[3.89429553,50.97290291],[3.89429238,50.97290625],[3.89428906,50.97290974]]]}},{"type":"Feature","id":"gebouw/Gebouw.8348278/0","properties":{"source":"Digitaal Vlaanderen Gebouwenregister","source_id":"gebouw/Gebouw.8348278/0","kind":"building","height_m":5.72,"status":null},"geometry":{"type":"Polygon","coordinates":[[[3.89039813,50.97147127],[3.89038306,50.97148952],[3.8903264,50.97147144],[3.89036511,50.97142306],[3.89041771,50.97143962],[3.89042264,50.97143368],[3.89036414,50.97141593],[3.89044383,50.97132155],[3.89038823,50.97130279],[3.89044729,50.97123158],[3.89056407,50.97127018],[3.8905073,50.97133897],[3.89041009,50.97145677],[3.89040391,50.97145462],[3.8903919,50.97146928],[3.89039813,50.97147127]]]}},{"type":"Feature","id":"gebouw/Gebouw.8447103/0","properties":{"source":"Digitaal Vlaanderen Gebouwenregister","source_id":"gebouw/Gebouw.8447103/0","kind":"building","height_m":5.0,"status":null},"geometry":{"type":"Polygon","coordinates":[[[3.89524478,50.97282564],[3.8953488,50.97287843],[3.89539206,50.97290038],[3.89535299,50.97293359],[3.89533764,50.97292536],[3.89524844,50.97299951],[3.89521822,50.97298468],[3.89513838,50.97305173],[3.8950278,50.97299923],[3.8951102,50.97293006],[3.89511431,50.97293178],[3.89513077,50.97291737],[3.89522938,50.97296257],[3.8952951,50.97290829],[3.8952173,50.97287139],[3.89520636,50.97287988],[3.89518882,50.97287143],[3.89524478,50.97282564]]]}},{"type":"Feature","id":"gebouw/Gebouw.8499433/0","properties":{"source":"Digitaal Vlaanderen Gebouwenregister","source_id":"gebouw/Gebouw.8499433/0","kind":"building","height_m":8.6,"status":null},"geometry":{"type":"Polygon","coordinates":[[[3.8938718,50.97319843],[3.89390506,50.973158],[3.89396292,50.97317724],[3.89393404,50.97321023],[3.89394434,50.97321316],[3.89392464,50.9732369],[3.89391817,50.97323495],[3.89391418,50.97323921],[3.89389657,50.97323301],[3.89389843,50.97323041],[3.8938805,50.97322476],[3.89386297,50.97321593],[3.89387621,50.9731998],[3.8938718,50.97319843]]]}},{"type":"Feature","id":"gebouw/Gebouw.8499434/0","properties":{"source":"Digitaal Vlaanderen Gebouwenregister","source_id":"gebouw/Gebouw.8499434/0","kind":"building","height_m":9.32,"status":null},"geometry":{"type":"Polygon","coordinates":[[[3.89406531,50.97312677],[3.89401861,50.97318015],[3.89399508,50.97317187],[3.89390295,50.97313943],[3.89391715,50.97312124],[3.89393067,50.97312515],[3.89395843,50.97309027],[3.89403976,50.97311804],[3.89406531,50.97312677]]]}},{"type":"Feature","id":"gebouw/Gebouw.8499855/0","properties":{"source":"Digitaal Vlaanderen Gebouwenregister","source_id":"gebouw/Gebouw.8499855/0","kind":"building","height_m":5.0,"status":null},"geometry":{"type":"Polygon","coordinates":[[[3.89660833,50.97395024],[3.89647213,50.97389286],[3.89640587,50.97395715],[3.8964008,50.97396206],[3.89639531,50.97396739],[3.89639202,50.97397058],[3.89630427,50.97405571],[3.89634542,50.97407334],[3.89644987,50.97397597],[3.89653982,50.97401443],[3.89660833,50.97395024]]]}},{"type":"Feature","id":"gebouw/Gebouw.9043767/0","properties":{"source":"Digitaal Vlaanderen Gebouwenregister","source_id":"gebouw/Gebouw.9043767/0","kind":"building","height_m":8.6,"status":null},"geometry":{"type":"Polygon","coordinates":[[[3.89623143,50.97398986],[3.89616532,50.97405725],[3.89611493,50.97403781],[3.89608321,50.97402558],[3.8960706,50.97402071],[3.89613613,50.97395294],[3.89623143,50.97398986]]]}},{"type":"Feature","id":"gebouw/Gebouw.9043768/0","properties":{"source":"Digitaal Vlaanderen Gebouwenregister","source_id":"gebouw/Gebouw.9043768/0","kind":"building","height_m":9.32,"status":null},"geometry":{"type":"Polygon","coordinates":[[[3.89408286,50.97321389],[3.89403453,50.97319327],[3.89405896,50.97317034],[3.89410789,50.97319059],[3.89408286,50.97321389]]]}},{"type":"Feature","id":"gebouw/Gebouw.9044259/0","properties":{"source":"Digitaal Vlaanderen Gebouwenregister","source_id":"gebouw/Gebouw.9044259/0","kind":"building","height_m":5.0,"status":null},"geometry":{"type":"Polygon","coordinates":[[[3.89750232,50.97152769],[3.89733446,50.97145368],[3.89728185,50.97143048],[3.89723637,50.97147283],[3.89728878,50.97149838],[3.89746155,50.97158261],[3.89750232,50.97152769]]]}},{"type":"Feature","id":"gebouw/Gebouw.9044326/0","properties":{"source":"Digitaal Vlaanderen Gebouwenregister","source_id":"gebouw/Gebouw.9044326/0","kind":"building","height_m":7.88,"status":null},"geometry":{"type":"Polygon","coordinates":[[[3.8901472,50.97155586],[3.890023,50.97152327],[3.8900734,50.97145551],[3.89019486,50.97149612],[3.89024081,50.97151147],[3.89021034,50.97154763],[3.89016595,50.97153236],[3.8901472,50.97155586]]]}},{"type":"Feature","id":"gebouw/Gebouw.9044327/0","properties":{"source":"Digitaal Vlaanderen Gebouwenregister","source_id":"gebouw/Gebouw.9044327/0","kind":"building","height_m":8.6,"status":null},"geometry":{"type":"Polygon","coordinates":[[[3.89027181,50.97155549],[3.8903063,50.97151357],[3.8903422,50.97152337],[3.89030653,50.9715649],[3.89027181,50.97155549]]]}},{"type":"Feature","id":"gebouw/Gebouw.9044328/0","properties":{"source":"Digitaal Vlaanderen Gebouwenregister","source_id":"gebouw/Gebouw.9044328/0","kind":"building","height_m":9.32,"status":null},"geometry":{"type":"Polygon","coordinates":[[[3.89352296,50.97156645],[3.8935173,50.97156379],[3.89351113,50.97156089],[3.89352158,50.97155203],[3.8934702,50.97152786],[3.89342242,50.97156834],[3.8934729,50.97159209],[3.89347593,50.97158952],[3.89348422,50.97159342],[3.89348867,50.97159551],[3.89352296,50.97156645]]]}},{"type":"Feature","id":"gebouw/Gebouw.9044329/0","properties":{"source":"Digitaal Vlaanderen Gebouwenregister","source_id":"gebouw/Gebouw.9044329/0","kind":"building","height_m":5.0,"status":null},"geometry":{"type":"Polygon","coordinates":[[[3.89309033,50.97187314],[3.89312697,50.97183874],[3.89317384,50.97185841],[3.89313719,50.97189318],[3.89309033,50.97187314]]]}},{"type":"Feature","id":"gebouw/Gebouw.9044442/0","properties":{"source":"Digitaal Vlaanderen Gebouwenregister","source_id":"gebouw/Gebouw.9044442/0","kind":"building","height_m":5.72,"status":null},"geometry":{"type":"Polygon","coordinates":[[[3.89812109,50.97018361],[3.89809295,50.97017013],[3.8980267,50.97013837],[3.89798548,50.97017264],[3.89785555,50.97011035],[3.89782313,50.9701327],[3.89795589,50.97019615],[3.89806997,50.97024917],[3.89813887,50.97019217],[3.8981389,50.97019214],[3.89813346,50.97018954],[3.89812468,50.97018534],[3.89812109,50.97018361]]]}},{"type":"Feature","id":"gebouw/Gebouw.9044446/0","properties":{"source":"Digitaal Vlaanderen Gebouwenregister","source_id":"gebouw/Gebouw.9044446/0","kind":"building","height_m":8.6,"status":null},"geometry":{"type":"Polygon","coordinates":[[[3.89806197,50.96763878],[3.8980667,50.96763511],[3.8980678,50.96763426],[3.89806337,50.96763196],[3.89802384,50.96761139],[3.89795251,50.96757428],[3.89792045,50.96760167],[3.89791783,50.9676039],[3.89782505,50.96756214],[3.89782835,50.96755905],[3.8977836,50.96753792],[3.89772682,50.96758709],[3.89780765,50.96762411],[3.89782013,50.96762983],[3.89788486,50.96765948],[3.8979075,50.96765673],[3.89793202,50.96763698],[3.89801134,50.96767799],[3.89806197,50.96763878]]]}},{"type":"Feature","id":"gebouw/Gebouw.9048928/0","properties":{"source":"Digitaal Vlaanderen Gebouwenregister","source_id":"gebouw/Gebouw.9048928/0","kind":"building","height_m":5.0,"status":null},"geometry":{"type":"Polygon","coordinates":[[[3.89751121,50.9712961],[3.89731215,50.97121459],[3.89725358,50.97127189],[3.89745245,50.9713533],[3.89751121,50.9712961]]]}},{"type":"Feature","id":"gebouw/Gebouw.9057480/0","properties":{"source":"Digitaal Vlaanderen Gebouwenregister","source_id":"gebouw/Gebouw.9057480/0","kind":"building","height_m":8.6,"status":null},"geometry":{"type":"Polygon","coordinates":[[[3.8977604,50.97214025],[3.89781096,50.97214592],[3.89780204,50.97217634],[3.89775146,50.97217143],[3.8977604,50.97214025]]]}},{"type":"Feature","id":"gebouw/Gebouw.9057592/0","properties":{"source":"Digitaal Vlaanderen Gebouwenregister","source_id":"gebouw/Gebouw.9057592/0","kind":"building","height_m":8.6,"status":null},"geometry":{"type":"Polygon","coordinates":[[[3.89802384,50.96761139],[3.89809571,50.96755458],[3.89810086,50.96755051],[3.89810515,50.96754712],[3.89797596,50.96748193],[3.89785989,50.96757365],[3.89791783,50.9676039],[3.89792045,50.96760167],[3.89795251,50.96757428],[3.89802384,50.96761139]]]}},{"type":"Feature","id":"gebouw/Gebouw.9057593/0","properties":{"source":"Digitaal Vlaanderen Gebouwenregister","source_id":"gebouw/Gebouw.9057593/0","kind":"building","height_m":9.32,"status":null},"geometry":{"type":"Polygon","coordinates":[[[3.89738218,50.97073044],[3.89738637,50.97072689],[3.89735946,50.97071421],[3.8973808,50.97069498],[3.89741041,50.97070676],[3.89742016,50.97069826],[3.89749948,50.97073387],[3.89756556,50.97067715],[3.89759806,50.97069159],[3.89759975,50.97069032],[3.89776694,50.97076792],[3.89769108,50.97083307],[3.89752255,50.97075587],[3.89749501,50.9707443],[3.89746683,50.97076912],[3.89738218,50.97073044]]]}},{"type":"Feature","id":"gebouw/Gebouw.9057863/0","properties":{"source":"Digitaal Vlaanderen Gebouwenregister","source_id":"gebouw/Gebouw.9057863/0","kind":"building","height_m":7.16,"status":null},"geometry":{"type":"Polygon","coordinates":[[[3.89851162,50.96787784],[3.89842596,50.96794273],[3.89838838,50.96792296],[3.89847283,50.967859],[3.89851162,50.96787784]]]}},{"type":"Feature","id":"gebouw/Gebouw.9065034/0","properties":{"source":"Digitaal Vlaanderen Gebouwenregister","source_id":"gebouw/Gebouw.9065034/0","kind":"building","height_m":9.32,"status":null},"geometry":{"type":"Polygon","coordinates":[[[3.89882856,50.96946783],[3.89911801,50.96956684],[3.89907105,50.96962697],[3.89906901,50.96962957],[3.89898489,50.96960469],[3.89901291,50.96956686],[3.89889657,50.96952913],[3.89887627,50.96955148],[3.89877099,50.96951574],[3.89881555,50.96946342],[3.89882856,50.96946783]]]}},{"type":"Feature","id":"gebouw/Gebouw.9065039/0","properties":{"source":"Digitaal Vlaanderen Gebouwenregister","source_id":"gebouw/Gebouw.9065039/0","kind":"building","height_m":7.88,"status":null},"geometry":{"type":"Polygon","coordinates":[[[3.89715493,50.96964929],[3.89715192,50.9696477],[3.89710163,50.96962111],[3.89702682,50.96967754],[3.89716491,50.96975084],[3.89721505,50.96971303],[3.89712807,50.96966705],[3.89715493,50.96964929]]]}},{"type":"Feature","id":"gebouw/Gebouw.9065040/0","properties":{"source":"Digitaal Vlaanderen Gebouwenregister","source_id":"gebouw/Gebouw.9065040/0","kind":"building","height_m":8.6,"status":null},"geometry":{"type":"Polygon","coordinates":[[[3.89872495,50.96787688],[3.89865067,50.96793384],[3.89858807,50.96790129],[3.898564,50.96788878],[3.89863829,50.96783182],[3.89872495,50.96787688]]]}},{"type":"Feature","id":"gebouw/Gebouw.9069251/0","properties":{"source":"Digitaal Vlaanderen Gebouwenregister","source_id":"gebouw/Gebouw.9069251/0","kind":"building","height_m":6.44,"status":null},"geometry":{"type":"Polygon","coordinates":[[[3.89596085,50.96992425],[3.8959526,50.96993967],[3.89590943,50.9699251],[3.8959202,50.96990612],[3.89592917,50.96989031],[3.89597032,50.96990279],[3.89597311,50.96989889],[3.89598317,50.9699014],[3.89597035,50.96992152],[3.8959637,50.96991891],[3.89596085,50.96992425]]]}},{"type":"Feature","id":"gebouw/Gebouw.9069252/0","properties":{"source":"Digitaal Vlaanderen Gebouwenregister","source_id":"gebouw/Gebouw.9069252/0","kind":"building","height_m":7.16,"status":null},"geometry":{"type":"Polygon","coordinates":[[[3.89695931,50.96959241],[3.89698581,50.96957293],[3.8968712,50.96951073],[3.89684364,50.96949577],[3.89683981,50.96949859],[3.89680512,50.96947975],[3.89674323,50.9695252],[3.89692039,50.969621],[3.89695931,50.96959241]]]}},{"type":"Feature","id":"gebouw/Gebouw.9069526/0","properties":{"source":"Digitaal Vlaanderen Gebouwenregister","source_id":"gebouw/Gebouw.9069526/0","kind":"building","height_m":7.88,"status":null},"geometry":{"type":"Polygon","coordinates":[[[3.88966182,50.97212322],[3.88968787,50.97213166],[3.88974503,50.97215018],[3.88971938,50.97218738],[3.88965868,50.97216825],[3.88956297,50.97213809],[3.88959082,50.97210022],[3.88966182,50.97212322]]]}},{"type":"Feature","id":"gebouw/Gebouw.9069666/0","properties":{"source":"Digitaal Vlaanderen Gebouwenregister","source_id":"gebouw/Gebouw.9069666/0","kind":"building","height_m":7.88,"status":null},"geometry":{"type":"Polygon","coordinates":[[[3.88850569,50.97086288],[3.88837001,50.97081741],[3.88841767,50.97076034],[3.88843363,50.97074123],[3.88849869,50.9707628],[3.8885845,50.97066683],[3.88864904,50.97068918],[3.88850569,50.97086288]]]}},{"type":"Feature","id":"gebouw/Gebouw.9069761/0","properties":{"source":"Digitaal Vlaanderen Gebouwenregister","source_id":"gebouw/Gebouw.9069761/0","kind":"building","height_m":5.72,"status":null},"geometry":{"type":"Polygon","coordinates":[[[3.89544738,50.97303337],[3.89550716,50.97306799],[3.89550141,50.97307148],[3.89551917,50.97308274],[3.89546804,50.97311566],[3.89544852,50.973104],[3.89539157,50.97314302],[3.89563445,50.97325021],[3.895558,50.97331961],[3.89550393,50.97329587],[3.89551083,50.97328961],[3.89530947,50.97320117],[3.89531029,50.97320044],[3.89524989,50.97317399],[3.89528346,50.97314344],[3.89544738,50.97303337]]]}},{"type":"Feature","id":"gebouw/Gebouw.9069763/0","properties":{"source":"Digitaal Vlaanderen Gebouwenregister","source_id":"gebouw/Gebouw.9069763/0","kind":"building","height_m":7.16,"status":null},"geometry":{"type":"Polygon","coordinates":[[[3.8980597,50.9718256],[3.89803948,50.97186657],[3.89799262,50.97192772],[3.89787637,50.97189147],[3.89790305,50.97185737],[3.89795415,50.97187285],[3.89798508,50.97183089],[3.89799363,50.97183268],[3.89800674,50.97181111],[3.8980597,50.9718256]]]}},{"type":"Feature","id":"gebouw/Gebouw.9122332/0","properties":{"source":"Digitaal Vlaanderen Gebouwenregister","source_id":"gebouw/Gebouw.9122332/0","kind":"building","height_m":6.44,"status":null},"geometry":{"type":"Polygon","coordinates":[[[3.89774195,50.97093245],[3.89764925,50.97088932],[3.89763232,50.97090385],[3.89752733,50.97085418],[3.89751872,50.97085011],[3.89750444,50.97083526],[3.8974506,50.97081064],[3.89744483,50.97081488],[3.89737349,50.97078031],[3.89735585,50.9707947],[3.89737487,50.97080336],[3.89735502,50.97081982],[3.89749265,50.97088388],[3.89769091,50.97097616],[3.89774195,50.97093245]]]}},{"type":"Feature","id":"gebouw/Gebouw.9122333/0","properties":{"source":"Digitaal Vlaanderen Gebouwenregister","source_id":"gebouw/Gebouw.9122333/0","kind":"building","height_m":7.16,"status":null},"geometry":{"type":"Polygon","coordinates":[[[3.89841761,50.96771404],[3.89834649,50.96777173],[3.89816141,50.96768118],[3.89816386,50.96767896],[3.89813588,50.96766567],[3.8981951,50.96761764],[3.89822239,50.96763106],[3.89823236,50.96762297],[3.89824011,50.96762678],[3.89835251,50.96768203],[3.89837037,50.96769081],[3.89841575,50.96771312],[3.89841761,50.96771404]]]}},{"type":"Feature","id":"gebouw/Gebouw.9122403/0","properties":{"source":"Digitaal Vlaanderen Gebouwenregister","source_id":"gebouw/Gebouw.9122403/0","kind":"building","height_m":7.16,"status":null},"geometry":{"type":"Polygon","coordinates":[[[3.89344378,50.97318617],[3.89339533,50.97323841],[3.89323775,50.97318088],[3.89328502,50.97312825],[3.89344378,50.97318617]]]}},{"type":"Feature","id":"gebouw/Gebouw.9122427/0","properties":{"source":"Digitaal Vlaanderen Gebouwenregister","source_id":"gebouw/Gebouw.9122427/0","kind":"building","height_m":9.32,"status":null},"geometry":{"type":"Polygon","coordinates":[[[3.88978852,50.96968364],[3.8898424,50.96970677],[3.88974942,50.96978975],[3.88969673,50.96976626],[3.88978852,50.96968364]]]}},{"type":"Feature","id":"gebouw/Gebouw.9122738/0","properties":{"source":"Digitaal Vlaanderen Gebouwenregister","source_id":"gebouw/Gebouw.9122738/0","kind":"building","height_m":6.44,"status":null},"geometry":{"type":"Polygon","coordinates":[[[3.89859478,50.96797456],[3.89854862,50.96800878],[3.89851975,50.96799326],[3.89856591,50.96795904],[3.89859478,50.96797456]]]}},{"type":"Feature","id":"gebouw/Gebouw.9122822/0","properties":{"source":"Digitaal Vlaanderen Gebouwenregister","source_id":"gebouw/Gebouw.9122822/0","kind":"building","height_m":6.44,"status":null},"geometry":{"type":"Polygon","coordinates":[[[3.89150297,50.97069179],[3.89146535,50.97063084],[3.89152218,50.97061541],[3.89156212,50.97067789],[3.89150297,50.97069179]]]}},{"type":"Feature","id":"gebouw/Gebouw.9125387/0","properties":{"source":"Digitaal Vlaanderen Gebouwenregister","source_id":"gebouw/Gebouw.9125387/0","kind":"building","height_m":8.6,"status":null},"geometry":{"type":"Polygon","coordinates":[[[3.89836891,50.97221794],[3.89836888,50.972218],[3.89834095,50.97226523],[3.8983143,50.97225796],[3.89830085,50.97228084],[3.8982761,50.9722753],[3.89825717,50.97230758],[3.89813626,50.97227965],[3.89815472,50.97224779],[3.89814671,50.97224594],[3.89817649,50.97219451],[3.89823675,50.97220873],[3.89824627,50.97221097],[3.89829449,50.97222234],[3.89830587,50.97220308],[3.8983683,50.9722178],[3.89836891,50.97221794]]]}},{"type":"Feature","id":"gebouw/Gebouw.9131775/0","properties":{"source":"Digitaal Vlaanderen Gebouwenregister","source_id":"gebouw/Gebouw.9131775/0","kind":"building","height_m":6.44,"status":null},"geometry":{"type":"Polygon","coordinates":[[[3.89751057,50.97429287],[3.89747044,50.97433907],[3.89731584,50.97428554],[3.89732534,50.97427462],[3.89731181,50.97426982],[3.89731584,50.97426497],[3.89724112,50.97423918],[3.89728566,50.97418784],[3.8974683,50.974251],[3.89747619,50.97425372],[3.89746142,50.97426999],[3.89751404,50.97428887],[3.89751057,50.97429287]]]}},{"type":"Feature","id":"gebouw/Gebouw.9132491/0","properties":{"source":"Digitaal Vlaanderen Gebouwenregister","source_id":"gebouw/Gebouw.9132491/0","kind":"building","height_m":7.88,"status":null},"geometry":{"type":"Polygon","coordinates":[[[3.88853124,50.96971587],[3.88854269,50.96971956],[3.88844943,50.96982146],[3.88835798,50.96978872],[3.88829565,50.96976641],[3.8883061,50.96975417],[3.88827759,50.9697454],[3.88829214,50.9697287],[3.88832861,50.96968682],[3.88835885,50.96969712],[3.88838804,50.96966394],[3.88842415,50.96967655],[3.8884639,50.96963732],[3.88856775,50.96967566],[3.88853124,50.96971587]]]}},{"type":"Feature","id":"gebouw/Gebouw.9132535/0","properties":{"source":"Digitaal Vlaanderen Gebouwenregister","source_id":"gebouw/Gebouw.9132535/0","kind":"building","height_m":9.32,"status":null},"geometry":{"type":"Polygon","coordinates":[[[3.89760395,50.97383637],[3.89772192,50.97384511],[3.89769936,50.97395348],[3.89742042,50.97393163],[3.8974355,50.97385491],[3.89759813,50.97386765],[3.89760395,50.97383637]]]}},{"type":"Feature","id":"gebouw/Gebouw.9132536/0","properties":{"source":"Digitaal Vlaanderen Gebouwenregister","source_id":"gebouw/Gebouw.9132536/0","kind":"building","height_m":5.0,"status":null},"geometry":{"type":"Polygon","coordinates":[[[3.89777837,50.97252936],[3.8977018,50.97252173],[3.89771508,50.97246857],[3.89758985,50.97245609],[3.8975826,50.97248508],[3.89758056,50.97248488],[3.89756612,50.97254267],[3.89763798,50.97254982],[3.89763476,50.97255963],[3.89776845,50.97257063],[3.89777837,50.97252936]]]}},{"type":"Feature","id":"gebouw/Gebouw.9132571/0","properties":{"source":"Digitaal Vlaanderen Gebouwenregister","source_id":"gebouw/Gebouw.9132571/0","kind":"building","height_m":5.0,"status":null},"geometry":{"type":"Polygon","coordinates":[[[3.89814577,50.9724957],[3.89814823,50.97249273],[3.89804228,50.97245749],[3.89806811,50.97241419],[3.8981255,50.97242783],[3.89814472,50.97239563],[3.89820294,50.97240947],[3.89818594,50.97243798],[3.89816976,50.97243413],[3.89815916,50.97245189],[3.89821422,50.97246498],[3.8982549,50.97246361],[3.8983256,50.97248366],[3.89829048,50.97253714],[3.89821838,50.97251774],[3.89822022,50.97251588],[3.89814577,50.9724957]]]}},{"type":"Feature","id":"gebouw/Gebouw.9172513/0","properties":{"source":"Digitaal Vlaanderen Gebouwenregister","source_id":"gebouw/Gebouw.9172513/0","kind":"building","height_m":5.0,"status":null},"geometry":{"type":"Polygon","coordinates":[[[3.89916554,50.96896223],[3.8991372,50.96894843],[3.89906484,50.96891318],[3.8990115,50.96895738],[3.89898255,50.96894374],[3.89890775,50.96900428],[3.89889473,50.96899828],[3.89886151,50.96902706],[3.89888509,50.96903791],[3.89886131,50.96905812],[3.89895084,50.96910173],[3.8989538,50.96910317],[3.8989786,50.96911525],[3.89916554,50.96896223]]]}},{"type":"Feature","id":"gebouw/Gebouw.9172725/0","properties":{"source":"Digitaal Vlaanderen Gebouwenregister","source_id":"gebouw/Gebouw.9172725/0","kind":"building","height_m":6.44,"status":null},"geometry":{"type":"Polygon","coordinates":[[[3.89760964,50.97129435],[3.89753732,50.97127115],[3.89752505,50.97128448],[3.89733956,50.97120827],[3.89719514,50.97114717],[3.8972596,50.97108519],[3.89751883,50.97118532],[3.89753446,50.97116884],[3.89758284,50.97118759],[3.89759559,50.97116062],[3.8976622,50.97117204],[3.89766114,50.97117451],[3.89763752,50.97122947],[3.89763494,50.97123549],[3.89760964,50.97129435]]]}},{"type":"Feature","id":"gebouw/Gebouw.9192356/0","properties":{"source":"Digitaal Vlaanderen Gebouwenregister","source_id":"gebouw/Gebouw.9192356/0","kind":"building","height_m":8.6,"status":null},"geometry":{"type":"Polygon","coordinates":[[[3.89853918,50.97412407],[3.89852276,50.97414129],[3.89880569,50.97424622],[3.89873834,50.97431882],[3.89859692,50.97426618],[3.89825487,50.97413733],[3.89826253,50.974129],[3.89814401,50.97408449],[3.89820284,50.97402264],[3.89832253,50.97406703],[3.89833688,50.97405403],[3.89836857,50.97406564],[3.8983566,50.97407967],[3.89844599,50.97411282],[3.89846141,50.97409598],[3.89853918,50.97412407]]]}},{"type":"Feature","id":"gebouw/Gebouw.9192612/0","properties":{"source":"Digitaal Vlaanderen Gebouwenregister","source_id":"gebouw/Gebouw.9192612/0","kind":"building","height_m":6.44,"status":null},"geometry":{"type":"Polygon","coordinates":[[[3.89000547,50.97173353],[3.89007032,50.97175367],[3.89005921,50.97176777],[3.88999838,50.97174887],[3.89000085,50.97174553],[3.88999691,50.97174426],[3.88997353,50.97173677],[3.88998186,50.97172619],[3.89000547,50.97173353]]]}},{"type":"Feature","id":"gebouw/Gebouw.9192615/0","properties":{"source":"Digitaal Vlaanderen Gebouwenregister","source_id":"gebouw/Gebouw.9192615/0","kind":"building","height_m":8.6,"status":null},"geometry":{"type":"Polygon","coordinates":[[[3.89255645,50.97035676],[3.89252297,50.97033681],[3.89260744,50.9702704],[3.89264315,50.97028896],[3.89255645,50.97035676]]]}},{"type":"Feature","id":"gebouw/Gebouw.9192638/0","properties":{"source":"Digitaal Vlaanderen Gebouwenregister","source_id":"gebouw/Gebouw.9192638/0","kind":"building","height_m":5.0,"status":null},"geometry":{"type":"Polygon","coordinates":[[[3.8948381,50.97261734],[3.89490822,50.97265303],[3.89485656,50.97269361],[3.89491246,50.97272311],[3.89481851,50.97279786],[3.89468968,50.97273334],[3.89478522,50.97265904],[3.8948381,50.97261734]]]}},{"type":"Feature","id":"gebouw/Gebouw.9462588/0","properties":{"source":"Digitaal Vlaanderen Gebouwenregister","source_id":"gebouw/Gebouw.9462588/0","kind":"building","height_m":6.44,"status":null},"geometry":{"type":"Polygon","coordinates":[[[3.89664511,50.97086401],[3.89667486,50.97083955],[3.89670934,50.97085719],[3.89688478,50.97070964],[3.89677189,50.97065675],[3.89631901,50.97044459],[3.89614205,50.97059359],[3.89605983,50.97066415],[3.89634859,50.97079854],[3.8963772,50.97077454],[3.89654688,50.97085337],[3.89656693,50.97083788],[3.89657539,50.97084182],[3.89663714,50.97087056],[3.89664511,50.97086401]]]}},{"type":"Feature","id":"gebouw/Gebouw.9462721/0","properties":{"source":"Digitaal Vlaanderen Gebouwenregister","source_id":"gebouw/Gebouw.9462721/0","kind":"building","height_m":6.44,"status":null},"geometry":{"type":"Polygon","coordinates":[[[3.89895122,50.96876205],[3.89913308,50.96885039],[3.89908961,50.96888527],[3.89898375,50.96883455],[3.89889402,50.96890859],[3.89876451,50.96884504],[3.89880654,50.96880883],[3.89877816,50.96879556],[3.89880041,50.96877579],[3.89888431,50.96881706],[3.89895122,50.96876205]]]}},{"type":"Feature","id":"gebouw/Gebouw.9462722/0","properties":{"source":"Digitaal Vlaanderen Gebouwenregister","source_id":"gebouw/Gebouw.9462722/0","kind":"building","height_m":7.16,"status":null},"geometry":{"type":"Polygon","coordinates":[[[3.89577527,50.97316898],[3.8957344,50.97314714],[3.89569484,50.97318],[3.89562412,50.97314432],[3.89566131,50.97311105],[3.89563443,50.97309761],[3.89572953,50.97302289],[3.89583002,50.97307505],[3.89579787,50.97309826],[3.89583762,50.97311822],[3.89577527,50.97316898]]]}},{"type":"Feature","id":"gebouw/Gebouw.9462723/0","properties":{"source":"Digitaal Vlaanderen Gebouwenregister","source_id":"gebouw/Gebouw.9462723/0","kind":"building","height_m":7.88,"status":null},"geometry":{"type":"Polygon","coordinates":[[[3.89494507,50.97247365],[3.89518562,50.97227818],[3.89528882,50.97232868],[3.89508714,50.97249465],[3.89508332,50.97249329],[3.8950477,50.9725234],[3.89494507,50.97247365]]]}},{"type":"Feature","id":"gebouw/Gebouw.9475973/0","properties":{"source":"Digitaal Vlaanderen Gebouwenregister","source_id":"gebouw/Gebouw.9475973/0","kind":"building","height_m":7.16,"status":null},"geometry":{"type":"Polygon","coordinates":[[[3.89884284,50.9681075],[3.89888568,50.96810611],[3.89888832,50.96813843],[3.89884548,50.96813981],[3.89884284,50.9681075]]]}},{"type":"Feature","id":"gebouw/Gebouw.9488212/0","properties":{"source":"Digitaal Vlaanderen Gebouwenregister","source_id":"gebouw/Gebouw.9488212/0","kind":"building","height_m":9.32,"status":null},"geometry":{"type":"Polygon","coordinates":[[[3.89674549,50.96945843],[3.89675738,50.96948723],[3.89673436,50.96950307],[3.89663721,50.96945844],[3.89665184,50.96944551],[3.89660277,50.96942019],[3.89662886,50.96940103],[3.89660844,50.96938954],[3.89663337,50.96936924],[3.89672512,50.96941567],[3.89670526,50.9694351],[3.89674549,50.96945843]]]}},{"type":"Feature","id":"gebouw/Gebouw.9488213/0","properties":{"source":"Digitaal Vlaanderen Gebouwenregister","source_id":"gebouw/Gebouw.9488213/0","kind":"building","height_m":5.0,"status":null},"geometry":{"type":"Polygon","coordinates":[[[3.89719933,50.96977518],[3.8972245,50.96975694],[3.89727993,50.96978795],[3.89725564,50.96980639],[3.89719933,50.96977518]]]}},{"type":"Feature","id":"gebouw/Gebouw.9563397/0","properties":{"source":"Digitaal Vlaanderen Gebouwenregister","source_id":"gebouw/Gebouw.9563397/0","kind":"building","height_m":7.88,"status":null},"geometry":{"type":"Polygon","coordinates":[[[3.8980263,50.97391451],[3.89809727,50.97394195],[3.89806817,50.97397251],[3.89799983,50.97394641],[3.8980263,50.97391451]]]}},{"type":"Feature","id":"gebouw/Gebouw.9563398/0","properties":{"source":"Digitaal Vlaanderen Gebouwenregister","source_id":"gebouw/Gebouw.9563398/0","kind":"building","height_m":8.6,"status":null},"geometry":{"type":"Polygon","coordinates":[[[3.8974323,50.97419247],[3.89745744,50.97416542],[3.89753819,50.97419318],[3.89751417,50.97422248],[3.8974323,50.97419247]]]}},{"type":"Feature","id":"gebouw/Gebouw.9575228/0","properties":{"source":"Digitaal Vlaanderen Gebouwenregister","source_id":"gebouw/Gebouw.9575228/0","kind":"building","height_m":8.6,"status":null},"geometry":{"type":"Polygon","coordinates":[[[3.89623519,50.97388464],[3.89621502,50.97390425],[3.89616546,50.97388512],[3.89617648,50.97387401],[3.89616063,50.9738682],[3.89610282,50.97392613],[3.89605316,50.97390716],[3.89618105,50.97377805],[3.89618181,50.97377835],[3.89629349,50.97382241],[3.89629389,50.97382257],[3.89623519,50.97388464]]]}},{"type":"Feature","id":"gebouw/Gebouw.9609938/0","properties":{"source":"Digitaal Vlaanderen Gebouwenregister","source_id":"gebouw/Gebouw.9609938/0","kind":"building","height_m":6.44,"status":null},"geometry":{"type":"Polygon","coordinates":[[[3.89744018,50.97411466],[3.89727131,50.97410129],[3.89729394,50.97399368],[3.89746189,50.97400794],[3.89745659,50.97403474],[3.89757595,50.97404477],[3.89756402,50.97410433],[3.89756889,50.97410498],[3.89756833,50.97410769],[3.89744216,50.97409585],[3.89744018,50.97411466]]]}},{"type":"Feature","id":"gebouw/Gebouw.9610021/0","properties":{"source":"Digitaal Vlaanderen Gebouwenregister","source_id":"gebouw/Gebouw.9610021/0","kind":"building","height_m":5.72,"status":null},"geometry":{"type":"Polygon","coordinates":[[[3.89760395,50.97383637],[3.8976117,50.97379463],[3.8974499,50.97378186],[3.89746507,50.97370535],[3.89774347,50.97372736],[3.89772192,50.97384511],[3.89760395,50.97383637]]]}},{"type":"Feature","id":"gebouw/Gebouw.9610103/0","properties":{"source":"Digitaal Vlaanderen Gebouwenregister","source_id":"gebouw/Gebouw.9610103/0","kind":"building","height_m":9.32,"status":null},"geometry":{"type":"Polygon","coordinates":[[[3.89871558,50.96755823],[3.89879562,50.96749125],[3.89897816,50.96757824],[3.89889831,50.96764505],[3.89871558,50.96755823]]]}},{"type":"Feature","id":"gebouw/Gebouw.9610728/0","properties":{"source":"Digitaal Vlaanderen Gebouwenregister","source_id":"gebouw/Gebouw.9610728/0","kind":"building","height_m":5.72,"status":null},"geometry":{"type":"Polygon","coordinates":[[[3.89777929,50.972474],[3.8977916,50.97242394],[3.89793433,50.9724394],[3.89792077,50.97248934],[3.89777929,50.972474]]]}},{"type":"Feature","id":"gebouw/Gebouw.9731459/0","properties":{"source":"Digitaal Vlaanderen Gebouwenregister","source_id":"gebouw/Gebouw.9731459/0","kind":"building","height_m":7.16,"status":null},"geometry":{"type":"Polygon","coordinates":[[[3.8984054,50.97241627],[3.89829363,50.9723907],[3.89837298,50.97225839],[3.89848415,50.97228497],[3.8984054,50.97241627]]]}},{"type":"Feature","id":"gebouw/Gebouw.9732227/0","properties":{"source":"Digitaal Vlaanderen Gebouwenregister","source_id":"gebouw/Gebouw.9732227/0","kind":"building","height_m":5.72,"status":null},"geometry":{"type":"Polygon","coordinates":[[[3.89729486,50.97091891],[3.89725593,50.97095197],[3.89719999,50.97092571],[3.89715223,50.97096627],[3.89730024,50.97103585],[3.89726974,50.97106358],[3.89737504,50.97110362],[3.89743058,50.97105221],[3.89748931,50.97108195],[3.89750014,50.97107109],[3.89760608,50.97112093],[3.89771128,50.97103176],[3.89754568,50.97095063],[3.89750351,50.97098494],[3.89740586,50.9709371],[3.89738059,50.97095833],[3.89729486,50.97091891]]]}},{"type":"Feature","id":"gebouw/Gebouw.9737353/0","properties":{"source":"Digitaal Vlaanderen Gebouwenregister","source_id":"gebouw/Gebouw.9737353/0","kind":"building","height_m":7.16,"status":null},"geometry":{"type":"Polygon","coordinates":[[[3.89660761,50.97091535],[3.89709432,50.97114558],[3.89706236,50.97117236],[3.89710887,50.97119449],[3.89705247,50.97124173],[3.89700596,50.9712196],[3.89693912,50.97127559],[3.89645237,50.97104647],[3.89660761,50.97091535]]]}},{"type":"Feature","id":"gebouw/Gebouw.9746553/0","properties":{"source":"Digitaal Vlaanderen Gebouwenregister","source_id":"gebouw/Gebouw.9746553/0","kind":"building","height_m":8.6,"status":null},"geometry":{"type":"Polygon","coordinates":[[[3.89004673,50.97269105],[3.89010016,50.97270968],[3.89007349,50.97273802],[3.89002096,50.97271921],[3.89004673,50.97269105]]]}},{"type":"Feature","id":"gebouw/Gebouw.9746739/0","properties":{"source":"Digitaal Vlaanderen Gebouwenregister","source_id":"gebouw/Gebouw.9746739/0","kind":"building","height_m":6.44,"status":null},"geometry":{"type":"Polygon","coordinates":[[[3.89790241,50.97164878],[3.89805097,50.9716799],[3.89802909,50.97171884],[3.89807948,50.97173013],[3.89805377,50.97177627],[3.8978574,50.97173447],[3.89790241,50.97164878]]]}},{"type":"Feature","id":"gebouw/Gebouw.9746755/0","properties":{"source":"Digitaal Vlaanderen Gebouwenregister","source_id":"gebouw/Gebouw.9746755/0","kind":"building","height_m":7.88,"status":null},"geometry":{"type":"Polygon","coordinates":[[[3.8909618,50.97100819],[3.89099722,50.9709749],[3.89104383,50.97099326],[3.89101047,50.97102713],[3.8909618,50.97100819]]]}},{"type":"Feature","id":"gebouw/Gebouw.9746834/0","properties":{"source":"Digitaal Vlaanderen Gebouwenregister","source_id":"gebouw/Gebouw.9746834/0","kind":"building","height_m":9.32,"status":null},"geometry":{"type":"Polygon","coordinates":[[[3.89710163,50.96962111],[3.89706499,50.96960153],[3.89706333,50.96960065],[3.89705219,50.96960896],[3.89702635,50.96962823],[3.89697976,50.96960333],[3.89695931,50.96959241],[3.89692039,50.969621],[3.89702682,50.96967754],[3.89710163,50.96962111]]]}},{"type":"Feature","id":"gebouw/Gebouw.9746860/0","properties":{"source":"Digitaal Vlaanderen Gebouwenregister","source_id":"gebouw/Gebouw.9746860/0","kind":"building","height_m":7.88,"status":null},"geometry":{"type":"Polygon","coordinates":[[[3.88839376,50.96954084],[3.88835238,50.96952153],[3.88833323,50.9695379],[3.8883269,50.96953494],[3.88828533,50.96956979],[3.88833871,50.9695947],[3.88838089,50.96955865],[3.88837573,50.96955625],[3.88839376,50.96954084]]]}},{"type":"Feature","id":"gebouw/Gebouw.9840952/0","properties":{"source":"Digitaal Vlaanderen Gebouwenregister","source_id":"gebouw/Gebouw.9840952/0","kind":"building","height_m":6.44,"status":null},"geometry":{"type":"Polygon","coordinates":[[[3.89751022,50.9706233],[3.8975714,50.97065081],[3.89754792,50.97067207],[3.89748619,50.97064305],[3.89751022,50.9706233]]]}},{"type":"Feature","id":"gebouw/Gebouw.9840980/0","properties":{"source":"Digitaal Vlaanderen Gebouwenregister","source_id":"gebouw/Gebouw.9840980/0","kind":"building","height_m":6.44,"status":null},"geometry":{"type":"Polygon","coordinates":[[[3.89656427,50.96938845],[3.8965055,50.96935028],[3.8965342,50.96933284],[3.89659447,50.96937046],[3.89656427,50.96938845]]]}},{"type":"Feature","id":"gebouw/Gebouw.9840981/0","properties":{"source":"Digitaal Vlaanderen Gebouwenregister","source_id":"gebouw/Gebouw.9840981/0","kind":"building","height_m":7.16,"status":null},"geometry":{"type":"Polygon","coordinates":[[[3.895111,50.97261837],[3.89500085,50.97270996],[3.89494734,50.97268403],[3.89504513,50.97259885],[3.8949989,50.97257769],[3.89503051,50.9725526],[3.8951253,50.97259682],[3.89510428,50.97261473],[3.895111,50.97261837]]]}},{"type":"Feature","id":"gebouw/Gebouw.10594787/0","properties":{"source":"Digitaal Vlaanderen Gebouwenregister","source_id":"gebouw/Gebouw.10594787/0","kind":"building","height_m":5.0,"status":null},"geometry":{"type":"Polygon","coordinates":[[[3.89585985,50.97319933],[3.89580291,50.97317236],[3.89560495,50.97334023],[3.89559647,50.97334742],[3.89560225,50.97335016],[3.89565415,50.97337475],[3.89565489,50.97337509],[3.89585889,50.97320015],[3.89585985,50.97319933]]]}},{"type":"Feature","id":"gebouw/Gebouw.11017575/0","properties":{"source":"Digitaal Vlaanderen Gebouwenregister","source_id":"gebouw/Gebouw.11017575/0","kind":"building","height_m":6.44,"status":null},"geometry":{"type":"Polygon","coordinates":[[[3.89039894,50.97132457],[3.89032805,50.9714125],[3.89027506,50.97139558],[3.89023726,50.9713835],[3.8902484,50.97136827],[3.8901592,50.97133905],[3.89020933,50.97127696],[3.8902475,50.97123031],[3.89029344,50.97117416],[3.89039587,50.97120705],[3.89039488,50.97120828],[3.89043653,50.97122166],[3.89038944,50.97127557],[3.8903504,50.97130114],[3.89032775,50.97129468],[3.89031637,50.97130822],[3.89033861,50.97131592],[3.8903472,50.97131889],[3.89035395,50.97131148],[3.89039894,50.97132457]]]}},{"type":"Feature","id":"gebouw/Gebouw.11017576/0","properties":{"source":"Digitaal Vlaanderen Gebouwenregister","source_id":"gebouw/Gebouw.11017576/0","kind":"building","height_m":7.16,"status":null},"geometry":{"type":"Polygon","coordinates":[[[3.89280712,50.97255702],[3.89274344,50.97254352],[3.89274504,50.97253998],[3.89245108,50.97249917],[3.89241224,50.97248859],[3.89247281,50.97239847],[3.89257459,50.97226063],[3.89262502,50.97219234],[3.89265994,50.97214505],[3.89266554,50.97214643],[3.89271708,50.97207558],[3.89284375,50.97211089],[3.89277169,50.97221719],[3.89300632,50.97226722],[3.8930028,50.97227258],[3.89302914,50.97227798],[3.89301446,50.97230234],[3.89298695,50.97229679],[3.89290027,50.97242909],[3.89280712,50.97255702]],[[3.89251958,50.9723921],[3.89279556,50.97242876],[3.89288142,50.97229681],[3.89272927,50.97226613],[3.89272611,50.97227246],[3.892679,50.97226066],[3.89265148,50.9722976],[3.89263969,50.97229521],[3.89256704,50.9723923],[3.89252882,50.97238098],[3.89251958,50.9723921]]]}},{"type":"Feature","id":"gebouw/Gebouw.11147935/0","properties":{"source":"Digitaal Vlaanderen Gebouwenregister","source_id":"gebouw/Gebouw.11147935/0","kind":"building","height_m":5.72,"status":null},"geometry":{"type":"Polygon","coordinates":[[[3.89601386,50.97415794],[3.89601894,50.97415982],[3.89601554,50.97416447],[3.89614403,50.97421116],[3.89627052,50.97425712],[3.89636682,50.97429212],[3.8962691,50.97439436],[3.89622346,50.97444212],[3.89611348,50.97439978],[3.8960035,50.97435744],[3.89602555,50.97433447],[3.89601927,50.97433219],[3.89589877,50.97428837],[3.89594691,50.97423669],[3.89593591,50.97423224],[3.89590587,50.97422009],[3.8959761,50.97414395],[3.89601386,50.97415794]]]}},{"type":"Feature","id":"gebouw/Gebouw.18143121/0","properties":{"source":"Digitaal Vlaanderen Gebouwenregister","source_id":"gebouw/Gebouw.18143121/0","kind":"building","height_m":7.16,"status":null},"geometry":{"type":"Polygon","coordinates":[[[3.89841501,50.97019274],[3.89845959,50.97011992],[3.89854312,50.97013787],[3.89849855,50.97021069],[3.89841501,50.97019274]]]}},{"type":"Feature","id":"gebouw/Gebouw.18362625/0","properties":{"source":"Digitaal Vlaanderen Gebouwenregister","source_id":"gebouw/Gebouw.18362625/0","kind":"building","height_m":5.72,"status":null},"geometry":{"type":"Polygon","coordinates":[[[3.89380095,50.97328025],[3.89376907,50.97330675],[3.89372344,50.97328506],[3.89375389,50.97325905],[3.89380095,50.97328025]]]}},{"type":"Feature","id":"gebouw/Gebouw.18732955/0","properties":{"source":"Digitaal Vlaanderen Gebouwenregister","source_id":"gebouw/Gebouw.18732955/0","kind":"building","height_m":7.16,"status":null},"geometry":{"type":"Polygon","coordinates":[[[3.89647494,50.96933547],[3.89650101,50.96931467],[3.89661163,50.96936996],[3.89658557,50.96939075],[3.89647494,50.96933547]]]}},{"type":"Feature","id":"gebouw/Gebouw.18737170/0","properties":{"source":"Digitaal Vlaanderen Gebouwenregister","source_id":"gebouw/Gebouw.18737170/0","kind":"building","height_m":7.88,"status":null},"geometry":{"type":"Polygon","coordinates":[[[3.8950812,50.97281443],[3.89514205,50.97284431],[3.89509048,50.97288617],[3.89502963,50.97285628],[3.8950812,50.97281443]]]}},{"type":"Feature","id":"gebouw/Gebouw.19511285/0","properties":{"source":"Digitaal Vlaanderen Gebouwenregister","source_id":"gebouw/Gebouw.19511285/0","kind":"building","height_m":7.16,"status":null},"geometry":{"type":"Polygon","coordinates":[[[3.89395354,50.97309122],[3.89406536,50.97312946],[3.89402069,50.97318154],[3.89391348,50.97314487],[3.89395354,50.97309122]]]}},{"type":"Feature","id":"gebouw/Gebouw.19511802/0","properties":{"source":"Digitaal Vlaanderen Gebouwenregister","source_id":"gebouw/Gebouw.19511802/0","kind":"building","height_m":6.44,"status":null},"geometry":{"type":"Polygon","coordinates":[[[3.89271708,50.97207558],[3.89266554,50.97214643],[3.89265994,50.97214505],[3.89262968,50.97218832],[3.89269259,50.9722057],[3.89266983,50.97223842],[3.89277528,50.97226782],[3.89280218,50.97222935],[3.89279321,50.97222685],[3.89281348,50.97219786],[3.89278792,50.97219074],[3.89284375,50.97211089],[3.89271708,50.97207558]]]}},{"type":"Feature","id":"gebouw/Gebouw.19511803/0","properties":{"source":"Digitaal Vlaanderen Gebouwenregister","source_id":"gebouw/Gebouw.19511803/0","kind":"building","height_m":7.16,"status":null},"geometry":{"type":"Polygon","coordinates":[[[3.89245108,50.97249917],[3.8925119,50.97239022],[3.89278612,50.97242829],[3.89274504,50.97253998],[3.89245108,50.97249917]]]}},{"type":"Feature","id":"gebouw/Gebouw.19511804/0","properties":{"source":"Digitaal Vlaanderen Gebouwenregister","source_id":"gebouw/Gebouw.19511804/0","kind":"building","height_m":7.88,"status":null},"geometry":{"type":"Polygon","coordinates":[[[3.89274428,50.97221395],[3.89275579,50.97218815],[3.89284083,50.97220327],[3.89282932,50.97222908],[3.89274428,50.97221395]]]}},{"type":"Feature","id":"gebouw/Gebouw.19512196/0","properties":{"source":"Digitaal Vlaanderen Gebouwenregister","source_id":"gebouw/Gebouw.19512196/0","kind":"building","height_m":7.88,"status":null},"geometry":{"type":"Polygon","coordinates":[[[3.89611175,50.97424126],[3.89614082,50.97421036],[3.89601554,50.97416447],[3.89601894,50.97415982],[3.89601386,50.97415794],[3.8959761,50.97414395],[3.89590587,50.97422009],[3.89593591,50.97423224],[3.89594691,50.97423669],[3.89589877,50.97428837],[3.89601927,50.97433219],[3.89602427,50.97433401],[3.89609831,50.97425551],[3.89611175,50.97424126]]]}},{"type":"Feature","id":"gebouw/Gebouw.19512260/0","properties":{"source":"Digitaal Vlaanderen Gebouwenregister","source_id":"gebouw/Gebouw.19512260/0","kind":"building","height_m":8.6,"status":null},"geometry":{"type":"Polygon","coordinates":[[[3.89539206,50.97290038],[3.89537902,50.97289377],[3.8953488,50.97287843],[3.8953477,50.97287787],[3.89524479,50.97282565],[3.89520241,50.97286038],[3.89528719,50.9729016],[3.89534373,50.97292909],[3.89535299,50.9729336],[3.89539206,50.97290038]]]}},{"type":"Feature","id":"gebouw/Gebouw.19512261/0","properties":{"source":"Digitaal Vlaanderen Gebouwenregister","source_id":"gebouw/Gebouw.19512261/0","kind":"building","height_m":9.32,"status":null},"geometry":{"type":"Polygon","coordinates":[[[3.89513838,50.97305173],[3.8950278,50.97299923],[3.8951102,50.97293006],[3.89515781,50.97295172],[3.89519441,50.97291966],[3.89524245,50.97294153],[3.89525387,50.97293153],[3.89529564,50.97295054],[3.89523422,50.97300433],[3.89520868,50.97299271],[3.89513838,50.97305173]]]}},{"type":"Feature","id":"gebouw/Gebouw.19525427/0","properties":{"source":"Digitaal Vlaanderen Gebouwenregister","source_id":"gebouw/Gebouw.19525427/0","kind":"building","height_m":8.6,"status":null},"geometry":{"type":"Polygon","coordinates":[[[3.88849299,50.9700521],[3.88846152,50.97003867],[3.88840795,50.9700845],[3.88844003,50.97009808],[3.88845715,50.97010533],[3.88850811,50.97005855],[3.88849299,50.9700521]]]}},{"type":"Feature","id":"gebouw/Gebouw.19527234/0","properties":{"source":"Digitaal Vlaanderen Gebouwenregister","source_id":"gebouw/Gebouw.19527234/0","kind":"building","height_m":9.32,"status":null},"geometry":{"type":"Polygon","coordinates":[[[3.89880569,50.97424622],[3.89873834,50.97431882],[3.89859692,50.97426618],[3.89825487,50.97413733],[3.89826253,50.974129],[3.89814401,50.97408449],[3.89820284,50.97402264],[3.89832253,50.97406703],[3.8983566,50.97407967],[3.89844599,50.97411282],[3.89852276,50.97414129],[3.89880569,50.97424622]]]}},{"type":"Feature","id":"gebouw/Gebouw.19527235/0","properties":{"source":"Digitaal Vlaanderen Gebouwenregister","source_id":"gebouw/Gebouw.19527235/0","kind":"building","height_m":5.0,"status":null},"geometry":{"type":"Polygon","coordinates":[[[3.89844599,50.97411282],[3.89846141,50.97409598],[3.89853918,50.97412407],[3.89852276,50.97414129],[3.89844599,50.97411282]]]}},{"type":"Feature","id":"gebouw/Gebouw.19527236/0","properties":{"source":"Digitaal Vlaanderen Gebouwenregister","source_id":"gebouw/Gebouw.19527236/0","kind":"building","height_m":5.72,"status":null},"geometry":{"type":"Polygon","coordinates":[[[3.8983566,50.97407967],[3.89832253,50.97406703],[3.89833688,50.97405403],[3.89836857,50.97406564],[3.8983566,50.97407967]]]}},{"type":"Feature","id":"gebouw/Gebouw.19532703/0","properties":{"source":"Digitaal Vlaanderen Gebouwenregister","source_id":"gebouw/Gebouw.19532703/0","kind":"building","height_m":5.72,"status":null},"geometry":{"type":"Polygon","coordinates":[[[3.89689303,50.97055578],[3.89643626,50.97034068],[3.8963666,50.97040243],[3.89631901,50.97044459],[3.89677189,50.97065675],[3.89680107,50.97063243],[3.89680256,50.97063119],[3.89682684,50.97061096],[3.89684831,50.97059305],[3.89685168,50.97059025],[3.89689303,50.97055578]]]}},{"type":"Feature","id":"gebouw/Gebouw.20193880/0","properties":{"source":"Digitaal Vlaanderen Gebouwenregister","source_id":"gebouw/Gebouw.20193880/0","kind":"building","height_m":5.0,"status":null},"geometry":{"type":"Polygon","coordinates":[[[3.89666341,50.97417696],[3.89663017,50.9741639],[3.89666856,50.97412495],[3.8967018,50.97413801],[3.89666341,50.97417696]]]}},{"type":"Feature","id":"gebouw/Gebouw.20193882/0","properties":{"source":"Digitaal Vlaanderen Gebouwenregister","source_id":"gebouw/Gebouw.20193882/0","kind":"building","height_m":6.44,"status":null},"geometry":{"type":"Polygon","coordinates":[[[3.89384995,50.97331331],[3.89387642,50.97328615],[3.8939178,50.97330223],[3.89389133,50.97332939],[3.89384995,50.97331331]]]}},{"type":"Feature","id":"gebouw/Gebouw.20193883/0","properties":{"source":"Digitaal Vlaanderen Gebouwenregister","source_id":"gebouw/Gebouw.20193883/0","kind":"building","height_m":7.16,"status":null},"geometry":{"type":"Polygon","coordinates":[[[3.89651467,50.96929351],[3.89649493,50.96928293],[3.89646594,50.96926738],[3.89644196,50.96928546],[3.89649095,50.96931138],[3.89651467,50.96929351]]]}},{"type":"Feature","id":"gebouw/Gebouw.20193884/0","properties":{"source":"Digitaal Vlaanderen Gebouwenregister","source_id":"gebouw/Gebouw.20193884/0","kind":"building","height_m":7.88,"status":null},"geometry":{"type":"Polygon","coordinates":[[[3.89727302,50.96976811],[3.89723993,50.96975125],[3.89727721,50.96972208],[3.8973103,50.96973894],[3.89727302,50.96976811]]]}},{"type":"Feature","id":"gebouw/Gebouw.20193885/0","properties":{"source":"Digitaal Vlaanderen Gebouwenregister","source_id":"gebouw/Gebouw.20193885/0","kind":"building","height_m":8.6,"status":null},"geometry":{"type":"Polygon","coordinates":[[[3.89796626,50.96995559],[3.89805077,50.96988574],[3.89808523,50.96990236],[3.89800074,50.96997222],[3.89796626,50.96995559]]]}},{"type":"Feature","id":"gebouw/Gebouw.20193887/0","properties":{"source":"Digitaal Vlaanderen Gebouwenregister","source_id":"gebouw/Gebouw.20193887/0","kind":"building","height_m":5.0,"status":null},"geometry":{"type":"Polygon","coordinates":[[[3.89826848,50.97420506],[3.89825953,50.97421448],[3.89824098,50.974234],[3.89818789,50.9742139],[3.89820676,50.97419404],[3.89821539,50.97418496],[3.89826848,50.97420506]]]}},{"type":"Feature","id":"gebouw/Gebouw.20193888/0","properties":{"source":"Digitaal Vlaanderen Gebouwenregister","source_id":"gebouw/Gebouw.20193888/0","kind":"building","height_m":5.72,"status":null},"geometry":{"type":"Polygon","coordinates":[[[3.89816517,50.97246393],[3.89817288,50.97245418],[3.89806206,50.97242635],[3.89804166,50.97246149],[3.8981496,50.97249128],[3.89814759,50.97249418],[3.89828847,50.97253307],[3.89830816,50.97250464],[3.89816517,50.97246393]]]}},{"type":"Feature","id":"gebouw/Gebouw.20193889/0","properties":{"source":"Digitaal Vlaanderen Gebouwenregister","source_id":"gebouw/Gebouw.20193889/0","kind":"building","height_m":6.44,"status":null},"geometry":{"type":"Polygon","coordinates":[[[3.89798155,50.97165072],[3.89793257,50.97164055],[3.89795267,50.97160196],[3.89800165,50.97161213],[3.89798155,50.97165072]]]}},{"type":"Feature","id":"gebouw/Gebouw.20194368/0","properties":{"source":"Digitaal Vlaanderen Gebouwenregister","source_id":"gebouw/Gebouw.20194368/0","kind":"building","height_m":8.6,"status":null},"geometry":{"type":"Polygon","coordinates":[[[3.89807973,50.96764047],[3.89810526,50.96761939],[3.89814443,50.96763831],[3.89811782,50.96766029],[3.89809206,50.96764689],[3.89807973,50.96764047]]]}},{"type":"Feature","id":"gebouw/Gebouw.20880430/0","properties":{"source":"Digitaal Vlaanderen Gebouwenregister","source_id":"gebouw/Gebouw.20880430/0","kind":"building","height_m":7.88,"status":null},"geometry":{"type":"Polygon","coordinates":[[[3.89731215,50.97121459],[3.89751121,50.9712961],[3.89757234,50.9712361],[3.89737363,50.97115473],[3.89731215,50.97121459]]]}},{"type":"Feature","id":"gebouw/Gebouw.30584958/0","properties":{"source":"Digitaal Vlaanderen Gebouwenregister","source_id":"gebouw/Gebouw.30584958/0","kind":"building","height_m":8.6,"status":null},"geometry":{"type":"Polygon","coordinates":[[[3.89762474,50.97070192],[3.8976061,50.97069327],[3.89752891,50.97075952],[3.89749501,50.9707443],[3.89746851,50.97076764],[3.89759149,50.97082383],[3.89761866,50.9707999],[3.89769108,50.97083307],[3.89776694,50.97076792],[3.89762474,50.97070192]]]}},{"type":"Feature","id":"gebouw/Gebouw.30589968/0","properties":{"source":"Digitaal Vlaanderen Gebouwenregister","source_id":"gebouw/Gebouw.30589968/0","kind":"building","height_m":7.16,"status":null},"geometry":{"type":"Polygon","coordinates":[[[3.89889034,50.96813827],[3.89884269,50.96813988],[3.89883987,50.96810679],[3.89888752,50.96810518],[3.89889034,50.96813827]]]}},{"type":"Feature","id":"gebouw/Gebouw.30589989/0","properties":{"source":"Digitaal Vlaanderen Gebouwenregister","source_id":"gebouw/Gebouw.30589989/0","kind":"building","height_m":7.16,"status":null},"geometry":{"type":"Polygon","coordinates":[[[3.8959945,50.97056203],[3.89619064,50.97039257],[3.89630747,50.97044648],[3.89611133,50.97061594],[3.8959945,50.97056203]]]}},{"type":"Feature","id":"gebouw/Gebouw.30589990/0","properties":{"source":"Digitaal Vlaanderen Gebouwenregister","source_id":"gebouw/Gebouw.30589990/0","kind":"building","height_m":7.88,"status":null},"geometry":{"type":"Polygon","coordinates":[[[3.89528719,50.9729016],[3.89534373,50.97292909],[3.89531269,50.97295835],[3.89529564,50.97295054],[3.89525387,50.97293153],[3.89528719,50.9729016]]]}},{"type":"Feature","id":"gebouw/Gebouw.31001732/0","properties":{"source":"Digitaal Vlaanderen Gebouwenregister","source_id":"gebouw/Gebouw.31001732/0","kind":"building","height_m":9.32,"status":null},"geometry":{"type":"Polygon","coordinates":[[[3.89538303,50.97289067],[3.89540367,50.97287475],[3.89541368,50.97287943],[3.89544131,50.97285839],[3.8954458,50.97285498],[3.89529799,50.97278385],[3.89524479,50.97282565],[3.8953477,50.97287787],[3.8953488,50.97287843],[3.89537902,50.97289377],[3.89538303,50.97289067]]]}},{"type":"Feature","id":"gebouw/Gebouw.31001733/0","properties":{"source":"Digitaal Vlaanderen Gebouwenregister","source_id":"gebouw/Gebouw.31001733/0","kind":"building","height_m":5.0,"status":null},"geometry":{"type":"Polygon","coordinates":[[[3.89622107,50.97079095],[3.89638151,50.970866],[3.89634304,50.97089879],[3.89618259,50.97082373],[3.89622107,50.97079095]]]}},{"type":"Feature","id":"gebouw/Gebouw.31270054/0","properties":{"source":"Digitaal Vlaanderen Gebouwenregister","source_id":"gebouw/Gebouw.31270054/0","kind":"building","height_m":7.88,"status":null},"geometry":{"type":"Polygon","coordinates":[[[3.89647213,50.97389286],[3.89633614,50.97383875],[3.8963107,50.97382862],[3.89629398,50.97382197],[3.89621282,50.97378968],[3.89621217,50.97379033],[3.896135,50.97386763],[3.89614607,50.97387203],[3.89612744,50.9738907],[3.89617225,50.97390853],[3.8961904,50.97389035],[3.89639202,50.97397058],[3.89639531,50.97396739],[3.8964008,50.97396206],[3.89640587,50.97395715],[3.89647213,50.97389286]]]}},{"type":"Feature","id":"gebouw/Gebouw.31525315/0","properties":{"source":"Digitaal Vlaanderen Gebouwenregister","source_id":"gebouw/Gebouw.31525315/0","kind":"building","height_m":7.16,"status":null},"geometry":{"type":"Polygon","coordinates":[[[3.89680834,50.97401353],[3.89678005,50.97399585],[3.89675932,50.97400884],[3.89675842,50.9740094],[3.89678817,50.97402831],[3.89681006,50.97401461],[3.89680834,50.97401353]]]}},{"type":"Feature","id":"gebouw/Gebouw.31762092/0","properties":{"source":"Digitaal Vlaanderen Gebouwenregister","source_id":"gebouw/Gebouw.31762092/0","kind":"building","height_m":8.6,"status":null},"geometry":{"type":"Polygon","coordinates":[[[3.89563914,50.97310069],[3.8957833,50.97316724],[3.89583918,50.97311898],[3.89569502,50.97305243],[3.89563914,50.97310069]]]}},{"type":"Feature","id":"gebouw/Gebouw.31762249/0","properties":{"source":"Digitaal Vlaanderen Gebouwenregister","source_id":"gebouw/Gebouw.31762249/0","kind":"building","height_m":5.72,"status":null},"geometry":{"type":"Polygon","coordinates":[[[3.89714641,50.97095994],[3.89731615,50.97081277],[3.89701483,50.97067422],[3.8969771,50.97070694],[3.89701192,50.97072295],[3.89687991,50.9708374],[3.89714641,50.97095994]]]}},{"type":"Feature","id":"gebouw/Gebouw.31762354/0","properties":{"source":"Digitaal Vlaanderen Gebouwenregister","source_id":"gebouw/Gebouw.31762354/0","kind":"building","height_m":5.72,"status":null},"geometry":{"type":"Polygon","coordinates":[[[3.88831041,50.97097749],[3.88838471,50.97100349],[3.88840016,50.97098589],[3.88832586,50.97095989],[3.88831041,50.97097749]]]}},{"type":"Feature","id":"gebouw/Gebouw.31762392/0","properties":{"source":"Digitaal Vlaanderen Gebouwenregister","source_id":"gebouw/Gebouw.31762392/0","kind":"building","height_m":7.88,"status":null},"geometry":{"type":"Polygon","coordinates":[[[3.89784359,50.97176077],[3.89781387,50.97175331],[3.89775967,50.97183942],[3.89779731,50.97184887],[3.89793156,50.97188259],[3.89798583,50.97179646],[3.89784359,50.97176077]]]}},{"type":"Feature","id":"gebouw/Gebouw.31762403/0","properties":{"source":"Digitaal Vlaanderen Gebouwenregister","source_id":"gebouw/Gebouw.31762403/0","kind":"building","height_m":5.72,"status":null},"geometry":{"type":"Polygon","coordinates":[[[3.89763898,50.97223415],[3.8977741,50.97220581],[3.8977513,50.97216248],[3.89761618,50.97219082],[3.89763898,50.97223415]]]}},{"type":"Feature","id":"gebouw/Gebouw.31762426/0","properties":{"source":"Digitaal Vlaanderen Gebouwenregister","source_id":"gebouw/Gebouw.31762426/0","kind":"building","height_m":7.16,"status":null},"geometry":{"type":"Polygon","coordinates":[[[3.89726619,50.97066474],[3.89730059,50.97063448],[3.8972668,50.97061917],[3.89723241,50.97064942],[3.89726619,50.97066474]]]}},{"type":"Feature","id":"way/175592293","properties":{"source":"OpenStreetMap","source_id":"way/175592293","kind":"vegetation","name":null,"waterway":null,"landuse":"forest"},"geometry":{"type":"Polygon","coordinates":[[[3.8892381,50.9704161],[3.8893745,50.9704632],[3.8896362,50.9705536],[3.8899232,50.9706745],[3.8899874,50.9707016],[3.8901975,50.9707799],[3.8904491,50.9708322],[3.8906149,50.970921],[3.8907006,50.9709575],[3.8906896,50.9709941],[3.8906481,50.9710324],[3.8899735,50.9708043],[3.889451,50.970618],[3.8891496,50.9705049],[3.8892381,50.9704161]]]}},{"type":"Feature","id":"way/175592346","properties":{"source":"OpenStreetMap","source_id":"way/175592346","kind":"vegetation","name":null,"waterway":null,"landuse":"forest"},"geometry":{"type":"Polygon","coordinates":[[[3.8984487,50.9681196],[3.8985525,50.968164],[3.8984226,50.9682807],[3.8997883,50.9688901],[3.8994959,50.9691364],[3.898136,50.9684768],[3.8984487,50.9681196]]]}},{"type":"Feature","id":"way/175703217","properties":{"source":"OpenStreetMap","source_id":"way/175703217","kind":"vegetation","name":null,"waterway":null,"landuse":"forest"},"geometry":{"type":"Polygon","coordinates":[[[3.8932446,50.9679181],[3.8916777,50.9671416],[3.8913426,50.9674098],[3.8929096,50.9681863],[3.8932446,50.9679181]]]}},{"type":"Feature","id":"way/175703231","properties":{"source":"OpenStreetMap","source_id":"way/175703231","kind":"vegetation","name":null,"waterway":null,"landuse":"forest"},"geometry":{"type":"Polygon","coordinates":[[[3.8924711,50.9685313],[3.8907499,50.9676787],[3.8901602,50.968126],[3.8902625,50.9681718],[3.8907721,50.9677832],[3.8923824,50.9685963],[3.8924711,50.9685313]]]}},{"type":"Feature","id":"way/175755878","properties":{"source":"OpenStreetMap","source_id":"way/175755878","kind":"vegetation","name":null,"waterway":null,"landuse":"forest"},"geometry":{"type":"Polygon","coordinates":[[[3.8985134,50.973757],[3.8982691,50.9737425],[3.8982404,50.9738984],[3.8984101,50.9739025],[3.8984589,50.9738157],[3.8984576,50.9737876],[3.8985134,50.973757]]]}}]}