{"type":"FeatureCollection","features":[{"type":"Feature","id":"gebouw/Gebouw.8347788/0","properties":{"source":"Digitaal Vlaanderen Gebouwenregister","source_id":"gebouw/Gebouw.8347788/0","kind":"building","height_m":5.72,"status":null},"geometry":{"type":"Polygon","coordinates":[[[3.89519319,50.97518741],[3.89545951,50.9753384],[3.89534199,50.97541828],[3.8950768,50.97526839],[3.89497939,50.97521332],[3.89509608,50.97513136],[3.89519319,50.97518741]]]}},{"type":"Feature","id":"gebouw/Gebouw.8447102/0","properties":{"source":"Digitaal Vlaanderen Gebouwenregister","source_id":"gebouw/Gebouw.8447102/0","kind":"building","height_m":9.32,"status":null},"geometry":{"type":"Polygon","coordinates":[[[3.89692124,50.97444592],[3.89690445,50.97446573],[3.89687709,50.97449802],[3.89689216,50.97450319],[3.89689629,50.97450461],[3.89684565,50.97456362],[3.8967697,50.97453876],[3.89681872,50.97448114],[3.89677238,50.97446543],[3.89681857,50.97441112],[3.89692124,50.97444592]]]}},{"type":"Feature","id":"gebouw/Gebouw.9044419/0","properties":{"source":"Digitaal Vlaanderen Gebouwenregister","source_id":"gebouw/Gebouw.9044419/0","kind":"building","height_m":9.32,"status":null},"geometry":{"type":"Polygon","coordinates":[[[3.8973309,50.97472926],[3.89716721,50.97488247],[3.89703076,50.97482277],[3.89705571,50.97480102],[3.89694433,50.97475036],[3.89706482,50.97464476],[3.89717645,50.97469554],[3.8971724,50.97470029],[3.89723445,50.97472838],[3.89726586,50.9747001],[3.8973309,50.97472926]]]}},{"type":"Feature","id":"gebouw/Gebouw.9044420/0","properties":{"source":"Digitaal Vlaanderen Gebouwenregister","source_id":"gebouw/Gebouw.9044420/0","kind":"building","height_m":5.0,"status":null},"geometry":{"type":"Polygon","coordinates":[[[3.89668268,50.97443358],[3.89662903,50.97441214],[3.8965508,50.974488],[3.89654816,50.97448703],[3.89648396,50.97454995],[3.89654175,50.97457181],[3.89668268,50.97443358]]]}},{"type":"Feature","id":"gebouw/Gebouw.9057836/0","properties":{"source":"Digitaal Vlaanderen Gebouwenregister","source_id":"gebouw/Gebouw.9057836/0","kind":"building","height_m":7.88,"status":null},"geometry":{"type":"Polygon","coordinates":[[[3.89737977,50.97468351],[3.89709545,50.97455362],[3.89712395,50.9745283],[3.89712265,50.97452771],[3.89716694,50.97448837],[3.89716808,50.97448888],[3.89717063,50.97448661],[3.89727767,50.97453375],[3.8972754,50.97453579],[3.89745455,50.97461351],[3.89737977,50.97468351]]]}},{"type":"Feature","id":"gebouw/Gebouw.9064946/0","properties":{"source":"Digitaal Vlaanderen Gebouwenregister","source_id":"gebouw/Gebouw.9064946/0","kind":"building","height_m":6.44,"status":null},"geometry":{"type":"Polygon","coordinates":[[[3.89669378,50.974364],[3.89663399,50.97434026],[3.89662162,50.97435268],[3.89657618,50.97433471],[3.89657232,50.97433832],[3.89652195,50.97431765],[3.89662303,50.97421612],[3.89668961,50.97424255],[3.8966797,50.97425251],[3.89676939,50.9742881],[3.89669378,50.974364]]]}},{"type":"Feature","id":"gebouw/Gebouw.9069854/0","properties":{"source":"Digitaal Vlaanderen Gebouwenregister","source_id":"gebouw/Gebouw.9069854/0","kind":"building","height_m":7.16,"status":null},"geometry":{"type":"Polygon","coordinates":[[[3.89766437,50.97463735],[3.89753579,50.9747529],[3.89737977,50.97468351],[3.89745455,50.97461351],[3.89753064,50.97464614],[3.89755808,50.97462137],[3.89753819,50.97461214],[3.89755498,50.97459642],[3.89757639,50.97460532],[3.8975816,50.97460064],[3.89766017,50.97463549],[3.89766437,50.97463735]]]}},{"type":"Feature","id":"gebouw/Gebouw.9122402/0","properties":{"source":"Digitaal Vlaanderen Gebouwenregister","source_id":"gebouw/Gebouw.9122402/0","kind":"building","height_m":6.44,"status":null},"geometry":{"type":"Polygon","coordinates":[[[3.8955655,50.97537544],[3.89562416,50.9754078],[3.89558808,50.97543341],[3.89552848,50.97540272],[3.8955655,50.97537544]]]}},{"type":"Feature","id":"gebouw/Gebouw.9132570/0","properties":{"source":"Digitaal Vlaanderen Gebouwenregister","source_id":"gebouw/Gebouw.9132570/0","kind":"building","height_m":9.32,"status":null},"geometry":{"type":"Polygon","coordinates":[[[3.89511759,50.97679233],[3.89499882,50.97684256],[3.89478644,50.97664725],[3.89490428,50.97659617],[3.89500839,50.9766919],[3.89506539,50.97674432],[3.89511759,50.97679233]]]}},{"type":"Feature","id":"gebouw/Gebouw.9192761/0","properties":{"source":"Digitaal Vlaanderen Gebouwenregister","source_id":"gebouw/Gebouw.9192761/0","kind":"building","height_m":7.88,"status":null},"geometry":{"type":"Polygon","coordinates":[[[3.89633785,50.97466301],[3.89639877,50.97468922],[3.89637468,50.97471085],[3.89631402,50.97468596],[3.89633785,50.97466301]]]}},{"type":"Feature","id":"gebouw/Gebouw.9193043/0","properties":{"source":"Digitaal Vlaanderen Gebouwenregister","source_id":"gebouw/Gebouw.9193043/0","kind":"building","height_m":9.32,"status":null},"geometry":{"type":"Polygon","coordinates":[[[3.89638112,50.97438857],[3.89641051,50.97439791],[3.8963805,50.97442902],[3.89631612,50.974488],[3.8962895,50.9744755],[3.89635178,50.97441706],[3.89638112,50.97438857]]]}},{"type":"Feature","id":"gebouw/Gebouw.9193092/0","properties":{"source":"Digitaal Vlaanderen Gebouwenregister","source_id":"gebouw/Gebouw.9193092/0","kind":"building","height_m":9.32,"status":null},"geometry":{"type":"Polygon","coordinates":[[[3.89479533,50.9766931],[3.89483277,50.97673063],[3.894788,50.97674939],[3.89480878,50.97676874],[3.89469225,50.97681567],[3.89464402,50.97677182],[3.89469268,50.97675069],[3.894646,50.97670455],[3.89474729,50.97666371],[3.89478253,50.97669856],[3.89479533,50.9766931]]]}},{"type":"Feature","id":"gebouw/Gebouw.9462248/0","properties":{"source":"Digitaal Vlaanderen Gebouwenregister","source_id":"gebouw/Gebouw.9462248/0","kind":"building","height_m":8.6,"status":null},"geometry":{"type":"Polygon","coordinates":[[[3.89519049,50.97563427],[3.89537962,50.97549994],[3.89549215,50.97556266],[3.89544488,50.97559646],[3.89542959,50.97558794],[3.89533553,50.9756552],[3.89535094,50.97566382],[3.89530383,50.97569749],[3.89519049,50.97563427]]]}},{"type":"Feature","id":"gebouw/Gebouw.9462870/0","properties":{"source":"Digitaal Vlaanderen Gebouwenregister","source_id":"gebouw/Gebouw.9462870/0","kind":"building","height_m":7.88,"status":null},"geometry":{"type":"Polygon","coordinates":[[[3.89548775,50.97718766],[3.8954633,50.97716246],[3.89550233,50.97714719],[3.89552678,50.9771724],[3.89548775,50.97718766]]]}},{"type":"Feature","id":"gebouw/Gebouw.9475565/0","properties":{"source":"Digitaal Vlaanderen Gebouwenregister","source_id":"gebouw/Gebouw.9475565/0","kind":"building","height_m":5.72,"status":null},"geometry":{"type":"Polygon","coordinates":[[[3.89819303,50.97443872],[3.89816416,50.97447132],[3.897983,50.97440736],[3.89801951,50.97436715],[3.89813666,50.97440808],[3.89812941,50.97441626],[3.89819303,50.97443872]]]}},{"type":"Feature","id":"gebouw/Gebouw.9731458/0","properties":{"source":"Digitaal Vlaanderen Gebouwenregister","source_id":"gebouw/Gebouw.9731458/0","kind":"building","height_m":6.44,"status":null},"geometry":{"type":"Polygon","coordinates":[[[3.8973839,50.97450409],[3.89733031,50.97448387],[3.89737468,50.97443494],[3.89754657,50.97449708],[3.89750899,50.97453724],[3.89739282,50.97449352],[3.8973839,50.97450409]]]}},{"type":"Feature","id":"gebouw/Gebouw.9737903/0","properties":{"source":"Digitaal Vlaanderen Gebouwenregister","source_id":"gebouw/Gebouw.9737903/0","kind":"building","height_m":5.0,"status":null},"geometry":{"type":"Polygon","coordinates":[[[3.89512372,50.9768821],[3.8951041,50.97686351],[3.89515042,50.97684271],[3.89517181,50.97686132],[3.89512372,50.9768821]]]}},{"type":"Feature","id":"gebouw/Gebouw.18362173/0","properties":{"source":"Digitaal Vlaanderen Gebouwenregister","source_id":"gebouw/Gebouw.18362173/0","kind":"building","height_m":7.88,"status":null},"geometry":{"type":"Polygon","coordinates":[[[3.89485219,50.97576033],[3.8946944,50.97587697],[3.89437403,50.97570373],[3.89449255,50.97561598],[3.89445538,50.97559596],[3.89451007,50.97555548],[3.89454724,50.97557549],[3.89456857,50.9755597],[3.89484911,50.97571161],[3.89493158,50.97564941],[3.89497616,50.97567496],[3.89500351,50.97565397],[3.89507136,50.97568963],[3.89505512,50.9757018],[3.89512036,50.97573738],[3.89507469,50.97577075],[3.89506402,50.97576493],[3.89497885,50.97582825],[3.89485219,50.97576033]]]}},{"type":"Feature","id":"gebouw/Gebouw.18374024/0","properties":{"source":"Digitaal Vlaanderen Gebouwenregister","source_id":"gebouw/Gebouw.18374024/0","kind":"building","height_m":7.88,"status":null},"geometry":{"type":"Polygon","coordinates":[[[3.89511475,50.97559593],[3.89517281,50.97555462],[3.89521198,50.9755766],[3.89515341,50.97561734],[3.89511475,50.97559593]]]}},{"type":"Feature","id":"gebouw/Gebouw.18374026/0","properties":{"source":"Digitaal Vlaanderen Gebouwenregister","source_id":"gebouw/Gebouw.18374026/0","kind":"building","height_m":9.32,"status":null},"geometry":{"type":"Polygon","coordinates":[[[3.8978711,50.97473552],[3.89791122,50.97468781],[3.89794721,50.97470118],[3.89790858,50.9747487],[3.8978711,50.97473552]]]}},{"type":"Feature","id":"gebouw/Gebouw.18374027/0","properties":{"source":"Digitaal Vlaanderen Gebouwenregister","source_id":"gebouw/Gebouw.18374027/0","kind":"building","height_m":5.0,"status":null},"geometry":{"type":"Polygon","coordinates":[[[3.89764618,50.9744002],[3.8976183,50.97443225],[3.89745697,50.9743763],[3.89745393,50.97437975],[3.8974516,50.97437901],[3.89748243,50.97434334],[3.89764618,50.9744002]]]}},{"type":"Feature","id":"gebouw/Gebouw.18374042/0","properties":{"source":"Digitaal Vlaanderen Gebouwenregister","source_id":"gebouw/Gebouw.18374042/0","kind":"building","height_m":5.72,"status":null},"geometry":{"type":"Polygon","coordinates":[[[3.89795849,50.97496963],[3.89792881,50.9750026],[3.89787496,50.97498263],[3.89790256,50.97494926],[3.89795849,50.97496963]]]}},{"type":"Feature","id":"gebouw/Gebouw.19512195/0","properties":{"source":"Digitaal Vlaanderen Gebouwenregister","source_id":"gebouw/Gebouw.19512195/0","kind":"building","height_m":7.16,"status":null},"geometry":{"type":"Polygon","coordinates":[[[3.89618007,50.97435784],[3.8962042,50.97433189],[3.89629633,50.97436626],[3.89633628,50.97432423],[3.8963656,50.97429339],[3.89626973,50.97425798],[3.89614374,50.97421144],[3.89614082,50.97421036],[3.89611175,50.97424126],[3.89609831,50.97425551],[3.89602427,50.97433401],[3.89600482,50.97435464],[3.89600253,50.97435707],[3.8960035,50.97435744],[3.89611348,50.97439978],[3.89622346,50.97444212],[3.89625516,50.97440802],[3.89619733,50.97438659],[3.89620897,50.97437408],[3.89617625,50.97436195],[3.89618007,50.97435784]]]}},{"type":"Feature","id":"gebouw/Gebouw.20193881/0","properties":{"source":"Digitaal Vlaanderen Gebouwenregister","source_id":"gebouw/Gebouw.20193881/0","kind":"building","height_m":5.72,"status":null},"geometry":{"type":"Polygon","coordinates":[[[3.89665639,50.97453838],[3.89662715,50.97457244],[3.89657256,50.97455377],[3.8966018,50.9745197],[3.89665639,50.97453838]]]}},{"type":"Feature","id":"gebouw/Gebouw.20193886/0","properties":{"source":"Digitaal Vlaanderen Gebouwenregister","source_id":"gebouw/Gebouw.20193886/0","kind":"building","height_m":9.32,"status":null},"geometry":{"type":"Polygon","coordinates":[[[3.89787075,50.97473573],[3.89790917,50.97468752],[3.89795023,50.97470056],[3.89791181,50.97474878],[3.89787075,50.97473573]]]}},{"type":"Feature","id":"gebouw/Gebouw.31001731/0","properties":{"source":"Digitaal Vlaanderen Gebouwenregister","source_id":"gebouw/Gebouw.31001731/0","kind":"building","height_m":8.6,"status":null},"geometry":{"type":"Polygon","coordinates":[[[3.89863587,50.97431769],[3.898615,50.9743392],[3.89860133,50.97435329],[3.89843989,50.97429085],[3.89845359,50.97427672],[3.89847443,50.97425525],[3.89863587,50.97431769]]]}},{"type":"Feature","id":"way/175592288","properties":{"source":"OpenStreetMap","source_id":"way/175592288","kind":"vegetation","name":null,"waterway":null,"landuse":"forest"},"geometry":{"type":"Polygon","coordinates":[[[3.8962784,50.9749284],[3.8964067,50.9747885],[3.8966334,50.9748564],[3.896744,50.9749034],[3.8967883,50.9749487],[3.8968048,50.974987],[3.8969293,50.9750549],[3.8972914,50.9747241],[3.897355,50.9747415],[3.8972389,50.9748808],[3.8974435,50.9749678],[3.8970777,50.9753079],[3.8962784,50.9749284]]]}},{"type":"Feature","id":"way/175592312","properties":{"source":"OpenStreetMap","source_id":"way/175592312","kind":"vegetation","name":null,"waterway":null,"landuse":"forest"},"geometry":{"type":"Polygon","coordinates":[[[3.8960655,50.9752365],[3.8949762,50.9761765],[3.8950785,50.9762183],[3.8949519,50.9763243],[3.8942464,50.9769146],[3.894341,50.9769738],[3.8945809,50.9771235],[3.8943182,50.9772784],[3.8939478,50.9770609],[3.893851,50.9770678],[3.8937708,50.9770417],[3.8936962,50.976993],[3.8936713,50.9769494],[3.8936989,50.9768781],[3.8934639,50.9766744],[3.8933174,50.9763715],[3.8934059,50.9763454],[3.8930741,50.9756108],[3.8934584,50.9755446],[3.8933368,50.9753497],[3.8934335,50.9753288],[3.8935137,50.9754541],[3.8936381,50.9755516],[3.8938178,50.9756369],[3.8941358,50.9758092],[3.8952942,50.9748222],[3.8954407,50.9748518],[3.8955098,50.9748431],[3.8956398,50.9748692],[3.8956978,50.9749197],[3.8957448,50.9749841],[3.8957559,50.9750328],[3.8957863,50.9751007],[3.8958803,50.9751704],[3.8959984,50.9752126],[3.8960655,50.9752365]]]}}]}