{"type":"FeatureCollection","features":[{"type":"Feature","id":"gebouw/Gebouw.9040322/0","properties":{"source":"Digitaal Vlaanderen Gebouwenregister","source_id":"gebouw/Gebouw.9040322/0","kind":"building","height_m":7.88,"status":null},"geometry":{"type":"Polygon","coordinates":[[[3.92691457,50.95560558],[3.92695045,50.95562215],[3.92687609,50.95568685],[3.92677997,50.95564277],[3.92685457,50.95557787],[3.92691457,50.95560558]]]}},{"type":"Feature","id":"gebouw/Gebouw.9040328/0","properties":{"source":"Digitaal Vlaanderen Gebouwenregister","source_id":"gebouw/Gebouw.9040328/0","kind":"building","height_m":7.16,"status":null},"geometry":{"type":"Polygon","coordinates":[[[3.92957573,50.9562484],[3.92962259,50.9562585],[3.929591,50.95631413],[3.92954476,50.95630329],[3.92957573,50.9562484]]]}},{"type":"Feature","id":"gebouw/Gebouw.9040334/0","properties":{"source":"Digitaal Vlaanderen Gebouwenregister","source_id":"gebouw/Gebouw.9040334/0","kind":"building","height_m":6.44,"status":null},"geometry":{"type":"Polygon","coordinates":[[[3.92458512,50.9555389],[3.92463123,50.95547796],[3.92473394,50.95550877],[3.92468761,50.95556985],[3.92468363,50.95556865],[3.92467281,50.95558182],[3.92469141,50.95558743],[3.92464144,50.95565278],[3.92459119,50.95563702],[3.9245785,50.95565503],[3.92450061,50.95563145],[3.92456413,50.95554904],[3.92458504,50.95555533],[3.92459548,50.95554173],[3.92458512,50.9555389]]]}},{"type":"Feature","id":"gebouw/Gebouw.9040799/0","properties":{"source":"Digitaal Vlaanderen Gebouwenregister","source_id":"gebouw/Gebouw.9040799/0","kind":"building","height_m":8.6,"status":null},"geometry":{"type":"Polygon","coordinates":[[[3.92662256,50.95581437],[3.9266507,50.95582162],[3.92661383,50.9558787],[3.92659323,50.95587381],[3.92651981,50.95585639],[3.92655592,50.95580195],[3.92655876,50.95579793],[3.92662256,50.95581437]]]}},{"type":"Feature","id":"gebouw/Gebouw.9044140/0","properties":{"source":"Digitaal Vlaanderen Gebouwenregister","source_id":"gebouw/Gebouw.9044140/0","kind":"building","height_m":5.0,"status":null},"geometry":{"type":"Polygon","coordinates":[[[3.9281584,50.95598846],[3.92817506,50.95595626],[3.92820984,50.95596378],[3.92821202,50.95596025],[3.92828218,50.95597456],[3.92826483,50.95600976],[3.92827397,50.95601155],[3.9282638,50.95603073],[3.92828761,50.95603577],[3.92827137,50.95606642],[3.92824778,50.95606143],[3.9282165,50.95612045],[3.92809738,50.95609695],[3.92815311,50.9559869],[3.9281584,50.95598846]]]}},{"type":"Feature","id":"gebouw/Gebouw.9048545/0","properties":{"source":"Digitaal Vlaanderen Gebouwenregister","source_id":"gebouw/Gebouw.9048545/0","kind":"building","height_m":6.44,"status":null},"geometry":{"type":"Polygon","coordinates":[[[3.92535467,50.9561432],[3.9252115,50.95613504],[3.92522756,50.95602352],[3.92537008,50.95603134],[3.92535467,50.9561432]]]}},{"type":"Feature","id":"gebouw/Gebouw.9048644/0","properties":{"source":"Digitaal Vlaanderen Gebouwenregister","source_id":"gebouw/Gebouw.9048644/0","kind":"building","height_m":7.16,"status":null},"geometry":{"type":"Polygon","coordinates":[[[3.92777865,50.95636113],[3.92769507,50.95643992],[3.92775058,50.95646188],[3.92783224,50.95638405],[3.92777865,50.95636113]]]}},{"type":"Feature","id":"gebouw/Gebouw.9048731/0","properties":{"source":"Digitaal Vlaanderen Gebouwenregister","source_id":"gebouw/Gebouw.9048731/0","kind":"building","height_m":9.32,"status":null},"geometry":{"type":"Polygon","coordinates":[[[3.92564763,50.95655575],[3.92567178,50.95648425],[3.92581416,50.95650345],[3.92577992,50.95660464],[3.92562223,50.95658327],[3.92563229,50.95655368],[3.92564763,50.95655575]]]}},{"type":"Feature","id":"gebouw/Gebouw.9048732/0","properties":{"source":"Digitaal Vlaanderen Gebouwenregister","source_id":"gebouw/Gebouw.9048732/0","kind":"building","height_m":5.0,"status":null},"geometry":{"type":"Polygon","coordinates":[[[3.92527862,50.95684209],[3.92531893,50.95677499],[3.92548855,50.95681543],[3.92558661,50.95683887],[3.92554608,50.9569062],[3.92544802,50.95688239],[3.92527862,50.95684209]]]}},{"type":"Feature","id":"gebouw/Gebouw.9048830/0","properties":{"source":"Digitaal Vlaanderen Gebouwenregister","source_id":"gebouw/Gebouw.9048830/0","kind":"building","height_m":5.0,"status":null},"geometry":{"type":"Polygon","coordinates":[[[3.92868754,50.95576391],[3.92868055,50.95579979],[3.9286418,50.95579653],[3.92864875,50.95576177],[3.92866267,50.95576254],[3.92868754,50.95576391]]]}},{"type":"Feature","id":"gebouw/Gebouw.9048831/0","properties":{"source":"Digitaal Vlaanderen Gebouwenregister","source_id":"gebouw/Gebouw.9048831/0","kind":"building","height_m":5.72,"status":null},"geometry":{"type":"Polygon","coordinates":[[[3.92862651,50.955893],[3.92858563,50.95589139],[3.92859073,50.95585327],[3.9286374,50.95585548],[3.92863636,50.95586052],[3.9286737,50.95586197],[3.92866468,50.95592263],[3.92862303,50.95592049],[3.92862651,50.955893]]]}},{"type":"Feature","id":"gebouw/Gebouw.9048843/0","properties":{"source":"Digitaal Vlaanderen Gebouwenregister","source_id":"gebouw/Gebouw.9048843/0","kind":"building","height_m":9.32,"status":null},"geometry":{"type":"Polygon","coordinates":[[[3.92811153,50.95654805],[3.92805718,50.95652445],[3.92811878,50.95646618],[3.92817313,50.95648977],[3.92811153,50.95654805]]]}},{"type":"Feature","id":"gebouw/Gebouw.9049027/0","properties":{"source":"Digitaal Vlaanderen Gebouwenregister","source_id":"gebouw/Gebouw.9049027/0","kind":"building","height_m":5.72,"status":null},"geometry":{"type":"Polygon","coordinates":[[[3.92602302,50.95620922],[3.92601458,50.95626437],[3.92595805,50.95626052],[3.92596647,50.95620612],[3.92602302,50.95620922]]]}},{"type":"Feature","id":"gebouw/Gebouw.9049028/0","properties":{"source":"Digitaal Vlaanderen Gebouwenregister","source_id":"gebouw/Gebouw.9049028/0","kind":"building","height_m":6.44,"status":null},"geometry":{"type":"Polygon","coordinates":[[[3.92427196,50.9557522],[3.92424148,50.95573985],[3.92428459,50.95569597],[3.92431765,50.95571038],[3.92427196,50.9557522]]]}},{"type":"Feature","id":"gebouw/Gebouw.9049036/0","properties":{"source":"Digitaal Vlaanderen Gebouwenregister","source_id":"gebouw/Gebouw.9049036/0","kind":"building","height_m":7.16,"status":null},"geometry":{"type":"Polygon","coordinates":[[[3.92651942,50.95579257],[3.92640526,50.95576323],[3.9263652,50.95581858],[3.92652729,50.95585817],[3.92656601,50.9557998],[3.92655876,50.95579793],[3.92655593,50.95580196],[3.92651942,50.95579257]]]}},{"type":"Feature","id":"gebouw/Gebouw.9049037/0","properties":{"source":"Digitaal Vlaanderen Gebouwenregister","source_id":"gebouw/Gebouw.9049037/0","kind":"building","height_m":7.88,"status":null},"geometry":{"type":"Polygon","coordinates":[[[3.92470474,50.95582702],[3.92484234,50.95586961],[3.9248739,50.95582503],[3.92483565,50.95581484],[3.92487151,50.95576543],[3.92490857,50.95577561],[3.92491013,50.95577343],[3.92502735,50.95580642],[3.92496333,50.95589719],[3.92486107,50.95586865],[3.92483421,50.95590398],[3.92481302,50.95589848],[3.92479841,50.95591787],[3.92466355,50.9558795],[3.9246786,50.95586033],[3.92470474,50.95582702]]]}},{"type":"Feature","id":"gebouw/Gebouw.9049253/0","properties":{"source":"Digitaal Vlaanderen Gebouwenregister","source_id":"gebouw/Gebouw.9049253/0","kind":"building","height_m":7.16,"status":null},"geometry":{"type":"Polygon","coordinates":[[[3.92924042,50.95604528],[3.92927218,50.95605248],[3.92924851,50.95609078],[3.92926942,50.95609571],[3.92923005,50.9561638],[3.92917701,50.95615082],[3.9292174,50.95608359],[3.92924042,50.95604528]]]}},{"type":"Feature","id":"gebouw/Gebouw.9057237/0","properties":{"source":"Digitaal Vlaanderen Gebouwenregister","source_id":"gebouw/Gebouw.9057237/0","kind":"building","height_m":5.0,"status":null},"geometry":{"type":"Polygon","coordinates":[[[3.92775559,50.95631552],[3.92774496,50.95632743],[3.92773595,50.95632443],[3.92768393,50.9563071],[3.92767258,50.95632371],[3.92762387,50.95630628],[3.92768604,50.95623595],[3.92772073,50.9561967],[3.92780971,50.95622808],[3.92778806,50.95625257],[3.92780608,50.95625892],[3.9277712,50.95629802],[3.92775559,50.95631552]]]}},{"type":"Feature","id":"gebouw/Gebouw.9057253/0","properties":{"source":"Digitaal Vlaanderen Gebouwenregister","source_id":"gebouw/Gebouw.9057253/0","kind":"building","height_m":6.44,"status":null},"geometry":{"type":"Polygon","coordinates":[[[3.92894772,50.95587439],[3.92893092,50.95590818],[3.92885925,50.95589479],[3.92887631,50.9558594],[3.92894772,50.95587439]]]}},{"type":"Feature","id":"gebouw/Gebouw.9057258/0","properties":{"source":"Digitaal Vlaanderen Gebouwenregister","source_id":"gebouw/Gebouw.9057258/0","kind":"building","height_m":5.0,"status":null},"geometry":{"type":"Polygon","coordinates":[[[3.92814301,50.95652631],[3.92818571,50.95654666],[3.92811068,50.95660703],[3.92806829,50.95658612],[3.92814301,50.95652631]]]}},{"type":"Feature","id":"gebouw/Gebouw.9057263/0","properties":{"source":"Digitaal Vlaanderen Gebouwenregister","source_id":"gebouw/Gebouw.9057263/0","kind":"building","height_m":8.6,"status":null},"geometry":{"type":"Polygon","coordinates":[[[3.92887777,50.95611228],[3.92886387,50.95614368],[3.92882853,50.95622353],[3.92876745,50.95621326],[3.92877158,50.95620376],[3.92868542,50.95618889],[3.92871127,50.95612682],[3.92871629,50.95612744],[3.9287275,50.95609928],[3.92873163,50.95610008],[3.92874462,50.95607195],[3.92880599,50.95608241],[3.9287993,50.95609825],[3.92884827,50.95610701],[3.92887777,50.95611228]]]}},{"type":"Feature","id":"gebouw/Gebouw.9057717/0","properties":{"source":"Digitaal Vlaanderen Gebouwenregister","source_id":"gebouw/Gebouw.9057717/0","kind":"building","height_m":7.88,"status":null},"geometry":{"type":"Polygon","coordinates":[[[3.92574817,50.95560414],[3.92565546,50.95579808],[3.9255874,50.95578546],[3.92558867,50.95578286],[3.9254536,50.95575729],[3.92549796,50.95566079],[3.92555207,50.95567049],[3.92560435,50.95555114],[3.92571971,50.9555713],[3.92570741,50.95559636],[3.92574817,50.95560414]]]}},{"type":"Feature","id":"gebouw/Gebouw.9069694/0","properties":{"source":"Digitaal Vlaanderen Gebouwenregister","source_id":"gebouw/Gebouw.9069694/0","kind":"building","height_m":7.88,"status":null},"geometry":{"type":"Polygon","coordinates":[[[3.92721283,50.95599106],[3.92733139,50.95602585],[3.92730862,50.9560594],[3.92731983,50.95606276],[3.92724004,50.95616903],[3.92723782,50.95616837],[3.92722137,50.95619061],[3.92721393,50.95618842],[3.92719984,50.95620748],[3.92707908,50.95617184],[3.92721283,50.95599106]]]}},{"type":"Feature","id":"gebouw/Gebouw.9070116/0","properties":{"source":"Digitaal Vlaanderen Gebouwenregister","source_id":"gebouw/Gebouw.9070116/0","kind":"building","height_m":9.32,"status":null},"geometry":{"type":"Polygon","coordinates":[[[3.92819159,50.95639707],[3.92815029,50.95637954],[3.92812536,50.95640023],[3.92810319,50.95639084],[3.9280908,50.95638559],[3.92807528,50.95639908],[3.92804401,50.95638551],[3.92815985,50.95627626],[3.92818998,50.95629029],[3.92819848,50.95628365],[3.92821457,50.95629034],[3.92826235,50.95631024],[3.92822291,50.95635043],[3.9282358,50.95635582],[3.92822209,50.95636861],[3.92819159,50.95639707]]]}},{"type":"Feature","id":"gebouw/Gebouw.9100666/0","properties":{"source":"Digitaal Vlaanderen Gebouwenregister","source_id":"gebouw/Gebouw.9100666/0","kind":"building","height_m":5.72,"status":null},"geometry":{"type":"Polygon","coordinates":[[[3.92703484,50.95550629],[3.9270657,50.95548059],[3.92713732,50.9555157],[3.92710755,50.95554121],[3.92707186,50.95552406],[3.92703484,50.95550629]]]}},{"type":"Feature","id":"gebouw/Gebouw.9100692/0","properties":{"source":"Digitaal Vlaanderen Gebouwenregister","source_id":"gebouw/Gebouw.9100692/0","kind":"building","height_m":9.32,"status":null},"geometry":{"type":"Polygon","coordinates":[[[3.9249489,50.95599661],[3.92493009,50.95609509],[3.92479281,50.95608464],[3.92481329,50.95598629],[3.9249489,50.95599661]]]}},{"type":"Feature","id":"gebouw/Gebouw.9100693/0","properties":{"source":"Digitaal Vlaanderen Gebouwenregister","source_id":"gebouw/Gebouw.9100693/0","kind":"building","height_m":5.0,"status":null},"geometry":{"type":"Polygon","coordinates":[[[3.92494603,50.95691494],[3.92491182,50.95690047],[3.92490767,50.95690438],[3.92484451,50.95687764],[3.92488497,50.95683774],[3.92489877,50.95684259],[3.92496133,50.95678282],[3.92494844,50.95677743],[3.92497939,50.95674968],[3.92507737,50.95679114],[3.92494603,50.95691494]]]}},{"type":"Feature","id":"gebouw/Gebouw.9100710/0","properties":{"source":"Digitaal Vlaanderen Gebouwenregister","source_id":"gebouw/Gebouw.9100710/0","kind":"building","height_m":7.16,"status":null},"geometry":{"type":"Polygon","coordinates":[[[3.92947112,50.95610463],[3.92949581,50.95606165],[3.92953441,50.95607016],[3.92950793,50.95611349],[3.92947112,50.95610463]]]}},{"type":"Feature","id":"gebouw/Gebouw.9100711/0","properties":{"source":"Digitaal Vlaanderen Gebouwenregister","source_id":"gebouw/Gebouw.9100711/0","kind":"building","height_m":7.88,"status":null},"geometry":{"type":"Polygon","coordinates":[[[3.92751581,50.95579512],[3.92747595,50.95577891],[3.92750255,50.95575169],[3.92754207,50.9557692],[3.92751581,50.95579512]]]}},{"type":"Feature","id":"gebouw/Gebouw.9100742/0","properties":{"source":"Digitaal Vlaanderen Gebouwenregister","source_id":"gebouw/Gebouw.9100742/0","kind":"building","height_m":5.0,"status":null},"geometry":{"type":"Polygon","coordinates":[[[3.92825646,50.95697437],[3.9283116,50.95700555],[3.92827194,50.95703299],[3.92821741,50.95700144],[3.92825646,50.95697437]]]}},{"type":"Feature","id":"gebouw/Gebouw.9100743/0","properties":{"source":"Digitaal Vlaanderen Gebouwenregister","source_id":"gebouw/Gebouw.9100743/0","kind":"building","height_m":5.72,"status":null},"geometry":{"type":"Polygon","coordinates":[[[3.92765068,50.95662094],[3.9276982,50.95663591],[3.92765946,50.95667235],[3.92761398,50.9566559],[3.92764326,50.95662801],[3.92765068,50.95662094]]]}},{"type":"Feature","id":"gebouw/Gebouw.9101114/0","properties":{"source":"Digitaal Vlaanderen Gebouwenregister","source_id":"gebouw/Gebouw.9101114/0","kind":"building","height_m":5.72,"status":null},"geometry":{"type":"Polygon","coordinates":[[[3.92416805,50.95595702],[3.9242298,50.9559849],[3.92416194,50.95604485],[3.92410019,50.95601697],[3.92416805,50.95595702]]]}},{"type":"Feature","id":"gebouw/Gebouw.9101115/0","properties":{"source":"Digitaal Vlaanderen Gebouwenregister","source_id":"gebouw/Gebouw.9101115/0","kind":"building","height_m":6.44,"status":null},"geometry":{"type":"Polygon","coordinates":[[[3.92487217,50.95660795],[3.92492548,50.95663068],[3.92483437,50.95671334],[3.92475182,50.95667678],[3.924782,50.95664885],[3.92481099,50.95666136],[3.92487217,50.95660795]]]}},{"type":"Feature","id":"gebouw/Gebouw.9101165/0","properties":{"source":"Digitaal Vlaanderen Gebouwenregister","source_id":"gebouw/Gebouw.9101165/0","kind":"building","height_m":7.16,"status":null},"geometry":{"type":"Polygon","coordinates":[[[3.92935806,50.95628449],[3.92929284,50.95638147],[3.92929105,50.95638095],[3.92913724,50.95633674],[3.92920722,50.95623964],[3.9292206,50.95624349],[3.92923048,50.95623012],[3.92925513,50.95621879],[3.92928072,50.95622602],[3.92928319,50.95624291],[3.92927298,50.95625721],[3.92935806,50.95628449]]]}},{"type":"Feature","id":"gebouw/Gebouw.9101171/0","properties":{"source":"Digitaal Vlaanderen Gebouwenregister","source_id":"gebouw/Gebouw.9101171/0","kind":"building","height_m":6.44,"status":null},"geometry":{"type":"Polygon","coordinates":[[[3.92471109,50.95616421],[3.92489289,50.95617693],[3.92488535,50.95621985],[3.92484986,50.95621736],[3.92483873,50.95628128],[3.92470197,50.95627176],[3.92469203,50.95627107],[3.92469241,50.95626756],[3.92464683,50.9562644],[3.92466463,50.95616384],[3.9247105,50.95616681],[3.92471109,50.95616421]]]}},{"type":"Feature","id":"gebouw/Gebouw.9101189/0","properties":{"source":"Digitaal Vlaanderen Gebouwenregister","source_id":"gebouw/Gebouw.9101189/0","kind":"building","height_m":9.32,"status":null},"geometry":{"type":"Polygon","coordinates":[[[3.92843577,50.95601569],[3.92843932,50.95601611],[3.92844944,50.9559945],[3.92854678,50.9560125],[3.92854833,50.95601008],[3.92861498,50.95602285],[3.92855493,50.95614877],[3.92848945,50.95613676],[3.92849138,50.95613154],[3.92839051,50.95611275],[3.92843577,50.95601569]]]}},{"type":"Feature","id":"gebouw/Gebouw.9101190/0","properties":{"source":"Digitaal Vlaanderen Gebouwenregister","source_id":"gebouw/Gebouw.9101190/0","kind":"building","height_m":5.0,"status":null},"geometry":{"type":"Polygon","coordinates":[[[3.92760586,50.95578849],[3.92760999,50.95578929],[3.92762641,50.95576532],[3.92770436,50.95578703],[3.92778906,50.95581125],[3.92768974,50.9559515],[3.92752386,50.9559046],[3.92760586,50.95578849]]]}},{"type":"Feature","id":"gebouw/Gebouw.9101202/0","properties":{"source":"Digitaal Vlaanderen Gebouwenregister","source_id":"gebouw/Gebouw.9101202/0","kind":"building","height_m":8.6,"status":null},"geometry":{"type":"Polygon","coordinates":[[[3.92976159,50.95647329],[3.92970189,50.95645629],[3.92972971,50.95641803],[3.92978851,50.9564352],[3.92976159,50.95647329]]]}},{"type":"Feature","id":"gebouw/Gebouw.9101217/0","properties":{"source":"Digitaal Vlaanderen Gebouwenregister","source_id":"gebouw/Gebouw.9101217/0","kind":"building","height_m":9.32,"status":null},"geometry":{"type":"Polygon","coordinates":[[[3.92845029,50.95747405],[3.92850196,50.95753112],[3.92837292,50.95757968],[3.92831797,50.95751934],[3.92831692,50.95751819],[3.92826268,50.95745863],[3.92827475,50.95745427],[3.92828634,50.95746708],[3.92835267,50.95744312],[3.92836367,50.95745527],[3.92841613,50.95743632],[3.92845029,50.95747405]]]}},{"type":"Feature","id":"gebouw/Gebouw.9122098/0","properties":{"source":"Digitaal Vlaanderen Gebouwenregister","source_id":"gebouw/Gebouw.9122098/0","kind":"building","height_m":9.32,"status":null},"geometry":{"type":"Polygon","coordinates":[[[3.92723824,50.95624153],[3.9272668,50.95624967],[3.92723433,50.95629481],[3.92720481,50.95628671],[3.92723824,50.95624153]]]}},{"type":"Feature","id":"gebouw/Gebouw.9122099/0","properties":{"source":"Digitaal Vlaanderen Gebouwenregister","source_id":"gebouw/Gebouw.9122099/0","kind":"building","height_m":5.0,"status":null},"geometry":{"type":"Polygon","coordinates":[[[3.9274264,50.95672185],[3.92743782,50.95672632],[3.92750723,50.95675305],[3.92745018,50.95681111],[3.92743051,50.95680292],[3.92740485,50.95682914],[3.92734355,50.95680575],[3.9274264,50.95672185]]]}},{"type":"Feature","id":"gebouw/Gebouw.9125011/0","properties":{"source":"Digitaal Vlaanderen Gebouwenregister","source_id":"gebouw/Gebouw.9125011/0","kind":"building","height_m":5.0,"status":null},"geometry":{"type":"Polygon","coordinates":[[[3.92846797,50.95655785],[3.92847137,50.9565598],[3.92836964,50.95663517],[3.92836532,50.95663267],[3.92832445,50.95660898],[3.92842892,50.95653547],[3.92846797,50.95655785]]]}},{"type":"Feature","id":"gebouw/Gebouw.9127295/0","properties":{"source":"Digitaal Vlaanderen Gebouwenregister","source_id":"gebouw/Gebouw.9127295/0","kind":"building","height_m":6.44,"status":null},"geometry":{"type":"Polygon","coordinates":[[[3.9268451,50.95555966],[3.92677798,50.95553284],[3.92682196,50.95548952],[3.92688906,50.9555171],[3.9268451,50.95555966]]]}},{"type":"Feature","id":"gebouw/Gebouw.9127381/0","properties":{"source":"Digitaal Vlaanderen Gebouwenregister","source_id":"gebouw/Gebouw.9127381/0","kind":"building","height_m":7.88,"status":null},"geometry":{"type":"Polygon","coordinates":[[[3.92875695,50.9566959],[3.92866011,50.95676183],[3.92863894,50.95677581],[3.92861881,50.95676452],[3.92863788,50.95675145],[3.92861692,50.95673809],[3.92871495,50.95667181],[3.92875695,50.9566959]]]}},{"type":"Feature","id":"gebouw/Gebouw.9127589/0","properties":{"source":"Digitaal Vlaanderen Gebouwenregister","source_id":"gebouw/Gebouw.9127589/0","kind":"building","height_m":6.44,"status":null},"geometry":{"type":"Polygon","coordinates":[[[3.93008385,50.95774312],[3.9299494,50.95778638],[3.92986015,50.95767575],[3.9299946,50.95763249],[3.93008385,50.95774312]]]}},{"type":"Feature","id":"gebouw/Gebouw.9127590/0","properties":{"source":"Digitaal Vlaanderen Gebouwenregister","source_id":"gebouw/Gebouw.9127590/0","kind":"building","height_m":7.16,"status":null},"geometry":{"type":"Polygon","coordinates":[[[3.92938758,50.95706461],[3.9293634,50.95704991],[3.92941391,50.9570166],[3.92943781,50.95703074],[3.92938758,50.95706461]]]}},{"type":"Feature","id":"gebouw/Gebouw.9127591/0","properties":{"source":"Digitaal Vlaanderen Gebouwenregister","source_id":"gebouw/Gebouw.9127591/0","kind":"building","height_m":7.88,"status":null},"geometry":{"type":"Polygon","coordinates":[[[3.92679871,50.95644831],[3.92678981,50.95645919],[3.92678292,50.95646764],[3.92668844,50.95643319],[3.92668565,50.95643703],[3.92660439,50.9564071],[3.9266261,50.95638469],[3.92679871,50.95644831]]]}},{"type":"Feature","id":"gebouw/Gebouw.9132129/0","properties":{"source":"Digitaal Vlaanderen Gebouwenregister","source_id":"gebouw/Gebouw.9132129/0","kind":"building","height_m":9.32,"status":null},"geometry":{"type":"Polygon","coordinates":[[[3.9272945,50.95622968],[3.92740403,50.9560814],[3.9275466,50.95612341],[3.92750251,50.9561831],[3.92748068,50.95617689],[3.92741549,50.95626584],[3.9272945,50.95622968]]]}},{"type":"Feature","id":"gebouw/Gebouw.9132289/0","properties":{"source":"Digitaal Vlaanderen Gebouwenregister","source_id":"gebouw/Gebouw.9132289/0","kind":"building","height_m":8.6,"status":null},"geometry":{"type":"Polygon","coordinates":[[[3.9234228,50.9609884],[3.92339581,50.96096804],[3.92346933,50.96092919],[3.92349542,50.96094973],[3.9234228,50.9609884]]]}},{"type":"Feature","id":"gebouw/Gebouw.9134330/0","properties":{"source":"Digitaal Vlaanderen Gebouwenregister","source_id":"gebouw/Gebouw.9134330/0","kind":"building","height_m":6.44,"status":null},"geometry":{"type":"Polygon","coordinates":[[[3.92396913,50.95552237],[3.92400482,50.95553788],[3.9239727,50.95557242],[3.92393464,50.95555549],[3.92393222,50.95555734],[3.92383793,50.95551652],[3.92387696,50.95548026],[3.92397249,50.95551922],[3.92396913,50.95552237]]]}},{"type":"Feature","id":"gebouw/Gebouw.9134416/0","properties":{"source":"Digitaal Vlaanderen Gebouwenregister","source_id":"gebouw/Gebouw.9134416/0","kind":"building","height_m":7.88,"status":null},"geometry":{"type":"Polygon","coordinates":[[[3.9284069,50.95594867],[3.92834216,50.95594924],[3.92834223,50.95586811],[3.92834227,50.95583028],[3.92829028,50.95583024],[3.92829179,50.95580909],[3.92829137,50.95578286],[3.92832637,50.9557829],[3.92832621,50.95580837],[3.92834229,50.95580782],[3.92834228,50.95581418],[3.92840437,50.95581266],[3.92840245,50.95586789],[3.92840602,50.95586756],[3.9284069,50.95594867]]]}},{"type":"Feature","id":"gebouw/Gebouw.9134417/0","properties":{"source":"Digitaal Vlaanderen Gebouwenregister","source_id":"gebouw/Gebouw.9134417/0","kind":"building","height_m":8.6,"status":null},"geometry":{"type":"Polygon","coordinates":[[[3.92999994,50.95635881],[3.92999008,50.95637311],[3.92994098,50.95644429],[3.92989801,50.95643293],[3.92995846,50.95634725],[3.92991676,50.95633564],[3.92986499,50.95640632],[3.92969232,50.95635803],[3.92973229,50.95629987],[3.9298464,50.9563323],[3.92986099,50.95632011],[3.92990896,50.95625193],[3.93002305,50.95627692],[3.93001867,50.956283],[3.93004722,50.95629026],[3.92999994,50.95635881]]]}},{"type":"Feature","id":"gebouw/Gebouw.9135031/0","properties":{"source":"Digitaal Vlaanderen Gebouwenregister","source_id":"gebouw/Gebouw.9135031/0","kind":"building","height_m":7.16,"status":null},"geometry":{"type":"Polygon","coordinates":[[[3.92750994,50.95692608],[3.92744292,50.95698655],[3.92741986,50.9569741],[3.92748388,50.95691492],[3.92750994,50.95692608]]]}},{"type":"Feature","id":"gebouw/Gebouw.9135032/0","properties":{"source":"Digitaal Vlaanderen Gebouwenregister","source_id":"gebouw/Gebouw.9135032/0","kind":"building","height_m":7.88,"status":null},"geometry":{"type":"Polygon","coordinates":[[[3.92689078,50.95580887],[3.92689199,50.95580913],[3.92694729,50.95582102],[3.92689871,50.95590877],[3.92704262,50.9559431],[3.9269834,50.95604214],[3.92692565,50.95602771],[3.92692278,50.95603229],[3.92682874,50.95600879],[3.92684614,50.95598102],[3.92679966,50.95596941],[3.92682143,50.95593104],[3.92687528,50.95583617],[3.92689078,50.95580887]]]}},{"type":"Feature","id":"gebouw/Gebouw.9135033/0","properties":{"source":"Digitaal Vlaanderen Gebouwenregister","source_id":"gebouw/Gebouw.9135033/0","kind":"building","height_m":8.6,"status":null},"geometry":{"type":"Polygon","coordinates":[[[3.92656861,50.95592368],[3.92660058,50.95593204],[3.92657207,50.95597366],[3.92654699,50.95596748],[3.92651701,50.95596009],[3.92654437,50.95591733],[3.92656861,50.95592368]]]}},{"type":"Feature","id":"gebouw/Gebouw.9135170/0","properties":{"source":"Digitaal Vlaanderen Gebouwenregister","source_id":"gebouw/Gebouw.9135170/0","kind":"building","height_m":6.44,"status":null},"geometry":{"type":"Polygon","coordinates":[[[3.92882687,50.95649273],[3.92892887,50.95655261],[3.92881017,50.95663474],[3.92880056,50.95662923],[3.92870719,50.95657572],[3.92882687,50.95649273]]]}},{"type":"Feature","id":"gebouw/Gebouw.9135171/0","properties":{"source":"Digitaal Vlaanderen Gebouwenregister","source_id":"gebouw/Gebouw.9135171/0","kind":"building","height_m":7.16,"status":null},"geometry":{"type":"Polygon","coordinates":[[[3.93005173,50.95657063],[3.93002081,50.95661212],[3.92995726,50.95659322],[3.92998684,50.95655176],[3.93005173,50.95657063]]]}},{"type":"Feature","id":"gebouw/Gebouw.9155099/0","properties":{"source":"Digitaal Vlaanderen Gebouwenregister","source_id":"gebouw/Gebouw.9155099/0","kind":"building","height_m":6.44,"status":null},"geometry":{"type":"Polygon","coordinates":[[[3.92219494,50.96036453],[3.92226606,50.96030655],[3.92231373,50.9603294],[3.92228975,50.96034804],[3.92230083,50.96035416],[3.9222668,50.96038185],[3.92225861,50.96037801],[3.92224075,50.96039035],[3.92219494,50.96036453]]]}},{"type":"Feature","id":"gebouw/Gebouw.9155642/0","properties":{"source":"Digitaal Vlaanderen Gebouwenregister","source_id":"gebouw/Gebouw.9155642/0","kind":"building","height_m":9.32,"status":null},"geometry":{"type":"Polygon","coordinates":[[[3.93006413,50.9570579],[3.93001389,50.95707626],[3.9299191,50.95697138],[3.92986357,50.95700407],[3.92985021,50.95699496],[3.92975986,50.95693257],[3.92987023,50.95686761],[3.92997855,50.9569363],[3.93013135,50.95688378],[3.93013721,50.95688764],[3.93025657,50.95685662],[3.93042719,50.95681227],[3.9304869,50.95690337],[3.9304888,50.95690626],[3.930161,50.95702249],[3.93006413,50.9570579]]]}},{"type":"Feature","id":"gebouw/Gebouw.9155762/0","properties":{"source":"Digitaal Vlaanderen Gebouwenregister","source_id":"gebouw/Gebouw.9155762/0","kind":"building","height_m":5.0,"status":null},"geometry":{"type":"Polygon","coordinates":[[[3.92628103,50.95592754],[3.92621843,50.95591819],[3.92619724,50.95597301],[3.92625772,50.95598365],[3.92628103,50.95592754]]]}},{"type":"Feature","id":"gebouw/Gebouw.9155763/0","properties":{"source":"Digitaal Vlaanderen Gebouwenregister","source_id":"gebouw/Gebouw.9155763/0","kind":"building","height_m":5.72,"status":null},"geometry":{"type":"Polygon","coordinates":[[[3.92473759,50.95606433],[3.92472117,50.9560892],[3.92454847,50.95603778],[3.92456664,50.95601343],[3.92473759,50.95606433]]]}},{"type":"Feature","id":"gebouw/Gebouw.9171985/0","properties":{"source":"Digitaal Vlaanderen Gebouwenregister","source_id":"gebouw/Gebouw.9171985/0","kind":"building","height_m":7.88,"status":null},"geometry":{"type":"Polygon","coordinates":[[[3.93009535,50.95754101],[3.93011777,50.9575347],[3.93009049,50.95750088],[3.93017668,50.95747313],[3.93026327,50.95758044],[3.93033589,50.95755661],[3.93041121,50.9576482],[3.93020024,50.95771625],[3.9301662,50.95767333],[3.93016081,50.95767514],[3.93011862,50.95762114],[3.93017356,50.95760347],[3.93015415,50.95757966],[3.93013258,50.95758667],[3.93009535,50.95754101]]]}},{"type":"Feature","id":"gebouw/Gebouw.9172033/0","properties":{"source":"Digitaal Vlaanderen Gebouwenregister","source_id":"gebouw/Gebouw.9172033/0","kind":"building","height_m":7.16,"status":null},"geometry":{"type":"Polygon","coordinates":[[[3.92936305,50.95627708],[3.92937021,50.95627895],[3.92936898,50.95628044],[3.92944164,50.95630058],[3.92944842,50.95629167],[3.92953134,50.95631639],[3.9294462,50.95643437],[3.92939114,50.95641852],[3.92934818,50.95640644],[3.92935399,50.95639856],[3.92929284,50.95638147],[3.92935806,50.95628449],[3.92936305,50.95627708]]]}},{"type":"Feature","id":"gebouw/Gebouw.9172037/0","properties":{"source":"Digitaal Vlaanderen Gebouwenregister","source_id":"gebouw/Gebouw.9172037/0","kind":"building","height_m":5.0,"status":null},"geometry":{"type":"Polygon","coordinates":[[[3.93043735,50.95659483],[3.93044031,50.95659572],[3.93040645,50.95664154],[3.93028953,50.9566051],[3.93023451,50.95658796],[3.93024467,50.95657503],[3.93016822,50.95655279],[3.93019113,50.9565228],[3.93043735,50.95659483]]]}},{"type":"Feature","id":"gebouw/Gebouw.9172088/0","properties":{"source":"Digitaal Vlaanderen Gebouwenregister","source_id":"gebouw/Gebouw.9172088/0","kind":"building","height_m":6.44,"status":null},"geometry":{"type":"Polygon","coordinates":[[[3.92448076,50.95616965],[3.92444791,50.95621186],[3.92441999,50.95620311],[3.92445279,50.95616096],[3.92448076,50.95616965]]]}},{"type":"Feature","id":"gebouw/Gebouw.9172213/0","properties":{"source":"Digitaal Vlaanderen Gebouwenregister","source_id":"gebouw/Gebouw.9172213/0","kind":"building","height_m":5.72,"status":null},"geometry":{"type":"Polygon","coordinates":[[[3.92926242,50.95558728],[3.92932274,50.95560353],[3.92929364,50.95564514],[3.92926155,50.95563709],[3.92926464,50.95563263],[3.92923696,50.95562594],[3.92926242,50.95558728]]]}},{"type":"Feature","id":"gebouw/Gebouw.9172214/0","properties":{"source":"Digitaal Vlaanderen Gebouwenregister","source_id":"gebouw/Gebouw.9172214/0","kind":"building","height_m":6.44,"status":null},"geometry":{"type":"Polygon","coordinates":[[[3.92806068,50.95568088],[3.92805272,50.95572986],[3.92801423,50.95572754],[3.92802101,50.95567854],[3.92806068,50.95568088]]]}},{"type":"Feature","id":"gebouw/Gebouw.9172339/0","properties":{"source":"Digitaal Vlaanderen Gebouwenregister","source_id":"gebouw/Gebouw.9172339/0","kind":"building","height_m":5.72,"status":null},"geometry":{"type":"Polygon","coordinates":[[[3.92497915,50.95565198],[3.92494725,50.95570734],[3.92485178,50.95567998],[3.92487008,50.95565303],[3.92477823,50.95562704],[3.924833,50.95555465],[3.92488319,50.95556978],[3.92489349,50.95555616],[3.92495873,50.95557585],[3.92491533,50.95563355],[3.92497907,50.95565195],[3.92497915,50.95565198]]]}},{"type":"Feature","id":"gebouw/Gebouw.9172340/0","properties":{"source":"Digitaal Vlaanderen Gebouwenregister","source_id":"gebouw/Gebouw.9172340/0","kind":"building","height_m":6.44,"status":null},"geometry":{"type":"Polygon","coordinates":[[[3.92572394,50.95665711],[3.92558339,50.95663636],[3.9255818,50.9566399],[3.92549764,50.95661755],[3.92547899,50.95664656],[3.92548693,50.95664908],[3.92547627,50.95666844],[3.92544564,50.95666133],[3.92544984,50.95665385],[3.9253395,50.95662696],[3.92533025,50.95664213],[3.92527427,50.95662849],[3.92523808,50.95668772],[3.92530403,50.95670379],[3.92529949,50.95671122],[3.92534422,50.95672213],[3.92534669,50.95671824],[3.92535757,50.95672118],[3.92537366,50.95669408],[3.92541073,50.95670362],[3.92540546,50.95671146],[3.92550881,50.95673553],[3.92551197,50.9567305],[3.92551918,50.95673207],[3.92555462,50.95666674],[3.92556757,50.95666989],[3.92556597,50.9566738],[3.92563262,50.95668657],[3.92563487,50.95668079],[3.92570686,50.95669325],[3.92572394,50.95665711]]]}},{"type":"Feature","id":"gebouw/Gebouw.9172347/0","properties":{"source":"Digitaal Vlaanderen Gebouwenregister","source_id":"gebouw/Gebouw.9172347/0","kind":"building","height_m":6.44,"status":null},"geometry":{"type":"Polygon","coordinates":[[[3.92780721,50.95597048],[3.92786607,50.95588752],[3.92791528,50.95590145],[3.92793704,50.95587078],[3.92805677,50.95590467],[3.92796682,50.95602892],[3.9278036,50.95598224],[3.92781162,50.95597185],[3.92780721,50.95597048]]]}},{"type":"Feature","id":"gebouw/Gebouw.9172691/0","properties":{"source":"Digitaal Vlaanderen Gebouwenregister","source_id":"gebouw/Gebouw.9172691/0","kind":"building","height_m":7.16,"status":null},"geometry":{"type":"Polygon","coordinates":[[[3.92948986,50.95700531],[3.92947572,50.95701845],[3.92947035,50.95702344],[3.92942844,50.95700502],[3.92942716,50.95700446],[3.92942699,50.95700461],[3.92940865,50.95702126],[3.92939921,50.95701711],[3.92939589,50.95702012],[3.92936787,50.9570078],[3.92936971,50.95700613],[3.92934588,50.95699566],[3.92935564,50.9569868],[3.9293424,50.95698099],[3.92934528,50.95697838],[3.92934839,50.95697556],[3.92937293,50.95695461],[3.92938173,50.95695842],[3.92948986,50.95700531]]]}},{"type":"Feature","id":"gebouw/Gebouw.9172692/0","properties":{"source":"Digitaal Vlaanderen Gebouwenregister","source_id":"gebouw/Gebouw.9172692/0","kind":"building","height_m":7.88,"status":null},"geometry":{"type":"Polygon","coordinates":[[[3.92822485,50.95654675],[3.92816226,50.95651717],[3.928186,50.95649647],[3.92824829,50.95652623],[3.92822485,50.95654675]]]}},{"type":"Feature","id":"gebouw/Gebouw.9172693/0","properties":{"source":"Digitaal Vlaanderen Gebouwenregister","source_id":"gebouw/Gebouw.9172693/0","kind":"building","height_m":8.6,"status":null},"geometry":{"type":"Polygon","coordinates":[[[3.92545975,50.95561894],[3.92544768,50.95564615],[3.92537156,50.95563289],[3.92541323,50.95553692],[3.92551571,50.95555142],[3.92548721,50.95562283],[3.92545975,50.95561894]]]}},{"type":"Feature","id":"gebouw/Gebouw.9172694/0","properties":{"source":"Digitaal Vlaanderen Gebouwenregister","source_id":"gebouw/Gebouw.9172694/0","kind":"building","height_m":9.32,"status":null},"geometry":{"type":"Polygon","coordinates":[[[3.92450238,50.95622505],[3.92451419,50.95616638],[3.92456748,50.95616963],[3.92455568,50.95622793],[3.92450238,50.95622505]]]}},{"type":"Feature","id":"gebouw/Gebouw.9172695/0","properties":{"source":"Digitaal Vlaanderen Gebouwenregister","source_id":"gebouw/Gebouw.9172695/0","kind":"building","height_m":5.0,"status":null},"geometry":{"type":"Polygon","coordinates":[[[3.9240741,50.95561332],[3.92409149,50.95559686],[3.92413717,50.9556165],[3.924121,50.95563186],[3.92413564,50.9556384],[3.92411642,50.95565634],[3.92410735,50.9556523],[3.92410625,50.95564929],[3.9240693,50.95563537],[3.92405687,50.95563447],[3.92405289,50.95563874],[3.92400774,50.95562097],[3.92403219,50.95559654],[3.9240741,50.95561332]]]}},{"type":"Feature","id":"gebouw/Gebouw.9192447/0","properties":{"source":"Digitaal Vlaanderen Gebouwenregister","source_id":"gebouw/Gebouw.9192447/0","kind":"building","height_m":8.6,"status":null},"geometry":{"type":"Polygon","coordinates":[[[3.92748552,50.9566503],[3.92751805,50.95666058],[3.92748736,50.95669581],[3.92745363,50.95668522],[3.92748552,50.9566503]]]}},{"type":"Feature","id":"gebouw/Gebouw.9192500/0","properties":{"source":"Digitaal Vlaanderen Gebouwenregister","source_id":"gebouw/Gebouw.9192500/0","kind":"building","height_m":6.44,"status":null},"geometry":{"type":"Polygon","coordinates":[[[3.92847137,50.9565598],[3.92854004,50.95659915],[3.92846345,50.956652],[3.92844011,50.95663899],[3.92837714,50.95668283],[3.92833629,50.95665988],[3.92836964,50.95663517],[3.92847137,50.9565598]]]}},{"type":"Feature","id":"gebouw/Gebouw.9192611/0","properties":{"source":"Digitaal Vlaanderen Gebouwenregister","source_id":"gebouw/Gebouw.9192611/0","kind":"building","height_m":5.72,"status":null},"geometry":{"type":"Polygon","coordinates":[[[3.92106973,50.95940011],[3.92111516,50.95937799],[3.92115367,50.95940972],[3.92110882,50.95943223],[3.92106973,50.95940011]]]}},{"type":"Feature","id":"gebouw/Gebouw.9443958/0","properties":{"source":"Digitaal Vlaanderen Gebouwenregister","source_id":"gebouw/Gebouw.9443958/0","kind":"building","height_m":9.32,"status":null},"geometry":{"type":"Polygon","coordinates":[[[3.92913081,50.95609989],[3.92918118,50.95611153],[3.92914837,50.95616828],[3.92909651,50.95615681],[3.92913081,50.95609989]]]}},{"type":"Feature","id":"gebouw/Gebouw.9462374/0","properties":{"source":"Digitaal Vlaanderen Gebouwenregister","source_id":"gebouw/Gebouw.9462374/0","kind":"building","height_m":8.6,"status":null},"geometry":{"type":"Polygon","coordinates":[[[3.9304091,50.95650086],[3.9301242,50.95641591],[3.93016641,50.95635935],[3.93045049,50.95644789],[3.9304091,50.95650086]]]}},{"type":"Feature","id":"gebouw/Gebouw.9462809/0","properties":{"source":"Digitaal Vlaanderen Gebouwenregister","source_id":"gebouw/Gebouw.9462809/0","kind":"building","height_m":9.32,"status":null},"geometry":{"type":"Polygon","coordinates":[[[3.9257114,50.95690159],[3.92572343,50.95685565],[3.92580438,50.95686267],[3.92579326,50.95690777],[3.9257114,50.95690159]]]}},{"type":"Feature","id":"gebouw/Gebouw.9462810/0","properties":{"source":"Digitaal Vlaanderen Gebouwenregister","source_id":"gebouw/Gebouw.9462810/0","kind":"building","height_m":5.0,"status":null},"geometry":{"type":"Polygon","coordinates":[[[3.92554139,50.95704513],[3.92550052,50.95703322],[3.92552487,50.95700186],[3.92556458,50.957013],[3.92554139,50.95704513]]]}},{"type":"Feature","id":"gebouw/Gebouw.9462929/0","properties":{"source":"Digitaal Vlaanderen Gebouwenregister","source_id":"gebouw/Gebouw.9462929/0","kind":"building","height_m":5.0,"status":null},"geometry":{"type":"Polygon","coordinates":[[[3.93038944,50.95670643],[3.93039026,50.95670663],[3.93038864,50.95670944],[3.93038295,50.9567081],[3.9303832,50.95670757],[3.9303665,50.95670348],[3.93036596,50.9567042],[3.93036233,50.95670329],[3.93036272,50.95670249],[3.93035403,50.95669676],[3.93035342,50.95669704],[3.93035311,50.95669718],[3.93035072,50.95669546],[3.93035173,50.95669469],[3.9303561,50.95668629],[3.93035606,50.95668549],[3.9303599,50.95668538],[3.93036004,50.95668625],[3.93037357,50.95668536],[3.93037411,50.95668465],[3.93037766,50.95668541],[3.93037722,50.9566862],[3.93039374,50.95669064],[3.93039425,50.95668996],[3.93039908,50.95669131],[3.93039713,50.9566946],[3.93039636,50.95669443],[3.93038944,50.95670643]]]}},{"type":"Feature","id":"gebouw/Gebouw.9476054/0","properties":{"source":"Digitaal Vlaanderen Gebouwenregister","source_id":"gebouw/Gebouw.9476054/0","kind":"building","height_m":5.0,"status":null},"geometry":{"type":"Polygon","coordinates":[[[3.92937293,50.95695461],[3.92934839,50.95697556],[3.92926846,50.95694034],[3.92929033,50.95692051],[3.92937293,50.95695461]]]}},{"type":"Feature","id":"gebouw/Gebouw.9476075/0","properties":{"source":"Digitaal Vlaanderen Gebouwenregister","source_id":"gebouw/Gebouw.9476075/0","kind":"building","height_m":5.0,"status":null},"geometry":{"type":"Polygon","coordinates":[[[3.9260993,50.95568603],[3.92614917,50.95555649],[3.92629725,50.95557924],[3.92623676,50.95573637],[3.92610044,50.95571526],[3.92611044,50.95568784],[3.9260993,50.95568603]]]}},{"type":"Feature","id":"gebouw/Gebouw.9476519/0","properties":{"source":"Digitaal Vlaanderen Gebouwenregister","source_id":"gebouw/Gebouw.9476519/0","kind":"building","height_m":7.16,"status":null},"geometry":{"type":"Polygon","coordinates":[[[3.92609387,50.95802263],[3.9261407,50.95804378],[3.92610997,50.9580702],[3.92606343,50.95804924],[3.92609387,50.95802263]]]}},{"type":"Feature","id":"gebouw/Gebouw.9494369/0","properties":{"source":"Digitaal Vlaanderen Gebouwenregister","source_id":"gebouw/Gebouw.9494369/0","kind":"building","height_m":7.16,"status":null},"geometry":{"type":"Polygon","coordinates":[[[3.9299898,50.95566061],[3.93004275,50.95567509],[3.93003166,50.95568919],[3.93004136,50.95569212],[3.93002715,50.95571143],[3.92996718,50.9556935],[3.9299898,50.95566061]]]}},{"type":"Feature","id":"gebouw/Gebouw.9494370/0","properties":{"source":"Digitaal Vlaanderen Gebouwenregister","source_id":"gebouw/Gebouw.9494370/0","kind":"building","height_m":7.88,"status":null},"geometry":{"type":"Polygon","coordinates":[[[3.93006394,50.95648559],[3.93002618,50.95647152],[3.93005111,50.95644053],[3.93009003,50.95645321],[3.93006394,50.95648559]]]}},{"type":"Feature","id":"gebouw/Gebouw.9494371/0","properties":{"source":"Digitaal Vlaanderen Gebouwenregister","source_id":"gebouw/Gebouw.9494371/0","kind":"building","height_m":8.6,"status":null},"geometry":{"type":"Polygon","coordinates":[[[3.92738725,50.95574882],[3.92746633,50.9557833],[3.92738341,50.95585987],[3.92734212,50.95584234],[3.92735549,50.95583126],[3.9272325,50.95577812],[3.92730295,50.95571207],[3.92731,50.95571515],[3.92738725,50.95574882]]]}},{"type":"Feature","id":"gebouw/Gebouw.9494398/0","properties":{"source":"Digitaal Vlaanderen Gebouwenregister","source_id":"gebouw/Gebouw.9494398/0","kind":"building","height_m":7.88,"status":null},"geometry":{"type":"Polygon","coordinates":[[[3.92991195,50.95798953],[3.92989315,50.95796308],[3.92995144,50.95794747],[3.92997113,50.95797374],[3.92991195,50.95798953]]]}},{"type":"Feature","id":"gebouw/Gebouw.9494399/0","properties":{"source":"Digitaal Vlaanderen Gebouwenregister","source_id":"gebouw/Gebouw.9494399/0","kind":"building","height_m":8.6,"status":null},"geometry":{"type":"Polygon","coordinates":[[[3.9272947,50.9563798],[3.92732275,50.95634361],[3.92738037,50.95636077],[3.92735376,50.95639829],[3.9272947,50.9563798]]]}},{"type":"Feature","id":"gebouw/Gebouw.9494400/0","properties":{"source":"Digitaal Vlaanderen Gebouwenregister","source_id":"gebouw/Gebouw.9494400/0","kind":"building","height_m":9.32,"status":null},"geometry":{"type":"Polygon","coordinates":[[[3.92639136,50.95606782],[3.92639992,50.956049],[3.92646901,50.95605955],[3.9264619,50.95607932],[3.92639136,50.95606782]]]}},{"type":"Feature","id":"gebouw/Gebouw.9494401/0","properties":{"source":"Digitaal Vlaanderen Gebouwenregister","source_id":"gebouw/Gebouw.9494401/0","kind":"building","height_m":5.0,"status":null},"geometry":{"type":"Polygon","coordinates":[[[3.92347571,50.95564131],[3.92352393,50.95559505],[3.92359949,50.95562741],[3.92355447,50.95567312],[3.92347571,50.95564131]]]}},{"type":"Feature","id":"gebouw/Gebouw.9494607/0","properties":{"source":"Digitaal Vlaanderen Gebouwenregister","source_id":"gebouw/Gebouw.9494607/0","kind":"building","height_m":7.16,"status":null},"geometry":{"type":"Polygon","coordinates":[[[3.92834223,50.95586811],[3.92834216,50.95594924],[3.92829477,50.95594961],[3.92829537,50.9558687],[3.92834223,50.95586811]]]}},{"type":"Feature","id":"gebouw/Gebouw.9494959/0","properties":{"source":"Digitaal Vlaanderen Gebouwenregister","source_id":"gebouw/Gebouw.9494959/0","kind":"building","height_m":8.6,"status":null},"geometry":{"type":"Polygon","coordinates":[[[3.9298925,50.9576115],[3.92987111,50.95758259],[3.92994677,50.95756119],[3.92996725,50.95759102],[3.9298925,50.9576115]]]}},{"type":"Feature","id":"gebouw/Gebouw.9564275/0","properties":{"source":"Digitaal Vlaanderen Gebouwenregister","source_id":"gebouw/Gebouw.9564275/0","kind":"building","height_m":5.0,"status":null},"geometry":{"type":"Polygon","coordinates":[[[3.92905017,50.95604856],[3.92907053,50.95605198],[3.92903397,50.95612535],[3.9290405,50.95612671],[3.9290103,50.95618839],[3.92903483,50.95619401],[3.92907117,50.95620234],[3.92903329,50.95628461],[3.92890937,50.95626184],[3.92901066,50.95604192],[3.92905017,50.95604856]]]}},{"type":"Feature","id":"gebouw/Gebouw.9731477/0","properties":{"source":"Digitaal Vlaanderen Gebouwenregister","source_id":"gebouw/Gebouw.9731477/0","kind":"building","height_m":5.0,"status":null},"geometry":{"type":"Polygon","coordinates":[[[3.92935802,50.95666619],[3.92945286,50.9566971],[3.9294698,50.95667617],[3.92952647,50.95669478],[3.92941514,50.95683006],[3.92935475,50.95680949],[3.92937227,50.95678853],[3.92928288,50.95675816],[3.92935802,50.95666619]]]}},{"type":"Feature","id":"gebouw/Gebouw.9731631/0","properties":{"source":"Digitaal Vlaanderen Gebouwenregister","source_id":"gebouw/Gebouw.9731631/0","kind":"building","height_m":5.0,"status":null},"geometry":{"type":"Polygon","coordinates":[[[3.92925027,50.9566307],[3.9292438,50.95662912],[3.92917889,50.95670834],[3.92911925,50.9566891],[3.92910943,50.9566903],[3.92908242,50.95668099],[3.92908018,50.95667647],[3.92901174,50.95665413],[3.92908156,50.95656897],[3.92917207,50.95659738],[3.92918499,50.95658142],[3.92926873,50.95660806],[3.92925027,50.9566307]]]}},{"type":"Feature","id":"gebouw/Gebouw.9731644/0","properties":{"source":"Digitaal Vlaanderen Gebouwenregister","source_id":"gebouw/Gebouw.9731644/0","kind":"building","height_m":9.32,"status":null},"geometry":{"type":"Polygon","coordinates":[[[3.92647751,50.95571051],[3.92646383,50.955742],[3.92639859,50.95573169],[3.92631718,50.95571881],[3.92638294,50.95557995],[3.92652892,50.95560798],[3.92650134,50.95566527],[3.92644648,50.9556562],[3.92642674,50.95570242],[3.92647751,50.95571051]]]}},{"type":"Feature","id":"gebouw/Gebouw.9737234/0","properties":{"source":"Digitaal Vlaanderen Gebouwenregister","source_id":"gebouw/Gebouw.9737234/0","kind":"building","height_m":7.16,"status":null},"geometry":{"type":"Polygon","coordinates":[[[3.92584505,50.95649221],[3.92585811,50.95645153],[3.92593304,50.95645242],[3.92590755,50.95650108],[3.92584505,50.95649221]]]}},{"type":"Feature","id":"gebouw/Gebouw.9737235/0","properties":{"source":"Digitaal Vlaanderen Gebouwenregister","source_id":"gebouw/Gebouw.9737235/0","kind":"building","height_m":7.88,"status":null},"geometry":{"type":"Polygon","coordinates":[[[3.92468251,50.9558992],[3.92473483,50.95591517],[3.92470705,50.95595193],[3.92465445,50.95593577],[3.92468251,50.9558992]]]}},{"type":"Feature","id":"gebouw/Gebouw.9737277/0","properties":{"source":"Digitaal Vlaanderen Gebouwenregister","source_id":"gebouw/Gebouw.9737277/0","kind":"building","height_m":7.88,"status":null},"geometry":{"type":"Polygon","coordinates":[[[3.930185,50.95660988],[3.9301717,50.95662974],[3.93014806,50.95662341],[3.9301467,50.95662305],[3.93016142,50.95660253],[3.930185,50.95660988]]]}},{"type":"Feature","id":"gebouw/Gebouw.9737387/0","properties":{"source":"Digitaal Vlaanderen Gebouwenregister","source_id":"gebouw/Gebouw.9737387/0","kind":"building","height_m":6.44,"status":null},"geometry":{"type":"Polygon","coordinates":[[[3.92469914,50.95955976],[3.92473971,50.95957185],[3.92471998,50.95959746],[3.92467883,50.95958462],[3.92469914,50.95955976]]]}},{"type":"Feature","id":"gebouw/Gebouw.9737768/0","properties":{"source":"Digitaal Vlaanderen Gebouwenregister","source_id":"gebouw/Gebouw.9737768/0","kind":"building","height_m":8.6,"status":null},"geometry":{"type":"Polygon","coordinates":[[[3.92643096,50.95588116],[3.92649392,50.95589839],[3.92643573,50.95598124],[3.92644308,50.95598339],[3.92641946,50.95601789],[3.926363,50.95600248],[3.92643091,50.95590326],[3.92641915,50.95589975],[3.92643096,50.95588116]]]}},{"type":"Feature","id":"gebouw/Gebouw.9746192/0","properties":{"source":"Digitaal Vlaanderen Gebouwenregister","source_id":"gebouw/Gebouw.9746192/0","kind":"building","height_m":5.72,"status":null},"geometry":{"type":"Polygon","coordinates":[[[3.92805628,50.95623463],[3.92794173,50.95634373],[3.9279301,50.95635481],[3.92786592,50.95632788],[3.92789975,50.956297],[3.92792303,50.95625308],[3.92796782,50.9562116],[3.92799435,50.95622303],[3.92800552,50.95621269],[3.92805628,50.95623463]]]}},{"type":"Feature","id":"gebouw/Gebouw.9746193/0","properties":{"source":"Digitaal Vlaanderen Gebouwenregister","source_id":"gebouw/Gebouw.9746193/0","kind":"building","height_m":6.44,"status":null},"geometry":{"type":"Polygon","coordinates":[[[3.9301467,50.95662305],[3.93014526,50.95662471],[3.93003881,50.95659542],[3.9300552,50.95657164],[3.93016142,50.95660253],[3.9301467,50.95662305]]]}},{"type":"Feature","id":"gebouw/Gebouw.9746449/0","properties":{"source":"Digitaal Vlaanderen Gebouwenregister","source_id":"gebouw/Gebouw.9746449/0","kind":"building","height_m":9.32,"status":null},"geometry":{"type":"Polygon","coordinates":[[[3.92967893,50.95621212],[3.92973749,50.95622388],[3.92969705,50.95629815],[3.92964179,50.95628542],[3.92962164,50.95628078],[3.92966024,50.95620837],[3.92967893,50.95621212]]]}},{"type":"Feature","id":"gebouw/Gebouw.9746634/0","properties":{"source":"Digitaal Vlaanderen Gebouwenregister","source_id":"gebouw/Gebouw.9746634/0","kind":"building","height_m":6.44,"status":null},"geometry":{"type":"Polygon","coordinates":[[[3.92796644,50.95645866],[3.92800896,50.95647585],[3.92795737,50.9565224],[3.92791709,50.9565052],[3.92792379,50.95649887],[3.92796644,50.95645866]]]}},{"type":"Feature","id":"gebouw/Gebouw.9746637/0","properties":{"source":"Digitaal Vlaanderen Gebouwenregister","source_id":"gebouw/Gebouw.9746637/0","kind":"building","height_m":8.6,"status":null},"geometry":{"type":"Polygon","coordinates":[[[3.92872144,50.95594225],[3.92872021,50.95594993],[3.92877109,50.95595318],[3.92876118,50.95601502],[3.9287103,50.95601177],[3.92870982,50.95601479],[3.9286515,50.95601129],[3.92866215,50.95593965],[3.92872144,50.95594225]]]}},{"type":"Feature","id":"gebouw/Gebouw.9746821/0","properties":{"source":"Digitaal Vlaanderen Gebouwenregister","source_id":"gebouw/Gebouw.9746821/0","kind":"building","height_m":5.0,"status":null},"geometry":{"type":"Polygon","coordinates":[[[3.92707186,50.95552406],[3.92696793,50.95561713],[3.92692191,50.95559663],[3.92701425,50.95551395],[3.9269968,50.95550618],[3.92700984,50.9554945],[3.92702667,50.95550236],[3.92702752,50.95550277],[3.92703484,50.95550629],[3.92707186,50.95552406]]]}},{"type":"Feature","id":"gebouw/Gebouw.9746822/0","properties":{"source":"Digitaal Vlaanderen Gebouwenregister","source_id":"gebouw/Gebouw.9746822/0","kind":"building","height_m":5.72,"status":null},"geometry":{"type":"Polygon","coordinates":[[[3.92497566,50.95657498],[3.92496643,50.95661401],[3.924676,50.95656256],[3.92468133,50.9565527],[3.92469372,50.95655509],[3.92469694,50.95654942],[3.92480746,50.95656973],[3.92481344,50.9565601],[3.92481992,50.95654965],[3.92479859,50.95654865],[3.9247997,50.95654136],[3.92477096,50.95654046],[3.92477278,50.95652905],[3.92471473,50.9565265],[3.92472153,50.95646682],[3.92486821,50.95647098],[3.92486784,50.95647341],[3.92497957,50.9564824],[3.9249745,50.95652105],[3.92498443,50.95652157],[3.92498109,50.95654703],[3.92497782,50.95657195],[3.9249764,50.95657187],[3.92497566,50.95657498]]]}},{"type":"Feature","id":"gebouw/Gebouw.9761030/0","properties":{"source":"Digitaal Vlaanderen Gebouwenregister","source_id":"gebouw/Gebouw.9761030/0","kind":"building","height_m":9.32,"status":null},"geometry":{"type":"Polygon","coordinates":[[[3.92882687,50.95649273],[3.92870719,50.95657572],[3.92861639,50.95652369],[3.92873646,50.95644061],[3.92882687,50.95649273]]]}},{"type":"Feature","id":"gebouw/Gebouw.9761311/0","properties":{"source":"Digitaal Vlaanderen Gebouwenregister","source_id":"gebouw/Gebouw.9761311/0","kind":"building","height_m":5.0,"status":null},"geometry":{"type":"Polygon","coordinates":[[[3.9291633,50.95688554],[3.92911004,50.95686799],[3.92907901,50.95685777],[3.92910142,50.95683162],[3.92913135,50.95684246],[3.92917684,50.9567883],[3.92921546,50.95680114],[3.92922765,50.95680519],[3.9291633,50.95688554]]]}},{"type":"Feature","id":"gebouw/Gebouw.9761927/0","properties":{"source":"Digitaal Vlaanderen Gebouwenregister","source_id":"gebouw/Gebouw.9761927/0","kind":"building","height_m":5.0,"status":null},"geometry":{"type":"Polygon","coordinates":[[[3.92687528,50.95583617],[3.92682143,50.95593104],[3.92673908,50.95591175],[3.92679308,50.95582005],[3.92673553,50.95580613],[3.92677707,50.95573761],[3.92689822,50.95576692],[3.92685851,50.95583242],[3.92687528,50.95583617]]]}},{"type":"Feature","id":"gebouw/Gebouw.9776181/0","properties":{"source":"Digitaal Vlaanderen Gebouwenregister","source_id":"gebouw/Gebouw.9776181/0","kind":"building","height_m":6.44,"status":null},"geometry":{"type":"Polygon","coordinates":[[[3.92843529,50.95634917],[3.92857654,50.95641695],[3.92848865,50.95649103],[3.92834387,50.95642246],[3.92843529,50.95634917]]]}},{"type":"Feature","id":"gebouw/Gebouw.9776182/0","properties":{"source":"Digitaal Vlaanderen Gebouwenregister","source_id":"gebouw/Gebouw.9776182/0","kind":"building","height_m":7.16,"status":null},"geometry":{"type":"Polygon","coordinates":[[[3.92489348,50.95678071],[3.92481778,50.95685362],[3.92476153,50.95683011],[3.92483516,50.95675699],[3.92489348,50.95678071]]]}},{"type":"Feature","id":"gebouw/Gebouw.9776347/0","properties":{"source":"Digitaal Vlaanderen Gebouwenregister","source_id":"gebouw/Gebouw.9776347/0","kind":"building","height_m":5.0,"status":null},"geometry":{"type":"Polygon","coordinates":[[[3.92463271,50.95674337],[3.92470855,50.95677629],[3.92468788,50.95679328],[3.92461262,50.95676074],[3.92463271,50.95674337]]]}},{"type":"Feature","id":"gebouw/Gebouw.9776421/0","properties":{"source":"Digitaal Vlaanderen Gebouwenregister","source_id":"gebouw/Gebouw.9776421/0","kind":"building","height_m":7.88,"status":null},"geometry":{"type":"Polygon","coordinates":[[[3.92519762,50.95697642],[3.92523775,50.95690911],[3.92541926,50.95695227],[3.92537883,50.95701974],[3.92531095,50.95700351],[3.92529251,50.95703428],[3.92520426,50.95701241],[3.92522222,50.9569823],[3.92519762,50.95697642]]]}},{"type":"Feature","id":"gebouw/Gebouw.9776814/0","properties":{"source":"Digitaal Vlaanderen Gebouwenregister","source_id":"gebouw/Gebouw.9776814/0","kind":"building","height_m":8.6,"status":null},"geometry":{"type":"Polygon","coordinates":[[[3.9285546,50.95562524],[3.92854745,50.95566674],[3.92849533,50.95566425],[3.92850103,50.9556218],[3.9285546,50.95562524]]]}},{"type":"Feature","id":"gebouw/Gebouw.15206514/0","properties":{"source":"Digitaal Vlaanderen Gebouwenregister","source_id":"gebouw/Gebouw.15206514/0","kind":"building","height_m":5.72,"status":null},"geometry":{"type":"Polygon","coordinates":[[[3.93026995,50.95705093],[3.93010747,50.95710658],[3.93006413,50.9570579],[3.930161,50.95702249],[3.93017977,50.95704777],[3.93031459,50.95700433],[3.93031122,50.95700063],[3.93046954,50.9569448],[3.93047589,50.956952],[3.93046458,50.95695605],[3.93053665,50.95703721],[3.93054805,50.95703326],[3.93055935,50.95704576],[3.93033528,50.9571248],[3.93026995,50.95705093]]]}},{"type":"Feature","id":"gebouw/Gebouw.18100103/0","properties":{"source":"Digitaal Vlaanderen Gebouwenregister","source_id":"gebouw/Gebouw.18100103/0","kind":"building","height_m":5.0,"status":null},"geometry":{"type":"Polygon","coordinates":[[[3.93038418,50.95722947],[3.93035348,50.95719488],[3.93040007,50.95717838],[3.9303967,50.95717458],[3.93046771,50.95714944],[3.93046207,50.95714309],[3.93056801,50.95710558],[3.93060422,50.95714677],[3.93052747,50.95717406],[3.93056712,50.95721867],[3.93042063,50.95727054],[3.93038418,50.95722947]]]}},{"type":"Feature","id":"gebouw/Gebouw.18143363/0","properties":{"source":"Digitaal Vlaanderen Gebouwenregister","source_id":"gebouw/Gebouw.18143363/0","kind":"building","height_m":5.0,"status":null},"geometry":{"type":"Polygon","coordinates":[[[3.92772073,50.9561967],[3.92768604,50.95623595],[3.92762387,50.95630628],[3.92761757,50.9563134],[3.92751789,50.95628089],[3.92761929,50.95616583],[3.92767006,50.95618378],[3.92767285,50.95618071],[3.92772073,50.9561967]]]}},{"type":"Feature","id":"gebouw/Gebouw.18224446/0","properties":{"source":"Digitaal Vlaanderen Gebouwenregister","source_id":"gebouw/Gebouw.18224446/0","kind":"building","height_m":6.44,"status":null},"geometry":{"type":"Polygon","coordinates":[[[3.92529231,50.95624211],[3.92541691,50.9562524],[3.92542104,50.95623242],[3.92554099,50.9562481],[3.92552252,50.9563374],[3.92553692,50.95633859],[3.92552839,50.95637981],[3.92524754,50.95635663],[3.92526232,50.95628521],[3.92528308,50.95628703],[3.92529172,50.95624502],[3.92529231,50.95624211]]]}},{"type":"Feature","id":"gebouw/Gebouw.18225175/0","properties":{"source":"Digitaal Vlaanderen Gebouwenregister","source_id":"gebouw/Gebouw.18225175/0","kind":"building","height_m":7.16,"status":null},"geometry":{"type":"Polygon","coordinates":[[[3.92608054,50.95560427],[3.92604628,50.95568317],[3.92600224,50.95567546],[3.92601517,50.95564597],[3.92591182,50.95562789],[3.92591626,50.95561775],[3.92587016,50.95560968],[3.92591207,50.95551412],[3.92598773,50.95552805],[3.92598712,50.95553345],[3.92602653,50.9555406],[3.92602576,50.95554432],[3.9260631,50.95555098],[3.92604264,50.95559764],[3.92608054,50.95560427]]]}},{"type":"Feature","id":"gebouw/Gebouw.18362208/0","properties":{"source":"Digitaal Vlaanderen Gebouwenregister","source_id":"gebouw/Gebouw.18362208/0","kind":"building","height_m":7.88,"status":null},"geometry":{"type":"Polygon","coordinates":[[[3.93011822,50.95643162],[3.93015287,50.95644305],[3.93013171,50.95647049],[3.93019057,50.95648983],[3.93017406,50.95651462],[3.93007654,50.95648304],[3.93011822,50.95643162]]]}},{"type":"Feature","id":"gebouw/Gebouw.18362478/0","properties":{"source":"Digitaal Vlaanderen Gebouwenregister","source_id":"gebouw/Gebouw.18362478/0","kind":"building","height_m":5.72,"status":null},"geometry":{"type":"Polygon","coordinates":[[[3.9302268,50.95681111],[3.93016224,50.95682411],[3.93005111,50.95679449],[3.93003926,50.95681275],[3.92995464,50.95678869],[3.92999759,50.95672872],[3.93021476,50.95679024],[3.9302268,50.95681111]]]}},{"type":"Feature","id":"gebouw/Gebouw.18362488/0","properties":{"source":"Digitaal Vlaanderen Gebouwenregister","source_id":"gebouw/Gebouw.18362488/0","kind":"building","height_m":7.88,"status":null},"geometry":{"type":"Polygon","coordinates":[[[3.92798866,50.95643771],[3.92796644,50.95645866],[3.92792379,50.95649887],[3.92787007,50.95647377],[3.92793384,50.95641427],[3.92798866,50.95643771]]]}},{"type":"Feature","id":"gebouw/Gebouw.18362489/0","properties":{"source":"Digitaal Vlaanderen Gebouwenregister","source_id":"gebouw/Gebouw.18362489/0","kind":"building","height_m":8.6,"status":null},"geometry":{"type":"Polygon","coordinates":[[[3.92746028,50.95666652],[3.92738949,50.95673887],[3.92733447,50.95671717],[3.92740627,50.95664533],[3.92746028,50.95666652]]]}},{"type":"Feature","id":"gebouw/Gebouw.18362490/0","properties":{"source":"Digitaal Vlaanderen Gebouwenregister","source_id":"gebouw/Gebouw.18362490/0","kind":"building","height_m":9.32,"status":null},"geometry":{"type":"Polygon","coordinates":[[[3.92749618,50.95632336],[3.92748316,50.95633804],[3.92753181,50.95635526],[3.92748471,50.95640836],[3.92743605,50.95639114],[3.9274255,50.95640303],[3.92742084,50.95640139],[3.92738372,50.9564433],[3.92733744,50.95642696],[3.92744492,50.9563055],[3.92749618,50.95632336]]]}},{"type":"Feature","id":"gebouw/Gebouw.18362491/0","properties":{"source":"Digitaal Vlaanderen Gebouwenregister","source_id":"gebouw/Gebouw.18362491/0","kind":"building","height_m":5.0,"status":null},"geometry":{"type":"Polygon","coordinates":[[[3.92654273,50.95662549],[3.92660988,50.95665997],[3.92657063,50.95669316],[3.92650186,50.95665692],[3.92654273,50.95662549]]]}},{"type":"Feature","id":"gebouw/Gebouw.18362492/0","properties":{"source":"Digitaal Vlaanderen Gebouwenregister","source_id":"gebouw/Gebouw.18362492/0","kind":"building","height_m":5.72,"status":null},"geometry":{"type":"Polygon","coordinates":[[[3.92571083,50.95700213],[3.92575977,50.95700689],[3.92575017,50.95704465],[3.92570002,50.95703874],[3.92571083,50.95700213]]]}},{"type":"Feature","id":"gebouw/Gebouw.18362493/0","properties":{"source":"Digitaal Vlaanderen Gebouwenregister","source_id":"gebouw/Gebouw.18362493/0","kind":"building","height_m":6.44,"status":null},"geometry":{"type":"Polygon","coordinates":[[[3.92445254,50.9561224],[3.92446167,50.95612516],[3.92444157,50.95615216],[3.92442993,50.95614843],[3.92437674,50.95613137],[3.92439693,50.95610561],[3.92445254,50.9561224]]]}},{"type":"Feature","id":"gebouw/Gebouw.18362589/0","properties":{"source":"Digitaal Vlaanderen Gebouwenregister","source_id":"gebouw/Gebouw.18362589/0","kind":"building","height_m":5.0,"status":null},"geometry":{"type":"Polygon","coordinates":[[[3.92166133,50.9607924],[3.92175555,50.96084496],[3.92171268,50.96088292],[3.92161851,50.96082677],[3.92166133,50.9607924]]]}},{"type":"Feature","id":"gebouw/Gebouw.18362590/0","properties":{"source":"Digitaal Vlaanderen Gebouwenregister","source_id":"gebouw/Gebouw.18362590/0","kind":"building","height_m":5.72,"status":null},"geometry":{"type":"Polygon","coordinates":[[[3.92144416,50.96072983],[3.92140096,50.9607609],[3.9212538,50.96067735],[3.92124403,50.96067181],[3.92125121,50.96066781],[3.92117674,50.96062745],[3.92119795,50.96061182],[3.92127321,50.96065204],[3.92128953,50.9606416],[3.92144416,50.96072983]]]}},{"type":"Feature","id":"gebouw/Gebouw.18362923/0","properties":{"source":"Digitaal Vlaanderen Gebouwenregister","source_id":"gebouw/Gebouw.18362923/0","kind":"building","height_m":8.6,"status":null},"geometry":{"type":"Polygon","coordinates":[[[3.92455664,50.95605402],[3.92461437,50.95607009],[3.92458707,50.95611071],[3.92452942,50.95609605],[3.92455664,50.95605402]]]}},{"type":"Feature","id":"gebouw/Gebouw.18374287/0","properties":{"source":"Digitaal Vlaanderen Gebouwenregister","source_id":"gebouw/Gebouw.18374287/0","kind":"building","height_m":5.72,"status":null},"geometry":{"type":"Polygon","coordinates":[[[3.92993929,50.95790677],[3.92986268,50.95792852],[3.92980172,50.95783973],[3.92977968,50.95780761],[3.92985374,50.95778659],[3.92993929,50.95790677]]]}},{"type":"Feature","id":"gebouw/Gebouw.18374758/0","properties":{"source":"Digitaal Vlaanderen Gebouwenregister","source_id":"gebouw/Gebouw.18374758/0","kind":"building","height_m":7.16,"status":null},"geometry":{"type":"Polygon","coordinates":[[[3.92705454,50.95547929],[3.92702667,50.95550236],[3.92700984,50.9554945],[3.92700569,50.95549237],[3.92697819,50.95547972],[3.92700595,50.95545748],[3.92705454,50.95547929]]]}},{"type":"Feature","id":"gebouw/Gebouw.18456430/0","properties":{"source":"Digitaal Vlaanderen Gebouwenregister","source_id":"gebouw/Gebouw.18456430/0","kind":"building","height_m":9.32,"status":null},"geometry":{"type":"Polygon","coordinates":[[[3.92943492,50.95702472],[3.92944943,50.95704204],[3.92937654,50.95706948],[3.9293634,50.95704991],[3.92943492,50.95702472]]]}},{"type":"Feature","id":"gebouw/Gebouw.18586199/0","properties":{"source":"Digitaal Vlaanderen Gebouwenregister","source_id":"gebouw/Gebouw.18586199/0","kind":"building","height_m":6.44,"status":null},"geometry":{"type":"Polygon","coordinates":[[[3.92751516,50.95574821],[3.92755227,50.95576363],[3.92750658,50.95580684],[3.9274739,50.95579149],[3.92751516,50.95574821]]]}},{"type":"Feature","id":"gebouw/Gebouw.18684762/0","properties":{"source":"Digitaal Vlaanderen Gebouwenregister","source_id":"gebouw/Gebouw.18684762/0","kind":"building","height_m":8.6,"status":null},"geometry":{"type":"Polygon","coordinates":[[[3.92671862,50.95557842],[3.92670465,50.95559374],[3.92661874,50.9555621],[3.92666866,50.95550804],[3.92675407,50.95553949],[3.92674014,50.95555478],[3.92671862,50.95557842]]]}},{"type":"Feature","id":"gebouw/Gebouw.18685553/0","properties":{"source":"Digitaal Vlaanderen Gebouwenregister","source_id":"gebouw/Gebouw.18685553/0","kind":"building","height_m":8.6,"status":null},"geometry":{"type":"Polygon","coordinates":[[[3.92675922,50.9555964],[3.92673333,50.95562127],[3.92669433,50.95560507],[3.92669319,50.9556046],[3.92670465,50.95559374],[3.92671862,50.95557842],[3.92675922,50.9555964]]]}},{"type":"Feature","id":"gebouw/Gebouw.18735143/0","properties":{"source":"Digitaal Vlaanderen Gebouwenregister","source_id":"gebouw/Gebouw.18735143/0","kind":"building","height_m":5.0,"status":null},"geometry":{"type":"Polygon","coordinates":[[[3.92512584,50.95722782],[3.92515792,50.95724011],[3.92512313,50.95727634],[3.92509105,50.95726405],[3.92512584,50.95722782]]]}},{"type":"Feature","id":"gebouw/Gebouw.18735144/0","properties":{"source":"Digitaal Vlaanderen Gebouwenregister","source_id":"gebouw/Gebouw.18735144/0","kind":"building","height_m":5.72,"status":null},"geometry":{"type":"Polygon","coordinates":[[[3.92587293,50.95999856],[3.92591246,50.95996894],[3.92597429,50.96000185],[3.92593475,50.96003147],[3.92587293,50.95999856]]]}},{"type":"Feature","id":"gebouw/Gebouw.18735261/0","properties":{"source":"Digitaal Vlaanderen Gebouwenregister","source_id":"gebouw/Gebouw.18735261/0","kind":"building","height_m":9.32,"status":null},"geometry":{"type":"Polygon","coordinates":[[[3.92253645,50.95813414],[3.92256209,50.95811219],[3.92261434,50.95813652],[3.92258869,50.95815848],[3.92253645,50.95813414]]]}},{"type":"Feature","id":"gebouw/Gebouw.18735262/0","properties":{"source":"Digitaal Vlaanderen Gebouwenregister","source_id":"gebouw/Gebouw.18735262/0","kind":"building","height_m":5.0,"status":null},"geometry":{"type":"Polygon","coordinates":[[[3.92429507,50.95602532],[3.9242678,50.95601623],[3.92425266,50.95603386],[3.92424695,50.95603194],[3.92420148,50.95608588],[3.92423559,50.95609735],[3.92429507,50.95602532]]]}},{"type":"Feature","id":"gebouw/Gebouw.18735263/0","properties":{"source":"Digitaal Vlaanderen Gebouwenregister","source_id":"gebouw/Gebouw.18735263/0","kind":"building","height_m":5.72,"status":null},"geometry":{"type":"Polygon","coordinates":[[[3.92402235,50.95580503],[3.92407404,50.95583312],[3.92404313,50.95585581],[3.92399145,50.95582772],[3.92402235,50.95580503]]]}},{"type":"Feature","id":"gebouw/Gebouw.18735366/0","properties":{"source":"Digitaal Vlaanderen Gebouwenregister","source_id":"gebouw/Gebouw.18735366/0","kind":"building","height_m":9.32,"status":null},"geometry":{"type":"Polygon","coordinates":[[[3.92983766,50.95595086],[3.92987688,50.95589374],[3.9299706,50.95591941],[3.92993139,50.95597653],[3.92983766,50.95595086]]]}},{"type":"Feature","id":"gebouw/Gebouw.18735367/0","properties":{"source":"Digitaal Vlaanderen Gebouwenregister","source_id":"gebouw/Gebouw.18735367/0","kind":"building","height_m":5.0,"status":null},"geometry":{"type":"Polygon","coordinates":[[[3.92961425,50.9557149],[3.92963276,50.95568135],[3.92971707,50.9556999],[3.92969856,50.95573346],[3.92961425,50.9557149]]]}},{"type":"Feature","id":"gebouw/Gebouw.18775137/0","properties":{"source":"Digitaal Vlaanderen Gebouwenregister","source_id":"gebouw/Gebouw.18775137/0","kind":"building","height_m":7.16,"status":null},"geometry":{"type":"Polygon","coordinates":[[[3.92545637,50.95586125],[3.92545525,50.95586858],[3.92544723,50.95592128],[3.92527943,50.95591109],[3.92528922,50.95585135],[3.92545637,50.95586125]]]}},{"type":"Feature","id":"gebouw/Gebouw.18775138/0","properties":{"source":"Digitaal Vlaanderen Gebouwenregister","source_id":"gebouw/Gebouw.18775138/0","kind":"building","height_m":7.88,"status":null},"geometry":{"type":"Polygon","coordinates":[[[3.9254651,50.95579341],[3.92546414,50.95580087],[3.92545637,50.95586125],[3.92528922,50.95585135],[3.92530035,50.95578405],[3.9254651,50.95579341]]]}},{"type":"Feature","id":"gebouw/Gebouw.18775139/0","properties":{"source":"Digitaal Vlaanderen Gebouwenregister","source_id":"gebouw/Gebouw.18775139/0","kind":"building","height_m":8.6,"status":null},"geometry":{"type":"Polygon","coordinates":[[[3.92537974,50.95572287],[3.92547503,50.95572772],[3.92547365,50.95573685],[3.9254651,50.95579341],[3.92530035,50.95578405],[3.92531095,50.95571987],[3.92531122,50.95571823],[3.92537974,50.95572287]]]}},{"type":"Feature","id":"gebouw/Gebouw.18775140/0","properties":{"source":"Digitaal Vlaanderen Gebouwenregister","source_id":"gebouw/Gebouw.18775140/0","kind":"building","height_m":9.32,"status":null},"geometry":{"type":"Polygon","coordinates":[[[3.92555648,50.95566792],[3.92555461,50.95567775],[3.92554446,50.95573127],[3.92547503,50.95572772],[3.92537974,50.95572287],[3.92538993,50.95566028],[3.92555648,50.95566792]]]}},{"type":"Feature","id":"gebouw/Gebouw.18775141/0","properties":{"source":"Digitaal Vlaanderen Gebouwenregister","source_id":"gebouw/Gebouw.18775141/0","kind":"building","height_m":5.0,"status":null},"geometry":{"type":"Polygon","coordinates":[[[3.92556874,50.95560428],[3.92556707,50.95561298],[3.92555648,50.95566792],[3.92538993,50.95566028],[3.92540015,50.95559747],[3.92540082,50.95559341],[3.92556874,50.95560428]]]}},{"type":"Feature","id":"gebouw/Gebouw.18775142/0","properties":{"source":"Digitaal Vlaanderen Gebouwenregister","source_id":"gebouw/Gebouw.18775142/0","kind":"building","height_m":5.72,"status":null},"geometry":{"type":"Polygon","coordinates":[[[3.92541152,50.95552835],[3.92558104,50.95553959],[3.92556874,50.95560428],[3.92540082,50.95559341],[3.92541152,50.95552835]]]}},{"type":"Feature","id":"gebouw/Gebouw.19522924/0","properties":{"source":"Digitaal Vlaanderen Gebouwenregister","source_id":"gebouw/Gebouw.19522924/0","kind":"building","height_m":5.72,"status":null},"geometry":{"type":"Polygon","coordinates":[[[3.9249745,50.95652105],[3.92480413,50.95651214],[3.9247997,50.95654136],[3.92479859,50.95654865],[3.92481963,50.95655011],[3.92485215,50.95655236],[3.92485027,50.95656126],[3.92497781,50.95657195],[3.92498108,50.95654703],[3.92498443,50.95652157],[3.9249745,50.95652105]]]}},{"type":"Feature","id":"gebouw/Gebouw.19522925/0","properties":{"source":"Digitaal Vlaanderen Gebouwenregister","source_id":"gebouw/Gebouw.19522925/0","kind":"building","height_m":6.44,"status":null},"geometry":{"type":"Polygon","coordinates":[[[3.9249764,50.95657187],[3.92497566,50.95657498],[3.92496643,50.95661401],[3.92469002,50.95656498],[3.92469694,50.95654942],[3.92480746,50.95656973],[3.92481458,50.95655826],[3.9249764,50.95657187]]]}},{"type":"Feature","id":"gebouw/Gebouw.19523004/0","properties":{"source":"Digitaal Vlaanderen Gebouwenregister","source_id":"gebouw/Gebouw.19523004/0","kind":"building","height_m":7.88,"status":null},"geometry":{"type":"Polygon","coordinates":[[[3.92720034,50.95558578],[3.92715008,50.95562993],[3.92706514,50.95559015],[3.92698324,50.95566243],[3.92701598,50.95567702],[3.92696585,50.95572124],[3.92688999,50.95568693],[3.92695829,50.95562577],[3.92696218,50.95562229],[3.92696793,50.95561713],[3.92707186,50.95552406],[3.92710755,50.95554121],[3.9271531,50.95556308],[3.92720034,50.95558578]]]}},{"type":"Feature","id":"gebouw/Gebouw.19523046/0","properties":{"source":"Digitaal Vlaanderen Gebouwenregister","source_id":"gebouw/Gebouw.19523046/0","kind":"building","height_m":7.88,"status":null},"geometry":{"type":"Polygon","coordinates":[[[3.92810983,50.95625744],[3.92806438,50.95630001],[3.92808991,50.95631353],[3.9279908,50.95640288],[3.9279149,50.95636929],[3.9279301,50.95635481],[3.92794173,50.95634373],[3.92805628,50.95623463],[3.92805679,50.95623485],[3.92810983,50.95625744]]]}},{"type":"Feature","id":"gebouw/Gebouw.19524363/0","properties":{"source":"Digitaal Vlaanderen Gebouwenregister","source_id":"gebouw/Gebouw.19524363/0","kind":"building","height_m":8.6,"status":null},"geometry":{"type":"Polygon","coordinates":[[[3.92921546,50.95680114],[3.92917684,50.9567883],[3.92917275,50.95679201],[3.92913135,50.95684246],[3.92912676,50.95684807],[3.92911435,50.95686319],[3.92910845,50.95687037],[3.9291586,50.95688534],[3.92915955,50.95688562],[3.92922538,50.95680444],[3.92921546,50.95680114]]]}},{"type":"Feature","id":"gebouw/Gebouw.19524364/0","properties":{"source":"Digitaal Vlaanderen Gebouwenregister","source_id":"gebouw/Gebouw.19524364/0","kind":"building","height_m":9.32,"status":null},"geometry":{"type":"Polygon","coordinates":[[[3.92913135,50.95684246],[3.92911435,50.95686319],[3.92908309,50.95685301],[3.92910142,50.95683162],[3.92913135,50.95684246]]]}},{"type":"Feature","id":"gebouw/Gebouw.19524761/0","properties":{"source":"Digitaal Vlaanderen Gebouwenregister","source_id":"gebouw/Gebouw.19524761/0","kind":"building","height_m":7.88,"status":null},"geometry":{"type":"Polygon","coordinates":[[[3.92864875,50.95576177],[3.92862972,50.95576093],[3.92862767,50.95577859],[3.92857187,50.95577591],[3.92857411,50.95575669],[3.92854211,50.95575509],[3.92854475,50.95573932],[3.92868958,50.95574587],[3.92868754,50.95576391],[3.92866267,50.95576254],[3.92864875,50.95576177]]]}},{"type":"Feature","id":"gebouw/Gebouw.19526165/0","properties":{"source":"Digitaal Vlaanderen Gebouwenregister","source_id":"gebouw/Gebouw.19526165/0","kind":"building","height_m":5.72,"status":null},"geometry":{"type":"Polygon","coordinates":[[[3.92764326,50.95662801],[3.92761398,50.9566559],[3.92757245,50.95663738],[3.92761193,50.95661126],[3.92764326,50.95662801]]]}},{"type":"Feature","id":"gebouw/Gebouw.19526810/0","properties":{"source":"Digitaal Vlaanderen Gebouwenregister","source_id":"gebouw/Gebouw.19526810/0","kind":"building","height_m":6.44,"status":null},"geometry":{"type":"Polygon","coordinates":[[[3.92991676,50.95633564],[3.92986499,50.95640632],[3.92969232,50.95635803],[3.92973229,50.95629987],[3.9298464,50.9563323],[3.92986099,50.95632011],[3.92991676,50.95633564]]]}},{"type":"Feature","id":"gebouw/Gebouw.19526811/0","properties":{"source":"Digitaal Vlaanderen Gebouwenregister","source_id":"gebouw/Gebouw.19526811/0","kind":"building","height_m":7.16,"status":null},"geometry":{"type":"Polygon","coordinates":[[[3.93002305,50.95627692],[3.93001867,50.956283],[3.93004722,50.95629026],[3.92999994,50.95635881],[3.92995846,50.95634725],[3.92991676,50.95633564],[3.92986099,50.95632011],[3.92990896,50.95625193],[3.93002305,50.95627692]]]}},{"type":"Feature","id":"gebouw/Gebouw.19526812/0","properties":{"source":"Digitaal Vlaanderen Gebouwenregister","source_id":"gebouw/Gebouw.19526812/0","kind":"building","height_m":7.88,"status":null},"geometry":{"type":"Polygon","coordinates":[[[3.92999008,50.95637311],[3.92994098,50.95644429],[3.92989801,50.95643293],[3.92995846,50.95634725],[3.92999994,50.95635881],[3.92999008,50.95637311]]]}},{"type":"Feature","id":"gebouw/Gebouw.19526813/0","properties":{"source":"Digitaal Vlaanderen Gebouwenregister","source_id":"gebouw/Gebouw.19526813/0","kind":"building","height_m":8.6,"status":null},"geometry":{"type":"Polygon","coordinates":[[[3.92834223,50.95586811],[3.92834216,50.95594924],[3.9284069,50.95594867],[3.92840602,50.95586756],[3.92834223,50.95586811]]]}},{"type":"Feature","id":"gebouw/Gebouw.19526814/0","properties":{"source":"Digitaal Vlaanderen Gebouwenregister","source_id":"gebouw/Gebouw.19526814/0","kind":"building","height_m":9.32,"status":null},"geometry":{"type":"Polygon","coordinates":[[[3.92834227,50.95583028],[3.92829028,50.95583024],[3.92829179,50.95580909],[3.92829137,50.95578286],[3.92832637,50.9557829],[3.92832621,50.95580837],[3.92834229,50.95580782],[3.92834228,50.95581418],[3.92834227,50.95583028]]]}},{"type":"Feature","id":"gebouw/Gebouw.20194586/0","properties":{"source":"Digitaal Vlaanderen Gebouwenregister","source_id":"gebouw/Gebouw.20194586/0","kind":"building","height_m":9.32,"status":null},"geometry":{"type":"Polygon","coordinates":[[[3.92475684,50.95749499],[3.92472697,50.95748338],[3.92475874,50.95745078],[3.92478861,50.9574624],[3.92475684,50.95749499]]]}},{"type":"Feature","id":"gebouw/Gebouw.20194587/0","properties":{"source":"Digitaal Vlaanderen Gebouwenregister","source_id":"gebouw/Gebouw.20194587/0","kind":"building","height_m":5.0,"status":null},"geometry":{"type":"Polygon","coordinates":[[[3.92512179,50.95727523],[3.92509055,50.95726257],[3.92512571,50.95722794],[3.92515695,50.95724059],[3.92512179,50.95727523]]]}},{"type":"Feature","id":"gebouw/Gebouw.20194588/0","properties":{"source":"Digitaal Vlaanderen Gebouwenregister","source_id":"gebouw/Gebouw.20194588/0","kind":"building","height_m":5.72,"status":null},"geometry":{"type":"Polygon","coordinates":[[[3.92409085,50.9557373],[3.92412916,50.95570143],[3.92415614,50.95571293],[3.92416575,50.95570393],[3.92419141,50.95571486],[3.92415506,50.9557489],[3.9241247,50.95573596],[3.92411313,50.95574679],[3.92409085,50.9557373]]]}},{"type":"Feature","id":"gebouw/Gebouw.20194589/0","properties":{"source":"Digitaal Vlaanderen Gebouwenregister","source_id":"gebouw/Gebouw.20194589/0","kind":"building","height_m":6.44,"status":null},"geometry":{"type":"Polygon","coordinates":[[[3.92466102,50.95593854],[3.92466661,50.95590806],[3.92476531,50.95591528],[3.92475972,50.95594576],[3.92466102,50.95593854]]]}},{"type":"Feature","id":"gebouw/Gebouw.20194590/0","properties":{"source":"Digitaal Vlaanderen Gebouwenregister","source_id":"gebouw/Gebouw.20194590/0","kind":"building","height_m":7.16,"status":null},"geometry":{"type":"Polygon","coordinates":[[[3.92549116,50.9564796],[3.92550128,50.9564425],[3.92555742,50.9564486],[3.9255473,50.95648571],[3.92549116,50.9564796]]]}},{"type":"Feature","id":"gebouw/Gebouw.20194591/0","properties":{"source":"Digitaal Vlaanderen Gebouwenregister","source_id":"gebouw/Gebouw.20194591/0","kind":"building","height_m":7.88,"status":null},"geometry":{"type":"Polygon","coordinates":[[[3.92565093,50.95617611],[3.92573295,50.95619156],[3.92571545,50.9562286],[3.92563344,50.95621315],[3.92565093,50.95617611]]]}},{"type":"Feature","id":"gebouw/Gebouw.20194592/0","properties":{"source":"Digitaal Vlaanderen Gebouwenregister","source_id":"gebouw/Gebouw.20194592/0","kind":"building","height_m":8.6,"status":null},"geometry":{"type":"Polygon","coordinates":[[[3.92613553,50.95627956],[3.92614523,50.95624775],[3.92619189,50.95625343],[3.92618219,50.95628524],[3.92613553,50.95627956]]]}},{"type":"Feature","id":"gebouw/Gebouw.20194593/0","properties":{"source":"Digitaal Vlaanderen Gebouwenregister","source_id":"gebouw/Gebouw.20194593/0","kind":"building","height_m":9.32,"status":null},"geometry":{"type":"Polygon","coordinates":[[[3.92569708,50.95576016],[3.92567817,50.95580003],[3.9254551,50.95575541],[3.92546486,50.95573593],[3.92547658,50.95571257],[3.92554134,50.95572553],[3.92556391,50.95568053],[3.92554485,50.95567672],[3.92554102,50.95567595],[3.92557036,50.95561328],[3.9256016,50.95554655],[3.92572683,50.95556943],[3.92571523,50.95559256],[3.92577125,50.95560377],[3.92575845,50.95563075],[3.92572746,50.9556961],[3.92569708,50.95576016]]]}},{"type":"Feature","id":"gebouw/Gebouw.20194594/0","properties":{"source":"Digitaal Vlaanderen Gebouwenregister","source_id":"gebouw/Gebouw.20194594/0","kind":"building","height_m":5.0,"status":null},"geometry":{"type":"Polygon","coordinates":[[[3.92678513,50.95607003],[3.92675341,50.95606327],[3.92677331,50.95602602],[3.92680502,50.95603277],[3.92678513,50.95607003]]]}},{"type":"Feature","id":"gebouw/Gebouw.20194597/0","properties":{"source":"Digitaal Vlaanderen Gebouwenregister","source_id":"gebouw/Gebouw.20194597/0","kind":"building","height_m":7.16,"status":null},"geometry":{"type":"Polygon","coordinates":[[[3.92854979,50.95675509],[3.92850299,50.95672829],[3.92854454,50.95669936],[3.92859133,50.95672617],[3.92854979,50.95675509]]]}},{"type":"Feature","id":"gebouw/Gebouw.20194598/0","properties":{"source":"Digitaal Vlaanderen Gebouwenregister","source_id":"gebouw/Gebouw.20194598/0","kind":"building","height_m":7.88,"status":null},"geometry":{"type":"Polygon","coordinates":[[[3.93005057,50.95679494],[3.9300799,50.95675296],[3.93019635,50.95678542],[3.93016702,50.9568274],[3.93005057,50.95679494]]]}},{"type":"Feature","id":"gebouw/Gebouw.20194599/0","properties":{"source":"Digitaal Vlaanderen Gebouwenregister","source_id":"gebouw/Gebouw.20194599/0","kind":"building","height_m":8.6,"status":null},"geometry":{"type":"Polygon","coordinates":[[[3.93009566,50.95738582],[3.93006755,50.95735385],[3.93019123,50.95731047],[3.93021934,50.95734244],[3.93009566,50.95738582]]]}},{"type":"Feature","id":"gebouw/Gebouw.20194600/0","properties":{"source":"Digitaal Vlaanderen Gebouwenregister","source_id":"gebouw/Gebouw.20194600/0","kind":"building","height_m":9.32,"status":null},"geometry":{"type":"Polygon","coordinates":[[[3.92963485,50.95587295],[3.92964639,50.95587522],[3.9296325,50.95590349],[3.92961642,50.95590035],[3.92959037,50.95589524],[3.92960426,50.95586696],[3.92963485,50.95587295]]]}},{"type":"Feature","id":"gebouw/Gebouw.20880420/0","properties":{"source":"Digitaal Vlaanderen Gebouwenregister","source_id":"gebouw/Gebouw.20880420/0","kind":"building","height_m":5.72,"status":null},"geometry":{"type":"Polygon","coordinates":[[[3.92571969,50.95551639],[3.92570443,50.95547087],[3.92575404,50.95546381],[3.9257697,50.95551052],[3.92571969,50.95551639]]]}},{"type":"Feature","id":"gebouw/Gebouw.30585073/0","properties":{"source":"Digitaal Vlaanderen Gebouwenregister","source_id":"gebouw/Gebouw.30585073/0","kind":"building","height_m":5.72,"status":null},"geometry":{"type":"Polygon","coordinates":[[[3.92720481,50.95628671],[3.92716692,50.95633791],[3.92711514,50.95632205],[3.92719984,50.95620748],[3.92721393,50.95618842],[3.92722137,50.95619061],[3.92726618,50.95620378],[3.92723824,50.95624153],[3.92720481,50.95628671]]]}},{"type":"Feature","id":"gebouw/Gebouw.30585185/0","properties":{"source":"Digitaal Vlaanderen Gebouwenregister","source_id":"gebouw/Gebouw.30585185/0","kind":"building","height_m":5.72,"status":null},"geometry":{"type":"Polygon","coordinates":[[[3.92917275,50.95679201],[3.92913242,50.9567785],[3.92908558,50.95683427],[3.92909624,50.95683757],[3.92908515,50.95685368],[3.92907959,50.95686176],[3.92910822,50.9568703],[3.92910845,50.95687037],[3.92911435,50.95686319],[3.92912676,50.95684807],[3.92913135,50.95684246],[3.92917275,50.95679201]]]}},{"type":"Feature","id":"gebouw/Gebouw.30589709/0","properties":{"source":"Digitaal Vlaanderen Gebouwenregister","source_id":"gebouw/Gebouw.30589709/0","kind":"building","height_m":7.16,"status":null},"geometry":{"type":"Polygon","coordinates":[[[3.92580687,50.95627618],[3.92579915,50.95631084],[3.92571797,50.95630365],[3.92572569,50.95626899],[3.92580687,50.95627618]]]}},{"type":"Feature","id":"gebouw/Gebouw.30589781/0","properties":{"source":"Digitaal Vlaanderen Gebouwenregister","source_id":"gebouw/Gebouw.30589781/0","kind":"building","height_m":8.6,"status":null},"geometry":{"type":"Polygon","coordinates":[[[3.92496286,50.95711822],[3.92488798,50.95718611],[3.92483895,50.95716452],[3.92491384,50.95709664],[3.92496286,50.95711822]]]}},{"type":"Feature","id":"gebouw/Gebouw.30589782/0","properties":{"source":"Digitaal Vlaanderen Gebouwenregister","source_id":"gebouw/Gebouw.30589782/0","kind":"building","height_m":9.32,"status":null},"geometry":{"type":"Polygon","coordinates":[[[3.92822209,50.95636861],[3.92827892,50.95639291],[3.92821456,50.95645295],[3.92815774,50.95642865],[3.92819159,50.95639707],[3.92822209,50.95636861]]]}},{"type":"Feature","id":"gebouw/Gebouw.30589783/0","properties":{"source":"Digitaal Vlaanderen Gebouwenregister","source_id":"gebouw/Gebouw.30589783/0","kind":"building","height_m":5.0,"status":null},"geometry":{"type":"Polygon","coordinates":[[[3.92901439,50.95686899],[3.92897393,50.95685357],[3.92899653,50.95682991],[3.92903698,50.95684533],[3.92901439,50.95686899]]]}},{"type":"Feature","id":"gebouw/Gebouw.30589784/0","properties":{"source":"Digitaal Vlaanderen Gebouwenregister","source_id":"gebouw/Gebouw.30589784/0","kind":"building","height_m":5.72,"status":null},"geometry":{"type":"Polygon","coordinates":[[[3.93033309,50.95724756],[3.93031424,50.95725424],[3.93027465,50.95720964],[3.9303181,50.95719426],[3.93035768,50.95723886],[3.93033309,50.95724756]]]}},{"type":"Feature","id":"gebouw/Gebouw.31001629/0","properties":{"source":"Digitaal Vlaanderen Gebouwenregister","source_id":"gebouw/Gebouw.31001629/0","kind":"building","height_m":5.72,"status":null},"geometry":{"type":"Polygon","coordinates":[[[3.92563859,50.95597951],[3.92559798,50.95597424],[3.92560961,50.9559385],[3.92565022,50.95594377],[3.92563859,50.95597951]]]}},{"type":"Feature","id":"gebouw/Gebouw.31001631/0","properties":{"source":"Digitaal Vlaanderen Gebouwenregister","source_id":"gebouw/Gebouw.31001631/0","kind":"building","height_m":7.16,"status":null},"geometry":{"type":"Polygon","coordinates":[[[3.92568254,50.95586723],[3.92564879,50.95586456],[3.92565761,50.95582006],[3.92569136,50.95582273],[3.92568254,50.95586723]]]}},{"type":"Feature","id":"gebouw/Gebouw.31001752/0","properties":{"source":"Digitaal Vlaanderen Gebouwenregister","source_id":"gebouw/Gebouw.31001752/0","kind":"building","height_m":8.6,"status":null},"geometry":{"type":"Polygon","coordinates":[[[3.92536088,50.9561899],[3.92536636,50.95615143],[3.92543411,50.95615529],[3.9254356,50.95614485],[3.92550415,50.95614875],[3.92549717,50.95619765],[3.92536088,50.9561899]]]}},{"type":"Feature","id":"gebouw/Gebouw.31001763/0","properties":{"source":"Digitaal Vlaanderen Gebouwenregister","source_id":"gebouw/Gebouw.31001763/0","kind":"building","height_m":6.44,"status":null},"geometry":{"type":"Polygon","coordinates":[[[3.92854584,50.95758954],[3.92852476,50.95756416],[3.92860414,50.95753787],[3.92862521,50.95756324],[3.92854584,50.95758954]]]}},{"type":"Feature","id":"gebouw/Gebouw.31001764/0","properties":{"source":"Digitaal Vlaanderen Gebouwenregister","source_id":"gebouw/Gebouw.31001764/0","kind":"building","height_m":7.16,"status":null},"geometry":{"type":"Polygon","coordinates":[[[3.92819017,50.95729347],[3.9281474,50.95731587],[3.92809486,50.95727587],[3.92813762,50.95725347],[3.92819017,50.95729347]]]}},{"type":"Feature","id":"gebouw/Gebouw.31002022/0","properties":{"source":"Digitaal Vlaanderen Gebouwenregister","source_id":"gebouw/Gebouw.31002022/0","kind":"building","height_m":6.44,"status":null},"geometry":{"type":"Polygon","coordinates":[[[3.92448091,50.95620044],[3.92443847,50.95618597],[3.92447684,50.95614108],[3.92451927,50.95615555],[3.92448091,50.95620044]]]}},{"type":"Feature","id":"gebouw/Gebouw.31002097/0","properties":{"source":"Digitaal Vlaanderen Gebouwenregister","source_id":"gebouw/Gebouw.31002097/0","kind":"building","height_m":5.0,"status":null},"geometry":{"type":"Polygon","coordinates":[[[3.92669852,50.95591355],[3.92663754,50.95590127],[3.92668264,50.95581192],[3.92674363,50.95582421],[3.92669852,50.95591355]]]}},{"type":"Feature","id":"gebouw/Gebouw.31468654/0","properties":{"source":"Digitaal Vlaanderen Gebouwenregister","source_id":"gebouw/Gebouw.31468654/0","kind":"building","height_m":5.0,"status":null},"geometry":{"type":"Polygon","coordinates":[[[3.92575052,50.95569826],[3.92574227,50.95573987],[3.92574171,50.95574269],[3.92569629,50.95573787],[3.92570486,50.95569465],[3.92575052,50.95569826]]]}},{"type":"Feature","id":"gebouw/Gebouw.31468655/0","properties":{"source":"Digitaal Vlaanderen Gebouwenregister","source_id":"gebouw/Gebouw.31468655/0","kind":"building","height_m":5.72,"status":null},"geometry":{"type":"Polygon","coordinates":[[[3.92572991,50.95562863],[3.92577338,50.95563125],[3.92576626,50.95567836],[3.92572273,50.95567619],[3.92572991,50.95562863]]]}},{"type":"Feature","id":"gebouw/Gebouw.31673902/0","properties":{"source":"Digitaal Vlaanderen Gebouwenregister","source_id":"gebouw/Gebouw.31673902/0","kind":"building","height_m":5.72,"status":null},"geometry":{"type":"Polygon","coordinates":[[[3.92475547,50.95671817],[3.92488522,50.95673158],[3.92490771,50.95664479],[3.92477796,50.95663138],[3.92475547,50.95671817]]]}},{"type":"Feature","id":"gebouw/Gebouw.31762317/0","properties":{"source":"Digitaal Vlaanderen Gebouwenregister","source_id":"gebouw/Gebouw.31762317/0","kind":"building","height_m":9.32,"status":null},"geometry":{"type":"Polygon","coordinates":[[[3.92899174,50.95696071],[3.92907622,50.95687828],[3.92903361,50.95686086],[3.92894912,50.95694328],[3.92899174,50.95696071]]]}},{"type":"Feature","id":"gebouw/Gebouw.31762339/0","properties":{"source":"Digitaal Vlaanderen Gebouwenregister","source_id":"gebouw/Gebouw.31762339/0","kind":"building","height_m":5.0,"status":null},"geometry":{"type":"Polygon","coordinates":[[[3.92865997,50.95592532],[3.92866609,50.95589414],[3.92862288,50.95589076],[3.92861676,50.95592194],[3.92865997,50.95592532]]]}},{"type":"Feature","id":"gebouw/Gebouw.31762496/0","properties":{"source":"Digitaal Vlaanderen Gebouwenregister","source_id":"gebouw/Gebouw.31762496/0","kind":"building","height_m":7.16,"status":null},"geometry":{"type":"Polygon","coordinates":[[[3.92570964,50.95580246],[3.92571352,50.95576398],[3.92567124,50.95576228],[3.92566736,50.95580076],[3.92570964,50.95580246]]]}},{"type":"Feature","id":"gebouw/Gebouw.31762523/0","properties":{"source":"Digitaal Vlaanderen Gebouwenregister","source_id":"gebouw/Gebouw.31762523/0","kind":"building","height_m":6.44,"status":null},"geometry":{"type":"Polygon","coordinates":[[[3.92565116,50.95594077],[3.9256577,50.9558826],[3.92560967,50.95588045],[3.92560312,50.95593862],[3.92565116,50.95594077]]]}},{"type":"Feature","id":"gebouw/Gebouw.31766618/0","properties":{"source":"Digitaal Vlaanderen Gebouwenregister","source_id":"gebouw/Gebouw.31766618/0","kind":"building","height_m":6.44,"status":null},"geometry":{"type":"Polygon","coordinates":[[[3.9263652,50.95581858],[3.92640526,50.95576323],[3.92640758,50.9557595],[3.92638565,50.95575373],[3.92632647,50.95573815],[3.92628635,50.95579896],[3.92626689,50.95582846],[3.92636625,50.95585406],[3.92637337,50.95584302],[3.92635306,50.95583773],[3.9263652,50.95581858]]]}},{"type":"Feature","id":"gebouw/Gebouw.31932048/0","properties":{"source":"Digitaal Vlaanderen Gebouwenregister","source_id":"gebouw/Gebouw.31932048/0","kind":"building","height_m":5.72,"status":null},"geometry":{"type":"Polygon","coordinates":[[[3.92474987,50.95673036],[3.92477023,50.95668716],[3.92482146,50.95669657],[3.9248562,50.95662322],[3.92494632,50.95664],[3.92495705,50.95661686],[3.92495832,50.95661412],[3.92473035,50.9565721],[3.92472948,50.95657392],[3.92471813,50.95659756],[3.92470089,50.95659475],[3.92464706,50.95671127],[3.92474987,50.95673036]]]}},{"type":"Feature","id":"gebouw/Gebouw.32031879/0","properties":{"source":"Digitaal Vlaanderen Gebouwenregister","source_id":"gebouw/Gebouw.32031879/0","kind":"building","height_m":8.6,"status":null},"geometry":{"type":"Polygon","coordinates":[[[3.92962539,50.95706095],[3.92961924,50.95705398],[3.92961103,50.95705687],[3.92958272,50.95706684],[3.92960493,50.957092],[3.9296202,50.9571093],[3.92965672,50.95709644],[3.92964198,50.95707974],[3.92962539,50.95706095]]]}},{"type":"Feature","id":"gebouw/Gebouw.32032229/0","properties":{"source":"Digitaal Vlaanderen Gebouwenregister","source_id":"gebouw/Gebouw.32032229/0","kind":"building","height_m":8.6,"status":null},"geometry":{"type":"Polygon","coordinates":[[[3.92726484,50.95668348],[3.92722995,50.95667184],[3.92719571,50.95671277],[3.92719061,50.95671887],[3.9272255,50.95673051],[3.92723088,50.95672408],[3.92726484,50.95668348]]]}},{"type":"Feature","id":"way/164343947","properties":{"source":"OpenStreetMap","source_id":"way/164343947","kind":"vegetation","name":null,"waterway":null,"landuse":"forest"},"geometry":{"type":"Polygon","coordinates":[[[3.9207349,50.9581701],[3.9197981,50.957875],[3.9196835,50.9578389],[3.9194112,50.957577],[3.9189051,50.9571469],[3.919081,50.9570553],[3.9197698,50.9566965],[3.9200104,50.9565841],[3.9201797,50.9563987],[3.9202419,50.956265],[3.9201732,50.9560314],[3.9212584,50.9549915],[3.9214784,50.9547529],[3.9212029,50.9546464],[3.9212057,50.95458],[3.9214637,50.9546324],[3.9217327,50.9545572],[3.9218631,50.9546254],[3.9218603,50.9547931],[3.9228216,50.9552582],[3.922947,50.9551358],[3.9231099,50.955073],[3.9233745,50.9549008],[3.9237,50.954999],[3.9239451,50.9551135],[3.9236214,50.9553808],[3.9245066,50.9557462],[3.9243912,50.9558414],[3.9245547,50.955921],[3.9244736,50.9559903],[3.9250515,50.9562642],[3.9255002,50.9564769],[3.9256101,50.9565561],[3.9257603,50.9566197],[3.9259015,50.9566278],[3.9258809,50.9566799],[3.9258008,50.956827],[3.9255957,50.9570664],[3.9252748,50.9569036],[3.9244368,50.9576226],[3.9254938,50.9581454],[3.9257474,50.9582709],[3.925314,50.9586779],[3.9252971,50.9587292],[3.9253701,50.9589109],[3.9253585,50.9589715],[3.9248728,50.9594181],[3.9242899,50.9591194],[3.9244204,50.9590043],[3.9233874,50.9582941],[3.9219848,50.9577071],[3.9218883,50.9577882],[3.9214065,50.9576739],[3.9207349,50.9581701]]]}},{"type":"Feature","id":"way/175212288","properties":{"source":"OpenStreetMap","source_id":"way/175212288","kind":"vegetation","name":null,"waterway":null,"landuse":"forest"},"geometry":{"type":"Polygon","coordinates":[[[3.9228212,50.9612252],[3.9230296,50.9610265],[3.9232929,50.9608555],[3.9233662,50.9607734],[3.9233879,50.9607085],[3.9233363,50.960676],[3.9232603,50.9606332],[3.9232357,50.9606123],[3.923206,50.960587],[3.9231843,50.9605221],[3.923225,50.9604605],[3.9232739,50.960428],[3.9233391,50.9604417],[3.9233879,50.9604896],[3.9234965,50.9606007],[3.9235807,50.9606041],[3.923711,50.9606212],[3.9241101,50.9608914],[3.9245282,50.9612163],[3.9245065,50.9612864],[3.9244141,50.9613548],[3.9242241,50.9614318],[3.9240992,50.9614779],[3.923939,50.961507],[3.9236078,50.9615241],[3.9234449,50.961548],[3.9234048,50.9615631],[3.9233472,50.9615224],[3.9228212,50.9612252]]]}},{"type":"Feature","id":"way/175279497","properties":{"source":"OpenStreetMap","source_id":"way/175279497","kind":"vegetation","name":null,"waterway":null,"landuse":"forest"},"geometry":{"type":"Polygon","coordinates":[[[3.9269879,50.9566781],[3.9269802,50.9567051],[3.9268702,50.9569193],[3.926729,50.9574906],[3.9269603,50.9575899],[3.9280495,50.9580247],[3.9285818,50.9575393],[3.9287047,50.9574532],[3.9286351,50.9573784],[3.9285655,50.9572546],[3.9286867,50.957181],[3.9283323,50.9570063],[3.9281798,50.9569369],[3.9280331,50.9568703],[3.9276974,50.9566639],[3.9271058,50.9565303],[3.9269879,50.9566781]]]}},{"type":"Feature","id":"way/175279515","properties":{"source":"OpenStreetMap","source_id":"way/175279515","kind":"vegetation","name":null,"waterway":null,"landuse":"forest"},"geometry":{"type":"Polygon","coordinates":[[[3.9245547,50.955921],[3.9246473,50.9558572],[3.9247187,50.9558981],[3.9248761,50.9559885],[3.9250208,50.9558572],[3.9253335,50.9559903],[3.9250515,50.9562642],[3.9244736,50.9559903],[3.9245547,50.955921]]]}},{"type":"Feature","id":"way/175299384","properties":{"source":"OpenStreetMap","source_id":"way/175299384","kind":"vegetation","name":null,"waterway":null,"landuse":"forest"},"geometry":{"type":"Polygon","coordinates":[[[3.9297644,50.9591388],[3.9298682,50.9590223],[3.9299473,50.9588752],[3.9295776,50.9583929],[3.9295121,50.9582871],[3.9294711,50.9581736],[3.9293892,50.9581195],[3.9292377,50.9581117],[3.9291968,50.9581324],[3.9292295,50.9582304],[3.9294629,50.9585889],[3.9296062,50.9586972],[3.9297004,50.9588133],[3.9297045,50.9588906],[3.9296254,50.9590055],[3.9297644,50.9591388]]]}},{"type":"Feature","id":"way/240875765","properties":{"source":"OpenStreetMap","source_id":"way/240875765","kind":"waterway","name":"Wellebeek","waterway":"stream","landuse":null},"geometry":{"type":"LineString","coordinates":[[3.9259978,50.9566607],[3.9261608,50.9566521]]}},{"type":"Feature","id":"way/668045756","properties":{"source":"OpenStreetMap","source_id":"way/668045756","kind":"waterway","name":null,"waterway":"drain","landuse":null},"geometry":{"type":"LineString","coordinates":[[3.9295672,50.9581356],[3.9293946,50.9581597]]}},{"type":"Feature","id":"way/668045757","properties":{"source":"OpenStreetMap","source_id":"way/668045757","kind":"waterway","name":null,"waterway":"drain","landuse":null},"geometry":{"type":"LineString","coordinates":[[3.9296619,50.9581232],[3.9295672,50.9581356]]}},{"type":"Feature","id":"way/668045760","properties":{"source":"OpenStreetMap","source_id":"way/668045760","kind":"waterway","name":null,"waterway":"drain","landuse":null},"geometry":{"type":"LineString","coordinates":[[3.9306204,50.9578747],[3.9305942,50.9578819],[3.9304481,50.9579249],[3.9301459,50.958017],[3.9297413,50.9581129],[3.9296619,50.9581232]]}},{"type":"Feature","id":"way/668045761","properties":{"source":"OpenStreetMap","source_id":"way/668045761","kind":"waterway","name":"Wellebeek","waterway":"stream","landuse":null},"geometry":{"type":"LineString","coordinates":[[3.9296951,50.9594252],[3.929693,50.9594621]]}},{"type":"Feature","id":"way/668045762","properties":{"source":"OpenStreetMap","source_id":"way/668045762","kind":"waterway","name":"Wellebeek","waterway":"stream","landuse":null},"geometry":{"type":"LineString","coordinates":[[3.9269969,50.9566969],[3.9270425,50.9567072],[3.9277168,50.9570318],[3.9279971,50.957217],[3.9281983,50.9573538],[3.9287132,50.9575346],[3.928791,50.9576089],[3.9288259,50.9577036],[3.929025,50.9578671],[3.9291177,50.9579758],[3.9292538,50.9580871],[3.9293946,50.9581597],[3.9294013,50.9582688],[3.9293429,50.9583257],[3.9294147,50.9583672],[3.9294777,50.9584199],[3.9294964,50.9585483],[3.9296332,50.9586311],[3.9297969,50.9587713],[3.9298934,50.9588642],[3.9298485,50.959018],[3.9297921,50.9591329],[3.9298217,50.9592363],[3.929801,50.959304],[3.9296994,50.9594163],[3.9296951,50.9594252]]}},{"type":"Feature","id":"way/984758765","properties":{"source":"OpenStreetMap","source_id":"way/984758765","kind":"waterway","name":"Wellebeek","waterway":"stream","landuse":null},"geometry":{"type":"LineString","coordinates":[[3.9261608,50.9566521],[3.9261914,50.9566495],[3.9267002,50.956675],[3.9269765,50.956692],[3.9269898,50.9566951]]}},{"type":"Feature","id":"way/984758766","properties":{"source":"OpenStreetMap","source_id":"way/984758766","kind":"waterway","name":"Wellebeek","waterway":"stream","landuse":null},"geometry":{"type":"LineString","coordinates":[[3.9269898,50.9566951],[3.9269969,50.9566969]]}}]}