{"type":"FeatureCollection","features":[{"type":"Feature","id":"gebouw/Gebouw.9043723/0","properties":{"source":"Digitaal Vlaanderen Gebouwenregister","source_id":"gebouw/Gebouw.9043723/0","kind":"building","height_m":7.16,"status":null},"geometry":{"type":"Polygon","coordinates":[[[3.88735046,50.9589093],[3.88718199,50.95910803],[3.88710529,50.95908231],[3.88713659,50.95904507],[3.88712282,50.95904069],[3.8871481,50.95900916],[3.8871628,50.95901345],[3.88716587,50.95900975],[3.88718673,50.95901655],[3.88726569,50.95892591],[3.88726951,50.95892727],[3.88729759,50.95889108],[3.88735046,50.9589093]]]}},{"type":"Feature","id":"gebouw/Gebouw.9043730/0","properties":{"source":"Digitaal Vlaanderen Gebouwenregister","source_id":"gebouw/Gebouw.9043730/0","kind":"building","height_m":7.16,"status":null},"geometry":{"type":"Polygon","coordinates":[[[3.88382644,50.9566321],[3.88377318,50.95662464],[3.88380656,50.95653186],[3.88388423,50.956543],[3.88388105,50.95655185],[3.88391855,50.95655717],[3.88392173,50.95654832],[3.88399274,50.95655852],[3.88394955,50.95667845],[3.88387132,50.95666805],[3.88387485,50.95665929],[3.88381963,50.95665131],[3.88382644,50.9566321]]]}},{"type":"Feature","id":"gebouw/Gebouw.9043731/0","properties":{"source":"Digitaal Vlaanderen Gebouwenregister","source_id":"gebouw/Gebouw.9043731/0","kind":"building","height_m":7.88,"status":null},"geometry":{"type":"Polygon","coordinates":[[[3.88362976,50.95659454],[3.88341659,50.95656364],[3.88344739,50.95647921],[3.88360572,50.95650234],[3.88361096,50.95648833],[3.88366646,50.95649663],[3.88362976,50.95659454]]]}},{"type":"Feature","id":"gebouw/Gebouw.9043987/0","properties":{"source":"Digitaal Vlaanderen Gebouwenregister","source_id":"gebouw/Gebouw.9043987/0","kind":"building","height_m":5.72,"status":null},"geometry":{"type":"Polygon","coordinates":[[[3.884256,50.95742925],[3.88427592,50.95739763],[3.88424939,50.95739096],[3.8842984,50.95731317],[3.88435454,50.95732728],[3.88435832,50.95732128],[3.88443262,50.95733995],[3.88442815,50.95734705],[3.88456504,50.95738145],[3.88454535,50.95741504],[3.88445344,50.95739422],[3.88442931,50.95743528],[3.88442253,50.95743389],[3.88440345,50.95746644],[3.88430213,50.95744348],[3.88430461,50.95743977],[3.884256,50.95742925]]]}},{"type":"Feature","id":"gebouw/Gebouw.9044039/0","properties":{"source":"Digitaal Vlaanderen Gebouwenregister","source_id":"gebouw/Gebouw.9044039/0","kind":"building","height_m":7.88,"status":null},"geometry":{"type":"Polygon","coordinates":[[[3.88209492,50.95658846],[3.88209053,50.95660888],[3.88211009,50.95661056],[3.88210225,50.95664698],[3.88210134,50.95665119],[3.88205126,50.95664689],[3.88204136,50.95664603],[3.88204437,50.95663205],[3.88205438,50.95658553],[3.88209492,50.95658846]]]}},{"type":"Feature","id":"gebouw/Gebouw.9044040/0","properties":{"source":"Digitaal Vlaanderen Gebouwenregister","source_id":"gebouw/Gebouw.9044040/0","kind":"building","height_m":8.6,"status":null},"geometry":{"type":"Polygon","coordinates":[[[3.88306425,50.95676935],[3.88307627,50.95673484],[3.88314771,50.95674545],[3.88313572,50.9567792],[3.88306425,50.95676935]]]}},{"type":"Feature","id":"gebouw/Gebouw.9044045/0","properties":{"source":"Digitaal Vlaanderen Gebouwenregister","source_id":"gebouw/Gebouw.9044045/0","kind":"building","height_m":7.16,"status":null},"geometry":{"type":"Polygon","coordinates":[[[3.8858586,50.95716372],[3.88588523,50.95713167],[3.88589157,50.95713378],[3.88599286,50.95701119],[3.88580705,50.95694988],[3.88574004,50.95692778],[3.88572684,50.95694371],[3.88567178,50.95701015],[3.88563877,50.95704999],[3.88575899,50.95708983],[3.8857288,50.95712617],[3.88585504,50.95716801],[3.8858586,50.95716372]]]}},{"type":"Feature","id":"gebouw/Gebouw.9044046/0","properties":{"source":"Digitaal Vlaanderen Gebouwenregister","source_id":"gebouw/Gebouw.9044046/0","kind":"building","height_m":7.88,"status":null},"geometry":{"type":"Polygon","coordinates":[[[3.88595174,50.95682188],[3.88592194,50.95676795],[3.88605033,50.95673916],[3.88608074,50.95679272],[3.88595174,50.95682188]]]}},{"type":"Feature","id":"gebouw/Gebouw.9048896/0","properties":{"source":"Digitaal Vlaanderen Gebouwenregister","source_id":"gebouw/Gebouw.9048896/0","kind":"building","height_m":7.16,"status":null},"geometry":{"type":"Polygon","coordinates":[[[3.88219169,50.95637755],[3.88219799,50.95637842],[3.88217513,50.95644745],[3.88208296,50.95643584],[3.88209516,50.9564049],[3.8819812,50.95638816],[3.88199651,50.95634422],[3.88200622,50.95631635],[3.88198839,50.9563135],[3.8819694,50.95631048],[3.88199289,50.95624758],[3.88203904,50.95625383],[3.88203872,50.9562547],[3.88214646,50.95626921],[3.88211355,50.95636677],[3.88219169,50.95637755]]]}},{"type":"Feature","id":"gebouw/Gebouw.9064286/0","properties":{"source":"Digitaal Vlaanderen Gebouwenregister","source_id":"gebouw/Gebouw.9064286/0","kind":"building","height_m":5.0,"status":null},"geometry":{"type":"Polygon","coordinates":[[[3.88296241,50.95658244],[3.88298835,50.95651137],[3.8830576,50.95652144],[3.88307219,50.95648143],[3.8832344,50.95650502],[3.88319393,50.95661595],[3.88296241,50.95658244]]]}},{"type":"Feature","id":"gebouw/Gebouw.9064287/0","properties":{"source":"Digitaal Vlaanderen Gebouwenregister","source_id":"gebouw/Gebouw.9064287/0","kind":"building","height_m":5.72,"status":null},"geometry":{"type":"Polygon","coordinates":[[[3.88277289,50.95648073],[3.88262341,50.95645833],[3.88265261,50.9563789],[3.88284,50.95640639],[3.88280594,50.95649905],[3.88276744,50.95649396],[3.88277289,50.95648073]]]}},{"type":"Feature","id":"gebouw/Gebouw.9064893/0","properties":{"source":"Digitaal Vlaanderen Gebouwenregister","source_id":"gebouw/Gebouw.9064893/0","kind":"building","height_m":8.6,"status":null},"geometry":{"type":"Polygon","coordinates":[[[3.88221263,50.95645296],[3.88223166,50.95640243],[3.88234235,50.9564197],[3.88231473,50.95650889],[3.88224946,50.95649967],[3.88226398,50.95646108],[3.88221263,50.95645296]]]}},{"type":"Feature","id":"gebouw/Gebouw.9064894/0","properties":{"source":"Digitaal Vlaanderen Gebouwenregister","source_id":"gebouw/Gebouw.9064894/0","kind":"building","height_m":9.32,"status":null},"geometry":{"type":"Polygon","coordinates":[[[3.88273956,50.95671859],[3.88275635,50.95666928],[3.88281878,50.95667775],[3.8828022,50.95672646],[3.88273956,50.95671859]]]}},{"type":"Feature","id":"gebouw/Gebouw.9065212/0","properties":{"source":"Digitaal Vlaanderen Gebouwenregister","source_id":"gebouw/Gebouw.9065212/0","kind":"building","height_m":6.44,"status":null},"geometry":{"type":"Polygon","coordinates":[[[3.88563998,50.95712717],[3.88572428,50.95715423],[3.88569662,50.95718611],[3.88561408,50.95715983],[3.88563998,50.95712717]]]}},{"type":"Feature","id":"gebouw/Gebouw.9069264/0","properties":{"source":"Digitaal Vlaanderen Gebouwenregister","source_id":"gebouw/Gebouw.9069264/0","kind":"building","height_m":5.72,"status":null},"geometry":{"type":"Polygon","coordinates":[[[3.88718012,50.95932874],[3.8870775,50.95939729],[3.88707005,50.95940227],[3.88698011,50.95933637],[3.88699417,50.95932802],[3.88700639,50.95932076],[3.88695951,50.95929731],[3.88692312,50.9592791],[3.88698244,50.95922958],[3.88704122,50.95925895],[3.88707769,50.95927716],[3.88709168,50.95926891],[3.88718012,50.95932874]]]}},{"type":"Feature","id":"gebouw/Gebouw.9069265/0","properties":{"source":"Digitaal Vlaanderen Gebouwenregister","source_id":"gebouw/Gebouw.9069265/0","kind":"building","height_m":6.44,"status":null},"geometry":{"type":"Polygon","coordinates":[[[3.88710469,50.95941429],[3.88712742,50.95942767],[3.88708719,50.95945728],[3.88707858,50.95946361],[3.88705096,50.95944926],[3.88702627,50.95943644],[3.88707005,50.95940227],[3.8870775,50.95939729],[3.88718012,50.95932874],[3.88719971,50.95931538],[3.88736458,50.9593822],[3.88732277,50.95942104],[3.88728238,50.95940332],[3.8872643,50.9594224],[3.88717999,50.95939572],[3.88715667,50.95938232],[3.88710469,50.95941429]]]}},{"type":"Feature","id":"gebouw/Gebouw.9069379/0","properties":{"source":"Digitaal Vlaanderen Gebouwenregister","source_id":"gebouw/Gebouw.9069379/0","kind":"building","height_m":7.88,"status":null},"geometry":{"type":"Polygon","coordinates":[[[3.88315072,50.95854905],[3.88312285,50.95860716],[3.88299819,50.95858111],[3.88302815,50.95852247],[3.88315072,50.95854905]]]}},{"type":"Feature","id":"gebouw/Gebouw.9069676/0","properties":{"source":"Digitaal Vlaanderen Gebouwenregister","source_id":"gebouw/Gebouw.9069676/0","kind":"building","height_m":5.0,"status":null},"geometry":{"type":"Polygon","coordinates":[[[3.88756391,50.95909716],[3.88764871,50.95912275],[3.88756362,50.95923179],[3.88750336,50.95921304],[3.88751727,50.95919522],[3.88748791,50.95918628],[3.88748667,50.9591879],[3.88742615,50.95916947],[3.88749033,50.95908821],[3.88755526,50.95910866],[3.88756391,50.95909716]]]}},{"type":"Feature","id":"gebouw/Gebouw.9069677/0","properties":{"source":"Digitaal Vlaanderen Gebouwenregister","source_id":"gebouw/Gebouw.9069677/0","kind":"building","height_m":5.72,"status":null},"geometry":{"type":"Polygon","coordinates":[[[3.88831503,50.95941472],[3.88829861,50.95940853],[3.88824424,50.95946926],[3.88823975,50.9594677],[3.88824395,50.95946275],[3.88817665,50.95943999],[3.88817236,50.95944474],[3.88816794,50.95944346],[3.8882,50.95940565],[3.88815594,50.95939077],[3.88814136,50.95940776],[3.88813688,50.9594061],[3.8881393,50.95940325],[3.88806113,50.95937669],[3.88805857,50.95937971],[3.88805398,50.95937815],[3.88810465,50.95932022],[3.88811992,50.95932527],[3.88816849,50.95926891],[3.88824162,50.95929246],[3.88822901,50.95930748],[3.88831915,50.9593376],[3.88833294,50.95932297],[3.88838022,50.95933834],[3.88831503,50.95941472]]]}},{"type":"Feature","id":"gebouw/Gebouw.9069684/0","properties":{"source":"Digitaal Vlaanderen Gebouwenregister","source_id":"gebouw/Gebouw.9069684/0","kind":"building","height_m":5.72,"status":null},"geometry":{"type":"Polygon","coordinates":[[[3.88467678,50.95635026],[3.88458568,50.95634242],[3.88458106,50.95636765],[3.88455295,50.95636525],[3.88454318,50.95641383],[3.88456611,50.95641539],[3.88455919,50.95644917],[3.88486234,50.95647394],[3.88489398,50.95647652],[3.88490443,50.95642555],[3.88489394,50.95641694],[3.8848438,50.95641299],[3.88484921,50.95638061],[3.88467333,50.95636633],[3.88467678,50.95635026]]]}},{"type":"Feature","id":"gebouw/Gebouw.9069685/0","properties":{"source":"Digitaal Vlaanderen Gebouwenregister","source_id":"gebouw/Gebouw.9069685/0","kind":"building","height_m":6.44,"status":null},"geometry":{"type":"Polygon","coordinates":[[[3.88500026,50.95818009],[3.88500316,50.95818238],[3.88493885,50.95822],[3.88489086,50.95818888],[3.88489749,50.95818522],[3.8848815,50.95817418],[3.8848301,50.9581387],[3.88488178,50.95810692],[3.88484292,50.95808753],[3.88472173,50.95817229],[3.88457856,50.95808883],[3.88469783,50.95800722],[3.88476014,50.95804141],[3.88480168,50.95801122],[3.8847855,50.95800242],[3.88487204,50.95793922],[3.88497278,50.9579947],[3.8850996,50.95805434],[3.88503117,50.95809993],[3.88508292,50.95813427],[3.88504576,50.95815648],[3.88504345,50.95815458],[3.88500026,50.95818009]]]}},{"type":"Feature","id":"gebouw/Gebouw.9069813/0","properties":{"source":"Digitaal Vlaanderen Gebouwenregister","source_id":"gebouw/Gebouw.9069813/0","kind":"building","height_m":7.88,"status":null},"geometry":{"type":"Polygon","coordinates":[[[3.88528761,50.95779385],[3.88522477,50.95786109],[3.88520507,50.95788483],[3.88524477,50.95789833],[3.8852062,50.95794272],[3.88510455,50.9579075],[3.88516438,50.9578396],[3.88517316,50.95782964],[3.88520791,50.9577902],[3.88522483,50.95777099],[3.8852526,50.95778111],[3.88528761,50.95779385]]]}},{"type":"Feature","id":"gebouw/Gebouw.9069868/0","properties":{"source":"Digitaal Vlaanderen Gebouwenregister","source_id":"gebouw/Gebouw.9069868/0","kind":"building","height_m":7.16,"status":null},"geometry":{"type":"Polygon","coordinates":[[[3.88493065,50.95845104],[3.8849613,50.95846733],[3.88491411,50.95849785],[3.88488492,50.95848252],[3.88493065,50.95845104]]]}},{"type":"Feature","id":"gebouw/Gebouw.9070022/0","properties":{"source":"Digitaal Vlaanderen Gebouwenregister","source_id":"gebouw/Gebouw.9070022/0","kind":"building","height_m":7.16,"status":null},"geometry":{"type":"Polygon","coordinates":[[[3.88571837,50.95687198],[3.88575847,50.95688458],[3.88579551,50.95683433],[3.88575955,50.95682118],[3.88578275,50.9567908],[3.88573866,50.95677753],[3.88574021,50.95677549],[3.88566847,50.95675477],[3.88564653,50.95678391],[3.88558596,50.9567667],[3.88559151,50.95675965],[3.88558388,50.95675731],[3.88558176,50.95674278],[3.8855426,50.95673131],[3.88552346,50.95674052],[3.88551868,50.95673912],[3.88547185,50.9568029],[3.88546862,50.95680239],[3.88544719,50.95680728],[3.88543739,50.95682084],[3.88544558,50.95683427],[3.88546724,50.95684018],[3.88548833,50.95683473],[3.88557893,50.95686127],[3.88558939,50.95684916],[3.88561907,50.95685832],[3.88561663,50.95686054],[3.8857054,50.95688844],[3.88571837,50.95687198]]]}},{"type":"Feature","id":"gebouw/Gebouw.9070023/0","properties":{"source":"Digitaal Vlaanderen Gebouwenregister","source_id":"gebouw/Gebouw.9070023/0","kind":"building","height_m":7.88,"status":null},"geometry":{"type":"Polygon","coordinates":[[[3.88537341,50.95819751],[3.88545515,50.95825776],[3.8854065,50.95828408],[3.88535718,50.95831272],[3.88530754,50.95827709],[3.8853172,50.95827159],[3.88528352,50.95824758],[3.88518811,50.95819604],[3.88527132,50.95813862],[3.88537341,50.95819751]]]}},{"type":"Feature","id":"gebouw/Gebouw.9122105/0","properties":{"source":"Digitaal Vlaanderen Gebouwenregister","source_id":"gebouw/Gebouw.9122105/0","kind":"building","height_m":9.32,"status":null},"geometry":{"type":"Polygon","coordinates":[[[3.88728416,50.95884484],[3.8872495,50.95883393],[3.88724119,50.95884376],[3.88716576,50.95881756],[3.88727432,50.95868982],[3.88727756,50.9586908],[3.88729793,50.95866444],[3.88733345,50.95867667],[3.88734168,50.95866909],[3.88736951,50.95868048],[3.88736424,50.9586881],[3.88736806,50.95868945],[3.887347,50.95871603],[3.88730515,50.95876886],[3.88733655,50.95877992],[3.88728416,50.95884484]]]}},{"type":"Feature","id":"gebouw/Gebouw.9122107/0","properties":{"source":"Digitaal Vlaanderen Gebouwenregister","source_id":"gebouw/Gebouw.9122107/0","kind":"building","height_m":5.72,"status":null},"geometry":{"type":"Polygon","coordinates":[[[3.88676388,50.96013285],[3.88642926,50.96040357],[3.88631815,50.96049347],[3.88628895,50.96047769],[3.88639239,50.96039422],[3.88673345,50.96011899],[3.88676388,50.96013285]]]}},{"type":"Feature","id":"gebouw/Gebouw.9122109/0","properties":{"source":"Digitaal Vlaanderen Gebouwenregister","source_id":"gebouw/Gebouw.9122109/0","kind":"building","height_m":7.16,"status":null},"geometry":{"type":"Polygon","coordinates":[[[3.88681005,50.95882132],[3.88686497,50.95884305],[3.88682645,50.95888075],[3.88681592,50.95887647],[3.88677964,50.95891196],[3.88669874,50.95887899],[3.88680291,50.95877362],[3.88684223,50.95878945],[3.88681005,50.95882132]]]}},{"type":"Feature","id":"gebouw/Gebouw.9122431/0","properties":{"source":"Digitaal Vlaanderen Gebouwenregister","source_id":"gebouw/Gebouw.9122431/0","kind":"building","height_m":7.16,"status":null},"geometry":{"type":"Polygon","coordinates":[[[3.87836406,50.95508327],[3.87827633,50.95506742],[3.87830456,50.95501074],[3.87839341,50.95502437],[3.87836406,50.95508327]]]}},{"type":"Feature","id":"gebouw/Gebouw.9122432/0","properties":{"source":"Digitaal Vlaanderen Gebouwenregister","source_id":"gebouw/Gebouw.9122432/0","kind":"building","height_m":7.88,"status":null},"geometry":{"type":"Polygon","coordinates":[[[3.87898396,50.95489444],[3.879023,50.95485895],[3.8791043,50.95489628],[3.87907781,50.95491899],[3.87902339,50.95489473],[3.87900969,50.95490637],[3.87898396,50.95489444]]]}},{"type":"Feature","id":"gebouw/Gebouw.9122433/0","properties":{"source":"Digitaal Vlaanderen Gebouwenregister","source_id":"gebouw/Gebouw.9122433/0","kind":"building","height_m":8.6,"status":null},"geometry":{"type":"Polygon","coordinates":[[[3.88325164,50.95669441],[3.8832279,50.95676137],[3.88324849,50.95676398],[3.88323847,50.9567952],[3.88328313,50.95680131],[3.88329417,50.95676914],[3.88325513,50.9567638],[3.88327771,50.95669798],[3.88325164,50.95669441]]]}},{"type":"Feature","id":"gebouw/Gebouw.9122434/0","properties":{"source":"Digitaal Vlaanderen Gebouwenregister","source_id":"gebouw/Gebouw.9122434/0","kind":"building","height_m":9.32,"status":null},"geometry":{"type":"Polygon","coordinates":[[[3.88374016,50.95712968],[3.88375544,50.9570954],[3.88381681,50.95710588],[3.88380153,50.95714016],[3.88374016,50.95712968]]]}},{"type":"Feature","id":"gebouw/Gebouw.9122435/0","properties":{"source":"Digitaal Vlaanderen Gebouwenregister","source_id":"gebouw/Gebouw.9122435/0","kind":"building","height_m":5.0,"status":null},"geometry":{"type":"Polygon","coordinates":[[[3.88429919,50.95691486],[3.88449502,50.9569605],[3.88445066,50.95703451],[3.88425603,50.95698851],[3.88429919,50.95691486]]]}},{"type":"Feature","id":"gebouw/Gebouw.9122457/0","properties":{"source":"Digitaal Vlaanderen Gebouwenregister","source_id":"gebouw/Gebouw.9122457/0","kind":"building","height_m":5.72,"status":null},"geometry":{"type":"Polygon","coordinates":[[[3.88768629,50.95999223],[3.88787716,50.96003574],[3.88784681,50.96008801],[3.88756104,50.96002462],[3.88759677,50.95996137],[3.88769146,50.9599813],[3.88768629,50.95999223]]]}},{"type":"Feature","id":"gebouw/Gebouw.9122495/0","properties":{"source":"Digitaal Vlaanderen Gebouwenregister","source_id":"gebouw/Gebouw.9122495/0","kind":"building","height_m":7.88,"status":null},"geometry":{"type":"Polygon","coordinates":[[[3.88519949,50.95749689],[3.88517664,50.95752484],[3.885047,50.95748243],[3.88507253,50.95745255],[3.88508261,50.95745599],[3.88510488,50.95742993],[3.88510265,50.95742913],[3.88513607,50.95739033],[3.88524758,50.95742853],[3.88524326,50.95743354],[3.88521799,50.95746288],[3.88522503,50.95746568],[3.88519949,50.95749689]]]}},{"type":"Feature","id":"gebouw/Gebouw.9122544/0","properties":{"source":"Digitaal Vlaanderen Gebouwenregister","source_id":"gebouw/Gebouw.9122544/0","kind":"building","height_m":7.88,"status":null},"geometry":{"type":"Polygon","coordinates":[[[3.88570579,50.95657072],[3.88564077,50.95664889],[3.88560571,50.95663705],[3.88552799,50.9566108],[3.88549453,50.9565995],[3.88550119,50.95659163],[3.88551922,50.95657033],[3.88552555,50.95656285],[3.88553358,50.95656556],[3.88559833,50.95648703],[3.88576224,50.95654096],[3.88573135,50.95657871],[3.88570579,50.95657072]]]}},{"type":"Feature","id":"gebouw/Gebouw.9122547/0","properties":{"source":"Digitaal Vlaanderen Gebouwenregister","source_id":"gebouw/Gebouw.9122547/0","kind":"building","height_m":5.0,"status":null},"geometry":{"type":"Polygon","coordinates":[[[3.88426246,50.95772453],[3.88438526,50.9576554],[3.88450298,50.95773765],[3.8844521,50.95776629],[3.88445022,50.95776497],[3.88441501,50.95778482],[3.88441678,50.95778607],[3.88437574,50.95780921],[3.88428525,50.9577456],[3.88429038,50.95774285],[3.88426246,50.95772453]]]}},{"type":"Feature","id":"gebouw/Gebouw.9122880/0","properties":{"source":"Digitaal Vlaanderen Gebouwenregister","source_id":"gebouw/Gebouw.9122880/0","kind":"building","height_m":7.88,"status":null},"geometry":{"type":"Polygon","coordinates":[[[3.88472102,50.95707749],[3.88479356,50.95695118],[3.88492563,50.95698257],[3.88485055,50.95710857],[3.88472102,50.95707749]]]}},{"type":"Feature","id":"gebouw/Gebouw.9131732/0","properties":{"source":"Digitaal Vlaanderen Gebouwenregister","source_id":"gebouw/Gebouw.9131732/0","kind":"building","height_m":5.72,"status":null},"geometry":{"type":"Polygon","coordinates":[[[3.88795165,50.95979669],[3.88801291,50.95968763],[3.8880548,50.95969762],[3.88805688,50.95969414],[3.88814212,50.95971449],[3.88811405,50.95976259],[3.88812926,50.95976609],[3.88813125,50.95976263],[3.88813547,50.9597636],[3.88808924,50.95984311],[3.88808104,50.9598413],[3.88807681,50.95984834],[3.88796978,50.95982252],[3.88797992,50.95980376],[3.88795165,50.95979669]]]}},{"type":"Feature","id":"gebouw/Gebouw.9131900/0","properties":{"source":"Digitaal Vlaanderen Gebouwenregister","source_id":"gebouw/Gebouw.9131900/0","kind":"building","height_m":5.72,"status":null},"geometry":{"type":"Polygon","coordinates":[[[3.88442055,50.95757734],[3.88441304,50.95754148],[3.88448888,50.95753434],[3.88449429,50.95757112],[3.88442055,50.95757734]]]}},{"type":"Feature","id":"gebouw/Gebouw.9131901/0","properties":{"source":"Digitaal Vlaanderen Gebouwenregister","source_id":"gebouw/Gebouw.9131901/0","kind":"building","height_m":6.44,"status":null},"geometry":{"type":"Polygon","coordinates":[[[3.88418582,50.95745228],[3.88418648,50.95745276],[3.88412578,50.95748855],[3.88402346,50.95742025],[3.88408816,50.95738093],[3.88418582,50.95745228]]]}},{"type":"Feature","id":"gebouw/Gebouw.9131902/0","properties":{"source":"Digitaal Vlaanderen Gebouwenregister","source_id":"gebouw/Gebouw.9131902/0","kind":"building","height_m":7.16,"status":null},"geometry":{"type":"Polygon","coordinates":[[[3.88517293,50.9585302],[3.885151,50.95851008],[3.88519456,50.95849169],[3.88521648,50.95851219],[3.88517293,50.9585302]]]}},{"type":"Feature","id":"gebouw/Gebouw.9131903/0","properties":{"source":"Digitaal Vlaanderen Gebouwenregister","source_id":"gebouw/Gebouw.9131903/0","kind":"building","height_m":7.88,"status":null},"geometry":{"type":"Polygon","coordinates":[[[3.884733,50.95628595],[3.88468667,50.95630786],[3.88458243,50.95622456],[3.88459921,50.95620922],[3.8845616,50.95622693],[3.88452324,50.95620099],[3.88456123,50.95618047],[3.88456296,50.95618199],[3.88458586,50.95617028],[3.88461726,50.95619089],[3.884733,50.95628595]]]}},{"type":"Feature","id":"gebouw/Gebouw.9131971/0","properties":{"source":"Digitaal Vlaanderen Gebouwenregister","source_id":"gebouw/Gebouw.9131971/0","kind":"building","height_m":6.44,"status":null},"geometry":{"type":"Polygon","coordinates":[[[3.88681466,50.95674652],[3.88677146,50.95677037],[3.88653838,50.95689903],[3.886488,50.95692745],[3.88625204,50.95675733],[3.88625566,50.9567555],[3.88611344,50.95665301],[3.88614154,50.95663593],[3.8860754,50.95658718],[3.88613747,50.95655305],[3.88598927,50.95643993],[3.88608053,50.95639223],[3.88610958,50.95637705],[3.88618316,50.9563386],[3.88619283,50.95634656],[3.8864856,50.9565661],[3.88672447,50.95673775],[3.88676822,50.95671337],[3.88681466,50.95674652]]]}},{"type":"Feature","id":"gebouw/Gebouw.9132465/0","properties":{"source":"Digitaal Vlaanderen Gebouwenregister","source_id":"gebouw/Gebouw.9132465/0","kind":"building","height_m":9.32,"status":null},"geometry":{"type":"Polygon","coordinates":[[[3.88813326,50.95913925],[3.88815584,50.95910861],[3.88819754,50.95912223],[3.88814569,50.95918903],[3.88813453,50.95918553],[3.88811603,50.9592089],[3.88808724,50.95919957],[3.8881066,50.95917751],[3.88808427,50.9591705],[3.88811299,50.95913282],[3.88813326,50.95913925]]]}},{"type":"Feature","id":"gebouw/Gebouw.9132466/0","properties":{"source":"Digitaal Vlaanderen Gebouwenregister","source_id":"gebouw/Gebouw.9132466/0","kind":"building","height_m":5.0,"status":null},"geometry":{"type":"Polygon","coordinates":[[[3.88783705,50.96057962],[3.88784218,50.96045924],[3.88788548,50.96045939],[3.88788003,50.9605807],[3.88783705,50.96057962]]]}},{"type":"Feature","id":"gebouw/Gebouw.9134336/0","properties":{"source":"Digitaal Vlaanderen Gebouwenregister","source_id":"gebouw/Gebouw.9134336/0","kind":"building","height_m":5.72,"status":null},"geometry":{"type":"Polygon","coordinates":[[[3.88528635,50.96039485],[3.88535623,50.96041817],[3.88531963,50.96046137],[3.88524798,50.96043765],[3.88528635,50.96039485]]]}},{"type":"Feature","id":"gebouw/Gebouw.9135190/0","properties":{"source":"Digitaal Vlaanderen Gebouwenregister","source_id":"gebouw/Gebouw.9135190/0","kind":"building","height_m":5.72,"status":null},"geometry":{"type":"Polygon","coordinates":[[[3.88426296,50.95838816],[3.88416316,50.95830879],[3.88416283,50.95830896],[3.88409631,50.95834228],[3.88413638,50.95837417],[3.88412521,50.95838042],[3.88423412,50.9584664],[3.8842062,50.95847967],[3.88419801,50.95848357],[3.88431763,50.95857811],[3.88433649,50.95856893],[3.88440522,50.95853552],[3.88439423,50.9585264],[3.88441927,50.95851331],[3.88441665,50.95851124],[3.88436386,50.95846841],[3.88435983,50.95846521],[3.88431081,50.95842621],[3.88429115,50.95841058],[3.88426296,50.95838816]]]}},{"type":"Feature","id":"gebouw/Gebouw.9155414/0","properties":{"source":"Digitaal Vlaanderen Gebouwenregister","source_id":"gebouw/Gebouw.9155414/0","kind":"building","height_m":6.44,"status":null},"geometry":{"type":"Polygon","coordinates":[[[3.88714545,50.95864137],[3.88700462,50.95877593],[3.88700603,50.95877653],[3.88702783,50.95878587],[3.88698478,50.95882662],[3.88700964,50.9588371],[3.88696938,50.95887521],[3.88698095,50.95888009],[3.88697134,50.95888919],[3.88702566,50.95891208],[3.88694469,50.95898746],[3.88682635,50.95893677],[3.88698674,50.95878645],[3.88692402,50.95875976],[3.8870367,50.95865267],[3.88702567,50.95864806],[3.88706697,50.9586086],[3.88714545,50.95864137]]]}},{"type":"Feature","id":"gebouw/Gebouw.9155417/0","properties":{"source":"Digitaal Vlaanderen Gebouwenregister","source_id":"gebouw/Gebouw.9155417/0","kind":"building","height_m":8.6,"status":null},"geometry":{"type":"Polygon","coordinates":[[[3.88743783,50.95945538],[3.88736315,50.95952736],[3.8872585,50.95948658],[3.88730434,50.95943983],[3.88732277,50.95942104],[3.88736458,50.9593822],[3.88744501,50.95941545],[3.88741389,50.95944548],[3.88743783,50.95945538]]]}},{"type":"Feature","id":"gebouw/Gebouw.9192412/0","properties":{"source":"Digitaal Vlaanderen Gebouwenregister","source_id":"gebouw/Gebouw.9192412/0","kind":"building","height_m":8.6,"status":null},"geometry":{"type":"Polygon","coordinates":[[[3.8873121,50.9584766],[3.88727877,50.95850963],[3.88723073,50.95855725],[3.88719833,50.95854405],[3.88728084,50.95846326],[3.88728612,50.95846542],[3.88729171,50.95845995],[3.88730407,50.95846498],[3.88729805,50.95847088],[3.8873121,50.9584766]]]}},{"type":"Feature","id":"gebouw/Gebouw.9192426/0","properties":{"source":"Digitaal Vlaanderen Gebouwenregister","source_id":"gebouw/Gebouw.9192426/0","kind":"building","height_m":8.6,"status":null},"geometry":{"type":"Polygon","coordinates":[[[3.88548771,50.95834395],[3.8854065,50.95828408],[3.8854063,50.95828394],[3.88535634,50.95831212],[3.88532035,50.95833242],[3.88531617,50.95833478],[3.88525511,50.95836756],[3.88525371,50.95836853],[3.88520812,50.95839312],[3.88508883,50.95845745],[3.88513001,50.95848829],[3.88522591,50.95843588],[3.88524971,50.95845302],[3.88521502,50.95847227],[3.88524547,50.95849531],[3.88535489,50.95843688],[3.88531281,50.95840659],[3.88537165,50.95837339],[3.88539792,50.95839254],[3.88548771,50.95834395]]]}},{"type":"Feature","id":"gebouw/Gebouw.9192456/0","properties":{"source":"Digitaal Vlaanderen Gebouwenregister","source_id":"gebouw/Gebouw.9192456/0","kind":"building","height_m":5.0,"status":null},"geometry":{"type":"Polygon","coordinates":[[[3.88376533,50.9562092],[3.88373037,50.95618414],[3.88369727,50.95620258],[3.88356614,50.95610874],[3.8835992,50.95609032],[3.88356385,50.95606502],[3.88372539,50.9559753],[3.88408538,50.95577537],[3.88426996,50.95592122],[3.88442192,50.9560413],[3.88440441,50.9560512],[3.88443947,50.95607841],[3.88435266,50.95612456],[3.88431285,50.95609767],[3.88432189,50.95609291],[3.88421451,50.95601556],[3.88406338,50.95609971],[3.88405498,50.95609305],[3.88395998,50.95614529],[3.88392644,50.95611972],[3.88383842,50.95616861],[3.88376533,50.9562092]]]}},{"type":"Feature","id":"gebouw/Gebouw.9192646/0","properties":{"source":"Digitaal Vlaanderen Gebouwenregister","source_id":"gebouw/Gebouw.9192646/0","kind":"building","height_m":5.72,"status":null},"geometry":{"type":"Polygon","coordinates":[[[3.88795112,50.95922864],[3.88802387,50.95925327],[3.88795174,50.95934088],[3.88779782,50.95929033],[3.88779121,50.95929818],[3.88772242,50.95927561],[3.88778807,50.95919689],[3.88780919,50.95917523],[3.88783815,50.95916902],[3.88786428,50.95917777],[3.8878738,50.95919624],[3.88795542,50.95922382],[3.88795112,50.95922864]]]}},{"type":"Feature","id":"gebouw/Gebouw.9192674/0","properties":{"source":"Digitaal Vlaanderen Gebouwenregister","source_id":"gebouw/Gebouw.9192674/0","kind":"building","height_m":5.72,"status":null},"geometry":{"type":"Polygon","coordinates":[[[3.88354343,50.95682067],[3.88355594,50.95678954],[3.88361264,50.95679734],[3.88360131,50.95682886],[3.88354343,50.95682067]]]}},{"type":"Feature","id":"gebouw/Gebouw.9192675/0","properties":{"source":"Digitaal Vlaanderen Gebouwenregister","source_id":"gebouw/Gebouw.9192675/0","kind":"building","height_m":6.44,"status":null},"geometry":{"type":"Polygon","coordinates":[[[3.87961522,50.95751164],[3.87954939,50.95752114],[3.87953693,50.9574824],[3.87960039,50.95747287],[3.87961522,50.95751164]]]}},{"type":"Feature","id":"gebouw/Gebouw.9192676/0","properties":{"source":"Digitaal Vlaanderen Gebouwenregister","source_id":"gebouw/Gebouw.9192676/0","kind":"building","height_m":7.16,"status":null},"geometry":{"type":"Polygon","coordinates":[[[3.88525218,50.95832287],[3.88518576,50.95828311],[3.885243,50.95825383],[3.88530447,50.95829035],[3.88525218,50.95832287]]]}},{"type":"Feature","id":"gebouw/Gebouw.9192680/0","properties":{"source":"Digitaal Vlaanderen Gebouwenregister","source_id":"gebouw/Gebouw.9192680/0","kind":"building","height_m":5.0,"status":null},"geometry":{"type":"Polygon","coordinates":[[[3.88702674,50.95664937],[3.8870609,50.95663235],[3.88707113,50.95664054],[3.8870784,50.95663692],[3.88698268,50.95656499],[3.88693987,50.95658807],[3.88700338,50.95663548],[3.8869854,50.95664444],[3.88701971,50.95667191],[3.8870414,50.95666111],[3.88702674,50.95664937]]]}},{"type":"Feature","id":"gebouw/Gebouw.9192682/0","properties":{"source":"Digitaal Vlaanderen Gebouwenregister","source_id":"gebouw/Gebouw.9192682/0","kind":"building","height_m":6.44,"status":null},"geometry":{"type":"Polygon","coordinates":[[[3.88448976,50.95856864],[3.88448529,50.95856512],[3.88437196,50.95862106],[3.88436176,50.95862609],[3.88435892,50.9586275],[3.8843504,50.9586317],[3.88435058,50.95863184],[3.88447581,50.95873081],[3.884607,50.95866244],[3.88458939,50.9586483],[3.88451298,50.95858696],[3.88448976,50.95856864]]]}},{"type":"Feature","id":"gebouw/Gebouw.9192744/0","properties":{"source":"Digitaal Vlaanderen Gebouwenregister","source_id":"gebouw/Gebouw.9192744/0","kind":"building","height_m":5.72,"status":null},"geometry":{"type":"Polygon","coordinates":[[[3.88528761,50.95779385],[3.8852526,50.95778111],[3.88527716,50.95774727],[3.88531948,50.95775978],[3.88529289,50.95779579],[3.88528761,50.95779385]]]}},{"type":"Feature","id":"gebouw/Gebouw.9192751/0","properties":{"source":"Digitaal Vlaanderen Gebouwenregister","source_id":"gebouw/Gebouw.9192751/0","kind":"building","height_m":5.72,"status":null},"geometry":{"type":"Polygon","coordinates":[[[3.87875458,50.95484052],[3.87877153,50.95485852],[3.87872712,50.95487558],[3.87870901,50.95485724],[3.87869173,50.95483975],[3.87874725,50.95481814],[3.8787651,50.95483596],[3.87875458,50.95484052]]]}},{"type":"Feature","id":"gebouw/Gebouw.9192873/0","properties":{"source":"Digitaal Vlaanderen Gebouwenregister","source_id":"gebouw/Gebouw.9192873/0","kind":"building","height_m":7.88,"status":null},"geometry":{"type":"Polygon","coordinates":[[[3.88433506,50.95625447],[3.88439736,50.95626512],[3.88435817,50.95635451],[3.88424481,50.95633469],[3.88424005,50.95634571],[3.88417689,50.9563348],[3.88422065,50.95623489],[3.88425595,50.95624093],[3.88433506,50.95625447]]]}},{"type":"Feature","id":"gebouw/Gebouw.9192874/0","properties":{"source":"Digitaal Vlaanderen Gebouwenregister","source_id":"gebouw/Gebouw.9192874/0","kind":"building","height_m":8.6,"status":null},"geometry":{"type":"Polygon","coordinates":[[[3.8828969,50.95880017],[3.88290049,50.95880866],[3.88282871,50.95882254],[3.88277556,50.95868518],[3.8827852,50.95868341],[3.88277936,50.95867111],[3.88281132,50.95866506],[3.88281446,50.95867167],[3.88283695,50.95866741],[3.8828398,50.9586734],[3.88283982,50.95867344],[3.88284744,50.958672],[3.88285602,50.9586923],[3.88304482,50.95865653],[3.88309908,50.95877073],[3.88302728,50.95878459],[3.88302317,50.95877611],[3.8828969,50.95880017]]]}},{"type":"Feature","id":"gebouw/Gebouw.9192875/0","properties":{"source":"Digitaal Vlaanderen Gebouwenregister","source_id":"gebouw/Gebouw.9192875/0","kind":"building","height_m":9.32,"status":null},"geometry":{"type":"Polygon","coordinates":[[[3.88419999,50.95670462],[3.88409616,50.95668613],[3.88413652,50.95659841],[3.88420578,50.95661094],[3.88420283,50.95661742],[3.88434229,50.95664207],[3.88427202,50.95680078],[3.88420335,50.95678932],[3.88422208,50.9567489],[3.88418287,50.95674113],[3.88419999,50.95670462]]]}},{"type":"Feature","id":"gebouw/Gebouw.9192889/0","properties":{"source":"Digitaal Vlaanderen Gebouwenregister","source_id":"gebouw/Gebouw.9192889/0","kind":"building","height_m":9.32,"status":null},"geometry":{"type":"Polygon","coordinates":[[[3.88654287,50.9565357],[3.8864856,50.9565661],[3.88619283,50.95634656],[3.88622178,50.95633143],[3.88621568,50.95632657],[3.8862409,50.95631394],[3.88621442,50.95629372],[3.88628241,50.95625819],[3.88636366,50.95632023],[3.88633271,50.9563363],[3.88641825,50.95640083],[3.88640558,50.95640779],[3.88649148,50.9564699],[3.88647464,50.95647756],[3.88651583,50.95650803],[3.88650919,50.95651169],[3.88654287,50.9565357]]]}},{"type":"Feature","id":"gebouw/Gebouw.9192975/0","properties":{"source":"Digitaal Vlaanderen Gebouwenregister","source_id":"gebouw/Gebouw.9192975/0","kind":"building","height_m":5.72,"status":null},"geometry":{"type":"Polygon","coordinates":[[[3.88523008,50.95776413],[3.88506115,50.95770177],[3.88502264,50.95768891],[3.88506928,50.95763912],[3.88527702,50.95771281],[3.88523008,50.95776413]]]}},{"type":"Feature","id":"gebouw/Gebouw.9462201/0","properties":{"source":"Digitaal Vlaanderen Gebouwenregister","source_id":"gebouw/Gebouw.9462201/0","kind":"building","height_m":5.0,"status":null},"geometry":{"type":"Polygon","coordinates":[[[3.88694399,50.95853149],[3.8869782,50.95854745],[3.88693207,50.95859203],[3.88689607,50.95857605],[3.88694399,50.95853149]]]}},{"type":"Feature","id":"gebouw/Gebouw.9575645/0","properties":{"source":"Digitaal Vlaanderen Gebouwenregister","source_id":"gebouw/Gebouw.9575645/0","kind":"building","height_m":6.44,"status":null},"geometry":{"type":"Polygon","coordinates":[[[3.88288288,50.95826672],[3.88300185,50.95824587],[3.88300828,50.95826842],[3.88289054,50.95828779],[3.88288288,50.95826672]]]}},{"type":"Feature","id":"gebouw/Gebouw.9689217/0","properties":{"source":"Digitaal Vlaanderen Gebouwenregister","source_id":"gebouw/Gebouw.9689217/0","kind":"building","height_m":9.32,"status":null},"geometry":{"type":"Polygon","coordinates":[[[3.88401511,50.95861715],[3.88388317,50.95856257],[3.88389682,50.9585494],[3.88384413,50.95852785],[3.88390392,50.95846956],[3.88404363,50.9585267],[3.88402497,50.95854647],[3.88406978,50.95856518],[3.88401511,50.95861715]]]}},{"type":"Feature","id":"gebouw/Gebouw.9731845/0","properties":{"source":"Digitaal Vlaanderen Gebouwenregister","source_id":"gebouw/Gebouw.9731845/0","kind":"building","height_m":7.88,"status":null},"geometry":{"type":"Polygon","coordinates":[[[3.87839739,50.95516603],[3.87842437,50.95510031],[3.87866532,50.9551387],[3.87862804,50.95523206],[3.87840005,50.95519565],[3.87841097,50.95516807],[3.87839739,50.95516603]]]}},{"type":"Feature","id":"gebouw/Gebouw.9731976/0","properties":{"source":"Digitaal Vlaanderen Gebouwenregister","source_id":"gebouw/Gebouw.9731976/0","kind":"building","height_m":6.44,"status":null},"geometry":{"type":"Polygon","coordinates":[[[3.88551809,50.95712249],[3.88544683,50.95720803],[3.88525399,50.95714375],[3.88532541,50.95705827],[3.88551809,50.95712249]]]}},{"type":"Feature","id":"gebouw/Gebouw.9731979/0","properties":{"source":"Digitaal Vlaanderen Gebouwenregister","source_id":"gebouw/Gebouw.9731979/0","kind":"building","height_m":8.6,"status":null},"geometry":{"type":"Polygon","coordinates":[[[3.88458887,50.9571543],[3.88457016,50.95718562],[3.8845666,50.95719157],[3.88454835,50.95718723],[3.88452119,50.95723204],[3.88458682,50.95724875],[3.88456723,50.95727945],[3.88470612,50.95731249],[3.88473705,50.95726063],[3.88475032,50.95726371],[3.88476799,50.95723326],[3.88475516,50.95723029],[3.88477834,50.95719141],[3.88459304,50.95714733],[3.88458887,50.9571543]]]}},{"type":"Feature","id":"gebouw/Gebouw.9737011/0","properties":{"source":"Digitaal Vlaanderen Gebouwenregister","source_id":"gebouw/Gebouw.9737011/0","kind":"building","height_m":7.88,"status":null},"geometry":{"type":"Polygon","coordinates":[[[3.87827861,50.95500593],[3.87829743,50.95502333],[3.87822487,50.9550566],[3.87820493,50.95503931],[3.87827861,50.95500593]]]}},{"type":"Feature","id":"gebouw/Gebouw.9746330/0","properties":{"source":"Digitaal Vlaanderen Gebouwenregister","source_id":"gebouw/Gebouw.9746330/0","kind":"building","height_m":9.32,"status":null},"geometry":{"type":"Polygon","coordinates":[[[3.88390631,50.95876231],[3.88387758,50.95875147],[3.88389641,50.95873299],[3.88371216,50.95866181],[3.88367163,50.95870365],[3.88380329,50.95875619],[3.88377973,50.95878007],[3.88385171,50.95880848],[3.88388342,50.95877663],[3.88388961,50.95877909],[3.88390631,50.95876231]]]}},{"type":"Feature","id":"gebouw/Gebouw.9746331/0","properties":{"source":"Digitaal Vlaanderen Gebouwenregister","source_id":"gebouw/Gebouw.9746331/0","kind":"building","height_m":5.0,"status":null},"geometry":{"type":"Polygon","coordinates":[[[3.88680291,50.95877362],[3.88681329,50.95876311],[3.88680096,50.95875921],[3.8867782,50.9587565],[3.88678126,50.95875364],[3.88671807,50.95872671],[3.88670832,50.95873318],[3.88669492,50.95875057],[3.88673099,50.95876621],[3.88667967,50.9588175],[3.88664418,50.95884967],[3.88670275,50.95887366],[3.88669765,50.95887853],[3.88669874,50.95887899],[3.88680291,50.95877362]]]}},{"type":"Feature","id":"gebouw/Gebouw.9746628/0","properties":{"source":"Digitaal Vlaanderen Gebouwenregister","source_id":"gebouw/Gebouw.9746628/0","kind":"building","height_m":7.16,"status":null},"geometry":{"type":"Polygon","coordinates":[[[3.8824878,50.95637551],[3.88247763,50.95640756],[3.88237101,50.95639243],[3.88238036,50.95636536],[3.88225296,50.9563455],[3.8822567,50.95633478],[3.88224,50.95633246],[3.88224983,50.95630418],[3.88226653,50.9563065],[3.88228215,50.95626161],[3.88237752,50.95627502],[3.88237447,50.95628367],[3.88244141,50.95629308],[3.88243982,50.95629745],[3.8824339,50.95631364],[3.88250424,50.95632373],[3.8824878,50.95637551]]]}},{"type":"Feature","id":"gebouw/Gebouw.9746750/0","properties":{"source":"Digitaal Vlaanderen Gebouwenregister","source_id":"gebouw/Gebouw.9746750/0","kind":"building","height_m":9.32,"status":null},"geometry":{"type":"Polygon","coordinates":[[[3.88404084,50.95705371],[3.88409504,50.95695772],[3.884189,50.9569789],[3.88415927,50.95703005],[3.88412625,50.95702365],[3.88410061,50.95706717],[3.88404084,50.95705371]]]}},{"type":"Feature","id":"gebouw/Gebouw.9746751/0","properties":{"source":"Digitaal Vlaanderen Gebouwenregister","source_id":"gebouw/Gebouw.9746751/0","kind":"building","height_m":5.0,"status":null},"geometry":{"type":"Polygon","coordinates":[[[3.88279126,50.95865652],[3.88274818,50.95857096],[3.88279208,50.95856119],[3.88283693,50.95864677],[3.88279126,50.95865652]]]}},{"type":"Feature","id":"gebouw/Gebouw.9746828/0","properties":{"source":"Digitaal Vlaanderen Gebouwenregister","source_id":"gebouw/Gebouw.9746828/0","kind":"building","height_m":5.0,"status":null},"geometry":{"type":"Polygon","coordinates":[[[3.88475053,50.95824521],[3.88474914,50.95824599],[3.88464248,50.95830617],[3.88458064,50.95834107],[3.88458016,50.95834134],[3.88452499,50.95829899],[3.88457943,50.9582707],[3.88466853,50.95822441],[3.88469984,50.95820905],[3.88471987,50.95822334],[3.88477835,50.95819221],[3.88479431,50.95820383],[3.88480762,50.95819537],[3.88482184,50.95820547],[3.88475053,50.95824521]]]}},{"type":"Feature","id":"gebouw/Gebouw.9746901/0","properties":{"source":"Digitaal Vlaanderen Gebouwenregister","source_id":"gebouw/Gebouw.9746901/0","kind":"building","height_m":7.16,"status":null},"geometry":{"type":"Polygon","coordinates":[[[3.88669492,50.95875057],[3.88670832,50.95873318],[3.88671807,50.95872671],[3.88676099,50.95869823],[3.88685887,50.95859651],[3.88690246,50.95855121],[3.88692663,50.95852181],[3.88693563,50.95850948],[3.88696566,50.95846832],[3.88692266,50.958454],[3.88688939,50.95844292],[3.88687523,50.95843821],[3.88686712,50.95844793],[3.88684263,50.95847726],[3.88680517,50.95852213],[3.88684542,50.95853479],[3.88679701,50.9585859],[3.88665631,50.9585314],[3.88664927,50.95852867],[3.88664705,50.95853413],[3.88658858,50.95851049],[3.88656445,50.95850119],[3.88651836,50.95852626],[3.88649317,50.95853995],[3.88654464,50.95856437],[3.88659556,50.95858853],[3.88659095,50.95859353],[3.88672874,50.95864652],[3.88666272,50.95871128],[3.88666643,50.958716],[3.88665168,50.95873306],[3.8866082,50.95870949],[3.88660091,50.9587154],[3.88659858,50.95871387],[3.88657207,50.95873373],[3.88652097,50.95877199],[3.8865175,50.95877458],[3.8865254,50.9587788],[3.88659859,50.95881793],[3.88660665,50.95882223],[3.88660688,50.95882236],[3.88664559,50.95879264],[3.88668702,50.95876083],[3.88669492,50.95875057]]]}},{"type":"Feature","id":"gebouw/Gebouw.9760977/0","properties":{"source":"Digitaal Vlaanderen Gebouwenregister","source_id":"gebouw/Gebouw.9760977/0","kind":"building","height_m":6.44,"status":null},"geometry":{"type":"Polygon","coordinates":[[[3.88399557,50.95863565],[3.88380757,50.95856242],[3.88380732,50.95856268],[3.88371216,50.95866181],[3.88389641,50.95873299],[3.88399278,50.95863839],[3.88399557,50.95863565]]]}},{"type":"Feature","id":"gebouw/Gebouw.9761256/0","properties":{"source":"Digitaal Vlaanderen Gebouwenregister","source_id":"gebouw/Gebouw.9761256/0","kind":"building","height_m":5.72,"status":null},"geometry":{"type":"Polygon","coordinates":[[[3.88758357,50.95865366],[3.88760123,50.95862858],[3.88765301,50.95864232],[3.88763474,50.95866776],[3.88758357,50.95865366]]]}},{"type":"Feature","id":"gebouw/Gebouw.9761257/0","properties":{"source":"Digitaal Vlaanderen Gebouwenregister","source_id":"gebouw/Gebouw.9761257/0","kind":"building","height_m":6.44,"status":null},"geometry":{"type":"Polygon","coordinates":[[[3.88750921,50.96007386],[3.88760483,50.96011903],[3.88747711,50.96022313],[3.88718131,50.96008217],[3.88702423,50.96000731],[3.88711459,50.95993217],[3.88726691,50.96000525],[3.88747183,50.96010357],[3.88750921,50.96007386]]]}},{"type":"Feature","id":"gebouw/Gebouw.9761339/0","properties":{"source":"Digitaal Vlaanderen Gebouwenregister","source_id":"gebouw/Gebouw.9761339/0","kind":"building","height_m":5.0,"status":null},"geometry":{"type":"Polygon","coordinates":[[[3.88814788,50.95903846],[3.88818131,50.95900197],[3.88822004,50.95901592],[3.88818605,50.95905129],[3.88814788,50.95903846]]]}},{"type":"Feature","id":"gebouw/Gebouw.9761367/0","properties":{"source":"Digitaal Vlaanderen Gebouwenregister","source_id":"gebouw/Gebouw.9761367/0","kind":"building","height_m":5.0,"status":null},"geometry":{"type":"Polygon","coordinates":[[[3.8837825,50.95724913],[3.88374097,50.95722035],[3.88378836,50.95719301],[3.88382902,50.95722122],[3.8837825,50.95724913]]]}},{"type":"Feature","id":"gebouw/Gebouw.9761890/0","properties":{"source":"Digitaal Vlaanderen Gebouwenregister","source_id":"gebouw/Gebouw.9761890/0","kind":"building","height_m":8.6,"status":null},"geometry":{"type":"Polygon","coordinates":[[[3.88492515,50.95857385],[3.884904,50.95855729],[3.88496277,50.95852635],[3.88495784,50.95852273],[3.88500875,50.95849694],[3.88501279,50.95850036],[3.88506226,50.95847324],[3.88508514,50.95849131],[3.88492515,50.95857385]]]}},{"type":"Feature","id":"gebouw/Gebouw.9761897/0","properties":{"source":"Digitaal Vlaanderen Gebouwenregister","source_id":"gebouw/Gebouw.9761897/0","kind":"building","height_m":8.6,"status":null},"geometry":{"type":"Polygon","coordinates":[[[3.88430271,50.95707262],[3.88425345,50.95711248],[3.8841804,50.95707675],[3.88418444,50.95707062],[3.88416354,50.95706531],[3.88415168,50.95708465],[3.88410868,50.95707476],[3.88412337,50.95705003],[3.88416608,50.95705972],[3.8841958,50.95700895],[3.88422025,50.9570143],[3.88421212,50.95702806],[3.88430271,50.95707262]]]}},{"type":"Feature","id":"gebouw/Gebouw.11759146/0","properties":{"source":"Digitaal Vlaanderen Gebouwenregister","source_id":"gebouw/Gebouw.11759146/0","kind":"building","height_m":5.0,"status":null},"geometry":{"type":"Polygon","coordinates":[[[3.88529324,50.95732359],[3.88527419,50.95734551],[3.88515081,50.95730295],[3.88517867,50.95727081],[3.8851834,50.95727245],[3.88523014,50.95721796],[3.88534977,50.95725853],[3.88534883,50.95725961],[3.88529324,50.95732359]]]}},{"type":"Feature","id":"gebouw/Gebouw.11930946/0","properties":{"source":"Digitaal Vlaanderen Gebouwenregister","source_id":"gebouw/Gebouw.11930946/0","kind":"building","height_m":9.32,"status":null},"geometry":{"type":"Polygon","coordinates":[[[3.88510455,50.9579075],[3.88499578,50.95787032],[3.88499992,50.95786548],[3.8849589,50.95785129],[3.88496292,50.95784669],[3.88492696,50.9578348],[3.88497901,50.95777496],[3.88501435,50.95778701],[3.88502313,50.95777702],[3.88517316,50.95782964],[3.88516438,50.9578396],[3.88510455,50.9579075]]]}},{"type":"Feature","id":"gebouw/Gebouw.11936078/0","properties":{"source":"Digitaal Vlaanderen Gebouwenregister","source_id":"gebouw/Gebouw.11936078/0","kind":"building","height_m":5.0,"status":null},"geometry":{"type":"Polygon","coordinates":[[[3.88496533,50.9579902],[3.88496523,50.95799026],[3.8848328,50.95808389],[3.88479903,50.9581094],[3.88476511,50.95809065],[3.88480606,50.95806111],[3.8847804,50.95804692],[3.88481753,50.95802013],[3.8847855,50.95800242],[3.88487204,50.95793922],[3.88496533,50.9579902]]]}},{"type":"Feature","id":"gebouw/Gebouw.11951320/0","properties":{"source":"Digitaal Vlaanderen Gebouwenregister","source_id":"gebouw/Gebouw.11951320/0","kind":"building","height_m":7.16,"status":null},"geometry":{"type":"Polygon","coordinates":[[[3.88391922,50.9580115],[3.88349431,50.95770944],[3.88378068,50.95754711],[3.8842063,50.95785072],[3.88391922,50.9580115]]]}},{"type":"Feature","id":"gebouw/Gebouw.17940578/0","properties":{"source":"Digitaal Vlaanderen Gebouwenregister","source_id":"gebouw/Gebouw.17940578/0","kind":"building","height_m":8.6,"status":null},"geometry":{"type":"Polygon","coordinates":[[[3.88520791,50.9577902],[3.88517316,50.95782964],[3.88516438,50.9578396],[3.88510455,50.9579075],[3.88499578,50.95787032],[3.88499992,50.95786548],[3.8849589,50.95785129],[3.88496292,50.95784669],[3.88492696,50.9578348],[3.88483739,50.95780435],[3.88497963,50.95763829],[3.88506818,50.95766845],[3.88497901,50.95777496],[3.88501435,50.95778701],[3.88502313,50.95777702],[3.88509131,50.95780092],[3.88512389,50.95776064],[3.88520791,50.9577902]]]}},{"type":"Feature","id":"gebouw/Gebouw.18311074/0","properties":{"source":"Digitaal Vlaanderen Gebouwenregister","source_id":"gebouw/Gebouw.18311074/0","kind":"building","height_m":8.6,"status":null},"geometry":{"type":"Polygon","coordinates":[[[3.88400133,50.95630867],[3.88388199,50.95628804],[3.88393067,50.95620518],[3.88404597,50.95623082],[3.88400133,50.95630867]]]}},{"type":"Feature","id":"gebouw/Gebouw.18311297/0","properties":{"source":"Digitaal Vlaanderen Gebouwenregister","source_id":"gebouw/Gebouw.18311297/0","kind":"building","height_m":7.88,"status":null},"geometry":{"type":"Polygon","coordinates":[[[3.88355985,50.95622379],[3.88370828,50.95612875],[3.88363314,50.95607307],[3.88340063,50.95620551],[3.88355985,50.95622379]]]}},{"type":"Feature","id":"gebouw/Gebouw.18311298/0","properties":{"source":"Digitaal Vlaanderen Gebouwenregister","source_id":"gebouw/Gebouw.18311298/0","kind":"building","height_m":8.6,"status":null},"geometry":{"type":"Polygon","coordinates":[[[3.8838025,50.95626758],[3.88385123,50.95617968],[3.8837678,50.95615417],[3.88363143,50.95623918],[3.8838025,50.95626758]]]}},{"type":"Feature","id":"gebouw/Gebouw.18311335/0","properties":{"source":"Digitaal Vlaanderen Gebouwenregister","source_id":"gebouw/Gebouw.18311335/0","kind":"building","height_m":5.0,"status":null},"geometry":{"type":"Polygon","coordinates":[[[3.88410117,50.95590132],[3.8842673,50.95602282],[3.88417117,50.95607024],[3.88402416,50.95602685],[3.88394891,50.95598123],[3.88410117,50.95590132]]]}},{"type":"Feature","id":"gebouw/Gebouw.18362093/0","properties":{"source":"Digitaal Vlaanderen Gebouwenregister","source_id":"gebouw/Gebouw.18362093/0","kind":"building","height_m":5.72,"status":null},"geometry":{"type":"Polygon","coordinates":[[[3.88829963,50.96003973],[3.88831116,50.96004265],[3.88829569,50.96007408],[3.88827971,50.96007019],[3.88824645,50.96006209],[3.88826347,50.96003058],[3.88829963,50.96003973]]]}},{"type":"Feature","id":"gebouw/Gebouw.18362094/0","properties":{"source":"Digitaal Vlaanderen Gebouwenregister","source_id":"gebouw/Gebouw.18362094/0","kind":"building","height_m":6.44,"status":null},"geometry":{"type":"Polygon","coordinates":[[[3.88777197,50.95905499],[3.88775931,50.95907099],[3.88769428,50.95904871],[3.88778401,50.9589289],[3.88776577,50.95892249],[3.88781727,50.95884926],[3.88790664,50.95887612],[3.88785424,50.95895103],[3.88777197,50.95905499]]]}},{"type":"Feature","id":"gebouw/Gebouw.18362095/0","properties":{"source":"Digitaal Vlaanderen Gebouwenregister","source_id":"gebouw/Gebouw.18362095/0","kind":"building","height_m":7.16,"status":null},"geometry":{"type":"Polygon","coordinates":[[[3.88785424,50.95895103],[3.88787724,50.95895736],[3.88786801,50.95897431],[3.88787745,50.95897714],[3.88786595,50.95899594],[3.88785956,50.95899414],[3.88784072,50.9590268],[3.88782899,50.95902393],[3.88780917,50.95906379],[3.88777197,50.95905499],[3.88785424,50.95895103]]]}},{"type":"Feature","id":"gebouw/Gebouw.18362932/0","properties":{"source":"Digitaal Vlaanderen Gebouwenregister","source_id":"gebouw/Gebouw.18362932/0","kind":"building","height_m":5.0,"status":null},"geometry":{"type":"Polygon","coordinates":[[[3.88277419,50.95851241],[3.88273095,50.95851991],[3.88271457,50.95848369],[3.88275657,50.95847507],[3.88277419,50.95851241]]]}},{"type":"Feature","id":"gebouw/Gebouw.18374768/0","properties":{"source":"Digitaal Vlaanderen Gebouwenregister","source_id":"gebouw/Gebouw.18374768/0","kind":"building","height_m":9.32,"status":null},"geometry":{"type":"Polygon","coordinates":[[[3.88410778,50.95863354],[3.88419899,50.95867101],[3.88417479,50.95869833],[3.88408202,50.95866003],[3.88410778,50.95863354]]]}},{"type":"Feature","id":"gebouw/Gebouw.18374769/0","properties":{"source":"Digitaal Vlaanderen Gebouwenregister","source_id":"gebouw/Gebouw.18374769/0","kind":"building","height_m":5.0,"status":null},"geometry":{"type":"Polygon","coordinates":[[[3.88595505,50.95683418],[3.88599303,50.95682576],[3.88602882,50.95688004],[3.88599002,50.95689026],[3.88595505,50.95683418]]]}},{"type":"Feature","id":"gebouw/Gebouw.18463307/0","properties":{"source":"Digitaal Vlaanderen Gebouwenregister","source_id":"gebouw/Gebouw.18463307/0","kind":"building","height_m":6.44,"status":null},"geometry":{"type":"Polygon","coordinates":[[[3.88445061,50.95819859],[3.88435507,50.95814491],[3.88435282,50.9581466],[3.88436622,50.95815441],[3.88433942,50.95817355],[3.88432562,50.95816584],[3.88426448,50.9582095],[3.88434919,50.95825745],[3.88436459,50.95824588],[3.88440847,50.95826917],[3.88445124,50.95823702],[3.8844209,50.95822092],[3.88445061,50.95819859]]]}},{"type":"Feature","id":"gebouw/Gebouw.18496411/0","properties":{"source":"Digitaal Vlaanderen Gebouwenregister","source_id":"gebouw/Gebouw.18496411/0","kind":"building","height_m":7.16,"status":null},"geometry":{"type":"Polygon","coordinates":[[[3.88416316,50.95830879],[3.88426296,50.95838816],[3.8843396,50.95834977],[3.88423976,50.95827027],[3.88416316,50.95830879]]]}},{"type":"Feature","id":"gebouw/Gebouw.18733484/0","properties":{"source":"Digitaal Vlaanderen Gebouwenregister","source_id":"gebouw/Gebouw.18733484/0","kind":"building","height_m":5.0,"status":null},"geometry":{"type":"Polygon","coordinates":[[[3.88321881,50.956787],[3.88321137,50.95680044],[3.88312077,50.95678763],[3.88313607,50.95674149],[3.88321814,50.95675234],[3.88320984,50.95677738],[3.88322166,50.95677897],[3.88321881,50.956787]]]}},{"type":"Feature","id":"gebouw/Gebouw.18735044/0","properties":{"source":"Digitaal Vlaanderen Gebouwenregister","source_id":"gebouw/Gebouw.18735044/0","kind":"building","height_m":9.32,"status":null},"geometry":{"type":"Polygon","coordinates":[[[3.88537809,50.9578931],[3.88533752,50.95787992],[3.88538541,50.95782108],[3.88542599,50.95783425],[3.88537809,50.9578931]]]}},{"type":"Feature","id":"gebouw/Gebouw.18735045/0","properties":{"source":"Digitaal Vlaanderen Gebouwenregister","source_id":"gebouw/Gebouw.18735045/0","kind":"building","height_m":5.0,"status":null},"geometry":{"type":"Polygon","coordinates":[[[3.88552101,50.95758869],[3.88557915,50.95760795],[3.88555414,50.95763806],[3.88557597,50.95764529],[3.88554163,50.95768664],[3.88551532,50.95767792],[3.88552008,50.95767219],[3.88546642,50.95765442],[3.88552101,50.95758869]]]}},{"type":"Feature","id":"gebouw/Gebouw.18735046/0","properties":{"source":"Digitaal Vlaanderen Gebouwenregister","source_id":"gebouw/Gebouw.18735046/0","kind":"building","height_m":5.72,"status":null},"geometry":{"type":"Polygon","coordinates":[[[3.88559768,50.95749708],[3.88562662,50.95746307],[3.88566733,50.95747688],[3.88568783,50.95745278],[3.88573909,50.95747018],[3.88568966,50.95752829],[3.88559768,50.95749708]]]}},{"type":"Feature","id":"gebouw/Gebouw.18735395/0","properties":{"source":"Digitaal Vlaanderen Gebouwenregister","source_id":"gebouw/Gebouw.18735395/0","kind":"building","height_m":5.0,"status":null},"geometry":{"type":"Polygon","coordinates":[[[3.88464325,50.9570107],[3.88466307,50.95697633],[3.88473114,50.95699199],[3.88471132,50.95702636],[3.88464325,50.9570107]]]}},{"type":"Feature","id":"gebouw/Gebouw.18735396/0","properties":{"source":"Digitaal Vlaanderen Gebouwenregister","source_id":"gebouw/Gebouw.18735396/0","kind":"building","height_m":5.72,"status":null},"geometry":{"type":"Polygon","coordinates":[[[3.88193153,50.95627572],[3.88196175,50.95627951],[3.8819476,50.95632448],[3.88191762,50.95632071],[3.88193153,50.95627572]]]}},{"type":"Feature","id":"gebouw/Gebouw.18737160/0","properties":{"source":"Digitaal Vlaanderen Gebouwenregister","source_id":"gebouw/Gebouw.18737160/0","kind":"building","height_m":5.72,"status":null},"geometry":{"type":"Polygon","coordinates":[[[3.88628493,50.95710284],[3.88631689,50.95708299],[3.88637654,50.9571213],[3.88634458,50.95714115],[3.88628493,50.95710284]]]}},{"type":"Feature","id":"gebouw/Gebouw.18737161/0","properties":{"source":"Digitaal Vlaanderen Gebouwenregister","source_id":"gebouw/Gebouw.18737161/0","kind":"building","height_m":6.44,"status":null},"geometry":{"type":"Polygon","coordinates":[[[3.88632552,50.95707858],[3.88635678,50.95705989],[3.88641648,50.95709973],[3.88638521,50.95711842],[3.88632552,50.95707858]]]}},{"type":"Feature","id":"gebouw/Gebouw.18737162/0","properties":{"source":"Digitaal Vlaanderen Gebouwenregister","source_id":"gebouw/Gebouw.18737162/0","kind":"building","height_m":7.16,"status":null},"geometry":{"type":"Polygon","coordinates":[[[3.8860732,50.95677627],[3.88610443,50.95676797],[3.88613312,50.95681105],[3.88610188,50.95681934],[3.8860732,50.95677627]]]}},{"type":"Feature","id":"gebouw/Gebouw.18737163/0","properties":{"source":"Digitaal Vlaanderen Gebouwenregister","source_id":"gebouw/Gebouw.18737163/0","kind":"building","height_m":7.88,"status":null},"geometry":{"type":"Polygon","coordinates":[[[3.88601561,50.95684747],[3.88599897,50.95682517],[3.88608014,50.95680102],[3.88609677,50.95682331],[3.88601561,50.95684747]]]}},{"type":"Feature","id":"gebouw/Gebouw.18737164/0","properties":{"source":"Digitaal Vlaanderen Gebouwenregister","source_id":"gebouw/Gebouw.18737164/0","kind":"building","height_m":8.6,"status":null},"geometry":{"type":"Polygon","coordinates":[[[3.88601629,50.9569298],[3.8859996,50.95690282],[3.88608246,50.95688237],[3.88609916,50.95690935],[3.88601629,50.9569298]]]}},{"type":"Feature","id":"gebouw/Gebouw.18737165/0","properties":{"source":"Digitaal Vlaanderen Gebouwenregister","source_id":"gebouw/Gebouw.18737165/0","kind":"building","height_m":9.32,"status":null},"geometry":{"type":"Polygon","coordinates":[[[3.88601913,50.95693829],[3.88609981,50.9569175],[3.88613217,50.95696758],[3.88605148,50.95698838],[3.88601913,50.95693829]]]}},{"type":"Feature","id":"gebouw/Gebouw.18737166/0","properties":{"source":"Digitaal Vlaanderen Gebouwenregister","source_id":"gebouw/Gebouw.18737166/0","kind":"building","height_m":5.0,"status":null},"geometry":{"type":"Polygon","coordinates":[[[3.87858055,50.95523892],[3.87862988,50.95524609],[3.87861996,50.95527333],[3.87857063,50.95526616],[3.87858055,50.95523892]]]}},{"type":"Feature","id":"gebouw/Gebouw.18775143/0","properties":{"source":"Digitaal Vlaanderen Gebouwenregister","source_id":"gebouw/Gebouw.18775143/0","kind":"building","height_m":6.44,"status":null},"geometry":{"type":"Polygon","coordinates":[[[3.8848291,50.95849443],[3.8847813,50.95845737],[3.8847731,50.95846159],[3.88470894,50.95841184],[3.88470447,50.95841414],[3.88469178,50.9584043],[3.88456711,50.95846844],[3.88461464,50.95850529],[3.88463985,50.95849232],[3.88467359,50.95851847],[3.88466427,50.95852327],[3.88471125,50.95855835],[3.8848291,50.95849443]]]}},{"type":"Feature","id":"gebouw/Gebouw.18775144/0","properties":{"source":"Digitaal Vlaanderen Gebouwenregister","source_id":"gebouw/Gebouw.18775144/0","kind":"building","height_m":7.16,"status":null},"geometry":{"type":"Polygon","coordinates":[[[3.88520038,50.95816845],[3.88515581,50.95813581],[3.88514265,50.95814298],[3.88512964,50.95813346],[3.88497042,50.95822171],[3.88502709,50.95826329],[3.88520038,50.95816845]]]}},{"type":"Feature","id":"gebouw/Gebouw.18775145/0","properties":{"source":"Digitaal Vlaanderen Gebouwenregister","source_id":"gebouw/Gebouw.18775145/0","kind":"building","height_m":7.88,"status":null},"geometry":{"type":"Polygon","coordinates":[[[3.88520038,50.95816845],[3.88502709,50.95826329],[3.8850084,50.95827352],[3.88501138,50.95827571],[3.88506592,50.95831577],[3.8852334,50.95822464],[3.88523233,50.95822386],[3.88524908,50.95821467],[3.88523947,50.95820753],[3.88524778,50.95820307],[3.88520314,50.95817047],[3.88520087,50.95816881],[3.88520038,50.95816845]]]}},{"type":"Feature","id":"gebouw/Gebouw.18775146/0","properties":{"source":"Digitaal Vlaanderen Gebouwenregister","source_id":"gebouw/Gebouw.18775146/0","kind":"building","height_m":8.6,"status":null},"geometry":{"type":"Polygon","coordinates":[[[3.88532035,50.95833242],[3.88535634,50.95831212],[3.8854063,50.95828394],[3.88539041,50.95827271],[3.88537967,50.95827852],[3.88533258,50.95824381],[3.88519166,50.9583194],[3.88525511,50.95836756],[3.88531617,50.95833478],[3.88532035,50.95833242]]]}},{"type":"Feature","id":"gebouw/Gebouw.18798222/0","properties":{"source":"Digitaal Vlaanderen Gebouwenregister","source_id":"gebouw/Gebouw.18798222/0","kind":"building","height_m":6.44,"status":null},"geometry":{"type":"Polygon","coordinates":[[[3.88435507,50.95814491],[3.88445061,50.95819859],[3.88449965,50.95822356],[3.88458776,50.95815712],[3.8844846,50.95809999],[3.88448405,50.95809985],[3.88448348,50.95809978],[3.8844829,50.95809977],[3.88448232,50.95809982],[3.88448158,50.95809998],[3.88448092,50.95810025],[3.88448037,50.9581006],[3.88447996,50.95810102],[3.8844364,50.95813261],[3.88443606,50.95813276],[3.88443569,50.95813289],[3.8844353,50.95813299],[3.88443489,50.95813305],[3.88443401,50.95813309],[3.88443315,50.958133],[3.88443235,50.95813277],[3.88443166,50.95813243],[3.88440064,50.95811535],[3.88440008,50.95811503],[3.88439942,50.95811479],[3.88439868,50.95811467],[3.88439792,50.95811466],[3.88439725,50.95811476],[3.88439662,50.95811495],[3.88439607,50.95811522],[3.88439563,50.95811556],[3.88435595,50.95814427],[3.88435507,50.95814491]]]}},{"type":"Feature","id":"gebouw/Gebouw.18854251/0","properties":{"source":"Digitaal Vlaanderen Gebouwenregister","source_id":"gebouw/Gebouw.18854251/0","kind":"building","height_m":7.16,"status":null},"geometry":{"type":"Polygon","coordinates":[[[3.88351361,50.95613067],[3.88358877,50.95614071],[3.88355011,50.95624276],[3.88339877,50.95622424],[3.88340141,50.95621637],[3.88331684,50.95620402],[3.88335091,50.95618485],[3.88340891,50.95619396],[3.88342001,50.95616081],[3.88349924,50.95617318],[3.88351361,50.95613067]]]}},{"type":"Feature","id":"gebouw/Gebouw.18854252/0","properties":{"source":"Digitaal Vlaanderen Gebouwenregister","source_id":"gebouw/Gebouw.18854252/0","kind":"building","height_m":7.88,"status":null},"geometry":{"type":"Polygon","coordinates":[[[3.88360602,50.95614342],[3.88368716,50.95615618],[3.88364703,50.956258],[3.88356757,50.95624551],[3.88355011,50.95624276],[3.88358877,50.95614071],[3.88360602,50.95614342]]]}},{"type":"Feature","id":"gebouw/Gebouw.18854253/0","properties":{"source":"Digitaal Vlaanderen Gebouwenregister","source_id":"gebouw/Gebouw.18854253/0","kind":"building","height_m":8.6,"status":null},"geometry":{"type":"Polygon","coordinates":[[[3.88395054,50.9561941],[3.88390962,50.95629883],[3.8838374,50.95628766],[3.88382678,50.95628602],[3.88386766,50.95618126],[3.88388036,50.95618323],[3.88395054,50.9561941]]]}},{"type":"Feature","id":"gebouw/Gebouw.18854255/0","properties":{"source":"Digitaal Vlaanderen Gebouwenregister","source_id":"gebouw/Gebouw.18854255/0","kind":"building","height_m":5.0,"status":null},"geometry":{"type":"Polygon","coordinates":[[[3.88409263,50.95604699],[3.88398855,50.95596821],[3.88412805,50.95589468],[3.88423213,50.95597346],[3.88409263,50.95604699]]]}},{"type":"Feature","id":"gebouw/Gebouw.18854256/0","properties":{"source":"Digitaal Vlaanderen Gebouwenregister","source_id":"gebouw/Gebouw.18854256/0","kind":"building","height_m":5.72,"status":null},"geometry":{"type":"Polygon","coordinates":[[[3.88396045,50.95619564],[3.88404786,50.95620919],[3.88400689,50.95631398],[3.88391752,50.95630007],[3.88390962,50.95629883],[3.88395054,50.9561941],[3.88396045,50.95619564]]]}},{"type":"Feature","id":"gebouw/Gebouw.19522923/0","properties":{"source":"Digitaal Vlaanderen Gebouwenregister","source_id":"gebouw/Gebouw.19522923/0","kind":"building","height_m":5.0,"status":null},"geometry":{"type":"Polygon","coordinates":[[[3.88696566,50.95846832],[3.88699695,50.95843578],[3.88703165,50.95844647],[3.88696203,50.95853066],[3.88692663,50.95852181],[3.88693563,50.95850948],[3.88696566,50.95846832]]]}},{"type":"Feature","id":"gebouw/Gebouw.19524241/0","properties":{"source":"Digitaal Vlaanderen Gebouwenregister","source_id":"gebouw/Gebouw.19524241/0","kind":"building","height_m":6.44,"status":null},"geometry":{"type":"Polygon","coordinates":[[[3.88422025,50.9570143],[3.88421212,50.95702806],[3.88430271,50.95707262],[3.88425345,50.95711248],[3.8841804,50.95707675],[3.88415939,50.95707208],[3.88416354,50.95706531],[3.88416608,50.95705972],[3.8841958,50.95700895],[3.88422025,50.9570143]]]}},{"type":"Feature","id":"gebouw/Gebouw.19524312/0","properties":{"source":"Digitaal Vlaanderen Gebouwenregister","source_id":"gebouw/Gebouw.19524312/0","kind":"building","height_m":7.16,"status":null},"geometry":{"type":"Polygon","coordinates":[[[3.88415939,50.95707208],[3.88415169,50.95708465],[3.88410868,50.95707476],[3.88412337,50.95705003],[3.88416608,50.95705972],[3.88416354,50.95706531],[3.88415939,50.95707208]]]}},{"type":"Feature","id":"gebouw/Gebouw.19526317/0","properties":{"source":"Digitaal Vlaanderen Gebouwenregister","source_id":"gebouw/Gebouw.19526317/0","kind":"building","height_m":9.32,"status":null},"geometry":{"type":"Polygon","coordinates":[[[3.88730194,50.95877074],[3.88733639,50.95878217],[3.88730572,50.95881904],[3.88727127,50.9588076],[3.88730194,50.95877074]]]}},{"type":"Feature","id":"gebouw/Gebouw.19526318/0","properties":{"source":"Digitaal Vlaanderen Gebouwenregister","source_id":"gebouw/Gebouw.19526318/0","kind":"building","height_m":5.0,"status":null},"geometry":{"type":"Polygon","coordinates":[[[3.88724939,50.9588339],[3.88724119,50.95884376],[3.88716576,50.95881756],[3.88727156,50.95869308],[3.88734566,50.95871819],[3.88733796,50.95872744],[3.88730386,50.95876843],[3.88730194,50.95877074],[3.88727127,50.9588076],[3.88724939,50.9588339]]]}},{"type":"Feature","id":"gebouw/Gebouw.19526663/0","properties":{"source":"Digitaal Vlaanderen Gebouwenregister","source_id":"gebouw/Gebouw.19526663/0","kind":"building","height_m":6.44,"status":null},"geometry":{"type":"Polygon","coordinates":[[[3.88619283,50.95634656],[3.8864856,50.9565661],[3.88672447,50.95673775],[3.88677146,50.95677037],[3.88653838,50.95689903],[3.886488,50.95692745],[3.88625204,50.95675733],[3.88625566,50.9567555],[3.88611344,50.95665301],[3.88614154,50.95663593],[3.8860754,50.95658718],[3.88613747,50.95655305],[3.88598927,50.95643993],[3.88608053,50.95639223],[3.88610958,50.95637705],[3.88618316,50.9563386],[3.88619283,50.95634656]]]}},{"type":"Feature","id":"gebouw/Gebouw.19526664/0","properties":{"source":"Digitaal Vlaanderen Gebouwenregister","source_id":"gebouw/Gebouw.19526664/0","kind":"building","height_m":7.16,"status":null},"geometry":{"type":"Polygon","coordinates":[[[3.88672447,50.95673775],[3.88676822,50.95671337],[3.88681466,50.95674652],[3.88677146,50.95677037],[3.88672447,50.95673775]]]}},{"type":"Feature","id":"gebouw/Gebouw.19526686/0","properties":{"source":"Digitaal Vlaanderen Gebouwenregister","source_id":"gebouw/Gebouw.19526686/0","kind":"building","height_m":7.88,"status":null},"geometry":{"type":"Polygon","coordinates":[[[3.88461726,50.95619089],[3.884733,50.95628595],[3.88468667,50.95630786],[3.88458243,50.95622456],[3.88459921,50.95620922],[3.88461726,50.95619089]]]}},{"type":"Feature","id":"gebouw/Gebouw.19526687/0","properties":{"source":"Digitaal Vlaanderen Gebouwenregister","source_id":"gebouw/Gebouw.19526687/0","kind":"building","height_m":8.6,"status":null},"geometry":{"type":"Polygon","coordinates":[[[3.88459921,50.95620922],[3.8845616,50.95622693],[3.88452324,50.95620099],[3.88456123,50.95618047],[3.88456296,50.95618199],[3.88458586,50.95617028],[3.88461726,50.95619089],[3.88459921,50.95620922]]]}},{"type":"Feature","id":"gebouw/Gebouw.20181189/0","properties":{"source":"Digitaal Vlaanderen Gebouwenregister","source_id":"gebouw/Gebouw.20181189/0","kind":"building","height_m":5.0,"status":null},"geometry":{"type":"Polygon","coordinates":[[[3.88681468,50.9561675],[3.88677759,50.95619129],[3.8868008,50.95621152],[3.88673767,50.95624881],[3.886825,50.95631079],[3.88677788,50.95633714],[3.88653903,50.95618225],[3.88662298,50.95613402],[3.88665453,50.95615588],[3.88669122,50.95613467],[3.88670557,50.95614441],[3.88674895,50.95611972],[3.88681468,50.9561675]]]}},{"type":"Feature","id":"gebouw/Gebouw.20181190/0","properties":{"source":"Digitaal Vlaanderen Gebouwenregister","source_id":"gebouw/Gebouw.20181190/0","kind":"building","height_m":5.72,"status":null},"geometry":{"type":"Polygon","coordinates":[[[3.88678583,50.95634034],[3.88694085,50.95625118],[3.88708852,50.95635073],[3.8869322,50.9564417],[3.88678583,50.95634034]]]}},{"type":"Feature","id":"gebouw/Gebouw.20194260/0","properties":{"source":"Digitaal Vlaanderen Gebouwenregister","source_id":"gebouw/Gebouw.20194260/0","kind":"building","height_m":6.44,"status":null},"geometry":{"type":"Polygon","coordinates":[[[3.87778526,50.96013231],[3.87781211,50.96019727],[3.87773495,50.96020999],[3.8777081,50.96014503],[3.87778526,50.96013231]]]}},{"type":"Feature","id":"gebouw/Gebouw.20194264/0","properties":{"source":"Digitaal Vlaanderen Gebouwenregister","source_id":"gebouw/Gebouw.20194264/0","kind":"building","height_m":9.32,"status":null},"geometry":{"type":"Polygon","coordinates":[[[3.88798318,50.96048174],[3.88797847,50.96051756],[3.88791946,50.96051446],[3.88792418,50.96047864],[3.88798318,50.96048174]]]}},{"type":"Feature","id":"gebouw/Gebouw.20194265/0","properties":{"source":"Digitaal Vlaanderen Gebouwenregister","source_id":"gebouw/Gebouw.20194265/0","kind":"building","height_m":5.0,"status":null},"geometry":{"type":"Polygon","coordinates":[[[3.88429321,50.95750012],[3.88432442,50.95748106],[3.88436223,50.95750575],[3.88433102,50.95752482],[3.88429321,50.95750012]]]}},{"type":"Feature","id":"gebouw/Gebouw.20194266/0","properties":{"source":"Digitaal Vlaanderen Gebouwenregister","source_id":"gebouw/Gebouw.20194266/0","kind":"building","height_m":5.72,"status":null},"geometry":{"type":"Polygon","coordinates":[[[3.88389556,50.9570158],[3.88391287,50.95698316],[3.88396073,50.95699329],[3.88394342,50.95702593],[3.88389556,50.9570158]]]}},{"type":"Feature","id":"gebouw/Gebouw.20194267/0","properties":{"source":"Digitaal Vlaanderen Gebouwenregister","source_id":"gebouw/Gebouw.20194267/0","kind":"building","height_m":6.44,"status":null},"geometry":{"type":"Polygon","coordinates":[[[3.88649592,50.95974188],[3.88646998,50.95972695],[3.88652737,50.95968717],[3.88655331,50.95970209],[3.88649592,50.95974188]]]}},{"type":"Feature","id":"gebouw/Gebouw.20194268/0","properties":{"source":"Digitaal Vlaanderen Gebouwenregister","source_id":"gebouw/Gebouw.20194268/0","kind":"building","height_m":7.16,"status":null},"geometry":{"type":"Polygon","coordinates":[[[3.88659162,50.95963651],[3.8866429,50.95966399],[3.88661747,50.95968292],[3.88656619,50.95965544],[3.88659162,50.95963651]]]}},{"type":"Feature","id":"gebouw/Gebouw.20194269/0","properties":{"source":"Digitaal Vlaanderen Gebouwenregister","source_id":"gebouw/Gebouw.20194269/0","kind":"building","height_m":7.88,"status":null},"geometry":{"type":"Polygon","coordinates":[[[3.88662707,50.95954841],[3.88654833,50.95950651],[3.88663268,50.95944328],[3.88671143,50.95948519],[3.88662707,50.95954841]]]}},{"type":"Feature","id":"gebouw/Gebouw.20194270/0","properties":{"source":"Digitaal Vlaanderen Gebouwenregister","source_id":"gebouw/Gebouw.20194270/0","kind":"building","height_m":8.6,"status":null},"geometry":{"type":"Polygon","coordinates":[[[3.88487086,50.95857781],[3.88493137,50.95854364],[3.88495447,50.95855996],[3.88489396,50.95859413],[3.88487086,50.95857781]]]}},{"type":"Feature","id":"gebouw/Gebouw.20194271/0","properties":{"source":"Digitaal Vlaanderen Gebouwenregister","source_id":"gebouw/Gebouw.20194271/0","kind":"building","height_m":9.32,"status":null},"geometry":{"type":"Polygon","coordinates":[[[3.88501222,50.95849876],[3.88506347,50.95847278],[3.88508715,50.9584914],[3.8850403,50.95851801],[3.88501222,50.95849876]]]}},{"type":"Feature","id":"gebouw/Gebouw.20194272/0","properties":{"source":"Digitaal Vlaanderen Gebouwenregister","source_id":"gebouw/Gebouw.20194272/0","kind":"building","height_m":5.0,"status":null},"geometry":{"type":"Polygon","coordinates":[[[3.88409165,50.95874024],[3.88404752,50.95872424],[3.88407434,50.95869474],[3.88411846,50.95871073],[3.88409165,50.95874024]]]}},{"type":"Feature","id":"gebouw/Gebouw.20194273/0","properties":{"source":"Digitaal Vlaanderen Gebouwenregister","source_id":"gebouw/Gebouw.20194273/0","kind":"building","height_m":5.72,"status":null},"geometry":{"type":"Polygon","coordinates":[[[3.88450937,50.95837006],[3.88447634,50.95835014],[3.88450701,50.95832986],[3.88454004,50.95834978],[3.88450937,50.95837006]]]}},{"type":"Feature","id":"gebouw/Gebouw.20194274/0","properties":{"source":"Digitaal Vlaanderen Gebouwenregister","source_id":"gebouw/Gebouw.20194274/0","kind":"building","height_m":6.44,"status":null},"geometry":{"type":"Polygon","coordinates":[[[3.88440172,50.95605247],[3.88443665,50.95607722],[3.88443758,50.95607788],[3.88435294,50.95612554],[3.8843381,50.95611503],[3.8843165,50.95609973],[3.88440172,50.95605247]]]}},{"type":"Feature","id":"gebouw/Gebouw.20194275/0","properties":{"source":"Digitaal Vlaanderen Gebouwenregister","source_id":"gebouw/Gebouw.20194275/0","kind":"building","height_m":7.16,"status":null},"geometry":{"type":"Polygon","coordinates":[[[3.88618329,50.95730876],[3.88620125,50.9572905],[3.88625428,50.95731129],[3.88623633,50.95732956],[3.88618329,50.95730876]]]}},{"type":"Feature","id":"gebouw/Gebouw.20194276/0","properties":{"source":"Digitaal Vlaanderen Gebouwenregister","source_id":"gebouw/Gebouw.20194276/0","kind":"building","height_m":7.88,"status":null},"geometry":{"type":"Polygon","coordinates":[[[3.88612802,50.95728305],[3.88615002,50.9572637],[3.88620097,50.95728682],[3.88617897,50.95730616],[3.88612802,50.95728305]]]}},{"type":"Feature","id":"gebouw/Gebouw.20194277/0","properties":{"source":"Digitaal Vlaanderen Gebouwenregister","source_id":"gebouw/Gebouw.20194277/0","kind":"building","height_m":8.6,"status":null},"geometry":{"type":"Polygon","coordinates":[[[3.8860517,50.95725917],[3.88607,50.95723828],[3.88612465,50.95725738],[3.88610635,50.95727827],[3.8860517,50.95725917]]]}},{"type":"Feature","id":"gebouw/Gebouw.20194278/0","properties":{"source":"Digitaal Vlaanderen Gebouwenregister","source_id":"gebouw/Gebouw.20194278/0","kind":"building","height_m":9.32,"status":null},"geometry":{"type":"Polygon","coordinates":[[[3.88606406,50.95720197],[3.88602754,50.95718957],[3.88610934,50.95709347],[3.88614586,50.95710587],[3.88606406,50.95720197]]]}},{"type":"Feature","id":"gebouw/Gebouw.20194279/0","properties":{"source":"Digitaal Vlaanderen Gebouwenregister","source_id":"gebouw/Gebouw.20194279/0","kind":"building","height_m":5.0,"status":null},"geometry":{"type":"Polygon","coordinates":[[[3.88604836,50.95699137],[3.88617063,50.95695875],[3.88620077,50.95700381],[3.8860843,50.95703488],[3.88606835,50.95701103],[3.88606255,50.95701258],[3.88604836,50.95699137]]]}},{"type":"Feature","id":"gebouw/Gebouw.20194638/0","properties":{"source":"Digitaal Vlaanderen Gebouwenregister","source_id":"gebouw/Gebouw.20194638/0","kind":"building","height_m":6.44,"status":null},"geometry":{"type":"Polygon","coordinates":[[[3.88676035,50.95679959],[3.88678801,50.95678481],[3.8868396,50.9568233],[3.88681192,50.95683809],[3.88676035,50.95679959]]]}},{"type":"Feature","id":"gebouw/Gebouw.20195336/0","properties":{"source":"Digitaal Vlaanderen Gebouwenregister","source_id":"gebouw/Gebouw.20195336/0","kind":"building","height_m":5.0,"status":null},"geometry":{"type":"Polygon","coordinates":[[[3.88274514,50.95832364],[3.88273244,50.95829952],[3.88297591,50.95824839],[3.88298861,50.95827251],[3.88274514,50.95832364]]]}},{"type":"Feature","id":"gebouw/Gebouw.20838034/0","properties":{"source":"Digitaal Vlaanderen Gebouwenregister","source_id":"gebouw/Gebouw.20838034/0","kind":"building","height_m":5.0,"status":null},"geometry":{"type":"Polygon","coordinates":[[[3.884976,50.95799622],[3.88504871,50.95803725],[3.88491619,50.95813094],[3.88483675,50.95808611],[3.8848328,50.95808389],[3.88496523,50.95799026],[3.88496533,50.9579902],[3.884976,50.95799622]]]}},{"type":"Feature","id":"gebouw/Gebouw.30584742/0","properties":{"source":"Digitaal Vlaanderen Gebouwenregister","source_id":"gebouw/Gebouw.30584742/0","kind":"building","height_m":9.32,"status":null},"geometry":{"type":"Polygon","coordinates":[[[3.88236159,50.95672794],[3.88237368,50.95669086],[3.88243967,50.95669944],[3.88242758,50.95673653],[3.88236159,50.95672794]]]}},{"type":"Feature","id":"gebouw/Gebouw.30584743/0","properties":{"source":"Digitaal Vlaanderen Gebouwenregister","source_id":"gebouw/Gebouw.30584743/0","kind":"building","height_m":5.0,"status":null},"geometry":{"type":"Polygon","coordinates":[[[3.8858586,50.95716372],[3.88598589,50.9572062],[3.88595344,50.95724498],[3.88582617,50.95720251],[3.88585504,50.95716801],[3.8858586,50.95716372]]]}},{"type":"Feature","id":"gebouw/Gebouw.30589946/0","properties":{"source":"Digitaal Vlaanderen Gebouwenregister","source_id":"gebouw/Gebouw.30589946/0","kind":"building","height_m":6.44,"status":null},"geometry":{"type":"Polygon","coordinates":[[[3.88391732,50.95609339],[3.88398496,50.95610426],[3.88397904,50.95612058],[3.88397663,50.95612723],[3.88390749,50.95611729],[3.88389467,50.95611544],[3.88390436,50.95609091],[3.88391732,50.95609339]]]}},{"type":"Feature","id":"gebouw/Gebouw.30796183/0","properties":{"source":"Digitaal Vlaanderen Gebouwenregister","source_id":"gebouw/Gebouw.30796183/0","kind":"building","height_m":8.6,"status":null},"geometry":{"type":"Polygon","coordinates":[[[3.88378964,50.956057],[3.8838335,50.95606353],[3.88381069,50.95612464],[3.88376459,50.95611777],[3.8837613,50.95611728],[3.88378412,50.95605617],[3.88378964,50.956057]]]}},{"type":"Feature","id":"gebouw/Gebouw.30796184/0","properties":{"source":"Digitaal Vlaanderen Gebouwenregister","source_id":"gebouw/Gebouw.30796184/0","kind":"building","height_m":9.32,"status":null},"geometry":{"type":"Polygon","coordinates":[[[3.88386766,50.95618126],[3.88382678,50.95628602],[3.8837303,50.95627123],[3.88377065,50.95616637],[3.88386766,50.95618126]]]}},{"type":"Feature","id":"gebouw/Gebouw.30859951/0","properties":{"source":"Digitaal Vlaanderen Gebouwenregister","source_id":"gebouw/Gebouw.30859951/0","kind":"building","height_m":7.16,"status":null},"geometry":{"type":"Polygon","coordinates":[[[3.88504871,50.95803725],[3.884976,50.95799622],[3.88496536,50.95799022],[3.88496472,50.95799066],[3.88487869,50.95805242],[3.88484261,50.9580783],[3.8848237,50.95809186],[3.8848263,50.95809334],[3.884903,50.95813668],[3.88504871,50.95803725]]]}},{"type":"Feature","id":"gebouw/Gebouw.30956140/0","properties":{"source":"Digitaal Vlaanderen Gebouwenregister","source_id":"gebouw/Gebouw.30956140/0","kind":"building","height_m":8.6,"status":null},"geometry":{"type":"Polygon","coordinates":[[[3.88479582,50.95811086],[3.8848237,50.95809186],[3.88484261,50.9580783],[3.88487869,50.95805242],[3.88496472,50.95799066],[3.88496536,50.95799022],[3.88496531,50.95799019],[3.88491213,50.95796113],[3.88487204,50.95793922],[3.88487122,50.9579398],[3.88478413,50.95800161],[3.88481359,50.95801817],[3.88477915,50.95804285],[3.88465759,50.95797502],[3.8845937,50.95802101],[3.88474703,50.95810597],[3.88476442,50.95809346],[3.88479582,50.95811086]]]}},{"type":"Feature","id":"gebouw/Gebouw.31001718/0","properties":{"source":"Digitaal Vlaanderen Gebouwenregister","source_id":"gebouw/Gebouw.31001718/0","kind":"building","height_m":9.32,"status":null},"geometry":{"type":"Polygon","coordinates":[[[3.87836779,50.95534383],[3.87833859,50.95537508],[3.8782847,50.95535319],[3.87828096,50.95535167],[3.87830883,50.95532185],[3.87836779,50.95534383]]]}},{"type":"Feature","id":"gebouw/Gebouw.31001722/0","properties":{"source":"Digitaal Vlaanderen Gebouwenregister","source_id":"gebouw/Gebouw.31001722/0","kind":"building","height_m":7.16,"status":null},"geometry":{"type":"Polygon","coordinates":[[[3.88410278,50.95617473],[3.8840547,50.95616728],[3.88407483,50.95611545],[3.88412291,50.9561229],[3.88410278,50.95617473]]]}},{"type":"Feature","id":"gebouw/Gebouw.31001725/0","properties":{"source":"Digitaal Vlaanderen Gebouwenregister","source_id":"gebouw/Gebouw.31001725/0","kind":"building","height_m":9.32,"status":null},"geometry":{"type":"Polygon","coordinates":[[[3.88518477,50.95848604],[3.88511212,50.95852245],[3.88513948,50.95854368],[3.8852151,50.95850949],[3.88518477,50.95848604]]]}},{"type":"Feature","id":"gebouw/Gebouw.31001726/0","properties":{"source":"Digitaal Vlaanderen Gebouwenregister","source_id":"gebouw/Gebouw.31001726/0","kind":"building","height_m":5.0,"status":null},"geometry":{"type":"Polygon","coordinates":[[[3.88243855,50.95667069],[3.88238882,50.9566635],[3.88241492,50.95659151],[3.88246464,50.9565987],[3.88243855,50.95667069]]]}},{"type":"Feature","id":"gebouw/Gebouw.31002023/0","properties":{"source":"Digitaal Vlaanderen Gebouwenregister","source_id":"gebouw/Gebouw.31002023/0","kind":"building","height_m":7.16,"status":null},"geometry":{"type":"Polygon","coordinates":[[[3.88347237,50.95681436],[3.88348425,50.95678181],[3.88354979,50.95679134],[3.88356001,50.95676334],[3.88361279,50.95677102],[3.8835907,50.95683158],[3.88347237,50.95681436]]]}},{"type":"Feature","id":"gebouw/Gebouw.31002024/0","properties":{"source":"Digitaal Vlaanderen Gebouwenregister","source_id":"gebouw/Gebouw.31002024/0","kind":"building","height_m":7.88,"status":null},"geometry":{"type":"Polygon","coordinates":[[[3.88660982,50.95970652],[3.88658682,50.95972349],[3.88650036,50.95967672],[3.88652337,50.95965975],[3.88660982,50.95970652]]]}},{"type":"Feature","id":"gebouw/Gebouw.31106273/0","properties":{"source":"Digitaal Vlaanderen Gebouwenregister","source_id":"gebouw/Gebouw.31106273/0","kind":"building","height_m":6.44,"status":null},"geometry":{"type":"Polygon","coordinates":[[[3.88505545,50.95679611],[3.88497932,50.95677677],[3.88495174,50.95676976],[3.88491552,50.95682574],[3.88490232,50.95682285],[3.88490118,50.9568246],[3.88504582,50.9568616],[3.88506222,50.9568361],[3.88505425,50.95683437],[3.88507567,50.95680125],[3.88505545,50.95679611]]]}},{"type":"Feature","id":"gebouw/Gebouw.31106274/0","properties":{"source":"Digitaal Vlaanderen Gebouwenregister","source_id":"gebouw/Gebouw.31106274/0","kind":"building","height_m":7.16,"status":null},"geometry":{"type":"Polygon","coordinates":[[[3.88459512,50.95665186],[3.8845501,50.95674612],[3.88465256,50.95676561],[3.88469513,50.95667633],[3.88464882,50.95666761],[3.88465119,50.95666253],[3.88459512,50.95665186]]]}},{"type":"Feature","id":"gebouw/Gebouw.31106277/0","properties":{"source":"Digitaal Vlaanderen Gebouwenregister","source_id":"gebouw/Gebouw.31106277/0","kind":"building","height_m":9.32,"status":null},"geometry":{"type":"Polygon","coordinates":[[[3.88504582,50.9568616],[3.88490118,50.9568246],[3.88489848,50.95682877],[3.88486098,50.95688668],[3.88499816,50.95692178],[3.88501597,50.9568936],[3.88502392,50.95689564],[3.88504307,50.95686587],[3.88504582,50.9568616]]]}},{"type":"Feature","id":"gebouw/Gebouw.31106278/0","properties":{"source":"Digitaal Vlaanderen Gebouwenregister","source_id":"gebouw/Gebouw.31106278/0","kind":"building","height_m":5.0,"status":null},"geometry":{"type":"Polygon","coordinates":[[[3.88498416,50.95671997],[3.88508721,50.95674604],[3.88510787,50.95675127],[3.88512193,50.95672878],[3.88513018,50.95673076],[3.88515581,50.9566907],[3.88502389,50.95665732],[3.88498416,50.95671997]]]}},{"type":"Feature","id":"gebouw/Gebouw.31106279/0","properties":{"source":"Digitaal Vlaanderen Gebouwenregister","source_id":"gebouw/Gebouw.31106279/0","kind":"building","height_m":5.72,"status":null},"geometry":{"type":"Polygon","coordinates":[[[3.88459512,50.95665186],[3.88447272,50.95662859],[3.88442777,50.95672286],[3.8845501,50.95674612],[3.88459512,50.95665186]]]}},{"type":"Feature","id":"gebouw/Gebouw.31391449/0","properties":{"source":"Digitaal Vlaanderen Gebouwenregister","source_id":"gebouw/Gebouw.31391449/0","kind":"building","height_m":8.6,"status":null},"geometry":{"type":"Polygon","coordinates":[[[3.88753934,50.95973669],[3.88768808,50.95960062],[3.88760698,50.95956526],[3.8875567,50.9596109],[3.88751481,50.95959251],[3.88751968,50.95958807],[3.88745498,50.95955982],[3.88736509,50.95964237],[3.88743074,50.95967026],[3.88743526,50.95966601],[3.88749174,50.95969001],[3.88747234,50.95970822],[3.88753934,50.95973669]]]}},{"type":"Feature","id":"gebouw/Gebouw.31444104/0","properties":{"source":"Digitaal Vlaanderen Gebouwenregister","source_id":"gebouw/Gebouw.31444104/0","kind":"building","height_m":9.32,"status":null},"geometry":{"type":"Polygon","coordinates":[[[3.88658557,50.95916554],[3.88666876,50.95910821],[3.88675666,50.95914461],[3.88667249,50.95920831],[3.88658557,50.95916554]]]}},{"type":"Feature","id":"gebouw/Gebouw.31529285/0","properties":{"source":"Digitaal Vlaanderen Gebouwenregister","source_id":"gebouw/Gebouw.31529285/0","kind":"building","height_m":7.88,"status":null},"geometry":{"type":"Polygon","coordinates":[[[3.88589182,50.95663693],[3.88587659,50.95660811],[3.88584293,50.95661487],[3.88584356,50.95661631],[3.88585581,50.95664428],[3.88589182,50.95663693]]]}},{"type":"Feature","id":"gebouw/Gebouw.31545760/0","properties":{"source":"Digitaal Vlaanderen Gebouwenregister","source_id":"gebouw/Gebouw.31545760/0","kind":"building","height_m":5.72,"status":null},"geometry":{"type":"Polygon","coordinates":[[[3.8793486,50.95460935],[3.87934115,50.95460171],[3.87931693,50.9546114],[3.87932439,50.95461904],[3.8793486,50.95460935]]]}},{"type":"Feature","id":"gebouw/Gebouw.31597998/0","properties":{"source":"Digitaal Vlaanderen Gebouwenregister","source_id":"gebouw/Gebouw.31597998/0","kind":"building","height_m":8.6,"status":null},"geometry":{"type":"Polygon","coordinates":[[[3.88667468,50.95920746],[3.8867597,50.95924489],[3.88683133,50.95917999],[3.88676269,50.95914978],[3.88674631,50.95914257],[3.88667468,50.95920746]]]}},{"type":"Feature","id":"gebouw/Gebouw.31597999/0","properties":{"source":"Digitaal Vlaanderen Gebouwenregister","source_id":"gebouw/Gebouw.31597999/0","kind":"building","height_m":9.32,"status":null},"geometry":{"type":"Polygon","coordinates":[[[3.88667643,50.95920972],[3.88676318,50.95925165],[3.88683454,50.95919276],[3.88674779,50.95915083],[3.88667643,50.95920972]]]}},{"type":"Feature","id":"gebouw/Gebouw.31598004/0","properties":{"source":"Digitaal Vlaanderen Gebouwenregister","source_id":"gebouw/Gebouw.31598004/0","kind":"building","height_m":7.88,"status":null},"geometry":{"type":"Polygon","coordinates":[[[3.88667506,50.95920844],[3.88675475,50.95924472],[3.88683129,50.95917768],[3.88675899,50.95914476],[3.88667506,50.95920844]]]}},{"type":"Feature","id":"gebouw/Gebouw.31598009/0","properties":{"source":"Digitaal Vlaanderen Gebouwenregister","source_id":"gebouw/Gebouw.31598009/0","kind":"building","height_m":6.44,"status":null},"geometry":{"type":"Polygon","coordinates":[[[3.88668749,50.95921119],[3.88675836,50.95923957],[3.88680977,50.95918837],[3.88673889,50.95915999],[3.88668749,50.95921119]]]}},{"type":"Feature","id":"gebouw/Gebouw.31762063/0","properties":{"source":"Digitaal Vlaanderen Gebouwenregister","source_id":"gebouw/Gebouw.31762063/0","kind":"building","height_m":7.88,"status":null},"geometry":{"type":"Polygon","coordinates":[[[3.88595793,50.9595316],[3.88604196,50.95957778],[3.88606446,50.95956145],[3.88598042,50.95951527],[3.88595793,50.9595316]]]}},{"type":"Feature","id":"gebouw/Gebouw.31762145/0","properties":{"source":"Digitaal Vlaanderen Gebouwenregister","source_id":"gebouw/Gebouw.31762145/0","kind":"building","height_m":6.44,"status":null},"geometry":{"type":"Polygon","coordinates":[[[3.88714176,50.95647114],[3.88718878,50.95646792],[3.88718385,50.95643928],[3.88713683,50.95644251],[3.88714176,50.95647114]]]}},{"type":"Feature","id":"gebouw/Gebouw.31762214/0","properties":{"source":"Digitaal Vlaanderen Gebouwenregister","source_id":"gebouw/Gebouw.31762214/0","kind":"building","height_m":5.72,"status":null},"geometry":{"type":"Polygon","coordinates":[[[3.8855699,50.96000294],[3.88549831,50.95995763],[3.88546618,50.95997788],[3.88549622,50.95999689],[3.8854868,50.96000283],[3.88552834,50.96002912],[3.8855699,50.96000294]]]}},{"type":"Feature","id":"gebouw/Gebouw.31762278/0","properties":{"source":"Digitaal Vlaanderen Gebouwenregister","source_id":"gebouw/Gebouw.31762278/0","kind":"building","height_m":6.44,"status":null},"geometry":{"type":"Polygon","coordinates":[[[3.88407263,50.95719379],[3.88412489,50.95710831],[3.88407016,50.95709496],[3.8840179,50.95718044],[3.88407263,50.95719379]]]}},{"type":"Feature","id":"gebouw/Gebouw.31762328/0","properties":{"source":"Digitaal Vlaanderen Gebouwenregister","source_id":"gebouw/Gebouw.31762328/0","kind":"building","height_m":7.16,"status":null},"geometry":{"type":"Polygon","coordinates":[[[3.88468243,50.95827977],[3.8847608,50.95822555],[3.88472685,50.95820597],[3.88464848,50.9582602],[3.88468243,50.95827977]]]}},{"type":"Feature","id":"gebouw/Gebouw.31762345/0","properties":{"source":"Digitaal Vlaanderen Gebouwenregister","source_id":"gebouw/Gebouw.31762345/0","kind":"building","height_m":9.32,"status":null},"geometry":{"type":"Polygon","coordinates":[[[3.88664917,50.95923369],[3.8865446,50.95930508],[3.88663389,50.95935317],[3.88673282,50.95927988],[3.88664917,50.95923369]]]}},{"type":"Feature","id":"gebouw/Gebouw.31762397/0","properties":{"source":"Digitaal Vlaanderen Gebouwenregister","source_id":"gebouw/Gebouw.31762397/0","kind":"building","height_m":6.44,"status":null},"geometry":{"type":"Polygon","coordinates":[[[3.88476039,50.95668212],[3.88486911,50.95670906],[3.88488845,50.95667793],[3.88482705,50.95666271],[3.88484022,50.9566415],[3.88479292,50.95662977],[3.88476039,50.95668212]]]}},{"type":"Feature","id":"gebouw/Gebouw.31762407/0","properties":{"source":"Digitaal Vlaanderen Gebouwenregister","source_id":"gebouw/Gebouw.31762407/0","kind":"building","height_m":8.6,"status":null},"geometry":{"type":"Polygon","coordinates":[[[3.8865446,50.95930508],[3.88664917,50.95923369],[3.88664326,50.95923042],[3.88661517,50.95921493],[3.88662547,50.95920748],[3.88657698,50.9591809],[3.88653941,50.95920789],[3.88653304,50.95920454],[3.88649313,50.95923479],[3.88648589,50.95923059],[3.8864471,50.95925931],[3.88643863,50.95925475],[3.8864046,50.95927994],[3.88650576,50.95933446],[3.8865446,50.95930508]]]}},{"type":"Feature","id":"gebouw/Gebouw.31762521/0","properties":{"source":"Digitaal Vlaanderen Gebouwenregister","source_id":"gebouw/Gebouw.31762521/0","kind":"building","height_m":5.0,"status":null},"geometry":{"type":"Polygon","coordinates":[[[3.88652547,50.95942222],[3.88643586,50.95949222],[3.886491,50.95952037],[3.88658061,50.95945037],[3.88652547,50.95942222]]]}},{"type":"Feature","id":"gebouw/Gebouw.31762565/0","properties":{"source":"Digitaal Vlaanderen Gebouwenregister","source_id":"gebouw/Gebouw.31762565/0","kind":"building","height_m":6.44,"status":null},"geometry":{"type":"Polygon","coordinates":[[[3.88638121,50.95861222],[3.88635588,50.95859584],[3.88629652,50.95863068],[3.88630338,50.95863502],[3.88647556,50.95874405],[3.88652972,50.95870825],[3.88638121,50.95861222]]]}},{"type":"Feature","id":"gebouw/Gebouw.31762575/0","properties":{"source":"Digitaal Vlaanderen Gebouwenregister","source_id":"gebouw/Gebouw.31762575/0","kind":"building","height_m":8.6,"status":null},"geometry":{"type":"Polygon","coordinates":[[[3.88531084,50.95797978],[3.88536333,50.95791893],[3.88530794,50.95789987],[3.88525545,50.95796071],[3.88531084,50.95797978]]]}},{"type":"Feature","id":"gebouw/Gebouw.32032016/0","properties":{"source":"Digitaal Vlaanderen Gebouwenregister","source_id":"gebouw/Gebouw.32032016/0","kind":"building","height_m":6.44,"status":null},"geometry":{"type":"Polygon","coordinates":[[[3.88721416,50.95992029],[3.88731648,50.95996627],[3.88737048,50.95991835],[3.88726816,50.95987237],[3.88721416,50.95992029]]]}},{"type":"Feature","id":"gebouw/Gebouw.32032052/0","properties":{"source":"Digitaal Vlaanderen Gebouwenregister","source_id":"gebouw/Gebouw.32032052/0","kind":"building","height_m":7.16,"status":null},"geometry":{"type":"Polygon","coordinates":[[[3.88437263,50.95685687],[3.88444072,50.95687216],[3.88445439,50.95684788],[3.8843863,50.95683259],[3.88437263,50.95685687]]]}},{"type":"Feature","id":"gebouw/Gebouw.32032212/0","properties":{"source":"Digitaal Vlaanderen Gebouwenregister","source_id":"gebouw/Gebouw.32032212/0","kind":"building","height_m":6.44,"status":null},"geometry":{"type":"Polygon","coordinates":[[[3.88257899,50.95678989],[3.88257299,50.95681729],[3.8826464,50.95682371],[3.8826524,50.95679631],[3.88257899,50.95678989]]]}},{"type":"Feature","id":"gebouw/Gebouw.32032243/0","properties":{"source":"Digitaal Vlaanderen Gebouwenregister","source_id":"gebouw/Gebouw.32032243/0","kind":"building","height_m":8.6,"status":null},"geometry":{"type":"Polygon","coordinates":[[[3.88467059,50.95686734],[3.88476398,50.95688916],[3.88478145,50.95685933],[3.88473553,50.95684861],[3.88475299,50.95681878],[3.88470552,50.95680769],[3.88467059,50.95686734]]]}},{"type":"Feature","id":"gebouw/Gebouw.32032334/0","properties":{"source":"Digitaal Vlaanderen Gebouwenregister","source_id":"gebouw/Gebouw.32032334/0","kind":"building","height_m":8.6,"status":null},"geometry":{"type":"Polygon","coordinates":[[[3.88471729,50.9567697],[3.88480883,50.95679286],[3.88482494,50.95676745],[3.88477298,50.95675431],[3.88478886,50.95672926],[3.88474928,50.95671925],[3.88471729,50.9567697]]]}},{"type":"Feature","id":"way/198164885","properties":{"source":"OpenStreetMap","source_id":"way/198164885","kind":"vegetation","name":null,"waterway":null,"landuse":"forest"},"geometry":{"type":"Polygon","coordinates":[[[3.8848584,50.9596141],[3.8855496,50.9593985],[3.8859719,50.9592762],[3.8860164,50.9593218],[3.8863696,50.9592595],[3.8868055,50.9591565],[3.8869689,50.9591136],[3.8869791,50.9590536],[3.8868539,50.9590789],[3.8868232,50.9590199],[3.8868811,50.9589856],[3.8868811,50.9589502],[3.8868334,50.958903],[3.8858987,50.9592012],[3.8847976,50.9595632],[3.8848584,50.9596141]]]}},{"type":"Feature","id":"way/198164954","properties":{"source":"OpenStreetMap","source_id":"way/198164954","kind":"vegetation","name":null,"waterway":null,"landuse":"forest"},"geometry":{"type":"Polygon","coordinates":[[[3.8884219,50.9598165],[3.8880531,50.9601179],[3.8879924,50.9601675],[3.8877105,50.9600462],[3.8871095,50.9605001],[3.8875012,50.9605559],[3.8874058,50.9606374],[3.886379,50.9605663],[3.8864207,50.9605249],[3.886499,50.9605142],[3.8875367,50.9597223],[3.8876306,50.9597665],[3.8867656,50.9604529],[3.8869835,50.9604937],[3.8877429,50.9598652],[3.8878281,50.9598995],[3.888029,50.9597151],[3.8880801,50.959743],[3.8881379,50.9596893],[3.8884219,50.9598165]]]}},{"type":"Feature","id":"way/198165124","properties":{"source":"OpenStreetMap","source_id":"way/198165124","kind":"vegetation","name":null,"waterway":null,"landuse":"forest"},"geometry":{"type":"Polygon","coordinates":[[[3.884198,50.9598271],[3.8838473,50.9599575],[3.8836038,50.9600356],[3.8833293,50.9601236],[3.8832759,50.9600596],[3.8838874,50.9598574],[3.8839331,50.9598893],[3.8841763,50.9598013],[3.884198,50.9598271]]]}},{"type":"Feature","id":"way/198332507","properties":{"source":"OpenStreetMap","source_id":"way/198332507","kind":"vegetation","name":null,"waterway":null,"landuse":"forest"},"geometry":{"type":"Polygon","coordinates":[[[3.8796781,50.9603422],[3.8795857,50.9603867],[3.8795667,50.9604602],[3.8795232,50.9608793],[3.8795287,50.9609974],[3.8794716,50.9610179],[3.8793277,50.9610265],[3.879317,50.9609753],[3.879306,50.9609221],[3.8794255,50.9609187],[3.879382,50.9606706],[3.8793712,50.9604859],[3.8794037,50.9603781],[3.87942,50.9603473],[3.8794662,50.9603319],[3.879564,50.9603097],[3.8796319,50.9603046],[3.8796781,50.9603422]]]}},{"type":"Feature","id":"way/198332533","properties":{"source":"OpenStreetMap","source_id":"way/198332533","kind":"vegetation","name":null,"waterway":null,"landuse":"forest"},"geometry":{"type":"Polygon","coordinates":[[[3.8840807,50.9596663],[3.8828593,50.9600607],[3.8828017,50.9600026],[3.8840116,50.9595962],[3.8840807,50.9596663]]]}},{"type":"Feature","id":"way/198332579","properties":{"source":"OpenStreetMap","source_id":"way/198332579","kind":"vegetation","name":null,"waterway":null,"landuse":"forest"},"geometry":{"type":"Polygon","coordinates":[[[3.8866768,50.9587031],[3.8860272,50.9589216],[3.8858099,50.9590071],[3.8855534,50.959089],[3.8855352,50.9590951],[3.8848236,50.9593346],[3.8843048,50.9595074],[3.8843646,50.9595724],[3.8867438,50.9587889],[3.8866768,50.9587031]]]}},{"type":"Feature","id":"way/198335122","properties":{"source":"OpenStreetMap","source_id":"way/198335122","kind":"vegetation","name":null,"waterway":null,"landuse":"forest"},"geometry":{"type":"Polygon","coordinates":[[[3.8840292,50.9584946],[3.8840484,50.9585338],[3.8840103,50.9585427],[3.8840456,50.9586744],[3.8841054,50.9586727],[3.8841244,50.9587685],[3.8841963,50.9587643],[3.8842073,50.958873],[3.8841461,50.9588814],[3.8842534,50.9590961],[3.8842779,50.9591201],[3.8843186,50.9591534],[3.8843539,50.9591406],[3.8842982,50.9591209],[3.8842765,50.9590953],[3.8842385,50.9589396],[3.8842412,50.9585991],[3.8841814,50.958594],[3.8840809,50.9582536],[3.8840141,50.9582579],[3.884087,50.9584835],[3.8840292,50.9584946]]]}},{"type":"Feature","id":"way/198335123","properties":{"source":"OpenStreetMap","source_id":"way/198335123","kind":"vegetation","name":null,"waterway":null,"landuse":"forest"},"geometry":{"type":"Polygon","coordinates":[[[3.8771093,50.9560684],[3.8771684,50.9561209],[3.8789751,50.9553934],[3.8795397,50.9559185],[3.8796934,50.9555144],[3.8794399,50.9554829],[3.8794015,50.9555483],[3.8792593,50.9555434],[3.879244,50.9553184],[3.8793477,50.9553499],[3.8794552,50.9552966],[3.8794245,50.9552555],[3.8797534,50.9551018],[3.8801236,50.9549289],[3.8803425,50.9550329],[3.8804808,50.955137],[3.8808188,50.9554273],[3.8809455,50.9553789],[3.8802849,50.9547571],[3.8796857,50.9550111],[3.8788099,50.9553765],[3.8771093,50.9560684]]]}},{"type":"Feature","id":"way/198335133","properties":{"source":"OpenStreetMap","source_id":"way/198335133","kind":"vegetation","name":null,"waterway":null,"landuse":"forest"},"geometry":{"type":"Polygon","coordinates":[[[3.8811219,50.9555628],[3.8812794,50.9556945],[3.881163,50.9557446],[3.8810223,50.955616],[3.8811219,50.9555628]]]}},{"type":"Feature","id":"way/198335139","properties":{"source":"OpenStreetMap","source_id":"way/198335139","kind":"vegetation","name":null,"waterway":null,"landuse":"forest"},"geometry":{"type":"Polygon","coordinates":[[[3.8801078,50.9578401],[3.8800003,50.957873],[3.8803371,50.9585231],[3.8805224,50.9589325],[3.8806453,50.9587632],[3.8806831,50.9586832],[3.8805069,50.9587206],[3.8801078,50.9578401]]]}},{"type":"Feature","id":"way/198572479","properties":{"source":"OpenStreetMap","source_id":"way/198572479","kind":"vegetation","name":null,"waterway":null,"landuse":"forest"},"geometry":{"type":"Polygon","coordinates":[[[3.8764032,50.9558811],[3.876988,50.9556485],[3.8772481,50.955538],[3.8794228,50.954614],[3.8798134,50.9544467],[3.8797298,50.9543203],[3.8796185,50.9542108],[3.8794251,50.9540521],[3.8794563,50.9540274],[3.8794915,50.9540348],[3.8795833,50.954084],[3.8796751,50.9541529],[3.8800403,50.9544937],[3.8780032,50.9553402],[3.8764681,50.9559505],[3.8764032,50.9558811]]]}},{"type":"Feature","id":"way/198616275","properties":{"source":"OpenStreetMap","source_id":"way/198616275","kind":"vegetation","name":null,"waterway":null,"landuse":"forest"},"geometry":{"type":"Polygon","coordinates":[[[3.8778921,50.9546238],[3.8781764,50.9548371],[3.8780866,50.9548866],[3.8778117,50.9546799],[3.8778921,50.9546238]]]}}]}