{"type":"FeatureCollection","features":[{"type":"Feature","id":"gebouw/Gebouw.9069766/0","properties":{"source":"Digitaal Vlaanderen Gebouwenregister","source_id":"gebouw/Gebouw.9069766/0","kind":"building","height_m":9.32,"status":null},"geometry":{"type":"Polygon","coordinates":[[[3.91396682,50.97572932],[3.91400081,50.97575344],[3.91391639,50.97580281],[3.91383903,50.97575007],[3.91395532,50.97568704],[3.91399338,50.9757139],[3.91396682,50.97572932]]]}},{"type":"Feature","id":"gebouw/Gebouw.9132318/0","properties":{"source":"Digitaal Vlaanderen Gebouwenregister","source_id":"gebouw/Gebouw.9132318/0","kind":"building","height_m":9.32,"status":null},"geometry":{"type":"Polygon","coordinates":[[[3.91395575,50.97654708],[3.91386168,50.97648771],[3.91398974,50.97641169],[3.91408327,50.97646917],[3.91395575,50.97654708]]]}},{"type":"Feature","id":"gebouw/Gebouw.9134736/0","properties":{"source":"Digitaal Vlaanderen Gebouwenregister","source_id":"gebouw/Gebouw.9134736/0","kind":"building","height_m":6.44,"status":null},"geometry":{"type":"Polygon","coordinates":[[[3.91517846,50.97635934],[3.91521821,50.9763896],[3.91517002,50.97641375],[3.91513073,50.9763842],[3.91517846,50.97635934]]]}},{"type":"Feature","id":"gebouw/Gebouw.9192188/0","properties":{"source":"Digitaal Vlaanderen Gebouwenregister","source_id":"gebouw/Gebouw.9192188/0","kind":"building","height_m":8.6,"status":null},"geometry":{"type":"Polygon","coordinates":[[[3.91009552,50.97864989],[3.9101453,50.97867183],[3.91008292,50.97873402],[3.91002955,50.97871279],[3.91009552,50.97864989]]]}},{"type":"Feature","id":"gebouw/Gebouw.9610198/0","properties":{"source":"Digitaal Vlaanderen Gebouwenregister","source_id":"gebouw/Gebouw.9610198/0","kind":"building","height_m":7.16,"status":null},"geometry":{"type":"Polygon","coordinates":[[[3.91601648,50.97683341],[3.91601895,50.97683545],[3.91598758,50.97685057],[3.9159607,50.97682834],[3.91604243,50.97678895],[3.9160668,50.97680759],[3.91601648,50.97683341]]]}},{"type":"Feature","id":"gebouw/Gebouw.9610199/0","properties":{"source":"Digitaal Vlaanderen Gebouwenregister","source_id":"gebouw/Gebouw.9610199/0","kind":"building","height_m":7.88,"status":null},"geometry":{"type":"Polygon","coordinates":[[[3.91441736,50.97574327],[3.91445253,50.97576785],[3.91439851,50.97579849],[3.91436427,50.97577261],[3.91441736,50.97574327]]]}},{"type":"Feature","id":"gebouw/Gebouw.9732200/0","properties":{"source":"Digitaal Vlaanderen Gebouwenregister","source_id":"gebouw/Gebouw.9732200/0","kind":"building","height_m":6.44,"status":null},"geometry":{"type":"Polygon","coordinates":[[[3.91396075,50.97568373],[3.91389226,50.97563692],[3.91377434,50.97570614],[3.91383903,50.97575007],[3.91391639,50.97580281],[3.91400081,50.97575344],[3.91396682,50.97572932],[3.91399338,50.9757139],[3.91395532,50.97568704],[3.91396075,50.97568373]]]}},{"type":"Feature","id":"gebouw/Gebouw.18736777/0","properties":{"source":"Digitaal Vlaanderen Gebouwenregister","source_id":"gebouw/Gebouw.18736777/0","kind":"building","height_m":7.16,"status":null},"geometry":{"type":"Polygon","coordinates":[[[3.91591566,50.97708497],[3.9159229,50.97709037],[3.91574834,50.97718255],[3.91574647,50.97718107],[3.91572503,50.9771911],[3.91572687,50.97719252],[3.9156397,50.97723451],[3.91564699,50.97724077],[3.91562289,50.97725305],[3.91565461,50.9772777],[3.91578768,50.97721216],[3.91578287,50.97720866],[3.91600211,50.97709422],[3.91595881,50.97706192],[3.91591566,50.97708497]]]}},{"type":"Feature","id":"gebouw/Gebouw.31001648/0","properties":{"source":"Digitaal Vlaanderen Gebouwenregister","source_id":"gebouw/Gebouw.31001648/0","kind":"building","height_m":9.32,"status":null},"geometry":{"type":"Polygon","coordinates":[[[3.91195777,50.98186271],[3.91197894,50.98183567],[3.91210676,50.98187557],[3.91208559,50.9819026],[3.91195777,50.98186271]]]}},{"type":"Feature","id":"gebouw/Gebouw.31762224/0","properties":{"source":"Digitaal Vlaanderen Gebouwenregister","source_id":"gebouw/Gebouw.31762224/0","kind":"building","height_m":7.88,"status":null},"geometry":{"type":"Polygon","coordinates":[[[3.91443957,50.9757222],[3.91437816,50.97567694],[3.91435025,50.97569203],[3.91440895,50.97573876],[3.91441585,50.97573503],[3.91443957,50.9757222]]]}},{"type":"Feature","id":"way/174941066","properties":{"source":"OpenStreetMap","source_id":"way/174941066","kind":"vegetation","name":null,"waterway":null,"landuse":"forest"},"geometry":{"type":"Polygon","coordinates":[[[3.9135017,50.9763375],[3.9141658,50.9766966],[3.9141033,50.9767457],[3.9138883,50.9766198],[3.913533,50.9769243],[3.9132882,50.9770503],[3.9131031,50.9771217],[3.9129956,50.9771442],[3.9129001,50.9771292],[3.9127896,50.977101],[3.9127747,50.9770578],[3.9128613,50.9769882],[3.9136644,50.9765201],[3.9134181,50.9763915],[3.9135017,50.9763375]]]}},{"type":"Feature","id":"way/174941080","properties":{"source":"OpenStreetMap","source_id":"way/174941080","kind":"vegetation","name":null,"waterway":null,"landuse":"forest"},"geometry":{"type":"Polygon","coordinates":[[[3.9141033,50.9767457],[3.9134435,50.9771781],[3.91333,50.9773097],[3.9132763,50.97743],[3.9139114,50.9778461],[3.914518,50.9782731],[3.9150936,50.9779551],[3.9153132,50.9778354],[3.9153782,50.9777712],[3.9155253,50.9776862],[3.9151748,50.9774395],[3.915219,50.9773401],[3.914912,50.9771708],[3.9144983,50.9769382],[3.9145384,50.9769076],[3.914507,50.9768898],[3.9141658,50.9766966],[3.9141033,50.9767457]]]}},{"type":"Feature","id":"way/174941115","properties":{"source":"OpenStreetMap","source_id":"way/174941115","kind":"vegetation","name":"Serskampse bossen","waterway":null,"landuse":"forest"},"geometry":{"type":"Polygon","coordinates":[[[3.9122923,50.9771187],[3.9128613,50.9775221],[3.9130165,50.977477],[3.9131658,50.9775522],[3.9132912,50.9777025],[3.913333,50.9778304],[3.9134285,50.9779432],[3.9136793,50.9780522],[3.9140137,50.9781574],[3.9142884,50.9782928],[3.9147636,50.9785346],[3.9134823,50.9790635],[3.9132315,50.9789206],[3.9117208,50.9798304],[3.91147,50.9797064],[3.9130404,50.9787515],[3.9124314,50.9784206],[3.9121806,50.9785973],[3.9119955,50.9786499],[3.9118701,50.9786349],[3.9117566,50.9786387],[3.9116611,50.9786913],[3.9115476,50.9787214],[3.9114939,50.9786951],[3.9115596,50.978586],[3.9116133,50.9785522],[3.9117029,50.9784883],[3.9117507,50.9783793],[3.9117208,50.9782966],[3.9115655,50.978195],[3.9114879,50.9780785],[3.9114923,50.9780511],[3.9114999,50.9780033],[3.9112708,50.9777785],[3.9122923,50.9771187]]]}},{"type":"Feature","id":"way/175109221","properties":{"source":"OpenStreetMap","source_id":"way/175109221","kind":"vegetation","name":null,"waterway":null,"landuse":"forest"},"geometry":{"type":"Polygon","coordinates":[[[3.911332,50.9779966],[3.9110784,50.9778855],[3.9111005,50.9778461],[3.9110656,50.9778091],[3.9109662,50.9777732],[3.9108633,50.9777176],[3.9107474,50.9776724],[3.9105267,50.9775752],[3.9104533,50.9776373],[3.9111604,50.9779557],[3.9111812,50.9779999],[3.9112462,50.9780392],[3.911319,50.9780294],[3.911332,50.9779966]]]}},{"type":"Feature","id":"way/175109236","properties":{"source":"OpenStreetMap","source_id":"way/175109236","kind":"vegetation","name":null,"waterway":null,"landuse":"forest"},"geometry":{"type":"Polygon","coordinates":[[[3.9114879,50.9780785],[3.9115655,50.978195],[3.9117208,50.9782966],[3.9117507,50.9783793],[3.9117029,50.9784883],[3.9116133,50.9785522],[3.9115596,50.978586],[3.9115219,50.9785272],[3.9115167,50.9784748],[3.9114829,50.9784093],[3.9114387,50.9783667],[3.911384,50.9783307],[3.911293,50.9783078],[3.911293,50.978239],[3.9113294,50.978203],[3.9113736,50.9781653],[3.9114439,50.9781145],[3.9114879,50.9780785]]]}},{"type":"Feature","id":"way/175109291","properties":{"source":"OpenStreetMap","source_id":"way/175109291","kind":"vegetation","name":null,"waterway":null,"landuse":"forest"},"geometry":{"type":"Polygon","coordinates":[[[3.9093816,50.9783332],[3.9096624,50.9780996],[3.9098653,50.9779227],[3.9100655,50.9776869],[3.9101904,50.9775264],[3.9103452,50.9775887],[3.9103158,50.977635],[3.9102643,50.9776663],[3.9102275,50.9776859],[3.910119,50.9777577],[3.9100712,50.9777902],[3.9100197,50.9778469],[3.9100455,50.9778689],[3.9100381,50.977899],[3.9100216,50.977921],[3.9099627,50.9779442],[3.909913,50.9779488],[3.9097825,50.9780657],[3.9098248,50.9780866],[3.9098487,50.978104],[3.9098193,50.9781815],[3.9097678,50.9781931],[3.9096942,50.9782058],[3.9096611,50.9782186],[3.9096225,50.9782556],[3.9095526,50.978302],[3.9094919,50.978324],[3.9094275,50.9783367],[3.9093816,50.9783332]]]}},{"type":"Feature","id":"way/175109314","properties":{"source":"OpenStreetMap","source_id":"way/175109314","kind":"vegetation","name":null,"waterway":null,"landuse":"forest"},"geometry":{"type":"Polygon","coordinates":[[[3.9097821,50.9792524],[3.909724,50.979127],[3.9103677,50.9792621],[3.910389,50.9792163],[3.9105971,50.9792687],[3.9106959,50.9792638],[3.9107557,50.979249],[3.9108572,50.9792343],[3.9109586,50.9791639],[3.9110288,50.9791164],[3.9111407,50.9789788],[3.9111979,50.9789117],[3.9112447,50.9788577],[3.9112733,50.9788085],[3.9113305,50.9787741],[3.9113955,50.9787823],[3.9114397,50.9788118],[3.9114632,50.9788544],[3.9114762,50.9788888],[3.9114423,50.9789297],[3.9113695,50.978951],[3.9113019,50.9789657],[3.9112395,50.9789854],[3.9111719,50.9790509],[3.9110782,50.9791622],[3.9110002,50.9792245],[3.9110522,50.9792359],[3.911086,50.9792687],[3.9110574,50.9793473],[3.9110054,50.9794193],[3.9113305,50.9796125],[3.9112577,50.979642],[3.91093,50.979457],[3.9109118,50.9795077],[3.9109196,50.9795667],[3.9109144,50.9796125],[3.9108676,50.9796567],[3.9108129,50.9796895],[3.9108338,50.9797435],[3.9108988,50.9797321],[3.9109898,50.9798205],[3.9110574,50.9800252],[3.9110314,50.9800596],[3.9109612,50.980094],[3.9108676,50.980089],[3.9106465,50.9797239],[3.9107375,50.9796584],[3.9107271,50.9796387],[3.9106959,50.9795896],[3.9106153,50.9794881],[3.9105945,50.9794488],[3.9104098,50.9793964],[3.9100405,50.9793309],[3.9097821,50.9792524]]]}},{"type":"Feature","id":"way/175199517","properties":{"source":"OpenStreetMap","source_id":"way/175199517","kind":"vegetation","name":"Serskampse bossen","waterway":null,"landuse":null},"geometry":{"type":"Polygon","coordinates":[[[3.9159333,50.9765686],[3.9154478,50.9763486],[3.9167535,50.9756816],[3.9167399,50.9756732],[3.9166287,50.9756045],[3.9165512,50.9755566],[3.9171949,50.9752115],[3.9177319,50.9755728],[3.9159333,50.9765686]]]}},{"type":"Feature","id":"way/1031827601","properties":{"source":"OpenStreetMap","source_id":"way/1031827601","kind":"vegetation","name":"Serskampse bossen","waterway":null,"landuse":null},"geometry":{"type":"Polygon","coordinates":[[[3.9190221,50.9760473],[3.916897,50.9771534],[3.9163379,50.9767377],[3.9185206,50.9755309],[3.9186294,50.9753574],[3.9189898,50.9750332],[3.9190671,50.9750772],[3.919148,50.9750077],[3.9193908,50.9751258],[3.9195071,50.9754126],[3.9196896,50.9756836],[3.919315,50.9758949],[3.9191037,50.9760049],[3.9190221,50.9760473]]]}},{"type":"Feature","id":"way/1031827603","properties":{"source":"OpenStreetMap","source_id":"way/1031827603","kind":"water","name":null,"waterway":null,"landuse":null},"geometry":{"type":"Polygon","coordinates":[[[3.9184678,50.9795072],[3.9185227,50.9794948],[3.9185296,50.9794757],[3.9185586,50.9794566],[3.918614,50.9794201],[3.9184875,50.9793265],[3.918494,50.9793018],[3.9184105,50.9792756],[3.9183627,50.9792916],[3.9182788,50.9793199],[3.9183088,50.9793905],[3.9183662,50.9794045],[3.9184001,50.9794546],[3.9184678,50.9795072]]]}},{"type":"Feature","id":"way/1031827604","properties":{"source":"OpenStreetMap","source_id":"way/1031827604","kind":"water","name":null,"waterway":null,"landuse":null},"geometry":{"type":"Polygon","coordinates":[[[3.9186984,50.9761345],[3.9187793,50.9761066],[3.918838,50.9760483],[3.9189489,50.9760245],[3.9189945,50.9759793],[3.9189071,50.9759415],[3.918538,50.9760335],[3.9185615,50.976082],[3.9186528,50.9761288],[3.9186984,50.9761345]]]}},{"type":"Feature","id":"way/1031827606","properties":{"source":"OpenStreetMap","source_id":"way/1031827606","kind":"water","name":null,"waterway":null,"landuse":null},"geometry":{"type":"Polygon","coordinates":[[[3.915324,50.9770028],[3.9154244,50.9771252],[3.9155483,50.97708],[3.9156762,50.9769749],[3.9156292,50.9769354],[3.9155862,50.9769305],[3.9155823,50.9769067],[3.9154818,50.9768796],[3.915324,50.9770028]]]}},{"type":"Feature","id":"way/1031827607","properties":{"source":"OpenStreetMap","source_id":"way/1031827607","kind":"water","name":null,"waterway":null,"landuse":null},"geometry":{"type":"Polygon","coordinates":[[[3.9146548,50.9794478],[3.9145698,50.9793964],[3.9145562,50.979338],[3.9145891,50.9793116],[3.9146819,50.979328],[3.9146933,50.9793444],[3.9147216,50.9793408],[3.9147748,50.9793572],[3.9147816,50.9793936],[3.9147182,50.9794364],[3.9146548,50.9794478]]]}},{"type":"Feature","id":"way/1031827614","properties":{"source":"OpenStreetMap","source_id":"way/1031827614","kind":"water","name":null,"waterway":null,"landuse":null},"geometry":{"type":"Polygon","coordinates":[[[3.9106429,50.9791138],[3.910576,50.9791231],[3.9104404,50.9790775],[3.9103178,50.9789898],[3.9103457,50.978936],[3.9104144,50.9789348],[3.9104868,50.9789734],[3.9105166,50.9789699],[3.910576,50.9790378],[3.9106596,50.9790752],[3.9106429,50.9791138]]]}},{"type":"Feature","id":"way/1037119398","properties":{"source":"OpenStreetMap","source_id":"way/1037119398","kind":"vegetation","name":null,"waterway":null,"landuse":"orchard"},"geometry":{"type":"Polygon","coordinates":[[[3.9196896,50.9756836],[3.9201145,50.9761552],[3.919528,50.9764476],[3.9191037,50.9760049],[3.9196896,50.9756836]]]}},{"type":"Feature","id":"way/1210372819","properties":{"source":"OpenStreetMap","source_id":"way/1210372819","kind":"water","name":null,"waterway":null,"landuse":null},"geometry":{"type":"Polygon","coordinates":[[[3.9149183,50.9786068],[3.9151341,50.9787589],[3.9151695,50.9787696],[3.915188,50.9787685],[3.9152299,50.9787508],[3.9152565,50.9787224],[3.9151896,50.9786656],[3.9151832,50.9786337],[3.9151284,50.9785952],[3.9150737,50.9785901],[3.9150375,50.9785845],[3.9150592,50.9785587],[3.9150721,50.9785272],[3.9150463,50.9785156],[3.9150012,50.9785146],[3.9149553,50.9785688],[3.9149247,50.9785744],[3.9149183,50.9786068]]]}},{"type":"Feature","id":"way/1464306552","properties":{"source":"OpenStreetMap","source_id":"way/1464306552","kind":"vegetation","name":"Serskampse bossen","waterway":null,"landuse":null},"geometry":{"type":"Polygon","coordinates":[[[3.9164058,50.978061],[3.9175427,50.9774669],[3.9175611,50.9774394],[3.9190642,50.9766319],[3.9188358,50.9764414],[3.9171765,50.9773224],[3.9170905,50.9773554],[3.9167577,50.9771362],[3.9164313,50.976879],[3.9153881,50.9774673],[3.9164058,50.978061]]]}}]}