{"type":"FeatureCollection","features":[{"type":"Feature","id":"way/198312659","properties":{"source":"OpenStreetMap","source_id":"way/198312659","kind":"vegetation","name":null,"waterway":null,"landuse":"forest"},"geometry":{"type":"Polygon","coordinates":[[[3.8863955,50.9523981],[3.8849506,50.9530126],[3.8844949,50.9532064],[3.8837861,50.9535078],[3.8840396,50.9537376],[3.884489,50.9535924],[3.8846388,50.9537013],[3.8840857,50.9538634],[3.8836171,50.9540304],[3.8832715,50.9536844],[3.8818734,50.9542481],[3.8806289,50.9547442],[3.8807556,50.9548506],[3.8814624,50.9552281],[3.881351,50.9553684],[3.8811589,50.9554482],[3.8804253,50.9547079],[3.8814585,50.9543038],[3.8832023,50.9536045],[3.8844429,50.9531085],[3.8863206,50.9523327],[3.8863955,50.9523981]]]}},{"type":"Feature","id":"way/198572484","properties":{"source":"OpenStreetMap","source_id":"way/198572484","kind":"vegetation","name":null,"waterway":null,"landuse":"forest"},"geometry":{"type":"Polygon","coordinates":[[[3.8799724,50.9541672],[3.8801778,50.9543334],[3.8817385,50.9536976],[3.881882,50.9536391],[3.8820505,50.9535678],[3.8828308,50.9532373],[3.8840573,50.9527255],[3.8854206,50.9521964],[3.886362,50.951842],[3.8864363,50.9519085],[3.8837097,50.9530355],[3.8817214,50.953823],[3.8801706,50.9544701],[3.8799368,50.9542615],[3.879912,50.9542302],[3.8799147,50.9542093],[3.8799341,50.9541919],[3.8799724,50.9541672]]]}}]}