{"type":"FeatureCollection","features":[{"type":"Feature","id":"gebouw/Gebouw.9043922/0","properties":{"source":"Digitaal Vlaanderen Gebouwenregister","source_id":"gebouw/Gebouw.9043922/0","kind":"building","height_m":9.32,"status":null},"geometry":{"type":"Polygon","coordinates":[[[3.87494364,50.95119727],[3.87491315,50.95117197],[3.87490922,50.95116871],[3.87487975,50.95114325],[3.87479676,50.95118082],[3.87468936,50.95123051],[3.87475226,50.95128509],[3.87494364,50.95119727]]]}},{"type":"Feature","id":"gebouw/Gebouw.9044037/0","properties":{"source":"Digitaal Vlaanderen Gebouwenregister","source_id":"gebouw/Gebouw.9044037/0","kind":"building","height_m":6.44,"status":null},"geometry":{"type":"Polygon","coordinates":[[[3.87519431,50.95380404],[3.87523604,50.95377224],[3.87528192,50.95379626],[3.8752402,50.95382806],[3.87519431,50.95380404]]]}},{"type":"Feature","id":"gebouw/Gebouw.9044038/0","properties":{"source":"Digitaal Vlaanderen Gebouwenregister","source_id":"gebouw/Gebouw.9044038/0","kind":"building","height_m":7.16,"status":null},"geometry":{"type":"Polygon","coordinates":[[[3.87557078,50.95335444],[3.87552709,50.95332743],[3.87550064,50.95331107],[3.87557995,50.95325809],[3.87560465,50.95327468],[3.87566518,50.95323459],[3.87571205,50.95326344],[3.87557078,50.95335444]]]}},{"type":"Feature","id":"gebouw/Gebouw.9065000/0","properties":{"source":"Digitaal Vlaanderen Gebouwenregister","source_id":"gebouw/Gebouw.9065000/0","kind":"building","height_m":5.0,"status":null},"geometry":{"type":"Polygon","coordinates":[[[3.87485137,50.95111858],[3.87482678,50.95112987],[3.87479852,50.95110367],[3.87480633,50.9511004],[3.87478579,50.95108543],[3.8748191,50.95106373],[3.87485575,50.95104003],[3.87486849,50.95103179],[3.87489751,50.95105712],[3.87492365,50.95104563],[3.8749528,50.95107203],[3.87489034,50.95110069],[3.87485137,50.95111858]]]}},{"type":"Feature","id":"gebouw/Gebouw.9069266/0","properties":{"source":"Digitaal Vlaanderen Gebouwenregister","source_id":"gebouw/Gebouw.9069266/0","kind":"building","height_m":7.16,"status":null},"geometry":{"type":"Polygon","coordinates":[[[3.87568139,50.95265362],[3.87572669,50.9526867],[3.87559731,50.95275724],[3.87554565,50.95272065],[3.87567505,50.95264899],[3.87568139,50.95265362]]]}},{"type":"Feature","id":"gebouw/Gebouw.9122485/0","properties":{"source":"Digitaal Vlaanderen Gebouwenregister","source_id":"gebouw/Gebouw.9122485/0","kind":"building","height_m":5.72,"status":null},"geometry":{"type":"Polygon","coordinates":[[[3.87559544,50.95377057],[3.87544298,50.95368424],[3.87572309,50.9534846],[3.87587762,50.95357115],[3.87559544,50.95377057]]]}},{"type":"Feature","id":"gebouw/Gebouw.9122487/0","properties":{"source":"Digitaal Vlaanderen Gebouwenregister","source_id":"gebouw/Gebouw.9122487/0","kind":"building","height_m":7.16,"status":null},"geometry":{"type":"Polygon","coordinates":[[[3.87463741,50.95079621],[3.87466611,50.95077876],[3.87474753,50.95083145],[3.87472125,50.95084743],[3.87470106,50.9508351],[3.87463741,50.95079621]]]}},{"type":"Feature","id":"gebouw/Gebouw.9122490/0","properties":{"source":"Digitaal Vlaanderen Gebouwenregister","source_id":"gebouw/Gebouw.9122490/0","kind":"building","height_m":9.32,"status":null},"geometry":{"type":"Polygon","coordinates":[[[3.87453301,50.95112934],[3.87448044,50.95109693],[3.87450926,50.95107799],[3.87451934,50.95107136],[3.87456387,50.9510421],[3.8746145,50.95107414],[3.87467187,50.95103766],[3.87472498,50.95100389],[3.87473989,50.95101321],[3.87474072,50.95101268],[3.87478622,50.95098323],[3.8748621,50.95103001],[3.87481454,50.9510608],[3.87475556,50.95109896],[3.87470593,50.95106836],[3.87469143,50.95105943],[3.87459387,50.95112256],[3.87456743,50.95110665],[3.87453301,50.95112934]]]}},{"type":"Feature","id":"gebouw/Gebouw.9122492/0","properties":{"source":"Digitaal Vlaanderen Gebouwenregister","source_id":"gebouw/Gebouw.9122492/0","kind":"building","height_m":5.72,"status":null},"geometry":{"type":"Polygon","coordinates":[[[3.87517586,50.95138002],[3.87523018,50.95142717],[3.87517907,50.95145015],[3.87518893,50.95145739],[3.87514594,50.95147653],[3.8751509,50.95148076],[3.87503701,50.95153354],[3.87496929,50.95147523],[3.87517586,50.95138002]]]}},{"type":"Feature","id":"gebouw/Gebouw.9122493/0","properties":{"source":"Digitaal Vlaanderen Gebouwenregister","source_id":"gebouw/Gebouw.9122493/0","kind":"building","height_m":6.44,"status":null},"geometry":{"type":"Polygon","coordinates":[[[3.87509707,50.95117362],[3.87506063,50.95114358],[3.8749986,50.95117205],[3.87498855,50.95117666],[3.87498724,50.95117726],[3.87494364,50.95119727],[3.87475226,50.95128509],[3.87482055,50.95134473],[3.87492853,50.95129508],[3.87492504,50.9512914],[3.87500504,50.95125491],[3.87499751,50.95124883],[3.87505526,50.95122219],[3.87503511,50.95120246],[3.87509707,50.95117362]]]}},{"type":"Feature","id":"gebouw/Gebouw.9131898/0","properties":{"source":"Digitaal Vlaanderen Gebouwenregister","source_id":"gebouw/Gebouw.9131898/0","kind":"building","height_m":9.32,"status":null},"geometry":{"type":"Polygon","coordinates":[[[3.87511693,50.95131004],[3.87508283,50.95128077],[3.87520342,50.95122586],[3.87523662,50.9512553],[3.87511693,50.95131004]]]}},{"type":"Feature","id":"gebouw/Gebouw.9132692/0","properties":{"source":"Digitaal Vlaanderen Gebouwenregister","source_id":"gebouw/Gebouw.9132692/0","kind":"building","height_m":6.44,"status":null},"geometry":{"type":"Polygon","coordinates":[[[3.87474338,50.95221937],[3.87470573,50.95217059],[3.87477516,50.95214971],[3.87481338,50.95219962],[3.87474338,50.95221937]]]}},{"type":"Feature","id":"gebouw/Gebouw.9135196/0","properties":{"source":"Digitaal Vlaanderen Gebouwenregister","source_id":"gebouw/Gebouw.9135196/0","kind":"building","height_m":5.0,"status":null},"geometry":{"type":"Polygon","coordinates":[[[3.87607486,50.95298097],[3.87596224,50.95305258],[3.8758601,50.95298896],[3.87586372,50.95298676],[3.8758429,50.95297423],[3.87585969,50.95296348],[3.87583499,50.95294689],[3.87587944,50.95291877],[3.87590565,50.95293445],[3.87591353,50.95292892],[3.87595225,50.95295244],[3.87598738,50.95292851],[3.87598485,50.95292685],[3.87603457,50.95289521],[3.87604479,50.95290147],[3.87608093,50.95287865],[3.87611211,50.95289821],[3.87612627,50.95288946],[3.87616485,50.95291366],[3.87616118,50.95291599],[3.87616918,50.95292101],[3.87607486,50.95298097]]]}},{"type":"Feature","id":"gebouw/Gebouw.9192865/0","properties":{"source":"Digitaal Vlaanderen Gebouwenregister","source_id":"gebouw/Gebouw.9192865/0","kind":"building","height_m":7.16,"status":null},"geometry":{"type":"Polygon","coordinates":[[[3.87641161,50.95329067],[3.87643994,50.95330658],[3.87616266,50.95350119],[3.8760711,50.95356676],[3.87607663,50.95357001],[3.87603724,50.95359763],[3.87602587,50.95359131],[3.87594981,50.95364452],[3.8758781,50.95360393],[3.87595473,50.95355148],[3.87608482,50.95345735],[3.87590523,50.95335627],[3.87599811,50.95328622],[3.87603167,50.95330405],[3.87612626,50.95323627],[3.87628717,50.95332739],[3.87636444,50.95327345],[3.87634896,50.95326558],[3.87635321,50.95326226],[3.87623378,50.95319733],[3.87634409,50.95311849],[3.87640343,50.95315173],[3.87638872,50.9531623],[3.87650242,50.95322577],[3.87641161,50.95329067]]]}},{"type":"Feature","id":"gebouw/Gebouw.9192868/0","properties":{"source":"Digitaal Vlaanderen Gebouwenregister","source_id":"gebouw/Gebouw.9192868/0","kind":"building","height_m":9.32,"status":null},"geometry":{"type":"Polygon","coordinates":[[[3.87517586,50.95138002],[3.87515074,50.95135821],[3.87509932,50.95138175],[3.87510695,50.95138832],[3.87506285,50.95140876],[3.87500641,50.95136016],[3.87500423,50.95135828],[3.87489331,50.95140968],[3.87496929,50.95147523],[3.87517586,50.95138002]]]}},{"type":"Feature","id":"gebouw/Gebouw.9746245/0","properties":{"source":"Digitaal Vlaanderen Gebouwenregister","source_id":"gebouw/Gebouw.9746245/0","kind":"building","height_m":8.6,"status":null},"geometry":{"type":"Polygon","coordinates":[[[3.87445999,50.95088965],[3.87442445,50.95090889],[3.87438028,50.95087675],[3.87447176,50.95082153],[3.87445834,50.95081463],[3.87454592,50.95075295],[3.87462136,50.95079751],[3.87445999,50.95088965]]]}},{"type":"Feature","id":"gebouw/Gebouw.9760978/0","properties":{"source":"Digitaal Vlaanderen Gebouwenregister","source_id":"gebouw/Gebouw.9760978/0","kind":"building","height_m":7.16,"status":null},"geometry":{"type":"Polygon","coordinates":[[[3.87579122,50.95259411],[3.87569806,50.95264459],[3.87563852,50.95260246],[3.8756044,50.95257747],[3.87569901,50.95252621],[3.87579122,50.95259411]]]}},{"type":"Feature","id":"gebouw/Gebouw.18211964/0","properties":{"source":"Digitaal Vlaanderen Gebouwenregister","source_id":"gebouw/Gebouw.18211964/0","kind":"building","height_m":5.72,"status":null},"geometry":{"type":"Polygon","coordinates":[[[3.87456387,50.9510421],[3.87451934,50.95107136],[3.87445614,50.95102583],[3.87443308,50.95100935],[3.87443791,50.95100666],[3.87444894,50.95100052],[3.87450234,50.9509708],[3.8745499,50.9509443],[3.87455671,50.95094917],[3.87462865,50.95099952],[3.87456387,50.9510421]]]}},{"type":"Feature","id":"gebouw/Gebouw.18893241/0","properties":{"source":"Digitaal Vlaanderen Gebouwenregister","source_id":"gebouw/Gebouw.18893241/0","kind":"building","height_m":7.16,"status":null},"geometry":{"type":"Polygon","coordinates":[[[3.87450234,50.9509708],[3.87444894,50.95100052],[3.87444252,50.95099591],[3.87437387,50.95094667],[3.87436593,50.9509409],[3.87437013,50.95093858],[3.87442291,50.95090935],[3.87448799,50.95087782],[3.87456738,50.95093456],[3.87457418,50.95093942],[3.87455671,50.95094917],[3.8745499,50.9509443],[3.87450234,50.9509708]]]}},{"type":"Feature","id":"gebouw/Gebouw.19225047/0","properties":{"source":"Digitaal Vlaanderen Gebouwenregister","source_id":"gebouw/Gebouw.19225047/0","kind":"building","height_m":6.44,"status":null},"geometry":{"type":"Polygon","coordinates":[[[3.87461795,50.95079669],[3.87452659,50.95085854],[3.87452364,50.95086054],[3.87448799,50.95087782],[3.87442291,50.95090935],[3.87438927,50.95088363],[3.87438507,50.95088041],[3.87438028,50.95087675],[3.87447507,50.95082429],[3.87445993,50.95081544],[3.87454762,50.95075558],[3.87461795,50.95079669]]]}},{"type":"Feature","id":"gebouw/Gebouw.30584741/0","properties":{"source":"Digitaal Vlaanderen Gebouwenregister","source_id":"gebouw/Gebouw.30584741/0","kind":"building","height_m":8.6,"status":null},"geometry":{"type":"Polygon","coordinates":[[[3.87559684,50.95384475],[3.87539994,50.95373523],[3.87544345,50.95370402],[3.87564035,50.95381355],[3.87559684,50.95384475]]]}},{"type":"Feature","id":"gebouw/Gebouw.30585071/0","properties":{"source":"Digitaal Vlaanderen Gebouwenregister","source_id":"gebouw/Gebouw.30585071/0","kind":"building","height_m":9.32,"status":null},"geometry":{"type":"Polygon","coordinates":[[[3.87485137,50.95111858],[3.87489034,50.95110069],[3.87490585,50.95111418],[3.87490261,50.95113276],[3.87487975,50.95114325],[3.87485137,50.95111858]]]}},{"type":"Feature","id":"gebouw/Gebouw.31061693/0","properties":{"source":"Digitaal Vlaanderen Gebouwenregister","source_id":"gebouw/Gebouw.31061693/0","kind":"building","height_m":8.6,"status":null},"geometry":{"type":"Polygon","coordinates":[[[3.87532706,50.95158689],[3.87529074,50.95155492],[3.87523006,50.95158242],[3.87519993,50.95155589],[3.87510687,50.95159789],[3.875174,50.95165724],[3.87532706,50.95158689]]]}},{"type":"Feature","id":"gebouw/Gebouw.31061695/0","properties":{"source":"Digitaal Vlaanderen Gebouwenregister","source_id":"gebouw/Gebouw.31061695/0","kind":"building","height_m":5.0,"status":null},"geometry":{"type":"Polygon","coordinates":[[[3.875405,50.95155174],[3.87532741,50.9515872],[3.87532506,50.95158828],[3.87517405,50.95165729],[3.87521574,50.95169373],[3.87522046,50.95169168],[3.87525401,50.95172095],[3.87543033,50.95163895],[3.87539648,50.95160916],[3.87544516,50.9515871],[3.875405,50.95155174]]]}},{"type":"Feature","id":"gebouw/Gebouw.31061697/0","properties":{"source":"Digitaal Vlaanderen Gebouwenregister","source_id":"gebouw/Gebouw.31061697/0","kind":"building","height_m":6.44,"status":null},"geometry":{"type":"Polygon","coordinates":[[[3.87553665,50.95175783],[3.87550104,50.95172462],[3.87546095,50.95174168],[3.87542558,50.95170865],[3.87531081,50.95176074],[3.87534677,50.95179235],[3.87533519,50.95179761],[3.87537397,50.95183184],[3.87553665,50.95175783]]]}},{"type":"Feature","id":"gebouw/Gebouw.31061698/0","properties":{"source":"Digitaal Vlaanderen Gebouwenregister","source_id":"gebouw/Gebouw.31061698/0","kind":"building","height_m":7.16,"status":null},"geometry":{"type":"Polygon","coordinates":[[[3.87547607,50.95181872],[3.87564135,50.95174178],[3.87569496,50.95179966],[3.8755262,50.95186403],[3.87547607,50.95181872]]]}},{"type":"Feature","id":"gebouw/Gebouw.31061700/0","properties":{"source":"Digitaal Vlaanderen Gebouwenregister","source_id":"gebouw/Gebouw.31061700/0","kind":"building","height_m":8.6,"status":null},"geometry":{"type":"Polygon","coordinates":[[[3.87565423,50.95187649],[3.87568751,50.95186131],[3.87577468,50.95195141],[3.87572948,50.95197205],[3.87565423,50.95187649]]]}},{"type":"Feature","id":"gebouw/Gebouw.31339414/0","properties":{"source":"Digitaal Vlaanderen Gebouwenregister","source_id":"gebouw/Gebouw.31339414/0","kind":"building","height_m":5.72,"status":null},"geometry":{"type":"Polygon","coordinates":[[[3.8757197,50.95195159],[3.87575031,50.95193763],[3.87567146,50.95186864],[3.87565422,50.95187647],[3.8755143,50.95194004],[3.87559039,50.95200675],[3.87558054,50.9520113],[3.87558444,50.95201538],[3.87564677,50.95198699],[3.87566416,50.95200223],[3.87573875,50.95196826],[3.8757197,50.95195159]]]}},{"type":"Feature","id":"gebouw/Gebouw.31762556/0","properties":{"source":"Digitaal Vlaanderen Gebouwenregister","source_id":"gebouw/Gebouw.31762556/0","kind":"building","height_m":5.0,"status":null},"geometry":{"type":"Polygon","coordinates":[[[3.87498855,50.95117666],[3.87495731,50.95115074],[3.87491315,50.95117197],[3.87494364,50.95119727],[3.87498724,50.95117726],[3.87498855,50.95117666]]]}},{"type":"Feature","id":"gebouw/Gebouw.31932736/0","properties":{"source":"Digitaal Vlaanderen Gebouwenregister","source_id":"gebouw/Gebouw.31932736/0","kind":"building","height_m":7.16,"status":null},"geometry":{"type":"Polygon","coordinates":[[[3.87532506,50.95158828],[3.87528673,50.95155496],[3.8752333,50.95157948],[3.87520441,50.95155434],[3.87510699,50.95159833],[3.875174,50.95165724],[3.87517405,50.95165729],[3.87532506,50.95158828]]]}},{"type":"Feature","id":"way/198616271","properties":{"source":"OpenStreetMap","source_id":"way/198616271","kind":"vegetation","name":null,"waterway":null,"landuse":"forest"},"geometry":{"type":"Polygon","coordinates":[[[3.8748712,50.9536039],[3.8747978,50.9536751],[3.8751826,50.953865],[3.8752679,50.953795],[3.8748712,50.9536039]]]}},{"type":"Feature","id":"way/198616273","properties":{"source":"OpenStreetMap","source_id":"way/198616273","kind":"vegetation","name":null,"waterway":null,"landuse":"forest"},"geometry":{"type":"Polygon","coordinates":[[[3.8761967,50.9538138],[3.87607,50.953748],[3.8764179,50.9535122],[3.8765422,50.953583],[3.8761967,50.9538138]]]}}]}