{"type":"FeatureCollection","features":[{"type":"Feature","id":"gebouw/Gebouw.9841238/0","properties":{"source":"Digitaal Vlaanderen Gebouwenregister","source_id":"gebouw/Gebouw.9841238/0","kind":"building","height_m":5.72,"status":null},"geometry":{"type":"Polygon","coordinates":[[[3.8961102,50.94873104],[3.89604827,50.94869995],[3.89612045,50.94863657],[3.89617971,50.94866744],[3.8961102,50.94873104]]]}},{"type":"Feature","id":"way/198312706","properties":{"source":"OpenStreetMap","source_id":"way/198312706","kind":"vegetation","name":null,"waterway":null,"landuse":"forest"},"geometry":{"type":"Polygon","coordinates":[[[3.8976178,50.947758],[3.8958783,50.9484536],[3.8959715,50.948493],[3.8967517,50.9488227],[3.8977222,50.9479193],[3.8978221,50.9478757],[3.8976992,50.9478031],[3.8976178,50.947758]]]}}]}