{"type":"FeatureCollection","features":[{"type":"Feature","id":"gebouw/Gebouw.9132570/0","properties":{"source":"Digitaal Vlaanderen Gebouwenregister","source_id":"gebouw/Gebouw.9132570/0","kind":"building","height_m":9.32,"status":null},"geometry":{"type":"Polygon","coordinates":[[[3.89511759,50.97679233],[3.89499882,50.97684256],[3.89478644,50.97664725],[3.89490428,50.97659617],[3.89500839,50.9766919],[3.89506539,50.97674432],[3.89511759,50.97679233]]]}},{"type":"Feature","id":"gebouw/Gebouw.9193092/0","properties":{"source":"Digitaal Vlaanderen Gebouwenregister","source_id":"gebouw/Gebouw.9193092/0","kind":"building","height_m":9.32,"status":null},"geometry":{"type":"Polygon","coordinates":[[[3.89479533,50.9766931],[3.89483277,50.97673063],[3.894788,50.97674939],[3.89480878,50.97676874],[3.89469225,50.97681567],[3.89464402,50.97677182],[3.89469268,50.97675069],[3.894646,50.97670455],[3.89474729,50.97666371],[3.89478253,50.97669856],[3.89479533,50.9766931]]]}},{"type":"Feature","id":"gebouw/Gebouw.9462870/0","properties":{"source":"Digitaal Vlaanderen Gebouwenregister","source_id":"gebouw/Gebouw.9462870/0","kind":"building","height_m":7.88,"status":null},"geometry":{"type":"Polygon","coordinates":[[[3.89548775,50.97718766],[3.8954633,50.97716246],[3.89550233,50.97714719],[3.89552678,50.9771724],[3.89548775,50.97718766]]]}},{"type":"Feature","id":"gebouw/Gebouw.9737903/0","properties":{"source":"Digitaal Vlaanderen Gebouwenregister","source_id":"gebouw/Gebouw.9737903/0","kind":"building","height_m":5.0,"status":null},"geometry":{"type":"Polygon","coordinates":[[[3.89512372,50.9768821],[3.8951041,50.97686351],[3.89515042,50.97684271],[3.89517181,50.97686132],[3.89512372,50.9768821]]]}},{"type":"Feature","id":"gebouw/Gebouw.18362173/0","properties":{"source":"Digitaal Vlaanderen Gebouwenregister","source_id":"gebouw/Gebouw.18362173/0","kind":"building","height_m":7.88,"status":null},"geometry":{"type":"Polygon","coordinates":[[[3.89485219,50.97576033],[3.8946944,50.97587697],[3.89437403,50.97570373],[3.89449255,50.97561598],[3.89445538,50.97559596],[3.89451007,50.97555548],[3.89454724,50.97557549],[3.89456857,50.9755597],[3.89484911,50.97571161],[3.89493158,50.97564941],[3.89497616,50.97567496],[3.89500351,50.97565397],[3.89507136,50.97568963],[3.89505512,50.9757018],[3.89512036,50.97573738],[3.89507469,50.97577075],[3.89506402,50.97576493],[3.89497885,50.97582825],[3.89485219,50.97576033]]]}},{"type":"Feature","id":"way/175592312","properties":{"source":"OpenStreetMap","source_id":"way/175592312","kind":"vegetation","name":null,"waterway":null,"landuse":"forest"},"geometry":{"type":"Polygon","coordinates":[[[3.8960655,50.9752365],[3.8949762,50.9761765],[3.8950785,50.9762183],[3.8949519,50.9763243],[3.8942464,50.9769146],[3.894341,50.9769738],[3.8945809,50.9771235],[3.8943182,50.9772784],[3.8939478,50.9770609],[3.893851,50.9770678],[3.8937708,50.9770417],[3.8936962,50.976993],[3.8936713,50.9769494],[3.8936989,50.9768781],[3.8934639,50.9766744],[3.8933174,50.9763715],[3.8934059,50.9763454],[3.8930741,50.9756108],[3.8934584,50.9755446],[3.8933368,50.9753497],[3.8934335,50.9753288],[3.8935137,50.9754541],[3.8936381,50.9755516],[3.8938178,50.9756369],[3.8941358,50.9758092],[3.8952942,50.9748222],[3.8954407,50.9748518],[3.8955098,50.9748431],[3.8956398,50.9748692],[3.8956978,50.9749197],[3.8957448,50.9749841],[3.8957559,50.9750328],[3.8957863,50.9751007],[3.8958803,50.9751704],[3.8959984,50.9752126],[3.8960655,50.9752365]]]}}]}