{"type":"FeatureCollection","features":[{"type":"Feature","id":"gebouw/Gebouw.9044033/0","properties":{"source":"Digitaal Vlaanderen Gebouwenregister","source_id":"gebouw/Gebouw.9044033/0","kind":"building","height_m":8.6,"status":null},"geometry":{"type":"Polygon","coordinates":[[[3.88941606,50.96354692],[3.88946687,50.96355353],[3.88945311,50.96359682],[3.88940256,50.96359115],[3.88941606,50.96354692]]]}},{"type":"Feature","id":"gebouw/Gebouw.9044110/0","properties":{"source":"Digitaal Vlaanderen Gebouwenregister","source_id":"gebouw/Gebouw.9044110/0","kind":"building","height_m":8.6,"status":null},"geometry":{"type":"Polygon","coordinates":[[[3.88899382,50.96264404],[3.88901254,50.96260362],[3.88908657,50.96261744],[3.88906609,50.96265709],[3.88899382,50.96264404]]]}},{"type":"Feature","id":"gebouw/Gebouw.9044111/0","properties":{"source":"Digitaal Vlaanderen Gebouwenregister","source_id":"gebouw/Gebouw.9044111/0","kind":"building","height_m":9.32,"status":null},"geometry":{"type":"Polygon","coordinates":[[[3.89125859,50.96273205],[3.89127564,50.96266838],[3.89134631,50.96267579],[3.89132896,50.96273964],[3.89125859,50.96273205]]]}},{"type":"Feature","id":"gebouw/Gebouw.9044112/0","properties":{"source":"Digitaal Vlaanderen Gebouwenregister","source_id":"gebouw/Gebouw.9044112/0","kind":"building","height_m":5.0,"status":null},"geometry":{"type":"Polygon","coordinates":[[[3.89246488,50.96253585],[3.89247092,50.96258143],[3.8924204,50.96258457],[3.89241318,50.96253859],[3.89246488,50.96253585]]]}},{"type":"Feature","id":"gebouw/Gebouw.9044330/0","properties":{"source":"Digitaal Vlaanderen Gebouwenregister","source_id":"gebouw/Gebouw.9044330/0","kind":"building","height_m":5.72,"status":null},"geometry":{"type":"Polygon","coordinates":[[[3.89564852,50.96382638],[3.89561871,50.96381178],[3.89566341,50.96377505],[3.89569441,50.96378965],[3.89564852,50.96382638]]]}},{"type":"Feature","id":"gebouw/Gebouw.9044331/0","properties":{"source":"Digitaal Vlaanderen Gebouwenregister","source_id":"gebouw/Gebouw.9044331/0","kind":"building","height_m":6.44,"status":null},"geometry":{"type":"Polygon","coordinates":[[[3.89584555,50.96339007],[3.89586269,50.96335281],[3.89591254,50.96336221],[3.8958969,50.96339892],[3.89584555,50.96339007]]]}},{"type":"Feature","id":"gebouw/Gebouw.9044377/0","properties":{"source":"Digitaal Vlaanderen Gebouwenregister","source_id":"gebouw/Gebouw.9044377/0","kind":"building","height_m":9.32,"status":null},"geometry":{"type":"Polygon","coordinates":[[[3.89178114,50.96258718],[3.89175541,50.96259136],[3.8917111,50.9624941],[3.8917109,50.96248858],[3.89171324,50.96248326],[3.89171792,50.96247859],[3.89172454,50.96247498],[3.89173252,50.96247272],[3.89173228,50.9624719],[3.89186444,50.96244787],[3.89191676,50.96256263],[3.89186464,50.96257208],[3.89187265,50.96259184],[3.89187455,50.96259767],[3.89187466,50.96260385],[3.89187296,50.96261114],[3.89186829,50.96261839],[3.89186068,50.96262485],[3.89185163,50.96262961],[3.89184325,50.96263213],[3.89183787,50.96263357],[3.89184011,50.96263809],[3.89185562,50.96263528],[3.89188835,50.96271022],[3.89177084,50.96273166],[3.89173691,50.96265708],[3.8918073,50.96264406],[3.89179589,50.96261939],[3.89178114,50.96258718]]]}},{"type":"Feature","id":"gebouw/Gebouw.9044378/0","properties":{"source":"Digitaal Vlaanderen Gebouwenregister","source_id":"gebouw/Gebouw.9044378/0","kind":"building","height_m":5.0,"status":null},"geometry":{"type":"Polygon","coordinates":[[[3.88937963,50.9633606],[3.88937263,50.96338713],[3.88948201,50.96339585],[3.88948501,50.96338416],[3.88952411,50.96338817],[3.8895312,50.96336059],[3.88950646,50.96335805],[3.88951287,50.96333313],[3.8894284,50.96332352],[3.88941818,50.96336417],[3.88937963,50.9633606]]]}},{"type":"Feature","id":"gebouw/Gebouw.9044430/0","properties":{"source":"Digitaal Vlaanderen Gebouwenregister","source_id":"gebouw/Gebouw.9044430/0","kind":"building","height_m":7.16,"status":null},"geometry":{"type":"Polygon","coordinates":[[[3.89828722,50.96287162],[3.89828137,50.96292395],[3.89816757,50.9629196],[3.89816926,50.96290167],[3.89809973,50.96289878],[3.89810551,50.96283869],[3.89817294,50.96284138],[3.89817371,50.96283398],[3.89822703,50.96283603],[3.89822644,50.96284129],[3.89824244,50.96284187],[3.89824203,50.96284542],[3.89830161,50.96284669],[3.89829996,50.96287196],[3.89828722,50.96287162]]]}},{"type":"Feature","id":"gebouw/Gebouw.9044431/0","properties":{"source":"Digitaal Vlaanderen Gebouwenregister","source_id":"gebouw/Gebouw.9044431/0","kind":"building","height_m":7.88,"status":null},"geometry":{"type":"Polygon","coordinates":[[[3.8984412,50.96444166],[3.89843238,50.96443893],[3.89845117,50.96441704],[3.89845482,50.96441279],[3.89846217,50.96441494],[3.89849778,50.96436974],[3.89850063,50.96436613],[3.89837653,50.96432747],[3.89829111,50.9644368],[3.89841292,50.96447466],[3.8984412,50.96444166]]]}},{"type":"Feature","id":"gebouw/Gebouw.9044437/0","properties":{"source":"Digitaal Vlaanderen Gebouwenregister","source_id":"gebouw/Gebouw.9044437/0","kind":"building","height_m":7.16,"status":null},"geometry":{"type":"Polygon","coordinates":[[[3.89154913,50.96261866],[3.89142121,50.96264129],[3.89138469,50.96256118],[3.89149137,50.9625421],[3.89148749,50.96253344],[3.89159958,50.96251347],[3.8916669,50.96266421],[3.89157872,50.96268008],[3.89154913,50.96261866]]]}},{"type":"Feature","id":"gebouw/Gebouw.9044438/0","properties":{"source":"Digitaal Vlaanderen Gebouwenregister","source_id":"gebouw/Gebouw.9044438/0","kind":"building","height_m":7.88,"status":null},"geometry":{"type":"Polygon","coordinates":[[[3.89066985,50.96272158],[3.89056356,50.96269576],[3.89060051,50.96263445],[3.89059885,50.96263404],[3.89060641,50.96262138],[3.89060814,50.96262178],[3.89061295,50.96261379],[3.89072724,50.96264126],[3.89073234,50.96263281],[3.89084408,50.96265966],[3.89075074,50.96281461],[3.890632,50.9627865],[3.89066985,50.96272158]]]}},{"type":"Feature","id":"gebouw/Gebouw.9044439/0","properties":{"source":"Digitaal Vlaanderen Gebouwenregister","source_id":"gebouw/Gebouw.9044439/0","kind":"building","height_m":8.6,"status":null},"geometry":{"type":"Polygon","coordinates":[[[3.88906712,50.96287257],[3.88894313,50.96300356],[3.88869897,50.96291138],[3.88882229,50.96278014],[3.88906712,50.96287257]]]}},{"type":"Feature","id":"gebouw/Gebouw.9044440/0","properties":{"source":"Digitaal Vlaanderen Gebouwenregister","source_id":"gebouw/Gebouw.9044440/0","kind":"building","height_m":9.32,"status":null},"geometry":{"type":"Polygon","coordinates":[[[3.88961394,50.96226203],[3.88957602,50.96222871],[3.88969812,50.96216949],[3.88978485,50.96224441],[3.88959367,50.9623415],[3.88955869,50.96231167],[3.88958637,50.96229852],[3.88958377,50.96229643],[3.88961415,50.96228237],[3.88959853,50.96226907],[3.88961394,50.96226203]]]}},{"type":"Feature","id":"gebouw/Gebouw.9044446/0","properties":{"source":"Digitaal Vlaanderen Gebouwenregister","source_id":"gebouw/Gebouw.9044446/0","kind":"building","height_m":8.6,"status":null},"geometry":{"type":"Polygon","coordinates":[[[3.89806197,50.96763878],[3.8980667,50.96763511],[3.8980678,50.96763426],[3.89806337,50.96763196],[3.89802384,50.96761139],[3.89795251,50.96757428],[3.89792045,50.96760167],[3.89791783,50.9676039],[3.89782505,50.96756214],[3.89782835,50.96755905],[3.8977836,50.96753792],[3.89772682,50.96758709],[3.89780765,50.96762411],[3.89782013,50.96762983],[3.89788486,50.96765948],[3.8979075,50.96765673],[3.89793202,50.96763698],[3.89801134,50.96767799],[3.89806197,50.96763878]]]}},{"type":"Feature","id":"gebouw/Gebouw.9044664/0","properties":{"source":"Digitaal Vlaanderen Gebouwenregister","source_id":"gebouw/Gebouw.9044664/0","kind":"building","height_m":9.32,"status":null},"geometry":{"type":"Polygon","coordinates":[[[3.89040113,50.9622469],[3.89040618,50.96224727],[3.89041086,50.9622476],[3.89040951,50.96225515],[3.89040817,50.96226261],[3.89040549,50.96227748],[3.89033848,50.96227268],[3.89034385,50.9622428],[3.89040113,50.9622469]]]}},{"type":"Feature","id":"gebouw/Gebouw.9049043/0","properties":{"source":"Digitaal Vlaanderen Gebouwenregister","source_id":"gebouw/Gebouw.9049043/0","kind":"building","height_m":7.16,"status":null},"geometry":{"type":"Polygon","coordinates":[[[3.88849971,50.96267236],[3.88843566,50.96271092],[3.88837225,50.9626697],[3.88843513,50.96263037],[3.88849971,50.96267236]]]}},{"type":"Feature","id":"gebouw/Gebouw.9049104/0","properties":{"source":"Digitaal Vlaanderen Gebouwenregister","source_id":"gebouw/Gebouw.9049104/0","kind":"building","height_m":5.72,"status":null},"geometry":{"type":"Polygon","coordinates":[[[3.88880378,50.96261178],[3.88876162,50.96263263],[3.88869358,50.96257767],[3.88873965,50.96255519],[3.88880378,50.96261178]]]}},{"type":"Feature","id":"gebouw/Gebouw.9057592/0","properties":{"source":"Digitaal Vlaanderen Gebouwenregister","source_id":"gebouw/Gebouw.9057592/0","kind":"building","height_m":8.6,"status":null},"geometry":{"type":"Polygon","coordinates":[[[3.89802384,50.96761139],[3.89809571,50.96755458],[3.89810086,50.96755051],[3.89810515,50.96754712],[3.89797596,50.96748193],[3.89785989,50.96757365],[3.89791783,50.9676039],[3.89792045,50.96760167],[3.89795251,50.96757428],[3.89802384,50.96761139]]]}},{"type":"Feature","id":"gebouw/Gebouw.9057863/0","properties":{"source":"Digitaal Vlaanderen Gebouwenregister","source_id":"gebouw/Gebouw.9057863/0","kind":"building","height_m":7.16,"status":null},"geometry":{"type":"Polygon","coordinates":[[[3.89851162,50.96787784],[3.89842596,50.96794273],[3.89838838,50.96792296],[3.89847283,50.967859],[3.89851162,50.96787784]]]}},{"type":"Feature","id":"gebouw/Gebouw.9064319/0","properties":{"source":"Digitaal Vlaanderen Gebouwenregister","source_id":"gebouw/Gebouw.9064319/0","kind":"building","height_m":8.6,"status":null},"geometry":{"type":"Polygon","coordinates":[[[3.88934892,50.96228888],[3.88940477,50.96226164],[3.88940702,50.96226055],[3.8894331,50.96228072],[3.88943014,50.96228216],[3.8893756,50.96230868],[3.88934892,50.96228888]]]}},{"type":"Feature","id":"gebouw/Gebouw.9064320/0","properties":{"source":"Digitaal Vlaanderen Gebouwenregister","source_id":"gebouw/Gebouw.9064320/0","kind":"building","height_m":9.32,"status":null},"geometry":{"type":"Polygon","coordinates":[[[3.89006901,50.96282691],[3.89011992,50.96274193],[3.8902009,50.96276145],[3.89016236,50.96282935],[3.89015382,50.96282756],[3.89014441,50.9628443],[3.89006901,50.96282691]]]}},{"type":"Feature","id":"gebouw/Gebouw.9064321/0","properties":{"source":"Digitaal Vlaanderen Gebouwenregister","source_id":"gebouw/Gebouw.9064321/0","kind":"building","height_m":5.0,"status":null},"geometry":{"type":"Polygon","coordinates":[[[3.89124003,50.96255107],[3.89127949,50.96256053],[3.89122861,50.9626444],[3.89118828,50.96263436],[3.89124003,50.96255107]]]}},{"type":"Feature","id":"gebouw/Gebouw.9064392/0","properties":{"source":"Digitaal Vlaanderen Gebouwenregister","source_id":"gebouw/Gebouw.9064392/0","kind":"building","height_m":5.72,"status":null},"geometry":{"type":"Polygon","coordinates":[[[3.89565596,50.96358915],[3.89576352,50.96364214],[3.89567739,50.96371471],[3.89556804,50.96366208],[3.89565596,50.96358915]]]}},{"type":"Feature","id":"gebouw/Gebouw.9064393/0","properties":{"source":"Digitaal Vlaanderen Gebouwenregister","source_id":"gebouw/Gebouw.9064393/0","kind":"building","height_m":6.44,"status":null},"geometry":{"type":"Polygon","coordinates":[[[3.89622652,50.96353381],[3.89617171,50.96351199],[3.89619129,50.96349237],[3.89624403,50.96351398],[3.89622652,50.96353381]]]}},{"type":"Feature","id":"gebouw/Gebouw.9064575/0","properties":{"source":"Digitaal Vlaanderen Gebouwenregister","source_id":"gebouw/Gebouw.9064575/0","kind":"building","height_m":6.44,"status":null},"geometry":{"type":"Polygon","coordinates":[[[3.89851218,50.96733432],[3.89847199,50.9673665],[3.89841206,50.96733616],[3.89845454,50.96730501],[3.89851218,50.96733432]]]}},{"type":"Feature","id":"gebouw/Gebouw.9064882/0","properties":{"source":"Digitaal Vlaanderen Gebouwenregister","source_id":"gebouw/Gebouw.9064882/0","kind":"building","height_m":5.72,"status":null},"geometry":{"type":"Polygon","coordinates":[[[3.8937689,50.96248509],[3.89376055,50.96252681],[3.89370753,50.96252253],[3.89370732,50.96252355],[3.89356745,50.96251348],[3.89358724,50.96241455],[3.89360004,50.96241557],[3.89361051,50.96241094],[3.89363075,50.96241253],[3.89363904,50.96241871],[3.8937272,50.96242579],[3.89372663,50.96242857],[3.89377937,50.96243287],[3.8937689,50.96248509]]]}},{"type":"Feature","id":"gebouw/Gebouw.9065168/0","properties":{"source":"Digitaal Vlaanderen Gebouwenregister","source_id":"gebouw/Gebouw.9065168/0","kind":"building","height_m":5.0,"status":null},"geometry":{"type":"Polygon","coordinates":[[[3.89297874,50.96248225],[3.89264938,50.96245585],[3.8926722,50.96234617],[3.89289243,50.96236447],[3.89290488,50.96230382],[3.89300621,50.96231218],[3.89299367,50.96237276],[3.89300126,50.96237338],[3.89297874,50.96248225]]]}},{"type":"Feature","id":"gebouw/Gebouw.9069263/0","properties":{"source":"Digitaal Vlaanderen Gebouwenregister","source_id":"gebouw/Gebouw.9069263/0","kind":"building","height_m":5.0,"status":null},"geometry":{"type":"Polygon","coordinates":[[[3.89051314,50.962608],[3.89038833,50.96257731],[3.8903733,50.96257361],[3.89030665,50.96255771],[3.89025826,50.96263858],[3.89032927,50.96265548],[3.89033433,50.9626649],[3.89039764,50.96268009],[3.89036768,50.96272918],[3.89038239,50.9627331],[3.89035735,50.96277663],[3.89040387,50.96278806],[3.89042958,50.96274569],[3.89044279,50.96272391],[3.89051314,50.962608]]]}},{"type":"Feature","id":"gebouw/Gebouw.9069271/0","properties":{"source":"Digitaal Vlaanderen Gebouwenregister","source_id":"gebouw/Gebouw.9069271/0","kind":"building","height_m":5.72,"status":null},"geometry":{"type":"Polygon","coordinates":[[[3.88880378,50.96261178],[3.88882042,50.962591],[3.88887091,50.96260847],[3.88885306,50.96262998],[3.88880378,50.96261178]]]}},{"type":"Feature","id":"gebouw/Gebouw.9069443/0","properties":{"source":"Digitaal Vlaanderen Gebouwenregister","source_id":"gebouw/Gebouw.9069443/0","kind":"building","height_m":8.6,"status":null},"geometry":{"type":"Polygon","coordinates":[[[3.88988679,50.9634582],[3.88988854,50.96343949],[3.88993121,50.96344112],[3.88992684,50.96349708],[3.88985124,50.96349598],[3.88985387,50.96345799],[3.88988679,50.9634582]]]}},{"type":"Feature","id":"gebouw/Gebouw.9069444/0","properties":{"source":"Digitaal Vlaanderen Gebouwenregister","source_id":"gebouw/Gebouw.9069444/0","kind":"building","height_m":9.32,"status":null},"geometry":{"type":"Polygon","coordinates":[[[3.8898228,50.96304347],[3.88990032,50.96306951],[3.88987352,50.96310234],[3.88979509,50.96307723],[3.8898228,50.96304347]]]}},{"type":"Feature","id":"gebouw/Gebouw.9069445/0","properties":{"source":"Digitaal Vlaanderen Gebouwenregister","source_id":"gebouw/Gebouw.9069445/0","kind":"building","height_m":5.0,"status":null},"geometry":{"type":"Polygon","coordinates":[[[3.89338786,50.96295041],[3.89339353,50.96291976],[3.89345157,50.96292308],[3.89344648,50.96295411],[3.89338786,50.96295041]]]}},{"type":"Feature","id":"gebouw/Gebouw.9069475/0","properties":{"source":"Digitaal Vlaanderen Gebouwenregister","source_id":"gebouw/Gebouw.9069475/0","kind":"building","height_m":6.44,"status":null},"geometry":{"type":"Polygon","coordinates":[[[3.89809753,50.9627045],[3.89809669,50.96270455],[3.8979866,50.96271088],[3.89797887,50.96265861],[3.898115,50.96265096],[3.8981179,50.96267272],[3.89827094,50.96266313],[3.89827359,50.96269351],[3.89809753,50.9627045]]]}},{"type":"Feature","id":"gebouw/Gebouw.9069527/0","properties":{"source":"Digitaal Vlaanderen Gebouwenregister","source_id":"gebouw/Gebouw.9069527/0","kind":"building","height_m":8.6,"status":null},"geometry":{"type":"Polygon","coordinates":[[[3.89840669,50.96453396],[3.89844496,50.96448422],[3.89856781,50.96452203],[3.89855234,50.9645432],[3.898597,50.9645576],[3.89857367,50.96458693],[3.89840669,50.96453396]]]}},{"type":"Feature","id":"gebouw/Gebouw.9069529/0","properties":{"source":"Digitaal Vlaanderen Gebouwenregister","source_id":"gebouw/Gebouw.9069529/0","kind":"building","height_m":5.0,"status":null},"geometry":{"type":"Polygon","coordinates":[[[3.89434542,50.96529095],[3.89427164,50.96535195],[3.89401312,50.96522972],[3.89409643,50.96515224],[3.89435895,50.96527976],[3.89434542,50.96529095]]]}},{"type":"Feature","id":"gebouw/Gebouw.9069530/0","properties":{"source":"Digitaal Vlaanderen Gebouwenregister","source_id":"gebouw/Gebouw.9069530/0","kind":"building","height_m":5.72,"status":null},"geometry":{"type":"Polygon","coordinates":[[[3.89548771,50.96393627],[3.89543772,50.96394166],[3.89542533,50.96389],[3.8954768,50.96388482],[3.89547726,50.96388932],[3.89548826,50.96388851],[3.89549766,50.96393096],[3.89548753,50.96393233],[3.89548771,50.96393627]]]}},{"type":"Feature","id":"gebouw/Gebouw.9069531/0","properties":{"source":"Digitaal Vlaanderen Gebouwenregister","source_id":"gebouw/Gebouw.9069531/0","kind":"building","height_m":6.44,"status":null},"geometry":{"type":"Polygon","coordinates":[[[3.89593444,50.96333419],[3.89591579,50.9633231],[3.89595942,50.96329253],[3.89589166,50.96326756],[3.8959095,50.96324642],[3.89595934,50.96326575],[3.89595689,50.96326834],[3.89598444,50.96327916],[3.8959731,50.96329157],[3.89598616,50.96330091],[3.89593444,50.96333419]]]}},{"type":"Feature","id":"gebouw/Gebouw.9069532/0","properties":{"source":"Digitaal Vlaanderen Gebouwenregister","source_id":"gebouw/Gebouw.9069532/0","kind":"building","height_m":7.16,"status":null},"geometry":{"type":"Polygon","coordinates":[[[3.89600037,50.96315426],[3.89599275,50.96315095],[3.89596017,50.96317885],[3.89597071,50.96318351],[3.89599062,50.96319232],[3.89602379,50.96316444],[3.89600037,50.96315426]]]}},{"type":"Feature","id":"gebouw/Gebouw.9069664/0","properties":{"source":"Digitaal Vlaanderen Gebouwenregister","source_id":"gebouw/Gebouw.9069664/0","kind":"building","height_m":6.44,"status":null},"geometry":{"type":"Polygon","coordinates":[[[3.8955154,50.96338123],[3.89551877,50.96337771],[3.89542082,50.96333612],[3.8955227,50.96323867],[3.89563105,50.96328372],[3.89562675,50.96328854],[3.89564874,50.96329686],[3.89565229,50.9633072],[3.89561227,50.96334587],[3.8956975,50.96338192],[3.89569441,50.963386],[3.89573542,50.96340298],[3.89568867,50.96344831],[3.89564709,50.96343058],[3.89564283,50.96343427],[3.8955154,50.96338123]]]}},{"type":"Feature","id":"gebouw/Gebouw.9069669/0","properties":{"source":"Digitaal Vlaanderen Gebouwenregister","source_id":"gebouw/Gebouw.9069669/0","kind":"building","height_m":5.0,"status":null},"geometry":{"type":"Polygon","coordinates":[[[3.8932158,50.96247523],[3.89313221,50.96246801],[3.89315013,50.96238486],[3.89338131,50.96240481],[3.89337696,50.96242503],[3.89346153,50.96243228],[3.89344552,50.96250629],[3.89335522,50.96249861],[3.89335674,50.96248739],[3.89327503,50.96248034],[3.89326769,50.96248969],[3.89324619,50.96249467],[3.8932311,50.96249318],[3.89321649,50.96248589],[3.8932158,50.96247523]]]}},{"type":"Feature","id":"gebouw/Gebouw.9069670/0","properties":{"source":"Digitaal Vlaanderen Gebouwenregister","source_id":"gebouw/Gebouw.9069670/0","kind":"building","height_m":5.72,"status":null},"geometry":{"type":"Polygon","coordinates":[[[3.88969438,50.96308257],[3.88961891,50.96317513],[3.88950224,50.96313695],[3.88954767,50.96308168],[3.88953514,50.9630775],[3.88956528,50.9630407],[3.88969438,50.96308257]]]}},{"type":"Feature","id":"gebouw/Gebouw.9069671/0","properties":{"source":"Digitaal Vlaanderen Gebouwenregister","source_id":"gebouw/Gebouw.9069671/0","kind":"building","height_m":6.44,"status":null},"geometry":{"type":"Polygon","coordinates":[[[3.88972628,50.96344763],[3.88971284,50.96351268],[3.88942888,50.96349232],[3.8894406,50.96342715],[3.88972628,50.96344763]]]}},{"type":"Feature","id":"gebouw/Gebouw.9069672/0","properties":{"source":"Digitaal Vlaanderen Gebouwenregister","source_id":"gebouw/Gebouw.9069672/0","kind":"building","height_m":7.16,"status":null},"geometry":{"type":"Polygon","coordinates":[[[3.88976669,50.9667635],[3.88985674,50.96669231],[3.89008522,50.96680966],[3.88996091,50.96690614],[3.88974617,50.96679582],[3.8897781,50.9667687],[3.88976669,50.9667635]]]}},{"type":"Feature","id":"gebouw/Gebouw.9069686/0","properties":{"source":"Digitaal Vlaanderen Gebouwenregister","source_id":"gebouw/Gebouw.9069686/0","kind":"building","height_m":7.16,"status":null},"geometry":{"type":"Polygon","coordinates":[[[3.88978485,50.96224441],[3.88981953,50.96227457],[3.88978668,50.96229077],[3.88978925,50.96229285],[3.88977268,50.96230099],[3.88977014,50.96229894],[3.88968067,50.96234307],[3.88974497,50.96236321],[3.88972529,50.96238828],[3.88972783,50.96238907],[3.88972737,50.96238964],[3.8896267,50.96235339],[3.88959367,50.9623415],[3.88978485,50.96224441]]]}},{"type":"Feature","id":"gebouw/Gebouw.9069687/0","properties":{"source":"Digitaal Vlaanderen Gebouwenregister","source_id":"gebouw/Gebouw.9069687/0","kind":"building","height_m":7.88,"status":null},"geometry":{"type":"Polygon","coordinates":[[[3.89341973,50.96442395],[3.89338049,50.96440412],[3.89346429,50.96433801],[3.89351884,50.96434577],[3.89341973,50.96442395]]]}},{"type":"Feature","id":"gebouw/Gebouw.9069814/0","properties":{"source":"Digitaal Vlaanderen Gebouwenregister","source_id":"gebouw/Gebouw.9069814/0","kind":"building","height_m":8.6,"status":null},"geometry":{"type":"Polygon","coordinates":[[[3.89678024,50.96227355],[3.8968352,50.96226209],[3.89684883,50.96228814],[3.89679387,50.96229961],[3.89678024,50.96227355]]]}},{"type":"Feature","id":"gebouw/Gebouw.9069963/0","properties":{"source":"Digitaal Vlaanderen Gebouwenregister","source_id":"gebouw/Gebouw.9069963/0","kind":"building","height_m":5.0,"status":null},"geometry":{"type":"Polygon","coordinates":[[[3.89713752,50.96601141],[3.89720073,50.96603034],[3.89718163,50.96605362],[3.89711875,50.96603385],[3.89713752,50.96601141]]]}},{"type":"Feature","id":"gebouw/Gebouw.9070032/0","properties":{"source":"Digitaal Vlaanderen Gebouwenregister","source_id":"gebouw/Gebouw.9070032/0","kind":"building","height_m":9.32,"status":null},"geometry":{"type":"Polygon","coordinates":[[[3.89474672,50.96397719],[3.89467679,50.96394545],[3.89467569,50.96394607],[3.89457058,50.96388158],[3.89463688,50.96383849],[3.89464727,50.96384476],[3.89471424,50.96380062],[3.89480934,50.96385817],[3.89474459,50.96390056],[3.89481567,50.96393344],[3.89476074,50.96398448],[3.89474672,50.96397719]]]}},{"type":"Feature","id":"gebouw/Gebouw.9122333/0","properties":{"source":"Digitaal Vlaanderen Gebouwenregister","source_id":"gebouw/Gebouw.9122333/0","kind":"building","height_m":7.16,"status":null},"geometry":{"type":"Polygon","coordinates":[[[3.89841761,50.96771404],[3.89834649,50.96777173],[3.89816141,50.96768118],[3.89816386,50.96767896],[3.89813588,50.96766567],[3.8981951,50.96761764],[3.89822239,50.96763106],[3.89823236,50.96762297],[3.89824011,50.96762678],[3.89835251,50.96768203],[3.89837037,50.96769081],[3.89841575,50.96771312],[3.89841761,50.96771404]]]}},{"type":"Feature","id":"gebouw/Gebouw.9122460/0","properties":{"source":"Digitaal Vlaanderen Gebouwenregister","source_id":"gebouw/Gebouw.9122460/0","kind":"building","height_m":7.88,"status":null},"geometry":{"type":"Polygon","coordinates":[[[3.89426236,50.96356528],[3.89422765,50.96359521],[3.89412105,50.96354972],[3.89412477,50.96354616],[3.89407507,50.96352551],[3.89410073,50.96350088],[3.89415043,50.96352152],[3.89415343,50.96351865],[3.89426236,50.96356528]]]}},{"type":"Feature","id":"gebouw/Gebouw.9122461/0","properties":{"source":"Digitaal Vlaanderen Gebouwenregister","source_id":"gebouw/Gebouw.9122461/0","kind":"building","height_m":8.6,"status":null},"geometry":{"type":"Polygon","coordinates":[[[3.88882027,50.9652199],[3.88869804,50.96517179],[3.88872893,50.96514088],[3.88885117,50.96518899],[3.88882027,50.9652199]]]}},{"type":"Feature","id":"gebouw/Gebouw.9122462/0","properties":{"source":"Digitaal Vlaanderen Gebouwenregister","source_id":"gebouw/Gebouw.9122462/0","kind":"building","height_m":9.32,"status":null},"geometry":{"type":"Polygon","coordinates":[[[3.88957213,50.96431996],[3.88963567,50.96433758],[3.88957616,50.96442228],[3.88951205,50.9644039],[3.88957213,50.96431996]]]}},{"type":"Feature","id":"gebouw/Gebouw.9122532/0","properties":{"source":"Digitaal Vlaanderen Gebouwenregister","source_id":"gebouw/Gebouw.9122532/0","kind":"building","height_m":9.32,"status":null},"geometry":{"type":"Polygon","coordinates":[[[3.89054804,50.96228487],[3.89065362,50.96226811],[3.89068317,50.96234483],[3.89057223,50.96236185],[3.89057457,50.96236783],[3.89051916,50.96237648],[3.89050181,50.96233245],[3.89045712,50.96233903],[3.89043197,50.9622683],[3.89053362,50.96225173],[3.89054804,50.96228487]]]}},{"type":"Feature","id":"gebouw/Gebouw.9122536/0","properties":{"source":"Digitaal Vlaanderen Gebouwenregister","source_id":"gebouw/Gebouw.9122536/0","kind":"building","height_m":7.16,"status":null},"geometry":{"type":"Polygon","coordinates":[[[3.8889754,50.96251739],[3.88890051,50.96255297],[3.88875349,50.96243182],[3.88883174,50.96239396],[3.88882519,50.96238856],[3.88885948,50.96237209],[3.88886638,50.96237762],[3.88901979,50.96230343],[3.88909336,50.96236411],[3.8889022,50.96245675],[3.8889754,50.96251739]]]}},{"type":"Feature","id":"gebouw/Gebouw.9122537/0","properties":{"source":"Digitaal Vlaanderen Gebouwenregister","source_id":"gebouw/Gebouw.9122537/0","kind":"building","height_m":7.88,"status":null},"geometry":{"type":"Polygon","coordinates":[[[3.8882736,50.96269505],[3.88808776,50.96278628],[3.88799849,50.96271462],[3.88818349,50.96262271],[3.8882736,50.96269505]]]}},{"type":"Feature","id":"gebouw/Gebouw.9122857/0","properties":{"source":"Digitaal Vlaanderen Gebouwenregister","source_id":"gebouw/Gebouw.9122857/0","kind":"building","height_m":6.44,"status":null},"geometry":{"type":"Polygon","coordinates":[[[3.89435787,50.96266144],[3.89424829,50.96263653],[3.89429107,50.9625653],[3.8943992,50.96258926],[3.89435787,50.96266144]]]}},{"type":"Feature","id":"gebouw/Gebouw.9122858/0","properties":{"source":"Digitaal Vlaanderen Gebouwenregister","source_id":"gebouw/Gebouw.9122858/0","kind":"building","height_m":7.16,"status":null},"geometry":{"type":"Polygon","coordinates":[[[3.89559305,50.96315843],[3.89557951,50.96315199],[3.89560972,50.9631269],[3.89562329,50.96313337],[3.89569689,50.96307178],[3.89578811,50.96311525],[3.89578554,50.96311737],[3.89581477,50.96313196],[3.89575545,50.96318088],[3.89573462,50.96318326],[3.8957048,50.96320837],[3.89568696,50.96319973],[3.89568452,50.96320195],[3.8956504,50.96318572],[3.89559305,50.96315843]]]}},{"type":"Feature","id":"gebouw/Gebouw.9122859/0","properties":{"source":"Digitaal Vlaanderen Gebouwenregister","source_id":"gebouw/Gebouw.9122859/0","kind":"building","height_m":7.88,"status":null},"geometry":{"type":"Polygon","coordinates":[[[3.89312573,50.9641658],[3.89312053,50.96419373],[3.89338892,50.96421072],[3.89337894,50.96427345],[3.89335352,50.96427181],[3.89335336,50.96427281],[3.89332544,50.96427102],[3.89332561,50.96426998],[3.89328552,50.96426747],[3.89328296,50.96428524],[3.89308325,50.96427382],[3.89309253,50.96422422],[3.89300993,50.96421892],[3.89301945,50.96415909],[3.89312573,50.9641658]]]}},{"type":"Feature","id":"gebouw/Gebouw.9122862/0","properties":{"source":"Digitaal Vlaanderen Gebouwenregister","source_id":"gebouw/Gebouw.9122862/0","kind":"building","height_m":5.0,"status":null},"geometry":{"type":"Polygon","coordinates":[[[3.89244118,50.96247562],[3.89232847,50.96249562],[3.89227001,50.96250615],[3.89226413,50.96249466],[3.89202386,50.96253741],[3.89198284,50.96244562],[3.89226363,50.96239557],[3.89228121,50.9624335],[3.89241058,50.96240959],[3.89244118,50.96247562]]]}},{"type":"Feature","id":"gebouw/Gebouw.9122875/0","properties":{"source":"Digitaal Vlaanderen Gebouwenregister","source_id":"gebouw/Gebouw.9122875/0","kind":"building","height_m":9.32,"status":null},"geometry":{"type":"Polygon","coordinates":[[[3.89806303,50.96229764],[3.89808809,50.96242137],[3.89800665,50.96243061],[3.89800403,50.96241746],[3.89796314,50.9624207],[3.89794699,50.96233933],[3.89798801,50.96233591],[3.89798115,50.96230029],[3.89806303,50.96229764]]]}},{"type":"Feature","id":"gebouw/Gebouw.9122876/0","properties":{"source":"Digitaal Vlaanderen Gebouwenregister","source_id":"gebouw/Gebouw.9122876/0","kind":"building","height_m":5.0,"status":null},"geometry":{"type":"Polygon","coordinates":[[[3.89687943,50.96224171],[3.89686785,50.96230746],[3.89695358,50.96231349],[3.89696521,50.96224739],[3.89687943,50.96224171]]]}},{"type":"Feature","id":"gebouw/Gebouw.9122877/0","properties":{"source":"Digitaal Vlaanderen Gebouwenregister","source_id":"gebouw/Gebouw.9122877/0","kind":"building","height_m":5.72,"status":null},"geometry":{"type":"Polygon","coordinates":[[[3.89732127,50.9622898],[3.89735865,50.96228231],[3.89738186,50.96232972],[3.89734433,50.96233702],[3.89732127,50.9622898]]]}},{"type":"Feature","id":"gebouw/Gebouw.9131937/0","properties":{"source":"Digitaal Vlaanderen Gebouwenregister","source_id":"gebouw/Gebouw.9131937/0","kind":"building","height_m":7.16,"status":null},"geometry":{"type":"Polygon","coordinates":[[[3.89280709,50.96576465],[3.89288116,50.96579682],[3.89286471,50.96581193],[3.89279064,50.96577975],[3.89280709,50.96576465]]]}},{"type":"Feature","id":"gebouw/Gebouw.9131938/0","properties":{"source":"Digitaal Vlaanderen Gebouwenregister","source_id":"gebouw/Gebouw.9131938/0","kind":"building","height_m":7.88,"status":null},"geometry":{"type":"Polygon","coordinates":[[[3.89725299,50.96260022],[3.89727162,50.96257234],[3.89736025,50.9625942],[3.89734189,50.96262263],[3.89725299,50.96260022]]]}},{"type":"Feature","id":"gebouw/Gebouw.9132256/0","properties":{"source":"Digitaal Vlaanderen Gebouwenregister","source_id":"gebouw/Gebouw.9132256/0","kind":"building","height_m":5.0,"status":null},"geometry":{"type":"Polygon","coordinates":[[[3.89328434,50.9645255],[3.89322721,50.96456943],[3.89309891,50.96451406],[3.89312419,50.96449394],[3.89314499,50.96447737],[3.89315281,50.96447115],[3.89315939,50.9644659],[3.89328434,50.9645255]]]}},{"type":"Feature","id":"gebouw/Gebouw.9132257/0","properties":{"source":"Digitaal Vlaanderen Gebouwenregister","source_id":"gebouw/Gebouw.9132257/0","kind":"building","height_m":5.72,"status":null},"geometry":{"type":"Polygon","coordinates":[[[3.89451042,50.96371096],[3.89445002,50.96375207],[3.89416137,50.96366176],[3.89419815,50.96361326],[3.89451042,50.96371096]]]}},{"type":"Feature","id":"gebouw/Gebouw.9132469/0","properties":{"source":"Digitaal Vlaanderen Gebouwenregister","source_id":"gebouw/Gebouw.9132469/0","kind":"building","height_m":7.16,"status":null},"geometry":{"type":"Polygon","coordinates":[[[3.88993384,50.96351084],[3.88993853,50.96346388],[3.88997379,50.96346486],[3.88996941,50.96351164],[3.88993384,50.96351084]]]}},{"type":"Feature","id":"gebouw/Gebouw.9132605/0","properties":{"source":"Digitaal Vlaanderen Gebouwenregister","source_id":"gebouw/Gebouw.9132605/0","kind":"building","height_m":9.32,"status":null},"geometry":{"type":"Polygon","coordinates":[[[3.88979357,50.96289215],[3.88986436,50.96291492],[3.88975921,50.96304323],[3.88961777,50.96299712],[3.88965496,50.96295164],[3.88964209,50.96294745],[3.88970955,50.96286495],[3.88975611,50.96288012],[3.88976182,50.96287305],[3.88979864,50.96288505],[3.88979357,50.96289215]]]}},{"type":"Feature","id":"gebouw/Gebouw.9132689/0","properties":{"source":"Digitaal Vlaanderen Gebouwenregister","source_id":"gebouw/Gebouw.9132689/0","kind":"building","height_m":9.32,"status":null},"geometry":{"type":"Polygon","coordinates":[[[3.89584323,50.96239566],[3.89572115,50.96238833],[3.895736,50.96228971],[3.89585808,50.96229705],[3.89584323,50.96239566]]]}},{"type":"Feature","id":"gebouw/Gebouw.9134334/0","properties":{"source":"Digitaal Vlaanderen Gebouwenregister","source_id":"gebouw/Gebouw.9134334/0","kind":"building","height_m":9.32,"status":null},"geometry":{"type":"Polygon","coordinates":[[[3.88953197,50.96354116],[3.88950792,50.96353998],[3.88950375,50.96356016],[3.88952774,50.96356138],[3.88952254,50.96358623],[3.88956282,50.96358822],[3.88957337,50.9635432],[3.88953197,50.96354116]]]}},{"type":"Feature","id":"gebouw/Gebouw.9134436/0","properties":{"source":"Digitaal Vlaanderen Gebouwenregister","source_id":"gebouw/Gebouw.9134436/0","kind":"building","height_m":7.16,"status":null},"geometry":{"type":"Polygon","coordinates":[[[3.89857132,50.96261653],[3.89852674,50.96261937],[3.89852924,50.96263514],[3.89840596,50.96264134],[3.8984069,50.96264959],[3.89830113,50.96265544],[3.89829597,50.96261683],[3.89832532,50.96261518],[3.89831787,50.96258203],[3.89838207,50.96257755],[3.89838861,50.96261162],[3.89848056,50.96260645],[3.89856998,50.96260143],[3.89857132,50.96261653]]]}},{"type":"Feature","id":"gebouw/Gebouw.9134750/0","properties":{"source":"Digitaal Vlaanderen Gebouwenregister","source_id":"gebouw/Gebouw.9134750/0","kind":"building","height_m":6.44,"status":null},"geometry":{"type":"Polygon","coordinates":[[[3.89758876,50.96257989],[3.89758952,50.96261399],[3.89750514,50.9626186],[3.89749864,50.962566],[3.89747855,50.96240344],[3.89755204,50.96240742],[3.89759097,50.96240866],[3.89766408,50.96241098],[3.89768711,50.96241171],[3.89768636,50.96242114],[3.89770543,50.96242175],[3.89772176,50.96247189],[3.89775341,50.96256907],[3.89764673,50.96257553],[3.89759851,50.96258132],[3.89759739,50.96257906],[3.89758876,50.96257989]],[[3.89753414,50.96253222],[3.89753028,50.96253236],[3.89753367,50.96254795],[3.89758562,50.96254651],[3.8975661,50.96248522],[3.89760243,50.96248041],[3.89758905,50.96244222],[3.89754843,50.96244155],[3.89754769,50.96244641],[3.89752457,50.96244613],[3.89753414,50.96253222]]]}},{"type":"Feature","id":"gebouw/Gebouw.9134751/0","properties":{"source":"Digitaal Vlaanderen Gebouwenregister","source_id":"gebouw/Gebouw.9134751/0","kind":"building","height_m":7.16,"status":null},"geometry":{"type":"Polygon","coordinates":[[[3.89773933,50.96271127],[3.89779675,50.96270474],[3.89777918,50.9626455],[3.89767332,50.96265827],[3.89764654,50.96266094],[3.8976513,50.9626801],[3.89753434,50.96269312],[3.89753759,50.96270476],[3.89749708,50.96270927],[3.89748433,50.96273898],[3.89773933,50.96271127]]]}},{"type":"Feature","id":"gebouw/Gebouw.9135188/0","properties":{"source":"Digitaal Vlaanderen Gebouwenregister","source_id":"gebouw/Gebouw.9135188/0","kind":"building","height_m":9.32,"status":null},"geometry":{"type":"Polygon","coordinates":[[[3.8969781,50.96251919],[3.89696853,50.9625421],[3.8969602,50.96256205],[3.896921,50.96255519],[3.8969348,50.96253338],[3.89690587,50.9625259],[3.89691498,50.96250756],[3.8969781,50.96251919]]]}},{"type":"Feature","id":"gebouw/Gebouw.9154904/0","properties":{"source":"Digitaal Vlaanderen Gebouwenregister","source_id":"gebouw/Gebouw.9154904/0","kind":"building","height_m":7.16,"status":null},"geometry":{"type":"Polygon","coordinates":[[[3.88908491,50.9636688],[3.88918394,50.96367992],[3.88915828,50.96374367],[3.88905872,50.96373067],[3.88907798,50.9636822],[3.88908491,50.9636688]]]}},{"type":"Feature","id":"gebouw/Gebouw.9155056/0","properties":{"source":"Digitaal Vlaanderen Gebouwenregister","source_id":"gebouw/Gebouw.9155056/0","kind":"building","height_m":5.72,"status":null},"geometry":{"type":"Polygon","coordinates":[[[3.8982155,50.96274133],[3.89815546,50.96274548],[3.89814763,50.96270162],[3.8982079,50.96269815],[3.8982155,50.96274133]]]}},{"type":"Feature","id":"gebouw/Gebouw.9155408/0","properties":{"source":"Digitaal Vlaanderen Gebouwenregister","source_id":"gebouw/Gebouw.9155408/0","kind":"building","height_m":7.16,"status":null},"geometry":{"type":"Polygon","coordinates":[[[3.89652908,50.96253777],[3.89653332,50.96252528],[3.89654538,50.96246819],[3.89649094,50.96246144],[3.8964402,50.96245516],[3.89643812,50.96246202],[3.89638294,50.96245256],[3.89640403,50.96243194],[3.89641762,50.96241864],[3.89631249,50.96238998],[3.89626706,50.96243363],[3.89625754,50.96244277],[3.89624748,50.96245244],[3.89624255,50.96245196],[3.89624242,50.96245307],[3.89621906,50.96245198],[3.896219,50.96245077],[3.89621292,50.96245062],[3.89621275,50.9624543],[3.89621431,50.96245433],[3.8962135,50.9624654],[3.89619684,50.96247757],[3.8961968,50.96247761],[3.89624831,50.96250443],[3.8963101,50.9625123],[3.89646933,50.96253256],[3.89647026,50.96253089],[3.89652908,50.96253777]]]}},{"type":"Feature","id":"gebouw/Gebouw.9155419/0","properties":{"source":"Digitaal Vlaanderen Gebouwenregister","source_id":"gebouw/Gebouw.9155419/0","kind":"building","height_m":5.0,"status":null},"geometry":{"type":"Polygon","coordinates":[[[3.89478789,50.96240908],[3.89473946,50.96249556],[3.8945629,50.96245578],[3.8945525,50.96245344],[3.8945967,50.96237322],[3.89460702,50.96237549],[3.89464331,50.96238347],[3.89464667,50.96237754],[3.89478789,50.96240908]]]}},{"type":"Feature","id":"gebouw/Gebouw.9192185/0","properties":{"source":"Digitaal Vlaanderen Gebouwenregister","source_id":"gebouw/Gebouw.9192185/0","kind":"building","height_m":6.44,"status":null},"geometry":{"type":"Polygon","coordinates":[[[3.89541956,50.9627259],[3.89542604,50.96271754],[3.89540136,50.96270976],[3.89540414,50.96270586],[3.89540121,50.9627047],[3.89543722,50.96266149],[3.89545646,50.9626658],[3.89548833,50.96262872],[3.89554942,50.96264966],[3.8955576,50.96264014],[3.89562135,50.96266207],[3.89559153,50.96269731],[3.89560399,50.96270157],[3.89558774,50.96272047],[3.89557515,50.9627162],[3.89553373,50.96276485],[3.89551807,50.96275954],[3.8954743,50.96281095],[3.89537325,50.96277647],[3.89541602,50.9627251],[3.89541956,50.9627259]]]}},{"type":"Feature","id":"gebouw/Gebouw.9192222/0","properties":{"source":"Digitaal Vlaanderen Gebouwenregister","source_id":"gebouw/Gebouw.9192222/0","kind":"building","height_m":7.88,"status":null},"geometry":{"type":"Polygon","coordinates":[[[3.88963042,50.96243985],[3.88966901,50.96245525],[3.88974748,50.96248656],[3.88971414,50.96252018],[3.88962895,50.96248649],[3.88953671,50.96245001],[3.88957421,50.96240975],[3.88957932,50.96240426],[3.8895323,50.96237991],[3.88959367,50.9623415],[3.8896267,50.96235339],[3.88972737,50.96238964],[3.88969885,50.96242543],[3.88965857,50.96241185],[3.88963042,50.96243985]]]}},{"type":"Feature","id":"gebouw/Gebouw.9192359/0","properties":{"source":"Digitaal Vlaanderen Gebouwenregister","source_id":"gebouw/Gebouw.9192359/0","kind":"building","height_m":5.72,"status":null},"geometry":{"type":"Polygon","coordinates":[[[3.89853484,50.96296187],[3.89853744,50.96297432],[3.89855018,50.96296263],[3.89855749,50.96295592],[3.89856611,50.96294801],[3.89859155,50.96296011],[3.89857359,50.96297544],[3.89858469,50.9629812],[3.89853464,50.9630278],[3.89849731,50.96301117],[3.8983282,50.96316641],[3.89823259,50.96312374],[3.8983613,50.96300231],[3.89835596,50.96295298],[3.89836453,50.9628849],[3.89848239,50.96289119],[3.89847974,50.96291045],[3.89856303,50.96291238],[3.89855749,50.96295592],[3.89854542,50.96295544],[3.89855018,50.96296263],[3.89853484,50.96296187]]]}},{"type":"Feature","id":"gebouw/Gebouw.9192417/0","properties":{"source":"Digitaal Vlaanderen Gebouwenregister","source_id":"gebouw/Gebouw.9192417/0","kind":"building","height_m":7.16,"status":null},"geometry":{"type":"Polygon","coordinates":[[[3.88966314,50.96441977],[3.88997846,50.96450748],[3.88991645,50.96459627],[3.88960081,50.96450949],[3.88966314,50.96441977]]]}},{"type":"Feature","id":"gebouw/Gebouw.9192450/0","properties":{"source":"Digitaal Vlaanderen Gebouwenregister","source_id":"gebouw/Gebouw.9192450/0","kind":"building","height_m":5.72,"status":null},"geometry":{"type":"Polygon","coordinates":[[[3.88981721,50.96321891],[3.88976109,50.96320119],[3.88972627,50.96324404],[3.88978327,50.96326196],[3.88981721,50.96321891]]]}},{"type":"Feature","id":"gebouw/Gebouw.9192581/0","properties":{"source":"Digitaal Vlaanderen Gebouwenregister","source_id":"gebouw/Gebouw.9192581/0","kind":"building","height_m":9.32,"status":null},"geometry":{"type":"Polygon","coordinates":[[[3.89333028,50.96262736],[3.89335451,50.9625222],[3.89344147,50.96252999],[3.89341728,50.96263403],[3.89333028,50.96262736]]]}},{"type":"Feature","id":"gebouw/Gebouw.9192617/0","properties":{"source":"Digitaal Vlaanderen Gebouwenregister","source_id":"gebouw/Gebouw.9192617/0","kind":"building","height_m":5.0,"status":null},"geometry":{"type":"Polygon","coordinates":[[[3.89513448,50.96401388],[3.89513127,50.96401216],[3.89518646,50.96397199],[3.89521303,50.96398598],[3.89515811,50.96402709],[3.89512712,50.96405144],[3.89510289,50.9640386],[3.89513448,50.96401388]]]}},{"type":"Feature","id":"gebouw/Gebouw.9192618/0","properties":{"source":"Digitaal Vlaanderen Gebouwenregister","source_id":"gebouw/Gebouw.9192618/0","kind":"building","height_m":5.72,"status":null},"geometry":{"type":"Polygon","coordinates":[[[3.89583339,50.96325287],[3.89579549,50.96328963],[3.89570585,50.96325222],[3.89574556,50.96321411],[3.89583339,50.96325287]]]}},{"type":"Feature","id":"gebouw/Gebouw.9192633/0","properties":{"source":"Digitaal Vlaanderen Gebouwenregister","source_id":"gebouw/Gebouw.9192633/0","kind":"building","height_m":6.44,"status":null},"geometry":{"type":"Polygon","coordinates":[[[3.89516904,50.96378194],[3.89505669,50.96387883],[3.89484649,50.96378459],[3.89489672,50.96373991],[3.89497235,50.96377393],[3.89503389,50.9637202],[3.89516904,50.96378194]]]}},{"type":"Feature","id":"gebouw/Gebouw.9192643/0","properties":{"source":"Digitaal Vlaanderen Gebouwenregister","source_id":"gebouw/Gebouw.9192643/0","kind":"building","height_m":8.6,"status":null},"geometry":{"type":"Polygon","coordinates":[[[3.88864573,50.96254059],[3.88851964,50.9626018],[3.88841188,50.96250859],[3.88841511,50.96250712],[3.88841686,50.9625085],[3.88853041,50.96245271],[3.88853409,50.9624509],[3.88853237,50.9624495],[3.88853547,50.96244802],[3.88864573,50.96254059]]]}},{"type":"Feature","id":"gebouw/Gebouw.9192651/0","properties":{"source":"Digitaal Vlaanderen Gebouwenregister","source_id":"gebouw/Gebouw.9192651/0","kind":"building","height_m":9.32,"status":null},"geometry":{"type":"Polygon","coordinates":[[[3.88989937,50.96281313],[3.88977511,50.9627746],[3.88986945,50.96265325],[3.8899936,50.96269167],[3.88989937,50.96281313]]]}},{"type":"Feature","id":"gebouw/Gebouw.9192694/0","properties":{"source":"Digitaal Vlaanderen Gebouwenregister","source_id":"gebouw/Gebouw.9192694/0","kind":"building","height_m":5.0,"status":null},"geometry":{"type":"Polygon","coordinates":[[[3.89472741,50.96266251],[3.89468448,50.96273861],[3.89442374,50.962682],[3.89435474,50.96266702],[3.89435787,50.96266144],[3.8943992,50.96258926],[3.89440477,50.96258146],[3.89447183,50.96259595],[3.89472421,50.96265049],[3.89476816,50.96263815],[3.89477477,50.9626363],[3.89491601,50.96238167],[3.89501444,50.96238562],[3.89487604,50.96266149],[3.89479353,50.96264364],[3.89472741,50.96266251]]]}},{"type":"Feature","id":"gebouw/Gebouw.9192702/0","properties":{"source":"Digitaal Vlaanderen Gebouwenregister","source_id":"gebouw/Gebouw.9192702/0","kind":"building","height_m":5.72,"status":null},"geometry":{"type":"Polygon","coordinates":[[[3.88938429,50.96366357],[3.88931887,50.96365158],[3.88932548,50.96363566],[3.88903448,50.96358086],[3.88899998,50.96365385],[3.88908491,50.9636688],[3.88909664,50.96364403],[3.88911552,50.96364725],[3.88910856,50.96366178],[3.88916253,50.96367198],[3.88916828,50.96365819],[3.889304,50.96368231],[3.88930653,50.96367709],[3.88936916,50.96368857],[3.8893727,50.96368878],[3.88938429,50.96366357]]]}},{"type":"Feature","id":"gebouw/Gebouw.9192743/0","properties":{"source":"Digitaal Vlaanderen Gebouwenregister","source_id":"gebouw/Gebouw.9192743/0","kind":"building","height_m":5.0,"status":null},"geometry":{"type":"Polygon","coordinates":[[[3.89707243,50.96218826],[3.89702678,50.96210095],[3.89692551,50.96212139],[3.89697295,50.96221644],[3.89697661,50.96222378],[3.89696281,50.96231362],[3.89696536,50.96231379],[3.89702181,50.96231754],[3.89703068,50.96227317],[3.89709011,50.96226213],[3.89705701,50.96219112],[3.89707243,50.96218826]]]}},{"type":"Feature","id":"gebouw/Gebouw.9192746/0","properties":{"source":"Digitaal Vlaanderen Gebouwenregister","source_id":"gebouw/Gebouw.9192746/0","kind":"building","height_m":7.16,"status":null},"geometry":{"type":"Polygon","coordinates":[[[3.89764909,50.96235595],[3.8976924,50.96235522],[3.89769459,50.96235518],[3.89769308,50.96231919],[3.89759361,50.96232085],[3.89759511,50.96235686],[3.89764909,50.96235595]]]}},{"type":"Feature","id":"gebouw/Gebouw.9192757/0","properties":{"source":"Digitaal Vlaanderen Gebouwenregister","source_id":"gebouw/Gebouw.9192757/0","kind":"building","height_m":5.0,"status":null},"geometry":{"type":"Polygon","coordinates":[[[3.89716438,50.96224269],[3.89716479,50.96224351],[3.89716937,50.96225281],[3.89718397,50.96228246],[3.89720765,50.96233055],[3.89725844,50.96232058],[3.89721497,50.96223226],[3.89716438,50.96224269]]]}},{"type":"Feature","id":"gebouw/Gebouw.9192758/0","properties":{"source":"Digitaal Vlaanderen Gebouwenregister","source_id":"gebouw/Gebouw.9192758/0","kind":"building","height_m":5.72,"status":null},"geometry":{"type":"Polygon","coordinates":[[[3.89608386,50.96300145],[3.89599573,50.96308514],[3.89577557,50.9629937],[3.89582744,50.96294392],[3.89589899,50.96297365],[3.89598331,50.9628931],[3.89613948,50.96295698],[3.89609004,50.96300321],[3.89608386,50.96300145]]]}},{"type":"Feature","id":"gebouw/Gebouw.9192769/0","properties":{"source":"Digitaal Vlaanderen Gebouwenregister","source_id":"gebouw/Gebouw.9192769/0","kind":"building","height_m":8.6,"status":null},"geometry":{"type":"Polygon","coordinates":[[[3.89809669,50.96270455],[3.89810462,50.96274732],[3.89799461,50.96275526],[3.8979866,50.96271088],[3.89809669,50.96270455]]]}},{"type":"Feature","id":"gebouw/Gebouw.9192872/0","properties":{"source":"Digitaal Vlaanderen Gebouwenregister","source_id":"gebouw/Gebouw.9192872/0","kind":"building","height_m":7.16,"status":null},"geometry":{"type":"Polygon","coordinates":[[[3.89406115,50.96257677],[3.8939122,50.96256596],[3.89392356,50.96250355],[3.89394894,50.96250543],[3.89397147,50.96238395],[3.89400213,50.96238622],[3.89400212,50.96238702],[3.89408644,50.96239347],[3.89408672,50.96239265],[3.89410936,50.9623944],[3.89410881,50.96239842],[3.89410734,50.96239834],[3.89409417,50.96251442],[3.89407286,50.96251304],[3.89406115,50.96257677]]]}},{"type":"Feature","id":"gebouw/Gebouw.9193080/0","properties":{"source":"Digitaal Vlaanderen Gebouwenregister","source_id":"gebouw/Gebouw.9193080/0","kind":"building","height_m":5.72,"status":null},"geometry":{"type":"Polygon","coordinates":[[[3.89529571,50.9629651],[3.89531509,50.96294622],[3.89541012,50.9629888],[3.89538953,50.96300715],[3.89529571,50.9629651]]]}},{"type":"Feature","id":"gebouw/Gebouw.9193081/0","properties":{"source":"Digitaal Vlaanderen Gebouwenregister","source_id":"gebouw/Gebouw.9193081/0","kind":"building","height_m":6.44,"status":null},"geometry":{"type":"Polygon","coordinates":[[[3.88936385,50.96430697],[3.88930912,50.96438791],[3.88905037,50.96431735],[3.88910559,50.96423658],[3.88936385,50.96430697]]]}},{"type":"Feature","id":"gebouw/Gebouw.9462159/0","properties":{"source":"Digitaal Vlaanderen Gebouwenregister","source_id":"gebouw/Gebouw.9462159/0","kind":"building","height_m":5.0,"status":null},"geometry":{"type":"Polygon","coordinates":[[[3.89473356,50.96271773],[3.89478383,50.96272853],[3.89476371,50.96276314],[3.89476822,50.9627649],[3.89474871,50.96280213],[3.89472625,50.96279734],[3.89471955,50.96281211],[3.89468747,50.9628038],[3.89473356,50.96271773]]]}},{"type":"Feature","id":"gebouw/Gebouw.9487580/0","properties":{"source":"Digitaal Vlaanderen Gebouwenregister","source_id":"gebouw/Gebouw.9487580/0","kind":"building","height_m":7.88,"status":null},"geometry":{"type":"Polygon","coordinates":[[[3.8986034,50.9631943],[3.89854855,50.9632435],[3.89850209,50.96322285],[3.89849387,50.96323022],[3.89839384,50.9631857],[3.89851997,50.96307266],[3.89862705,50.96312125],[3.89856694,50.96317691],[3.8986034,50.9631943]]]}},{"type":"Feature","id":"gebouw/Gebouw.9574968/0","properties":{"source":"Digitaal Vlaanderen Gebouwenregister","source_id":"gebouw/Gebouw.9574968/0","kind":"building","height_m":7.88,"status":null},"geometry":{"type":"Polygon","coordinates":[[[3.89621617,50.96252765],[3.89616426,50.96250158],[3.89612225,50.96253168],[3.89604276,50.96258865],[3.89609533,50.96261717],[3.89613571,50.96263907],[3.89617946,50.96266319],[3.89621668,50.96263873],[3.89617263,50.96261257],[3.89625636,50.96255248],[3.89621617,50.96252765]]]}},{"type":"Feature","id":"gebouw/Gebouw.9575532/0","properties":{"source":"Digitaal Vlaanderen Gebouwenregister","source_id":"gebouw/Gebouw.9575532/0","kind":"building","height_m":5.72,"status":null},"geometry":{"type":"Polygon","coordinates":[[[3.89787137,50.96288815],[3.89788463,50.96287357],[3.89789803,50.96285884],[3.89789784,50.96285877],[3.89787289,50.96284943],[3.89784852,50.96284031],[3.89774036,50.96279982],[3.89767934,50.96286483],[3.89783971,50.96292296],[3.89784038,50.96292223],[3.89787137,50.96288815]]]}},{"type":"Feature","id":"gebouw/Gebouw.9689216/0","properties":{"source":"Digitaal Vlaanderen Gebouwenregister","source_id":"gebouw/Gebouw.9689216/0","kind":"building","height_m":8.6,"status":null},"geometry":{"type":"Polygon","coordinates":[[[3.88921497,50.96419349],[3.88913056,50.9641705],[3.88916963,50.96411254],[3.88924837,50.9641337],[3.88927451,50.96409492],[3.88951319,50.96415935],[3.88945928,50.96423525],[3.88940112,50.96421964],[3.88939685,50.9642267],[3.88922352,50.96418176],[3.88921497,50.96419349]]]}},{"type":"Feature","id":"gebouw/Gebouw.9689221/0","properties":{"source":"Digitaal Vlaanderen Gebouwenregister","source_id":"gebouw/Gebouw.9689221/0","kind":"building","height_m":7.16,"status":null},"geometry":{"type":"Polygon","coordinates":[[[3.89675871,50.96249244],[3.89654612,50.96246579],[3.89654586,50.96246664],[3.89654538,50.96246819],[3.89653332,50.96252528],[3.89674011,50.96255164],[3.89675871,50.96249244]]]}},{"type":"Feature","id":"gebouw/Gebouw.9689225/0","properties":{"source":"Digitaal Vlaanderen Gebouwenregister","source_id":"gebouw/Gebouw.9689225/0","kind":"building","height_m":5.0,"status":null},"geometry":{"type":"Polygon","coordinates":[[[3.8980084,50.9649364],[3.89794322,50.96500823],[3.89781577,50.96496033],[3.89781772,50.96495767],[3.89781888,50.96495808],[3.89784242,50.96493187],[3.89784133,50.96493136],[3.89784963,50.9649218],[3.89785083,50.96492213],[3.89787931,50.96489124],[3.8978778,50.96489068],[3.89788077,50.96488768],[3.89788617,50.9648897],[3.89791282,50.96485979],[3.89795557,50.96487535],[3.89798196,50.96484734],[3.89806306,50.96487781],[3.8980084,50.9649364]]]}},{"type":"Feature","id":"gebouw/Gebouw.9689366/0","properties":{"source":"Digitaal Vlaanderen Gebouwenregister","source_id":"gebouw/Gebouw.9689366/0","kind":"building","height_m":5.72,"status":null},"geometry":{"type":"Polygon","coordinates":[[[3.89777918,50.9626455],[3.89775341,50.96256907],[3.89764637,50.96257437],[3.89767332,50.96265827],[3.89777918,50.9626455]]]}},{"type":"Feature","id":"gebouw/Gebouw.9689581/0","properties":{"source":"Digitaal Vlaanderen Gebouwenregister","source_id":"gebouw/Gebouw.9689581/0","kind":"building","height_m":9.32,"status":null},"geometry":{"type":"Polygon","coordinates":[[[3.89078354,50.96289546],[3.89059743,50.96285139],[3.89053519,50.96295622],[3.89055875,50.9629618],[3.89051923,50.96302835],[3.8906815,50.96306677],[3.89068179,50.96306684],[3.89072104,50.96300073],[3.89078354,50.96289546]]]}},{"type":"Feature","id":"gebouw/Gebouw.9689584/0","properties":{"source":"Digitaal Vlaanderen Gebouwenregister","source_id":"gebouw/Gebouw.9689584/0","kind":"building","height_m":6.44,"status":null},"geometry":{"type":"Polygon","coordinates":[[[3.89021027,50.96225345],[3.89032094,50.96226102],[3.8903002,50.96237394],[3.89022107,50.96236815],[3.89022577,50.96234145],[3.89006464,50.96232982],[3.89006621,50.96231988],[3.89006312,50.96231967],[3.8900655,50.96230593],[3.89006871,50.96230616],[3.89007888,50.96224946],[3.89008343,50.96224979],[3.89008756,50.96222701],[3.89021308,50.96223599],[3.89021027,50.96225345]]]}},{"type":"Feature","id":"gebouw/Gebouw.9689609/0","properties":{"source":"Digitaal Vlaanderen Gebouwenregister","source_id":"gebouw/Gebouw.9689609/0","kind":"building","height_m":9.32,"status":null},"geometry":{"type":"Polygon","coordinates":[[[3.89256255,50.96422178],[3.89257563,50.96413259],[3.89285987,50.96414949],[3.8928459,50.96423886],[3.89256255,50.96422178]]]}},{"type":"Feature","id":"gebouw/Gebouw.9731430/0","properties":{"source":"Digitaal Vlaanderen Gebouwenregister","source_id":"gebouw/Gebouw.9731430/0","kind":"building","height_m":6.44,"status":null},"geometry":{"type":"Polygon","coordinates":[[[3.8973478,50.96225839],[3.89740106,50.96234475],[3.89752816,50.96235305],[3.89753996,50.9622695],[3.8973478,50.96225839]]]}},{"type":"Feature","id":"gebouw/Gebouw.9731431/0","properties":{"source":"Digitaal Vlaanderen Gebouwenregister","source_id":"gebouw/Gebouw.9731431/0","kind":"building","height_m":7.16,"status":null},"geometry":{"type":"Polygon","coordinates":[[[3.89542958,50.96371942],[3.89540162,50.9637425],[3.89528186,50.96368658],[3.89528801,50.96368132],[3.89528474,50.96367968],[3.8953156,50.96365372],[3.89531909,50.96365537],[3.89535243,50.96362728],[3.8954998,50.96369609],[3.89545648,50.9637321],[3.89542958,50.96371942]]]}},{"type":"Feature","id":"gebouw/Gebouw.9731434/0","properties":{"source":"Digitaal Vlaanderen Gebouwenregister","source_id":"gebouw/Gebouw.9731434/0","kind":"building","height_m":9.32,"status":null},"geometry":{"type":"Polygon","coordinates":[[[3.890732,50.96219176],[3.89084584,50.96217166],[3.89089085,50.96227245],[3.890923,50.96226676],[3.89093954,50.96230403],[3.89087421,50.96231566],[3.89086785,50.96230176],[3.8907877,50.96231608],[3.890732,50.96219176]]]}},{"type":"Feature","id":"gebouw/Gebouw.9731436/0","properties":{"source":"Digitaal Vlaanderen Gebouwenregister","source_id":"gebouw/Gebouw.9731436/0","kind":"building","height_m":5.72,"status":null},"geometry":{"type":"Polygon","coordinates":[[[3.88954658,50.96322277],[3.88952035,50.96327053],[3.88933594,50.96322715],[3.88938065,50.96315137],[3.88939295,50.9631543],[3.88939592,50.96314918],[3.88942427,50.96315585],[3.88942121,50.96316102],[3.88951352,50.96318274],[3.88949618,50.96321223],[3.88954658,50.96322277]]]}},{"type":"Feature","id":"gebouw/Gebouw.9732231/0","properties":{"source":"Digitaal Vlaanderen Gebouwenregister","source_id":"gebouw/Gebouw.9732231/0","kind":"building","height_m":8.6,"status":null},"geometry":{"type":"Polygon","coordinates":[[[3.89793454,50.96742316],[3.89786036,50.96738444],[3.89783335,50.96737512],[3.8977608,50.96745966],[3.89781316,50.96748408],[3.89785082,50.96745494],[3.89787709,50.96746911],[3.89793454,50.96742316]]]}},{"type":"Feature","id":"gebouw/Gebouw.9737545/0","properties":{"source":"Digitaal Vlaanderen Gebouwenregister","source_id":"gebouw/Gebouw.9737545/0","kind":"building","height_m":9.32,"status":null},"geometry":{"type":"Polygon","coordinates":[[[3.89811548,50.96249662],[3.89813788,50.96256728],[3.89800216,50.96258432],[3.8979821,50.96252066],[3.89806115,50.96251072],[3.89805789,50.96249856],[3.89810821,50.96249186],[3.89809828,50.96245708],[3.89818015,50.96244701],[3.89819318,50.96248058],[3.89836202,50.96245519],[3.89836257,50.96245669],[3.89842038,50.96244764],[3.89844484,50.96251219],[3.89821901,50.96254713],[3.89821449,50.96254782],[3.89819551,50.9624866],[3.89811548,50.96249662]]]}},{"type":"Feature","id":"gebouw/Gebouw.9745955/0","properties":{"source":"Digitaal Vlaanderen Gebouwenregister","source_id":"gebouw/Gebouw.9745955/0","kind":"building","height_m":6.44,"status":null},"geometry":{"type":"Polygon","coordinates":[[[3.88832596,50.96447914],[3.88839352,50.96452041],[3.88834818,50.96454871],[3.8882824,50.96450708],[3.88832596,50.96447914]]]}},{"type":"Feature","id":"gebouw/Gebouw.9745956/0","properties":{"source":"Digitaal Vlaanderen Gebouwenregister","source_id":"gebouw/Gebouw.9745956/0","kind":"building","height_m":7.16,"status":null},"geometry":{"type":"Polygon","coordinates":[[[3.8898059,50.96663417],[3.88975957,50.96667167],[3.88970328,50.96664393],[3.88972628,50.96662531],[3.88972088,50.96662265],[3.88974421,50.96660377],[3.8898059,50.96663417]]]}},{"type":"Feature","id":"gebouw/Gebouw.9745957/0","properties":{"source":"Digitaal Vlaanderen Gebouwenregister","source_id":"gebouw/Gebouw.9745957/0","kind":"building","height_m":7.88,"status":null},"geometry":{"type":"Polygon","coordinates":[[[3.89004277,50.96280206],[3.89005875,50.96277397],[3.8900823,50.96277987],[3.89004973,50.96283679],[3.89004383,50.9628356],[3.89002975,50.96285997],[3.88997555,50.96284733],[3.89000594,50.96279394],[3.89004277,50.96280206]]]}},{"type":"Feature","id":"gebouw/Gebouw.9745958/0","properties":{"source":"Digitaal Vlaanderen Gebouwenregister","source_id":"gebouw/Gebouw.9745958/0","kind":"building","height_m":8.6,"status":null},"geometry":{"type":"Polygon","coordinates":[[[3.89317893,50.96285612],[3.89318714,50.96281988],[3.89327824,50.96282847],[3.89326352,50.96288373],[3.89325879,50.9628833],[3.89325151,50.96290831],[3.89319472,50.96290314],[3.89320703,50.96285889],[3.89317893,50.96285612]]]}},{"type":"Feature","id":"gebouw/Gebouw.9746333/0","properties":{"source":"Digitaal Vlaanderen Gebouwenregister","source_id":"gebouw/Gebouw.9746333/0","kind":"building","height_m":6.44,"status":null},"geometry":{"type":"Polygon","coordinates":[[[3.89428407,50.96255806],[3.89427256,50.96257913],[3.8941423,50.96255008],[3.89426107,50.96233555],[3.89427257,50.96233653],[3.89432291,50.96234068],[3.89432899,50.96234101],[3.89438333,50.96234538],[3.89439171,50.96234629],[3.89445523,50.96235116],[3.89448955,50.96235392],[3.89437811,50.9625552],[3.89429391,50.96254005],[3.89428407,50.96255806]]]}},{"type":"Feature","id":"gebouw/Gebouw.9746394/0","properties":{"source":"Digitaal Vlaanderen Gebouwenregister","source_id":"gebouw/Gebouw.9746394/0","kind":"building","height_m":5.0,"status":null},"geometry":{"type":"Polygon","coordinates":[[[3.89427164,50.96535195],[3.89434542,50.96529095],[3.89462798,50.9654276],[3.89455524,50.9654891],[3.89427164,50.96535195]]]}},{"type":"Feature","id":"gebouw/Gebouw.9746395/0","properties":{"source":"Digitaal Vlaanderen Gebouwenregister","source_id":"gebouw/Gebouw.9746395/0","kind":"building","height_m":5.72,"status":null},"geometry":{"type":"Polygon","coordinates":[[[3.8960597,50.9631143],[3.89607052,50.96305037],[3.89613036,50.96305296],[3.89611863,50.96311744],[3.8960597,50.9631143]]]}},{"type":"Feature","id":"gebouw/Gebouw.9746858/0","properties":{"source":"Digitaal Vlaanderen Gebouwenregister","source_id":"gebouw/Gebouw.9746858/0","kind":"building","height_m":6.44,"status":null},"geometry":{"type":"Polygon","coordinates":[[[3.895636,50.96238103],[3.89545016,50.96236955],[3.89545981,50.96230183],[3.89551896,50.96230555],[3.89552083,50.96229303],[3.89557391,50.96229638],[3.8955718,50.96230905],[3.89564687,50.96231386],[3.895636,50.96238103]]]}},{"type":"Feature","id":"gebouw/Gebouw.9761179/0","properties":{"source":"Digitaal Vlaanderen Gebouwenregister","source_id":"gebouw/Gebouw.9761179/0","kind":"building","height_m":5.72,"status":null},"geometry":{"type":"Polygon","coordinates":[[[3.89823025,50.96257611],[3.89824437,50.96261973],[3.89813651,50.96262612],[3.89812294,50.962584],[3.89823025,50.96257611]]]}},{"type":"Feature","id":"gebouw/Gebouw.9761251/0","properties":{"source":"Digitaal Vlaanderen Gebouwenregister","source_id":"gebouw/Gebouw.9761251/0","kind":"building","height_m":7.16,"status":null},"geometry":{"type":"Polygon","coordinates":[[[3.89586999,50.96247392],[3.8958201,50.96245702],[3.89580032,50.96248063],[3.89585261,50.96249834],[3.89586885,50.96247896],[3.89587239,50.96247474],[3.89586999,50.96247392]]]}},{"type":"Feature","id":"gebouw/Gebouw.9761263/0","properties":{"source":"Digitaal Vlaanderen Gebouwenregister","source_id":"gebouw/Gebouw.9761263/0","kind":"building","height_m":5.72,"status":null},"geometry":{"type":"Polygon","coordinates":[[[3.88909565,50.96400009],[3.8890948,50.9640137],[3.8889405,50.96401469],[3.88894,50.96398311],[3.88888833,50.9639831],[3.88888812,50.96392957],[3.88891724,50.96385488],[3.88895514,50.96375767],[3.88905498,50.96377319],[3.88899548,50.96392864],[3.88913129,50.96392991],[3.88912888,50.96399975],[3.88909565,50.96400009]]]}},{"type":"Feature","id":"gebouw/Gebouw.9761264/0","properties":{"source":"Digitaal Vlaanderen Gebouwenregister","source_id":"gebouw/Gebouw.9761264/0","kind":"building","height_m":6.44,"status":null},"geometry":{"type":"Polygon","coordinates":[[[3.8933562,50.96446303],[3.89330663,50.96450693],[3.89320121,50.96445976],[3.89312999,50.9644279],[3.89317272,50.96438795],[3.89321023,50.96440302],[3.89321469,50.9643993],[3.8933562,50.96446303]]]}},{"type":"Feature","id":"gebouw/Gebouw.9761371/0","properties":{"source":"Digitaal Vlaanderen Gebouwenregister","source_id":"gebouw/Gebouw.9761371/0","kind":"building","height_m":7.88,"status":null},"geometry":{"type":"Polygon","coordinates":[[[3.88950814,50.96369309],[3.88951155,50.9636814],[3.88951727,50.96368207],[3.88952902,50.96364662],[3.88950443,50.96364327],[3.88949889,50.96364251],[3.88949544,50.96364865],[3.88941596,50.96363852],[3.88940163,50.96368068],[3.88948952,50.96369092],[3.88950814,50.96369309]]]}},{"type":"Feature","id":"gebouw/Gebouw.9761541/0","properties":{"source":"Digitaal Vlaanderen Gebouwenregister","source_id":"gebouw/Gebouw.9761541/0","kind":"building","height_m":9.32,"status":null},"geometry":{"type":"Polygon","coordinates":[[[3.89775325,50.96275919],[3.89773933,50.96271127],[3.89748433,50.96273898],[3.89747111,50.96276392],[3.89747655,50.96279039],[3.89754827,50.96278245],[3.89754773,50.96278057],[3.89762451,50.96277212],[3.89762588,50.96278154],[3.89767712,50.9627756],[3.89768535,50.96276684],[3.89775325,50.96275919]]]}},{"type":"Feature","id":"gebouw/Gebouw.9761559/0","properties":{"source":"Digitaal Vlaanderen Gebouwenregister","source_id":"gebouw/Gebouw.9761559/0","kind":"building","height_m":7.16,"status":null},"geometry":{"type":"Polygon","coordinates":[[[3.88916463,50.96350456],[3.88915181,50.9635458],[3.88928266,50.96356405],[3.88929413,50.96352803],[3.88922681,50.96351786],[3.88922787,50.96351206],[3.88916463,50.96350456]]]}},{"type":"Feature","id":"gebouw/Gebouw.9761634/0","properties":{"source":"Digitaal Vlaanderen Gebouwenregister","source_id":"gebouw/Gebouw.9761634/0","kind":"building","height_m":5.72,"status":null},"geometry":{"type":"Polygon","coordinates":[[[3.8930013,50.9660138],[3.89318916,50.96607937],[3.89311897,50.96615439],[3.89293732,50.96608945],[3.89294747,50.9660774],[3.89291402,50.96606539],[3.89296045,50.96601106],[3.89299243,50.9660225],[3.8930013,50.9660138]]]}},{"type":"Feature","id":"gebouw/Gebouw.9761714/0","properties":{"source":"Digitaal Vlaanderen Gebouwenregister","source_id":"gebouw/Gebouw.9761714/0","kind":"building","height_m":7.88,"status":null},"geometry":{"type":"Polygon","coordinates":[[[3.89629976,50.96229145],[3.89632538,50.96227228],[3.89632274,50.9622709],[3.89631957,50.96226573],[3.89635817,50.96223958],[3.89636003,50.96223935],[3.89635833,50.96221943],[3.89635685,50.96221946],[3.89631303,50.96219658],[3.89631248,50.96219287],[3.8962837,50.96219533],[3.89621377,50.96220132],[3.89604523,50.96221264],[3.89604997,50.96226838],[3.8961644,50.96226057],[3.89616963,50.96229379],[3.89615751,50.96230314],[3.89605785,50.96238003],[3.89603371,50.96239866],[3.89610369,50.96243521],[3.89614529,50.96240413],[3.89614763,50.96240534],[3.89629976,50.96229145]]]}},{"type":"Feature","id":"gebouw/Gebouw.9761740/0","properties":{"source":"Digitaal Vlaanderen Gebouwenregister","source_id":"gebouw/Gebouw.9761740/0","kind":"building","height_m":6.44,"status":null},"geometry":{"type":"Polygon","coordinates":[[[3.89259591,50.96581394],[3.89269182,50.96585967],[3.89261688,50.96592508],[3.89260194,50.96591734],[3.89257638,50.96594014],[3.89268138,50.96598954],[3.89261572,50.96604194],[3.89242739,50.96595277],[3.89249009,50.96589995],[3.89249651,50.9659034],[3.89254581,50.96586203],[3.89253938,50.96585896],[3.89259591,50.96581394]]]}},{"type":"Feature","id":"gebouw/Gebouw.9761741/0","properties":{"source":"Digitaal Vlaanderen Gebouwenregister","source_id":"gebouw/Gebouw.9761741/0","kind":"building","height_m":7.16,"status":null},"geometry":{"type":"Polygon","coordinates":[[[3.8969357,50.96265672],[3.89695334,50.96262247],[3.8969905,50.96262966],[3.89697315,50.9626641],[3.8969357,50.96265672]]]}},{"type":"Feature","id":"gebouw/Gebouw.9761742/0","properties":{"source":"Digitaal Vlaanderen Gebouwenregister","source_id":"gebouw/Gebouw.9761742/0","kind":"building","height_m":7.88,"status":null},"geometry":{"type":"Polygon","coordinates":[[[3.89708898,50.96265912],[3.89710696,50.96263312],[3.89716907,50.96264903],[3.89715255,50.96267562],[3.89708898,50.96265912]]]}},{"type":"Feature","id":"gebouw/Gebouw.9761878/0","properties":{"source":"Digitaal Vlaanderen Gebouwenregister","source_id":"gebouw/Gebouw.9761878/0","kind":"building","height_m":5.0,"status":null},"geometry":{"type":"Polygon","coordinates":[[[3.8985242,50.96277313],[3.89823807,50.96278974],[3.89823225,50.96275651],[3.89852195,50.96273957],[3.8985242,50.96277313]]]}},{"type":"Feature","id":"gebouw/Gebouw.9841274/0","properties":{"source":"Digitaal Vlaanderen Gebouwenregister","source_id":"gebouw/Gebouw.9841274/0","kind":"building","height_m":6.44,"status":null},"geometry":{"type":"Polygon","coordinates":[[[3.89509758,50.96392934],[3.89495266,50.96386635],[3.89490697,50.96390588],[3.89508095,50.96398819],[3.89513441,50.96394739],[3.89509515,50.96393118],[3.89509758,50.96392934]]]}},{"type":"Feature","id":"gebouw/Gebouw.17876925/0","properties":{"source":"Digitaal Vlaanderen Gebouwenregister","source_id":"gebouw/Gebouw.17876925/0","kind":"building","height_m":7.16,"status":null},"geometry":{"type":"Polygon","coordinates":[[[3.8911546,50.96256668],[3.89114281,50.96258586],[3.89112884,50.96260858],[3.89107877,50.96269002],[3.89102539,50.96267748],[3.89103363,50.96266551],[3.89097703,50.96265008],[3.89104403,50.96254009],[3.89115446,50.96256664],[3.8911546,50.96256668]]]}},{"type":"Feature","id":"gebouw/Gebouw.17924597/0","properties":{"source":"Digitaal Vlaanderen Gebouwenregister","source_id":"gebouw/Gebouw.17924597/0","kind":"building","height_m":8.6,"status":null},"geometry":{"type":"Polygon","coordinates":[[[3.89090003,50.9627057],[3.89089793,50.96270519],[3.89087401,50.96274754],[3.89087015,50.96275437],[3.89084663,50.962796],[3.89089545,50.96280877],[3.89092581,50.96275994],[3.89095182,50.96271809],[3.89090003,50.9627057]]]}},{"type":"Feature","id":"gebouw/Gebouw.18362016/0","properties":{"source":"Digitaal Vlaanderen Gebouwenregister","source_id":"gebouw/Gebouw.18362016/0","kind":"building","height_m":5.72,"status":null},"geometry":{"type":"Polygon","coordinates":[[[3.89013609,50.96340292],[3.8900528,50.96339621],[3.89004696,50.96343137],[3.89004601,50.96343715],[3.89012959,50.96344338],[3.89013609,50.96340292]]]}},{"type":"Feature","id":"gebouw/Gebouw.18362017/0","properties":{"source":"Digitaal Vlaanderen Gebouwenregister","source_id":"gebouw/Gebouw.18362017/0","kind":"building","height_m":6.44,"status":null},"geometry":{"type":"Polygon","coordinates":[[[3.88953296,50.96423063],[3.88963876,50.96425974],[3.88961087,50.96430048],[3.88950425,50.96427342],[3.88953296,50.96423063]]]}},{"type":"Feature","id":"gebouw/Gebouw.18362018/0","properties":{"source":"Digitaal Vlaanderen Gebouwenregister","source_id":"gebouw/Gebouw.18362018/0","kind":"building","height_m":7.16,"status":null},"geometry":{"type":"Polygon","coordinates":[[[3.89385978,50.96521632],[3.89375328,50.96529927],[3.89373102,50.9652878],[3.8936897,50.96532864],[3.89353946,50.96525198],[3.8936936,50.96513152],[3.89385978,50.96521632]]]}},{"type":"Feature","id":"gebouw/Gebouw.18362019/0","properties":{"source":"Digitaal Vlaanderen Gebouwenregister","source_id":"gebouw/Gebouw.18362019/0","kind":"building","height_m":7.88,"status":null},"geometry":{"type":"Polygon","coordinates":[[[3.89541169,50.96407317],[3.89540533,50.96407026],[3.89537733,50.96405744],[3.89536839,50.96405334],[3.89533387,50.96407868],[3.89537777,50.96409891],[3.89540742,50.96407641],[3.89541169,50.96407317]]]}},{"type":"Feature","id":"gebouw/Gebouw.18362020/0","properties":{"source":"Digitaal Vlaanderen Gebouwenregister","source_id":"gebouw/Gebouw.18362020/0","kind":"building","height_m":8.6,"status":null},"geometry":{"type":"Polygon","coordinates":[[[3.89621735,50.96385096],[3.89618111,50.96389011],[3.89612325,50.96386339],[3.89615998,50.96382442],[3.89621735,50.96385096]]]}},{"type":"Feature","id":"gebouw/Gebouw.18362937/0","properties":{"source":"Digitaal Vlaanderen Gebouwenregister","source_id":"gebouw/Gebouw.18362937/0","kind":"building","height_m":8.6,"status":null},"geometry":{"type":"Polygon","coordinates":[[[3.89752015,50.96566088],[3.89788959,50.96580556],[3.89781073,50.96588228],[3.89744382,50.96574337],[3.89752015,50.96566088]]]}},{"type":"Feature","id":"gebouw/Gebouw.18374597/0","properties":{"source":"Digitaal Vlaanderen Gebouwenregister","source_id":"gebouw/Gebouw.18374597/0","kind":"building","height_m":7.16,"status":null},"geometry":{"type":"Polygon","coordinates":[[[3.89246745,50.96367894],[3.89247896,50.96363526],[3.89253486,50.96364262],[3.89252309,50.96368581],[3.89246745,50.96367894]]]}},{"type":"Feature","id":"gebouw/Gebouw.18374598/0","properties":{"source":"Digitaal Vlaanderen Gebouwenregister","source_id":"gebouw/Gebouw.18374598/0","kind":"building","height_m":7.88,"status":null},"geometry":{"type":"Polygon","coordinates":[[[3.89000703,50.96453377],[3.89005432,50.96445829],[3.89030184,50.96452615],[3.89024922,50.96459941],[3.89000703,50.96453377]]]}},{"type":"Feature","id":"gebouw/Gebouw.18452464/0","properties":{"source":"Digitaal Vlaanderen Gebouwenregister","source_id":"gebouw/Gebouw.18452464/0","kind":"building","height_m":6.44,"status":null},"geometry":{"type":"Polygon","coordinates":[[[3.89507732,50.9640404],[3.89512347,50.96400432],[3.89516066,50.96402323],[3.89511601,50.96406026],[3.89507732,50.9640404]]]}},{"type":"Feature","id":"gebouw/Gebouw.18456812/0","properties":{"source":"Digitaal Vlaanderen Gebouwenregister","source_id":"gebouw/Gebouw.18456812/0","kind":"building","height_m":7.16,"status":null},"geometry":{"type":"Polygon","coordinates":[[[3.89000516,50.96279516],[3.89005783,50.96280986],[3.89000445,50.96290567],[3.88990404,50.96287322],[3.88996565,50.96279675],[3.88999601,50.96280651],[3.89000516,50.96279516]]]}},{"type":"Feature","id":"gebouw/Gebouw.18735107/0","properties":{"source":"Digitaal Vlaanderen Gebouwenregister","source_id":"gebouw/Gebouw.18735107/0","kind":"building","height_m":9.32,"status":null},"geometry":{"type":"Polygon","coordinates":[[[3.89816437,50.96244245],[3.89811098,50.96244883],[3.89810157,50.96241738],[3.89815496,50.96241101],[3.89816437,50.96244245]]]}},{"type":"Feature","id":"gebouw/Gebouw.18735108/0","properties":{"source":"Digitaal Vlaanderen Gebouwenregister","source_id":"gebouw/Gebouw.18735108/0","kind":"building","height_m":5.0,"status":null},"geometry":{"type":"Polygon","coordinates":[[[3.89572794,50.96413014],[3.89575682,50.96410599],[3.8957965,50.96412492],[3.89576762,50.96414906],[3.89572794,50.96413014]]]}},{"type":"Feature","id":"gebouw/Gebouw.18735109/0","properties":{"source":"Digitaal Vlaanderen Gebouwenregister","source_id":"gebouw/Gebouw.18735109/0","kind":"building","height_m":5.72,"status":null},"geometry":{"type":"Polygon","coordinates":[[[3.89593658,50.96408381],[3.8959143,50.96410282],[3.8959324,50.96411128],[3.89590635,50.96413352],[3.89588825,50.96412506],[3.89587852,50.96413336],[3.89582808,50.9641098],[3.89588614,50.96406024],[3.89593658,50.96408381]]]}},{"type":"Feature","id":"gebouw/Gebouw.18735111/0","properties":{"source":"Digitaal Vlaanderen Gebouwenregister","source_id":"gebouw/Gebouw.18735111/0","kind":"building","height_m":7.16,"status":null},"geometry":{"type":"Polygon","coordinates":[[[3.89273583,50.96427819],[3.89274078,50.96424918],[3.89280233,50.96425337],[3.89279738,50.96428237],[3.89273583,50.96427819]]]}},{"type":"Feature","id":"gebouw/Gebouw.18735112/0","properties":{"source":"Digitaal Vlaanderen Gebouwenregister","source_id":"gebouw/Gebouw.18735112/0","kind":"building","height_m":7.88,"status":null},"geometry":{"type":"Polygon","coordinates":[[[3.89026053,50.9631646],[3.89019712,50.96314906],[3.8902404,50.96307862],[3.89023513,50.96307733],[3.89025089,50.96305167],[3.89031957,50.96306849],[3.89026053,50.9631646]]]}},{"type":"Feature","id":"gebouw/Gebouw.18737171/0","properties":{"source":"Digitaal Vlaanderen Gebouwenregister","source_id":"gebouw/Gebouw.18737171/0","kind":"building","height_m":8.6,"status":null},"geometry":{"type":"Polygon","coordinates":[[[3.889544,50.96669093],[3.88958403,50.9666607],[3.88963508,50.96668766],[3.88959505,50.96671789],[3.889544,50.96669093]]]}},{"type":"Feature","id":"gebouw/Gebouw.18737172/0","properties":{"source":"Digitaal Vlaanderen Gebouwenregister","source_id":"gebouw/Gebouw.18737172/0","kind":"building","height_m":9.32,"status":null},"geometry":{"type":"Polygon","coordinates":[[[3.8944808,50.96532087],[3.89452518,50.96528414],[3.89470405,50.96537034],[3.89465967,50.96540706],[3.8944808,50.96532087]]]}},{"type":"Feature","id":"gebouw/Gebouw.18737320/0","properties":{"source":"Digitaal Vlaanderen Gebouwenregister","source_id":"gebouw/Gebouw.18737320/0","kind":"building","height_m":5.0,"status":null},"geometry":{"type":"Polygon","coordinates":[[[3.89421796,50.96546094],[3.89414909,50.96542799],[3.89422234,50.96536694],[3.89429121,50.96539989],[3.89421796,50.96546094]]]}},{"type":"Feature","id":"gebouw/Gebouw.18737321/0","properties":{"source":"Digitaal Vlaanderen Gebouwenregister","source_id":"gebouw/Gebouw.18737321/0","kind":"building","height_m":5.72,"status":null},"geometry":{"type":"Polygon","coordinates":[[[3.89351319,50.96525309],[3.89367099,50.9653257],[3.89361992,50.96536996],[3.89346212,50.96529734],[3.89351319,50.96525309]]]}},{"type":"Feature","id":"gebouw/Gebouw.18737322/0","properties":{"source":"Digitaal Vlaanderen Gebouwenregister","source_id":"gebouw/Gebouw.18737322/0","kind":"building","height_m":6.44,"status":null},"geometry":{"type":"Polygon","coordinates":[[[3.8930537,50.96600327],[3.8930119,50.96597615],[3.89307109,50.96593978],[3.89311289,50.9659669],[3.8930537,50.96600327]]]}},{"type":"Feature","id":"gebouw/Gebouw.18737324/0","properties":{"source":"Digitaal Vlaanderen Gebouwenregister","source_id":"gebouw/Gebouw.18737324/0","kind":"building","height_m":7.88,"status":null},"geometry":{"type":"Polygon","coordinates":[[[3.89009757,50.96445405],[3.89012698,50.96441224],[3.89023642,50.96444291],[3.89020699,50.96448475],[3.89009757,50.96445405]]]}},{"type":"Feature","id":"gebouw/Gebouw.19524091/0","properties":{"source":"Digitaal Vlaanderen Gebouwenregister","source_id":"gebouw/Gebouw.19524091/0","kind":"building","height_m":9.32,"status":null},"geometry":{"type":"Polygon","coordinates":[[[3.89758871,50.96257722],[3.89764637,50.96257437],[3.89775341,50.96256907],[3.89772176,50.96247189],[3.89770543,50.96242175],[3.89768636,50.96242114],[3.89768712,50.96241172],[3.89766408,50.96241098],[3.89759098,50.96240866],[3.89747856,50.96240344],[3.89750058,50.96258159],[3.89758871,50.96257722]],[[3.89752833,50.96247999],[3.89752457,50.96244613],[3.89754769,50.96244641],[3.89754843,50.96244155],[3.89758905,50.96244222],[3.89760111,50.96247677],[3.89752833,50.96247999]]]}},{"type":"Feature","id":"gebouw/Gebouw.19524092/0","properties":{"source":"Digitaal Vlaanderen Gebouwenregister","source_id":"gebouw/Gebouw.19524092/0","kind":"building","height_m":5.0,"status":null},"geometry":{"type":"Polygon","coordinates":[[[3.89758871,50.96257722],[3.89750058,50.96258159],[3.89750515,50.9626186],[3.89758952,50.96261399],[3.89758871,50.96257722]]]}},{"type":"Feature","id":"gebouw/Gebouw.19524338/0","properties":{"source":"Digitaal Vlaanderen Gebouwenregister","source_id":"gebouw/Gebouw.19524338/0","kind":"building","height_m":5.72,"status":null},"geometry":{"type":"Polygon","coordinates":[[[3.89851484,50.96739657],[3.8984661,50.96737121],[3.89845807,50.96736703],[3.89840248,50.96740961],[3.89841195,50.96741457],[3.8984589,50.96743916],[3.89851484,50.96739657]]]}},{"type":"Feature","id":"gebouw/Gebouw.19526799/0","properties":{"source":"Digitaal Vlaanderen Gebouwenregister","source_id":"gebouw/Gebouw.19526799/0","kind":"building","height_m":8.6,"status":null},"geometry":{"type":"Polygon","coordinates":[[[3.89852306,50.96260407],[3.89852924,50.96263514],[3.89840596,50.96264134],[3.8984069,50.96264959],[3.89830113,50.96265544],[3.89829597,50.96261683],[3.89832532,50.96261518],[3.89838861,50.96261162],[3.89848056,50.96260645],[3.89852306,50.96260407]]]}},{"type":"Feature","id":"gebouw/Gebouw.19526800/0","properties":{"source":"Digitaal Vlaanderen Gebouwenregister","source_id":"gebouw/Gebouw.19526800/0","kind":"building","height_m":9.32,"status":null},"geometry":{"type":"Polygon","coordinates":[[[3.89838861,50.96261162],[3.89832532,50.96261518],[3.89831787,50.96258203],[3.89838207,50.96257755],[3.89838861,50.96261162]]]}},{"type":"Feature","id":"gebouw/Gebouw.19527176/0","properties":{"source":"Digitaal Vlaanderen Gebouwenregister","source_id":"gebouw/Gebouw.19527176/0","kind":"building","height_m":7.88,"status":null},"geometry":{"type":"Polygon","coordinates":[[[3.88974748,50.96248656],[3.88971414,50.96252018],[3.88962895,50.96248649],[3.88953671,50.96245001],[3.88957421,50.96240975],[3.88957932,50.96240426],[3.8896267,50.96235339],[3.88972737,50.96238964],[3.88969885,50.96242543],[3.88965857,50.96241185],[3.88963042,50.96243985],[3.88966901,50.96245525],[3.88974748,50.96248656]]]}},{"type":"Feature","id":"gebouw/Gebouw.19527177/0","properties":{"source":"Digitaal Vlaanderen Gebouwenregister","source_id":"gebouw/Gebouw.19527177/0","kind":"building","height_m":8.6,"status":null},"geometry":{"type":"Polygon","coordinates":[[[3.8896267,50.96235339],[3.88957932,50.96240426],[3.8895323,50.96237991],[3.88959367,50.9623415],[3.8896267,50.96235339]]]}},{"type":"Feature","id":"gebouw/Gebouw.19527187/0","properties":{"source":"Digitaal Vlaanderen Gebouwenregister","source_id":"gebouw/Gebouw.19527187/0","kind":"building","height_m":5.72,"status":null},"geometry":{"type":"Polygon","coordinates":[[[3.89447183,50.96259595],[3.89448528,50.96259886],[3.89473139,50.96265204],[3.89472934,50.96265582],[3.89468448,50.96273861],[3.89442374,50.962682],[3.89435474,50.96266702],[3.89435787,50.96266144],[3.8943992,50.96258926],[3.89440477,50.96258146],[3.89447183,50.96259595]]]}},{"type":"Feature","id":"gebouw/Gebouw.19527188/0","properties":{"source":"Digitaal Vlaanderen Gebouwenregister","source_id":"gebouw/Gebouw.19527188/0","kind":"building","height_m":6.44,"status":null},"geometry":{"type":"Polygon","coordinates":[[[3.89501444,50.96238562],[3.89487604,50.96266149],[3.89479353,50.96264364],[3.89477314,50.96263923],[3.89491601,50.96238167],[3.89501444,50.96238562]]]}},{"type":"Feature","id":"gebouw/Gebouw.19527228/0","properties":{"source":"Digitaal Vlaanderen Gebouwenregister","source_id":"gebouw/Gebouw.19527228/0","kind":"building","height_m":5.0,"status":null},"geometry":{"type":"Polygon","coordinates":[[[3.89849731,50.96301116],[3.8983282,50.96316641],[3.89823259,50.96312374],[3.8983613,50.96300231],[3.89835596,50.96295298],[3.89847307,50.96295881],[3.89853512,50.96296318],[3.89853744,50.96297432],[3.89849731,50.96301116]]]}},{"type":"Feature","id":"gebouw/Gebouw.19527229/0","properties":{"source":"Digitaal Vlaanderen Gebouwenregister","source_id":"gebouw/Gebouw.19527229/0","kind":"building","height_m":5.72,"status":null},"geometry":{"type":"Polygon","coordinates":[[[3.89847779,50.96292461],[3.89847307,50.96295881],[3.89835596,50.96295298],[3.89836453,50.96288491],[3.89848239,50.96289119],[3.89847974,50.96291045],[3.89847779,50.96292461]]]}},{"type":"Feature","id":"gebouw/Gebouw.19527230/0","properties":{"source":"Digitaal Vlaanderen Gebouwenregister","source_id":"gebouw/Gebouw.19527230/0","kind":"building","height_m":6.44,"status":null},"geometry":{"type":"Polygon","coordinates":[[[3.89854833,50.96292849],[3.89854367,50.96296231],[3.89853512,50.96296318],[3.89847307,50.96295881],[3.89847779,50.96292461],[3.89854833,50.96292849]]]}},{"type":"Feature","id":"gebouw/Gebouw.19531616/0","properties":{"source":"Digitaal Vlaanderen Gebouwenregister","source_id":"gebouw/Gebouw.19531616/0","kind":"building","height_m":9.32,"status":null},"geometry":{"type":"Polygon","coordinates":[[[3.89844484,50.96251219],[3.89821901,50.96254713],[3.89819551,50.9624866],[3.89819318,50.96248058],[3.89836202,50.96245519],[3.89836257,50.96245669],[3.89842038,50.96244764],[3.89844484,50.96251219]]]}},{"type":"Feature","id":"gebouw/Gebouw.19531617/0","properties":{"source":"Digitaal Vlaanderen Gebouwenregister","source_id":"gebouw/Gebouw.19531617/0","kind":"building","height_m":5.0,"status":null},"geometry":{"type":"Polygon","coordinates":[[[3.89819551,50.9624866],[3.89811548,50.96249662],[3.89813788,50.96256728],[3.89800216,50.96258432],[3.8979821,50.96252066],[3.89806115,50.96251072],[3.89805789,50.96249856],[3.89810821,50.96249186],[3.89809828,50.96245708],[3.89818015,50.96244701],[3.89819318,50.96248058],[3.89819551,50.9624866]]]}},{"type":"Feature","id":"gebouw/Gebouw.20193793/0","properties":{"source":"Digitaal Vlaanderen Gebouwenregister","source_id":"gebouw/Gebouw.20193793/0","kind":"building","height_m":7.88,"status":null},"geometry":{"type":"Polygon","coordinates":[[[3.88941955,50.96464345],[3.88944227,50.96461229],[3.88951946,50.96463472],[3.88949674,50.96466589],[3.88941955,50.96464345]]]}},{"type":"Feature","id":"gebouw/Gebouw.20194262/0","properties":{"source":"Digitaal Vlaanderen Gebouwenregister","source_id":"gebouw/Gebouw.20194262/0","kind":"building","height_m":7.88,"status":null},"geometry":{"type":"Polygon","coordinates":[[[3.88794657,50.9630907],[3.88786797,50.96312857],[3.8878393,50.96310483],[3.8879179,50.96306697],[3.88794657,50.9630907]]]}},{"type":"Feature","id":"gebouw/Gebouw.20194280/0","properties":{"source":"Digitaal Vlaanderen Gebouwenregister","source_id":"gebouw/Gebouw.20194280/0","kind":"building","height_m":5.72,"status":null},"geometry":{"type":"Polygon","coordinates":[[[3.89334,50.96300601],[3.89327263,50.96299293],[3.89329653,50.96294383],[3.8933639,50.96295691],[3.89334,50.96300601]]]}},{"type":"Feature","id":"gebouw/Gebouw.20194359/0","properties":{"source":"Digitaal Vlaanderen Gebouwenregister","source_id":"gebouw/Gebouw.20194359/0","kind":"building","height_m":7.16,"status":null},"geometry":{"type":"Polygon","coordinates":[[[3.89768066,50.96296519],[3.89766671,50.96293848],[3.89757746,50.96295707],[3.89756814,50.96296769],[3.89754881,50.96298973],[3.89756305,50.96299343],[3.89758067,50.96299801],[3.89768631,50.96297601],[3.89768066,50.96296519]]]}},{"type":"Feature","id":"gebouw/Gebouw.20194368/0","properties":{"source":"Digitaal Vlaanderen Gebouwenregister","source_id":"gebouw/Gebouw.20194368/0","kind":"building","height_m":8.6,"status":null},"geometry":{"type":"Polygon","coordinates":[[[3.89807973,50.96764047],[3.89810526,50.96761939],[3.89814443,50.96763831],[3.89811782,50.96766029],[3.89809206,50.96764689],[3.89807973,50.96764047]]]}},{"type":"Feature","id":"gebouw/Gebouw.20194515/0","properties":{"source":"Digitaal Vlaanderen Gebouwenregister","source_id":"gebouw/Gebouw.20194515/0","kind":"building","height_m":8.6,"status":null},"geometry":{"type":"Polygon","coordinates":[[[3.89809753,50.9627045],[3.89810525,50.96274729],[3.89799461,50.96275526],[3.8979866,50.96271088],[3.89809669,50.96270455],[3.89809753,50.9627045]]]}},{"type":"Feature","id":"gebouw/Gebouw.20194516/0","properties":{"source":"Digitaal Vlaanderen Gebouwenregister","source_id":"gebouw/Gebouw.20194516/0","kind":"building","height_m":9.32,"status":null},"geometry":{"type":"Polygon","coordinates":[[[3.89815473,50.9627449],[3.89814743,50.96270367],[3.89820535,50.96269958],[3.89821265,50.96274081],[3.89815473,50.9627449]]]}},{"type":"Feature","id":"gebouw/Gebouw.20195707/0","properties":{"source":"Digitaal Vlaanderen Gebouwenregister","source_id":"gebouw/Gebouw.20195707/0","kind":"building","height_m":5.0,"status":null},"geometry":{"type":"Polygon","coordinates":[[[3.89537733,50.96405744],[3.89540533,50.96407026],[3.89544127,50.96404045],[3.89541375,50.96402722],[3.89537733,50.96405744]]]}},{"type":"Feature","id":"gebouw/Gebouw.30584957/0","properties":{"source":"Digitaal Vlaanderen Gebouwenregister","source_id":"gebouw/Gebouw.30584957/0","kind":"building","height_m":7.88,"status":null},"geometry":{"type":"Polygon","coordinates":[[[3.89289936,50.96578966],[3.89288083,50.96580667],[3.89280675,50.9657745],[3.89282528,50.96575748],[3.89289936,50.96578966]]]}},{"type":"Feature","id":"gebouw/Gebouw.30589913/0","properties":{"source":"Digitaal Vlaanderen Gebouwenregister","source_id":"gebouw/Gebouw.30589913/0","kind":"building","height_m":7.88,"status":null},"geometry":{"type":"Polygon","coordinates":[[[3.89690843,50.96257506],[3.89691595,50.96257612],[3.89690394,50.96261009],[3.89688771,50.9626078],[3.89686321,50.96260435],[3.89687522,50.96257038],[3.89690843,50.96257506]]]}},{"type":"Feature","id":"gebouw/Gebouw.30589914/0","properties":{"source":"Digitaal Vlaanderen Gebouwenregister","source_id":"gebouw/Gebouw.30589914/0","kind":"building","height_m":8.6,"status":null},"geometry":{"type":"Polygon","coordinates":[[[3.89554922,50.9639198],[3.89563253,50.96395626],[3.8955734,50.96401014],[3.89549009,50.96397368],[3.89554922,50.9639198]]]}},{"type":"Feature","id":"gebouw/Gebouw.30793199/0","properties":{"source":"Digitaal Vlaanderen Gebouwenregister","source_id":"gebouw/Gebouw.30793199/0","kind":"building","height_m":7.16,"status":null},"geometry":{"type":"Polygon","coordinates":[[[3.89733251,50.96243757],[3.89733626,50.96242065],[3.89733388,50.96242044],[3.89723267,50.9624115],[3.89721373,50.96249695],[3.89731707,50.96250608],[3.89733251,50.96243757]]]}},{"type":"Feature","id":"gebouw/Gebouw.31001727/0","properties":{"source":"Digitaal Vlaanderen Gebouwenregister","source_id":"gebouw/Gebouw.31001727/0","kind":"building","height_m":5.72,"status":null},"geometry":{"type":"Polygon","coordinates":[[[3.8884909,50.96304895],[3.88846235,50.96307254],[3.88845805,50.96307609],[3.88840902,50.96305242],[3.88840452,50.96305025],[3.88843737,50.96302311],[3.8884909,50.96304895]]]}},{"type":"Feature","id":"gebouw/Gebouw.31001728/0","properties":{"source":"Digitaal Vlaanderen Gebouwenregister","source_id":"gebouw/Gebouw.31001728/0","kind":"building","height_m":6.44,"status":null},"geometry":{"type":"Polygon","coordinates":[[[3.89251283,50.96315088],[3.89245309,50.96311503],[3.89249154,50.96308948],[3.89255129,50.96312533],[3.89251283,50.96315088]]]}},{"type":"Feature","id":"gebouw/Gebouw.31278279/0","properties":{"source":"Digitaal Vlaanderen Gebouwenregister","source_id":"gebouw/Gebouw.31278279/0","kind":"building","height_m":7.88,"status":null},"geometry":{"type":"Polygon","coordinates":[[[3.8971336,50.96247103],[3.89714663,50.96240478],[3.89699444,50.96239285],[3.89698154,50.96245846],[3.8971336,50.96247103]]]}},{"type":"Feature","id":"gebouw/Gebouw.31468672/0","properties":{"source":"Digitaal Vlaanderen Gebouwenregister","source_id":"gebouw/Gebouw.31468672/0","kind":"building","height_m":7.88,"status":null},"geometry":{"type":"Polygon","coordinates":[[[3.89733251,50.96243757],[3.89731707,50.96250608],[3.89731516,50.96251624],[3.89731389,50.96252228],[3.89741402,50.96253113],[3.897433,50.96244546],[3.89733251,50.96243757]]]}},{"type":"Feature","id":"gebouw/Gebouw.31541700/0","properties":{"source":"Digitaal Vlaanderen Gebouwenregister","source_id":"gebouw/Gebouw.31541700/0","kind":"building","height_m":5.72,"status":null},"geometry":{"type":"Polygon","coordinates":[[[3.89658036,50.96227863],[3.89658446,50.96224812],[3.89654679,50.96224636],[3.89654317,50.96227662],[3.89658036,50.96227863]]]}},{"type":"Feature","id":"gebouw/Gebouw.31649150/0","properties":{"source":"Digitaal Vlaanderen Gebouwenregister","source_id":"gebouw/Gebouw.31649150/0","kind":"building","height_m":5.72,"status":null},"geometry":{"type":"Polygon","coordinates":[[[3.88951903,50.96371315],[3.88917741,50.96369034],[3.88917703,50.96369281],[3.88916368,50.9637798],[3.8895062,50.96380051],[3.88951903,50.96371315]]]}},{"type":"Feature","id":"gebouw/Gebouw.31761995/0","properties":{"source":"Digitaal Vlaanderen Gebouwenregister","source_id":"gebouw/Gebouw.31761995/0","kind":"building","height_m":9.32,"status":null},"geometry":{"type":"Polygon","coordinates":[[[3.88846346,50.96307295],[3.88848806,50.96305059],[3.88843837,50.96302879],[3.88841138,50.96305331],[3.88841001,50.96305456],[3.88837826,50.96304082],[3.8883161,50.96309729],[3.88839741,50.96313297],[3.88846346,50.96307295]]]}},{"type":"Feature","id":"gebouw/Gebouw.31762073/0","properties":{"source":"Digitaal Vlaanderen Gebouwenregister","source_id":"gebouw/Gebouw.31762073/0","kind":"building","height_m":5.0,"status":null},"geometry":{"type":"Polygon","coordinates":[[[3.89543645,50.96252439],[3.8955283,50.96255812],[3.89556736,50.96251572],[3.89547551,50.96248198],[3.89543645,50.96252439]]]}},{"type":"Feature","id":"gebouw/Gebouw.31762103/0","properties":{"source":"Digitaal Vlaanderen Gebouwenregister","source_id":"gebouw/Gebouw.31762103/0","kind":"building","height_m":6.44,"status":null},"geometry":{"type":"Polygon","coordinates":[[[3.88976724,50.96373537],[3.88972271,50.96373122],[3.88970742,50.96379666],[3.88975346,50.96380095],[3.8897743,50.96380289],[3.88978959,50.96373745],[3.88976724,50.96373537]]]}},{"type":"Feature","id":"gebouw/Gebouw.31762351/0","properties":{"source":"Digitaal Vlaanderen Gebouwenregister","source_id":"gebouw/Gebouw.31762351/0","kind":"building","height_m":8.6,"status":null},"geometry":{"type":"Polygon","coordinates":[[[3.89749578,50.96264971],[3.89748156,50.96258727],[3.89743234,50.96259175],[3.89744657,50.96265418],[3.89749578,50.96264971]]]}},{"type":"Feature","id":"gebouw/Gebouw.31951767/0","properties":{"source":"Digitaal Vlaanderen Gebouwenregister","source_id":"gebouw/Gebouw.31951767/0","kind":"building","height_m":5.72,"status":null},"geometry":{"type":"Polygon","coordinates":[[[3.89032737,50.96264861],[3.89032405,50.9626478],[3.89032296,50.96264959],[3.89026575,50.96274979],[3.89036597,50.96277419],[3.89042771,50.96267303],[3.89032737,50.96264861]]]}},{"type":"Feature","id":"gebouw/Gebouw.31951771/0","properties":{"source":"Digitaal Vlaanderen Gebouwenregister","source_id":"gebouw/Gebouw.31951771/0","kind":"building","height_m":8.6,"status":null},"geometry":{"type":"Polygon","coordinates":[[[3.89032296,50.96264959],[3.89022584,50.9626259],[3.8901655,50.96272539],[3.89026575,50.96274979],[3.89032296,50.96264959]]]}},{"type":"Feature","id":"gebouw/Gebouw.32032342/0","properties":{"source":"Digitaal Vlaanderen Gebouwenregister","source_id":"gebouw/Gebouw.32032342/0","kind":"building","height_m":9.32,"status":null},"geometry":{"type":"Polygon","coordinates":[[[3.89303249,50.96282766],[3.89307305,50.96283483],[3.89309624,50.96278249],[3.89305568,50.96277532],[3.89303249,50.96282766]]]}},{"type":"Feature","id":"way/175703205","properties":{"source":"OpenStreetMap","source_id":"way/175703205","kind":"vegetation","name":null,"waterway":null,"landuse":"forest"},"geometry":{"type":"Polygon","coordinates":[[[3.8947803,50.9646843],[3.8947078,50.9646568],[3.8946887,50.9646353],[3.8947142,50.9645937],[3.8954767,50.9641015],[3.8960794,50.9643845],[3.8961902,50.9643121],[3.8962839,50.964253],[3.8964394,50.9643557],[3.8961454,50.9644818],[3.8955427,50.9641934],[3.8947803,50.9646843]]]}},{"type":"Feature","id":"way/175703213","properties":{"source":"OpenStreetMap","source_id":"way/175703213","kind":"vegetation","name":null,"waterway":null,"landuse":"forest"},"geometry":{"type":"Polygon","coordinates":[[[3.8975939,50.9629909],[3.897404,50.9629893],[3.8973558,50.9629865],[3.8972835,50.9629703],[3.8972323,50.9629495],[3.8972293,50.9629144],[3.8972865,50.9628594],[3.8973302,50.9628395],[3.8973965,50.9628252],[3.8974974,50.9628489],[3.8975124,50.9627835],[3.8978377,50.9628129],[3.8978648,50.9626991],[3.8976886,50.9626905],[3.8975712,50.9626687],[3.8974537,50.9626412],[3.8973754,50.9626118],[3.8974778,50.9625492],[3.8975486,50.9625682],[3.8981841,50.962627],[3.898169,50.9627143],[3.8980079,50.962701],[3.8980105,50.9627915],[3.8980124,50.9628594],[3.8979507,50.9629087],[3.8979088,50.9629944],[3.8976287,50.962953],[3.8975939,50.9629909]]]}},{"type":"Feature","id":"way/175703217","properties":{"source":"OpenStreetMap","source_id":"way/175703217","kind":"vegetation","name":null,"waterway":null,"landuse":"forest"},"geometry":{"type":"Polygon","coordinates":[[[3.8932446,50.9679181],[3.8916777,50.9671416],[3.8913426,50.9674098],[3.8929096,50.9681863],[3.8932446,50.9679181]]]}},{"type":"Feature","id":"way/175703219","properties":{"source":"OpenStreetMap","source_id":"way/175703219","kind":"vegetation","name":null,"waterway":null,"landuse":"forest"},"geometry":{"type":"Polygon","coordinates":[[[3.8943808,50.9650313],[3.8946186,50.9648141],[3.8944993,50.9647685],[3.8942343,50.9649622],[3.8943808,50.9650313]]]}},{"type":"Feature","id":"way/175703227","properties":{"source":"OpenStreetMap","source_id":"way/175703227","kind":"vegetation","name":null,"waterway":null,"landuse":"forest"},"geometry":{"type":"Polygon","coordinates":[[[3.895442,50.965072],[3.8953723,50.9651277],[3.8957823,50.9653311],[3.895945,50.965201],[3.8958436,50.9651507],[3.8957506,50.9652251],[3.895442,50.965072]]]}},{"type":"Feature","id":"way/175703231","properties":{"source":"OpenStreetMap","source_id":"way/175703231","kind":"vegetation","name":null,"waterway":null,"landuse":"forest"},"geometry":{"type":"Polygon","coordinates":[[[3.8924711,50.9685313],[3.8907499,50.9676787],[3.8901602,50.968126],[3.8902625,50.9681718],[3.8907721,50.9677832],[3.8923824,50.9685963],[3.8924711,50.9685313]]]}},{"type":"Feature","id":"way/175703237","properties":{"source":"OpenStreetMap","source_id":"way/175703237","kind":"vegetation","name":null,"waterway":null,"landuse":"forest"},"geometry":{"type":"Polygon","coordinates":[[[3.8932496,50.9658958],[3.8934072,50.9657604],[3.8935179,50.965747],[3.8936116,50.9657832],[3.8937437,50.9658355],[3.8938182,50.9658797],[3.8940184,50.9659522],[3.8941164,50.9659857],[3.8941888,50.9660246],[3.8941334,50.9660514],[3.8940397,50.9661078],[3.8940163,50.9661735],[3.8938566,50.9663157],[3.8937778,50.9664149],[3.8937266,50.9664565],[3.8936691,50.9664686],[3.8935584,50.9664297],[3.8934689,50.9663733],[3.8933454,50.9663693],[3.8932368,50.9664404],[3.8931644,50.9664686],[3.8930217,50.9664632],[3.8928449,50.9663774],[3.8927874,50.9663022],[3.8928726,50.966254],[3.8929557,50.966199],[3.8930515,50.9661239],[3.8930622,50.9660715],[3.892936,50.966025],[3.8928835,50.9660678],[3.8922731,50.9665267],[3.8938702,50.9672673],[3.8934034,50.9676713],[3.891792,50.9668879],[3.8916752,50.9669778],[3.893381,50.9678167],[3.8935251,50.9677067],[3.8940282,50.9673098],[3.8949129,50.966568],[3.895488,50.9660736],[3.8958087,50.9657149],[3.8986649,50.9632638],[3.8986879,50.9632176],[3.8985705,50.9631967],[3.8984289,50.9631474],[3.8984379,50.9631113],[3.8980448,50.9630182],[3.8980193,50.9630658],[3.8982542,50.9631436],[3.8984229,50.9631948],[3.8985313,50.9632346],[3.8985012,50.9632764],[3.8982934,50.9634642],[3.8976187,50.9640351],[3.8975584,50.9640446],[3.8974229,50.9640143],[3.8973084,50.963982],[3.8969885,50.9638468],[3.8969509,50.9638309],[3.8968897,50.9638785],[3.8970991,50.9639986],[3.8970978,50.9640897],[3.8970916,50.9641452],[3.8970705,50.9641964],[3.8970313,50.9642457],[3.8969922,50.9642685],[3.8967121,50.9641641],[3.8964982,50.9643804],[3.896932,50.9645758],[3.8960525,50.9653383],[3.895697,50.9656494],[3.8950811,50.965377],[3.8950194,50.9653497],[3.8945164,50.9650974],[3.8943808,50.9650313],[3.8942343,50.9649622],[3.8936855,50.9654066],[3.8931369,50.9658619],[3.8932496,50.9658958]]]}},{"type":"Feature","id":"way/175766518","properties":{"source":"OpenStreetMap","source_id":"way/175766518","kind":"vegetation","name":null,"waterway":null,"landuse":"forest"},"geometry":{"type":"Polygon","coordinates":[[[3.8941585,50.9629968],[3.8939431,50.9629928],[3.8934939,50.963054],[3.8931586,50.9630857],[3.8928401,50.9631131],[3.8925987,50.9631237],[3.8922504,50.9631505],[3.8922985,50.9630579],[3.8926423,50.9630625],[3.8930111,50.9630456],[3.8934603,50.9629822],[3.8937487,50.96294],[3.8939733,50.9629273],[3.8941733,50.9629327],[3.8941585,50.9629968]]]}},{"type":"Feature","id":"way/175766679","properties":{"source":"OpenStreetMap","source_id":"way/175766679","kind":"vegetation","name":null,"waterway":null,"landuse":"forest"},"geometry":{"type":"Polygon","coordinates":[[[3.8941353,50.963097],[3.8941585,50.9629968],[3.8941733,50.9629327],[3.8945099,50.9629566],[3.8944957,50.963091],[3.8946474,50.963106],[3.8947944,50.9628491],[3.8949793,50.962876],[3.8949603,50.9629865],[3.8951642,50.9630193],[3.8951927,50.9628969],[3.8954345,50.9629387],[3.8954155,50.9629984],[3.8958091,50.963094],[3.8955578,50.9634225],[3.8953065,50.9636047],[3.8950931,50.963736],[3.8951903,50.9637677],[3.8951568,50.9638015],[3.8952339,50.9638311],[3.8951602,50.9639113],[3.8953378,50.9639641],[3.8952909,50.9640422],[3.8932893,50.9638944],[3.8932592,50.9642027],[3.8931586,50.9644392],[3.8929541,50.9645004],[3.892603,50.9645331],[3.8915883,50.9644644],[3.8916054,50.9644],[3.8916968,50.9640549],[3.8913079,50.964019],[3.8913649,50.9638416],[3.891623,50.9638606],[3.8916398,50.9637593],[3.8913682,50.9637382],[3.8911847,50.9637187],[3.8910698,50.9637065],[3.8907681,50.9636558],[3.8910363,50.9632377],[3.8912945,50.9632905],[3.8912394,50.9633956],[3.8911905,50.963489],[3.891509,50.9635439],[3.8915728,50.9635946],[3.8916834,50.9636284],[3.8917092,50.9636333],[3.8918276,50.9636558],[3.8922406,50.9630009],[3.892307,50.9628956],[3.892374,50.9629125],[3.8922985,50.9630579],[3.8922504,50.9631505],[3.8919583,50.9637128],[3.8923036,50.9637192],[3.8925082,50.9637276],[3.8928233,50.9637593],[3.8932189,50.9637888],[3.8934033,50.9638205],[3.8938828,50.9638332],[3.8941353,50.963097]]]}},{"type":"Feature","id":"way/175766692","properties":{"source":"OpenStreetMap","source_id":"way/175766692","kind":"vegetation","name":null,"waterway":null,"landuse":"forest"},"geometry":{"type":"Polygon","coordinates":[[[3.8960837,50.9626746],[3.896105,50.9626388],[3.8962615,50.9626507],[3.8963587,50.9626582],[3.8964511,50.9626776],[3.8965058,50.962695],[3.8965563,50.9627182],[3.8964843,50.9627642],[3.8960837,50.9626746]]]}}]}