{"type":"FeatureCollection","features":[{"type":"Feature","id":"gebouw/Gebouw.9122431/0","properties":{"source":"Digitaal Vlaanderen Gebouwenregister","source_id":"gebouw/Gebouw.9122431/0","kind":"building","height_m":7.16,"status":null},"geometry":{"type":"Polygon","coordinates":[[[3.87836406,50.95508327],[3.87827633,50.95506742],[3.87830456,50.95501074],[3.87839341,50.95502437],[3.87836406,50.95508327]]]}},{"type":"Feature","id":"gebouw/Gebouw.9122432/0","properties":{"source":"Digitaal Vlaanderen Gebouwenregister","source_id":"gebouw/Gebouw.9122432/0","kind":"building","height_m":7.88,"status":null},"geometry":{"type":"Polygon","coordinates":[[[3.87898396,50.95489444],[3.879023,50.95485895],[3.8791043,50.95489628],[3.87907781,50.95491899],[3.87902339,50.95489473],[3.87900969,50.95490637],[3.87898396,50.95489444]]]}},{"type":"Feature","id":"gebouw/Gebouw.9192751/0","properties":{"source":"Digitaal Vlaanderen Gebouwenregister","source_id":"gebouw/Gebouw.9192751/0","kind":"building","height_m":5.72,"status":null},"geometry":{"type":"Polygon","coordinates":[[[3.87875458,50.95484052],[3.87877153,50.95485852],[3.87872712,50.95487558],[3.87870901,50.95485724],[3.87869173,50.95483975],[3.87874725,50.95481814],[3.8787651,50.95483596],[3.87875458,50.95484052]]]}},{"type":"Feature","id":"gebouw/Gebouw.9731845/0","properties":{"source":"Digitaal Vlaanderen Gebouwenregister","source_id":"gebouw/Gebouw.9731845/0","kind":"building","height_m":7.88,"status":null},"geometry":{"type":"Polygon","coordinates":[[[3.87839739,50.95516603],[3.87842437,50.95510031],[3.87866532,50.9551387],[3.87862804,50.95523206],[3.87840005,50.95519565],[3.87841097,50.95516807],[3.87839739,50.95516603]]]}},{"type":"Feature","id":"gebouw/Gebouw.9737011/0","properties":{"source":"Digitaal Vlaanderen Gebouwenregister","source_id":"gebouw/Gebouw.9737011/0","kind":"building","height_m":7.88,"status":null},"geometry":{"type":"Polygon","coordinates":[[[3.87827861,50.95500593],[3.87829743,50.95502333],[3.87822487,50.9550566],[3.87820493,50.95503931],[3.87827861,50.95500593]]]}},{"type":"Feature","id":"gebouw/Gebouw.18737166/0","properties":{"source":"Digitaal Vlaanderen Gebouwenregister","source_id":"gebouw/Gebouw.18737166/0","kind":"building","height_m":5.0,"status":null},"geometry":{"type":"Polygon","coordinates":[[[3.87858055,50.95523892],[3.87862988,50.95524609],[3.87861996,50.95527333],[3.87857063,50.95526616],[3.87858055,50.95523892]]]}},{"type":"Feature","id":"gebouw/Gebouw.31001718/0","properties":{"source":"Digitaal Vlaanderen Gebouwenregister","source_id":"gebouw/Gebouw.31001718/0","kind":"building","height_m":9.32,"status":null},"geometry":{"type":"Polygon","coordinates":[[[3.87836779,50.95534383],[3.87833859,50.95537508],[3.8782847,50.95535319],[3.87828096,50.95535167],[3.87830883,50.95532185],[3.87836779,50.95534383]]]}},{"type":"Feature","id":"gebouw/Gebouw.31545760/0","properties":{"source":"Digitaal Vlaanderen Gebouwenregister","source_id":"gebouw/Gebouw.31545760/0","kind":"building","height_m":5.72,"status":null},"geometry":{"type":"Polygon","coordinates":[[[3.8793486,50.95460935],[3.87934115,50.95460171],[3.87931693,50.9546114],[3.87932439,50.95461904],[3.8793486,50.95460935]]]}},{"type":"Feature","id":"way/198312659","properties":{"source":"OpenStreetMap","source_id":"way/198312659","kind":"vegetation","name":null,"waterway":null,"landuse":"forest"},"geometry":{"type":"Polygon","coordinates":[[[3.8863955,50.9523981],[3.8849506,50.9530126],[3.8844949,50.9532064],[3.8837861,50.9535078],[3.8840396,50.9537376],[3.884489,50.9535924],[3.8846388,50.9537013],[3.8840857,50.9538634],[3.8836171,50.9540304],[3.8832715,50.9536844],[3.8818734,50.9542481],[3.8806289,50.9547442],[3.8807556,50.9548506],[3.8814624,50.9552281],[3.881351,50.9553684],[3.8811589,50.9554482],[3.8804253,50.9547079],[3.8814585,50.9543038],[3.8832023,50.9536045],[3.8844429,50.9531085],[3.8863206,50.9523327],[3.8863955,50.9523981]]]}},{"type":"Feature","id":"way/198335123","properties":{"source":"OpenStreetMap","source_id":"way/198335123","kind":"vegetation","name":null,"waterway":null,"landuse":"forest"},"geometry":{"type":"Polygon","coordinates":[[[3.8771093,50.9560684],[3.8771684,50.9561209],[3.8789751,50.9553934],[3.8795397,50.9559185],[3.8796934,50.9555144],[3.8794399,50.9554829],[3.8794015,50.9555483],[3.8792593,50.9555434],[3.879244,50.9553184],[3.8793477,50.9553499],[3.8794552,50.9552966],[3.8794245,50.9552555],[3.8797534,50.9551018],[3.8801236,50.9549289],[3.8803425,50.9550329],[3.8804808,50.955137],[3.8808188,50.9554273],[3.8809455,50.9553789],[3.8802849,50.9547571],[3.8796857,50.9550111],[3.8788099,50.9553765],[3.8771093,50.9560684]]]}},{"type":"Feature","id":"way/198572479","properties":{"source":"OpenStreetMap","source_id":"way/198572479","kind":"vegetation","name":null,"waterway":null,"landuse":"forest"},"geometry":{"type":"Polygon","coordinates":[[[3.8764032,50.9558811],[3.876988,50.9556485],[3.8772481,50.955538],[3.8794228,50.954614],[3.8798134,50.9544467],[3.8797298,50.9543203],[3.8796185,50.9542108],[3.8794251,50.9540521],[3.8794563,50.9540274],[3.8794915,50.9540348],[3.8795833,50.954084],[3.8796751,50.9541529],[3.8800403,50.9544937],[3.8780032,50.9553402],[3.8764681,50.9559505],[3.8764032,50.9558811]]]}},{"type":"Feature","id":"way/198572484","properties":{"source":"OpenStreetMap","source_id":"way/198572484","kind":"vegetation","name":null,"waterway":null,"landuse":"forest"},"geometry":{"type":"Polygon","coordinates":[[[3.8799724,50.9541672],[3.8801778,50.9543334],[3.8817385,50.9536976],[3.881882,50.9536391],[3.8820505,50.9535678],[3.8828308,50.9532373],[3.8840573,50.9527255],[3.8854206,50.9521964],[3.886362,50.951842],[3.8864363,50.9519085],[3.8837097,50.9530355],[3.8817214,50.953823],[3.8801706,50.9544701],[3.8799368,50.9542615],[3.879912,50.9542302],[3.8799147,50.9542093],[3.8799341,50.9541919],[3.8799724,50.9541672]]]}},{"type":"Feature","id":"way/198616275","properties":{"source":"OpenStreetMap","source_id":"way/198616275","kind":"vegetation","name":null,"waterway":null,"landuse":"forest"},"geometry":{"type":"Polygon","coordinates":[[[3.8778921,50.9546238],[3.8781764,50.9548371],[3.8780866,50.9548866],[3.8778117,50.9546799],[3.8778921,50.9546238]]]}}]}