{"type":"FeatureCollection","features":[{"type":"Feature","id":"gebouw/Gebouw.9043955/0","properties":{"source":"Digitaal Vlaanderen Gebouwenregister","source_id":"gebouw/Gebouw.9043955/0","kind":"building","height_m":7.88,"status":null},"geometry":{"type":"Polygon","coordinates":[[[3.88701503,50.96327739],[3.887162,50.96339673],[3.88702605,50.96346336],[3.88687914,50.96334414],[3.88701503,50.96327739]]]}},{"type":"Feature","id":"gebouw/Gebouw.9044036/0","properties":{"source":"Digitaal Vlaanderen Gebouwenregister","source_id":"gebouw/Gebouw.9044036/0","kind":"building","height_m":5.72,"status":null},"geometry":{"type":"Polygon","coordinates":[[[3.8844484,50.96368096],[3.88444719,50.96368003],[3.88443851,50.96367339],[3.88462492,50.96358068],[3.88472063,50.96365803],[3.88453715,50.96374877],[3.88447671,50.96370259],[3.88447434,50.96370077],[3.8844484,50.96368096]]]}},{"type":"Feature","id":"gebouw/Gebouw.9064318/0","properties":{"source":"Digitaal Vlaanderen Gebouwenregister","source_id":"gebouw/Gebouw.9064318/0","kind":"building","height_m":7.88,"status":null},"geometry":{"type":"Polygon","coordinates":[[[3.88767982,50.9633409],[3.88763407,50.96330401],[3.88767594,50.96328297],[3.8877208,50.96331966],[3.88767982,50.9633409]]]}},{"type":"Feature","id":"gebouw/Gebouw.9064885/0","properties":{"source":"Digitaal Vlaanderen Gebouwenregister","source_id":"gebouw/Gebouw.9064885/0","kind":"building","height_m":7.88,"status":null},"geometry":{"type":"Polygon","coordinates":[[[3.87923955,50.96713713],[3.87929977,50.96710997],[3.8793274,50.9671344],[3.87926719,50.96716156],[3.87923955,50.96713713]]]}},{"type":"Feature","id":"gebouw/Gebouw.9064990/0","properties":{"source":"Digitaal Vlaanderen Gebouwenregister","source_id":"gebouw/Gebouw.9064990/0","kind":"building","height_m":7.88,"status":null},"geometry":{"type":"Polygon","coordinates":[[[3.87969281,50.96683216],[3.8796501,50.9668515],[3.87958521,50.96679759],[3.8796283,50.96677683],[3.87969281,50.96683216]]]}},{"type":"Feature","id":"gebouw/Gebouw.9064991/0","properties":{"source":"Digitaal Vlaanderen Gebouwenregister","source_id":"gebouw/Gebouw.9064991/0","kind":"building","height_m":8.6,"status":null},"geometry":{"type":"Polygon","coordinates":[[[3.87763282,50.96363753],[3.87765366,50.96364472],[3.87745572,50.96387158],[3.8773456,50.96383521],[3.87753994,50.96360943],[3.87749006,50.96359159],[3.87760776,50.96344767],[3.87752175,50.96340841],[3.87722497,50.96327781],[3.87706554,50.96345775],[3.87741183,50.96358914],[3.87715317,50.96386209],[3.87674087,50.96370648],[3.87672475,50.96365159],[3.87673867,50.963637],[3.87678241,50.96359116],[3.87690584,50.9634618],[3.87689119,50.963456],[3.87710561,50.96322354],[3.87711469,50.9632272],[3.87716286,50.96317478],[3.87733666,50.96325294],[3.87736078,50.96326403],[3.87757184,50.96336107],[3.87761944,50.96338134],[3.87765484,50.96339642],[3.87774864,50.96343815],[3.87768184,50.96351806],[3.87772002,50.96353052],[3.8776482,50.96361865],[3.87763282,50.96363753]]]}},{"type":"Feature","id":"gebouw/Gebouw.9065169/0","properties":{"source":"Digitaal Vlaanderen Gebouwenregister","source_id":"gebouw/Gebouw.9065169/0","kind":"building","height_m":5.72,"status":null},"geometry":{"type":"Polygon","coordinates":[[[3.88762632,50.9630428],[3.887631,50.96304656],[3.88767154,50.96302649],[3.8877057,50.96305425],[3.88771962,50.96307446],[3.8877156,50.96308977],[3.88770035,50.96310345],[3.88767328,50.96311586],[3.88764723,50.96309457],[3.88753465,50.96314902],[3.88745854,50.96308648],[3.88754166,50.96304583],[3.88747821,50.96299489],[3.88753327,50.96296812],[3.88755846,50.96298834],[3.88762632,50.9630428]]]}},{"type":"Feature","id":"gebouw/Gebouw.9065170/0","properties":{"source":"Digitaal Vlaanderen Gebouwenregister","source_id":"gebouw/Gebouw.9065170/0","kind":"building","height_m":6.44,"status":null},"geometry":{"type":"Polygon","coordinates":[[[3.88643123,50.96365738],[3.88641074,50.96366751],[3.88637113,50.96363555],[3.88635023,50.96364588],[3.88627098,50.96358195],[3.8864061,50.96351523],[3.88648928,50.96358242],[3.88647456,50.96359007],[3.88651005,50.96361841],[3.88649498,50.96362586],[3.88643123,50.96365738]]]}},{"type":"Feature","id":"gebouw/Gebouw.9069602/0","properties":{"source":"Digitaal Vlaanderen Gebouwenregister","source_id":"gebouw/Gebouw.9069602/0","kind":"building","height_m":7.16,"status":null},"geometry":{"type":"Polygon","coordinates":[[[3.88672792,50.96399922],[3.88668001,50.96402392],[3.88658814,50.96395578],[3.88663059,50.96393556],[3.88655055,50.96387063],[3.8865702,50.96386097],[3.88653762,50.96383475],[3.88651796,50.96384442],[3.88651525,50.96384199],[3.88674831,50.96372755],[3.88697728,50.96391419],[3.88683878,50.9639822],[3.88686888,50.96400691],[3.88678696,50.96404788],[3.88672792,50.96399922]]]}},{"type":"Feature","id":"gebouw/Gebouw.9069603/0","properties":{"source":"Digitaal Vlaanderen Gebouwenregister","source_id":"gebouw/Gebouw.9069603/0","kind":"building","height_m":7.88,"status":null},"geometry":{"type":"Polygon","coordinates":[[[3.88615125,50.96296108],[3.88628613,50.96289514],[3.88641324,50.96299875],[3.88634708,50.96303113],[3.8863605,50.96304207],[3.88629184,50.96307565],[3.88615125,50.96296108]]]}},{"type":"Feature","id":"gebouw/Gebouw.9069673/0","properties":{"source":"Digitaal Vlaanderen Gebouwenregister","source_id":"gebouw/Gebouw.9069673/0","kind":"building","height_m":7.88,"status":null},"geometry":{"type":"Polygon","coordinates":[[[3.88278047,50.96701721],[3.88281906,50.96700251],[3.88276306,50.96694444],[3.88283147,50.96691814],[3.88288689,50.96697559],[3.88294797,50.96695218],[3.88292097,50.96692301],[3.88300292,50.96689122],[3.88311225,50.96700269],[3.88302854,50.96703408],[3.88302507,50.96703104],[3.88297191,50.96705269],[3.88297536,50.9670561],[3.88289285,50.96708713],[3.8828626,50.96705735],[3.88283198,50.96706935],[3.88278047,50.96701721]]]}},{"type":"Feature","id":"gebouw/Gebouw.9069815/0","properties":{"source":"Digitaal Vlaanderen Gebouwenregister","source_id":"gebouw/Gebouw.9069815/0","kind":"building","height_m":9.32,"status":null},"geometry":{"type":"Polygon","coordinates":[[[3.88237788,50.96583373],[3.88236612,50.9658297],[3.882351,50.96582083],[3.88234463,50.96581417],[3.88234039,50.96580687],[3.88233844,50.96579919],[3.88233884,50.96579142],[3.88234159,50.96578384],[3.88234658,50.96577673],[3.88235363,50.96577035],[3.88236247,50.96576494],[3.88237279,50.9657607],[3.88238421,50.96575778],[3.88239473,50.9657564],[3.88240547,50.96575615],[3.88241613,50.96575704],[3.8824264,50.96575903],[3.882436,50.96576208],[3.88244467,50.9657661],[3.88245215,50.96577097],[3.88246243,50.96578282],[3.88246561,50.96579103],[3.88246602,50.96579947],[3.88246363,50.96580779],[3.88245855,50.96581561],[3.882451,50.96582258],[3.88244132,50.96582841],[3.88242992,50.96583284],[3.88241731,50.96583568],[3.88240405,50.96583679],[3.88239071,50.96583613],[3.88237788,50.96583373]]]}},{"type":"Feature","id":"gebouw/Gebouw.9069880/0","properties":{"source":"Digitaal Vlaanderen Gebouwenregister","source_id":"gebouw/Gebouw.9069880/0","kind":"building","height_m":5.72,"status":null},"geometry":{"type":"Polygon","coordinates":[[[3.88670368,50.96243195],[3.88681543,50.96252246],[3.8867227,50.96256779],[3.88662511,50.96248963],[3.88663749,50.96248248],[3.8866214,50.96247498],[3.88668342,50.96242515],[3.88670063,50.96243454],[3.88670368,50.96243195]]]}},{"type":"Feature","id":"gebouw/Gebouw.9069881/0","properties":{"source":"Digitaal Vlaanderen Gebouwenregister","source_id":"gebouw/Gebouw.9069881/0","kind":"building","height_m":6.44,"status":null},"geometry":{"type":"Polygon","coordinates":[[[3.88607494,50.96274315],[3.88606193,50.96271247],[3.88612604,50.96270106],[3.88613994,50.96273195],[3.88607494,50.96274315]]]}},{"type":"Feature","id":"gebouw/Gebouw.9069961/0","properties":{"source":"Digitaal Vlaanderen Gebouwenregister","source_id":"gebouw/Gebouw.9069961/0","kind":"building","height_m":8.6,"status":null},"geometry":{"type":"Polygon","coordinates":[[[3.88697476,50.96370363],[3.88695038,50.96371544],[3.8869771,50.96373744],[3.88690782,50.963771],[3.88674918,50.9636404],[3.8868413,50.96359544],[3.88697476,50.96370363]]]}},{"type":"Feature","id":"gebouw/Gebouw.9069962/0","properties":{"source":"Digitaal Vlaanderen Gebouwenregister","source_id":"gebouw/Gebouw.9069962/0","kind":"building","height_m":9.32,"status":null},"geometry":{"type":"Polygon","coordinates":[[[3.88754253,50.96319239],[3.88763429,50.96326748],[3.88759546,50.96328593],[3.88750341,50.96321102],[3.88754253,50.96319239]]]}},{"type":"Feature","id":"gebouw/Gebouw.9070035/0","properties":{"source":"Digitaal Vlaanderen Gebouwenregister","source_id":"gebouw/Gebouw.9070035/0","kind":"building","height_m":6.44,"status":null},"geometry":{"type":"Polygon","coordinates":[[[3.88038849,50.96758219],[3.88024253,50.96759795],[3.88019697,50.96742977],[3.88034293,50.967414],[3.88038849,50.96758219]]]}},{"type":"Feature","id":"gebouw/Gebouw.9070036/0","properties":{"source":"Digitaal Vlaanderen Gebouwenregister","source_id":"gebouw/Gebouw.9070036/0","kind":"building","height_m":7.16,"status":null},"geometry":{"type":"Polygon","coordinates":[[[3.88013158,50.96680083],[3.87994615,50.96664599],[3.87999528,50.96662118],[3.87994936,50.96658108],[3.8799433,50.96657578],[3.87985497,50.96661914],[3.87990964,50.96666357],[3.8799009,50.96666789],[3.88003087,50.96679214],[3.88007055,50.96682753],[3.88013158,50.96680083]]]}},{"type":"Feature","id":"gebouw/Gebouw.9122103/0","properties":{"source":"Digitaal Vlaanderen Gebouwenregister","source_id":"gebouw/Gebouw.9122103/0","kind":"building","height_m":7.88,"status":null},"geometry":{"type":"Polygon","coordinates":[[[3.87898695,50.96739301],[3.87894728,50.96740021],[3.87893555,50.96738335],[3.87889306,50.96732223],[3.87889275,50.9673218],[3.87894931,50.96731417],[3.87895055,50.96731735],[3.8789534,50.96731688],[3.87895411,50.96731676],[3.87898695,50.96739301]]]}},{"type":"Feature","id":"gebouw/Gebouw.9122458/0","properties":{"source":"Digitaal Vlaanderen Gebouwenregister","source_id":"gebouw/Gebouw.9122458/0","kind":"building","height_m":6.44,"status":null},"geometry":{"type":"Polygon","coordinates":[[[3.88017758,50.96678069],[3.88032668,50.9669],[3.88029269,50.96691693],[3.88025759,50.96688884],[3.88024565,50.9668948],[3.88021361,50.96686916],[3.88015176,50.96689998],[3.88007055,50.96682753],[3.88013158,50.96680083],[3.88017758,50.96678069]]]}},{"type":"Feature","id":"gebouw/Gebouw.9122459/0","properties":{"source":"Digitaal Vlaanderen Gebouwenregister","source_id":"gebouw/Gebouw.9122459/0","kind":"building","height_m":7.16,"status":null},"geometry":{"type":"Polygon","coordinates":[[[3.8871915,50.9635888],[3.88722197,50.96357213],[3.88726516,50.96360505],[3.8872347,50.96362173],[3.8871915,50.9635888]]]}},{"type":"Feature","id":"gebouw/Gebouw.9122538/0","properties":{"source":"Digitaal Vlaanderen Gebouwenregister","source_id":"gebouw/Gebouw.9122538/0","kind":"building","height_m":8.6,"status":null},"geometry":{"type":"Polygon","coordinates":[[[3.87971842,50.96699033],[3.87971675,50.9669911],[3.87968202,50.96696259],[3.87964384,50.96698226],[3.87946073,50.96682631],[3.87944752,50.96681504],[3.8795091,50.96678623],[3.87953509,50.96677407],[3.87954961,50.96676727],[3.87958521,50.96679759],[3.8796501,50.96685151],[3.87970454,50.96689668],[3.87978203,50.96696099],[3.87971842,50.96699033]]]}},{"type":"Feature","id":"gebouw/Gebouw.9122881/0","properties":{"source":"Digitaal Vlaanderen Gebouwenregister","source_id":"gebouw/Gebouw.9122881/0","kind":"building","height_m":8.6,"status":null},"geometry":{"type":"Polygon","coordinates":[[[3.88607768,50.96393905],[3.88597841,50.9639884],[3.88585761,50.96389118],[3.8859736,50.96383359],[3.88596983,50.96382891],[3.88596803,50.96382377],[3.88596831,50.96381853],[3.88597065,50.96381348],[3.88597493,50.96380896],[3.88598084,50.96380527],[3.88598803,50.96380262],[3.88597989,50.96379607],[3.88605493,50.96375877],[3.88616904,50.96385076],[3.8860447,50.96391259],[3.88607768,50.96393905]]]}},{"type":"Feature","id":"gebouw/Gebouw.9131972/0","properties":{"source":"Digitaal Vlaanderen Gebouwenregister","source_id":"gebouw/Gebouw.9131972/0","kind":"building","height_m":7.16,"status":null},"geometry":{"type":"Polygon","coordinates":[[[3.88715471,50.96320718],[3.88717822,50.96319547],[3.88714452,50.96316682],[3.88716087,50.96315915],[3.88716279,50.96316069],[3.88718933,50.96314756],[3.88724749,50.96311881],[3.88724567,50.96311721],[3.88725166,50.96311415],[3.88743791,50.96326008],[3.88732496,50.96331507],[3.88726621,50.96326697],[3.88724273,50.9632783],[3.88715471,50.96320718]]]}},{"type":"Feature","id":"gebouw/Gebouw.9132258/0","properties":{"source":"Digitaal Vlaanderen Gebouwenregister","source_id":"gebouw/Gebouw.9132258/0","kind":"building","height_m":6.44,"status":null},"geometry":{"type":"Polygon","coordinates":[[[3.87977461,50.9684324],[3.87945985,50.96842334],[3.87945288,50.9683695],[3.87917983,50.96838397],[3.87912037,50.96794045],[3.87910545,50.96781683],[3.87916099,50.96781432],[3.8791425,50.96768199],[3.87911457,50.96746874],[3.87912739,50.96746646],[3.87910201,50.96741351],[3.8790771,50.96730214],[3.8791468,50.96729605],[3.8792259,50.9674463],[3.87932857,50.96742544],[3.87936749,50.96742348],[3.87935655,50.96734449],[3.87962458,50.96732939],[3.87966963,50.96766061],[3.87970148,50.96789483],[3.87977461,50.9684324]]]}},{"type":"Feature","id":"gebouw/Gebouw.9132259/0","properties":{"source":"Digitaal Vlaanderen Gebouwenregister","source_id":"gebouw/Gebouw.9132259/0","kind":"building","height_m":7.16,"status":null},"geometry":{"type":"Polygon","coordinates":[[[3.88177386,50.96712901],[3.8818587,50.9671288],[3.88185814,50.96705067],[3.88198673,50.96705032],[3.88198774,50.96719312],[3.8818612,50.96719282],[3.88186166,50.96719732],[3.88177534,50.96719721],[3.88177386,50.96712901]]]}},{"type":"Feature","id":"gebouw/Gebouw.9132467/0","properties":{"source":"Digitaal Vlaanderen Gebouwenregister","source_id":"gebouw/Gebouw.9132467/0","kind":"building","height_m":5.72,"status":null},"geometry":{"type":"Polygon","coordinates":[[[3.88331135,50.96749885],[3.88298226,50.96732722],[3.88317716,50.96718011],[3.88351006,50.96735347],[3.88338838,50.96744264],[3.88341975,50.96746065],[3.88336425,50.96750191],[3.88333152,50.96748402],[3.88331135,50.96749885]]]}},{"type":"Feature","id":"gebouw/Gebouw.9132468/0","properties":{"source":"Digitaal Vlaanderen Gebouwenregister","source_id":"gebouw/Gebouw.9132468/0","kind":"building","height_m":6.44,"status":null},"geometry":{"type":"Polygon","coordinates":[[[3.87903413,50.96754008],[3.87901071,50.96748256],[3.87896718,50.96748963],[3.8789906,50.96754715],[3.87903413,50.96754008]]]}},{"type":"Feature","id":"gebouw/Gebouw.9132606/0","properties":{"source":"Digitaal Vlaanderen Gebouwenregister","source_id":"gebouw/Gebouw.9132606/0","kind":"building","height_m":5.0,"status":null},"geometry":{"type":"Polygon","coordinates":[[[3.88725454,50.96339757],[3.88730975,50.96344324],[3.88723215,50.96348066],[3.88717805,50.96343561],[3.88725454,50.96339757]]]}},{"type":"Feature","id":"gebouw/Gebouw.9155767/0","properties":{"source":"Digitaal Vlaanderen Gebouwenregister","source_id":"gebouw/Gebouw.9155767/0","kind":"building","height_m":8.6,"status":null},"geometry":{"type":"Polygon","coordinates":[[[3.87944203,50.96722125],[3.87939163,50.96717995],[3.87936959,50.96716188],[3.87929225,50.967097],[3.87924803,50.96711909],[3.87921184,50.96708995],[3.87919924,50.96709599],[3.87918519,50.96709485],[3.87916097,50.96707557],[3.87916194,50.96707112],[3.87916291,50.96706667],[3.87922237,50.9670384],[3.87923142,50.96703403],[3.879221,50.96702586],[3.8792539,50.96700913],[3.87926104,50.96701472],[3.87928765,50.96700118],[3.87933917,50.96697497],[3.87942129,50.96704015],[3.87945371,50.96705684],[3.87948835,50.96703948],[3.87956038,50.96709973],[3.87954924,50.96710502],[3.87966654,50.9672062],[3.87955393,50.96721374],[3.87955437,50.96721641],[3.87954682,50.96721687],[3.87954638,50.96721425],[3.87944203,50.96722125]]]}},{"type":"Feature","id":"gebouw/Gebouw.9192414/0","properties":{"source":"Digitaal Vlaanderen Gebouwenregister","source_id":"gebouw/Gebouw.9192414/0","kind":"building","height_m":5.0,"status":null},"geometry":{"type":"Polygon","coordinates":[[[3.88416479,50.96379857],[3.88423199,50.96376399],[3.88428322,50.96380563],[3.88421606,50.96383909],[3.88416479,50.96379857]]]}},{"type":"Feature","id":"gebouw/Gebouw.9192416/0","properties":{"source":"Digitaal Vlaanderen Gebouwenregister","source_id":"gebouw/Gebouw.9192416/0","kind":"building","height_m":6.44,"status":null},"geometry":{"type":"Polygon","coordinates":[[[3.87915282,50.9672257],[3.87914745,50.96719735],[3.87924731,50.96719107],[3.87925299,50.96721886],[3.87915282,50.9672257]]]}},{"type":"Feature","id":"gebouw/Gebouw.9192632/0","properties":{"source":"Digitaal Vlaanderen Gebouwenregister","source_id":"gebouw/Gebouw.9192632/0","kind":"building","height_m":5.72,"status":null},"geometry":{"type":"Polygon","coordinates":[[[3.88684172,50.96244767],[3.88757047,50.96208777],[3.88770311,50.96219488],[3.88764896,50.96222183],[3.88777941,50.9623281],[3.88715941,50.96263425],[3.88702959,50.96252939],[3.88697607,50.96255568],[3.88684172,50.96244767]]]}},{"type":"Feature","id":"gebouw/Gebouw.9192644/0","properties":{"source":"Digitaal Vlaanderen Gebouwenregister","source_id":"gebouw/Gebouw.9192644/0","kind":"building","height_m":9.32,"status":null},"geometry":{"type":"Polygon","coordinates":[[[3.88060631,50.96701225],[3.88071157,50.96696505],[3.88075255,50.96699834],[3.88065052,50.96704815],[3.88060631,50.96701225]]]}},{"type":"Feature","id":"gebouw/Gebouw.9192683/0","properties":{"source":"Digitaal Vlaanderen Gebouwenregister","source_id":"gebouw/Gebouw.9192683/0","kind":"building","height_m":7.16,"status":null},"geometry":{"type":"Polygon","coordinates":[[[3.88747419,50.96344125],[3.88740331,50.96338214],[3.88757282,50.96329896],[3.88764373,50.96335732],[3.88747419,50.96344125]]]}},{"type":"Feature","id":"gebouw/Gebouw.9575076/0","properties":{"source":"Digitaal Vlaanderen Gebouwenregister","source_id":"gebouw/Gebouw.9575076/0","kind":"building","height_m":5.0,"status":null},"geometry":{"type":"Polygon","coordinates":[[[3.88680923,50.96353126],[3.88679398,50.9635323],[3.88679913,50.96356777],[3.88671379,50.96357479],[3.886712,50.96356522],[3.88667704,50.96358105],[3.8865825,50.96350375],[3.88663723,50.96347707],[3.88665452,50.96349117],[3.88670237,50.96346812],[3.88669557,50.96343545],[3.88676004,50.96343009],[3.8867654,50.96345621],[3.88679363,50.96345394],[3.88680923,50.96353126]]]}},{"type":"Feature","id":"gebouw/Gebouw.9575079/0","properties":{"source":"Digitaal Vlaanderen Gebouwenregister","source_id":"gebouw/Gebouw.9575079/0","kind":"building","height_m":7.16,"status":null},"geometry":{"type":"Polygon","coordinates":[[[3.87987414,50.96674183],[3.87969281,50.96683216],[3.8796283,50.96677683],[3.87959254,50.96674771],[3.87977356,50.96665907],[3.87987414,50.96674183]]]}},{"type":"Feature","id":"gebouw/Gebouw.9689984/0","properties":{"source":"Digitaal Vlaanderen Gebouwenregister","source_id":"gebouw/Gebouw.9689984/0","kind":"building","height_m":7.16,"status":null},"geometry":{"type":"Polygon","coordinates":[[[3.88664729,50.96416401],[3.88636701,50.96430109],[3.8862519,50.96420849],[3.88627378,50.96419764],[3.88620331,50.96414097],[3.88624879,50.96411904],[3.88619709,50.96407711],[3.88634391,50.9640049],[3.88644901,50.96409044],[3.88651585,50.9640579],[3.88664729,50.96416401]]]}},{"type":"Feature","id":"gebouw/Gebouw.9731437/0","properties":{"source":"Digitaal Vlaanderen Gebouwenregister","source_id":"gebouw/Gebouw.9731437/0","kind":"building","height_m":6.44,"status":null},"geometry":{"type":"Polygon","coordinates":[[[3.88783754,50.96293184],[3.88776829,50.96296585],[3.88768608,50.9629003],[3.88772073,50.96288304],[3.88773588,50.96287549],[3.88774742,50.96286974],[3.88774035,50.9628641],[3.88780752,50.96283021],[3.88781458,50.96283582],[3.88782336,50.96283142],[3.88783392,50.96282611],[3.88786436,50.96281083],[3.88795643,50.96288458],[3.88795374,50.96289504],[3.8879437,50.96290334],[3.88788648,50.96293187],[3.88785836,50.96291037],[3.88782852,50.96292593],[3.88783754,50.96293184]]]}},{"type":"Feature","id":"gebouw/Gebouw.9731438/0","properties":{"source":"Digitaal Vlaanderen Gebouwenregister","source_id":"gebouw/Gebouw.9731438/0","kind":"building","height_m":7.16,"status":null},"geometry":{"type":"Polygon","coordinates":[[[3.87873074,50.96762366],[3.87884925,50.96759944],[3.87885677,50.96761545],[3.87891568,50.96760319],[3.87890699,50.96758655],[3.87891714,50.96758444],[3.87889693,50.96754575],[3.87879599,50.96756564],[3.87878414,50.96753609],[3.87875173,50.96748999],[3.87880827,50.96747438],[3.87882476,50.96749781],[3.87888742,50.96747994],[3.87889064,50.96748445],[3.87890938,50.96747907],[3.87890922,50.96747372],[3.87881611,50.96734447],[3.87881539,50.96734347],[3.87874217,50.96736464],[3.87873267,50.96736738],[3.87871005,50.9673371],[3.87870272,50.96732729],[3.87857338,50.96736096],[3.87869923,50.96754798],[3.87873074,50.96762366]]]}},{"type":"Feature","id":"gebouw/Gebouw.9737543/0","properties":{"source":"Digitaal Vlaanderen Gebouwenregister","source_id":"gebouw/Gebouw.9737543/0","kind":"building","height_m":7.88,"status":null},"geometry":{"type":"Polygon","coordinates":[[[3.88655254,50.96274177],[3.88666674,50.96283432],[3.88662187,50.9628564],[3.88666537,50.96289191],[3.88656705,50.96294017],[3.88640909,50.96281182],[3.88655254,50.96274177]]]}},{"type":"Feature","id":"gebouw/Gebouw.9737577/0","properties":{"source":"Digitaal Vlaanderen Gebouwenregister","source_id":"gebouw/Gebouw.9737577/0","kind":"building","height_m":7.16,"status":null},"geometry":{"type":"Polygon","coordinates":[[[3.87988598,50.96667528],[3.87987782,50.96667932],[3.87992932,50.9667219],[3.87991576,50.96672904],[3.87995017,50.96675812],[3.87991437,50.96677473],[3.87987414,50.96674183],[3.87977356,50.96665907],[3.87985497,50.96661914],[3.87990964,50.96666357],[3.8799009,50.96666789],[3.87989491,50.96667086],[3.87988598,50.96667528]]]}},{"type":"Feature","id":"gebouw/Gebouw.9745953/0","properties":{"source":"Digitaal Vlaanderen Gebouwenregister","source_id":"gebouw/Gebouw.9745953/0","kind":"building","height_m":5.0,"status":null},"geometry":{"type":"Polygon","coordinates":[[[3.88616877,50.96268098],[3.88615501,50.9626456],[3.88621286,50.96263543],[3.88622541,50.96267155],[3.88616877,50.96268098]]]}},{"type":"Feature","id":"gebouw/Gebouw.9745962/0","properties":{"source":"Digitaal Vlaanderen Gebouwenregister","source_id":"gebouw/Gebouw.9745962/0","kind":"building","height_m":6.44,"status":null},"geometry":{"type":"Polygon","coordinates":[[[3.88447671,50.96370259],[3.88441422,50.96373318],[3.88443442,50.96374939],[3.88431485,50.96380919],[3.88424444,50.96375421],[3.88425229,50.96374981],[3.88421144,50.96371766],[3.88431146,50.9636668],[3.88435527,50.96369898],[3.88436579,50.96369443],[3.88438682,50.9637111],[3.8844484,50.96368096],[3.88447434,50.96370077],[3.88447671,50.96370259]]]}},{"type":"Feature","id":"gebouw/Gebouw.9746176/0","properties":{"source":"Digitaal Vlaanderen Gebouwenregister","source_id":"gebouw/Gebouw.9746176/0","kind":"building","height_m":9.32,"status":null},"geometry":{"type":"Polygon","coordinates":[[[3.87900116,50.96743385],[3.8790072,50.96745121],[3.87890938,50.96747907],[3.87890922,50.96747372],[3.87881611,50.96734447],[3.87881539,50.96734347],[3.87889275,50.9673218],[3.87889306,50.96732223],[3.87893555,50.96738335],[3.87894728,50.96740021],[3.87898695,50.96739301],[3.87900116,50.96743385]]]}},{"type":"Feature","id":"gebouw/Gebouw.9761101/0","properties":{"source":"Digitaal Vlaanderen Gebouwenregister","source_id":"gebouw/Gebouw.9761101/0","kind":"building","height_m":5.0,"status":null},"geometry":{"type":"Polygon","coordinates":[[[3.87887261,50.96777711],[3.87885998,50.96774361],[3.87889724,50.96773788],[3.87890986,50.96777138],[3.87887261,50.96777711]]]}},{"type":"Feature","id":"gebouw/Gebouw.9761261/0","properties":{"source":"Digitaal Vlaanderen Gebouwenregister","source_id":"gebouw/Gebouw.9761261/0","kind":"building","height_m":9.32,"status":null},"geometry":{"type":"Polygon","coordinates":[[[3.88435571,50.9681527],[3.8842211,50.96829663],[3.88353716,50.96804182],[3.88307891,50.96787109],[3.88337721,50.96755272],[3.88342885,50.96757133],[3.8835824,50.96740892],[3.88372501,50.9674601],[3.88402696,50.96713839],[3.88497452,50.96749101],[3.88435571,50.9681527]]]}},{"type":"Feature","id":"gebouw/Gebouw.9761265/0","properties":{"source":"Digitaal Vlaanderen Gebouwenregister","source_id":"gebouw/Gebouw.9761265/0","kind":"building","height_m":7.16,"status":null},"geometry":{"type":"Polygon","coordinates":[[[3.87907418,50.96729668],[3.87907669,50.9673022],[3.87910778,50.96737178],[3.87908401,50.96737596],[3.87898695,50.96739301],[3.87895411,50.96731676],[3.87906641,50.96729668],[3.8790736,50.96729539],[3.87907418,50.96729668]]]}},{"type":"Feature","id":"gebouw/Gebouw.9761266/0","properties":{"source":"Digitaal Vlaanderen Gebouwenregister","source_id":"gebouw/Gebouw.9761266/0","kind":"building","height_m":7.88,"status":null},"geometry":{"type":"Polygon","coordinates":[[[3.8815922,50.96748039],[3.88149974,50.96748163],[3.88149647,50.96726669],[3.88148846,50.96726678],[3.88149583,50.96712978],[3.88164006,50.9671313],[3.88163817,50.96731842],[3.88159133,50.96731783],[3.8815922,50.96748039]]]}},{"type":"Feature","id":"gebouw/Gebouw.18142889/0","properties":{"source":"Digitaal Vlaanderen Gebouwenregister","source_id":"gebouw/Gebouw.18142889/0","kind":"building","height_m":6.44,"status":null},"geometry":{"type":"Polygon","coordinates":[[[3.88597302,50.96413368],[3.88600965,50.96415711],[3.88604378,50.96413271],[3.88600514,50.96411053],[3.88597302,50.96413368]]]}},{"type":"Feature","id":"gebouw/Gebouw.18362622/0","properties":{"source":"Digitaal Vlaanderen Gebouwenregister","source_id":"gebouw/Gebouw.18362622/0","kind":"building","height_m":8.6,"status":null},"geometry":{"type":"Polygon","coordinates":[[[3.87982238,50.96699348],[3.87975696,50.96702388],[3.87971842,50.96699033],[3.87978203,50.96696099],[3.87982238,50.96699348]]]}},{"type":"Feature","id":"gebouw/Gebouw.18362623/0","properties":{"source":"Digitaal Vlaanderen Gebouwenregister","source_id":"gebouw/Gebouw.18362623/0","kind":"building","height_m":9.32,"status":null},"geometry":{"type":"Polygon","coordinates":[[[3.88090643,50.96724641],[3.88096546,50.96724539],[3.88096788,50.96732654],[3.88090777,50.96732595],[3.88090643,50.96724641]]]}},{"type":"Feature","id":"gebouw/Gebouw.18627741/0","properties":{"source":"Digitaal Vlaanderen Gebouwenregister","source_id":"gebouw/Gebouw.18627741/0","kind":"building","height_m":9.32,"status":null},"geometry":{"type":"Polygon","coordinates":[[[3.87977461,50.9684324],[3.87945985,50.96842334],[3.87945288,50.9683695],[3.87917983,50.96838397],[3.87910545,50.96781683],[3.87916091,50.96781377],[3.87937611,50.96780188],[3.87937152,50.96774975],[3.87946109,50.96774481],[3.87945016,50.96766951],[3.87940275,50.96734294],[3.87962467,50.96733009],[3.87962553,50.96733004],[3.87966963,50.96766061],[3.87970148,50.96789483],[3.87977461,50.9684324]]]}},{"type":"Feature","id":"gebouw/Gebouw.18627742/0","properties":{"source":"Digitaal Vlaanderen Gebouwenregister","source_id":"gebouw/Gebouw.18627742/0","kind":"building","height_m":5.0,"status":null},"geometry":{"type":"Polygon","coordinates":[[[3.87921189,50.96744917],[3.87912739,50.96746646],[3.87908401,50.96737596],[3.87910778,50.96737178],[3.87907669,50.9673022],[3.8791468,50.96729605],[3.87922589,50.9674463],[3.87921189,50.96744917]]]}},{"type":"Feature","id":"gebouw/Gebouw.19524313/0","properties":{"source":"Digitaal Vlaanderen Gebouwenregister","source_id":"gebouw/Gebouw.19524313/0","kind":"building","height_m":7.88,"status":null},"geometry":{"type":"Polygon","coordinates":[[[3.88198734,50.96719748],[3.88198744,50.96722137],[3.88163915,50.96722195],[3.88163777,50.96722195],[3.88163795,50.96726653],[3.88149647,50.96726677],[3.88148846,50.96726678],[3.88149583,50.96712978],[3.88164006,50.9671313],[3.88163738,50.96717847],[3.88163959,50.96717846],[3.88177356,50.96717801],[3.88177367,50.96713379],[3.88177396,50.96713379],[3.88185888,50.96713326],[3.88185814,50.96705067],[3.88198673,50.96705032],[3.88198734,50.96719748]]]}},{"type":"Feature","id":"gebouw/Gebouw.19525196/0","properties":{"source":"Digitaal Vlaanderen Gebouwenregister","source_id":"gebouw/Gebouw.19525196/0","kind":"building","height_m":8.6,"status":null},"geometry":{"type":"Polygon","coordinates":[[[3.8776482,50.96361865],[3.87772002,50.96353052],[3.87768184,50.96351806],[3.87774864,50.96343815],[3.87765451,50.96339672],[3.87762316,50.96338293],[3.87756978,50.96343078],[3.87759216,50.96344073],[3.87760776,50.96344767],[3.87749006,50.96359159],[3.87753994,50.96360943],[3.8773456,50.96383521],[3.87745572,50.96387158],[3.87765366,50.96364472],[3.87763282,50.96363753],[3.8776482,50.96361865]]]}},{"type":"Feature","id":"gebouw/Gebouw.19525198/0","properties":{"source":"Digitaal Vlaanderen Gebouwenregister","source_id":"gebouw/Gebouw.19525198/0","kind":"building","height_m":5.0,"status":null},"geometry":{"type":"Polygon","coordinates":[[[3.87969421,50.96682992],[3.87969165,50.96683117],[3.8796501,50.96685151],[3.87958521,50.96679759],[3.8796283,50.96677683],[3.87959254,50.96674771],[3.87977356,50.96665907],[3.87987414,50.96674183],[3.87969421,50.96682992]]]}},{"type":"Feature","id":"gebouw/Gebouw.19525199/0","properties":{"source":"Digitaal Vlaanderen Gebouwenregister","source_id":"gebouw/Gebouw.19525199/0","kind":"building","height_m":5.72,"status":null},"geometry":{"type":"Polygon","coordinates":[[[3.88023378,50.96697315],[3.88015176,50.96689998],[3.88007055,50.96682753],[3.88003087,50.96679214],[3.87997018,50.96681879],[3.88001105,50.96685345],[3.87996563,50.96687406],[3.88009807,50.9669963],[3.88012028,50.96701679],[3.88023378,50.96697315]]]}},{"type":"Feature","id":"gebouw/Gebouw.19525425/0","properties":{"source":"Digitaal Vlaanderen Gebouwenregister","source_id":"gebouw/Gebouw.19525425/0","kind":"building","height_m":7.16,"status":null},"geometry":{"type":"Polygon","coordinates":[[[3.87939163,50.96717995],[3.8793913,50.9671801],[3.87936959,50.96716188],[3.87929225,50.967097],[3.87924803,50.96711909],[3.87921184,50.96708995],[3.87919924,50.96709599],[3.87918519,50.96709485],[3.87916097,50.96707557],[3.87916194,50.96707112],[3.87916291,50.96706667],[3.87922237,50.9670384],[3.87923142,50.96703403],[3.879221,50.96702586],[3.8792539,50.96700913],[3.87926104,50.96701472],[3.87928765,50.96700118],[3.87933917,50.96697497],[3.87942129,50.96704015],[3.87945371,50.96705684],[3.87948835,50.96703948],[3.87956038,50.96709973],[3.87954924,50.96710502],[3.87939163,50.96717995]]]}},{"type":"Feature","id":"gebouw/Gebouw.19525426/0","properties":{"source":"Digitaal Vlaanderen Gebouwenregister","source_id":"gebouw/Gebouw.19525426/0","kind":"building","height_m":7.88,"status":null},"geometry":{"type":"Polygon","coordinates":[[[3.87966654,50.9672062],[3.87955393,50.96721374],[3.87955437,50.96721641],[3.87954682,50.96721687],[3.87954638,50.96721425],[3.87944203,50.96722125],[3.8793913,50.9671801],[3.87939163,50.96717995],[3.87954924,50.96710502],[3.87966654,50.9672062]]]}},{"type":"Feature","id":"gebouw/Gebouw.20194263/0","properties":{"source":"Digitaal Vlaanderen Gebouwenregister","source_id":"gebouw/Gebouw.20194263/0","kind":"building","height_m":8.6,"status":null},"geometry":{"type":"Polygon","coordinates":[[[3.88654667,50.96237674],[3.88651938,50.96240402],[3.88648494,50.96239029],[3.88651221,50.96236299],[3.88654667,50.96237674]]]}},{"type":"Feature","id":"gebouw/Gebouw.30589970/0","properties":{"source":"Digitaal Vlaanderen Gebouwenregister","source_id":"gebouw/Gebouw.30589970/0","kind":"building","height_m":8.6,"status":null},"geometry":{"type":"Polygon","coordinates":[[[3.88019463,50.96742843],[3.8803477,50.96741158],[3.8803973,50.96759132],[3.88024423,50.96760817],[3.88019463,50.96742843]]]}},{"type":"Feature","id":"gebouw/Gebouw.31523518/0","properties":{"source":"Digitaal Vlaanderen Gebouwenregister","source_id":"gebouw/Gebouw.31523518/0","kind":"building","height_m":8.6,"status":null},"geometry":{"type":"Polygon","coordinates":[[[3.88653095,50.96385482],[3.88654466,50.96386585],[3.8865609,50.96385781],[3.88654719,50.96384676],[3.88653095,50.96385482]]]}},{"type":"Feature","id":"gebouw/Gebouw.31543485/0","properties":{"source":"Digitaal Vlaanderen Gebouwenregister","source_id":"gebouw/Gebouw.31543485/0","kind":"building","height_m":5.72,"status":null},"geometry":{"type":"Polygon","coordinates":[[[3.88556643,50.96390512],[3.88553792,50.96392033],[3.88556883,50.96394344],[3.88559735,50.96392822],[3.88556643,50.96390512]]]}},{"type":"Feature","id":"gebouw/Gebouw.31762374/0","properties":{"source":"Digitaal Vlaanderen Gebouwenregister","source_id":"gebouw/Gebouw.31762374/0","kind":"building","height_m":5.0,"status":null},"geometry":{"type":"Polygon","coordinates":[[[3.87752192,50.96340949],[3.87747254,50.96346484],[3.87754702,50.96349134],[3.87759216,50.96344073],[3.87756978,50.96343078],[3.87752192,50.96340949]]]}},{"type":"Feature","id":"way/175766483","properties":{"source":"OpenStreetMap","source_id":"way/175766483","kind":"vegetation","name":null,"waterway":null,"landuse":"forest"},"geometry":{"type":"Polygon","coordinates":[[[3.8802235,50.9686359],[3.8802017,50.9686678],[3.8801665,50.9686746],[3.8801414,50.968672],[3.8799139,50.968214],[3.8799692,50.9681465],[3.8800161,50.9681074],[3.880043,50.9680852],[3.8800765,50.9680514],[3.8801553,50.9680346],[3.880158,50.9680698],[3.8802235,50.9686359]]]}},{"type":"Feature","id":"way/175766705","properties":{"source":"OpenStreetMap","source_id":"way/175766705","kind":"water","name":null,"waterway":null,"landuse":null},"geometry":{"type":"Polygon","coordinates":[[[3.8840971,50.9678599],[3.8840644,50.9678445],[3.8840387,50.9678222],[3.8840248,50.9677955],[3.8840231,50.9677815],[3.8840264,50.9677621],[3.8840425,50.9677363],[3.8840729,50.9677134],[3.8841143,50.9676979],[3.8841461,50.9676928],[3.8841973,50.9676944],[3.8842361,50.9677041],[3.8842902,50.9677393],[3.8843057,50.9677699],[3.8843063,50.96779],[3.884294,50.9678187],[3.8842756,50.9678374],[3.8842372,50.9678583],[3.8842,50.967868],[3.8841472,50.9678701],[3.8841231,50.9678668],[3.8840971,50.9678599]]]}},{"type":"Feature","id":"way/175766706","properties":{"source":"OpenStreetMap","source_id":"way/175766706","kind":"water","name":null,"waterway":null,"landuse":null},"geometry":{"type":"Polygon","coordinates":[[[3.8840305,50.9677046],[3.8840055,50.9677104],[3.8839854,50.9677113],[3.8839564,50.9677073],[3.8839416,50.9677023],[3.8839215,50.9676905],[3.8839079,50.9676743],[3.8839037,50.967659],[3.8839052,50.9676474],[3.8839129,50.9676332],[3.883931,50.9676181],[3.8839498,50.9676097],[3.8839772,50.9676042],[3.8840053,50.9676047],[3.8840342,50.9676118],[3.8840539,50.9676224],[3.8840673,50.9676358],[3.8840736,50.9676493],[3.8840739,50.9676645],[3.8840648,50.9676825],[3.88405,50.9676953],[3.8840305,50.9677046]]]}},{"type":"Feature","id":"way/198164935","properties":{"source":"OpenStreetMap","source_id":"way/198164935","kind":"vegetation","name":null,"waterway":null,"landuse":"forest"},"geometry":{"type":"Polygon","coordinates":[[[3.8878661,50.9615515],[3.887222,50.9620801],[3.8856267,50.9633896],[3.8854196,50.9632349],[3.8843526,50.963818],[3.8845208,50.9639496],[3.8852458,50.9644659],[3.8855159,50.9643238],[3.8854485,50.9642843],[3.8852944,50.9643723],[3.8848321,50.963981],[3.88554,50.9635412],[3.8862429,50.9639675],[3.8864021,50.963884],[3.8861405,50.9637112],[3.8858145,50.9634957],[3.888102,50.9616121],[3.8878661,50.9615515]]]}},{"type":"Feature","id":"way/198164997","properties":{"source":"OpenStreetMap","source_id":"way/198164997","kind":"vegetation","name":null,"waterway":null,"landuse":"forest"},"geometry":{"type":"Polygon","coordinates":[[[3.8831742,50.9654791],[3.8830067,50.9655483],[3.8797094,50.962845],[3.8791241,50.9632859],[3.8790317,50.9632491],[3.8798745,50.9625575],[3.880043,50.9623816],[3.8805009,50.9621356],[3.8819742,50.9613442],[3.8812342,50.9607798],[3.8818643,50.9605718],[3.8824702,50.9610015],[3.8827544,50.9607922],[3.8837512,50.9612138],[3.8839463,50.9611583],[3.8842727,50.9610831],[3.8844047,50.9610438],[3.8847019,50.9612699],[3.8846953,50.9613311],[3.8822054,50.9621053],[3.8817388,50.9622661],[3.8812519,50.9623851],[3.8802925,50.962603],[3.879835,50.9627077],[3.8798778,50.962749],[3.8800311,50.9628905],[3.8831742,50.9654791]]]}},{"type":"Feature","id":"way/198165144","properties":{"source":"OpenStreetMap","source_id":"way/198165144","kind":"vegetation","name":null,"waterway":null,"landuse":"forest"},"geometry":{"type":"Polygon","coordinates":[[[3.8791268,50.9667043],[3.8791897,50.966678],[3.878778,50.9662064],[3.8785492,50.9659001],[3.8783277,50.9655664],[3.8782359,50.9655837],[3.8782599,50.9656686],[3.8786356,50.9661296],[3.8790786,50.9666634],[3.8791268,50.9667043]]]}},{"type":"Feature","id":"way/314905453","properties":{"source":"OpenStreetMap","source_id":"way/314905453","kind":"waterway","name":"Molenbeek","waterway":"stream","landuse":null},"geometry":{"type":"LineString","coordinates":[[3.8794131,50.9673633],[3.8795458,50.9675282]]}}]}