{"type":"FeatureCollection","features":[{"type":"Feature","id":"gebouw/Gebouw.9057158/0","properties":{"source":"Digitaal Vlaanderen Gebouwenregister","source_id":"gebouw/Gebouw.9057158/0","kind":"building","height_m":8.6,"status":null},"geometry":{"type":"Polygon","coordinates":[[[3.95686136,50.98381873],[3.95672432,50.98382748],[3.95670976,50.9837506],[3.95660345,50.98375756],[3.95658845,50.98366623],[3.95668034,50.98365961],[3.95667353,50.98361732],[3.9568766,50.98360327],[3.95687847,50.98361402],[3.95688775,50.98361876],[3.95688933,50.98362769],[3.95689091,50.98363666],[3.95688377,50.98364259],[3.95688547,50.98365332],[3.95683212,50.9836574],[3.95683996,50.98369831],[3.95684966,50.98369766],[3.95685728,50.98373964],[3.95684878,50.98374019],[3.95686136,50.98381873]]]}},{"type":"Feature","id":"gebouw/Gebouw.9057308/0","properties":{"source":"Digitaal Vlaanderen Gebouwenregister","source_id":"gebouw/Gebouw.9057308/0","kind":"building","height_m":5.72,"status":null},"geometry":{"type":"Polygon","coordinates":[[[3.95665311,50.98283515],[3.95665964,50.98286576],[3.95658072,50.9828759],[3.95657073,50.98284677],[3.95665311,50.98283515]]]}},{"type":"Feature","id":"gebouw/Gebouw.9100296/0","properties":{"source":"Digitaal Vlaanderen Gebouwenregister","source_id":"gebouw/Gebouw.9100296/0","kind":"building","height_m":6.44,"status":null},"geometry":{"type":"Polygon","coordinates":[[[3.95636612,50.9827545],[3.95660446,50.98272127],[3.95661344,50.98274966],[3.95637569,50.98278289],[3.95636612,50.9827545]]]}},{"type":"Feature","id":"gebouw/Gebouw.9100297/0","properties":{"source":"Digitaal Vlaanderen Gebouwenregister","source_id":"gebouw/Gebouw.9100297/0","kind":"building","height_m":7.16,"status":null},"geometry":{"type":"Polygon","coordinates":[[[3.95597612,50.98287121],[3.95604285,50.98286223],[3.95605298,50.98289176],[3.95598536,50.98290091],[3.95597612,50.98287121]]]}},{"type":"Feature","id":"gebouw/Gebouw.9127386/0","properties":{"source":"Digitaal Vlaanderen Gebouwenregister","source_id":"gebouw/Gebouw.9127386/0","kind":"building","height_m":6.44,"status":null},"geometry":{"type":"Polygon","coordinates":[[[3.95679991,50.98342407],[3.95686397,50.98341578],[3.95685535,50.98338682],[3.95698493,50.98337116],[3.9570045,50.98343568],[3.95694462,50.98344299],[3.9569505,50.98346314],[3.9568154,50.98347883],[3.95679991,50.98342407]]]}},{"type":"Feature","id":"gebouw/Gebouw.9134817/0","properties":{"source":"Digitaal Vlaanderen Gebouwenregister","source_id":"gebouw/Gebouw.9134817/0","kind":"building","height_m":9.32,"status":null},"geometry":{"type":"Polygon","coordinates":[[[3.95681476,50.98335659],[3.95677449,50.98336228],[3.95677345,50.98335908],[3.95676597,50.98333599],[3.95680649,50.98333046],[3.95681387,50.98335375],[3.95681476,50.98335659]]]}},{"type":"Feature","id":"gebouw/Gebouw.9155192/0","properties":{"source":"Digitaal Vlaanderen Gebouwenregister","source_id":"gebouw/Gebouw.9155192/0","kind":"building","height_m":7.88,"status":null},"geometry":{"type":"Polygon","coordinates":[[[3.95549182,50.98250066],[3.95531465,50.98252198],[3.95529041,50.98243833],[3.95546812,50.98241883],[3.95549182,50.98250066]]]}},{"type":"Feature","id":"gebouw/Gebouw.9155234/0","properties":{"source":"Digitaal Vlaanderen Gebouwenregister","source_id":"gebouw/Gebouw.9155234/0","kind":"building","height_m":7.88,"status":null},"geometry":{"type":"Polygon","coordinates":[[[3.95690244,50.98291944],[3.95666318,50.98294896],[3.95665619,50.98292378],[3.9566472,50.98289615],[3.95670823,50.98288917],[3.95675617,50.98288316],[3.95675369,50.98287314],[3.95688239,50.98285674],[3.95690233,50.98291909],[3.95690244,50.98291944]]]}},{"type":"Feature","id":"gebouw/Gebouw.9155803/0","properties":{"source":"Digitaal Vlaanderen Gebouwenregister","source_id":"gebouw/Gebouw.9155803/0","kind":"building","height_m":9.32,"status":null},"geometry":{"type":"Polygon","coordinates":[[[3.95684401,50.98249163],[3.95655412,50.98252474],[3.9565455,50.9824919],[3.95659521,50.98248629],[3.95659316,50.98247503],[3.9566929,50.98246362],[3.95670167,50.98245754],[3.9567261,50.98245445],[3.95673931,50.98246071],[3.95683221,50.98245017],[3.95684385,50.98249105],[3.95684401,50.98249163]]]}},{"type":"Feature","id":"gebouw/Gebouw.9155804/0","properties":{"source":"Digitaal Vlaanderen Gebouwenregister","source_id":"gebouw/Gebouw.9155804/0","kind":"building","height_m":5.0,"status":null},"geometry":{"type":"Polygon","coordinates":[[[3.95697398,50.98279952],[3.95685205,50.98281306],[3.95684422,50.98278321],[3.95670006,50.98280179],[3.9566707,50.98271227],[3.95692728,50.98267938],[3.95695605,50.98276259],[3.95696865,50.98276083],[3.95697853,50.98279902],[3.95697398,50.98279952]]]}},{"type":"Feature","id":"gebouw/Gebouw.9172253/0","properties":{"source":"Digitaal Vlaanderen Gebouwenregister","source_id":"gebouw/Gebouw.9172253/0","kind":"building","height_m":9.32,"status":null},"geometry":{"type":"Polygon","coordinates":[[[3.95638623,50.98280849],[3.956383,50.98279684],[3.95660642,50.98276681],[3.95661024,50.98277809],[3.95638623,50.98280849]]]}},{"type":"Feature","id":"gebouw/Gebouw.9192921/0","properties":{"source":"Digitaal Vlaanderen Gebouwenregister","source_id":"gebouw/Gebouw.9192921/0","kind":"building","height_m":7.16,"status":null},"geometry":{"type":"Polygon","coordinates":[[[3.95675028,50.98340217],[3.95663929,50.98341631],[3.95662875,50.98338286],[3.95674053,50.98336862],[3.95675028,50.98340217]]]}},{"type":"Feature","id":"gebouw/Gebouw.9192962/0","properties":{"source":"Digitaal Vlaanderen Gebouwenregister","source_id":"gebouw/Gebouw.9192962/0","kind":"building","height_m":6.44,"status":null},"geometry":{"type":"Polygon","coordinates":[[[3.95657073,50.98284677],[3.95642748,50.98286697],[3.95642013,50.98284709],[3.95664525,50.98281299],[3.95665311,50.98283515],[3.95657073,50.98284677]]]}},{"type":"Feature","id":"gebouw/Gebouw.9731785/0","properties":{"source":"Digitaal Vlaanderen Gebouwenregister","source_id":"gebouw/Gebouw.9731785/0","kind":"building","height_m":5.0,"status":null},"geometry":{"type":"Polygon","coordinates":[[[3.95655426,50.98346448],[3.95656896,50.98351036],[3.95652491,50.98351509],[3.9565102,50.9834696],[3.95655426,50.98346448]]]}},{"type":"Feature","id":"gebouw/Gebouw.20193936/0","properties":{"source":"Digitaal Vlaanderen Gebouwenregister","source_id":"gebouw/Gebouw.20193936/0","kind":"building","height_m":5.0,"status":null},"geometry":{"type":"Polygon","coordinates":[[[3.95598814,50.98251916],[3.95606874,50.98250995],[3.9560814,50.98255404],[3.9560008,50.98256326],[3.95598814,50.98251916]]]}},{"type":"Feature","id":"gebouw/Gebouw.20193937/0","properties":{"source":"Digitaal Vlaanderen Gebouwenregister","source_id":"gebouw/Gebouw.20193937/0","kind":"building","height_m":5.72,"status":null},"geometry":{"type":"Polygon","coordinates":[[[3.95583558,50.98258985],[3.9558228,50.98253441],[3.95582215,50.9825316],[3.95578319,50.98253518],[3.9557801,50.98252177],[3.95570766,50.98252843],[3.95571226,50.98254749],[3.95572491,50.98260001],[3.95583558,50.98258985]]]}},{"type":"Feature","id":"gebouw/Gebouw.31546464/0","properties":{"source":"Digitaal Vlaanderen Gebouwenregister","source_id":"gebouw/Gebouw.31546464/0","kind":"building","height_m":8.6,"status":null},"geometry":{"type":"Polygon","coordinates":[[[3.95747679,50.98263158],[3.95747632,50.98264512],[3.95749657,50.9826453],[3.95749703,50.98263177],[3.95747679,50.98263158]]]}},{"type":"Feature","id":"gebouw/Gebouw.31762599/0","properties":{"source":"Digitaal Vlaanderen Gebouwenregister","source_id":"gebouw/Gebouw.31762599/0","kind":"building","height_m":5.72,"status":null},"geometry":{"type":"Polygon","coordinates":[[[3.9574924,50.98261295],[3.95745565,50.98261233],[3.95745437,50.98264212],[3.9574714,50.98264241],[3.95749113,50.98264275],[3.9574922,50.9826177],[3.9574924,50.98261295]]]}}]}