{"type":"FeatureCollection","features":[{"type":"Feature","id":"gebouw/Gebouw.8499431/0","properties":{"source":"Digitaal Vlaanderen Gebouwenregister","source_id":"gebouw/Gebouw.8499431/0","kind":"building","height_m":7.16,"status":null},"geometry":{"type":"Polygon","coordinates":[[[3.92622258,50.95309176],[3.92610073,50.95308059],[3.92609808,50.9530903],[3.9258342,50.95306846],[3.92584055,50.95303205],[3.92584812,50.95298865],[3.92597712,50.95299878],[3.9259834,50.95297656],[3.92611593,50.95298749],[3.9261141,50.95299926],[3.92613097,50.9530004],[3.92613642,50.95291618],[3.92618654,50.95291583],[3.92618604,50.95285251],[3.92619192,50.95274338],[3.92634666,50.9527452],[3.92633813,50.95301482],[3.92624441,50.95301522],[3.92622258,50.95309176]]]}},{"type":"Feature","id":"gebouw/Gebouw.9040329/0","properties":{"source":"Digitaal Vlaanderen Gebouwenregister","source_id":"gebouw/Gebouw.9040329/0","kind":"building","height_m":7.88,"status":null},"geometry":{"type":"Polygon","coordinates":[[[3.9300826,50.95341024],[3.9301315,50.95342057],[3.9301018,50.95348278],[3.93005138,50.95347264],[3.9300826,50.95341024]]]}},{"type":"Feature","id":"gebouw/Gebouw.9040330/0","properties":{"source":"Digitaal Vlaanderen Gebouwenregister","source_id":"gebouw/Gebouw.9040330/0","kind":"building","height_m":8.6,"status":null},"geometry":{"type":"Polygon","coordinates":[[[3.9281623,50.95331488],[3.92820034,50.95332188],[3.92818521,50.95335242],[3.92818167,50.95335163],[3.92816483,50.9533799],[3.92814099,50.95337382],[3.92815781,50.95334629],[3.92814897,50.95334432],[3.9281623,50.95331488]]]}},{"type":"Feature","id":"gebouw/Gebouw.9040808/0","properties":{"source":"Digitaal Vlaanderen Gebouwenregister","source_id":"gebouw/Gebouw.9040808/0","kind":"building","height_m":5.0,"status":null},"geometry":{"type":"Polygon","coordinates":[[[3.93023223,50.95338482],[3.93022385,50.95340211],[3.93017324,50.95339259],[3.93021865,50.95330059],[3.93018317,50.95329393],[3.93022723,50.95320673],[3.93022894,50.95320335],[3.9303121,50.95322012],[3.93023223,50.95338482]]]}},{"type":"Feature","id":"gebouw/Gebouw.9048415/0","properties":{"source":"Digitaal Vlaanderen Gebouwenregister","source_id":"gebouw/Gebouw.9048415/0","kind":"building","height_m":8.6,"status":null},"geometry":{"type":"Polygon","coordinates":[[[3.92977744,50.95371293],[3.92984999,50.95372652],[3.92983739,50.95375147],[3.92976578,50.95373621],[3.92977744,50.95371293]]]}},{"type":"Feature","id":"gebouw/Gebouw.9048636/0","properties":{"source":"Digitaal Vlaanderen Gebouwenregister","source_id":"gebouw/Gebouw.9048636/0","kind":"building","height_m":6.44,"status":null},"geometry":{"type":"Polygon","coordinates":[[[3.92717745,50.95358374],[3.9272078,50.95352433],[3.92733889,50.95355104],[3.92730749,50.95361023],[3.92717745,50.95358374]]]}},{"type":"Feature","id":"gebouw/Gebouw.9048747/0","properties":{"source":"Digitaal Vlaanderen Gebouwenregister","source_id":"gebouw/Gebouw.9048747/0","kind":"building","height_m":5.72,"status":null},"geometry":{"type":"Polygon","coordinates":[[[3.9293103,50.95342275],[3.92925957,50.95341353],[3.92929283,50.95334144],[3.92935595,50.95335304],[3.9293426,50.95338323],[3.92933846,50.9533828],[3.92933052,50.95340088],[3.92932109,50.9533989],[3.9293103,50.95342275]]]}},{"type":"Feature","id":"gebouw/Gebouw.9048991/0","properties":{"source":"Digitaal Vlaanderen Gebouwenregister","source_id":"gebouw/Gebouw.9048991/0","kind":"building","height_m":5.0,"status":null},"geometry":{"type":"Polygon","coordinates":[[[3.93076188,50.9534937],[3.93084127,50.95350512],[3.93082774,50.95353305],[3.93075102,50.95352017],[3.93076188,50.9534937]]]}},{"type":"Feature","id":"gebouw/Gebouw.9049254/0","properties":{"source":"Digitaal Vlaanderen Gebouwenregister","source_id":"gebouw/Gebouw.9049254/0","kind":"building","height_m":7.88,"status":null},"geometry":{"type":"Polygon","coordinates":[[[3.92897854,50.95326901],[3.9289406,50.95333918],[3.92891931,50.95337751],[3.928876,50.95336783],[3.92889577,50.95333079],[3.9288884,50.95332939],[3.92892841,50.95325943],[3.92897854,50.95326901]]]}},{"type":"Feature","id":"gebouw/Gebouw.9057235/0","properties":{"source":"Digitaal Vlaanderen Gebouwenregister","source_id":"gebouw/Gebouw.9057235/0","kind":"building","height_m":8.6,"status":null},"geometry":{"type":"Polygon","coordinates":[[[3.92819464,50.95363687],[3.92824762,50.95365022],[3.92822852,50.95368465],[3.92817612,50.95367167],[3.92819464,50.95363687]]]}},{"type":"Feature","id":"gebouw/Gebouw.9057290/0","properties":{"source":"Digitaal Vlaanderen Gebouwenregister","source_id":"gebouw/Gebouw.9057290/0","kind":"building","height_m":7.88,"status":null},"geometry":{"type":"Polygon","coordinates":[[[3.93110751,50.95386306],[3.93108444,50.95391213],[3.93091472,50.9538803],[3.93093999,50.95382865],[3.93105385,50.95385203],[3.93108302,50.95385803],[3.93110751,50.95386306]]]}},{"type":"Feature","id":"gebouw/Gebouw.9057291/0","properties":{"source":"Digitaal Vlaanderen Gebouwenregister","source_id":"gebouw/Gebouw.9057291/0","kind":"building","height_m":8.6,"status":null},"geometry":{"type":"Polygon","coordinates":[[[3.93107919,50.95379971],[3.93105385,50.95385203],[3.93093999,50.95382865],[3.93096505,50.95377743],[3.93107919,50.95379971]]]}},{"type":"Feature","id":"gebouw/Gebouw.9057293/0","properties":{"source":"Digitaal Vlaanderen Gebouwenregister","source_id":"gebouw/Gebouw.9057293/0","kind":"building","height_m":5.0,"status":null},"geometry":{"type":"Polygon","coordinates":[[[3.9308641,50.95398311],[3.93088927,50.95393199],[3.93100278,50.95395505],[3.93103758,50.95396145],[3.93101306,50.95401155],[3.9308641,50.95398311]]]}},{"type":"Feature","id":"gebouw/Gebouw.9057294/0","properties":{"source":"Digitaal Vlaanderen Gebouwenregister","source_id":"gebouw/Gebouw.9057294/0","kind":"building","height_m":5.72,"status":null},"geometry":{"type":"Polygon","coordinates":[[[3.93101829,50.95401255],[3.93099369,50.95406246],[3.93095382,50.95405455],[3.93083898,50.9540347],[3.9308641,50.95398311],[3.93101306,50.95401155],[3.93101829,50.95401255]]]}},{"type":"Feature","id":"gebouw/Gebouw.9057718/0","properties":{"source":"Digitaal Vlaanderen Gebouwenregister","source_id":"gebouw/Gebouw.9057718/0","kind":"building","height_m":8.6,"status":null},"geometry":{"type":"Polygon","coordinates":[[[3.92800142,50.95227675],[3.92799162,50.95228175],[3.92790567,50.95225792],[3.92790167,50.95225029],[3.92786457,50.95224124],[3.92785497,50.95224487],[3.92784472,50.95224224],[3.92778333,50.95233419],[3.92785312,50.95235278],[3.9278619,50.95233969],[3.92794197,50.95235994],[3.9279176,50.95239898],[3.92800567,50.9524213],[3.92808008,50.95230419],[3.92804095,50.95229351],[3.92803614,50.95228577],[3.92800142,50.95227675]]]}},{"type":"Feature","id":"gebouw/Gebouw.9057726/0","properties":{"source":"Digitaal Vlaanderen Gebouwenregister","source_id":"gebouw/Gebouw.9057726/0","kind":"building","height_m":9.32,"status":null},"geometry":{"type":"Polygon","coordinates":[[[3.93070485,50.95385093],[3.93068019,50.9539018],[3.93051569,50.95387238],[3.93047076,50.95386434],[3.93051086,50.9537857],[3.93066347,50.95381356],[3.93066286,50.9538149],[3.93065123,50.95384046],[3.93070485,50.95385093]]]}},{"type":"Feature","id":"gebouw/Gebouw.9057745/0","properties":{"source":"Digitaal Vlaanderen Gebouwenregister","source_id":"gebouw/Gebouw.9057745/0","kind":"building","height_m":7.88,"status":null},"geometry":{"type":"Polygon","coordinates":[[[3.92987163,50.95383766],[3.9298816,50.95381136],[3.92993769,50.95381989],[3.92992769,50.9538473],[3.92987163,50.95383766]]]}},{"type":"Feature","id":"gebouw/Gebouw.9069411/0","properties":{"source":"Digitaal Vlaanderen Gebouwenregister","source_id":"gebouw/Gebouw.9069411/0","kind":"building","height_m":5.72,"status":null},"geometry":{"type":"Polygon","coordinates":[[[3.92921852,50.95359961],[3.92923508,50.95357077],[3.92937741,50.95360147],[3.92936203,50.95363033],[3.92921852,50.95359961]]]}},{"type":"Feature","id":"gebouw/Gebouw.9070119/0","properties":{"source":"Digitaal Vlaanderen Gebouwenregister","source_id":"gebouw/Gebouw.9070119/0","kind":"building","height_m":6.44,"status":null},"geometry":{"type":"Polygon","coordinates":[[[3.92993322,50.95370482],[3.92989844,50.95377316],[3.92984481,50.95376129],[3.92987939,50.95369464],[3.92993322,50.95370482]]]}},{"type":"Feature","id":"gebouw/Gebouw.9100669/0","properties":{"source":"Digitaal Vlaanderen Gebouwenregister","source_id":"gebouw/Gebouw.9100669/0","kind":"building","height_m":7.88,"status":null},"geometry":{"type":"Polygon","coordinates":[[[3.92753135,50.95271453],[3.92746243,50.95270076],[3.92749418,50.95263978],[3.92757044,50.95265561],[3.92756786,50.95266061],[3.92762557,50.95267222],[3.92763438,50.95265534],[3.92772999,50.95267529],[3.9276721,50.95278657],[3.9275751,50.95276643],[3.92759156,50.95273416],[3.92752804,50.95272151],[3.92753135,50.95271453]]]}},{"type":"Feature","id":"gebouw/Gebouw.9100679/0","properties":{"source":"Digitaal Vlaanderen Gebouwenregister","source_id":"gebouw/Gebouw.9100679/0","kind":"building","height_m":5.0,"status":null},"geometry":{"type":"Polygon","coordinates":[[[3.92882474,50.95319537],[3.92888713,50.95307931],[3.92899653,50.95310276],[3.92896188,50.95316571],[3.9289846,50.95317072],[3.92896387,50.9532082],[3.92889973,50.95319597],[3.92889251,50.95320956],[3.92882474,50.95319537]]]}},{"type":"Feature","id":"gebouw/Gebouw.9100680/0","properties":{"source":"Digitaal Vlaanderen Gebouwenregister","source_id":"gebouw/Gebouw.9100680/0","kind":"building","height_m":5.72,"status":null},"geometry":{"type":"Polygon","coordinates":[[[3.92869915,50.95263715],[3.92863351,50.95261996],[3.92864191,50.952607],[3.92860385,50.95259716],[3.92860188,50.95260015],[3.92853502,50.95258257],[3.92859687,50.95248872],[3.92876678,50.95253413],[3.92869915,50.95263715]]]}},{"type":"Feature","id":"gebouw/Gebouw.9100746/0","properties":{"source":"Digitaal Vlaanderen Gebouwenregister","source_id":"gebouw/Gebouw.9100746/0","kind":"building","height_m":7.88,"status":null},"geometry":{"type":"Polygon","coordinates":[[[3.92647641,50.95388762],[3.92651235,50.95385545],[3.9265481,50.9538701],[3.92651273,50.95390303],[3.92647641,50.95388762]]]}},{"type":"Feature","id":"gebouw/Gebouw.9100747/0","properties":{"source":"Digitaal Vlaanderen Gebouwenregister","source_id":"gebouw/Gebouw.9100747/0","kind":"building","height_m":8.6,"status":null},"geometry":{"type":"Polygon","coordinates":[[[3.92687221,50.95365925],[3.92693591,50.95367124],[3.92691262,50.95371704],[3.92683747,50.95370174],[3.92685572,50.95366598],[3.92686754,50.95366839],[3.92687221,50.95365925]]]}},{"type":"Feature","id":"gebouw/Gebouw.9101136/0","properties":{"source":"Digitaal Vlaanderen Gebouwenregister","source_id":"gebouw/Gebouw.9101136/0","kind":"building","height_m":6.44,"status":null},"geometry":{"type":"Polygon","coordinates":[[[3.93084529,50.95332772],[3.9307892,50.95344176],[3.93069742,50.95342473],[3.93077007,50.95328822],[3.9308573,50.95330331],[3.93084529,50.95332772]]]}},{"type":"Feature","id":"gebouw/Gebouw.9101137/0","properties":{"source":"Digitaal Vlaanderen Gebouwenregister","source_id":"gebouw/Gebouw.9101137/0","kind":"building","height_m":7.16,"status":null},"geometry":{"type":"Polygon","coordinates":[[[3.93062662,50.95298682],[3.93067066,50.95296961],[3.93069793,50.95299781],[3.93074908,50.9530057],[3.93070554,50.9531204],[3.9306445,50.95311115],[3.9306305,50.95311695],[3.93059808,50.95311178],[3.93058913,50.95310219],[3.93052824,50.95309257],[3.93057336,50.95297862],[3.93062662,50.95298682]]]}},{"type":"Feature","id":"gebouw/Gebouw.9101164/0","properties":{"source":"Digitaal Vlaanderen Gebouwenregister","source_id":"gebouw/Gebouw.9101164/0","kind":"building","height_m":6.44,"status":null},"geometry":{"type":"Polygon","coordinates":[[[3.93060468,50.95405691],[3.93048642,50.9540312],[3.93051047,50.95398059],[3.93063048,50.95400388],[3.93060468,50.95405691]]]}},{"type":"Feature","id":"gebouw/Gebouw.9125379/0","properties":{"source":"Digitaal Vlaanderen Gebouwenregister","source_id":"gebouw/Gebouw.9125379/0","kind":"building","height_m":7.88,"status":null},"geometry":{"type":"Polygon","coordinates":[[[3.93045824,50.95361414],[3.93032241,50.95390756],[3.93021895,50.95389623],[3.93022704,50.95387946],[3.93024958,50.95383272],[3.93035709,50.95359479],[3.93045824,50.95361414]]]}},{"type":"Feature","id":"gebouw/Gebouw.9127592/0","properties":{"source":"Digitaal Vlaanderen Gebouwenregister","source_id":"gebouw/Gebouw.9127592/0","kind":"building","height_m":8.6,"status":null},"geometry":{"type":"Polygon","coordinates":[[[3.92718032,50.95315545],[3.92718058,50.95311631],[3.92723484,50.95311639],[3.92723429,50.95315534],[3.92718032,50.95315545]]]}},{"type":"Feature","id":"gebouw/Gebouw.9127593/0","properties":{"source":"Digitaal Vlaanderen Gebouwenregister","source_id":"gebouw/Gebouw.9127593/0","kind":"building","height_m":9.32,"status":null},"geometry":{"type":"Polygon","coordinates":[[[3.92569463,50.95300482],[3.92559238,50.95299276],[3.92560059,50.95296729],[3.92565603,50.95279515],[3.92563329,50.95279207],[3.925632,50.95279543],[3.92551442,50.95278056],[3.92555673,50.95264264],[3.925576,50.95263275],[3.9257049,50.95264905],[3.92581117,50.95266248],[3.92576108,50.95281287],[3.92575694,50.95281244],[3.92569463,50.95300482]]]}},{"type":"Feature","id":"gebouw/Gebouw.9132211/0","properties":{"source":"Digitaal Vlaanderen Gebouwenregister","source_id":"gebouw/Gebouw.9132211/0","kind":"building","height_m":7.88,"status":null},"geometry":{"type":"Polygon","coordinates":[[[3.9275239,50.9534286],[3.92758593,50.95331231],[3.92773879,50.95334438],[3.92771875,50.9533825],[3.92771358,50.95338154],[3.9277015,50.9534055],[3.92772062,50.95340952],[3.92769203,50.95346388],[3.9275239,50.9534286]]]}},{"type":"Feature","id":"gebouw/Gebouw.9132212/0","properties":{"source":"Digitaal Vlaanderen Gebouwenregister","source_id":"gebouw/Gebouw.9132212/0","kind":"building","height_m":8.6,"status":null},"geometry":{"type":"Polygon","coordinates":[[[3.9275399,50.9540197],[3.92756167,50.95398574],[3.92760777,50.95399753],[3.92759071,50.95402537],[3.92757864,50.95402242],[3.92757478,50.95402861],[3.9275399,50.9540197]]]}},{"type":"Feature","id":"gebouw/Gebouw.9134726/0","properties":{"source":"Digitaal Vlaanderen Gebouwenregister","source_id":"gebouw/Gebouw.9134726/0","kind":"building","height_m":9.32,"status":null},"geometry":{"type":"Polygon","coordinates":[[[3.93078005,50.95369632],[3.93075644,50.95374784],[3.93054911,50.95370827],[3.93059294,50.95361983],[3.93074029,50.95365527],[3.93073935,50.95365719],[3.93072543,50.95368552],[3.93078005,50.95369632]]]}},{"type":"Feature","id":"gebouw/Gebouw.9134727/0","properties":{"source":"Digitaal Vlaanderen Gebouwenregister","source_id":"gebouw/Gebouw.9134727/0","kind":"building","height_m":5.0,"status":null},"geometry":{"type":"Polygon","coordinates":[[[3.92831241,50.95290943],[3.92829027,50.95294995],[3.92823612,50.95293842],[3.92828305,50.95285044],[3.92828412,50.95284843],[3.92828897,50.95284944],[3.92828863,50.95285029],[3.92831973,50.95285699],[3.92834959,50.95280363],[3.92839243,50.95281273],[3.92847399,50.95283117],[3.92843065,50.95291026],[3.92841482,50.95293914],[3.92833665,50.95292189],[3.92834166,50.95291296],[3.92829954,50.95290329],[3.92829797,50.95290608],[3.92831241,50.95290943]]]}},{"type":"Feature","id":"gebouw/Gebouw.9134730/0","properties":{"source":"Digitaal Vlaanderen Gebouwenregister","source_id":"gebouw/Gebouw.9134730/0","kind":"building","height_m":7.16,"status":null},"geometry":{"type":"Polygon","coordinates":[[[3.92990433,50.95314494],[3.92980652,50.95333982],[3.92974784,50.95332748],[3.9297837,50.95325747],[3.9297548,50.95325189],[3.92977745,50.95320757],[3.92972776,50.95319839],[3.92976788,50.95311699],[3.92990433,50.95314494]]]}},{"type":"Feature","id":"gebouw/Gebouw.9155325/0","properties":{"source":"Digitaal Vlaanderen Gebouwenregister","source_id":"gebouw/Gebouw.9155325/0","kind":"building","height_m":7.88,"status":null},"geometry":{"type":"Polygon","coordinates":[[[3.93073001,50.95379868],[3.93067506,50.95378805],[3.93066347,50.95381356],[3.93051086,50.9537857],[3.93054911,50.95370827],[3.93075644,50.95374784],[3.93073001,50.95379868]]]}},{"type":"Feature","id":"gebouw/Gebouw.9155326/0","properties":{"source":"Digitaal Vlaanderen Gebouwenregister","source_id":"gebouw/Gebouw.9155326/0","kind":"building","height_m":8.6,"status":null},"geometry":{"type":"Polygon","coordinates":[[[3.93060814,50.95327604],[3.93048038,50.95354909],[3.9303538,50.95352562],[3.93046681,50.95327821],[3.93054139,50.9532918],[3.93055364,50.9532659],[3.93055366,50.95326586],[3.93060814,50.95327604]]]}},{"type":"Feature","id":"gebouw/Gebouw.9155327/0","properties":{"source":"Digitaal Vlaanderen Gebouwenregister","source_id":"gebouw/Gebouw.9155327/0","kind":"building","height_m":9.32,"status":null},"geometry":{"type":"Polygon","coordinates":[[[3.93069742,50.95342473],[3.93077007,50.95328822],[3.93069185,50.95327432],[3.93063069,50.95326335],[3.93062369,50.95327893],[3.93058524,50.95336026],[3.9306398,50.95336902],[3.93061248,50.95343126],[3.93055595,50.95342218],[3.93054116,50.95345346],[3.93054546,50.95345423],[3.93059374,50.95346288],[3.93060615,50.9534651],[3.93066986,50.95347651],[3.93068739,50.95343495],[3.93069742,50.95342473]]]}},{"type":"Feature","id":"gebouw/Gebouw.9155328/0","properties":{"source":"Digitaal Vlaanderen Gebouwenregister","source_id":"gebouw/Gebouw.9155328/0","kind":"building","height_m":5.0,"status":null},"geometry":{"type":"Polygon","coordinates":[[[3.92862011,50.95313481],[3.92857442,50.95312547],[3.92859497,50.9530876],[3.92860725,50.95306496],[3.92866422,50.95295996],[3.92870682,50.95288142],[3.92879538,50.95290077],[3.92875217,50.95297967],[3.92869942,50.95296885],[3.92867107,50.95301553],[3.92875707,50.95303565],[3.92875304,50.95304141],[3.92876422,50.9530438],[3.92880402,50.95305231],[3.9287755,50.95310461],[3.92873426,50.95309575],[3.92867501,50.95308301],[3.92865217,50.95312376],[3.92866807,50.9531277],[3.9286646,50.95313459],[3.92862483,50.95312569],[3.92862011,50.95313481]]]}},{"type":"Feature","id":"gebouw/Gebouw.9155385/0","properties":{"source":"Digitaal Vlaanderen Gebouwenregister","source_id":"gebouw/Gebouw.9155385/0","kind":"building","height_m":5.72,"status":null},"geometry":{"type":"Polygon","coordinates":[[[3.93049961,50.95365958],[3.93048245,50.95369555],[3.93048549,50.95369612],[3.9304703,50.95372854],[3.93042132,50.9537201],[3.93043643,50.95368676],[3.9304524,50.95365153],[3.93049961,50.95365958]]]}},{"type":"Feature","id":"gebouw/Gebouw.9171993/0","properties":{"source":"Digitaal Vlaanderen Gebouwenregister","source_id":"gebouw/Gebouw.9171993/0","kind":"building","height_m":8.6,"status":null},"geometry":{"type":"Polygon","coordinates":[[[3.93088451,50.9533083],[3.93094307,50.95331904],[3.9309339,50.95333948],[3.93093935,50.9533406],[3.93097297,50.95338771],[3.93098568,50.95340551],[3.93098265,50.95340993],[3.93094108,50.95347043],[3.9307892,50.95344176],[3.93084529,50.95332772],[3.9308573,50.95330331],[3.93088451,50.9533083]]]}},{"type":"Feature","id":"gebouw/Gebouw.9172212/0","properties":{"source":"Digitaal Vlaanderen Gebouwenregister","source_id":"gebouw/Gebouw.9172212/0","kind":"building","height_m":5.0,"status":null},"geometry":{"type":"Polygon","coordinates":[[[3.92973263,50.95351217],[3.92978114,50.95352641],[3.92976352,50.95355074],[3.92971444,50.95353575],[3.92973263,50.95351217]]]}},{"type":"Feature","id":"gebouw/Gebouw.9172322/0","properties":{"source":"Digitaal Vlaanderen Gebouwenregister","source_id":"gebouw/Gebouw.9172322/0","kind":"building","height_m":8.6,"status":null},"geometry":{"type":"Polygon","coordinates":[[[3.92828193,50.95366462],[3.92832977,50.95367418],[3.92828827,50.95375704],[3.92827095,50.95375534],[3.92823516,50.95374819],[3.92823778,50.95374295],[3.92827747,50.95366373],[3.92828193,50.95366462]]]}},{"type":"Feature","id":"gebouw/Gebouw.9172840/0","properties":{"source":"Digitaal Vlaanderen Gebouwenregister","source_id":"gebouw/Gebouw.9172840/0","kind":"building","height_m":8.6,"status":null},"geometry":{"type":"Polygon","coordinates":[[[3.92754359,50.95322474],[3.92756436,50.95318506],[3.92760649,50.95319436],[3.92764734,50.95311617],[3.92769155,50.95312531],[3.92769248,50.95312339],[3.9278193,50.9531499],[3.92777291,50.95323846],[3.9278064,50.95324553],[3.92779036,50.95327621],[3.92754359,50.95322474]]]}},{"type":"Feature","id":"gebouw/Gebouw.9172841/0","properties":{"source":"Digitaal Vlaanderen Gebouwenregister","source_id":"gebouw/Gebouw.9172841/0","kind":"building","height_m":9.32,"status":null},"geometry":{"type":"Polygon","coordinates":[[[3.93020892,50.95283005],[3.93013818,50.9529807],[3.930016,50.9529578],[3.93004779,50.95288854],[3.93002416,50.95288386],[3.93006399,50.95280357],[3.93020892,50.95283005]]]}},{"type":"Feature","id":"gebouw/Gebouw.9172937/0","properties":{"source":"Digitaal Vlaanderen Gebouwenregister","source_id":"gebouw/Gebouw.9172937/0","kind":"building","height_m":7.88,"status":null},"geometry":{"type":"Polygon","coordinates":[[[3.92661042,50.95383843],[3.92660695,50.95383244],[3.92656555,50.95384207],[3.92655289,50.95381671],[3.92659171,50.95380619],[3.92658897,50.95380146],[3.92663736,50.95378967],[3.9266579,50.95382719],[3.92661042,50.95383843]]]}},{"type":"Feature","id":"gebouw/Gebouw.9172938/0","properties":{"source":"Digitaal Vlaanderen Gebouwenregister","source_id":"gebouw/Gebouw.9172938/0","kind":"building","height_m":8.6,"status":null},"geometry":{"type":"Polygon","coordinates":[[[3.92558003,50.95258653],[3.9254731,50.95259276],[3.92545021,50.95247393],[3.92548808,50.95238615],[3.92558307,50.952403],[3.92555394,50.9524759],[3.92556315,50.95247507],[3.92558003,50.95258653]]]}},{"type":"Feature","id":"gebouw/Gebouw.9192324/0","properties":{"source":"Digitaal Vlaanderen Gebouwenregister","source_id":"gebouw/Gebouw.9192324/0","kind":"building","height_m":5.72,"status":null},"geometry":{"type":"Polygon","coordinates":[[[3.92860725,50.95306496],[3.92859497,50.9530876],[3.92856421,50.95307946],[3.9285764,50.95305807],[3.92860725,50.95306496]]]}},{"type":"Feature","id":"gebouw/Gebouw.9192328/0","properties":{"source":"Digitaal Vlaanderen Gebouwenregister","source_id":"gebouw/Gebouw.9192328/0","kind":"building","height_m":8.6,"status":null},"geometry":{"type":"Polygon","coordinates":[[[3.93017885,50.95355659],[3.93015093,50.95355097],[3.93013881,50.95357521],[3.93001785,50.95381784],[3.92999261,50.95386848],[3.93021895,50.95389623],[3.93022704,50.95387946],[3.93024958,50.95383272],[3.93023124,50.953831],[3.93033269,50.9536181],[3.93021265,50.95359729],[3.93017885,50.95355659]]]}},{"type":"Feature","id":"gebouw/Gebouw.9192329/0","properties":{"source":"Digitaal Vlaanderen Gebouwenregister","source_id":"gebouw/Gebouw.9192329/0","kind":"building","height_m":9.32,"status":null},"geometry":{"type":"Polygon","coordinates":[[[3.93101308,50.95305311],[3.93096559,50.95304461],[3.93097319,50.95302822],[3.93092026,50.95302012],[3.93091622,50.9530195],[3.9309027,50.95304901],[3.93086299,50.95313576],[3.93088663,50.95313828],[3.9308772,50.95315653],[3.9309693,50.95317109],[3.93102164,50.95305464],[3.93101308,50.95305311]]]}},{"type":"Feature","id":"gebouw/Gebouw.9419581/0","properties":{"source":"Digitaal Vlaanderen Gebouwenregister","source_id":"gebouw/Gebouw.9419581/0","kind":"building","height_m":7.16,"status":null},"geometry":{"type":"Polygon","coordinates":[[[3.93097212,50.95294354],[3.93098243,50.95294573],[3.93094284,50.95301176],[3.93092588,50.95300785],[3.9308542,50.95299134],[3.9308459,50.95298942],[3.93088389,50.95292683],[3.93088791,50.95292308],[3.93097212,50.95294354]]]}},{"type":"Feature","id":"gebouw/Gebouw.9462372/0","properties":{"source":"Digitaal Vlaanderen Gebouwenregister","source_id":"gebouw/Gebouw.9462372/0","kind":"building","height_m":7.16,"status":null},"geometry":{"type":"Polygon","coordinates":[[[3.92954401,50.95318966],[3.92953077,50.95321648],[3.92951506,50.95324627],[3.92945463,50.95323413],[3.92946848,50.95320695],[3.92944902,50.95320297],[3.92944838,50.95320447],[3.92936533,50.95318764],[3.92942633,50.95306614],[3.92958258,50.95309805],[3.92959206,50.95310949],[3.92955029,50.95319078],[3.92954401,50.95318966]]]}},{"type":"Feature","id":"gebouw/Gebouw.9462413/0","properties":{"source":"Digitaal Vlaanderen Gebouwenregister","source_id":"gebouw/Gebouw.9462413/0","kind":"building","height_m":6.44,"status":null},"geometry":{"type":"Polygon","coordinates":[[[3.92705075,50.95331595],[3.92711887,50.95332893],[3.92710254,50.95335983],[3.92703564,50.95334575],[3.92705075,50.95331595]]]}},{"type":"Feature","id":"gebouw/Gebouw.9462426/0","properties":{"source":"Digitaal Vlaanderen Gebouwenregister","source_id":"gebouw/Gebouw.9462426/0","kind":"building","height_m":5.72,"status":null},"geometry":{"type":"Polygon","coordinates":[[[3.92985394,50.95287891],[3.92977142,50.95285713],[3.92978743,50.95283238],[3.92965465,50.95279791],[3.92965242,50.95280105],[3.92965036,50.95280046],[3.92970736,50.95271429],[3.92978877,50.95273657],[3.92979748,50.95273311],[3.92980877,50.95273212],[3.92982294,50.95273453],[3.9298311,50.95273912],[3.92983629,50.95274443],[3.92983793,50.95274895],[3.92983715,50.95275009],[3.92992382,50.95277288],[3.92985394,50.95287891]]]}},{"type":"Feature","id":"gebouw/Gebouw.9462427/0","properties":{"source":"Digitaal Vlaanderen Gebouwenregister","source_id":"gebouw/Gebouw.9462427/0","kind":"building","height_m":6.44,"status":null},"geometry":{"type":"Polygon","coordinates":[[[3.93037685,50.95323305],[3.9304068,50.95323903],[3.93031591,50.95342067],[3.9302663,50.95351981],[3.93017568,50.95350144],[3.93020798,50.95343484],[3.93022385,50.95340211],[3.9303121,50.95322012],[3.93034232,50.95322595],[3.9303465,50.95321694],[3.93034365,50.95321635],[3.93034491,50.95321404],[3.93038561,50.95322223],[3.93038451,50.95322451],[3.93038149,50.95322395],[3.93037685,50.95323305]]]}},{"type":"Feature","id":"gebouw/Gebouw.9475620/0","properties":{"source":"Digitaal Vlaanderen Gebouwenregister","source_id":"gebouw/Gebouw.9475620/0","kind":"building","height_m":5.0,"status":null},"geometry":{"type":"Polygon","coordinates":[[[3.93091025,50.95155638],[3.93092766,50.9515341],[3.93108845,50.95158225],[3.9310721,50.95160397],[3.93091025,50.95155638]]]}},{"type":"Feature","id":"gebouw/Gebouw.9475621/0","properties":{"source":"Digitaal Vlaanderen Gebouwenregister","source_id":"gebouw/Gebouw.9475621/0","kind":"building","height_m":5.72,"status":null},"geometry":{"type":"Polygon","coordinates":[[[3.92899783,50.95224479],[3.9289531,50.95223303],[3.92897976,50.95219363],[3.9290254,50.95220447],[3.92901828,50.95221469],[3.92904418,50.95222136],[3.92903023,50.95224199],[3.92900493,50.95223532],[3.92899783,50.95224479]]]}},{"type":"Feature","id":"gebouw/Gebouw.9487532/0","properties":{"source":"Digitaal Vlaanderen Gebouwenregister","source_id":"gebouw/Gebouw.9487532/0","kind":"building","height_m":8.6,"status":null},"geometry":{"type":"Polygon","coordinates":[[[3.93017568,50.95350144],[3.93014239,50.95349412],[3.93017397,50.95342856],[3.93020798,50.95343484],[3.93017568,50.95350144]]]}},{"type":"Feature","id":"gebouw/Gebouw.9494195/0","properties":{"source":"Digitaal Vlaanderen Gebouwenregister","source_id":"gebouw/Gebouw.9494195/0","kind":"building","height_m":7.88,"status":null},"geometry":{"type":"Polygon","coordinates":[[[3.92759307,50.95365107],[3.92738015,50.95360597],[3.92739252,50.95358276],[3.92735713,50.95357635],[3.92740861,50.95348007],[3.92762503,50.95352527],[3.92762091,50.95353313],[3.92763226,50.95353903],[3.92762332,50.95355633],[3.92760816,50.95355714],[3.92759132,50.95358928],[3.92762246,50.95359572],[3.92759307,50.95365107]]]}},{"type":"Feature","id":"gebouw/Gebouw.9494196/0","properties":{"source":"Digitaal Vlaanderen Gebouwenregister","source_id":"gebouw/Gebouw.9494196/0","kind":"building","height_m":8.6,"status":null},"geometry":{"type":"Polygon","coordinates":[[[3.92742262,50.95380497],[3.92717971,50.9537538],[3.92723307,50.95365125],[3.92747668,50.95370257],[3.92742262,50.95380497]]]}},{"type":"Feature","id":"gebouw/Gebouw.9494403/0","properties":{"source":"Digitaal Vlaanderen Gebouwenregister","source_id":"gebouw/Gebouw.9494403/0","kind":"building","height_m":6.44,"status":null},"geometry":{"type":"Polygon","coordinates":[[[3.92557189,50.9530214],[3.92582302,50.95304548],[3.92580004,50.95314111],[3.9255923,50.95312119],[3.92550692,50.95311301],[3.92550721,50.9531118],[3.92551163,50.95309343],[3.9255299,50.95301738],[3.92557189,50.9530214]]]}},{"type":"Feature","id":"gebouw/Gebouw.9564022/0","properties":{"source":"Digitaal Vlaanderen Gebouwenregister","source_id":"gebouw/Gebouw.9564022/0","kind":"building","height_m":9.32,"status":null},"geometry":{"type":"Polygon","coordinates":[[[3.9282763,50.95204563],[3.92822727,50.95206375],[3.92818493,50.95201806],[3.92823397,50.95199993],[3.9282763,50.95204563]]]}},{"type":"Feature","id":"gebouw/Gebouw.9564264/0","properties":{"source":"Digitaal Vlaanderen Gebouwenregister","source_id":"gebouw/Gebouw.9564264/0","kind":"building","height_m":7.16,"status":null},"geometry":{"type":"Polygon","coordinates":[[[3.92817721,50.95394433],[3.92807301,50.95391059],[3.92810851,50.95384302],[3.9282167,50.9538647],[3.9282112,50.9538758],[3.92828831,50.95389027],[3.92828607,50.95389567],[3.92832148,50.95390171],[3.92828602,50.95397268],[3.92822278,50.95396068],[3.92822657,50.95395285],[3.92817721,50.95394433]]]}},{"type":"Feature","id":"gebouw/Gebouw.9731873/0","properties":{"source":"Digitaal Vlaanderen Gebouwenregister","source_id":"gebouw/Gebouw.9731873/0","kind":"building","height_m":7.88,"status":null},"geometry":{"type":"Polygon","coordinates":[[[3.9304977,50.9535629],[3.93057218,50.95358157],[3.93055415,50.95360983],[3.93047909,50.95359078],[3.9304977,50.9535629]]]}},{"type":"Feature","id":"gebouw/Gebouw.9732047/0","properties":{"source":"Digitaal Vlaanderen Gebouwenregister","source_id":"gebouw/Gebouw.9732047/0","kind":"building","height_m":7.16,"status":null},"geometry":{"type":"Polygon","coordinates":[[[3.92696051,50.95339956],[3.92701059,50.95337055],[3.92705101,50.95339781],[3.92700092,50.95342719],[3.92696051,50.95339956]]]}},{"type":"Feature","id":"gebouw/Gebouw.9732140/0","properties":{"source":"Digitaal Vlaanderen Gebouwenregister","source_id":"gebouw/Gebouw.9732140/0","kind":"building","height_m":8.6,"status":null},"geometry":{"type":"Polygon","coordinates":[[[3.92788958,50.9540103],[3.92770605,50.95393662],[3.92773886,50.95390401],[3.92774377,50.95390609],[3.92774256,50.95390756],[3.92775277,50.9539113],[3.92780016,50.95386259],[3.92794026,50.95391697],[3.92790143,50.95395691],[3.92793135,50.95396812],[3.92788958,50.9540103]]]}},{"type":"Feature","id":"gebouw/Gebouw.9732196/0","properties":{"source":"Digitaal Vlaanderen Gebouwenregister","source_id":"gebouw/Gebouw.9732196/0","kind":"building","height_m":8.6,"status":null},"geometry":{"type":"Polygon","coordinates":[[[3.92718988,50.95384398],[3.92724085,50.95385435],[3.92721424,50.95390652],[3.92722391,50.95391865],[3.92728894,50.95393219],[3.92727258,50.95396308],[3.92704739,50.95391552],[3.92710018,50.9538129],[3.92718064,50.95382977],[3.92718988,50.95384398]]]}},{"type":"Feature","id":"gebouw/Gebouw.9737273/0","properties":{"source":"Digitaal Vlaanderen Gebouwenregister","source_id":"gebouw/Gebouw.9737273/0","kind":"building","height_m":5.0,"status":null},"geometry":{"type":"Polygon","coordinates":[[[3.93053315,50.95393119],[3.93049159,50.95392265],[3.93050261,50.95390087],[3.93051569,50.95387238],[3.93068019,50.9539018],[3.93065393,50.95395587],[3.93053251,50.95393268],[3.93053315,50.95393119]]]}},{"type":"Feature","id":"gebouw/Gebouw.9737275/0","properties":{"source":"Digitaal Vlaanderen Gebouwenregister","source_id":"gebouw/Gebouw.9737275/0","kind":"building","height_m":6.44,"status":null},"geometry":{"type":"Polygon","coordinates":[[[3.92787959,50.95376118],[3.92790318,50.9537702],[3.92795608,50.95371652],[3.92796035,50.95371218],[3.92808423,50.95376089],[3.92808208,50.95376348],[3.9281149,50.95377685],[3.92805999,50.95383061],[3.92805202,50.95382736],[3.9280172,50.95386146],[3.92784671,50.95379467],[3.92787959,50.95376118]]]}},{"type":"Feature","id":"gebouw/Gebouw.9737279/0","properties":{"source":"Digitaal Vlaanderen Gebouwenregister","source_id":"gebouw/Gebouw.9737279/0","kind":"building","height_m":9.32,"status":null},"geometry":{"type":"Polygon","coordinates":[[[3.92946742,50.95226903],[3.92944636,50.9522995],[3.92936959,50.95227818],[3.92939066,50.95224734],[3.92946742,50.95226903]]]}},{"type":"Feature","id":"gebouw/Gebouw.9746072/0","properties":{"source":"Digitaal Vlaanderen Gebouwenregister","source_id":"gebouw/Gebouw.9746072/0","kind":"building","height_m":5.0,"status":null},"geometry":{"type":"Polygon","coordinates":[[[3.92866422,50.95295996],[3.92859839,50.95294575],[3.92857842,50.95297961],[3.92857162,50.95297859],[3.92855717,50.95300432],[3.92851229,50.95299426],[3.92852743,50.95296666],[3.92858824,50.95285574],[3.92870682,50.95288142],[3.92866422,50.95295996]]]}},{"type":"Feature","id":"gebouw/Gebouw.9746074/0","properties":{"source":"Digitaal Vlaanderen Gebouwenregister","source_id":"gebouw/Gebouw.9746074/0","kind":"building","height_m":6.44,"status":null},"geometry":{"type":"Polygon","coordinates":[[[3.92999905,50.95325072],[3.92995615,50.95324188],[3.9299549,50.95324412],[3.92992392,50.9532387],[3.92986541,50.95335302],[3.92984592,50.95339063],[3.92982497,50.95338682],[3.92981525,50.95340488],[3.92977761,50.95339743],[3.92980652,50.95333982],[3.92990433,50.95314494],[3.93003903,50.9531719],[3.93001732,50.9532147],[3.92999905,50.95325072]]]}},{"type":"Feature","id":"gebouw/Gebouw.9761036/0","properties":{"source":"Digitaal Vlaanderen Gebouwenregister","source_id":"gebouw/Gebouw.9761036/0","kind":"building","height_m":8.6,"status":null},"geometry":{"type":"Polygon","coordinates":[[[3.92858824,50.95285574],[3.92852743,50.95296666],[3.92847504,50.95295536],[3.92849317,50.95292373],[3.92843065,50.95291026],[3.92847399,50.95283117],[3.92858824,50.95285574]]]}},{"type":"Feature","id":"gebouw/Gebouw.9761037/0","properties":{"source":"Digitaal Vlaanderen Gebouwenregister","source_id":"gebouw/Gebouw.9761037/0","kind":"building","height_m":9.32,"status":null},"geometry":{"type":"Polygon","coordinates":[[[3.92972776,50.95319839],[3.92971004,50.95323436],[3.92969638,50.95326207],[3.92963062,50.95324949],[3.92964538,50.95322138],[3.929628,50.95321762],[3.92964561,50.95318336],[3.92967704,50.95311734],[3.92968523,50.95310015],[3.92976788,50.95311699],[3.92972776,50.95319839]]]}},{"type":"Feature","id":"gebouw/Gebouw.9761794/0","properties":{"source":"Digitaal Vlaanderen Gebouwenregister","source_id":"gebouw/Gebouw.9761794/0","kind":"building","height_m":5.0,"status":null},"geometry":{"type":"Polygon","coordinates":[[[3.92817721,50.95394433],[3.928155,50.95398911],[3.92804438,50.95396664],[3.92806793,50.95392055],[3.92807301,50.95391059],[3.92817721,50.95394433]]]}},{"type":"Feature","id":"gebouw/Gebouw.9776286/0","properties":{"source":"Digitaal Vlaanderen Gebouwenregister","source_id":"gebouw/Gebouw.9776286/0","kind":"building","height_m":6.44,"status":null},"geometry":{"type":"Polygon","coordinates":[[[3.92842605,50.95378196],[3.92839939,50.95377648],[3.92839775,50.95377879],[3.92834807,50.95376542],[3.92833126,50.9537609],[3.92831478,50.95375647],[3.92832723,50.95373638],[3.92834307,50.95374075],[3.92835966,50.95374533],[3.92841166,50.95375966],[3.92843578,50.95371593],[3.92845318,50.95371894],[3.92850856,50.95362088],[3.9285349,50.95362539],[3.928476,50.9537297],[3.92846911,50.95372861],[3.92845291,50.95376004],[3.92845825,50.95376113],[3.92845266,50.95377103],[3.92843369,50.95376713],[3.92842605,50.95378196]]]}},{"type":"Feature","id":"gebouw/Gebouw.9776349/0","properties":{"source":"Digitaal Vlaanderen Gebouwenregister","source_id":"gebouw/Gebouw.9776349/0","kind":"building","height_m":6.44,"status":null},"geometry":{"type":"Polygon","coordinates":[[[3.92699227,50.9540231],[3.92707774,50.95404134],[3.92704075,50.95410909],[3.92695762,50.954092],[3.92695512,50.95409647],[3.92681719,50.9540675],[3.92682032,50.95406192],[3.9267705,50.95405178],[3.9268004,50.95399313],[3.92685228,50.95400385],[3.92688243,50.95394652],[3.92701948,50.95397529],[3.92699227,50.9540231]]]}},{"type":"Feature","id":"gebouw/Gebouw.9776405/0","properties":{"source":"Digitaal Vlaanderen Gebouwenregister","source_id":"gebouw/Gebouw.9776405/0","kind":"building","height_m":6.44,"status":null},"geometry":{"type":"Polygon","coordinates":[[[3.93066239,50.953544],[3.93085395,50.95359699],[3.93081903,50.95364736],[3.93062822,50.95359458],[3.93066239,50.953544]]]}},{"type":"Feature","id":"gebouw/Gebouw.9776634/0","properties":{"source":"Digitaal Vlaanderen Gebouwenregister","source_id":"gebouw/Gebouw.9776634/0","kind":"building","height_m":5.0,"status":null},"geometry":{"type":"Polygon","coordinates":[[[3.93044608,50.95389702],[3.93042865,50.95393251],[3.93042495,50.95394004],[3.93043439,50.95394165],[3.93039868,50.95401212],[3.93030336,50.95399139],[3.93033029,50.95390988],[3.93034174,50.95387519],[3.93044608,50.95389702]]]}},{"type":"Feature","id":"gebouw/Gebouw.9776812/0","properties":{"source":"Digitaal Vlaanderen Gebouwenregister","source_id":"gebouw/Gebouw.9776812/0","kind":"building","height_m":7.16,"status":null},"geometry":{"type":"Polygon","coordinates":[[[3.92952452,50.95334827],[3.92957231,50.95325593],[3.92962742,50.95326763],[3.92959217,50.95333689],[3.92958745,50.95333609],[3.92957642,50.95335825],[3.92952452,50.95334827]]]}},{"type":"Feature","id":"gebouw/Gebouw.9776813/0","properties":{"source":"Digitaal Vlaanderen Gebouwenregister","source_id":"gebouw/Gebouw.9776813/0","kind":"building","height_m":7.88,"status":null},"geometry":{"type":"Polygon","coordinates":[[[3.92962603,50.95380949],[3.92963772,50.95377516],[3.92968527,50.95378153],[3.92967273,50.95381491],[3.92962603,50.95380949]]]}},{"type":"Feature","id":"gebouw/Gebouw.9840887/0","properties":{"source":"Digitaal Vlaanderen Gebouwenregister","source_id":"gebouw/Gebouw.9840887/0","kind":"building","height_m":5.0,"status":null},"geometry":{"type":"Polygon","coordinates":[[[3.93078437,50.95345214],[3.93085827,50.95346552],[3.93084127,50.95350512],[3.93076188,50.9534937],[3.93074564,50.95349145],[3.93076121,50.95344864],[3.93076144,50.95344799],[3.93078437,50.95345214]]]}},{"type":"Feature","id":"gebouw/Gebouw.11147934/0","properties":{"source":"Digitaal Vlaanderen Gebouwenregister","source_id":"gebouw/Gebouw.11147934/0","kind":"building","height_m":5.0,"status":null},"geometry":{"type":"Polygon","coordinates":[[[3.92610537,50.95273206],[3.92615798,50.95273792],[3.92613917,50.9527924],[3.92608537,50.95278689],[3.92608995,50.95277234],[3.92581537,50.95274158],[3.92584285,50.95265424],[3.92599665,50.95267363],[3.92600831,50.95263446],[3.9261493,50.95264979],[3.9261377,50.95269142],[3.9261215,50.95268938],[3.92610537,50.95273206]]]}},{"type":"Feature","id":"gebouw/Gebouw.11930940/0","properties":{"source":"Digitaal Vlaanderen Gebouwenregister","source_id":"gebouw/Gebouw.11930940/0","kind":"building","height_m":5.0,"status":null},"geometry":{"type":"Polygon","coordinates":[[[3.93031192,50.95301475],[3.93024786,50.95300283],[3.93028784,50.95291821],[3.9303556,50.95293066],[3.9303607,50.95291331],[3.93041664,50.95292315],[3.93041017,50.95294068],[3.93045185,50.95294833],[3.93040736,50.95304221],[3.93034619,50.95303069],[3.93035207,50.95301774],[3.93031389,50.95301057],[3.93031192,50.95301475]]]}},{"type":"Feature","id":"gebouw/Gebouw.15183912/0","properties":{"source":"Digitaal Vlaanderen Gebouwenregister","source_id":"gebouw/Gebouw.15183912/0","kind":"building","height_m":6.44,"status":null},"geometry":{"type":"Polygon","coordinates":[[[3.92943421,50.95265124],[3.92956894,50.95268668],[3.92948633,50.95280609],[3.9294798,50.95280429],[3.92948657,50.95279358],[3.92946056,50.9527867],[3.92943367,50.95282727],[3.92942197,50.95282418],[3.92942417,50.95282086],[3.92934624,50.95280035],[3.92934461,50.95280284],[3.929333,50.9527998],[3.92936115,50.95275848],[3.92943421,50.95265124]]]}},{"type":"Feature","id":"gebouw/Gebouw.15206497/0","properties":{"source":"Digitaal Vlaanderen Gebouwenregister","source_id":"gebouw/Gebouw.15206497/0","kind":"building","height_m":8.6,"status":null},"geometry":{"type":"Polygon","coordinates":[[[3.92943421,50.95265124],[3.92936115,50.95275848],[3.929333,50.9527998],[3.92932632,50.95279804],[3.92932796,50.95279556],[3.92926198,50.95277831],[3.92925977,50.95278162],[3.92924798,50.95277849],[3.92927479,50.95273825],[3.92923665,50.9527281],[3.92922956,50.95273865],[3.92922316,50.95273702],[3.92930082,50.95261507],[3.92943026,50.95265017],[3.92943421,50.95265124]]]}},{"type":"Feature","id":"gebouw/Gebouw.18362479/0","properties":{"source":"Digitaal Vlaanderen Gebouwenregister","source_id":"gebouw/Gebouw.18362479/0","kind":"building","height_m":6.44,"status":null},"geometry":{"type":"Polygon","coordinates":[[[3.93015214,50.95323477],[3.93010941,50.95331243],[3.93007143,50.95330301],[3.93011424,50.95322708],[3.93015214,50.95323477]]]}},{"type":"Feature","id":"gebouw/Gebouw.18362480/0","properties":{"source":"Digitaal Vlaanderen Gebouwenregister","source_id":"gebouw/Gebouw.18362480/0","kind":"building","height_m":7.16,"status":null},"geometry":{"type":"Polygon","coordinates":[[[3.92911929,50.95392524],[3.92908483,50.95397296],[3.92900071,50.9539476],[3.92899699,50.95394648],[3.92902929,50.95389879],[3.92911929,50.95392524]]]}},{"type":"Feature","id":"gebouw/Gebouw.18362481/0","properties":{"source":"Digitaal Vlaanderen Gebouwenregister","source_id":"gebouw/Gebouw.18362481/0","kind":"building","height_m":7.88,"status":null},"geometry":{"type":"Polygon","coordinates":[[[3.92910774,50.95385011],[3.92909392,50.95387987],[3.92903303,50.95386642],[3.92904828,50.95383677],[3.92910774,50.95385011]]]}},{"type":"Feature","id":"gebouw/Gebouw.18362483/0","properties":{"source":"Digitaal Vlaanderen Gebouwenregister","source_id":"gebouw/Gebouw.18362483/0","kind":"building","height_m":9.32,"status":null},"geometry":{"type":"Polygon","coordinates":[[[3.93088389,50.95292683],[3.9308459,50.95298942],[3.93078197,50.9529742],[3.93080508,50.95291371],[3.93088389,50.95292683]]]}},{"type":"Feature","id":"gebouw/Gebouw.18362484/0","properties":{"source":"Digitaal Vlaanderen Gebouwenregister","source_id":"gebouw/Gebouw.18362484/0","kind":"building","height_m":5.0,"status":null},"geometry":{"type":"Polygon","coordinates":[[[3.93010522,50.95243342],[3.93018947,50.95245509],[3.9301656,50.95249212],[3.93008135,50.95247045],[3.93010522,50.95243342]]]}},{"type":"Feature","id":"gebouw/Gebouw.18463309/0","properties":{"source":"Digitaal Vlaanderen Gebouwenregister","source_id":"gebouw/Gebouw.18463309/0","kind":"building","height_m":7.88,"status":null},"geometry":{"type":"Polygon","coordinates":[[[3.92936533,50.95318764],[3.92935852,50.95320119],[3.92917041,50.9531635],[3.92913876,50.95315716],[3.92917942,50.95307741],[3.92921322,50.95308422],[3.92930985,50.9531037],[3.92933806,50.95304841],[3.92942633,50.95306614],[3.92936533,50.95318764]]]}},{"type":"Feature","id":"gebouw/Gebouw.18463758/0","properties":{"source":"Digitaal Vlaanderen Gebouwenregister","source_id":"gebouw/Gebouw.18463758/0","kind":"building","height_m":8.6,"status":null},"geometry":{"type":"Polygon","coordinates":[[[3.92901394,50.95271405],[3.92888605,50.95268058],[3.92890436,50.95265268],[3.9289099,50.95264422],[3.92887181,50.95263425],[3.92890518,50.95258326],[3.92890025,50.95258197],[3.92894062,50.95252025],[3.92918708,50.95258153],[3.92914708,50.95264252],[3.9291551,50.95264461],[3.92912003,50.95269807],[3.92911097,50.95269587],[3.92908713,50.95273125],[3.92909666,50.95273381],[3.92909426,50.95273793],[3.92901234,50.95271649],[3.92901394,50.95271405]]]}},{"type":"Feature","id":"gebouw/Gebouw.18735131/0","properties":{"source":"Digitaal Vlaanderen Gebouwenregister","source_id":"gebouw/Gebouw.18735131/0","kind":"building","height_m":6.44,"status":null},"geometry":{"type":"Polygon","coordinates":[[[3.93028359,50.95267151],[3.93030069,50.95264416],[3.9303116,50.95264689],[3.93032493,50.95262558],[3.9303819,50.95263979],[3.93035147,50.95268844],[3.93028359,50.95267151]]]}},{"type":"Feature","id":"gebouw/Gebouw.18735132/0","properties":{"source":"Digitaal Vlaanderen Gebouwenregister","source_id":"gebouw/Gebouw.18735132/0","kind":"building","height_m":7.16,"status":null},"geometry":{"type":"Polygon","coordinates":[[[3.93103822,50.95373189],[3.93103544,50.95374156],[3.93103154,50.95375508],[3.93091403,50.95373994],[3.93091222,50.95373971],[3.93092023,50.95372818],[3.9309254,50.95372076],[3.93092635,50.95371938],[3.93103822,50.95373189]]]}},{"type":"Feature","id":"gebouw/Gebouw.18735134/0","properties":{"source":"Digitaal Vlaanderen Gebouwenregister","source_id":"gebouw/Gebouw.18735134/0","kind":"building","height_m":8.6,"status":null},"geometry":{"type":"Polygon","coordinates":[[[3.92733688,50.95320806],[3.92735355,50.9531757],[3.9274818,50.95320206],[3.92746512,50.95323442],[3.92733688,50.95320806]]]}},{"type":"Feature","id":"gebouw/Gebouw.18735135/0","properties":{"source":"Digitaal Vlaanderen Gebouwenregister","source_id":"gebouw/Gebouw.18735135/0","kind":"building","height_m":9.32,"status":null},"geometry":{"type":"Polygon","coordinates":[[[3.9297783,50.95233982],[3.92982021,50.95234977],[3.9298039,50.95237719],[3.92976198,50.95236724],[3.9297783,50.95233982]]]}},{"type":"Feature","id":"gebouw/Gebouw.18735136/0","properties":{"source":"Digitaal Vlaanderen Gebouwenregister","source_id":"gebouw/Gebouw.18735136/0","kind":"building","height_m":5.0,"status":null},"geometry":{"type":"Polygon","coordinates":[[[3.9291772,50.95241315],[3.92918039,50.95240834],[3.92914933,50.95240011],[3.92917952,50.95235467],[3.92921145,50.95236313],[3.92921409,50.95235915],[3.92935542,50.95239661],[3.92931939,50.95245084],[3.9291772,50.95241315]]]}},{"type":"Feature","id":"gebouw/Gebouw.18735265/0","properties":{"source":"Digitaal Vlaanderen Gebouwenregister","source_id":"gebouw/Gebouw.18735265/0","kind":"building","height_m":7.16,"status":null},"geometry":{"type":"Polygon","coordinates":[[[3.92534947,50.95308614],[3.9253909,50.95308986],[3.92538672,50.95310844],[3.92537708,50.95315125],[3.92534111,50.95314802],[3.92529857,50.9531442],[3.92530864,50.9530995],[3.92531239,50.95308281],[3.92534947,50.95308614]]]}},{"type":"Feature","id":"gebouw/Gebouw.18735378/0","properties":{"source":"Digitaal Vlaanderen Gebouwenregister","source_id":"gebouw/Gebouw.18735378/0","kind":"building","height_m":7.88,"status":null},"geometry":{"type":"Polygon","coordinates":[[[3.93040043,50.95270949],[3.93042087,50.95271323],[3.9304053,50.95274716],[3.93037898,50.95274234],[3.93035928,50.95273873],[3.93037485,50.9527048],[3.93040043,50.95270949]]]}},{"type":"Feature","id":"gebouw/Gebouw.18735407/0","properties":{"source":"Digitaal Vlaanderen Gebouwenregister","source_id":"gebouw/Gebouw.18735407/0","kind":"building","height_m":8.6,"status":null},"geometry":{"type":"Polygon","coordinates":[[[3.92769332,50.9528265],[3.92767405,50.95286226],[3.92762954,50.95285112],[3.92764806,50.95281676],[3.92769332,50.9528265]]]}},{"type":"Feature","id":"gebouw/Gebouw.19524356/0","properties":{"source":"Digitaal Vlaanderen Gebouwenregister","source_id":"gebouw/Gebouw.19524356/0","kind":"building","height_m":8.6,"status":null},"geometry":{"type":"Polygon","coordinates":[[[3.9282112,50.9538758],[3.92828831,50.95389027],[3.92828607,50.95389567],[3.92832148,50.95390171],[3.92828602,50.95397268],[3.92822278,50.95396068],[3.92822657,50.95395285],[3.92817721,50.95394433],[3.9282112,50.9538758]]]}},{"type":"Feature","id":"gebouw/Gebouw.19524357/0","properties":{"source":"Digitaal Vlaanderen Gebouwenregister","source_id":"gebouw/Gebouw.19524357/0","kind":"building","height_m":9.32,"status":null},"geometry":{"type":"Polygon","coordinates":[[[3.9282112,50.9538758],[3.92817721,50.95394433],[3.92807301,50.95391059],[3.92810851,50.95384302],[3.9282167,50.9538647],[3.9282112,50.9538758]]]}},{"type":"Feature","id":"gebouw/Gebouw.19524510/0","properties":{"source":"Digitaal Vlaanderen Gebouwenregister","source_id":"gebouw/Gebouw.19524510/0","kind":"building","height_m":8.6,"status":null},"geometry":{"type":"Polygon","coordinates":[[[3.93042865,50.95393251],[3.93042495,50.95394004],[3.93043439,50.95394165],[3.93039868,50.95401212],[3.93030336,50.95399139],[3.93033029,50.95390988],[3.93042865,50.95393251]]]}},{"type":"Feature","id":"gebouw/Gebouw.19524511/0","properties":{"source":"Digitaal Vlaanderen Gebouwenregister","source_id":"gebouw/Gebouw.19524511/0","kind":"building","height_m":9.32,"status":null},"geometry":{"type":"Polygon","coordinates":[[[3.93034174,50.95387519],[3.93044608,50.95389702],[3.93042865,50.95393251],[3.93033029,50.95390988],[3.93034174,50.95387519]]]}},{"type":"Feature","id":"gebouw/Gebouw.19524630/0","properties":{"source":"Digitaal Vlaanderen Gebouwenregister","source_id":"gebouw/Gebouw.19524630/0","kind":"building","height_m":9.32,"status":null},"geometry":{"type":"Polygon","coordinates":[[[3.93023223,50.95338482],[3.9303121,50.95322012],[3.93034232,50.95322595],[3.9303465,50.95321694],[3.93034365,50.95321635],[3.93034491,50.95321404],[3.93038561,50.95322223],[3.93038451,50.95322451],[3.93038149,50.95322395],[3.93037685,50.95323305],[3.9304068,50.95323903],[3.93032488,50.95340274],[3.93023223,50.95338482]]]}},{"type":"Feature","id":"gebouw/Gebouw.19524631/0","properties":{"source":"Digitaal Vlaanderen Gebouwenregister","source_id":"gebouw/Gebouw.19524631/0","kind":"building","height_m":5.0,"status":null},"geometry":{"type":"Polygon","coordinates":[[[3.93032488,50.95340274],[3.93031591,50.95342067],[3.9302663,50.95351981],[3.93017568,50.95350144],[3.93020798,50.95343484],[3.93022385,50.95340211],[3.93023223,50.95338482],[3.93032488,50.95340274]]]}},{"type":"Feature","id":"gebouw/Gebouw.19525578/0","properties":{"source":"Digitaal Vlaanderen Gebouwenregister","source_id":"gebouw/Gebouw.19525578/0","kind":"building","height_m":6.44,"status":null},"geometry":{"type":"Polygon","coordinates":[[[3.93043643,50.95368676],[3.9304524,50.95365153],[3.93049961,50.95365958],[3.93048245,50.95369555],[3.93043643,50.95368676]]]}},{"type":"Feature","id":"gebouw/Gebouw.19525579/0","properties":{"source":"Digitaal Vlaanderen Gebouwenregister","source_id":"gebouw/Gebouw.19525579/0","kind":"building","height_m":7.16,"status":null},"geometry":{"type":"Polygon","coordinates":[[[3.93048245,50.95369555],[3.93048549,50.95369612],[3.9304703,50.95372854],[3.93042132,50.9537201],[3.93043643,50.95368676],[3.93048245,50.95369555]]]}},{"type":"Feature","id":"gebouw/Gebouw.19525580/0","properties":{"source":"Digitaal Vlaanderen Gebouwenregister","source_id":"gebouw/Gebouw.19525580/0","kind":"building","height_m":7.88,"status":null},"geometry":{"type":"Polygon","coordinates":[[[3.92872265,50.95309325],[3.92867501,50.95308301],[3.92865217,50.95312376],[3.92866807,50.9531277],[3.9286646,50.95313459],[3.92862483,50.95312569],[3.92862011,50.95313481],[3.92857442,50.95312547],[3.92859497,50.9530876],[3.92860725,50.95306496],[3.92866422,50.95295996],[3.92870682,50.95288142],[3.92879538,50.95290077],[3.92875217,50.95297967],[3.92869942,50.95296885],[3.92867107,50.95301553],[3.92875649,50.95303551],[3.92875304,50.95304141],[3.92872265,50.95309325]]]}},{"type":"Feature","id":"gebouw/Gebouw.19525581/0","properties":{"source":"Digitaal Vlaanderen Gebouwenregister","source_id":"gebouw/Gebouw.19525581/0","kind":"building","height_m":8.6,"status":null},"geometry":{"type":"Polygon","coordinates":[[[3.92875304,50.95304141],[3.92876422,50.9530438],[3.92880402,50.95305231],[3.9287755,50.95310461],[3.92872265,50.95309325],[3.92875304,50.95304141]]]}},{"type":"Feature","id":"gebouw/Gebouw.20194596/0","properties":{"source":"Digitaal Vlaanderen Gebouwenregister","source_id":"gebouw/Gebouw.20194596/0","kind":"building","height_m":6.44,"status":null},"geometry":{"type":"Polygon","coordinates":[[[3.92679938,50.95368424],[3.92681518,50.95365118],[3.92685134,50.95365807],[3.92683554,50.95369113],[3.92679938,50.95368424]]]}},{"type":"Feature","id":"gebouw/Gebouw.20194607/0","properties":{"source":"Digitaal Vlaanderen Gebouwenregister","source_id":"gebouw/Gebouw.20194607/0","kind":"building","height_m":9.32,"status":null},"geometry":{"type":"Polygon","coordinates":[[[3.92952182,50.95238648],[3.92954182,50.95235667],[3.92959171,50.95237002],[3.92957172,50.95239983],[3.92952182,50.95238648]]]}},{"type":"Feature","id":"gebouw/Gebouw.20194608/0","properties":{"source":"Digitaal Vlaanderen Gebouwenregister","source_id":"gebouw/Gebouw.20194608/0","kind":"building","height_m":5.0,"status":null},"geometry":{"type":"Polygon","coordinates":[[[3.92880268,50.95237693],[3.92883761,50.95232514],[3.92889503,50.95234059],[3.92888823,50.95235067],[3.92894165,50.95236505],[3.92891578,50.95240341],[3.92886548,50.95238987],[3.92886322,50.95239322],[3.92880268,50.95237693]]]}},{"type":"Feature","id":"gebouw/Gebouw.31762109/0","properties":{"source":"Digitaal Vlaanderen Gebouwenregister","source_id":"gebouw/Gebouw.31762109/0","kind":"building","height_m":5.72,"status":null},"geometry":{"type":"Polygon","coordinates":[[[3.92916233,50.95356698],[3.92917948,50.95353219],[3.92912781,50.95352203],[3.92911066,50.95355682],[3.92916233,50.95356698]]]}},{"type":"Feature","id":"gebouw/Gebouw.31762553/0","properties":{"source":"Digitaal Vlaanderen Gebouwenregister","source_id":"gebouw/Gebouw.31762553/0","kind":"building","height_m":7.88,"status":null},"geometry":{"type":"Polygon","coordinates":[[[3.93059374,50.95346288],[3.93054546,50.95345423],[3.93052614,50.95349726],[3.93057443,50.9535059],[3.93059374,50.95346288]]]}},{"type":"Feature","id":"gebouw/Gebouw.31762568/0","properties":{"source":"Digitaal Vlaanderen Gebouwenregister","source_id":"gebouw/Gebouw.31762568/0","kind":"building","height_m":8.6,"status":null},"geometry":{"type":"Polygon","coordinates":[[[3.92932762,50.9536323],[3.92923585,50.95361241],[3.92923127,50.95362084],[3.92922123,50.9536393],[3.92931301,50.9536592],[3.92932308,50.95364066],[3.92932762,50.9536323]]]}},{"type":"Feature","id":"way/164343996","properties":{"source":"OpenStreetMap","source_id":"way/164343996","kind":"vegetation","name":null,"waterway":null,"landuse":"forest"},"geometry":{"type":"Polygon","coordinates":[[[3.9203137,50.9534275],[3.9213939,50.9538558],[3.9213153,50.9540776],[3.9207158,50.9543573],[3.9204582,50.9543257],[3.9196705,50.9536222],[3.9203137,50.9534275]]]}},{"type":"Feature","id":"way/175279470","properties":{"source":"OpenStreetMap","source_id":"way/175279470","kind":"vegetation","name":null,"waterway":null,"landuse":"forest"},"geometry":{"type":"Polygon","coordinates":[[[3.9275678,50.952619],[3.9274819,50.9526162],[3.9274921,50.9525684],[3.9274982,50.9525259],[3.9274839,50.9524923],[3.9267049,50.9523327],[3.926657,50.9523054],[3.9266606,50.9523207],[3.9266535,50.9523398],[3.9266433,50.9523475],[3.9266145,50.9523542],[3.9265998,50.9523523],[3.9265764,50.9523411],[3.9265477,50.9523377],[3.9265408,50.9524153],[3.9264849,50.9524239],[3.9263344,50.952433],[3.9263344,50.9525388],[3.9263633,50.9528634],[3.9264481,50.9528567],[3.926425,50.9527527],[3.9264192,50.9526068],[3.9264481,50.9525484],[3.926509,50.9525521],[3.9264887,50.9526232],[3.9265301,50.9526269],[3.9265776,50.9526313],[3.9266686,50.9526577],[3.9266392,50.9527619],[3.9267956,50.9527728],[3.926813,50.9528749],[3.9270388,50.9528932],[3.9270909,50.9528312],[3.9272936,50.9528512],[3.9272618,50.9529971],[3.9274144,50.9530075],[3.9275244,50.9530148],[3.9276489,50.9529601],[3.9277155,50.9528963],[3.9277502,50.9528343],[3.9277473,50.9527668],[3.9277068,50.952692],[3.9275678,50.952619]]]}},{"type":"Feature","id":"way/175279506","properties":{"source":"OpenStreetMap","source_id":"way/175279506","kind":"vegetation","name":null,"waterway":null,"landuse":"forest"},"geometry":{"type":"Polygon","coordinates":[[[3.9297059,50.9541219],[3.9296306,50.9542605],[3.9293266,50.9542112],[3.9294222,50.9540343],[3.9295061,50.9540453],[3.9296914,50.9537024],[3.9299009,50.9537555],[3.9297059,50.9541219]]]}},{"type":"Feature","id":"way/175279519","properties":{"source":"OpenStreetMap","source_id":"way/175279519","kind":"vegetation","name":null,"waterway":null,"landuse":"forest"},"geometry":{"type":"Polygon","coordinates":[[[3.927316,50.9533781],[3.9268911,50.9533364],[3.9268767,50.9534148],[3.926784,50.9534094],[3.9267348,50.9535097],[3.9266479,50.9535753],[3.9267171,50.9536116],[3.9267803,50.9535657],[3.9271972,50.953624],[3.927316,50.9533781]]]}},{"type":"Feature","id":"way/1029604808","properties":{"source":"OpenStreetMap","source_id":"way/1029604808","kind":"water","name":null,"waterway":null,"landuse":null},"geometry":{"type":"Polygon","coordinates":[[[3.9220959,50.9537306],[3.922272,50.9536998],[3.9224378,50.95373],[3.9224848,50.9536767],[3.9223478,50.953669],[3.9220837,50.9536674],[3.9220324,50.9536859],[3.9220959,50.9537306]]]}},{"type":"Feature","id":"way/1029604809","properties":{"source":"OpenStreetMap","source_id":"way/1029604809","kind":"waterway","name":null,"waterway":"drain","landuse":null},"geometry":{"type":"LineString","coordinates":[[3.9220715,50.9540803],[3.9223038,50.9539232],[3.9224378,50.95373]]}},{"type":"Feature","id":"way/1029604810","properties":{"source":"OpenStreetMap","source_id":"way/1029604810","kind":"waterway","name":null,"waterway":"drain","landuse":null},"geometry":{"type":"LineString","coordinates":[[3.9211007,50.9536828],[3.9220715,50.9540803]]}},{"type":"Feature","id":"way/1029604811","properties":{"source":"OpenStreetMap","source_id":"way/1029604811","kind":"waterway","name":null,"waterway":"ditch","landuse":null},"geometry":{"type":"LineString","coordinates":[[3.923727,50.9545594],[3.9239887,50.953518]]}}]}