{"type":"FeatureCollection","features":[{"type":"Feature","id":"gebouw/Gebouw.9056899/0","properties":{"source":"Digitaal Vlaanderen Gebouwenregister","source_id":"gebouw/Gebouw.9056899/0","kind":"building","height_m":8.6,"status":null},"geometry":{"type":"Polygon","coordinates":[[[3.9344899,50.97620808],[3.93446339,50.97616095],[3.93449775,50.97615292],[3.93452423,50.9762008],[3.9344899,50.97620808]]]}},{"type":"Feature","id":"gebouw/Gebouw.9057521/0","properties":{"source":"Digitaal Vlaanderen Gebouwenregister","source_id":"gebouw/Gebouw.9057521/0","kind":"building","height_m":7.88,"status":null},"geometry":{"type":"Polygon","coordinates":[[[3.9333418,50.97702765],[3.93329538,50.97697848],[3.9332817,50.97698363],[3.93326009,50.97696006],[3.93320591,50.97690097],[3.93324012,50.97688802],[3.93333445,50.9768523],[3.93339664,50.97682875],[3.93336193,50.97678969],[3.93360729,50.97670019],[3.9337467,50.97685126],[3.93376315,50.97686908],[3.9333418,50.97702765]]]}},{"type":"Feature","id":"gebouw/Gebouw.9122266/0","properties":{"source":"Digitaal Vlaanderen Gebouwenregister","source_id":"gebouw/Gebouw.9122266/0","kind":"building","height_m":9.32,"status":null},"geometry":{"type":"Polygon","coordinates":[[[3.93295463,50.97686001],[3.93297559,50.97688367],[3.93291295,50.97690523],[3.93289319,50.97688121],[3.93295463,50.97686001]]]}},{"type":"Feature","id":"gebouw/Gebouw.9125261/0","properties":{"source":"Digitaal Vlaanderen Gebouwenregister","source_id":"gebouw/Gebouw.9125261/0","kind":"building","height_m":8.6,"status":null},"geometry":{"type":"Polygon","coordinates":[[[3.93333305,50.97704697],[3.93335471,50.97706791],[3.9333253,50.97707918],[3.93330579,50.97705987],[3.93328167,50.97703496],[3.93328052,50.97703377],[3.93330826,50.97702298],[3.93333305,50.97704697]]]}},{"type":"Feature","id":"gebouw/Gebouw.9192497/0","properties":{"source":"Digitaal Vlaanderen Gebouwenregister","source_id":"gebouw/Gebouw.9192497/0","kind":"building","height_m":9.32,"status":null},"geometry":{"type":"Polygon","coordinates":[[[3.93267447,50.97732229],[3.93263823,50.97732982],[3.93255523,50.97716508],[3.93246832,50.97699256],[3.93254371,50.97697688],[3.93259693,50.97696581],[3.9326337,50.97695816],[3.93281374,50.97729367],[3.93287406,50.97728051],[3.93288591,50.97730125],[3.93279069,50.97732093],[3.93278062,50.97730021],[3.93267447,50.97732229]]]}},{"type":"Feature","id":"gebouw/Gebouw.9475568/0","properties":{"source":"Digitaal Vlaanderen Gebouwenregister","source_id":"gebouw/Gebouw.9475568/0","kind":"building","height_m":7.88,"status":null},"geometry":{"type":"Polygon","coordinates":[[[3.93573022,50.97629164],[3.93575467,50.97628074],[3.93576978,50.97629424],[3.93585453,50.97625702],[3.93578888,50.97619538],[3.93569834,50.97623037],[3.93570589,50.97623712],[3.93568144,50.97624802],[3.93573022,50.97629164]]]}},{"type":"Feature","id":"gebouw/Gebouw.9563402/0","properties":{"source":"Digitaal Vlaanderen Gebouwenregister","source_id":"gebouw/Gebouw.9563402/0","kind":"building","height_m":6.44,"status":null},"geometry":{"type":"Polygon","coordinates":[[[3.9359013,50.97625064],[3.93586541,50.97621987],[3.93589306,50.97620783],[3.93592896,50.97623822],[3.9359013,50.97625064]]]}},{"type":"Feature","id":"gebouw/Gebouw.9746366/0","properties":{"source":"Digitaal Vlaanderen Gebouwenregister","source_id":"gebouw/Gebouw.9746366/0","kind":"building","height_m":5.0,"status":null},"geometry":{"type":"Polygon","coordinates":[[[3.9344658,50.97611939],[3.93448581,50.9761451],[3.93439615,50.97616766],[3.93436696,50.97613098],[3.93442361,50.9760914],[3.93443632,50.97608253],[3.93451346,50.976029],[3.93460006,50.9760096],[3.93462298,50.97600446],[3.93466065,50.97607148],[3.93465218,50.97607337],[3.9345779,50.97609001],[3.93456627,50.97609261],[3.93455121,50.97609598],[3.93455048,50.97609472],[3.9344658,50.97611939]]]}},{"type":"Feature","id":"gebouw/Gebouw.9760945/0","properties":{"source":"Digitaal Vlaanderen Gebouwenregister","source_id":"gebouw/Gebouw.9760945/0","kind":"building","height_m":8.6,"status":null},"geometry":{"type":"Polygon","coordinates":[[[3.93298412,50.9772507],[3.93287906,50.97727146],[3.93281044,50.97728501],[3.93264321,50.97695752],[3.93278542,50.97692769],[3.93281576,50.97692132],[3.93298412,50.9772507]]]}},{"type":"Feature","id":"gebouw/Gebouw.18374968/0","properties":{"source":"Digitaal Vlaanderen Gebouwenregister","source_id":"gebouw/Gebouw.18374968/0","kind":"building","height_m":7.16,"status":null},"geometry":{"type":"Polygon","coordinates":[[[3.93344905,50.97536154],[3.93344014,50.97535411],[3.93340295,50.9753719],[3.93338473,50.97535672],[3.93347696,50.97531261],[3.93350298,50.97533755],[3.93344905,50.97536154]]]}},{"type":"Feature","id":"gebouw/Gebouw.18736784/0","properties":{"source":"Digitaal Vlaanderen Gebouwenregister","source_id":"gebouw/Gebouw.18736784/0","kind":"building","height_m":7.16,"status":null},"geometry":{"type":"Polygon","coordinates":[[[3.93640964,50.97545571],[3.93648921,50.97543055],[3.93653034,50.97548241],[3.93645078,50.97550757],[3.93640964,50.97545571]]]}},{"type":"Feature","id":"gebouw/Gebouw.19297297/0","properties":{"source":"Digitaal Vlaanderen Gebouwenregister","source_id":"gebouw/Gebouw.19297297/0","kind":"building","height_m":8.6,"status":null},"geometry":{"type":"Polygon","coordinates":[[[3.9385865,50.97710676],[3.93856437,50.97712937],[3.93854434,50.97712156],[3.93854893,50.97711687],[3.93852184,50.9771063],[3.93853938,50.97708838],[3.9385865,50.97710676]]]}},{"type":"Feature","id":"gebouw/Gebouw.20193920/0","properties":{"source":"Digitaal Vlaanderen Gebouwenregister","source_id":"gebouw/Gebouw.20193920/0","kind":"building","height_m":8.6,"status":null},"geometry":{"type":"Polygon","coordinates":[[[3.93351868,50.97536726],[3.93363755,50.97546966],[3.93357981,50.97549637],[3.93346072,50.97539378],[3.93344305,50.97537855],[3.93350078,50.97535184],[3.93351868,50.97536726]]]}},{"type":"Feature","id":"gebouw/Gebouw.20193921/0","properties":{"source":"Digitaal Vlaanderen Gebouwenregister","source_id":"gebouw/Gebouw.20193921/0","kind":"building","height_m":9.32,"status":null},"geometry":{"type":"Polygon","coordinates":[[[3.93597437,50.97619389],[3.93601586,50.97617692],[3.93605115,50.9762113],[3.93600966,50.97622827],[3.93597437,50.97619389]]]}},{"type":"Feature","id":"gebouw/Gebouw.31822139/0","properties":{"source":"Digitaal Vlaanderen Gebouwenregister","source_id":"gebouw/Gebouw.31822139/0","kind":"building","height_m":9.32,"status":null},"geometry":{"type":"Polygon","coordinates":[[[3.93381317,50.97659186],[3.93384635,50.97662052],[3.93389266,50.97659916],[3.93385948,50.97657049],[3.93381317,50.97659186]]]}},{"type":"Feature","id":"way/1040896373","properties":{"source":"OpenStreetMap","source_id":"way/1040896373","kind":"water","name":null,"waterway":null,"landuse":null},"geometry":{"type":"Polygon","coordinates":[[[3.9337098,50.9769108],[3.933758,50.976915],[3.9340928,50.9767641],[3.9340285,50.9766949],[3.9339308,50.976705],[3.9337473,50.9767674],[3.933679,50.9767405],[3.9335678,50.9767784],[3.9337098,50.9769108]]]}}]}