{"type":"FeatureCollection","features":[{"type":"Feature","id":"gebouw/Gebouw.9048437/0","properties":{"source":"Digitaal Vlaanderen Gebouwenregister","source_id":"gebouw/Gebouw.9048437/0","kind":"building","height_m":9.32,"status":null},"geometry":{"type":"Polygon","coordinates":[[[3.96280579,50.95493451],[3.96286277,50.95492261],[3.96287311,50.95494465],[3.96281704,50.95495562],[3.96280579,50.95493451]]]}},{"type":"Feature","id":"gebouw/Gebouw.9064563/0","properties":{"source":"Digitaal Vlaanderen Gebouwenregister","source_id":"gebouw/Gebouw.9064563/0","kind":"building","height_m":7.88,"status":null},"geometry":{"type":"Polygon","coordinates":[[[3.96270194,50.95495692],[3.96276316,50.95494208],[3.96277619,50.95496358],[3.96271496,50.9549788],[3.96270194,50.95495692]]]}},{"type":"Feature","id":"gebouw/Gebouw.9124485/0","properties":{"source":"Digitaal Vlaanderen Gebouwenregister","source_id":"gebouw/Gebouw.9124485/0","kind":"building","height_m":9.32,"status":null},"geometry":{"type":"Polygon","coordinates":[[[3.96501499,50.95450629],[3.96496987,50.95452863],[3.96490575,50.95447901],[3.96495176,50.95445687],[3.96501499,50.95450629]]]}},{"type":"Feature","id":"gebouw/Gebouw.9193090/0","properties":{"source":"Digitaal Vlaanderen Gebouwenregister","source_id":"gebouw/Gebouw.9193090/0","kind":"building","height_m":7.88,"status":null},"geometry":{"type":"Polygon","coordinates":[[[3.96297409,50.95541519],[3.96303922,50.9553941],[3.96304925,50.95540646],[3.9630372,50.95541037],[3.9630724,50.95545373],[3.96291134,50.95550588],[3.96287405,50.95545994],[3.96298179,50.95542595],[3.96297409,50.95541519]]]}},{"type":"Feature","id":"gebouw/Gebouw.9761127/0","properties":{"source":"Digitaal Vlaanderen Gebouwenregister","source_id":"gebouw/Gebouw.9761127/0","kind":"building","height_m":8.6,"status":null},"geometry":{"type":"Polygon","coordinates":[[[3.9653665,50.9550829],[3.96544757,50.95512072],[3.96539683,50.95516304],[3.9653149,50.95512464],[3.9653665,50.9550829]]]}},{"type":"Feature","id":"gebouw/Gebouw.30589725/0","properties":{"source":"Digitaal Vlaanderen Gebouwenregister","source_id":"gebouw/Gebouw.30589725/0","kind":"building","height_m":8.6,"status":null},"geometry":{"type":"Polygon","coordinates":[[[3.96334919,50.95542183],[3.9633835,50.95546457],[3.9633355,50.95547995],[3.96330119,50.9554372],[3.96334919,50.95542183]]]}},{"type":"Feature","id":"gebouw/Gebouw.31001630/0","properties":{"source":"Digitaal Vlaanderen Gebouwenregister","source_id":"gebouw/Gebouw.31001630/0","kind":"building","height_m":6.44,"status":null},"geometry":{"type":"Polygon","coordinates":[[[3.96292519,50.95547382],[3.96289597,50.955434],[3.96305271,50.95538811],[3.96308194,50.95542793],[3.96292519,50.95547382]]]}},{"type":"Feature","id":"way/175406519","properties":{"source":"OpenStreetMap","source_id":"way/175406519","kind":"vegetation","name":null,"waterway":null,"landuse":"forest"},"geometry":{"type":"Polygon","coordinates":[[[3.964382,50.9563014],[3.9644685,50.9563408],[3.9647962,50.9560405],[3.9653772,50.9562929],[3.9654634,50.95621],[3.9647079,50.9558086],[3.9648197,50.9557004],[3.9650184,50.9556144],[3.9653519,50.9555518],[3.9655933,50.9555208],[3.9657301,50.9554872],[3.9658861,50.9554737],[3.9663882,50.9554576],[3.9670154,50.9552625],[3.9663449,50.9546947],[3.9660236,50.9544348],[3.9657607,50.9542246],[3.965586,50.9540982],[3.9654149,50.9540983],[3.9651467,50.9541005],[3.963982,50.9538636],[3.9636742,50.9542338],[3.9636913,50.9543873],[3.964029,50.9543855],[3.9646607,50.9549795],[3.9641771,50.9551051],[3.9639717,50.9551511],[3.9644194,50.9556566],[3.9645856,50.9558222],[3.9646136,50.9559125],[3.9647113,50.9560389],[3.964382,50.9563014]]]}},{"type":"Feature","id":"way/1225890617","properties":{"source":"OpenStreetMap","source_id":"way/1225890617","kind":"water","name":null,"waterway":null,"landuse":null},"geometry":{"type":"Polygon","coordinates":[[[3.9696427,50.9538145],[3.9696875,50.9538138],[3.9697311,50.9538026],[3.9698361,50.9537454],[3.9698291,50.9537179],[3.9697925,50.9536926],[3.9697547,50.953686],[3.9696615,50.953712],[3.9695978,50.9537551],[3.9696096,50.9537893],[3.9696427,50.9538145]]]}}]}