{"type":"FeatureCollection","features":[{"type":"Feature","id":"gebouw/Gebouw.9057156/0","properties":{"source":"Digitaal Vlaanderen Gebouwenregister","source_id":"gebouw/Gebouw.9057156/0","kind":"building","height_m":7.16,"status":null},"geometry":{"type":"Polygon","coordinates":[[[3.95674519,50.98213157],[3.95642934,50.98216541],[3.95637254,50.98217149],[3.95635614,50.98211268],[3.9564118,50.98210676],[3.95640319,50.98207594],[3.95647982,50.98206816],[3.95648828,50.98209884],[3.95641744,50.98210664],[3.95642435,50.98213444],[3.95660328,50.98211383],[3.95659551,50.98208471],[3.95673001,50.98207164],[3.95674519,50.98213157]]]}},{"type":"Feature","id":"gebouw/Gebouw.9057157/0","properties":{"source":"Digitaal Vlaanderen Gebouwenregister","source_id":"gebouw/Gebouw.9057157/0","kind":"building","height_m":7.88,"status":null},"geometry":{"type":"Polygon","coordinates":[[[3.95673324,50.98223745],[3.95675891,50.98232484],[3.95668477,50.98233354],[3.95668611,50.98233861],[3.9566325,50.98234549],[3.95663087,50.98234022],[3.95659335,50.98234504],[3.95659863,50.98236758],[3.95650965,50.98237685],[3.95650269,50.98235055],[3.95649439,50.98231918],[3.95647949,50.98227012],[3.95673324,50.98223745]]]}},{"type":"Feature","id":"gebouw/Gebouw.9057158/0","properties":{"source":"Digitaal Vlaanderen Gebouwenregister","source_id":"gebouw/Gebouw.9057158/0","kind":"building","height_m":8.6,"status":null},"geometry":{"type":"Polygon","coordinates":[[[3.95686136,50.98381873],[3.95672432,50.98382748],[3.95670976,50.9837506],[3.95660345,50.98375756],[3.95658845,50.98366623],[3.95668034,50.98365961],[3.95667353,50.98361732],[3.9568766,50.98360327],[3.95687847,50.98361402],[3.95688775,50.98361876],[3.95688933,50.98362769],[3.95689091,50.98363666],[3.95688377,50.98364259],[3.95688547,50.98365332],[3.95683212,50.9836574],[3.95683996,50.98369831],[3.95684966,50.98369766],[3.95685728,50.98373964],[3.95684878,50.98374019],[3.95686136,50.98381873]]]}},{"type":"Feature","id":"gebouw/Gebouw.9057308/0","properties":{"source":"Digitaal Vlaanderen Gebouwenregister","source_id":"gebouw/Gebouw.9057308/0","kind":"building","height_m":5.72,"status":null},"geometry":{"type":"Polygon","coordinates":[[[3.95665311,50.98283515],[3.95665964,50.98286576],[3.95658072,50.9828759],[3.95657073,50.98284677],[3.95665311,50.98283515]]]}},{"type":"Feature","id":"gebouw/Gebouw.9100294/0","properties":{"source":"Digitaal Vlaanderen Gebouwenregister","source_id":"gebouw/Gebouw.9100294/0","kind":"building","height_m":5.0,"status":null},"geometry":{"type":"Polygon","coordinates":[[[3.95552085,50.98104312],[3.95551582,50.98102227],[3.95571196,50.98100111],[3.95571552,50.98102176],[3.95552085,50.98104312]]]}},{"type":"Feature","id":"gebouw/Gebouw.9100295/0","properties":{"source":"Digitaal Vlaanderen Gebouwenregister","source_id":"gebouw/Gebouw.9100295/0","kind":"building","height_m":5.72,"status":null},"geometry":{"type":"Polygon","coordinates":[[[3.95605167,50.98189771],[3.95606571,50.98195613],[3.95597524,50.9819652],[3.95596119,50.98190716],[3.95605167,50.98189771]]]}},{"type":"Feature","id":"gebouw/Gebouw.9100296/0","properties":{"source":"Digitaal Vlaanderen Gebouwenregister","source_id":"gebouw/Gebouw.9100296/0","kind":"building","height_m":6.44,"status":null},"geometry":{"type":"Polygon","coordinates":[[[3.95636612,50.9827545],[3.95660446,50.98272127],[3.95661344,50.98274966],[3.95637569,50.98278289],[3.95636612,50.9827545]]]}},{"type":"Feature","id":"gebouw/Gebouw.9100297/0","properties":{"source":"Digitaal Vlaanderen Gebouwenregister","source_id":"gebouw/Gebouw.9100297/0","kind":"building","height_m":7.16,"status":null},"geometry":{"type":"Polygon","coordinates":[[[3.95597612,50.98287121],[3.95604285,50.98286223],[3.95605298,50.98289176],[3.95598536,50.98290091],[3.95597612,50.98287121]]]}},{"type":"Feature","id":"gebouw/Gebouw.9100312/0","properties":{"source":"Digitaal Vlaanderen Gebouwenregister","source_id":"gebouw/Gebouw.9100312/0","kind":"building","height_m":7.88,"status":null},"geometry":{"type":"Polygon","coordinates":[[[3.96237162,50.98190574],[3.9622911,50.98193011],[3.96218873,50.98179557],[3.96225639,50.98177497],[3.96227854,50.98180395],[3.96229093,50.98180018],[3.96237162,50.98190574]]]}},{"type":"Feature","id":"gebouw/Gebouw.9127378/0","properties":{"source":"Digitaal Vlaanderen Gebouwenregister","source_id":"gebouw/Gebouw.9127378/0","kind":"building","height_m":5.72,"status":null},"geometry":{"type":"Polygon","coordinates":[[[3.95639393,50.98193405],[3.95638595,50.98190211],[3.95645782,50.98189377],[3.95645122,50.98187043],[3.95661936,50.98185214],[3.95663461,50.98190802],[3.95646213,50.98192667],[3.95639393,50.98193405]]]}},{"type":"Feature","id":"gebouw/Gebouw.9127386/0","properties":{"source":"Digitaal Vlaanderen Gebouwenregister","source_id":"gebouw/Gebouw.9127386/0","kind":"building","height_m":6.44,"status":null},"geometry":{"type":"Polygon","coordinates":[[[3.95679991,50.98342407],[3.95686397,50.98341578],[3.95685535,50.98338682],[3.95698493,50.98337116],[3.9570045,50.98343568],[3.95694462,50.98344299],[3.9569505,50.98346314],[3.9568154,50.98347883],[3.95679991,50.98342407]]]}},{"type":"Feature","id":"gebouw/Gebouw.9134817/0","properties":{"source":"Digitaal Vlaanderen Gebouwenregister","source_id":"gebouw/Gebouw.9134817/0","kind":"building","height_m":9.32,"status":null},"geometry":{"type":"Polygon","coordinates":[[[3.95681476,50.98335659],[3.95677449,50.98336228],[3.95677345,50.98335908],[3.95676597,50.98333599],[3.95680649,50.98333046],[3.95681387,50.98335375],[3.95681476,50.98335659]]]}},{"type":"Feature","id":"gebouw/Gebouw.9155192/0","properties":{"source":"Digitaal Vlaanderen Gebouwenregister","source_id":"gebouw/Gebouw.9155192/0","kind":"building","height_m":7.88,"status":null},"geometry":{"type":"Polygon","coordinates":[[[3.95549182,50.98250066],[3.95531465,50.98252198],[3.95529041,50.98243833],[3.95546812,50.98241883],[3.95549182,50.98250066]]]}},{"type":"Feature","id":"gebouw/Gebouw.9155234/0","properties":{"source":"Digitaal Vlaanderen Gebouwenregister","source_id":"gebouw/Gebouw.9155234/0","kind":"building","height_m":7.88,"status":null},"geometry":{"type":"Polygon","coordinates":[[[3.95690244,50.98291944],[3.95666318,50.98294896],[3.95665619,50.98292378],[3.9566472,50.98289615],[3.95670823,50.98288917],[3.95675617,50.98288316],[3.95675369,50.98287314],[3.95688239,50.98285674],[3.95690233,50.98291909],[3.95690244,50.98291944]]]}},{"type":"Feature","id":"gebouw/Gebouw.9155802/0","properties":{"source":"Digitaal Vlaanderen Gebouwenregister","source_id":"gebouw/Gebouw.9155802/0","kind":"building","height_m":8.6,"status":null},"geometry":{"type":"Polygon","coordinates":[[[3.9560749,50.98243292],[3.95606916,50.98241282],[3.95635203,50.9823786],[3.95630007,50.98220494],[3.95601545,50.982238],[3.95604742,50.98234364],[3.95589193,50.98236202],[3.95583811,50.98236839],[3.95583991,50.98237454],[3.95579665,50.98237965],[3.95581286,50.98243429],[3.95585456,50.98242936],[3.95586277,50.98245733],[3.95587985,50.98251553],[3.95609126,50.98249024],[3.9560749,50.98243292]]]}},{"type":"Feature","id":"gebouw/Gebouw.9155803/0","properties":{"source":"Digitaal Vlaanderen Gebouwenregister","source_id":"gebouw/Gebouw.9155803/0","kind":"building","height_m":9.32,"status":null},"geometry":{"type":"Polygon","coordinates":[[[3.95684401,50.98249163],[3.95655412,50.98252474],[3.9565455,50.9824919],[3.95659521,50.98248629],[3.95659316,50.98247503],[3.9566929,50.98246362],[3.95670167,50.98245754],[3.9567261,50.98245445],[3.95673931,50.98246071],[3.95683221,50.98245017],[3.95684385,50.98249105],[3.95684401,50.98249163]]]}},{"type":"Feature","id":"gebouw/Gebouw.9155804/0","properties":{"source":"Digitaal Vlaanderen Gebouwenregister","source_id":"gebouw/Gebouw.9155804/0","kind":"building","height_m":5.0,"status":null},"geometry":{"type":"Polygon","coordinates":[[[3.95697398,50.98279952],[3.95685205,50.98281306],[3.95684422,50.98278321],[3.95670006,50.98280179],[3.9566707,50.98271227],[3.95692728,50.98267938],[3.95695605,50.98276259],[3.95696865,50.98276083],[3.95697853,50.98279902],[3.95697398,50.98279952]]]}},{"type":"Feature","id":"gebouw/Gebouw.9172252/0","properties":{"source":"Digitaal Vlaanderen Gebouwenregister","source_id":"gebouw/Gebouw.9172252/0","kind":"building","height_m":8.6,"status":null},"geometry":{"type":"Polygon","coordinates":[[[3.95520082,50.98151201],[3.95537187,50.98149694],[3.95537513,50.98151739],[3.95520433,50.98153416],[3.95520082,50.98151201]]]}},{"type":"Feature","id":"gebouw/Gebouw.9172253/0","properties":{"source":"Digitaal Vlaanderen Gebouwenregister","source_id":"gebouw/Gebouw.9172253/0","kind":"building","height_m":9.32,"status":null},"geometry":{"type":"Polygon","coordinates":[[[3.95638623,50.98280849],[3.956383,50.98279684],[3.95660642,50.98276681],[3.95661024,50.98277809],[3.95638623,50.98280849]]]}},{"type":"Feature","id":"gebouw/Gebouw.9192921/0","properties":{"source":"Digitaal Vlaanderen Gebouwenregister","source_id":"gebouw/Gebouw.9192921/0","kind":"building","height_m":7.16,"status":null},"geometry":{"type":"Polygon","coordinates":[[[3.95675028,50.98340217],[3.95663929,50.98341631],[3.95662875,50.98338286],[3.95674053,50.98336862],[3.95675028,50.98340217]]]}},{"type":"Feature","id":"gebouw/Gebouw.9192962/0","properties":{"source":"Digitaal Vlaanderen Gebouwenregister","source_id":"gebouw/Gebouw.9192962/0","kind":"building","height_m":6.44,"status":null},"geometry":{"type":"Polygon","coordinates":[[[3.95657073,50.98284677],[3.95642748,50.98286697],[3.95642013,50.98284709],[3.95664525,50.98281299],[3.95665311,50.98283515],[3.95657073,50.98284677]]]}},{"type":"Feature","id":"gebouw/Gebouw.9443979/0","properties":{"source":"Digitaal Vlaanderen Gebouwenregister","source_id":"gebouw/Gebouw.9443979/0","kind":"building","height_m":9.32,"status":null},"geometry":{"type":"Polygon","coordinates":[[[3.95611216,50.98139948],[3.95609703,50.98132807],[3.9563876,50.9813035],[3.95640275,50.98137491],[3.95611216,50.98139948]]]}},{"type":"Feature","id":"gebouw/Gebouw.9575782/0","properties":{"source":"Digitaal Vlaanderen Gebouwenregister","source_id":"gebouw/Gebouw.9575782/0","kind":"building","height_m":9.32,"status":null},"geometry":{"type":"Polygon","coordinates":[[[3.96267867,50.98175229],[3.96262211,50.98169658],[3.96258194,50.9817111],[3.96255237,50.98168346],[3.96252068,50.98165383],[3.96261499,50.98161408],[3.96264664,50.98164377],[3.96267017,50.98166585],[3.96271222,50.98164835],[3.96269153,50.98162488],[3.96278554,50.98158531],[3.96286206,50.98165741],[3.96289826,50.98174717],[3.96287066,50.9817516],[3.96287967,50.98177212],[3.96280893,50.98178438],[3.96278012,50.98171187],[3.96282814,50.98170324],[3.96282522,50.98169141],[3.96278012,50.98171187],[3.96267867,50.98175229]]]}},{"type":"Feature","id":"gebouw/Gebouw.9578830/0","properties":{"source":"Digitaal Vlaanderen Gebouwenregister","source_id":"gebouw/Gebouw.9578830/0","kind":"building","height_m":6.44,"status":null},"geometry":{"type":"Polygon","coordinates":[[[3.96234878,50.98171061],[3.96242101,50.98167805],[3.96250403,50.98174786],[3.96249993,50.98175005],[3.96251627,50.98176305],[3.96251859,50.98176185],[3.96261249,50.9818376],[3.96271089,50.98178734],[3.96279172,50.98184873],[3.96267902,50.98190787],[3.96260116,50.98184875],[3.96251972,50.98188622],[3.96243178,50.98180042],[3.96244529,50.9817942],[3.96234878,50.98171061]]]}},{"type":"Feature","id":"gebouw/Gebouw.9731785/0","properties":{"source":"Digitaal Vlaanderen Gebouwenregister","source_id":"gebouw/Gebouw.9731785/0","kind":"building","height_m":5.0,"status":null},"geometry":{"type":"Polygon","coordinates":[[[3.95655426,50.98346448],[3.95656896,50.98351036],[3.95652491,50.98351509],[3.9565102,50.9834696],[3.95655426,50.98346448]]]}},{"type":"Feature","id":"gebouw/Gebouw.9737239/0","properties":{"source":"Digitaal Vlaanderen Gebouwenregister","source_id":"gebouw/Gebouw.9737239/0","kind":"building","height_m":5.72,"status":null},"geometry":{"type":"Polygon","coordinates":[[[3.95631778,50.98185748],[3.95620757,50.98186905],[3.95621704,50.98190448],[3.95632719,50.98189189],[3.95631778,50.98185748]]]}},{"type":"Feature","id":"gebouw/Gebouw.9746514/0","properties":{"source":"Digitaal Vlaanderen Gebouwenregister","source_id":"gebouw/Gebouw.9746514/0","kind":"building","height_m":5.72,"status":null},"geometry":{"type":"Polygon","coordinates":[[[3.95651768,50.98160632],[3.95650543,50.98155125],[3.95645287,50.98152626],[3.95609208,50.98155808],[3.95606423,50.98143424],[3.95606273,50.98142758],[3.95606237,50.98142598],[3.95605258,50.98138245],[3.95580178,50.9814056],[3.95579262,50.98136335],[3.9555071,50.98138885],[3.95539381,50.98139897],[3.95541175,50.98148854],[3.95541549,50.98150718],[3.95553062,50.9814967],[3.95555508,50.98160543],[3.95583712,50.98158056],[3.95587561,50.98174845],[3.95649008,50.98169434],[3.95652981,50.98166123],[3.95651768,50.98160632]]]}},{"type":"Feature","id":"gebouw/Gebouw.9746719/0","properties":{"source":"Digitaal Vlaanderen Gebouwenregister","source_id":"gebouw/Gebouw.9746719/0","kind":"building","height_m":7.16,"status":null},"geometry":{"type":"Polygon","coordinates":[[[3.95665312,50.98198288],[3.95648174,50.98199976],[3.95646213,50.98192667],[3.95663461,50.98190802],[3.95665312,50.98198288]]]}},{"type":"Feature","id":"gebouw/Gebouw.9776384/0","properties":{"source":"Digitaal Vlaanderen Gebouwenregister","source_id":"gebouw/Gebouw.9776384/0","kind":"building","height_m":6.44,"status":null},"geometry":{"type":"Polygon","coordinates":[[[3.95542943,50.98230956],[3.9554596,50.98239532],[3.9553268,50.98241103],[3.95529545,50.98232526],[3.95542943,50.98230956]]]}},{"type":"Feature","id":"gebouw/Gebouw.9776385/0","properties":{"source":"Digitaal Vlaanderen Gebouwenregister","source_id":"gebouw/Gebouw.9776385/0","kind":"building","height_m":7.16,"status":null},"geometry":{"type":"Polygon","coordinates":[[[3.95653465,50.98245015],[3.95653455,50.98245016],[3.95651846,50.98245207],[3.95651038,50.9824235],[3.95650668,50.98241042],[3.95669051,50.98238858],[3.95668762,50.9823789],[3.95680698,50.98236511],[3.95682178,50.98241616],[3.95658798,50.98244384],[3.95653465,50.98245015]]]}},{"type":"Feature","id":"gebouw/Gebouw.19532763/0","properties":{"source":"Digitaal Vlaanderen Gebouwenregister","source_id":"gebouw/Gebouw.19532763/0","kind":"building","height_m":8.6,"status":null},"geometry":{"type":"Polygon","coordinates":[[[3.96236988,50.9817011],[3.96227448,50.98174411],[3.96226647,50.98174772],[3.96218601,50.98167804],[3.96208232,50.98158824],[3.96217701,50.98154468],[3.96222971,50.98159032],[3.96223772,50.98158663],[3.96236988,50.9817011]]]}},{"type":"Feature","id":"gebouw/Gebouw.19534356/0","properties":{"source":"Digitaal Vlaanderen Gebouwenregister","source_id":"gebouw/Gebouw.19534356/0","kind":"building","height_m":6.44,"status":null},"geometry":{"type":"Polygon","coordinates":[[[3.96287341,50.98166811],[3.96267867,50.98175229],[3.96262211,50.98169658],[3.96258194,50.9817111],[3.96255237,50.98168346],[3.96252068,50.98165383],[3.96261499,50.98161408],[3.96267451,50.98166886],[3.96281034,50.98161006],[3.96287341,50.98166811]]]}},{"type":"Feature","id":"gebouw/Gebouw.19534357/0","properties":{"source":"Digitaal Vlaanderen Gebouwenregister","source_id":"gebouw/Gebouw.19534357/0","kind":"building","height_m":7.16,"status":null},"geometry":{"type":"Polygon","coordinates":[[[3.96289826,50.98174717],[3.96287066,50.9817516],[3.96287967,50.98177212],[3.96280893,50.98178438],[3.96278012,50.98171187],[3.96287768,50.98169613],[3.96289826,50.98174717]]]}},{"type":"Feature","id":"gebouw/Gebouw.20193936/0","properties":{"source":"Digitaal Vlaanderen Gebouwenregister","source_id":"gebouw/Gebouw.20193936/0","kind":"building","height_m":5.0,"status":null},"geometry":{"type":"Polygon","coordinates":[[[3.95598814,50.98251916],[3.95606874,50.98250995],[3.9560814,50.98255404],[3.9560008,50.98256326],[3.95598814,50.98251916]]]}},{"type":"Feature","id":"gebouw/Gebouw.20193937/0","properties":{"source":"Digitaal Vlaanderen Gebouwenregister","source_id":"gebouw/Gebouw.20193937/0","kind":"building","height_m":5.72,"status":null},"geometry":{"type":"Polygon","coordinates":[[[3.95583558,50.98258985],[3.9558228,50.98253441],[3.95582215,50.9825316],[3.95578319,50.98253518],[3.9557801,50.98252177],[3.95570766,50.98252843],[3.95571226,50.98254749],[3.95572491,50.98260001],[3.95583558,50.98258985]]]}},{"type":"Feature","id":"gebouw/Gebouw.30585099/0","properties":{"source":"Digitaal Vlaanderen Gebouwenregister","source_id":"gebouw/Gebouw.30585099/0","kind":"building","height_m":9.32,"status":null},"geometry":{"type":"Polygon","coordinates":[[[3.96233725,50.98173102],[3.96227935,50.98175888],[3.96215419,50.98181909],[3.96208458,50.98176142],[3.96221168,50.98170027],[3.96226764,50.98167335],[3.96233725,50.98173102]]]}},{"type":"Feature","id":"gebouw/Gebouw.31546464/0","properties":{"source":"Digitaal Vlaanderen Gebouwenregister","source_id":"gebouw/Gebouw.31546464/0","kind":"building","height_m":8.6,"status":null},"geometry":{"type":"Polygon","coordinates":[[[3.95747679,50.98263158],[3.95747632,50.98264512],[3.95749657,50.9826453],[3.95749703,50.98263177],[3.95747679,50.98263158]]]}},{"type":"Feature","id":"gebouw/Gebouw.31762599/0","properties":{"source":"Digitaal Vlaanderen Gebouwenregister","source_id":"gebouw/Gebouw.31762599/0","kind":"building","height_m":5.72,"status":null},"geometry":{"type":"Polygon","coordinates":[[[3.9574924,50.98261295],[3.95745565,50.98261233],[3.95745437,50.98264212],[3.9574714,50.98264241],[3.95749113,50.98264275],[3.9574922,50.9826177],[3.9574924,50.98261295]]]}},{"type":"Feature","id":"way/174922150","properties":{"source":"OpenStreetMap","source_id":"way/174922150","kind":"vegetation","name":null,"waterway":null,"landuse":"forest"},"geometry":{"type":"Polygon","coordinates":[[[3.9564773,50.9818823],[3.9564155,50.9816375],[3.9570877,50.9815804],[3.9570695,50.9815392],[3.9556515,50.9816623],[3.9552046,50.981701],[3.9552347,50.9819697],[3.9564773,50.9818823]]]}},{"type":"Feature","id":"way/174922159","properties":{"source":"OpenStreetMap","source_id":"way/174922159","kind":"vegetation","name":null,"waterway":null,"landuse":"forest"},"geometry":{"type":"Polygon","coordinates":[[[3.9630184,50.9814055],[3.961852,50.9815673],[3.9615283,50.9807941],[3.9610659,50.980765],[3.9610659,50.980448],[3.9629876,50.9805677],[3.9635579,50.9813149],[3.9630184,50.9814055]]]}}]}