{"type":"FeatureCollection","features":[{"type":"Feature","id":"way/1040896370","properties":{"source":"OpenStreetMap","source_id":"way/1040896370","kind":"water","name":null,"waterway":null,"landuse":null},"geometry":{"type":"Polygon","coordinates":[[[3.9526183,50.953996],[3.9525832,50.953975],[3.9525732,50.9539361],[3.9525949,50.9539024],[3.9526383,50.9538856],[3.9526751,50.9538909],[3.9527101,50.9539151],[3.9527168,50.9539529],[3.9526984,50.9539834],[3.952665,50.9540023],[3.9526183,50.953996]]]}}]}