{"type":"FeatureCollection","features":[{"type":"Feature","id":"gebouw/Gebouw.7311802/0","properties":{"source":"Digitaal Vlaanderen Gebouwenregister","source_id":"gebouw/Gebouw.7311802/0","kind":"building","height_m":5.72,"status":null},"geometry":{"type":"Polygon","coordinates":[[[3.97355914,50.98184999],[3.97310974,50.98198747],[3.97284885,50.98206729],[3.97279599,50.98208346],[3.97267191,50.98192188],[3.97272476,50.98190571],[3.97276091,50.98189465],[3.97271624,50.98183641],[3.97284164,50.98179869],[3.97283679,50.98179208],[3.97297088,50.98175127],[3.97296345,50.98174144],[3.97326454,50.98163978],[3.97329858,50.98168456],[3.97318958,50.98171929],[3.97322396,50.98176238],[3.97331645,50.9817344],[3.9733982,50.98184359],[3.97352303,50.98180511],[3.97346311,50.98170029],[3.97343298,50.98170575],[3.97340783,50.98166145],[3.97343771,50.9816543],[3.97343346,50.98164732],[3.97348747,50.9816365],[3.97347451,50.98161523],[3.97353669,50.98160103],[3.97359776,50.98170757],[3.97364346,50.98178679],[3.97353392,50.98181197],[3.97355914,50.98184999]]]}},{"type":"Feature","id":"gebouw/Gebouw.7581907/0","properties":{"source":"Digitaal Vlaanderen Gebouwenregister","source_id":"gebouw/Gebouw.7581907/0","kind":"building","height_m":7.88,"status":null},"geometry":{"type":"Polygon","coordinates":[[[3.97299746,50.98167356],[3.9730347,50.98171477],[3.97284103,50.98177928],[3.97280597,50.98173732],[3.97299746,50.98167356]]]}},{"type":"Feature","id":"gebouw/Gebouw.7582484/0","properties":{"source":"Digitaal Vlaanderen Gebouwenregister","source_id":"gebouw/Gebouw.7582484/0","kind":"building","height_m":5.0,"status":null},"geometry":{"type":"Polygon","coordinates":[[[3.97198925,50.98229509],[3.97199033,50.98225584],[3.97196889,50.98225581],[3.97197045,50.98217019],[3.97217982,50.98217102],[3.97217886,50.98226613],[3.97209986,50.9822658],[3.97210033,50.98225599],[3.97203689,50.9822559],[3.9720358,50.98229561],[3.97198925,50.98229509]]]}},{"type":"Feature","id":"gebouw/Gebouw.7717271/0","properties":{"source":"Digitaal Vlaanderen Gebouwenregister","source_id":"gebouw/Gebouw.7717271/0","kind":"building","height_m":6.44,"status":null},"geometry":{"type":"Polygon","coordinates":[[[3.97182059,50.98212069],[3.97176247,50.98212039],[3.97176288,50.9820889],[3.97182099,50.9820892],[3.97182059,50.98212069]]]}},{"type":"Feature","id":"gebouw/Gebouw.7829871/0","properties":{"source":"Digitaal Vlaanderen Gebouwenregister","source_id":"gebouw/Gebouw.7829871/0","kind":"building","height_m":5.0,"status":null},"geometry":{"type":"Polygon","coordinates":[[[3.97205074,50.98195871],[3.97198576,50.98195833],[3.97197678,50.98195828],[3.97197327,50.98190898],[3.97198798,50.98190842],[3.97204929,50.98190611],[3.97205074,50.98195871]]]}},{"type":"Feature","id":"gebouw/Gebouw.7830567/0","properties":{"source":"Digitaal Vlaanderen Gebouwenregister","source_id":"gebouw/Gebouw.7830567/0","kind":"building","height_m":7.16,"status":null},"geometry":{"type":"Polygon","coordinates":[[[3.97327172,50.98142104],[3.97331273,50.98147362],[3.9732074,50.98150637],[3.9732807,50.98160382],[3.97312508,50.98165038],[3.97309849,50.98161505],[3.97311017,50.98161125],[3.97304172,50.9815245],[3.97319739,50.98147644],[3.9731794,50.98145272],[3.97327172,50.98142104]]]}},{"type":"Feature","id":"gebouw/Gebouw.7863691/0","properties":{"source":"Digitaal Vlaanderen Gebouwenregister","source_id":"gebouw/Gebouw.7863691/0","kind":"building","height_m":7.16,"status":null},"geometry":{"type":"Polygon","coordinates":[[[3.97163799,50.98191416],[3.97166676,50.98194558],[3.9716129,50.98196122],[3.97160525,50.98195048],[3.97157055,50.98195954],[3.97156634,50.98195429],[3.97155491,50.98195696],[3.97153806,50.9819353],[3.97157655,50.98192611],[3.97158688,50.98192261],[3.97158923,50.98192802],[3.97163799,50.98191416]]]}},{"type":"Feature","id":"gebouw/Gebouw.7864326/0","properties":{"source":"Digitaal Vlaanderen Gebouwenregister","source_id":"gebouw/Gebouw.7864326/0","kind":"building","height_m":5.72,"status":null},"geometry":{"type":"Polygon","coordinates":[[[3.97327172,50.98142104],[3.9731794,50.98145272],[3.97316588,50.98145735],[3.97310468,50.98138087],[3.97331893,50.98131548],[3.97336094,50.98137034],[3.97325849,50.98140161],[3.97327172,50.98142104]]]}},{"type":"Feature","id":"gebouw/Gebouw.7888352/0","properties":{"source":"Digitaal Vlaanderen Gebouwenregister","source_id":"gebouw/Gebouw.7888352/0","kind":"building","height_m":7.16,"status":null},"geometry":{"type":"Polygon","coordinates":[[[3.97206831,50.98180515],[3.97206834,50.98180331],[3.97219217,50.98180568],[3.97218776,50.98189736],[3.97218064,50.98189728],[3.97217927,50.98192867],[3.9720662,50.98192668],[3.9720668,50.98189216],[3.97206831,50.98180515]]]}},{"type":"Feature","id":"gebouw/Gebouw.7903221/0","properties":{"source":"Digitaal Vlaanderen Gebouwenregister","source_id":"gebouw/Gebouw.7903221/0","kind":"building","height_m":7.88,"status":null},"geometry":{"type":"Polygon","coordinates":[[[3.97376439,50.98138901],[3.97363947,50.98141394],[3.97370141,50.98153393],[3.97381791,50.98150967],[3.97376439,50.98138901]]]}},{"type":"Feature","id":"gebouw/Gebouw.7913615/0","properties":{"source":"Digitaal Vlaanderen Gebouwenregister","source_id":"gebouw/Gebouw.7913615/0","kind":"building","height_m":7.16,"status":null},"geometry":{"type":"Polygon","coordinates":[[[3.97212518,50.98200066],[3.97206859,50.98200067],[3.97192826,50.98200069],[3.97193004,50.9820995],[3.9721797,50.98209946],[3.97217966,50.98200065],[3.97212518,50.98200066]]]}},{"type":"Feature","id":"gebouw/Gebouw.9172684/0","properties":{"source":"Digitaal Vlaanderen Gebouwenregister","source_id":"gebouw/Gebouw.9172684/0","kind":"building","height_m":7.16,"status":null},"geometry":{"type":"Polygon","coordinates":[[[3.97278381,50.98124307],[3.97277097,50.98124372],[3.97276158,50.98116972],[3.97278704,50.98116827],[3.97277999,50.98111385],[3.97278447,50.9811135],[3.97278707,50.98108761],[3.97286353,50.98108529],[3.97286749,50.98111227],[3.97288054,50.9812012],[3.97288141,50.98120712],[3.97288592,50.98123792],[3.97278381,50.98124307]]]}},{"type":"Feature","id":"gebouw/Gebouw.9476055/0","properties":{"source":"Digitaal Vlaanderen Gebouwenregister","source_id":"gebouw/Gebouw.9476055/0","kind":"building","height_m":5.72,"status":null},"geometry":{"type":"Polygon","coordinates":[[[3.96712,50.98224136],[3.96698524,50.98226311],[3.96693357,50.98213348],[3.96705441,50.9821142],[3.96707142,50.98215531],[3.96708403,50.98218808],[3.96709863,50.98218584],[3.96712,50.98224136]]]}},{"type":"Feature","id":"gebouw/Gebouw.9476431/0","properties":{"source":"Digitaal Vlaanderen Gebouwenregister","source_id":"gebouw/Gebouw.9476431/0","kind":"building","height_m":9.32,"status":null},"geometry":{"type":"Polygon","coordinates":[[[3.97326715,50.98117892],[3.97312753,50.98118696],[3.97311554,50.98109227],[3.97326786,50.98108287],[3.97327007,50.98109851],[3.97327183,50.98109842],[3.97327302,50.98110843],[3.97327159,50.98110924],[3.97327388,50.98112383],[3.97325932,50.98112467],[3.97326715,50.98117892]]]}},{"type":"Feature","id":"gebouw/Gebouw.9577906/0","properties":{"source":"Digitaal Vlaanderen Gebouwenregister","source_id":"gebouw/Gebouw.9577906/0","kind":"building","height_m":6.44,"status":null},"geometry":{"type":"Polygon","coordinates":[[[3.97320059,50.98130965],[3.973199,50.9813118],[3.97320067,50.98131732],[3.9732055,50.98133334],[3.97320534,50.98133337],[3.9731298,50.9813427],[3.97291747,50.98136892],[3.9728941,50.98130672],[3.97289182,50.98130064],[3.97319081,50.98126877],[3.97320059,50.98130965]]]}},{"type":"Feature","id":"gebouw/Gebouw.9577910/0","properties":{"source":"Digitaal Vlaanderen Gebouwenregister","source_id":"gebouw/Gebouw.9577910/0","kind":"building","height_m":9.32,"status":null},"geometry":{"type":"Polygon","coordinates":[[[3.97368885,50.98121924],[3.97356227,50.98122018],[3.97357192,50.98107406],[3.97370118,50.98107777],[3.97368885,50.98121924]]]}},{"type":"Feature","id":"gebouw/Gebouw.9578067/0","properties":{"source":"Digitaal Vlaanderen Gebouwenregister","source_id":"gebouw/Gebouw.9578067/0","kind":"building","height_m":6.44,"status":null},"geometry":{"type":"Polygon","coordinates":[[[3.97297024,50.98141223],[3.97293253,50.98142479],[3.97286749,50.98144646],[3.9728648,50.9814376],[3.97284678,50.98137819],[3.97284556,50.98137418],[3.97274077,50.98138686],[3.97274218,50.98139191],[3.972698,50.9813968],[3.97269037,50.98136935],[3.97269916,50.98136838],[3.97268801,50.98133168],[3.97285712,50.9813112],[3.97285373,50.98129403],[3.97280251,50.98130056],[3.97278381,50.98124307],[3.97288592,50.98123792],[3.97289182,50.98130064],[3.9728941,50.98130672],[3.97289741,50.98131551],[3.97291747,50.98136892],[3.97295973,50.98140361],[3.97297024,50.98141223]]]}},{"type":"Feature","id":"gebouw/Gebouw.9578070/0","properties":{"source":"Digitaal Vlaanderen Gebouwenregister","source_id":"gebouw/Gebouw.9578070/0","kind":"building","height_m":8.6,"status":null},"geometry":{"type":"Polygon","coordinates":[[[3.97303712,50.98119019],[3.97303386,50.98116267],[3.97309569,50.98115975],[3.97309895,50.98118727],[3.97303712,50.98119019]]]}},{"type":"Feature","id":"gebouw/Gebouw.9732316/0","properties":{"source":"Digitaal Vlaanderen Gebouwenregister","source_id":"gebouw/Gebouw.9732316/0","kind":"building","height_m":9.32,"status":null},"geometry":{"type":"Polygon","coordinates":[[[3.966847,50.98224041],[3.96678352,50.98225239],[3.96675951,50.98218502],[3.96682329,50.98217521],[3.966847,50.98224041]]]}},{"type":"Feature","id":"gebouw/Gebouw.18362762/0","properties":{"source":"Digitaal Vlaanderen Gebouwenregister","source_id":"gebouw/Gebouw.18362762/0","kind":"building","height_m":8.6,"status":null},"geometry":{"type":"Polygon","coordinates":[[[3.97297439,50.98116534],[3.97297827,50.98119484],[3.97289094,50.98120004],[3.9728887,50.98117149],[3.97297439,50.98116534]]]}},{"type":"Feature","id":"gebouw/Gebouw.18374708/0","properties":{"source":"Digitaal Vlaanderen Gebouwenregister","source_id":"gebouw/Gebouw.18374708/0","kind":"building","height_m":6.44,"status":null},"geometry":{"type":"Polygon","coordinates":[[[3.9673598,50.98219652],[3.96737139,50.98219724],[3.96737211,50.98218589],[3.96743919,50.98218927],[3.9674337,50.98223269],[3.96735385,50.98222818],[3.9673598,50.98219652]]]}},{"type":"Feature","id":"gebouw/Gebouw.18374709/0","properties":{"source":"Digitaal Vlaanderen Gebouwenregister","source_id":"gebouw/Gebouw.18374709/0","kind":"building","height_m":7.16,"status":null},"geometry":{"type":"Polygon","coordinates":[[[3.96729669,50.98222823],[3.96738397,50.98223411],[3.96737792,50.98229273],[3.96728751,50.9822862],[3.96729669,50.98222823]]]}},{"type":"Feature","id":"gebouw/Gebouw.18416082/0","properties":{"source":"Digitaal Vlaanderen Gebouwenregister","source_id":"gebouw/Gebouw.18416082/0","kind":"building","height_m":9.32,"status":null},"geometry":{"type":"Polygon","coordinates":[[[3.97161062,50.98215536],[3.97161184,50.9822226],[3.97166453,50.98222282],[3.97166473,50.98220385],[3.97168912,50.98220378],[3.97169081,50.9821538],[3.97161062,50.98215536]]]}},{"type":"Feature","id":"gebouw/Gebouw.18452845/0","properties":{"source":"Digitaal Vlaanderen Gebouwenregister","source_id":"gebouw/Gebouw.18452845/0","kind":"building","height_m":8.6,"status":null},"geometry":{"type":"Polygon","coordinates":[[[3.97308233,50.98137316],[3.97298792,50.98140559],[3.97295397,50.98135967],[3.97304833,50.98132958],[3.97308233,50.98137316]]]}},{"type":"Feature","id":"gebouw/Gebouw.18500538/0","properties":{"source":"Digitaal Vlaanderen Gebouwenregister","source_id":"gebouw/Gebouw.18500538/0","kind":"building","height_m":5.0,"status":null},"geometry":{"type":"Polygon","coordinates":[[[3.97021356,50.9812322],[3.97021677,50.98124961],[3.96966618,50.98129007],[3.9696655,50.98128638],[3.96964485,50.98117438],[3.97019543,50.98113392],[3.97021356,50.9812322]]]}},{"type":"Feature","id":"gebouw/Gebouw.18598808/0","properties":{"source":"Digitaal Vlaanderen Gebouwenregister","source_id":"gebouw/Gebouw.18598808/0","kind":"building","height_m":7.88,"status":null},"geometry":{"type":"Polygon","coordinates":[[[3.96912476,50.98155731],[3.96913441,50.98160787],[3.96914034,50.98160751],[3.96914481,50.98163126],[3.96921823,50.98163679],[3.96922546,50.98167532],[3.96873403,50.98171207],[3.96869901,50.98151815],[3.96906751,50.98149116],[3.96908052,50.98156048],[3.96912476,50.98155731]]]}},{"type":"Feature","id":"gebouw/Gebouw.18734603/0","properties":{"source":"Digitaal Vlaanderen Gebouwenregister","source_id":"gebouw/Gebouw.18734603/0","kind":"building","height_m":9.32,"status":null},"geometry":{"type":"Polygon","coordinates":[[[3.97291004,50.98128307],[3.97290183,50.98123483],[3.97303248,50.98122597],[3.97304069,50.98127421],[3.97291004,50.98128307]]]}},{"type":"Feature","id":"gebouw/Gebouw.18743476/0","properties":{"source":"Digitaal Vlaanderen Gebouwenregister","source_id":"gebouw/Gebouw.18743476/0","kind":"building","height_m":7.16,"status":null},"geometry":{"type":"Polygon","coordinates":[[[3.96902217,50.98125564],[3.96874328,50.98127577],[3.96871118,50.98109848],[3.96899007,50.98107836],[3.96902217,50.98125564]]]}},{"type":"Feature","id":"gebouw/Gebouw.19296799/0","properties":{"source":"Digitaal Vlaanderen Gebouwenregister","source_id":"gebouw/Gebouw.19296799/0","kind":"building","height_m":7.88,"status":null},"geometry":{"type":"Polygon","coordinates":[[[3.97122838,50.98204897],[3.97121216,50.98202052],[3.97142472,50.98197224],[3.97144094,50.98200069],[3.97122838,50.98204897]]]}},{"type":"Feature","id":"gebouw/Gebouw.19481540/0","properties":{"source":"Digitaal Vlaanderen Gebouwenregister","source_id":"gebouw/Gebouw.19481540/0","kind":"building","height_m":5.72,"status":null},"geometry":{"type":"Polygon","coordinates":[[[3.97311982,50.98198439],[3.97305627,50.98190022],[3.97294383,50.98193404],[3.97284164,50.98179869],[3.97283668,50.98179211],[3.97297088,50.98175127],[3.97296345,50.98174144],[3.97326502,50.98164036],[3.97330474,50.98162705],[3.97332793,50.98165442],[3.97328525,50.98166883],[3.97329858,50.98168456],[3.97318958,50.98171929],[3.97322396,50.98176238],[3.97331645,50.9817344],[3.9733982,50.98184359],[3.97352303,50.98180511],[3.97346311,50.98170029],[3.97343298,50.98170575],[3.97340783,50.98166145],[3.97343771,50.9816543],[3.97343346,50.98164732],[3.97348747,50.9816365],[3.97347451,50.98161523],[3.97353669,50.98160103],[3.97359775,50.98170757],[3.97364346,50.98178679],[3.97353392,50.98181197],[3.97355914,50.98184999],[3.97355445,50.98185143],[3.97347754,50.98187495],[3.97340502,50.98189714],[3.97311982,50.98198439]]]}},{"type":"Feature","id":"gebouw/Gebouw.19481541/0","properties":{"source":"Digitaal Vlaanderen Gebouwenregister","source_id":"gebouw/Gebouw.19481541/0","kind":"building","height_m":6.44,"status":null},"geometry":{"type":"Polygon","coordinates":[[[3.97311982,50.98198439],[3.97284885,50.98206729],[3.9728336,50.98207195],[3.97279599,50.98208346],[3.97267191,50.98192188],[3.97272476,50.98190571],[3.97276091,50.98189465],[3.97271624,50.98183641],[3.97284164,50.98179869],[3.97294383,50.98193404],[3.97305627,50.98190022],[3.97311982,50.98198439]]]}},{"type":"Feature","id":"gebouw/Gebouw.20088240/0","properties":{"source":"Digitaal Vlaanderen Gebouwenregister","source_id":"gebouw/Gebouw.20088240/0","kind":"building","height_m":7.88,"status":null},"geometry":{"type":"Polygon","coordinates":[[[3.96848734,50.98173766],[3.9680667,50.98176822],[3.96806343,50.98175032],[3.96803442,50.98159131],[3.96805648,50.9815897],[3.96845507,50.98156075],[3.96848734,50.98173766]]]}},{"type":"Feature","id":"gebouw/Gebouw.20462411/0","properties":{"source":"Digitaal Vlaanderen Gebouwenregister","source_id":"gebouw/Gebouw.20462411/0","kind":"building","height_m":7.88,"status":null},"geometry":{"type":"Polygon","coordinates":[[[3.96891462,50.98224852],[3.96890913,50.98222518],[3.96889493,50.98222636],[3.96885769,50.98204839],[3.96922676,50.98201759],[3.96921749,50.9819733],[3.96931593,50.98196508],[3.96936744,50.98221081],[3.96891462,50.98224852]]]}},{"type":"Feature","id":"gebouw/Gebouw.31692255/0","properties":{"source":"Digitaal Vlaanderen Gebouwenregister","source_id":"gebouw/Gebouw.31692255/0","kind":"building","height_m":5.0,"status":null},"geometry":{"type":"Polygon","coordinates":[[[3.96992713,50.98210077],[3.96980033,50.98145395],[3.96949423,50.98147786],[3.96962548,50.98214741],[3.96992713,50.98210077]]]}},{"type":"Feature","id":"gebouw/Gebouw.31762018/0","properties":{"source":"Digitaal Vlaanderen Gebouwenregister","source_id":"gebouw/Gebouw.31762018/0","kind":"building","height_m":5.72,"status":null},"geometry":{"type":"Polygon","coordinates":[[[3.97040193,50.9820279],[3.97027012,50.98135446],[3.97001801,50.98137412],[3.9701535,50.9820664],[3.97040193,50.9820279]]]}},{"type":"Feature","id":"gebouw/Gebouw.31821973/0","properties":{"source":"Digitaal Vlaanderen Gebouwenregister","source_id":"gebouw/Gebouw.31821973/0","kind":"building","height_m":5.72,"status":null},"geometry":{"type":"Polygon","coordinates":[[[3.97184581,50.98205814],[3.97188951,50.98205798],[3.97188903,50.98200578],[3.97184533,50.98200595],[3.97184581,50.98205814]]]}},{"type":"Feature","id":"gebouw/Gebouw.32055400/0","properties":{"source":"Digitaal Vlaanderen Gebouwenregister","source_id":"gebouw/Gebouw.32055400/0","kind":"building","height_m":9.32,"status":null},"geometry":{"type":"Polygon","coordinates":[[[3.97150268,50.98077486],[3.97096913,50.98072138],[3.97105475,50.98154194],[3.97146173,50.98152501],[3.97150268,50.98077486]]]}},{"type":"Feature","id":"gebouw/Gebouw.32055403/0","properties":{"source":"Digitaal Vlaanderen Gebouwenregister","source_id":"gebouw/Gebouw.32055403/0","kind":"building","height_m":6.44,"status":null},"geometry":{"type":"Polygon","coordinates":[[[3.97063497,50.98164178],[3.97148978,50.98159521],[3.97150743,50.98172433],[3.9712989,50.98173569],[3.97130756,50.98179905],[3.97117902,50.98180605],[3.97118929,50.98188119],[3.97067155,50.98190939],[3.97063497,50.98164178]]]}},{"type":"Feature","id":"gebouw/Gebouw.32055404/0","properties":{"source":"Digitaal Vlaanderen Gebouwenregister","source_id":"gebouw/Gebouw.32055404/0","kind":"building","height_m":7.16,"status":null},"geometry":{"type":"Polygon","coordinates":[[[3.97152157,50.98162566],[3.97154482,50.98140101],[3.97206213,50.98142234],[3.97191121,50.98164173],[3.97152157,50.98162566]]]}},{"type":"Feature","id":"way/153090549","properties":{"source":"OpenStreetMap","source_id":"way/153090549","kind":"vegetation","name":null,"waterway":null,"landuse":"forest"},"geometry":{"type":"Polygon","coordinates":[[[3.9715381,50.9803639],[3.9715337,50.9810334],[3.9715779,50.9812745],[3.9717207,50.9823397],[3.9715535,50.9823674],[3.9713014,50.9803416],[3.9715381,50.9803639]]]}},{"type":"Feature","id":"way/153090554","properties":{"source":"OpenStreetMap","source_id":"way/153090554","kind":"water","name":null,"waterway":null,"landuse":null},"geometry":{"type":"Polygon","coordinates":[[[3.9729451,50.9812746],[3.9728407,50.9813688],[3.9727859,50.9814276],[3.9726845,50.9814859],[3.9726404,50.9814914],[3.9725456,50.98149],[3.9724971,50.9814553],[3.9725235,50.9814151],[3.9726007,50.9813235],[3.972647,50.9812444],[3.9726537,50.9811951],[3.9726646,50.9811716],[3.9727051,50.9811402],[3.9727721,50.9811264],[3.9728438,50.9811303],[3.9729296,50.9811853],[3.9729451,50.9812746]]]}},{"type":"Feature","id":"way/240933309","properties":{"source":"OpenStreetMap","source_id":"way/240933309","kind":"waterway","name":"Wellebeek","waterway":"stream","landuse":null},"geometry":{"type":"LineString","coordinates":[[3.9641792,50.9819515],[3.9643339,50.9820757]]}},{"type":"Feature","id":"way/398065495","properties":{"source":"OpenStreetMap","source_id":"way/398065495","kind":"waterway","name":"Leedschebeek","waterway":"stream","landuse":null},"geometry":{"type":"LineString","coordinates":[[3.9703029,50.982583],[3.9704769,50.9825548],[3.9708022,50.9825083],[3.972047,50.982299],[3.9726581,50.982143],[3.972968,50.9820374],[3.9732324,50.9819421],[3.9733856,50.9818882]]}}]}