{"type":"FeatureCollection","features":[{"type":"Feature","id":"way/457916314","properties":{"source":"OpenStreetMap","source_id":"way/457916314","kind":"waterway","name":"Zwartengracht","waterway":"stream","landuse":null},"geometry":{"type":"LineString","coordinates":[[3.9951315,50.9552494],[3.9952345,50.9552956],[3.9954747,50.95538],[3.9956827,50.9553869],[3.9958456,50.955357],[3.9959964,50.9553195],[3.996196,50.9553411],[3.9962662,50.9553258],[3.9963411,50.9552942],[3.9963708,50.9551951],[3.9964726,50.9551528],[3.9967448,50.9550626],[3.9968015,50.9550019],[3.9968394,50.9549338],[3.9969177,50.954868],[3.9969585,50.9547786],[3.9969483,50.9546863],[3.9968937,50.9545578],[3.9967866,50.9543977],[3.9964872,50.9542606]]}},{"type":"Feature","id":"way/959982075","properties":{"source":"OpenStreetMap","source_id":"way/959982075","kind":"waterway","name":null,"waterway":"stream","landuse":null},"geometry":{"type":"LineString","coordinates":[[3.9957981,50.9542222],[3.9958815,50.9542474],[3.9960868,50.9542926],[3.9964499,50.9542564],[3.9964872,50.9542606]]}},{"type":"Feature","id":"way/959982076","properties":{"source":"OpenStreetMap","source_id":"way/959982076","kind":"waterway","name":null,"waterway":"stream","landuse":null},"geometry":{"type":"LineString","coordinates":[[3.9957337,50.9542027],[3.9957981,50.9542222]]}},{"type":"Feature","id":"way/959982386","properties":{"source":"OpenStreetMap","source_id":"way/959982386","kind":"waterway","name":"Zwartengracht","waterway":"stream","landuse":null},"geometry":{"type":"LineString","coordinates":[[3.9949432,50.955189],[3.9950454,50.9552115]]}},{"type":"Feature","id":"way/959982387","properties":{"source":"OpenStreetMap","source_id":"way/959982387","kind":"waterway","name":"Zwartengracht","waterway":"stream","landuse":null},"geometry":{"type":"LineString","coordinates":[[3.9950454,50.9552115],[3.9951315,50.9552494]]}},{"type":"Feature","id":"way/1288918425","properties":{"source":"OpenStreetMap","source_id":"way/1288918425","kind":"waterway","name":null,"waterway":"ditch","landuse":null},"geometry":{"type":"LineString","coordinates":[[3.9940082,50.9536926],[3.9956689,50.9541927]]}}]}