{"type":"FeatureCollection","features":[{"type":"Feature","id":"gebouw/Gebouw.8509668/0","properties":{"source":"Digitaal Vlaanderen Gebouwenregister","source_id":"gebouw/Gebouw.8509668/0","kind":"building","height_m":9.32,"status":null},"geometry":{"type":"Polygon","coordinates":[[[4.01076904,50.98182921],[4.01082364,50.98179703],[4.01087337,50.98183335],[4.01081733,50.9818642],[4.01076904,50.98182921]]]}},{"type":"Feature","id":"gebouw/Gebouw.8644944/0","properties":{"source":"Digitaal Vlaanderen Gebouwenregister","source_id":"gebouw/Gebouw.8644944/0","kind":"building","height_m":5.0,"status":null},"geometry":{"type":"Polygon","coordinates":[[[4.01284247,50.98065168],[4.0129739,50.98081308],[4.0128994,50.98083568],[4.01276492,50.98067686],[4.01284247,50.98065168]]]}},{"type":"Feature","id":"gebouw/Gebouw.8644945/0","properties":{"source":"Digitaal Vlaanderen Gebouwenregister","source_id":"gebouw/Gebouw.8644945/0","kind":"building","height_m":5.72,"status":null},"geometry":{"type":"Polygon","coordinates":[[[4.010789,50.98209465],[4.01044459,50.98229539],[4.00978718,50.98185553],[4.01012781,50.98165202],[4.010789,50.98209465]]]}},{"type":"Feature","id":"gebouw/Gebouw.9043820/0","properties":{"source":"Digitaal Vlaanderen Gebouwenregister","source_id":"gebouw/Gebouw.9043820/0","kind":"building","height_m":6.44,"status":null},"geometry":{"type":"Polygon","coordinates":[[[4.00657939,50.97867368],[4.00656316,50.97863866],[4.00665294,50.97862148],[4.00667071,50.97865483],[4.00657939,50.97867368]]]}},{"type":"Feature","id":"gebouw/Gebouw.9043994/0","properties":{"source":"Digitaal Vlaanderen Gebouwenregister","source_id":"gebouw/Gebouw.9043994/0","kind":"building","height_m":5.72,"status":null},"geometry":{"type":"Polygon","coordinates":[[[4.00773817,50.98196518],[4.00771881,50.98197344],[4.00769514,50.98194958],[4.00764406,50.98197262],[4.00766492,50.98199082],[4.00765651,50.98199448],[4.00771094,50.9820434],[4.00777159,50.98201785],[4.00776174,50.98200913],[4.00777738,50.982002],[4.00773817,50.98196518]]]}},{"type":"Feature","id":"gebouw/Gebouw.9043995/0","properties":{"source":"Digitaal Vlaanderen Gebouwenregister","source_id":"gebouw/Gebouw.9043995/0","kind":"building","height_m":6.44,"status":null},"geometry":{"type":"Polygon","coordinates":[[[4.00725263,50.98163245],[4.00723245,50.98164328],[4.00720487,50.98164279],[4.00718576,50.98162572],[4.00719006,50.98160985],[4.00720932,50.98159995],[4.00723779,50.98160064],[4.00725579,50.98161507],[4.00725263,50.98163245]]]}},{"type":"Feature","id":"gebouw/Gebouw.9043998/0","properties":{"source":"Digitaal Vlaanderen Gebouwenregister","source_id":"gebouw/Gebouw.9043998/0","kind":"building","height_m":8.6,"status":null},"geometry":{"type":"Polygon","coordinates":[[[4.00828376,50.98204713],[4.00833604,50.98207711],[4.00830203,50.98209955],[4.00827343,50.98208228],[4.00828356,50.98207559],[4.00826164,50.98206355],[4.00828376,50.98204713]]]}},{"type":"Feature","id":"gebouw/Gebouw.9043999/0","properties":{"source":"Digitaal Vlaanderen Gebouwenregister","source_id":"gebouw/Gebouw.9043999/0","kind":"building","height_m":9.32,"status":null},"geometry":{"type":"Polygon","coordinates":[[[4.00820459,50.98235568],[4.00816242,50.982314],[4.00819004,50.98230232],[4.00823759,50.98234255],[4.00820459,50.98235568]]]}},{"type":"Feature","id":"gebouw/Gebouw.9044000/0","properties":{"source":"Digitaal Vlaanderen Gebouwenregister","source_id":"gebouw/Gebouw.9044000/0","kind":"building","height_m":5.0,"status":null},"geometry":{"type":"Polygon","coordinates":[[[4.01357083,50.97907016],[4.01365369,50.97901042],[4.01374497,50.97906072],[4.01364216,50.9791351],[4.01363362,50.97913026],[4.01358063,50.97910025],[4.01355176,50.9790839],[4.01357083,50.97907016]]]}},{"type":"Feature","id":"gebouw/Gebouw.9044009/0","properties":{"source":"Digitaal Vlaanderen Gebouwenregister","source_id":"gebouw/Gebouw.9044009/0","kind":"building","height_m":6.44,"status":null},"geometry":{"type":"Polygon","coordinates":[[[4.00991187,50.98147351],[4.00981117,50.98155661],[4.00976546,50.98153454],[4.00976796,50.98153232],[4.00971375,50.98150756],[4.00975446,50.98147317],[4.00974043,50.98146552],[4.00973527,50.98146977],[4.00963813,50.98142038],[4.00964756,50.98141205],[4.00961592,50.98139709],[4.0096611,50.98136219],[4.00974325,50.98139937],[4.00980383,50.981426],[4.00991187,50.98147351]]]}},{"type":"Feature","id":"gebouw/Gebouw.9044356/0","properties":{"source":"Digitaal Vlaanderen Gebouwenregister","source_id":"gebouw/Gebouw.9044356/0","kind":"building","height_m":9.32,"status":null},"geometry":{"type":"Polygon","coordinates":[[[4.01154994,50.97966292],[4.01159858,50.9796421],[4.01163303,50.97967338],[4.0116204,50.97967924],[4.01162909,50.97968683],[4.01159513,50.97970275],[4.01154994,50.97966292]]]}},{"type":"Feature","id":"gebouw/Gebouw.9044519/0","properties":{"source":"Digitaal Vlaanderen Gebouwenregister","source_id":"gebouw/Gebouw.9044519/0","kind":"building","height_m":5.72,"status":null},"geometry":{"type":"Polygon","coordinates":[[[4.00628011,50.98121132],[4.00630106,50.98115143],[4.00635133,50.9811576],[4.00633156,50.98121788],[4.00628011,50.98121132]]]}},{"type":"Feature","id":"gebouw/Gebouw.9044520/0","properties":{"source":"Digitaal Vlaanderen Gebouwenregister","source_id":"gebouw/Gebouw.9044520/0","kind":"building","height_m":6.44,"status":null},"geometry":{"type":"Polygon","coordinates":[[[4.00596389,50.98166802],[4.00604637,50.98167924],[4.00600905,50.98178507],[4.0058868,50.98176776],[4.00588213,50.98178088],[4.00579592,50.98176876],[4.00582943,50.98167385],[4.00595553,50.98169153],[4.00596389,50.98166802]]]}},{"type":"Feature","id":"gebouw/Gebouw.9044539/0","properties":{"source":"Digitaal Vlaanderen Gebouwenregister","source_id":"gebouw/Gebouw.9044539/0","kind":"building","height_m":5.0,"status":null},"geometry":{"type":"Polygon","coordinates":[[[4.0059069,50.98244341],[4.00590048,50.98244201],[4.00587605,50.98247789],[4.00579275,50.98245356],[4.00581685,50.98241898],[4.00578833,50.98240949],[4.00587136,50.98228327],[4.00599152,50.98231477],[4.0059069,50.98244341]]]}},{"type":"Feature","id":"gebouw/Gebouw.9044553/0","properties":{"source":"Digitaal Vlaanderen Gebouwenregister","source_id":"gebouw/Gebouw.9044553/0","kind":"building","height_m":5.0,"status":null},"geometry":{"type":"Polygon","coordinates":[[[4.01356243,50.97888004],[4.01349698,50.97884336],[4.01340526,50.97890795],[4.01346774,50.97894331],[4.01347046,50.97894481],[4.01356243,50.97888004]]]}},{"type":"Feature","id":"gebouw/Gebouw.9044562/0","properties":{"source":"Digitaal Vlaanderen Gebouwenregister","source_id":"gebouw/Gebouw.9044562/0","kind":"building","height_m":6.44,"status":null},"geometry":{"type":"Polygon","coordinates":[[[4.01224546,50.98035217],[4.01234956,50.98032147],[4.01228887,50.98024139],[4.01253211,50.98016821],[4.01259915,50.98025473],[4.01259257,50.9802569],[4.01260658,50.98027598],[4.01246952,50.9803183],[4.01246352,50.9803098],[4.01236775,50.98033947],[4.01237693,50.98035081],[4.0123395,50.98036332],[4.0124111,50.98045663],[4.01238655,50.9804646],[4.01241696,50.9805024],[4.01232813,50.98052783],[4.01229451,50.98048831],[4.01229001,50.98048947],[4.01220317,50.98037905],[4.01225259,50.98036255],[4.01224546,50.98035217]]]}},{"type":"Feature","id":"gebouw/Gebouw.9048519/0","properties":{"source":"Digitaal Vlaanderen Gebouwenregister","source_id":"gebouw/Gebouw.9048519/0","kind":"building","height_m":7.88,"status":null},"geometry":{"type":"Polygon","coordinates":[[[4.00566838,50.98181684],[4.00569518,50.98178277],[4.0057447,50.98180316],[4.00574614,50.98180375],[4.00574432,50.98180648],[4.00574812,50.98180749],[4.00573317,50.98182994],[4.00572934,50.98182889],[4.00572738,50.98183158],[4.00570091,50.98182439],[4.00566838,50.98181684]]]}},{"type":"Feature","id":"gebouw/Gebouw.9100344/0","properties":{"source":"Digitaal Vlaanderen Gebouwenregister","source_id":"gebouw/Gebouw.9100344/0","kind":"building","height_m":5.72,"status":null},"geometry":{"type":"Polygon","coordinates":[[[4.0056977,50.9818346],[4.00568181,50.98186182],[4.00564726,50.98185351],[4.00564133,50.98185208],[4.0056608,50.98181872],[4.00570128,50.98182847],[4.0056977,50.9818346]]]}},{"type":"Feature","id":"gebouw/Gebouw.9100978/0","properties":{"source":"Digitaal Vlaanderen Gebouwenregister","source_id":"gebouw/Gebouw.9100978/0","kind":"building","height_m":8.6,"status":null},"geometry":{"type":"Polygon","coordinates":[[[4.00981128,50.98157042],[4.00976568,50.98160603],[4.00968826,50.98156801],[4.0095556,50.98148615],[4.00959279,50.98146127],[4.00965694,50.98150169],[4.0096506,50.98150555],[4.00971788,50.98154509],[4.0097319,50.98153151],[4.00981128,50.98157042]]]}},{"type":"Feature","id":"gebouw/Gebouw.9100979/0","properties":{"source":"Digitaal Vlaanderen Gebouwenregister","source_id":"gebouw/Gebouw.9100979/0","kind":"building","height_m":9.32,"status":null},"geometry":{"type":"Polygon","coordinates":[[[4.00949811,50.98164416],[4.00952362,50.98163192],[4.00963612,50.98172292],[4.00955715,50.98176182],[4.00940619,50.98164203],[4.00946008,50.98161396],[4.00949811,50.98164416]]]}},{"type":"Feature","id":"gebouw/Gebouw.9100980/0","properties":{"source":"Digitaal Vlaanderen Gebouwenregister","source_id":"gebouw/Gebouw.9100980/0","kind":"building","height_m":5.0,"status":null},"geometry":{"type":"Polygon","coordinates":[[[4.01346625,50.98120241],[4.01327669,50.98126971],[4.01330869,50.98131148],[4.01315571,50.98136388],[4.01307008,50.98126292],[4.01327749,50.98118728],[4.01326197,50.98116913],[4.01329795,50.98115567],[4.01331522,50.98117496],[4.01337036,50.98115534],[4.01334897,50.98111315],[4.01333852,50.98111547],[4.01325913,50.98098198],[4.01330724,50.98096959],[4.01327552,50.98091492],[4.0132525,50.98092122],[4.01322926,50.98088164],[4.01325134,50.98087701],[4.0132383,50.98085514],[4.01343601,50.98080861],[4.01348421,50.98088969],[4.01339219,50.98091265],[4.0134006,50.98093035],[4.01338955,50.98093303],[4.01339716,50.98094754],[4.01341537,50.98094343],[4.01341961,50.98095116],[4.01347906,50.98093664],[4.01357491,50.98109728],[4.01341769,50.981139],[4.01346625,50.98120241]]]}},{"type":"Feature","id":"gebouw/Gebouw.9100982/0","properties":{"source":"Digitaal Vlaanderen Gebouwenregister","source_id":"gebouw/Gebouw.9100982/0","kind":"building","height_m":6.44,"status":null},"geometry":{"type":"Polygon","coordinates":[[[4.00656455,50.98239411],[4.00652724,50.9823793],[4.00648613,50.98242055],[4.00652363,50.98243544],[4.00656455,50.98239411]]]}},{"type":"Feature","id":"gebouw/Gebouw.9127193/0","properties":{"source":"Digitaal Vlaanderen Gebouwenregister","source_id":"gebouw/Gebouw.9127193/0","kind":"building","height_m":8.6,"status":null},"geometry":{"type":"Polygon","coordinates":[[[4.00640699,50.98153638],[4.00645133,50.98154212],[4.0064346,50.98158913],[4.00639144,50.98158341],[4.00640699,50.98153638]]]}},{"type":"Feature","id":"gebouw/Gebouw.9127273/0","properties":{"source":"Digitaal Vlaanderen Gebouwenregister","source_id":"gebouw/Gebouw.9127273/0","kind":"building","height_m":5.72,"status":null},"geometry":{"type":"Polygon","coordinates":[[[4.00755581,50.98215931],[4.00755768,50.98216076],[4.00740868,50.98223129],[4.00734856,50.98218068],[4.00738879,50.98216164],[4.00734897,50.98212781],[4.00745931,50.98207602],[4.00746306,50.98207962],[4.00749467,50.9820633],[4.00758976,50.98214377],[4.00755581,50.98215931]]]}},{"type":"Feature","id":"gebouw/Gebouw.9127276/0","properties":{"source":"Digitaal Vlaanderen Gebouwenregister","source_id":"gebouw/Gebouw.9127276/0","kind":"building","height_m":7.88,"status":null},"geometry":{"type":"Polygon","coordinates":[[[4.00924196,50.98160443],[4.00922925,50.98161328],[4.0092957,50.98165369],[4.0090975,50.98178616],[4.00897429,50.98171274],[4.00912363,50.98161287],[4.009086,50.98158979],[4.00917664,50.98153085],[4.00918073,50.98153314],[4.0092131,50.98151084],[4.00924434,50.98152935],[4.00920935,50.98154994],[4.00923499,50.98156671],[4.00920839,50.9815844],[4.00924196,50.98160443]]]}},{"type":"Feature","id":"gebouw/Gebouw.9127277/0","properties":{"source":"Digitaal Vlaanderen Gebouwenregister","source_id":"gebouw/Gebouw.9127277/0","kind":"building","height_m":8.6,"status":null},"geometry":{"type":"Polygon","coordinates":[[[4.01316283,50.9789856],[4.01323188,50.97902082],[4.01317336,50.97906644],[4.01310313,50.97903083],[4.01316283,50.9789856]]]}},{"type":"Feature","id":"gebouw/Gebouw.9171982/0","properties":{"source":"Digitaal Vlaanderen Gebouwenregister","source_id":"gebouw/Gebouw.9171982/0","kind":"building","height_m":5.72,"status":null},"geometry":{"type":"Polygon","coordinates":[[[4.00650907,50.98222791],[4.0064885,50.98222003],[4.00655277,50.98215821],[4.00668598,50.98221338],[4.00656077,50.98233387],[4.00644688,50.98228754],[4.00650907,50.98222791]]]}},{"type":"Feature","id":"gebouw/Gebouw.9172056/0","properties":{"source":"Digitaal Vlaanderen Gebouwenregister","source_id":"gebouw/Gebouw.9172056/0","kind":"building","height_m":8.6,"status":null},"geometry":{"type":"Polygon","coordinates":[[[4.00862771,50.98140267],[4.00866456,50.98142218],[4.00863242,50.98144693],[4.00859586,50.98142761],[4.00862771,50.98140267]]]}},{"type":"Feature","id":"gebouw/Gebouw.9172068/0","properties":{"source":"Digitaal Vlaanderen Gebouwenregister","source_id":"gebouw/Gebouw.9172068/0","kind":"building","height_m":7.16,"status":null},"geometry":{"type":"Polygon","coordinates":[[[4.01302399,50.98111613],[4.01311103,50.98121991],[4.01300233,50.98125562],[4.01293441,50.98117317],[4.0128941,50.98112425],[4.01287322,50.98109891],[4.01296952,50.98106729],[4.01298934,50.98109134],[4.01299865,50.98108813],[4.01299201,50.9810815],[4.01299922,50.98107821],[4.0128936,50.98098133],[4.01312303,50.98088197],[4.01322316,50.98097372],[4.01321967,50.98098174],[4.0130707,50.98104715],[4.01310662,50.98107864],[4.01302399,50.98111613]]]}},{"type":"Feature","id":"gebouw/Gebouw.9172223/0","properties":{"source":"Digitaal Vlaanderen Gebouwenregister","source_id":"gebouw/Gebouw.9172223/0","kind":"building","height_m":7.88,"status":null},"geometry":{"type":"Polygon","coordinates":[[[4.00783919,50.98195529],[4.0077558,50.98188094],[4.0077899,50.98186538],[4.00787138,50.98193935],[4.00783919,50.98195529]]]}},{"type":"Feature","id":"gebouw/Gebouw.9172687/0","properties":{"source":"Digitaal Vlaanderen Gebouwenregister","source_id":"gebouw/Gebouw.9172687/0","kind":"building","height_m":9.32,"status":null},"geometry":{"type":"Polygon","coordinates":[[[4.00864643,50.9819586],[4.00860946,50.98193291],[4.00863798,50.98191399],[4.0086856,50.98188355],[4.00875239,50.98192531],[4.00870813,50.98195505],[4.00870492,50.98195719],[4.00867925,50.98193814],[4.00864643,50.9819586]]]}},{"type":"Feature","id":"gebouw/Gebouw.9419601/0","properties":{"source":"Digitaal Vlaanderen Gebouwenregister","source_id":"gebouw/Gebouw.9419601/0","kind":"building","height_m":6.44,"status":null},"geometry":{"type":"Polygon","coordinates":[[[4.01366896,50.9788475],[4.01365522,50.97884005],[4.01364613,50.97884669],[4.01363213,50.97885651],[4.01358643,50.97883125],[4.01361024,50.97881408],[4.01369289,50.97875449],[4.01372259,50.97873159],[4.01367865,50.97870827],[4.01375942,50.97865141],[4.01386062,50.97870881],[4.01373611,50.97880067],[4.01372031,50.97881169],[4.01366896,50.9788475]]]}},{"type":"Feature","id":"gebouw/Gebouw.9419602/0","properties":{"source":"Digitaal Vlaanderen Gebouwenregister","source_id":"gebouw/Gebouw.9419602/0","kind":"building","height_m":7.16,"status":null},"geometry":{"type":"Polygon","coordinates":[[[4.00842865,50.98218302],[4.00853001,50.98211751],[4.00865757,50.98219872],[4.00861713,50.98222403],[4.0086762,50.98226164],[4.00862166,50.98229577],[4.00857269,50.98226458],[4.00856392,50.98226993],[4.00842865,50.98218302]]]}},{"type":"Feature","id":"gebouw/Gebouw.9443702/0","properties":{"source":"Digitaal Vlaanderen Gebouwenregister","source_id":"gebouw/Gebouw.9443702/0","kind":"building","height_m":6.44,"status":null},"geometry":{"type":"Polygon","coordinates":[[[4.00890537,50.98182286],[4.00886001,50.98180007],[4.0089263,50.98177402],[4.00895635,50.98180319],[4.00890537,50.98182286]]]}},{"type":"Feature","id":"gebouw/Gebouw.9443703/0","properties":{"source":"Digitaal Vlaanderen Gebouwenregister","source_id":"gebouw/Gebouw.9443703/0","kind":"building","height_m":7.16,"status":null},"geometry":{"type":"Polygon","coordinates":[[[4.01385715,50.98083685],[4.01381677,50.98079482],[4.01400686,50.98072311],[4.01404927,50.98076685],[4.01385715,50.98083685]]]}},{"type":"Feature","id":"gebouw/Gebouw.9443989/0","properties":{"source":"Digitaal Vlaanderen Gebouwenregister","source_id":"gebouw/Gebouw.9443989/0","kind":"building","height_m":6.44,"status":null},"geometry":{"type":"Polygon","coordinates":[[[4.00581764,50.98119684],[4.0058276,50.98120144],[4.00579308,50.98123721],[4.00575194,50.9812229],[4.0057547,50.98121974],[4.00573354,50.98121239],[4.00576224,50.98118311],[4.00581308,50.98120072],[4.00581764,50.98119684]]]}},{"type":"Feature","id":"gebouw/Gebouw.9476295/0","properties":{"source":"Digitaal Vlaanderen Gebouwenregister","source_id":"gebouw/Gebouw.9476295/0","kind":"building","height_m":7.16,"status":null},"geometry":{"type":"Polygon","coordinates":[[[4.00772468,50.98238665],[4.0076686,50.98240257],[4.00765076,50.9823769],[4.00765362,50.98237608],[4.00769339,50.98236465],[4.00769661,50.98236928],[4.00771004,50.98236557],[4.00772468,50.98238665]]]}},{"type":"Feature","id":"gebouw/Gebouw.9482223/0","properties":{"source":"Digitaal Vlaanderen Gebouwenregister","source_id":"gebouw/Gebouw.9482223/0","kind":"building","height_m":6.44,"status":null},"geometry":{"type":"Polygon","coordinates":[[[4.00936221,50.98152634],[4.00940673,50.9815043],[4.00946508,50.98155127],[4.00941996,50.98157324],[4.00936221,50.98152634]]]}},{"type":"Feature","id":"gebouw/Gebouw.9482224/0","properties":{"source":"Digitaal Vlaanderen Gebouwenregister","source_id":"gebouw/Gebouw.9482224/0","kind":"building","height_m":7.16,"status":null},"geometry":{"type":"Polygon","coordinates":[[[4.01320088,50.97909053],[4.01313453,50.97914018],[4.01309664,50.97916917],[4.01299803,50.97911958],[4.01303627,50.97908853],[4.01308043,50.97905792],[4.01309885,50.97906768],[4.01312427,50.9790496],[4.01320088,50.97909053]]]}},{"type":"Feature","id":"gebouw/Gebouw.9482267/0","properties":{"source":"Digitaal Vlaanderen Gebouwenregister","source_id":"gebouw/Gebouw.9482267/0","kind":"building","height_m":7.88,"status":null},"geometry":{"type":"Polygon","coordinates":[[[4.01387779,50.97889686],[4.01392152,50.97892331],[4.01399443,50.97896742],[4.01399144,50.97896941],[4.01394116,50.97900294],[4.01395643,50.9790123],[4.01392424,50.97903371],[4.01381767,50.97897067],[4.01378987,50.97895422],[4.01379063,50.97895372],[4.01387693,50.97889634],[4.01387779,50.97889686]]]}},{"type":"Feature","id":"gebouw/Gebouw.9485127/0","properties":{"source":"Digitaal Vlaanderen Gebouwenregister","source_id":"gebouw/Gebouw.9485127/0","kind":"building","height_m":5.72,"status":null},"geometry":{"type":"Polygon","coordinates":[[[4.00890091,50.98193013],[4.00890461,50.98192788],[4.00904476,50.98201628],[4.00896009,50.98206979],[4.00881888,50.98198075],[4.00882333,50.98197779],[4.00879156,50.9819574],[4.00886709,50.98190841],[4.00890091,50.98193013]]]}},{"type":"Feature","id":"gebouw/Gebouw.9485128/0","properties":{"source":"Digitaal Vlaanderen Gebouwenregister","source_id":"gebouw/Gebouw.9485128/0","kind":"building","height_m":6.44,"status":null},"geometry":{"type":"Polygon","coordinates":[[[4.00714683,50.98172419],[4.00727514,50.98176387],[4.00715127,50.98192301],[4.00708734,50.98190319],[4.00703399,50.98188666],[4.00708323,50.98182406],[4.00707118,50.98182],[4.00714683,50.98172419]]]}},{"type":"Feature","id":"gebouw/Gebouw.9507324/0","properties":{"source":"Digitaal Vlaanderen Gebouwenregister","source_id":"gebouw/Gebouw.9507324/0","kind":"building","height_m":5.72,"status":null},"geometry":{"type":"Polygon","coordinates":[[[4.01251232,50.97977894],[4.01245427,50.9798156],[4.01229662,50.97984579],[4.01221394,50.97979273],[4.01221936,50.97978979],[4.01211109,50.97971368],[4.01208217,50.97972947],[4.01203778,50.9796932],[4.0120405,50.97969117],[4.01200908,50.97966872],[4.01194118,50.97969907],[4.01195158,50.9797093],[4.01195873,50.97970825],[4.01197382,50.97974213],[4.01199261,50.9797388],[4.01202672,50.97981336],[4.01187058,50.97984184],[4.0118274,50.97974751],[4.01183825,50.9797412],[4.0118301,50.97972482],[4.01168291,50.97960763],[4.01177035,50.97956795],[4.0117539,50.9795511],[4.01181671,50.97952238],[4.01183903,50.97954117],[4.0119114,50.97950994],[4.01206146,50.97963053],[4.01213873,50.97957238],[4.01221698,50.97961564],[4.01229615,50.97965942],[4.01251232,50.97977894]]]}},{"type":"Feature","id":"gebouw/Gebouw.9507325/0","properties":{"source":"Digitaal Vlaanderen Gebouwenregister","source_id":"gebouw/Gebouw.9507325/0","kind":"building","height_m":6.44,"status":null},"geometry":{"type":"Polygon","coordinates":[[[4.00588252,50.98154238],[4.00594959,50.98156335],[4.00591367,50.98160659],[4.00584808,50.98158545],[4.00588252,50.98154238]]]}},{"type":"Feature","id":"gebouw/Gebouw.9507326/0","properties":{"source":"Digitaal Vlaanderen Gebouwenregister","source_id":"gebouw/Gebouw.9507326/0","kind":"building","height_m":7.16,"status":null},"geometry":{"type":"Polygon","coordinates":[[[4.01044735,50.98045252],[4.01064777,50.98054389],[4.0105842,50.98059994],[4.01048928,50.98055679],[4.01038319,50.98050856],[4.01044735,50.98045252]]]}},{"type":"Feature","id":"gebouw/Gebouw.9555978/0","properties":{"source":"Digitaal Vlaanderen Gebouwenregister","source_id":"gebouw/Gebouw.9555978/0","kind":"building","height_m":8.6,"status":null},"geometry":{"type":"Polygon","coordinates":[[[4.0104451,50.98057649],[4.01052912,50.98065363],[4.01045994,50.98068379],[4.01046281,50.98068719],[4.01038889,50.98072084],[4.01038394,50.98071723],[4.01029513,50.98075296],[4.01026927,50.98073301],[4.01020696,50.98067302],[4.01023805,50.98066015],[4.01030019,50.98071997],[4.01036083,50.98069487],[4.01033704,50.98067513],[4.01034095,50.98067311],[4.01030331,50.98063973],[4.0104451,50.98057649]]]}},{"type":"Feature","id":"gebouw/Gebouw.9563482/0","properties":{"source":"Digitaal Vlaanderen Gebouwenregister","source_id":"gebouw/Gebouw.9563482/0","kind":"building","height_m":8.6,"status":null},"geometry":{"type":"Polygon","coordinates":[[[4.0116509,50.98232718],[4.01110555,50.98260512],[4.01097415,50.98250239],[4.01151949,50.98222444],[4.0116509,50.98232718]]]}},{"type":"Feature","id":"gebouw/Gebouw.9563667/0","properties":{"source":"Digitaal Vlaanderen Gebouwenregister","source_id":"gebouw/Gebouw.9563667/0","kind":"building","height_m":5.72,"status":null},"geometry":{"type":"Polygon","coordinates":[[[4.00875949,50.98201104],[4.00867999,50.98206443],[4.0086093,50.98202431],[4.00869024,50.98196995],[4.00875949,50.98201104]]]}},{"type":"Feature","id":"gebouw/Gebouw.9564309/0","properties":{"source":"Digitaal Vlaanderen Gebouwenregister","source_id":"gebouw/Gebouw.9564309/0","kind":"building","height_m":9.32,"status":null},"geometry":{"type":"Polygon","coordinates":[[[4.01291349,50.97897892],[4.01295769,50.97900229],[4.01299553,50.97897376],[4.01304223,50.97899845],[4.01297384,50.97905001],[4.0128853,50.97900052],[4.01291349,50.97897892]]]}},{"type":"Feature","id":"gebouw/Gebouw.9574918/0","properties":{"source":"Digitaal Vlaanderen Gebouwenregister","source_id":"gebouw/Gebouw.9574918/0","kind":"building","height_m":7.16,"status":null},"geometry":{"type":"Polygon","coordinates":[[[4.00555212,50.98222635],[4.00554154,50.98222356],[4.00550568,50.98221413],[4.00550067,50.98222118],[4.00544149,50.98220561],[4.00546241,50.98217887],[4.00536896,50.98215382],[4.00543161,50.98206554],[4.00552848,50.98209294],[4.00553732,50.98208043],[4.00559007,50.98209528],[4.00553446,50.98217366],[4.00556931,50.98218231],[4.00557774,50.98218441],[4.00555212,50.98222635]]]}},{"type":"Feature","id":"gebouw/Gebouw.9574939/0","properties":{"source":"Digitaal Vlaanderen Gebouwenregister","source_id":"gebouw/Gebouw.9574939/0","kind":"building","height_m":7.16,"status":null},"geometry":{"type":"Polygon","coordinates":[[[4.00740044,50.98171222],[4.00734839,50.98177688],[4.00727627,50.98175352],[4.00732792,50.98168891],[4.00734556,50.98169473],[4.00736651,50.98166686],[4.00741126,50.98167935],[4.00738879,50.9817085],[4.00740044,50.98171222]]]}},{"type":"Feature","id":"gebouw/Gebouw.9575074/0","properties":{"source":"Digitaal Vlaanderen Gebouwenregister","source_id":"gebouw/Gebouw.9575074/0","kind":"building","height_m":8.6,"status":null},"geometry":{"type":"Polygon","coordinates":[[[4.0076177,50.98237746],[4.00762114,50.98238199],[4.00749689,50.9824177],[4.00741941,50.9823267],[4.00753983,50.98228586],[4.00758398,50.98234168],[4.00762319,50.98232957],[4.00765303,50.98236623],[4.0076177,50.98237746]]]}},{"type":"Feature","id":"gebouw/Gebouw.9578256/0","properties":{"source":"Digitaal Vlaanderen Gebouwenregister","source_id":"gebouw/Gebouw.9578256/0","kind":"building","height_m":6.44,"status":null},"geometry":{"type":"Polygon","coordinates":[[[4.00982282,50.98233236],[4.00982837,50.98233634],[4.00967378,50.98242793],[4.00959476,50.9823748],[4.00960736,50.98236733],[4.0094653,50.98227182],[4.00946258,50.98227343],[4.00946025,50.98227185],[4.00958663,50.98219756],[4.00949326,50.98213826],[4.00954029,50.98210966],[4.00958709,50.9820812],[4.00971499,50.98216541],[4.00966668,50.98219334],[4.00962091,50.98221981],[4.00972978,50.98229556],[4.00975091,50.98228268],[4.00977039,50.98229732],[4.00979903,50.98228096],[4.00975357,50.98225087],[4.00981967,50.98221058],[4.00999099,50.98232447],[4.00992316,50.98236315],[4.00989753,50.98237776],[4.00987948,50.98236506],[4.00982826,50.98232905],[4.00982282,50.98233236]]]}},{"type":"Feature","id":"gebouw/Gebouw.9578259/0","properties":{"source":"Digitaal Vlaanderen Gebouwenregister","source_id":"gebouw/Gebouw.9578259/0","kind":"building","height_m":8.6,"status":null},"geometry":{"type":"Polygon","coordinates":[[[4.0134161,50.97878553],[4.01345851,50.97880754],[4.01344338,50.97881824],[4.01345011,50.97882187],[4.01336615,50.97888594],[4.01331731,50.97886049],[4.0134161,50.97878553]]]}},{"type":"Feature","id":"gebouw/Gebouw.9578497/0","properties":{"source":"Digitaal Vlaanderen Gebouwenregister","source_id":"gebouw/Gebouw.9578497/0","kind":"building","height_m":8.6,"status":null},"geometry":{"type":"Polygon","coordinates":[[[4.00636439,50.98231978],[4.00635819,50.98231877],[4.00632226,50.98241577],[4.00624044,50.98240232],[4.0062784,50.98230703],[4.00616952,50.98228968],[4.00617469,50.98227673],[4.00621976,50.98216402],[4.00626998,50.98203841],[4.00647843,50.98207163],[4.00648203,50.98207221],[4.00644952,50.98215351],[4.00643255,50.98215159],[4.00636439,50.98231978]]]}},{"type":"Feature","id":"gebouw/Gebouw.9578498/0","properties":{"source":"Digitaal Vlaanderen Gebouwenregister","source_id":"gebouw/Gebouw.9578498/0","kind":"building","height_m":9.32,"status":null},"geometry":{"type":"Polygon","coordinates":[[[4.00526762,50.98170757],[4.00518738,50.98168723],[4.00511618,50.98166919],[4.00517418,50.98157725],[4.00532507,50.9816145],[4.00535539,50.98158019],[4.00537012,50.9815841],[4.00543795,50.981503],[4.00544178,50.98150398],[4.00546828,50.98146868],[4.00551547,50.9814832],[4.00552273,50.98147378],[4.00558369,50.98149037],[4.00557317,50.98150599],[4.00558701,50.9815097],[4.00558116,50.98151732],[4.00565737,50.98154045],[4.00563645,50.98156719],[4.00563939,50.98156797],[4.00560565,50.98160768],[4.00558801,50.98160187],[4.0055364,50.98166535],[4.00550909,50.98165512],[4.00548388,50.98168669],[4.00538286,50.98165535],[4.00532296,50.98163677],[4.00526762,50.98170757]]]}},{"type":"Feature","id":"gebouw/Gebouw.9578499/0","properties":{"source":"Digitaal Vlaanderen Gebouwenregister","source_id":"gebouw/Gebouw.9578499/0","kind":"building","height_m":5.0,"status":null},"geometry":{"type":"Polygon","coordinates":[[[4.01320961,50.97948476],[4.01311655,50.97955271],[4.01300831,50.97949364],[4.01302543,50.979481],[4.01298066,50.97945822],[4.01306153,50.97940394],[4.01320961,50.97948476]]]}},{"type":"Feature","id":"gebouw/Gebouw.9578500/0","properties":{"source":"Digitaal Vlaanderen Gebouwenregister","source_id":"gebouw/Gebouw.9578500/0","kind":"building","height_m":5.72,"status":null},"geometry":{"type":"Polygon","coordinates":[[[4.01318936,50.97926066],[4.01302002,50.97938128],[4.01299929,50.97939605],[4.0129421,50.97936133],[4.01295481,50.97935211],[4.0129101,50.97932745],[4.01291502,50.97932398],[4.01299482,50.9792677],[4.01297806,50.97925864],[4.01307159,50.97919549],[4.01318936,50.97926066]]]}},{"type":"Feature","id":"gebouw/Gebouw.9610187/0","properties":{"source":"Digitaal Vlaanderen Gebouwenregister","source_id":"gebouw/Gebouw.9610187/0","kind":"building","height_m":9.32,"status":null},"geometry":{"type":"Polygon","coordinates":[[[4.0055363,50.98142317],[4.00547748,50.98140454],[4.00551632,50.98136157],[4.00556729,50.98138044],[4.0055363,50.98142317]]]}},{"type":"Feature","id":"gebouw/Gebouw.9610189/0","properties":{"source":"Digitaal Vlaanderen Gebouwenregister","source_id":"gebouw/Gebouw.9610189/0","kind":"building","height_m":5.72,"status":null},"geometry":{"type":"Polygon","coordinates":[[[4.00762502,50.97859728],[4.00769641,50.97858028],[4.00770155,50.97858745],[4.00774129,50.97857721],[4.00771945,50.9785412],[4.00760775,50.97856768],[4.00762502,50.97859728]]]}},{"type":"Feature","id":"gebouw/Gebouw.9610195/0","properties":{"source":"Digitaal Vlaanderen Gebouwenregister","source_id":"gebouw/Gebouw.9610195/0","kind":"building","height_m":5.0,"status":null},"geometry":{"type":"Polygon","coordinates":[[[4.0098905,50.98136079],[4.009868,50.9813804],[4.00996596,50.98142604],[4.00991187,50.98147351],[4.00980383,50.981426],[4.00974325,50.98139937],[4.00976528,50.98138042],[4.0097814,50.98136655],[4.00974543,50.9813504],[4.00968167,50.98132177],[4.00972103,50.98128765],[4.00978388,50.98131478],[4.0098905,50.98136079]]]}},{"type":"Feature","id":"gebouw/Gebouw.9610614/0","properties":{"source":"Digitaal Vlaanderen Gebouwenregister","source_id":"gebouw/Gebouw.9610614/0","kind":"building","height_m":9.32,"status":null},"geometry":{"type":"Polygon","coordinates":[[[4.01098472,50.97906238],[4.01085561,50.9789673],[4.01090504,50.97893938],[4.0110302,50.97903759],[4.01098472,50.97906238]]]}},{"type":"Feature","id":"gebouw/Gebouw.9689154/0","properties":{"source":"Digitaal Vlaanderen Gebouwenregister","source_id":"gebouw/Gebouw.9689154/0","kind":"building","height_m":9.32,"status":null},"geometry":{"type":"Polygon","coordinates":[[[4.006896,50.98195254],[4.00692088,50.98195703],[4.00691908,50.98196087],[4.00678873,50.98193657],[4.00678472,50.98194511],[4.00677836,50.98194393],[4.00681245,50.98187314],[4.00683133,50.9818771],[4.00683326,50.98187187],[4.00670069,50.98184812],[4.00674275,50.98175437],[4.00688533,50.98178086],[4.0068989,50.9817516],[4.00691456,50.98175421],[4.00690755,50.98177136],[4.00697278,50.98178388],[4.00696709,50.98179656],[4.00698569,50.98179995],[4.00694218,50.98189237],[4.00692475,50.98188937],[4.006896,50.98195254]]]}},{"type":"Feature","id":"gebouw/Gebouw.9689212/0","properties":{"source":"Digitaal Vlaanderen Gebouwenregister","source_id":"gebouw/Gebouw.9689212/0","kind":"building","height_m":5.72,"status":null},"geometry":{"type":"Polygon","coordinates":[[[4.00869204,50.98153318],[4.00878751,50.98158949],[4.00872674,50.98163021],[4.00863422,50.98157469],[4.00869204,50.98153318]]]}},{"type":"Feature","id":"gebouw/Gebouw.9689369/0","properties":{"source":"Digitaal Vlaanderen Gebouwenregister","source_id":"gebouw/Gebouw.9689369/0","kind":"building","height_m":7.88,"status":null},"geometry":{"type":"Polygon","coordinates":[[[4.00660049,50.98174868],[4.00663303,50.98175323],[4.00659965,50.98185017],[4.00649892,50.98183613],[4.00650293,50.9818247],[4.00642278,50.98181371],[4.00645207,50.98172943],[4.00648933,50.98173396],[4.00649358,50.98171996],[4.00651131,50.9817224],[4.00652006,50.98169572],[4.00659631,50.98170667],[4.006587,50.98173223],[4.00660503,50.98173487],[4.00660049,50.98174868]]]}},{"type":"Feature","id":"gebouw/Gebouw.9689813/0","properties":{"source":"Digitaal Vlaanderen Gebouwenregister","source_id":"gebouw/Gebouw.9689813/0","kind":"building","height_m":5.0,"status":null},"geometry":{"type":"Polygon","coordinates":[[[4.00870204,50.98210711],[4.00878681,50.98205281],[4.00896272,50.98218066],[4.00887181,50.9822305],[4.00870204,50.98210711]]]}},{"type":"Feature","id":"gebouw/Gebouw.9731560/0","properties":{"source":"Digitaal Vlaanderen Gebouwenregister","source_id":"gebouw/Gebouw.9731560/0","kind":"building","height_m":9.32,"status":null},"geometry":{"type":"Polygon","coordinates":[[[4.00680694,50.9824355],[4.00675693,50.98241461],[4.00688939,50.98229118],[4.0069688,50.98232354],[4.00686895,50.98242216],[4.00683499,50.98240846],[4.00680694,50.9824355]]]}},{"type":"Feature","id":"gebouw/Gebouw.9731698/0","properties":{"source":"Digitaal Vlaanderen Gebouwenregister","source_id":"gebouw/Gebouw.9731698/0","kind":"building","height_m":7.88,"status":null},"geometry":{"type":"Polygon","coordinates":[[[4.00620158,50.98165679],[4.00635326,50.98167863],[4.00629904,50.98183475],[4.00619321,50.98182011],[4.00622193,50.98173741],[4.0061758,50.98173031],[4.00620158,50.98165679]]]}},{"type":"Feature","id":"gebouw/Gebouw.9731701/0","properties":{"source":"Digitaal Vlaanderen Gebouwenregister","source_id":"gebouw/Gebouw.9731701/0","kind":"building","height_m":5.0,"status":null},"geometry":{"type":"Polygon","coordinates":[[[4.00979208,50.98162835],[4.00979165,50.98162857],[4.00978985,50.98162945],[4.0096462,50.98170002],[4.00957112,50.98163894],[4.00955756,50.98162791],[4.00954553,50.98161805],[4.00961544,50.98158403],[4.00966739,50.98155875],[4.00979208,50.98162835]]]}},{"type":"Feature","id":"gebouw/Gebouw.9731742/0","properties":{"source":"Digitaal Vlaanderen Gebouwenregister","source_id":"gebouw/Gebouw.9731742/0","kind":"building","height_m":9.32,"status":null},"geometry":{"type":"Polygon","coordinates":[[[4.00832642,50.98232273],[4.00841377,50.98226637],[4.00854046,50.98234677],[4.00845191,50.98240237],[4.00832642,50.98232273]]]}},{"type":"Feature","id":"gebouw/Gebouw.9731743/0","properties":{"source":"Digitaal Vlaanderen Gebouwenregister","source_id":"gebouw/Gebouw.9731743/0","kind":"building","height_m":5.0,"status":null},"geometry":{"type":"Polygon","coordinates":[[[4.01318001,50.97931975],[4.01324453,50.9792717],[4.01336492,50.97933737],[4.01325796,50.97941551],[4.01315633,50.97936069],[4.01319873,50.97932969],[4.01318001,50.97931975]]]}},{"type":"Feature","id":"gebouw/Gebouw.9736976/0","properties":{"source":"Digitaal Vlaanderen Gebouwenregister","source_id":"gebouw/Gebouw.9736976/0","kind":"building","height_m":7.88,"status":null},"geometry":{"type":"Polygon","coordinates":[[[4.00677561,50.98234231],[4.0067174,50.98231754],[4.00678945,50.98225041],[4.00688939,50.98229118],[4.00675693,50.98241461],[4.00671807,50.98239837],[4.00677561,50.98234231]]]}},{"type":"Feature","id":"gebouw/Gebouw.9737796/0","properties":{"source":"Digitaal Vlaanderen Gebouwenregister","source_id":"gebouw/Gebouw.9737796/0","kind":"building","height_m":8.6,"status":null},"geometry":{"type":"Polygon","coordinates":[[[4.00576907,50.98220587],[4.00569234,50.98219557],[4.005721,50.98210602],[4.00600689,50.98214247],[4.00597235,50.98225042],[4.00589836,50.98224083],[4.0058971,50.98224343],[4.00576229,50.98222546],[4.00576907,50.98220587]]]}},{"type":"Feature","id":"gebouw/Gebouw.9841144/0","properties":{"source":"Digitaal Vlaanderen Gebouwenregister","source_id":"gebouw/Gebouw.9841144/0","kind":"building","height_m":8.6,"status":null},"geometry":{"type":"Polygon","coordinates":[[[4.01378987,50.97895422],[4.01376043,50.97897325],[4.01372602,50.97895152],[4.01374536,50.97893862],[4.01368321,50.97890067],[4.01364855,50.97887725],[4.01374749,50.97880772],[4.01373611,50.97880067],[4.01386062,50.97870881],[4.01396723,50.97876916],[4.01389025,50.97882399],[4.01385318,50.97880325],[4.01380101,50.97883584],[4.01379317,50.97884062],[4.01379284,50.9788438],[4.01387693,50.97889634],[4.01379063,50.97895372],[4.01378987,50.97895422]]]}},{"type":"Feature","id":"gebouw/Gebouw.9841175/0","properties":{"source":"Digitaal Vlaanderen Gebouwenregister","source_id":"gebouw/Gebouw.9841175/0","kind":"building","height_m":5.72,"status":null},"geometry":{"type":"Polygon","coordinates":[[[4.01052512,50.98096073],[4.01040884,50.98091544],[4.01027181,50.98080215],[4.01035059,50.98076444],[4.01038,50.98078957],[4.01040806,50.98077742],[4.01046707,50.98082533],[4.01043784,50.98083901],[4.01047031,50.98086684],[4.01048143,50.98085383],[4.0105366,50.980873],[4.01055989,50.98084833],[4.01056838,50.98083932],[4.01053082,50.9808243],[4.01057136,50.98078523],[4.0105746,50.9807862],[4.01067591,50.98068505],[4.01058117,50.98064634],[4.01061459,50.98061375],[4.01063935,50.98058959],[4.01073004,50.98062664],[4.01072115,50.98063685],[4.01080778,50.98067245],[4.01078808,50.98069261],[4.01069437,50.98078853],[4.01065139,50.98083252],[4.01065277,50.98083316],[4.01064867,50.98083669],[4.01064677,50.98083582],[4.01052512,50.98096073]]]}},{"type":"Feature","id":"gebouw/Gebouw.9841299/0","properties":{"source":"Digitaal Vlaanderen Gebouwenregister","source_id":"gebouw/Gebouw.9841299/0","kind":"building","height_m":9.32,"status":null},"geometry":{"type":"Polygon","coordinates":[[[4.00762477,50.98190854],[4.00757476,50.98189299],[4.00754836,50.98192492],[4.00735543,50.98186285],[4.0074092,50.98179657],[4.00734839,50.98177688],[4.00740044,50.98171222],[4.0074685,50.98173392],[4.00744183,50.98176453],[4.00768035,50.98184116],[4.00762477,50.98190854]]]}},{"type":"Feature","id":"gebouw/Gebouw.9841468/0","properties":{"source":"Digitaal Vlaanderen Gebouwenregister","source_id":"gebouw/Gebouw.9841468/0","kind":"building","height_m":5.0,"status":null},"geometry":{"type":"Polygon","coordinates":[[[4.00569393,50.9817733],[4.00569128,50.98177233],[4.00563293,50.98185006],[4.005433,50.98180034],[4.00547615,50.98173121],[4.00553862,50.98174573],[4.00553699,50.98175077],[4.00556855,50.98175767],[4.00557661,50.9817454],[4.00561722,50.98169341],[4.0056684,50.98170933],[4.00574673,50.98161336],[4.00577954,50.98157533],[4.005836,50.98159356],[4.00580524,50.98163255],[4.00580937,50.98163372],[4.00569393,50.9817733]]]}},{"type":"Feature","id":"gebouw/Gebouw.9841469/0","properties":{"source":"Digitaal Vlaanderen Gebouwenregister","source_id":"gebouw/Gebouw.9841469/0","kind":"building","height_m":5.72,"status":null},"geometry":{"type":"Polygon","coordinates":[[[4.01343144,50.97893929],[4.01345635,50.97891821],[4.01351662,50.97894884],[4.0134902,50.97897084],[4.01343144,50.97893929]]]}},{"type":"Feature","id":"gebouw/Gebouw.18362030/0","properties":{"source":"Digitaal Vlaanderen Gebouwenregister","source_id":"gebouw/Gebouw.18362030/0","kind":"building","height_m":5.72,"status":null},"geometry":{"type":"Polygon","coordinates":[[[4.00652532,50.9815329],[4.00650569,50.98160032],[4.00645397,50.9815933],[4.00647295,50.98152513],[4.00652532,50.9815329]]]}},{"type":"Feature","id":"gebouw/Gebouw.18734657/0","properties":{"source":"Digitaal Vlaanderen Gebouwenregister","source_id":"gebouw/Gebouw.18734657/0","kind":"building","height_m":7.88,"status":null},"geometry":{"type":"Polygon","coordinates":[[[4.00558366,50.98132059],[4.00562336,50.98133396],[4.0055941,50.98136859],[4.00555439,50.98135522],[4.00558366,50.98132059]]]}},{"type":"Feature","id":"gebouw/Gebouw.18734658/0","properties":{"source":"Digitaal Vlaanderen Gebouwenregister","source_id":"gebouw/Gebouw.18734658/0","kind":"building","height_m":8.6,"status":null},"geometry":{"type":"Polygon","coordinates":[[[4.00914775,50.98133733],[4.00910275,50.98136047],[4.00913804,50.98138782],[4.00918304,50.98136468],[4.00914775,50.98133733]]]}},{"type":"Feature","id":"gebouw/Gebouw.19524719/0","properties":{"source":"Digitaal Vlaanderen Gebouwenregister","source_id":"gebouw/Gebouw.19524719/0","kind":"building","height_m":7.88,"status":null},"geometry":{"type":"Polygon","coordinates":[[[4.01229451,50.98048831],[4.01229001,50.98048947],[4.01220317,50.98037905],[4.01225259,50.98036255],[4.01224546,50.98035217],[4.01234956,50.98032147],[4.01228887,50.98024139],[4.01253211,50.98016821],[4.01259915,50.98025473],[4.01259257,50.9802569],[4.01260658,50.98027598],[4.01246952,50.9803183],[4.01246352,50.9803098],[4.01236775,50.98033947],[4.01237693,50.98035081],[4.0123395,50.98036332],[4.0124111,50.98045663],[4.01238655,50.9804646],[4.01229451,50.98048831]]]}},{"type":"Feature","id":"gebouw/Gebouw.19524720/0","properties":{"source":"Digitaal Vlaanderen Gebouwenregister","source_id":"gebouw/Gebouw.19524720/0","kind":"building","height_m":8.6,"status":null},"geometry":{"type":"Polygon","coordinates":[[[4.01238655,50.9804646],[4.01241696,50.9805024],[4.01232813,50.98052783],[4.01229451,50.98048831],[4.01238655,50.9804646]]]}},{"type":"Feature","id":"gebouw/Gebouw.19527129/0","properties":{"source":"Digitaal Vlaanderen Gebouwenregister","source_id":"gebouw/Gebouw.19527129/0","kind":"building","height_m":9.32,"status":null},"geometry":{"type":"Polygon","coordinates":[[[4.00863798,50.98191399],[4.0086856,50.98188355],[4.00875239,50.98192531],[4.00870813,50.98195505],[4.00867925,50.98193814],[4.00863798,50.98191399]]]}},{"type":"Feature","id":"gebouw/Gebouw.19527130/0","properties":{"source":"Digitaal Vlaanderen Gebouwenregister","source_id":"gebouw/Gebouw.19527130/0","kind":"building","height_m":5.0,"status":null},"geometry":{"type":"Polygon","coordinates":[[[4.00867925,50.98193814],[4.00864643,50.9819586],[4.00860946,50.98193291],[4.00863798,50.98191399],[4.00867925,50.98193814]]]}},{"type":"Feature","id":"gebouw/Gebouw.19532876/0","properties":{"source":"Digitaal Vlaanderen Gebouwenregister","source_id":"gebouw/Gebouw.19532876/0","kind":"building","height_m":9.32,"status":null},"geometry":{"type":"Polygon","coordinates":[[[4.01297806,50.97925864],[4.01307159,50.97919549],[4.01318936,50.97926066],[4.01302002,50.97938128],[4.01295986,50.97934845],[4.01291502,50.97932398],[4.01299482,50.9792677],[4.01297806,50.97925864]]]}},{"type":"Feature","id":"gebouw/Gebouw.19532877/0","properties":{"source":"Digitaal Vlaanderen Gebouwenregister","source_id":"gebouw/Gebouw.19532877/0","kind":"building","height_m":5.0,"status":null},"geometry":{"type":"Polygon","coordinates":[[[4.01302002,50.97938128],[4.01299929,50.97939605],[4.0129421,50.97936133],[4.01295986,50.97934845],[4.01302002,50.97938128]]]}},{"type":"Feature","id":"gebouw/Gebouw.19532878/0","properties":{"source":"Digitaal Vlaanderen Gebouwenregister","source_id":"gebouw/Gebouw.19532878/0","kind":"building","height_m":5.72,"status":null},"geometry":{"type":"Polygon","coordinates":[[[4.0054875,50.98151951],[4.00558991,50.98155152],[4.00548388,50.98168669],[4.00538286,50.98165535],[4.0054875,50.98151951]]]}},{"type":"Feature","id":"gebouw/Gebouw.19533955/0","properties":{"source":"Digitaal Vlaanderen Gebouwenregister","source_id":"gebouw/Gebouw.19533955/0","kind":"building","height_m":5.0,"status":null},"geometry":{"type":"Polygon","coordinates":[[[4.01245427,50.9798156],[4.01229662,50.97984579],[4.01221394,50.97979273],[4.01221936,50.97978979],[4.01211109,50.97971368],[4.01208217,50.97972947],[4.01203778,50.9796932],[4.0120405,50.97969117],[4.01200908,50.97966872],[4.01194118,50.97969907],[4.01195158,50.9797093],[4.01195873,50.97970825],[4.01197382,50.97974213],[4.01199261,50.9797388],[4.01202672,50.97981336],[4.01187058,50.97984184],[4.0118274,50.97974751],[4.01183825,50.9797412],[4.0118301,50.97972482],[4.01168291,50.97960763],[4.01177193,50.97956957],[4.0118388,50.97954098],[4.0119114,50.97950994],[4.01206146,50.97963053],[4.01213873,50.97957238],[4.01221698,50.97961564],[4.01229615,50.97965942],[4.01251232,50.97977894],[4.01245427,50.9798156]]]}},{"type":"Feature","id":"gebouw/Gebouw.19533956/0","properties":{"source":"Digitaal Vlaanderen Gebouwenregister","source_id":"gebouw/Gebouw.19533956/0","kind":"building","height_m":5.72,"status":null},"geometry":{"type":"Polygon","coordinates":[[[4.0118388,50.97954098],[4.01177193,50.97956957],[4.0117539,50.9795511],[4.01181671,50.97952238],[4.0118388,50.97954098]]]}},{"type":"Feature","id":"gebouw/Gebouw.20194625/0","properties":{"source":"Digitaal Vlaanderen Gebouwenregister","source_id":"gebouw/Gebouw.20194625/0","kind":"building","height_m":7.16,"status":null},"geometry":{"type":"Polygon","coordinates":[[[4.01247545,50.97763592],[4.01249188,50.97761636],[4.01254987,50.97763577],[4.01253344,50.97765534],[4.01247545,50.97763592]]]}},{"type":"Feature","id":"gebouw/Gebouw.20536700/0","properties":{"source":"Digitaal Vlaanderen Gebouwenregister","source_id":"gebouw/Gebouw.20536700/0","kind":"building","height_m":6.44,"status":null},"geometry":{"type":"Polygon","coordinates":[[[4.0134926,50.97919787],[4.01353072,50.97916983],[4.01357562,50.97919416],[4.01353636,50.97922291],[4.0135541,50.97923257],[4.01346149,50.97930039],[4.01337323,50.97925235],[4.01334637,50.97927203],[4.01329029,50.97924165],[4.01331979,50.97921995],[4.01333709,50.97922932],[4.01339956,50.97918357],[4.0134231,50.97919632],[4.01345144,50.97917557],[4.0134926,50.97919787]]]}},{"type":"Feature","id":"gebouw/Gebouw.30585192/0","properties":{"source":"Digitaal Vlaanderen Gebouwenregister","source_id":"gebouw/Gebouw.30585192/0","kind":"building","height_m":5.72,"status":null},"geometry":{"type":"Polygon","coordinates":[[[4.01297806,50.97925864],[4.01307159,50.97919549],[4.01318936,50.97926066],[4.01309985,50.97932442],[4.01297806,50.97925864]]]}},{"type":"Feature","id":"gebouw/Gebouw.30585193/0","properties":{"source":"Digitaal Vlaanderen Gebouwenregister","source_id":"gebouw/Gebouw.30585193/0","kind":"building","height_m":6.44,"status":null},"geometry":{"type":"Polygon","coordinates":[[[4.01299391,50.97932359],[4.01295986,50.97934845],[4.01302002,50.97938128],[4.01305419,50.97935694],[4.01299391,50.97932359]]]}},{"type":"Feature","id":"gebouw/Gebouw.30589819/0","properties":{"source":"Digitaal Vlaanderen Gebouwenregister","source_id":"gebouw/Gebouw.30589819/0","kind":"building","height_m":5.72,"status":null},"geometry":{"type":"Polygon","coordinates":[[[4.00961544,50.98158403],[4.00954553,50.98161805],[4.00948112,50.9815652],[4.00955373,50.98153132],[4.00961544,50.98158403]]]}},{"type":"Feature","id":"gebouw/Gebouw.31001851/0","properties":{"source":"Digitaal Vlaanderen Gebouwenregister","source_id":"gebouw/Gebouw.31001851/0","kind":"building","height_m":9.32,"status":null},"geometry":{"type":"Polygon","coordinates":[[[4.01295489,50.97929586],[4.01298947,50.97927096],[4.01307112,50.97931614],[4.01303654,50.97934104],[4.01295489,50.97929586]]]}},{"type":"Feature","id":"gebouw/Gebouw.31001852/0","properties":{"source":"Digitaal Vlaanderen Gebouwenregister","source_id":"gebouw/Gebouw.31001852/0","kind":"building","height_m":5.0,"status":null},"geometry":{"type":"Polygon","coordinates":[[[4.01303474,50.97938205],[4.01306354,50.97936113],[4.01317327,50.97942135],[4.01314446,50.97944226],[4.01303474,50.97938205]]]}},{"type":"Feature","id":"gebouw/Gebouw.31002116/0","properties":{"source":"Digitaal Vlaanderen Gebouwenregister","source_id":"gebouw/Gebouw.31002116/0","kind":"building","height_m":8.6,"status":null},"geometry":{"type":"Polygon","coordinates":[[[4.01299865,50.98108813],[4.01310808,50.98122088],[4.01300233,50.98125562],[4.01293441,50.98117317],[4.0128941,50.98112425],[4.01287322,50.98109891],[4.01296952,50.98106729],[4.01298934,50.98109134],[4.01299865,50.98108813]]]}},{"type":"Feature","id":"gebouw/Gebouw.31002117/0","properties":{"source":"Digitaal Vlaanderen Gebouwenregister","source_id":"gebouw/Gebouw.31002117/0","kind":"building","height_m":9.32,"status":null},"geometry":{"type":"Polygon","coordinates":[[[4.01321967,50.98098174],[4.01300022,50.9810781],[4.0128936,50.98098133],[4.01312303,50.98088197],[4.01322316,50.98097372],[4.01321967,50.98098174]]]}},{"type":"Feature","id":"gebouw/Gebouw.31532978/0","properties":{"source":"Digitaal Vlaanderen Gebouwenregister","source_id":"gebouw/Gebouw.31532978/0","kind":"building","height_m":5.72,"status":null},"geometry":{"type":"Polygon","coordinates":[[[4.00720608,50.98216173],[4.0071794,50.98214501],[4.0071644,50.98215425],[4.00714511,50.98216614],[4.00715401,50.98217183],[4.00717153,50.98218304],[4.00720608,50.98216173]]]}},{"type":"Feature","id":"gebouw/Gebouw.31762460/0","properties":{"source":"Digitaal Vlaanderen Gebouwenregister","source_id":"gebouw/Gebouw.31762460/0","kind":"building","height_m":6.44,"status":null},"geometry":{"type":"Polygon","coordinates":[[[4.01131596,50.97809207],[4.01129777,50.97813815],[4.01134561,50.97814556],[4.01136354,50.97809943],[4.01131596,50.97809207]]]}},{"type":"Feature","id":"way/152632756","properties":{"source":"OpenStreetMap","source_id":"way/152632756","kind":"vegetation","name":null,"waterway":null,"landuse":"forest"},"geometry":{"type":"Polygon","coordinates":[[[4.0082716,50.9750446],[4.0080862,50.9750364],[4.008055,50.9760697],[4.0074638,50.9760741],[4.0079232,50.9764554],[4.008101,50.9766437],[4.0080954,50.9767143],[4.0079469,50.9769155],[4.0079071,50.9770486],[4.0079164,50.9771714],[4.0080253,50.9773872],[4.0087472,50.9780662],[4.0091037,50.9779876],[4.0093265,50.9781055],[4.0106508,50.977513],[4.0106263,50.9774641],[4.0105857,50.9774268],[4.0104157,50.9774228],[4.008191,50.9772799],[4.0082716,50.9750446]]]}},{"type":"Feature","id":"way/152642127","properties":{"source":"OpenStreetMap","source_id":"way/152642127","kind":"vegetation","name":null,"waterway":null,"landuse":"forest"},"geometry":{"type":"Polygon","coordinates":[[[4.0123345,50.9821383],[4.0118431,50.9824037],[4.011466,50.982619],[4.0114172,50.9825839],[4.0118221,50.9823436],[4.0114986,50.9820857],[4.0111635,50.9818615],[4.0110471,50.9819744],[4.0109471,50.9819377],[4.0115412,50.9813631],[4.0123345,50.9821383]]]}},{"type":"Feature","id":"way/152646428","properties":{"source":"OpenStreetMap","source_id":"way/152646428","kind":"vegetation","name":null,"waterway":null,"landuse":"forest"},"geometry":{"type":"Polygon","coordinates":[[[4.0110684,50.9809461],[4.0104694,50.9811906],[4.0101402,50.9809461],[4.0095215,50.9812196],[4.0089159,50.9817708],[4.0090936,50.9818578],[4.0097058,50.981315],[4.0098421,50.9811873],[4.0100692,50.9810464],[4.0104115,50.9812744],[4.011129,50.9809863],[4.0110684,50.9809461]]]}},{"type":"Feature","id":"way/152646448","properties":{"source":"OpenStreetMap","source_id":"way/152646448","kind":"vegetation","name":null,"waterway":null,"landuse":"forest"},"geometry":{"type":"Polygon","coordinates":[[[4.0055273,50.9800083],[4.0056368,50.9800786],[4.0057017,50.9801202],[4.0057609,50.9801948],[4.0056556,50.9803129],[4.0064692,50.9807618],[4.0066134,50.9808413],[4.0068602,50.9810858],[4.0071301,50.9812288],[4.0078872,50.9814316],[4.0080813,50.9814837],[4.0086178,50.9816453],[4.0085824,50.9816898],[4.0085289,50.9817572],[4.0076304,50.9815582],[4.007558,50.9817385],[4.0074,50.9817344],[4.0075119,50.9814256],[4.0072157,50.9813552],[4.0069425,50.9812557],[4.0067001,50.9815734],[4.0060506,50.9814671],[4.0056062,50.9812847],[4.0058336,50.9811079],[4.0061658,50.9808496],[4.0062283,50.9807025],[4.0056062,50.9803751],[4.0054384,50.9803357],[4.0053199,50.9803067],[4.0052535,50.9802489],[4.005208,50.9802093],[4.0051948,50.9801616],[4.0053283,50.980116],[4.0053462,50.9801098],[4.0055273,50.9800083]]]}},{"type":"Feature","id":"way/152646460","properties":{"source":"OpenStreetMap","source_id":"way/152646460","kind":"vegetation","name":null,"waterway":null,"landuse":"forest"},"geometry":{"type":"Polygon","coordinates":[[[4.0073868,50.9808247],[4.00818,50.9812391],[4.0080385,50.9813365],[4.0072749,50.9809118],[4.0073868,50.9808247]]]}},{"type":"Feature","id":"way/152646482","properties":{"source":"OpenStreetMap","source_id":"way/152646482","kind":"vegetation","name":null,"waterway":null,"landuse":"forest"},"geometry":{"type":"Polygon","coordinates":[[[4.0077345,50.9794801],[4.0077648,50.9794551],[4.0079975,50.9795826],[4.0084814,50.9795453],[4.0085444,50.97958],[4.0105747,50.9806975],[4.0108841,50.9805566],[4.0110223,50.9806809],[4.0105549,50.9808881],[4.0083827,50.9796697],[4.0080207,50.979707],[4.007731,50.9797899],[4.0077343,50.9795005],[4.0077345,50.9794801]]]}},{"type":"Feature","id":"way/152654654","properties":{"source":"OpenStreetMap","source_id":"way/152654654","kind":"vegetation","name":null,"waterway":null,"landuse":"forest"},"geometry":{"type":"Polygon","coordinates":[[[4.0123204,50.9783966],[4.0131518,50.978498],[4.0134348,50.9786389],[4.0137618,50.9792838],[4.0139285,50.9796128],[4.0137885,50.9796371],[4.0134067,50.9789355],[4.0132916,50.9787167],[4.0130385,50.9785523],[4.012301,50.9784518],[4.0123142,50.9784143],[4.0123204,50.9783966]]]}},{"type":"Feature","id":"way/152654667","properties":{"source":"OpenStreetMap","source_id":"way/152654667","kind":"vegetation","name":null,"waterway":null,"landuse":"forest"},"geometry":{"type":"Polygon","coordinates":[[[4.0095595,50.9796545],[4.009862,50.9798157],[4.0110885,50.9796545],[4.0112212,50.9799095],[4.0113329,50.9798743],[4.0112421,50.9797278],[4.0117471,50.9795124],[4.0117169,50.9794802],[4.0112025,50.9796765],[4.0109721,50.9792413],[4.0108069,50.9792545],[4.0109186,50.979445],[4.0095595,50.9796545]]]}},{"type":"Feature","id":"way/152654829","properties":{"source":"OpenStreetMap","source_id":"way/152654829","kind":"water","name":null,"waterway":null,"landuse":null},"geometry":{"type":"Polygon","coordinates":[[[4.0069317,50.9813186],[4.007069,50.9813552],[4.0071318,50.9813743],[4.0071574,50.9814109],[4.0071225,50.9814461],[4.007069,50.981471],[4.0069875,50.9814637],[4.0069061,50.9814197],[4.0068921,50.9813875],[4.0068921,50.9813596],[4.0069317,50.9813186]]]}},{"type":"Feature","id":"way/186997982","properties":{"source":"OpenStreetMap","source_id":"way/186997982","kind":"water","name":null,"waterway":null,"landuse":null},"geometry":{"type":"Polygon","coordinates":[[[4.0120949,50.9763],[4.0120627,50.9761852],[4.0121432,50.9760839],[4.0125938,50.9760264],[4.0127494,50.9760872],[4.0127494,50.9762561],[4.012465,50.9763271],[4.0120949,50.9763]]]}},{"type":"Feature","id":"way/266667492","properties":{"source":"OpenStreetMap","source_id":"way/266667492","kind":"waterway","name":null,"waterway":"stream","landuse":null},"geometry":{"type":"LineString","coordinates":[[4.0056111,50.9778657],[4.0059743,50.9780104],[4.0069594,50.9784868],[4.0075992,50.9787905],[4.0090752,50.9794828],[4.0107408,50.9803684],[4.0119059,50.9802213],[4.0125724,50.9801529],[4.0126892,50.9801446],[4.0127353,50.9801415]]}},{"type":"Feature","id":"way/266667494","properties":{"source":"OpenStreetMap","source_id":"way/266667494","kind":"waterway","name":null,"waterway":"stream","landuse":null},"geometry":{"type":"LineString","coordinates":[[4.0134316,50.9784402],[4.0132862,50.9786024],[4.0133551,50.9786183],[4.0133551,50.9786762],[4.0134976,50.9789004],[4.0134907,50.9790002],[4.0135987,50.9791738],[4.0140886,50.9799021]]}},{"type":"Feature","id":"way/266667495","properties":{"source":"OpenStreetMap","source_id":"way/266667495","kind":"waterway","name":null,"waterway":"stream","landuse":null},"geometry":{"type":"LineString","coordinates":[[4.0101704,50.9775029],[4.0106024,50.9774783],[4.0107265,50.9775535],[4.0110666,50.977866],[4.0112458,50.9780468],[4.0114273,50.9781684],[4.011641,50.9782537],[4.0117273,50.9782895],[4.0117972,50.9783391],[4.0119719,50.9783738],[4.0123142,50.9784143],[4.0128174,50.978491],[4.0129139,50.978504],[4.0131368,50.97853],[4.0132862,50.9786024]]}},{"type":"Feature","id":"way/653115187","properties":{"source":"OpenStreetMap","source_id":"way/653115187","kind":"waterway","name":null,"waterway":"stream","landuse":null},"geometry":{"type":"LineString","coordinates":[[4.0136774,50.9760387],[4.0136785,50.9760473]]}},{"type":"Feature","id":"way/1035330682","properties":{"source":"OpenStreetMap","source_id":"way/1035330682","kind":"waterway","name":null,"waterway":"stream","landuse":null},"geometry":{"type":"LineString","coordinates":[[4.0134654,50.9783995],[4.0134316,50.9784402]]}},{"type":"Feature","id":"way/1035330683","properties":{"source":"OpenStreetMap","source_id":"way/1035330683","kind":"waterway","name":null,"waterway":"stream","landuse":null},"geometry":{"type":"LineString","coordinates":[[4.0136785,50.9760473],[4.0138516,50.9773442],[4.0139152,50.9778281],[4.0134654,50.9783995]]}},{"type":"Feature","id":"way/1250950026","properties":{"source":"OpenStreetMap","source_id":"way/1250950026","kind":"water","name":null,"waterway":null,"landuse":null},"geometry":{"type":"Polygon","coordinates":[[[4.0096019,50.9793837],[4.0096173,50.9793962],[4.0096378,50.9794036],[4.0096606,50.9794086],[4.0096723,50.9794072],[4.0097346,50.9793939],[4.0097705,50.9793893],[4.0098122,50.9793966],[4.0099053,50.9794036],[4.0099778,50.9793957],[4.0101229,50.9793708],[4.0102284,50.9793653],[4.0102739,50.9793611],[4.0102937,50.9793546],[4.0105062,50.9793284],[4.0105604,50.9793154],[4.0105714,50.9793048],[4.0105641,50.9792965],[4.0104827,50.9792878],[4.0104497,50.9792818],[4.0104131,50.9792818],[4.0103838,50.9792868],[4.010323,50.9792997],[4.0102966,50.9792997],[4.0102761,50.9792974],[4.0102182,50.979279],[4.0101735,50.9792472],[4.0101486,50.9792352],[4.0101259,50.9792342],[4.0101171,50.9792356],[4.0100921,50.9792536],[4.010065,50.9792615],[4.0100475,50.9792624],[4.0100284,50.9792624],[4.0099778,50.9792407],[4.0099463,50.9792204],[4.0099185,50.9792001],[4.0099038,50.9791918],[4.0098591,50.9791775],[4.0098393,50.9791743],[4.0097096,50.9791867],[4.0096576,50.979195],[4.0096144,50.9792195],[4.0095939,50.9792393],[4.0095836,50.9792675],[4.0095792,50.9793177],[4.0095895,50.9793666],[4.0096019,50.9793837]]]}},{"type":"Feature","id":"way/1250950027","properties":{"source":"OpenStreetMap","source_id":"way/1250950027","kind":"water","name":null,"waterway":null,"landuse":null},"geometry":{"type":"Polygon","coordinates":[[[4.0095832,50.977557],[4.0095973,50.977583],[4.0096325,50.9775931],[4.0096928,50.9775899],[4.0097883,50.9775703],[4.0098224,50.9775488],[4.0098164,50.9775273],[4.0098033,50.9775127],[4.0097581,50.9775127],[4.0096807,50.977514],[4.0096043,50.977521],[4.0095842,50.9775355],[4.0095832,50.977557]]]}},{"type":"Feature","id":"way/1250958013","properties":{"source":"OpenStreetMap","source_id":"way/1250958013","kind":"water","name":null,"waterway":null,"landuse":null},"geometry":{"type":"Polygon","coordinates":[[[4.0154179,50.979452],[4.0154108,50.9794868],[4.0155238,50.9795543],[4.0155556,50.9795454],[4.015578,50.9795335],[4.0156086,50.9795328],[4.0156769,50.9794868],[4.0156886,50.9794653],[4.0157028,50.9794379],[4.0156851,50.9793994],[4.015651,50.9793838],[4.0156015,50.9793727],[4.0155274,50.9793786],[4.0154779,50.9793979],[4.0154285,50.9794327],[4.0154179,50.979452]]]}},{"type":"Feature","id":"way/1250958014","properties":{"source":"OpenStreetMap","source_id":"way/1250958014","kind":"water","name":null,"waterway":null,"landuse":null},"geometry":{"type":"Polygon","coordinates":[[[4.0088151,50.9807437],[4.0087867,50.9807985],[4.0088302,50.9808497],[4.0088396,50.980889],[4.0089569,50.9809438],[4.0090893,50.9809569],[4.0090969,50.9809069],[4.0092104,50.9808426],[4.0092274,50.9807973],[4.0092803,50.980764],[4.0093919,50.9807045],[4.00939,50.9806818],[4.0093711,50.9806652],[4.0093352,50.9806628],[4.0090723,50.9807473],[4.0089985,50.9807545],[4.0089512,50.9807449],[4.0088983,50.9807271],[4.0088586,50.9807211],[4.0088151,50.9807437]]]}},{"type":"Feature","id":"way/1250958015","properties":{"source":"OpenStreetMap","source_id":"way/1250958015","kind":"water","name":null,"waterway":null,"landuse":null},"geometry":{"type":"Polygon","coordinates":[[[4.0090645,50.9816949],[4.0090797,50.9817018],[4.0090976,50.9817313],[4.0091638,50.9817357],[4.009219,50.98172],[4.0094651,50.9815212],[4.009559,50.9814404],[4.0095602,50.9813829],[4.0095127,50.9813435],[4.0094864,50.9813396],[4.0094044,50.9813522],[4.0093143,50.9814192],[4.0090766,50.9816519],[4.0090645,50.9816949]]]}},{"type":"Feature","id":"way/1250958016","properties":{"source":"OpenStreetMap","source_id":"way/1250958016","kind":"water","name":null,"waterway":null,"landuse":null},"geometry":{"type":"Polygon","coordinates":[[[4.0053213,50.9801556],[4.0053072,50.9802023],[4.0054025,50.980229],[4.0054908,50.9802571],[4.0055085,50.9802727],[4.005565,50.9802823],[4.0056047,50.9802729],[4.0056398,50.9802382],[4.0056721,50.9802208],[4.0056757,50.9802045],[4.0057004,50.98016],[4.0056498,50.9800956],[4.0056368,50.9800786],[4.0055591,50.9800385],[4.0055262,50.9800377],[4.0054096,50.9800985],[4.0053519,50.9801423],[4.0053213,50.9801556]]]}},{"type":"Feature","id":"way/1250958017","properties":{"source":"OpenStreetMap","source_id":"way/1250958017","kind":"water","name":null,"waterway":null,"landuse":null},"geometry":{"type":"Polygon","coordinates":[[[4.0061929,50.9810938],[4.0061916,50.9811027],[4.006213,50.9811223],[4.0062481,50.9811317],[4.0062673,50.9811246],[4.0063877,50.9810238],[4.006384,50.9810131],[4.0063124,50.9809836],[4.0062764,50.9810086],[4.0061929,50.9810938]]]}},{"type":"Feature","id":"way/1250958019","properties":{"source":"OpenStreetMap","source_id":"way/1250958019","kind":"water","name":null,"waterway":null,"landuse":null},"geometry":{"type":"Polygon","coordinates":[[[4.0117679,50.9819772],[4.0117639,50.981988],[4.0117659,50.9820026],[4.01178,50.9820209],[4.0118293,50.9820418],[4.0118705,50.9820424],[4.0118996,50.9820538],[4.0119328,50.9820836],[4.0119941,50.9821171],[4.0120142,50.9821215],[4.0120424,50.9821215],[4.0120665,50.9821146],[4.0120876,50.9820918],[4.0121007,50.9820507],[4.0120896,50.9820165],[4.0120765,50.9820007],[4.0120323,50.9819678],[4.011978,50.9819348],[4.01197,50.9819222],[4.0119599,50.9819133],[4.0119217,50.9819],[4.0119046,50.9819],[4.0118775,50.9819038],[4.0118092,50.9819469],[4.0117679,50.9819772]]]}}]}