{"type":"FeatureCollection","features":[{"type":"Feature","id":"gebouw/Gebouw.8503055/0","properties":{"source":"Digitaal Vlaanderen Gebouwenregister","source_id":"gebouw/Gebouw.8503055/0","kind":"building","height_m":5.72,"status":null},"geometry":{"type":"Polygon","coordinates":[[[4.0119129,50.98469147],[4.011871,50.98470413],[4.01186616,50.98469714],[4.01183145,50.98470762],[4.01183787,50.9847161],[4.01176266,50.98473994],[4.01182353,50.98481643],[4.01187722,50.98479941],[4.01189699,50.98482672],[4.01199454,50.98479707],[4.0119129,50.98469147]]]}},{"type":"Feature","id":"gebouw/Gebouw.8509669/0","properties":{"source":"Digitaal Vlaanderen Gebouwenregister","source_id":"gebouw/Gebouw.8509669/0","kind":"building","height_m":5.0,"status":null},"geometry":{"type":"Polygon","coordinates":[[[4.01080083,50.98271812],[4.0104404,50.98289696],[4.0103533,50.98282782],[4.01071612,50.98264826],[4.01080083,50.98271812]]]}},{"type":"Feature","id":"gebouw/Gebouw.8509670/0","properties":{"source":"Digitaal Vlaanderen Gebouwenregister","source_id":"gebouw/Gebouw.8509670/0","kind":"building","height_m":5.72,"status":null},"geometry":{"type":"Polygon","coordinates":[[[4.01225532,50.98366466],[4.01223598,50.9836238],[4.01227771,50.98361677],[4.01229408,50.98365797],[4.01225532,50.98366466]]]}},{"type":"Feature","id":"gebouw/Gebouw.8528817/0","properties":{"source":"Digitaal Vlaanderen Gebouwenregister","source_id":"gebouw/Gebouw.8528817/0","kind":"building","height_m":7.16,"status":null},"geometry":{"type":"Polygon","coordinates":[[[4.01027743,50.98253498],[4.01018594,50.9824744],[4.01025198,50.98243599],[4.01034319,50.98249637],[4.01027743,50.98253498]]]}},{"type":"Feature","id":"gebouw/Gebouw.8528818/0","properties":{"source":"Digitaal Vlaanderen Gebouwenregister","source_id":"gebouw/Gebouw.8528818/0","kind":"building","height_m":7.88,"status":null},"geometry":{"type":"Polygon","coordinates":[[[4.01125983,50.98483797],[4.01127177,50.98481841],[4.01140582,50.98484828],[4.01139287,50.98487143],[4.01142118,50.98487773],[4.0113983,50.98491864],[4.0111963,50.98487361],[4.01122092,50.98482893],[4.01125983,50.98483797]]]}},{"type":"Feature","id":"gebouw/Gebouw.8567764/0","properties":{"source":"Digitaal Vlaanderen Gebouwenregister","source_id":"gebouw/Gebouw.8567764/0","kind":"building","height_m":6.44,"status":null},"geometry":{"type":"Polygon","coordinates":[[[4.01178929,50.98302645],[4.01185316,50.9830884],[4.01180153,50.98310993],[4.01173552,50.98305039],[4.01178929,50.98302645]]]}},{"type":"Feature","id":"gebouw/Gebouw.8570011/0","properties":{"source":"Digitaal Vlaanderen Gebouwenregister","source_id":"gebouw/Gebouw.8570011/0","kind":"building","height_m":6.44,"status":null},"geometry":{"type":"Polygon","coordinates":[[[4.01019044,50.98290375],[4.01026156,50.98296085],[4.01009893,50.98304176],[4.01002771,50.98298474],[4.01019044,50.98290375]]]}},{"type":"Feature","id":"gebouw/Gebouw.8570012/0","properties":{"source":"Digitaal Vlaanderen Gebouwenregister","source_id":"gebouw/Gebouw.8570012/0","kind":"building","height_m":7.16,"status":null},"geometry":{"type":"Polygon","coordinates":[[[4.01088886,50.9857732],[4.01088234,50.98577275],[4.01088887,50.98572975],[4.01093746,50.98573253],[4.01093374,50.98574916],[4.01092894,50.98575098],[4.01092439,50.98577584],[4.01091313,50.98577534],[4.01090897,50.9858077],[4.01088437,50.98580649],[4.01088886,50.9857732]]]}},{"type":"Feature","id":"gebouw/Gebouw.8626061/0","properties":{"source":"Digitaal Vlaanderen Gebouwenregister","source_id":"gebouw/Gebouw.8626061/0","kind":"building","height_m":7.16,"status":null},"geometry":{"type":"Polygon","coordinates":[[[4.010157,50.98271589],[4.01022533,50.98280454],[4.01001609,50.9828691],[4.00999114,50.98283689],[4.01006196,50.98281541],[4.01005912,50.98281162],[4.01007811,50.98280598],[4.01000676,50.9827126],[4.01011552,50.98268153],[4.01011353,50.98267833],[4.01021522,50.98264948],[4.01024347,50.98269006],[4.010157,50.98271589]]]}},{"type":"Feature","id":"gebouw/Gebouw.8626062/0","properties":{"source":"Digitaal Vlaanderen Gebouwenregister","source_id":"gebouw/Gebouw.8626062/0","kind":"building","height_m":7.88,"status":null},"geometry":{"type":"Polygon","coordinates":[[[4.01128363,50.9845879],[4.0113104,50.9845937],[4.01136793,50.98460599],[4.01141172,50.98461432],[4.01142266,50.98459402],[4.01129555,50.98456584],[4.01128363,50.9845879]]]}},{"type":"Feature","id":"gebouw/Gebouw.8644946/0","properties":{"source":"Digitaal Vlaanderen Gebouwenregister","source_id":"gebouw/Gebouw.8644946/0","kind":"building","height_m":6.44,"status":null},"geometry":{"type":"Polygon","coordinates":[[[4.01071285,50.98256263],[4.01068331,50.98261156],[4.01061669,50.98259547],[4.01064654,50.98254635],[4.01071285,50.98256263]]]}},{"type":"Feature","id":"gebouw/Gebouw.8644947/0","properties":{"source":"Digitaal Vlaanderen Gebouwenregister","source_id":"gebouw/Gebouw.8644947/0","kind":"building","height_m":7.16,"status":null},"geometry":{"type":"Polygon","coordinates":[[[4.0102632,50.98292066],[4.01022283,50.98288894],[4.01025684,50.98287152],[4.01029688,50.98290455],[4.0102632,50.98292066]]]}},{"type":"Feature","id":"gebouw/Gebouw.8676708/0","properties":{"source":"Digitaal Vlaanderen Gebouwenregister","source_id":"gebouw/Gebouw.8676708/0","kind":"building","height_m":8.6,"status":null},"geometry":{"type":"Polygon","coordinates":[[[4.01109333,50.98297795],[4.01079383,50.98312112],[4.01061612,50.98297025],[4.01060287,50.98297723],[4.01054971,50.982936],[4.01058334,50.98291894],[4.01077241,50.98282307],[4.01081942,50.98286105],[4.01090786,50.98281782],[4.01109333,50.98297795]]]}},{"type":"Feature","id":"gebouw/Gebouw.8676709/0","properties":{"source":"Digitaal Vlaanderen Gebouwenregister","source_id":"gebouw/Gebouw.8676709/0","kind":"building","height_m":9.32,"status":null},"geometry":{"type":"Polygon","coordinates":[[[4.01041054,50.98325793],[4.01045828,50.98329734],[4.0103658,50.98334433],[4.01031536,50.98330557],[4.01034442,50.9832905],[4.01024451,50.98321214],[4.01030808,50.98317985],[4.01040693,50.98325939],[4.01041054,50.98325793]]]}},{"type":"Feature","id":"gebouw/Gebouw.9043821/0","properties":{"source":"Digitaal Vlaanderen Gebouwenregister","source_id":"gebouw/Gebouw.9043821/0","kind":"building","height_m":7.16,"status":null},"geometry":{"type":"Polygon","coordinates":[[[4.01138115,50.984475],[4.01131916,50.98445826],[4.01135198,50.98441054],[4.01151885,50.98445627],[4.01143079,50.98458426],[4.01140148,50.98457713],[4.01141576,50.98455405],[4.01140926,50.98455285],[4.01143335,50.98451866],[4.01137887,50.98450363],[4.01139813,50.98447238],[4.01138547,50.98446905],[4.01138115,50.984475]]]}},{"type":"Feature","id":"gebouw/Gebouw.9043822/0","properties":{"source":"Digitaal Vlaanderen Gebouwenregister","source_id":"gebouw/Gebouw.9043822/0","kind":"building","height_m":7.88,"status":null},"geometry":{"type":"Polygon","coordinates":[[[4.00576778,50.98249786],[4.0057857,50.98247221],[4.00584846,50.98248807],[4.00582784,50.98251501],[4.00576778,50.98249786]]]}},{"type":"Feature","id":"gebouw/Gebouw.9043942/0","properties":{"source":"Digitaal Vlaanderen Gebouwenregister","source_id":"gebouw/Gebouw.9043942/0","kind":"building","height_m":8.6,"status":null},"geometry":{"type":"Polygon","coordinates":[[[4.01158164,50.98478939],[4.01155407,50.98483234],[4.01145252,50.98480638],[4.01148107,50.98476324],[4.01158164,50.98478939]]]}},{"type":"Feature","id":"gebouw/Gebouw.9043943/0","properties":{"source":"Digitaal Vlaanderen Gebouwenregister","source_id":"gebouw/Gebouw.9043943/0","kind":"building","height_m":9.32,"status":null},"geometry":{"type":"Polygon","coordinates":[[[4.01148107,50.98476324],[4.01145252,50.98480638],[4.01136151,50.98478311],[4.0113663,50.98477565],[4.01125254,50.98474742],[4.01128929,50.98468878],[4.0114032,50.98471798],[4.01139033,50.98473798],[4.01148182,50.9847621],[4.01148107,50.98476324]]]}},{"type":"Feature","id":"gebouw/Gebouw.9044158/0","properties":{"source":"Digitaal Vlaanderen Gebouwenregister","source_id":"gebouw/Gebouw.9044158/0","kind":"building","height_m":7.88,"status":null},"geometry":{"type":"Polygon","coordinates":[[[4.00677789,50.98253089],[4.00685268,50.98256225],[4.00679451,50.98261648],[4.00677927,50.98260957],[4.0067601,50.98262678],[4.00670142,50.98260253],[4.006724,50.9825803],[4.00669965,50.98257011],[4.00675196,50.98252424],[4.00677423,50.9825346],[4.00677789,50.98253089]]]}},{"type":"Feature","id":"gebouw/Gebouw.9044554/0","properties":{"source":"Digitaal Vlaanderen Gebouwenregister","source_id":"gebouw/Gebouw.9044554/0","kind":"building","height_m":5.72,"status":null},"geometry":{"type":"Polygon","coordinates":[[[4.00881031,50.98331874],[4.00902296,50.98347261],[4.00873758,50.98363073],[4.00852193,50.98347794],[4.00881031,50.98331874]]]}},{"type":"Feature","id":"gebouw/Gebouw.9044555/0","properties":{"source":"Digitaal Vlaanderen Gebouwenregister","source_id":"gebouw/Gebouw.9044555/0","kind":"building","height_m":6.44,"status":null},"geometry":{"type":"Polygon","coordinates":[[[4.00726926,50.98336532],[4.00731993,50.98333592],[4.007356,50.98336179],[4.00730565,50.98339064],[4.00726926,50.98336532]]]}},{"type":"Feature","id":"gebouw/Gebouw.9044556/0","properties":{"source":"Digitaal Vlaanderen Gebouwenregister","source_id":"gebouw/Gebouw.9044556/0","kind":"building","height_m":7.16,"status":null},"geometry":{"type":"Polygon","coordinates":[[[4.00747494,50.98310873],[4.00744066,50.98308006],[4.00754071,50.98303397],[4.00757424,50.98306298],[4.00747494,50.98310873]]]}},{"type":"Feature","id":"gebouw/Gebouw.9100981/0","properties":{"source":"Digitaal Vlaanderen Gebouwenregister","source_id":"gebouw/Gebouw.9100981/0","kind":"building","height_m":5.72,"status":null},"geometry":{"type":"Polygon","coordinates":[[[4.00687144,50.98310526],[4.00681931,50.98308071],[4.0068676,50.9830406],[4.00691706,50.98306531],[4.00687144,50.98310526]]]}},{"type":"Feature","id":"gebouw/Gebouw.9127278/0","properties":{"source":"Digitaal Vlaanderen Gebouwenregister","source_id":"gebouw/Gebouw.9127278/0","kind":"building","height_m":9.32,"status":null},"geometry":{"type":"Polygon","coordinates":[[[4.00679125,50.98345013],[4.0068422,50.98347467],[4.00681796,50.98349276],[4.00676761,50.98346823],[4.00679125,50.98345013]]]}},{"type":"Feature","id":"gebouw/Gebouw.9127279/0","properties":{"source":"Digitaal Vlaanderen Gebouwenregister","source_id":"gebouw/Gebouw.9127279/0","kind":"building","height_m":5.0,"status":null},"geometry":{"type":"Polygon","coordinates":[[[4.00693149,50.98316548],[4.00701905,50.98308966],[4.00722325,50.98318426],[4.00713808,50.98325936],[4.0069977,50.98319619],[4.00697823,50.98321358],[4.00691638,50.98318611],[4.00693617,50.98316778],[4.00693149,50.98316548]]]}},{"type":"Feature","id":"gebouw/Gebouw.9171981/0","properties":{"source":"Digitaal Vlaanderen Gebouwenregister","source_id":"gebouw/Gebouw.9171981/0","kind":"building","height_m":5.0,"status":null},"geometry":{"type":"Polygon","coordinates":[[[4.00837306,50.98372501],[4.00845468,50.98378475],[4.00838956,50.98382187],[4.00830664,50.98376117],[4.00837306,50.98372501]]]}},{"type":"Feature","id":"gebouw/Gebouw.9172055/0","properties":{"source":"Digitaal Vlaanderen Gebouwenregister","source_id":"gebouw/Gebouw.9172055/0","kind":"building","height_m":7.88,"status":null},"geometry":{"type":"Polygon","coordinates":[[[4.0062619,50.9827088],[4.00628887,50.98272071],[4.006255,50.98275423],[4.00622741,50.98274344],[4.0062619,50.9827088]]]}},{"type":"Feature","id":"gebouw/Gebouw.9172367/0","properties":{"source":"Digitaal Vlaanderen Gebouwenregister","source_id":"gebouw/Gebouw.9172367/0","kind":"building","height_m":5.72,"status":null},"geometry":{"type":"Polygon","coordinates":[[[4.00835104,50.98245675],[4.00830005,50.98247642],[4.00825456,50.98243369],[4.00824799,50.98242752],[4.00829562,50.9824062],[4.00835104,50.98245675]]]}},{"type":"Feature","id":"gebouw/Gebouw.9419603/0","properties":{"source":"Digitaal Vlaanderen Gebouwenregister","source_id":"gebouw/Gebouw.9419603/0","kind":"building","height_m":7.88,"status":null},"geometry":{"type":"Polygon","coordinates":[[[4.00768282,50.98314007],[4.00757564,50.98317921],[4.00747049,50.98321078],[4.00747913,50.98322342],[4.00732217,50.98331908],[4.00727825,50.98329147],[4.0073848,50.98322409],[4.00741194,50.98320693],[4.00740985,50.98320512],[4.00744761,50.98318589],[4.00745238,50.98318425],[4.00746599,50.9831796],[4.00750272,50.98316703],[4.00748094,50.98314406],[4.00752906,50.98312414],[4.00752531,50.98312017],[4.00760151,50.98308776],[4.00762286,50.98307868],[4.00768282,50.98314007]]]}},{"type":"Feature","id":"gebouw/Gebouw.9443869/0","properties":{"source":"Digitaal Vlaanderen Gebouwenregister","source_id":"gebouw/Gebouw.9443869/0","kind":"building","height_m":5.72,"status":null},"geometry":{"type":"Polygon","coordinates":[[[4.00711745,50.98331832],[4.00704469,50.9833634],[4.00699947,50.98333537],[4.00707403,50.98328993],[4.00709636,50.98330453],[4.00711745,50.98331832]]]}},{"type":"Feature","id":"gebouw/Gebouw.9443870/0","properties":{"source":"Digitaal Vlaanderen Gebouwenregister","source_id":"gebouw/Gebouw.9443870/0","kind":"building","height_m":6.44,"status":null},"geometry":{"type":"Polygon","coordinates":[[[4.00711061,50.98281835],[4.00706709,50.98280197],[4.0071319,50.98273335],[4.00717505,50.98275012],[4.00711061,50.98281835]]]}},{"type":"Feature","id":"gebouw/Gebouw.9443984/0","properties":{"source":"Digitaal Vlaanderen Gebouwenregister","source_id":"gebouw/Gebouw.9443984/0","kind":"building","height_m":7.88,"status":null},"geometry":{"type":"Polygon","coordinates":[[[4.01163138,50.98467103],[4.01158814,50.98466472],[4.0116046,50.98462155],[4.01164718,50.98462795],[4.01163138,50.98467103]]]}},{"type":"Feature","id":"gebouw/Gebouw.9444367/0","properties":{"source":"Digitaal Vlaanderen Gebouwenregister","source_id":"gebouw/Gebouw.9444367/0","kind":"building","height_m":6.44,"status":null},"geometry":{"type":"Polygon","coordinates":[[[4.00669162,50.98239645],[4.00663949,50.98244663],[4.00661482,50.98246939],[4.00659075,50.98246014],[4.00657427,50.98247644],[4.0065165,50.98245201],[4.00660528,50.98236402],[4.00669162,50.98239645]]]}},{"type":"Feature","id":"gebouw/Gebouw.9462467/0","properties":{"source":"Digitaal Vlaanderen Gebouwenregister","source_id":"gebouw/Gebouw.9462467/0","kind":"building","height_m":5.0,"status":null},"geometry":{"type":"Polygon","coordinates":[[[4.010273,50.98314117],[4.010148,50.98320112],[4.01007717,50.98314226],[4.01019277,50.98308509],[4.01018142,50.98307728],[4.01025903,50.98304145],[4.01028329,50.98306239],[4.01037739,50.98301894],[4.01044017,50.98307714],[4.01028299,50.98314978],[4.010273,50.98314117]]]}},{"type":"Feature","id":"gebouw/Gebouw.9462468/0","properties":{"source":"Digitaal Vlaanderen Gebouwenregister","source_id":"gebouw/Gebouw.9462468/0","kind":"building","height_m":5.72,"status":null},"geometry":{"type":"Polygon","coordinates":[[[4.00948426,50.98302649],[4.00946157,50.98301013],[4.00942209,50.98303198],[4.00938982,50.98305092],[4.0093322,50.9830102],[4.00945974,50.98293688],[4.00943091,50.98291727],[4.00949264,50.98288102],[4.0096016,50.98296474],[4.00958028,50.9829758],[4.00962019,50.98300647],[4.00952701,50.98305479],[4.00948426,50.98302649]]]}},{"type":"Feature","id":"gebouw/Gebouw.9476296/0","properties":{"source":"Digitaal Vlaanderen Gebouwenregister","source_id":"gebouw/Gebouw.9476296/0","kind":"building","height_m":7.88,"status":null},"geometry":{"type":"Polygon","coordinates":[[[4.00786372,50.98250306],[4.00787807,50.98252083],[4.0078416,50.98253054],[4.00782566,50.98250602],[4.00785227,50.98249863],[4.00786372,50.98250306]]]}},{"type":"Feature","id":"gebouw/Gebouw.9482225/0","properties":{"source":"Digitaal Vlaanderen Gebouwenregister","source_id":"gebouw/Gebouw.9482225/0","kind":"building","height_m":7.88,"status":null},"geometry":{"type":"Polygon","coordinates":[[[4.01077451,50.98321905],[4.01063766,50.98328549],[4.01053119,50.98333718],[4.01045114,50.98327037],[4.01049656,50.9832482],[4.01047223,50.98322658],[4.01055522,50.98318704],[4.01057985,50.98320848],[4.01061439,50.98319331],[4.01048331,50.98308361],[4.01055576,50.98304975],[4.01060036,50.98308921],[4.01070131,50.98304424],[4.01085591,50.98318343],[4.01077451,50.98321905]]]}},{"type":"Feature","id":"gebouw/Gebouw.9482327/0","properties":{"source":"Digitaal Vlaanderen Gebouwenregister","source_id":"gebouw/Gebouw.9482327/0","kind":"building","height_m":5.72,"status":null},"geometry":{"type":"Polygon","coordinates":[[[4.0102167,50.98522627],[4.01031286,50.98527394],[4.01031124,50.98527517],[4.01031006,50.98527611],[4.01015234,50.98539816],[4.01006869,50.98535552],[4.00976814,50.98520231],[4.00991933,50.98507886],[4.0102167,50.98522627]]]}},{"type":"Feature","id":"gebouw/Gebouw.9507327/0","properties":{"source":"Digitaal Vlaanderen Gebouwenregister","source_id":"gebouw/Gebouw.9507327/0","kind":"building","height_m":7.88,"status":null},"geometry":{"type":"Polygon","coordinates":[[[4.01012095,50.98248949],[4.01018176,50.98252886],[4.010122,50.98256529],[4.0100604,50.98252774],[4.009923,50.98244397],[4.00998766,50.98240585],[4.01005093,50.98236855],[4.01018178,50.98245301],[4.01012095,50.98248949]]]}},{"type":"Feature","id":"gebouw/Gebouw.9507328/0","properties":{"source":"Digitaal Vlaanderen Gebouwenregister","source_id":"gebouw/Gebouw.9507328/0","kind":"building","height_m":8.6,"status":null},"geometry":{"type":"Polygon","coordinates":[[[4.00599751,50.9827366],[4.00599359,50.98274109],[4.00591008,50.982712],[4.00603429,50.98256991],[4.00617538,50.98261906],[4.00605519,50.98275655],[4.00599751,50.9827366]]]}},{"type":"Feature","id":"gebouw/Gebouw.9507329/0","properties":{"source":"Digitaal Vlaanderen Gebouwenregister","source_id":"gebouw/Gebouw.9507329/0","kind":"building","height_m":9.32,"status":null},"geometry":{"type":"Polygon","coordinates":[[[4.00560054,50.98290563],[4.00554113,50.98297691],[4.00538912,50.98292671],[4.00572033,50.98252899],[4.00587295,50.98257881],[4.00560054,50.98290563]]]}},{"type":"Feature","id":"gebouw/Gebouw.9555975/0","properties":{"source":"Digitaal Vlaanderen Gebouwenregister","source_id":"gebouw/Gebouw.9555975/0","kind":"building","height_m":6.44,"status":null},"geometry":{"type":"Polygon","coordinates":[[[4.00589255,50.98304296],[4.00593754,50.98306296],[4.00602956,50.98298047],[4.00598457,50.98296047],[4.00589255,50.98304296]]]}},{"type":"Feature","id":"gebouw/Gebouw.9556412/0","properties":{"source":"Digitaal Vlaanderen Gebouwenregister","source_id":"gebouw/Gebouw.9556412/0","kind":"building","height_m":8.6,"status":null},"geometry":{"type":"Polygon","coordinates":[[[4.00568435,50.98251724],[4.0053517,50.98291712],[4.0050962,50.98283244],[4.00549087,50.98236143],[4.00574432,50.98244515],[4.00568435,50.98251724]]]}},{"type":"Feature","id":"gebouw/Gebouw.9556415/0","properties":{"source":"Digitaal Vlaanderen Gebouwenregister","source_id":"gebouw/Gebouw.9556415/0","kind":"building","height_m":5.72,"status":null},"geometry":{"type":"Polygon","coordinates":[[[4.01118635,50.98486619],[4.01116405,50.98490428],[4.01114244,50.98494119],[4.01105275,50.98492222],[4.01107348,50.98488409],[4.01109434,50.9848457],[4.01118635,50.98486619]]]}},{"type":"Feature","id":"gebouw/Gebouw.9563668/0","properties":{"source":"Digitaal Vlaanderen Gebouwenregister","source_id":"gebouw/Gebouw.9563668/0","kind":"building","height_m":6.44,"status":null},"geometry":{"type":"Polygon","coordinates":[[[4.01037016,50.98509227],[4.01046922,50.98514205],[4.0103309,50.98526035],[4.01023326,50.98521181],[4.00993723,50.98506463],[4.01008319,50.98494805],[4.01037016,50.98509227]]]}},{"type":"Feature","id":"gebouw/Gebouw.9563952/0","properties":{"source":"Digitaal Vlaanderen Gebouwenregister","source_id":"gebouw/Gebouw.9563952/0","kind":"building","height_m":9.32,"status":null},"geometry":{"type":"Polygon","coordinates":[[[4.00735134,50.98270457],[4.00729201,50.9827188],[4.00729741,50.98272776],[4.00723316,50.98274318],[4.0071935,50.98266345],[4.00722371,50.98263284],[4.00729791,50.98261584],[4.00729894,50.98261755],[4.00730159,50.98262196],[4.00730433,50.9826265],[4.00730832,50.98263312],[4.00731098,50.98263754],[4.00732658,50.98266345],[4.00735134,50.98270457]]]}},{"type":"Feature","id":"gebouw/Gebouw.9564048/0","properties":{"source":"Digitaal Vlaanderen Gebouwenregister","source_id":"gebouw/Gebouw.9564048/0","kind":"building","height_m":7.88,"status":null},"geometry":{"type":"Polygon","coordinates":[[[4.00772468,50.98238665],[4.00773122,50.98238461],[4.00776787,50.98241791],[4.00780327,50.98245744],[4.00774349,50.98247327],[4.00775828,50.98249628],[4.0077514,50.98249826],[4.00776458,50.98251866],[4.00766205,50.98254593],[4.00764351,50.98251816],[4.00758089,50.98253482],[4.00756623,50.98251285],[4.00756394,50.98251346],[4.00755701,50.98250309],[4.0075593,50.98250249],[4.0075444,50.98248016],[4.00768155,50.98244367],[4.00765724,50.98240545],[4.0076686,50.98240257],[4.00772468,50.98238665]]]}},{"type":"Feature","id":"gebouw/Gebouw.9578365/0","properties":{"source":"Digitaal Vlaanderen Gebouwenregister","source_id":"gebouw/Gebouw.9578365/0","kind":"building","height_m":9.32,"status":null},"geometry":{"type":"Polygon","coordinates":[[[4.00812176,50.98262521],[4.00805537,50.98266495],[4.00803565,50.98264825],[4.0080076,50.9826219],[4.00799858,50.98261446],[4.00792101,50.98255038],[4.00789358,50.98252773],[4.00788515,50.98252076],[4.00786372,50.98250306],[4.00785227,50.98249863],[4.00780327,50.98245744],[4.00776787,50.98241791],[4.00787048,50.98236641],[4.0079234,50.98240558],[4.00809925,50.98253769],[4.00817272,50.9824885],[4.00824089,50.98253383],[4.00834114,50.98247125],[4.00843241,50.98252752],[4.00843472,50.98252894],[4.00830066,50.98261274],[4.00822411,50.98256393],[4.00812176,50.98262521]]]}},{"type":"Feature","id":"gebouw/Gebouw.9578366/0","properties":{"source":"Digitaal Vlaanderen Gebouwenregister","source_id":"gebouw/Gebouw.9578366/0","kind":"building","height_m":5.0,"status":null},"geometry":{"type":"Polygon","coordinates":[[[4.01034378,50.98546077],[4.01031674,50.9854835],[4.01024763,50.98545015],[4.01027348,50.98542777],[4.01019824,50.9853908],[4.01023071,50.98536474],[4.0102113,50.9853554],[4.01031006,50.98527611],[4.01031124,50.98527517],[4.01031564,50.9852769],[4.01041367,50.985198],[4.01044384,50.98521201],[4.01042321,50.98522826],[4.01044577,50.98523881],[4.01041811,50.98526267],[4.01047899,50.98529293],[4.01042921,50.98533322],[4.01050037,50.98536753],[4.01036865,50.98547359],[4.01034378,50.98546077]]]}},{"type":"Feature","id":"gebouw/Gebouw.9610190/0","properties":{"source":"Digitaal Vlaanderen Gebouwenregister","source_id":"gebouw/Gebouw.9610190/0","kind":"building","height_m":6.44,"status":null},"geometry":{"type":"Polygon","coordinates":[[[4.00950016,50.98322408],[4.00942747,50.98317009],[4.00947177,50.98314529],[4.00954747,50.98319782],[4.00950016,50.98322408]]]}},{"type":"Feature","id":"gebouw/Gebouw.9689210/0","properties":{"source":"Digitaal Vlaanderen Gebouwenregister","source_id":"gebouw/Gebouw.9689210/0","kind":"building","height_m":9.32,"status":null},"geometry":{"type":"Polygon","coordinates":[[[4.01136083,50.98460464],[4.01132968,50.98461858],[4.01133318,50.98462169],[4.01129285,50.98464185],[4.0112551,50.98460825],[4.01127426,50.98459967],[4.01126627,50.98459256],[4.01127896,50.98458689],[4.01127921,50.9845871],[4.01128776,50.9845944],[4.01129425,50.98459149],[4.0113013,50.98459777],[4.0113104,50.9845937],[4.01136083,50.98460464]]]}},{"type":"Feature","id":"gebouw/Gebouw.9689211/0","properties":{"source":"Digitaal Vlaanderen Gebouwenregister","source_id":"gebouw/Gebouw.9689211/0","kind":"building","height_m":5.0,"status":null},"geometry":{"type":"Polygon","coordinates":[[[4.00796866,50.98259226],[4.00800228,50.9826211],[4.00796592,50.98263774],[4.00793409,50.98260854],[4.00796866,50.98259226]]]}},{"type":"Feature","id":"gebouw/Gebouw.9689812/0","properties":{"source":"Digitaal Vlaanderen Gebouwenregister","source_id":"gebouw/Gebouw.9689812/0","kind":"building","height_m":9.32,"status":null},"geometry":{"type":"Polygon","coordinates":[[[4.01114053,50.98500649],[4.0111744,50.98494552],[4.01134062,50.98498184],[4.01132078,50.98501815],[4.01132755,50.98501963],[4.01131369,50.98504481],[4.01114053,50.98500649]]]}},{"type":"Feature","id":"gebouw/Gebouw.9731744/0","properties":{"source":"Digitaal Vlaanderen Gebouwenregister","source_id":"gebouw/Gebouw.9731744/0","kind":"building","height_m":5.72,"status":null},"geometry":{"type":"Polygon","coordinates":[[[4.00740653,50.9831447],[4.00746162,50.98311628],[4.00748715,50.98313716],[4.00743356,50.98316504],[4.00740653,50.9831447]]]}},{"type":"Feature","id":"gebouw/Gebouw.9731745/0","properties":{"source":"Digitaal Vlaanderen Gebouwenregister","source_id":"gebouw/Gebouw.9731745/0","kind":"building","height_m":6.44,"status":null},"geometry":{"type":"Polygon","coordinates":[[[4.00662304,50.98303209],[4.00661783,50.98303783],[4.00663427,50.98304438],[4.00660367,50.98307776],[4.00658284,50.9830691],[4.00658499,50.98306669],[4.00655621,50.98305588],[4.00658983,50.98302029],[4.00662304,50.98303209]]]}},{"type":"Feature","id":"gebouw/Gebouw.9736975/0","properties":{"source":"Digitaal Vlaanderen Gebouwenregister","source_id":"gebouw/Gebouw.9736975/0","kind":"building","height_m":7.16,"status":null},"geometry":{"type":"Polygon","coordinates":[[[4.00803565,50.98264825],[4.00800257,50.98266437],[4.00797184,50.98263818],[4.0080076,50.9826219],[4.00803565,50.98264825]]]}},{"type":"Feature","id":"gebouw/Gebouw.9841138/0","properties":{"source":"Digitaal Vlaanderen Gebouwenregister","source_id":"gebouw/Gebouw.9841138/0","kind":"building","height_m":9.32,"status":null},"geometry":{"type":"Polygon","coordinates":[[[4.00830383,50.98383423],[4.00829844,50.98383721],[4.0081235,50.98393373],[4.00805969,50.98388765],[4.00813505,50.98384608],[4.00804456,50.98378036],[4.00814511,50.98372499],[4.00815052,50.98372201],[4.00830383,50.98383423]]]}},{"type":"Feature","id":"gebouw/Gebouw.9841173/0","properties":{"source":"Digitaal Vlaanderen Gebouwenregister","source_id":"gebouw/Gebouw.9841173/0","kind":"building","height_m":9.32,"status":null},"geometry":{"type":"Polygon","coordinates":[[[4.00788341,50.98252098],[4.00789181,50.9825282],[4.00791848,50.98255113],[4.00783806,50.98257623],[4.0078672,50.98261527],[4.00786582,50.9826239],[4.00787437,50.98263859],[4.00784216,50.98264891],[4.00788185,50.98270508],[4.00786466,50.98270936],[4.00787301,50.98272104],[4.00790238,50.98276213],[4.00778223,50.98279704],[4.00776499,50.98277307],[4.00774125,50.98274006],[4.00773107,50.98274292],[4.00772987,50.98274204],[4.00770327,50.98270441],[4.00771317,50.98270136],[4.00766023,50.98262714],[4.00765724,50.98262798],[4.00765614,50.98262642],[4.00775428,50.9825987],[4.00773085,50.98256568],[4.00788341,50.98252098]]]}},{"type":"Feature","id":"gebouw/Gebouw.9841174/0","properties":{"source":"Digitaal Vlaanderen Gebouwenregister","source_id":"gebouw/Gebouw.9841174/0","kind":"building","height_m":5.0,"status":null},"geometry":{"type":"Polygon","coordinates":[[[4.0071935,50.98266345],[4.00718636,50.98267069],[4.00718484,50.98267002],[4.0071362,50.98264869],[4.00713369,50.98264759],[4.00713017,50.98264604],[4.00720511,50.9825757],[4.00718355,50.98255856],[4.0071773,50.98255359],[4.00715085,50.98256847],[4.00713509,50.98257004],[4.00711008,50.98256649],[4.00708955,50.98255084],[4.00703737,50.98257529],[4.00702455,50.98256464],[4.00705836,50.98253925],[4.00706466,50.98253452],[4.00708462,50.98252323],[4.00720013,50.9824579],[4.00720098,50.98245856],[4.00727268,50.98251476],[4.00725079,50.98252655],[4.00728511,50.98255417],[4.00730927,50.9825736],[4.00728194,50.98258932],[4.00724811,50.98260876],[4.00722371,50.98263284],[4.0071935,50.98266345]]]}},{"type":"Feature","id":"gebouw/Gebouw.9841298/0","properties":{"source":"Digitaal Vlaanderen Gebouwenregister","source_id":"gebouw/Gebouw.9841298/0","kind":"building","height_m":8.6,"status":null},"geometry":{"type":"Polygon","coordinates":[[[4.00744046,50.98334418],[4.00739726,50.98336131],[4.00737559,50.98334028],[4.00736447,50.98334521],[4.00732217,50.98331908],[4.00747913,50.98322342],[4.00747049,50.98321078],[4.00757564,50.98317921],[4.00768282,50.98314007],[4.00771152,50.98322834],[4.00768722,50.98323319],[4.00760092,50.98325043],[4.00758722,50.98320944],[4.00749418,50.98323707],[4.00750601,50.983249],[4.00748235,50.9832568],[4.0075025,50.98330085],[4.00743265,50.98331581],[4.00741944,50.98332128],[4.00744046,50.98334418]]]}},{"type":"Feature","id":"gebouw/Gebouw.9841467/0","properties":{"source":"Digitaal Vlaanderen Gebouwenregister","source_id":"gebouw/Gebouw.9841467/0","kind":"building","height_m":9.32,"status":null},"geometry":{"type":"Polygon","coordinates":[[[4.01052675,50.98495554],[4.01063725,50.98501054],[4.01049067,50.98512824],[4.01038745,50.98507718],[4.01009988,50.98493494],[4.01024591,50.98481574],[4.01052675,50.98495554]]]}},{"type":"Feature","id":"gebouw/Gebouw.11759149/0","properties":{"source":"Digitaal Vlaanderen Gebouwenregister","source_id":"gebouw/Gebouw.11759149/0","kind":"building","height_m":7.16,"status":null},"geometry":{"type":"Polygon","coordinates":[[[4.0102167,50.98522627],[4.01031286,50.98527394],[4.01031124,50.98527517],[4.01031005,50.9852761],[4.01015234,50.98539816],[4.01006869,50.98535552],[4.00976814,50.98520231],[4.00991933,50.98507886],[4.0102167,50.98522627]]]}},{"type":"Feature","id":"gebouw/Gebouw.11930950/0","properties":{"source":"Digitaal Vlaanderen Gebouwenregister","source_id":"gebouw/Gebouw.11930950/0","kind":"building","height_m":7.16,"status":null},"geometry":{"type":"Polygon","coordinates":[[[4.01034378,50.98546077],[4.01031674,50.9854835],[4.01024763,50.98545015],[4.01027348,50.98542777],[4.01019824,50.9853908],[4.01023071,50.98536474],[4.0102113,50.9853554],[4.01031005,50.9852761],[4.01031124,50.98527517],[4.01031564,50.9852769],[4.01041367,50.985198],[4.01044384,50.98521201],[4.01042321,50.98522826],[4.01044577,50.98523881],[4.01041811,50.98526267],[4.01047899,50.98529293],[4.01042921,50.98533322],[4.01050037,50.98536753],[4.01036865,50.98547359],[4.01034378,50.98546077]]]}},{"type":"Feature","id":"gebouw/Gebouw.11936425/0","properties":{"source":"Digitaal Vlaanderen Gebouwenregister","source_id":"gebouw/Gebouw.11936425/0","kind":"building","height_m":7.88,"status":null},"geometry":{"type":"Polygon","coordinates":[[[4.01052675,50.98495554],[4.01063725,50.98501054],[4.01049067,50.98512824],[4.01038745,50.98507718],[4.01009988,50.98493494],[4.01024591,50.98481574],[4.01052675,50.98495554]]]}},{"type":"Feature","id":"gebouw/Gebouw.11987853/0","properties":{"source":"Digitaal Vlaanderen Gebouwenregister","source_id":"gebouw/Gebouw.11987853/0","kind":"building","height_m":7.16,"status":null},"geometry":{"type":"Polygon","coordinates":[[[4.01037016,50.98509227],[4.01046922,50.98514205],[4.0103309,50.98526035],[4.01023326,50.98521181],[4.00993723,50.98506463],[4.01008319,50.98494805],[4.01037016,50.98509227]]]}},{"type":"Feature","id":"gebouw/Gebouw.11987854/0","properties":{"source":"Digitaal Vlaanderen Gebouwenregister","source_id":"gebouw/Gebouw.11987854/0","kind":"building","height_m":7.88,"status":null},"geometry":{"type":"Polygon","coordinates":[[[4.01118636,50.98486619],[4.01116405,50.98490428],[4.01114244,50.98494119],[4.01105276,50.98492222],[4.01107348,50.98488409],[4.01109434,50.9848457],[4.01118636,50.98486619]]]}},{"type":"Feature","id":"gebouw/Gebouw.15175498/0","properties":{"source":"Digitaal Vlaanderen Gebouwenregister","source_id":"gebouw/Gebouw.15175498/0","kind":"building","height_m":6.44,"status":null},"geometry":{"type":"Polygon","coordinates":[[[4.01037016,50.98509228],[4.01046923,50.98514205],[4.0103309,50.98526035],[4.01023326,50.98521182],[4.00993723,50.98506464],[4.0100832,50.98494806],[4.01037016,50.98509228]]]}},{"type":"Feature","id":"gebouw/Gebouw.15175845/0","properties":{"source":"Digitaal Vlaanderen Gebouwenregister","source_id":"gebouw/Gebouw.15175845/0","kind":"building","height_m":9.32,"status":null},"geometry":{"type":"Polygon","coordinates":[[[4.01052675,50.98495555],[4.01063725,50.98501054],[4.01049067,50.98512824],[4.01038745,50.98507719],[4.01009987,50.98493494],[4.0102459,50.98481574],[4.01052675,50.98495555]]]}},{"type":"Feature","id":"gebouw/Gebouw.15175910/0","properties":{"source":"Digitaal Vlaanderen Gebouwenregister","source_id":"gebouw/Gebouw.15175910/0","kind":"building","height_m":5.72,"status":null},"geometry":{"type":"Polygon","coordinates":[[[4.01086104,50.985819],[4.01088679,50.98568598],[4.01094413,50.9856904],[4.01091838,50.98582342],[4.01086104,50.985819]]]}},{"type":"Feature","id":"gebouw/Gebouw.15205751/0","properties":{"source":"Digitaal Vlaanderen Gebouwenregister","source_id":"gebouw/Gebouw.15205751/0","kind":"building","height_m":5.72,"status":null},"geometry":{"type":"Polygon","coordinates":[[[4.01022939,50.9852152],[4.00993958,50.98507029],[4.00973025,50.98523681],[4.01003306,50.98538664],[4.01013818,50.98543865],[4.01019824,50.98539079],[4.01034565,50.98527333],[4.01032643,50.98526372],[4.01022939,50.9852152]]]}},{"type":"Feature","id":"gebouw/Gebouw.15219009/0","properties":{"source":"Digitaal Vlaanderen Gebouwenregister","source_id":"gebouw/Gebouw.15219009/0","kind":"building","height_m":5.72,"status":null},"geometry":{"type":"Polygon","coordinates":[[[4.01034378,50.98546077],[4.01036865,50.98547359],[4.01049648,50.98537066],[4.01050037,50.98536753],[4.01042921,50.98533322],[4.01046098,50.98530751],[4.01047899,50.98529293],[4.01041811,50.98526267],[4.01038173,50.98524459],[4.01034565,50.98527333],[4.01019824,50.98539079],[4.01027348,50.98542778],[4.01024763,50.98545015],[4.01031674,50.98548351],[4.01034378,50.98546077]]]}},{"type":"Feature","id":"gebouw/Gebouw.18361967/0","properties":{"source":"Digitaal Vlaanderen Gebouwenregister","source_id":"gebouw/Gebouw.18361967/0","kind":"building","height_m":5.72,"status":null},"geometry":{"type":"Polygon","coordinates":[[[4.00760954,50.98344153],[4.0075695,50.98349307],[4.00751797,50.98347503],[4.00756049,50.98342456],[4.00760954,50.98344153]]]}},{"type":"Feature","id":"gebouw/Gebouw.18362061/0","properties":{"source":"Digitaal Vlaanderen Gebouwenregister","source_id":"gebouw/Gebouw.18362061/0","kind":"building","height_m":7.88,"status":null},"geometry":{"type":"Polygon","coordinates":[[[4.01045452,50.98338003],[4.01052996,50.98334887],[4.01055994,50.98337698],[4.01048789,50.98340879],[4.01045452,50.98338003]]]}},{"type":"Feature","id":"gebouw/Gebouw.19514081/0","properties":{"source":"Digitaal Vlaanderen Gebouwenregister","source_id":"gebouw/Gebouw.19514081/0","kind":"building","height_m":9.32,"status":null},"geometry":{"type":"Polygon","coordinates":[[[4.01109333,50.98297795],[4.01079383,50.98312112],[4.01065038,50.98299935],[4.01086104,50.98289638],[4.01084176,50.98288001],[4.01081942,50.98286105],[4.01090786,50.98281782],[4.01109333,50.98297795]]]}},{"type":"Feature","id":"gebouw/Gebouw.19514082/0","properties":{"source":"Digitaal Vlaanderen Gebouwenregister","source_id":"gebouw/Gebouw.19514082/0","kind":"building","height_m":5.0,"status":null},"geometry":{"type":"Polygon","coordinates":[[[4.01081942,50.98286105],[4.01084176,50.98288001],[4.01086104,50.98289638],[4.01065038,50.98299935],[4.01061612,50.98297025],[4.01056602,50.98292773],[4.01058334,50.98291894],[4.01077241,50.98282307],[4.01081942,50.98286105]]]}},{"type":"Feature","id":"gebouw/Gebouw.19524126/0","properties":{"source":"Digitaal Vlaanderen Gebouwenregister","source_id":"gebouw/Gebouw.19524126/0","kind":"building","height_m":9.32,"status":null},"geometry":{"type":"Polygon","coordinates":[[[4.00796866,50.98259226],[4.00807915,50.98268402],[4.00804058,50.98270368],[4.00793409,50.98260854],[4.00796866,50.98259226]]]}},{"type":"Feature","id":"gebouw/Gebouw.19530412/0","properties":{"source":"Digitaal Vlaanderen Gebouwenregister","source_id":"gebouw/Gebouw.19530412/0","kind":"building","height_m":9.32,"status":null},"geometry":{"type":"Polygon","coordinates":[[[4.01049656,50.9832482],[4.01047223,50.98322658],[4.01055522,50.98318704],[4.01057985,50.98320848],[4.01061439,50.98319331],[4.01048331,50.98308361],[4.01055576,50.98304975],[4.01060036,50.98308921],[4.01070131,50.98304424],[4.01085591,50.98318343],[4.01073526,50.98323985],[4.01075926,50.98326029],[4.01068502,50.98329502],[4.01066102,50.98327457],[4.01063766,50.98328549],[4.0105587,50.98321638],[4.01049656,50.9832482]]]}},{"type":"Feature","id":"gebouw/Gebouw.19530413/0","properties":{"source":"Digitaal Vlaanderen Gebouwenregister","source_id":"gebouw/Gebouw.19530413/0","kind":"building","height_m":5.0,"status":null},"geometry":{"type":"Polygon","coordinates":[[[4.01063766,50.98328549],[4.01053119,50.98333718],[4.01045114,50.98327037],[4.01049656,50.9832482],[4.0105587,50.98321638],[4.01063766,50.98328549]]]}},{"type":"Feature","id":"gebouw/Gebouw.19646915/0","properties":{"source":"Digitaal Vlaanderen Gebouwenregister","source_id":"gebouw/Gebouw.19646915/0","kind":"building","height_m":5.72,"status":null},"geometry":{"type":"Polygon","coordinates":[[[4.01109434,50.9848457],[4.01107348,50.98488409],[4.01116405,50.98490428],[4.01118636,50.98486619],[4.01109434,50.9848457]]]}},{"type":"Feature","id":"gebouw/Gebouw.19646916/0","properties":{"source":"Digitaal Vlaanderen Gebouwenregister","source_id":"gebouw/Gebouw.19646916/0","kind":"building","height_m":6.44,"status":null},"geometry":{"type":"Polygon","coordinates":[[[4.01116405,50.98490428],[4.01107348,50.98488409],[4.01105276,50.98492222],[4.01114244,50.98494119],[4.01116405,50.98490428]]]}},{"type":"Feature","id":"gebouw/Gebouw.20194258/0","properties":{"source":"Digitaal Vlaanderen Gebouwenregister","source_id":"gebouw/Gebouw.20194258/0","kind":"building","height_m":5.0,"status":null},"geometry":{"type":"Polygon","coordinates":[[[4.00699656,50.98345423],[4.00696201,50.98343298],[4.00699325,50.98341274],[4.0070278,50.983434],[4.00699656,50.98345423]]]}},{"type":"Feature","id":"gebouw/Gebouw.20194259/0","properties":{"source":"Digitaal Vlaanderen Gebouwenregister","source_id":"gebouw/Gebouw.20194259/0","kind":"building","height_m":5.72,"status":null},"geometry":{"type":"Polygon","coordinates":[[[4.01039454,50.98323671],[4.01036964,50.9832145],[4.01043691,50.98318445],[4.01046181,50.98320666],[4.01039454,50.98323671]]]}},{"type":"Feature","id":"gebouw/Gebouw.30584952/0","properties":{"source":"Digitaal Vlaanderen Gebouwenregister","source_id":"gebouw/Gebouw.30584952/0","kind":"building","height_m":9.32,"status":null},"geometry":{"type":"Polygon","coordinates":[[[4.01128363,50.9845879],[4.01126193,50.98458571],[4.01123662,50.98462131],[4.01123823,50.98462171],[4.01126352,50.98462804],[4.01125634,50.98463214],[4.01130158,50.98466373],[4.0113598,50.98463051],[4.01134556,50.98462056],[4.01136771,50.98460613],[4.01136793,50.98460599],[4.0113104,50.9845937],[4.01128363,50.9845879]]]}},{"type":"Feature","id":"gebouw/Gebouw.30589790/0","properties":{"source":"Digitaal Vlaanderen Gebouwenregister","source_id":"gebouw/Gebouw.30589790/0","kind":"building","height_m":5.0,"status":null},"geometry":{"type":"Polygon","coordinates":[[[4.00929195,50.98326389],[4.00926495,50.98323796],[4.00930489,50.98322139],[4.00933189,50.98324732],[4.00929195,50.98326389]]]}},{"type":"Feature","id":"gebouw/Gebouw.30589791/0","properties":{"source":"Digitaal Vlaanderen Gebouwenregister","source_id":"gebouw/Gebouw.30589791/0","kind":"building","height_m":5.72,"status":null},"geometry":{"type":"Polygon","coordinates":[[[4.00931629,50.98584097],[4.00926319,50.98583696],[4.00927477,50.98577583],[4.00932787,50.98577984],[4.00931629,50.98584097]]]}},{"type":"Feature","id":"gebouw/Gebouw.30589796/0","properties":{"source":"Digitaal Vlaanderen Gebouwenregister","source_id":"gebouw/Gebouw.30589796/0","kind":"building","height_m":9.32,"status":null},"geometry":{"type":"Polygon","coordinates":[[[4.01286672,50.98433874],[4.01281328,50.98429957],[4.01286564,50.98427111],[4.01291908,50.98431028],[4.01286672,50.98433874]]]}},{"type":"Feature","id":"gebouw/Gebouw.31001686/0","properties":{"source":"Digitaal Vlaanderen Gebouwenregister","source_id":"gebouw/Gebouw.31001686/0","kind":"building","height_m":6.44,"status":null},"geometry":{"type":"Polygon","coordinates":[[[4.00960305,50.98436335],[4.00956133,50.98434064],[4.00959141,50.98431863],[4.00963312,50.98434134],[4.00960305,50.98436335]]]}},{"type":"Feature","id":"gebouw/Gebouw.31001853/0","properties":{"source":"Digitaal Vlaanderen Gebouwenregister","source_id":"gebouw/Gebouw.31001853/0","kind":"building","height_m":5.72,"status":null},"geometry":{"type":"Polygon","coordinates":[[[4.01042634,50.98343725],[4.01039297,50.98340849],[4.01045452,50.98338003],[4.01048789,50.98340879],[4.01042634,50.98343725]]]}},{"type":"Feature","id":"gebouw/Gebouw.31002045/0","properties":{"source":"Digitaal Vlaanderen Gebouwenregister","source_id":"gebouw/Gebouw.31002045/0","kind":"building","height_m":7.88,"status":null},"geometry":{"type":"Polygon","coordinates":[[[4.00781024,50.98253743],[4.00779115,50.98250916],[4.00784673,50.9824942],[4.00786582,50.98252248],[4.00781024,50.98253743]]]}},{"type":"Feature","id":"gebouw/Gebouw.32033762/0","properties":{"source":"Digitaal Vlaanderen Gebouwenregister","source_id":"gebouw/Gebouw.32033762/0","kind":"building","height_m":8.6,"status":null},"geometry":{"type":"Polygon","coordinates":[[[4.00895666,50.9833499],[4.00886983,50.98328364],[4.00883972,50.98329937],[4.00891969,50.98336786],[4.00895666,50.9833499]]]}},{"type":"Feature","id":"gebouw/Gebouw.32033940/0","properties":{"source":"Digitaal Vlaanderen Gebouwenregister","source_id":"gebouw/Gebouw.32033940/0","kind":"building","height_m":5.72,"status":null},"geometry":{"type":"Polygon","coordinates":[[[4.01223689,50.98362466],[4.01225649,50.98366604],[4.01229795,50.98365822],[4.01227836,50.98361683],[4.01223689,50.98362466]]]}},{"type":"Feature","id":"way/152637025","properties":{"source":"OpenStreetMap","source_id":"way/152637025","kind":"water","name":"Sterrewal","waterway":null,"landuse":null},"geometry":{"type":"Polygon","coordinates":[[[4.0128222,50.9850865],[4.0128199,50.9852198],[4.012878,50.9853077],[4.0131131,50.9853663],[4.0133807,50.9854176],[4.0135553,50.985441],[4.013653,50.9854293],[4.0137275,50.9853839],[4.0138392,50.9852198],[4.0138811,50.9850293],[4.0138718,50.9849077],[4.0138206,50.984833],[4.0137531,50.98477],[4.0139119,50.9846881],[4.0139908,50.9848253],[4.0140179,50.9849195],[4.0140957,50.985249],[4.0141506,50.9853068],[4.0142069,50.9855289],[4.0141523,50.9855282],[4.0139649,50.985526],[4.0137019,50.9855114],[4.0134343,50.9855114],[4.0132737,50.9854791],[4.0129316,50.9854191],[4.0127733,50.9853766],[4.0126919,50.9853399],[4.012636,50.9852931],[4.012643,50.9852359],[4.0126663,50.9851744],[4.0127151,50.9851085],[4.0127431,50.9850865],[4.012771,50.9850806],[4.0128222,50.9850865]]]}},{"type":"Feature","id":"way/398065424","properties":{"source":"OpenStreetMap","source_id":"way/398065424","kind":"water","name":null,"waterway":null,"landuse":null},"geometry":{"type":"Polygon","coordinates":[[[4.0135897,50.9847122],[4.0132804,50.9845504],[4.0132791,50.9845239],[4.0133542,50.9844798],[4.0134713,50.984459],[4.0136292,50.9844678],[4.0137298,50.9844991],[4.0138278,50.9845752],[4.0138456,50.9846289],[4.0138176,50.9846762],[4.0137336,50.9847171],[4.0136648,50.9847227],[4.0135897,50.9847122]]]}},{"type":"Feature","id":"way/398065435","properties":{"source":"OpenStreetMap","source_id":"way/398065435","kind":"waterway","name":"Grootebeek - Porrebeek","waterway":"stream","landuse":null},"geometry":{"type":"LineString","coordinates":[[4.0064002,50.9851445],[4.0065089,50.9851907],[4.006788,50.9853199],[4.0070566,50.9854339],[4.0073715,50.9855082],[4.0075081,50.9855654],[4.0077266,50.9856223],[4.007983,50.9857433],[4.008909,50.9859694],[4.0091168,50.9860456],[4.0097544,50.9862422],[4.0103129,50.9863591],[4.011421,50.9865393],[4.0118069,50.9866162]]}},{"type":"Feature","id":"way/398065442","properties":{"source":"OpenStreetMap","source_id":"way/398065442","kind":"waterway","name":"Grootebeek","waterway":"stream","landuse":null},"geometry":{"type":"LineString","coordinates":[[4.0062859,50.9850923],[4.0064002,50.9851445]]}},{"type":"Feature","id":"way/398065445","properties":{"source":"OpenStreetMap","source_id":"way/398065445","kind":"waterway","name":"Grootebeek - Porrebeek","waterway":"stream","landuse":null},"geometry":{"type":"LineString","coordinates":[[4.0118069,50.9866162],[4.0118617,50.9866273]]}},{"type":"Feature","id":"way/398065511","properties":{"source":"OpenStreetMap","source_id":"way/398065511","kind":"waterway","name":null,"waterway":"stream","landuse":null},"geometry":{"type":"LineString","coordinates":[[4.0145883,50.9834335],[4.0146765,50.9834811],[4.0147803,50.9833733],[4.0148924,50.9832587],[4.0152512,50.9829935],[4.0155869,50.9828401],[4.0156981,50.9827671],[4.0158801,50.9827057],[4.016582,50.9827057],[4.017471,50.9826034]]}},{"type":"Feature","id":"way/1250958018","properties":{"source":"OpenStreetMap","source_id":"way/1250958018","kind":"water","name":null,"waterway":null,"landuse":null},"geometry":{"type":"Polygon","coordinates":[[[4.0114446,50.9827502],[4.0114528,50.9827725],[4.0114928,50.9828169],[4.0115317,50.9828318],[4.0115764,50.9828318],[4.0116259,50.9828051],[4.0116635,50.9827651],[4.0117789,50.982685],[4.0118637,50.9826102],[4.0118648,50.9825946],[4.0118543,50.9825731],[4.0118366,50.9825568],[4.0118036,50.9825479],[4.011773,50.9825442],[4.0117283,50.9825516],[4.0116906,50.9825724],[4.0116141,50.9826398],[4.0115446,50.9826843],[4.0114728,50.9827124],[4.0114493,50.9827369],[4.0114446,50.9827502]]]}},{"type":"Feature","id":"way/1250958030","properties":{"source":"OpenStreetMap","source_id":"way/1250958030","kind":"water","name":null,"waterway":null,"landuse":null},"geometry":{"type":"Polygon","coordinates":[[[4.0072404,50.9832673],[4.0072737,50.9832938],[4.0073091,50.9833036],[4.007329,50.9832966],[4.0073335,50.9832339],[4.0072914,50.9832185],[4.0072582,50.9832325],[4.0072404,50.9832673]]]}},{"type":"Feature","id":"way/1282254227","properties":{"source":"OpenStreetMap","source_id":"way/1282254227","kind":"waterway","name":null,"waterway":"stream","landuse":null},"geometry":{"type":"LineString","coordinates":[[4.013001,50.9827466],[4.0132674,50.9828162],[4.0136249,50.9829553],[4.0139823,50.9830821],[4.0141801,50.9832045],[4.0145506,50.9834124]]}},{"type":"Feature","id":"way/1282254228","properties":{"source":"OpenStreetMap","source_id":"way/1282254228","kind":"waterway","name":null,"waterway":"stream","landuse":null},"geometry":{"type":"LineString","coordinates":[[4.0145506,50.9834124],[4.0145883,50.9834335]]}},{"type":"Feature","id":"way/1320611412","properties":{"source":"OpenStreetMap","source_id":"way/1320611412","kind":"waterway","name":null,"waterway":"ditch","landuse":null},"geometry":{"type":"LineString","coordinates":[[4.0122594,50.9857843],[4.0127241,50.9858435],[4.0127812,50.9858722],[4.0128553,50.9859476],[4.0130976,50.9863873],[4.0131318,50.9864555],[4.0133941,50.9869006],[4.0133947,50.9869391]]}},{"type":"Feature","id":"way/1320611413","properties":{"source":"OpenStreetMap","source_id":"way/1320611413","kind":"waterway","name":null,"waterway":"ditch","landuse":null},"geometry":{"type":"LineString","coordinates":[[4.0121483,50.9858363],[4.0118617,50.9866273]]}},{"type":"Feature","id":"way/1320659713","properties":{"source":"OpenStreetMap","source_id":"way/1320659713","kind":"waterway","name":null,"waterway":"ditch","landuse":null},"geometry":{"type":"LineString","coordinates":[[4.0137627,50.9844437],[4.0145067,50.9836534]]}},{"type":"Feature","id":"way/1320659714","properties":{"source":"OpenStreetMap","source_id":"way/1320659714","kind":"waterway","name":null,"waterway":"ditch","landuse":null},"geometry":{"type":"LineString","coordinates":[[4.0145587,50.9835906],[4.0146765,50.9834811]]}},{"type":"Feature","id":"way/1320659715","properties":{"source":"OpenStreetMap","source_id":"way/1320659715","kind":"waterway","name":null,"waterway":"ditch","landuse":null},"geometry":{"type":"LineString","coordinates":[[4.0145067,50.9836534],[4.0145587,50.9835906]]}}]}