{"type":"FeatureCollection","features":[{"type":"Feature","id":"way/1288911065","properties":{"source":"OpenStreetMap","source_id":"way/1288911065","kind":"water","name":null,"waterway":null,"landuse":null},"geometry":{"type":"Polygon","coordinates":[[[4.0085736,50.9554149],[4.0085178,50.9553996],[4.0084742,50.9553948],[4.0084488,50.9553913],[4.0084284,50.955385],[4.0084157,50.9553788],[4.0084113,50.9553655],[4.0084118,50.9553488],[4.0084295,50.9553308],[4.0084543,50.9553245],[4.0084831,50.9553252],[4.0085322,50.9553457],[4.0085709,50.9553774],[4.0086084,50.9553958],[4.0085736,50.9554149]]]}}]}