{"type":"FeatureCollection","features":[{"type":"Feature","id":"gebouw/Gebouw.7624211/0","properties":{"source":"Digitaal Vlaanderen Gebouwenregister","source_id":"gebouw/Gebouw.7624211/0","kind":"building","height_m":5.0,"status":null},"geometry":{"type":"Polygon","coordinates":[[[3.99109562,50.98160576],[3.99101239,50.98157916],[3.9910059,50.98158864],[3.99097001,50.98157738],[3.99095583,50.98159633],[3.99092288,50.98158622],[3.99096141,50.98153514],[3.99099607,50.98154608],[3.99102787,50.98155611],[3.99104513,50.98153346],[3.9911325,50.98156009],[3.99109562,50.98160576]]]}},{"type":"Feature","id":"gebouw/Gebouw.18462675/0","properties":{"source":"Digitaal Vlaanderen Gebouwenregister","source_id":"gebouw/Gebouw.18462675/0","kind":"building","height_m":5.0,"status":null},"geometry":{"type":"Polygon","coordinates":[[[3.99100274,50.98152709],[3.99098317,50.98155413],[3.99098792,50.98155587],[3.99101871,50.98156716],[3.99099087,50.98160213],[3.99095886,50.98159228],[3.99090833,50.98157675],[3.99095989,50.98151342],[3.99100274,50.98152709]]]}},{"type":"Feature","id":"way/398065439","properties":{"source":"OpenStreetMap","source_id":"way/398065439","kind":"waterway","name":"Wichelse Beek","waterway":"stream","landuse":null},"geometry":{"type":"LineString","coordinates":[[3.9948016,50.9818621],[3.9948966,50.9819038]]}},{"type":"Feature","id":"way/398065463","properties":{"source":"OpenStreetMap","source_id":"way/398065463","kind":"waterway","name":"Wichelse Beek","waterway":"stream","landuse":null},"geometry":{"type":"LineString","coordinates":[[3.9934803,50.9813357],[3.9936501,50.9813775],[3.9940692,50.9815439],[3.9946467,50.9817907],[3.9948016,50.9818621]]}}]}