{"type":"FeatureCollection","features":[{"type":"Feature","id":"gebouw/Gebouw.9048490/0","properties":{"source":"Digitaal Vlaanderen Gebouwenregister","source_id":"gebouw/Gebouw.9048490/0","kind":"building","height_m":7.16,"status":null},"geometry":{"type":"Polygon","coordinates":[[[4.00934712,50.9561695],[4.00938331,50.95612608],[4.00936687,50.95612028],[4.00938823,50.95609462],[4.00947355,50.95612295],[4.00945358,50.95614802],[4.00945769,50.95614956],[4.0094052,50.95621398],[4.00933579,50.95619298],[4.00935446,50.95617202],[4.00934712,50.9561695]]]}},{"type":"Feature","id":"gebouw/Gebouw.9064558/0","properties":{"source":"Digitaal Vlaanderen Gebouwenregister","source_id":"gebouw/Gebouw.9064558/0","kind":"building","height_m":9.32,"status":null},"geometry":{"type":"Polygon","coordinates":[[[4.00660826,50.96068789],[4.00661174,50.96073363],[4.00655453,50.96073243],[4.00655123,50.960691],[4.00660826,50.96068789]]]}},{"type":"Feature","id":"gebouw/Gebouw.9122992/0","properties":{"source":"Digitaal Vlaanderen Gebouwenregister","source_id":"gebouw/Gebouw.9122992/0","kind":"building","height_m":7.88,"status":null},"geometry":{"type":"Polygon","coordinates":[[[4.00904419,50.95584101],[4.00899822,50.95590699],[4.00901945,50.95591134],[4.008992,50.95594981],[4.00891987,50.95593084],[4.00892721,50.95592268],[4.00880156,50.95588739],[4.00884685,50.95582311],[4.00886861,50.95579222],[4.00881146,50.95577634],[4.00881253,50.95577478],[4.00904419,50.95584101]]]}},{"type":"Feature","id":"gebouw/Gebouw.9122993/0","properties":{"source":"Digitaal Vlaanderen Gebouwenregister","source_id":"gebouw/Gebouw.9122993/0","kind":"building","height_m":8.6,"status":null},"geometry":{"type":"Polygon","coordinates":[[[4.00912858,50.95636133],[4.00921123,50.95638603],[4.0091826,50.95642411],[4.00910025,50.95639922],[4.00912858,50.95636133]]]}},{"type":"Feature","id":"gebouw/Gebouw.9122994/0","properties":{"source":"Digitaal Vlaanderen Gebouwenregister","source_id":"gebouw/Gebouw.9122994/0","kind":"building","height_m":9.32,"status":null},"geometry":{"type":"Polygon","coordinates":[[[4.00899349,50.95667788],[4.00891469,50.95680325],[4.00878267,50.95677295],[4.0088615,50.95664645],[4.0089157,50.95665979],[4.0089185,50.95665513],[4.00896771,50.95666635],[4.00896491,50.95667101],[4.00899349,50.95667788]]]}},{"type":"Feature","id":"gebouw/Gebouw.9131866/0","properties":{"source":"Digitaal Vlaanderen Gebouwenregister","source_id":"gebouw/Gebouw.9131866/0","kind":"building","height_m":6.44,"status":null},"geometry":{"type":"Polygon","coordinates":[[[4.00922584,50.95684396],[4.00918512,50.9569115],[4.009067,50.95688266],[4.00910951,50.95681477],[4.00922584,50.95684396]]]}},{"type":"Feature","id":"gebouw/Gebouw.9131867/0","properties":{"source":"Digitaal Vlaanderen Gebouwenregister","source_id":"gebouw/Gebouw.9131867/0","kind":"building","height_m":7.16,"status":null},"geometry":{"type":"Polygon","coordinates":[[[4.0091229,50.95703818],[4.00911827,50.95704469],[4.00911295,50.95704388],[4.00910461,50.95705596],[4.00907311,50.95704756],[4.00908727,50.95702898],[4.00907049,50.95702449],[4.00909807,50.95698153],[4.00915314,50.95699543],[4.0091229,50.95703818]]]}},{"type":"Feature","id":"gebouw/Gebouw.9155791/0","properties":{"source":"Digitaal Vlaanderen Gebouwenregister","source_id":"gebouw/Gebouw.9155791/0","kind":"building","height_m":5.72,"status":null},"geometry":{"type":"Polygon","coordinates":[[[4.00934073,50.95605743],[4.0093158,50.9560903],[4.00924227,50.95606814],[4.00926873,50.95603359],[4.00934073,50.95605743]]]}},{"type":"Feature","id":"gebouw/Gebouw.9193036/0","properties":{"source":"Digitaal Vlaanderen Gebouwenregister","source_id":"gebouw/Gebouw.9193036/0","kind":"building","height_m":9.32,"status":null},"geometry":{"type":"Polygon","coordinates":[[[4.00896986,50.95638523],[4.00905626,50.95643489],[4.00890021,50.95654442],[4.00881226,50.95649681],[4.00882409,50.95648739],[4.00872978,50.95643409],[4.00880205,50.95638376],[4.00889485,50.95643797],[4.00896986,50.95638523]]]}},{"type":"Feature","id":"gebouw/Gebouw.9193069/0","properties":{"source":"Digitaal Vlaanderen Gebouwenregister","source_id":"gebouw/Gebouw.9193069/0","kind":"building","height_m":7.88,"status":null},"geometry":{"type":"Polygon","coordinates":[[[4.00919771,50.95658536],[4.00913425,50.95662811],[4.00914131,50.95663213],[4.00912229,50.95664546],[4.00910929,50.95665457],[4.00906999,50.9566322],[4.00903357,50.95661148],[4.00912673,50.95654618],[4.00919771,50.95658536]]]}},{"type":"Feature","id":"gebouw/Gebouw.9575367/0","properties":{"source":"Digitaal Vlaanderen Gebouwenregister","source_id":"gebouw/Gebouw.9575367/0","kind":"building","height_m":7.88,"status":null},"geometry":{"type":"Polygon","coordinates":[[[4.00970097,50.95686567],[4.00963352,50.95684685],[4.00969318,50.95676157],[4.00976063,50.95678039],[4.00970097,50.95686567]]]}},{"type":"Feature","id":"gebouw/Gebouw.9578507/0","properties":{"source":"Digitaal Vlaanderen Gebouwenregister","source_id":"gebouw/Gebouw.9578507/0","kind":"building","height_m":5.72,"status":null},"geometry":{"type":"Polygon","coordinates":[[[4.00869322,50.9568761],[4.00872916,50.95688465],[4.00871082,50.95691539],[4.00882247,50.95694196],[4.00878423,50.95700578],[4.0085009,50.95694039],[4.00855335,50.95685022],[4.00851622,50.9568416],[4.00855246,50.9567793],[4.00872503,50.95681985],[4.00869322,50.9568761]]]}},{"type":"Feature","id":"gebouw/Gebouw.9746001/0","properties":{"source":"Digitaal Vlaanderen Gebouwenregister","source_id":"gebouw/Gebouw.9746001/0","kind":"building","height_m":9.32,"status":null},"geometry":{"type":"Polygon","coordinates":[[[4.00857831,50.95704009],[4.008559,50.9570741],[4.00861226,50.95708606],[4.00858199,50.95713645],[4.00837896,50.95708875],[4.00842837,50.9570048],[4.00857831,50.95704009]]]}},{"type":"Feature","id":"gebouw/Gebouw.9746136/0","properties":{"source":"Digitaal Vlaanderen Gebouwenregister","source_id":"gebouw/Gebouw.9746136/0","kind":"building","height_m":5.72,"status":null},"geometry":{"type":"Polygon","coordinates":[[[4.00956466,50.96039826],[4.00960158,50.96039305],[4.00963911,50.96039814],[4.00961783,50.9604704],[4.00954304,50.96046152],[4.00956466,50.96039826]]]}},{"type":"Feature","id":"gebouw/Gebouw.9746149/0","properties":{"source":"Digitaal Vlaanderen Gebouwenregister","source_id":"gebouw/Gebouw.9746149/0","kind":"building","height_m":5.0,"status":null},"geometry":{"type":"Polygon","coordinates":[[[4.00927208,50.95620202],[4.00918937,50.95629738],[4.00903838,50.95624551],[4.00911956,50.95615182],[4.00910664,50.95614718],[4.00913205,50.95611843],[4.00929182,50.95617451],[4.00926826,50.95620066],[4.00927208,50.95620202]]]}},{"type":"Feature","id":"gebouw/Gebouw.9746421/0","properties":{"source":"Digitaal Vlaanderen Gebouwenregister","source_id":"gebouw/Gebouw.9746421/0","kind":"building","height_m":9.32,"status":null},"geometry":{"type":"Polygon","coordinates":[[[4.006,50.96039796],[4.00584472,50.96047099],[4.00583741,50.96046479],[4.00582082,50.9604726],[4.00578736,50.96044422],[4.00596182,50.96035624],[4.00613329,50.96040829],[4.00610843,50.96043563],[4.006,50.96039796]]]}},{"type":"Feature","id":"gebouw/Gebouw.9746831/0","properties":{"source":"Digitaal Vlaanderen Gebouwenregister","source_id":"gebouw/Gebouw.9746831/0","kind":"building","height_m":7.16,"status":null},"geometry":{"type":"Polygon","coordinates":[[[4.00947103,50.95688918],[4.0094775,50.9568591],[4.00956327,50.95686754],[4.00955474,50.95689704],[4.00947103,50.95688918]]]}},{"type":"Feature","id":"gebouw/Gebouw.9760954/0","properties":{"source":"Digitaal Vlaanderen Gebouwenregister","source_id":"gebouw/Gebouw.9760954/0","kind":"building","height_m":5.0,"status":null},"geometry":{"type":"Polygon","coordinates":[[[4.00947487,50.95694317],[4.00937155,50.95703343],[4.00929103,50.95699602],[4.00934114,50.95695331],[4.0092606,50.95691664],[4.00931121,50.956867],[4.00947487,50.95694317]]]}},{"type":"Feature","id":"gebouw/Gebouw.9760982/0","properties":{"source":"Digitaal Vlaanderen Gebouwenregister","source_id":"gebouw/Gebouw.9760982/0","kind":"building","height_m":5.0,"status":null},"geometry":{"type":"Polygon","coordinates":[[[4.00826465,50.95771006],[4.00830673,50.95774005],[4.00823936,50.95777575],[4.0081986,50.95774505],[4.00826465,50.95771006]]]}},{"type":"Feature","id":"gebouw/Gebouw.9761385/0","properties":{"source":"Digitaal Vlaanderen Gebouwenregister","source_id":"gebouw/Gebouw.9761385/0","kind":"building","height_m":7.88,"status":null},"geometry":{"type":"Polygon","coordinates":[[[4.00894037,50.95662559],[4.00892449,50.95665295],[4.00887879,50.95664327],[4.00889558,50.95661499],[4.00894037,50.95662559]]]}},{"type":"Feature","id":"gebouw/Gebouw.9761776/0","properties":{"source":"Digitaal Vlaanderen Gebouwenregister","source_id":"gebouw/Gebouw.9761776/0","kind":"building","height_m":7.16,"status":null},"geometry":{"type":"Polygon","coordinates":[[[4.00802353,50.95780953],[4.00798957,50.9578546],[4.00785115,50.95781478],[4.0078964,50.95775204],[4.00790705,50.95775511],[4.00795538,50.95776901],[4.0079825,50.9577314],[4.00806264,50.95775445],[4.00803524,50.95779355],[4.00800023,50.95778323],[4.0079888,50.95779978],[4.00802353,50.95780953]]]}},{"type":"Feature","id":"gebouw/Gebouw.17924404/0","properties":{"source":"Digitaal Vlaanderen Gebouwenregister","source_id":"gebouw/Gebouw.17924404/0","kind":"building","height_m":5.72,"status":null},"geometry":{"type":"Polygon","coordinates":[[[4.00886232,50.95570347],[4.00886458,50.95570056],[4.00912341,50.95577246],[4.0090822,50.95583154],[4.00907038,50.9558485],[4.00904419,50.95584101],[4.00881253,50.95577478],[4.00882742,50.95575341],[4.0088329,50.95574556],[4.00889667,50.9557632],[4.00892596,50.95572141],[4.00886232,50.95570347]]]}},{"type":"Feature","id":"gebouw/Gebouw.18250297/0","properties":{"source":"Digitaal Vlaanderen Gebouwenregister","source_id":"gebouw/Gebouw.18250297/0","kind":"building","height_m":6.44,"status":null},"geometry":{"type":"Polygon","coordinates":[[[4.00863298,50.95554771],[4.00867109,50.95555089],[4.00866674,50.95557177],[4.00866429,50.95557161],[4.00862408,50.95556897],[4.00862433,50.95556716],[4.00862887,50.95556741],[4.00863298,50.95554771]]]}},{"type":"Feature","id":"gebouw/Gebouw.18362288/0","properties":{"source":"Digitaal Vlaanderen Gebouwenregister","source_id":"gebouw/Gebouw.18362288/0","kind":"building","height_m":5.0,"status":null},"geometry":{"type":"Polygon","coordinates":[[[4.0079044,50.9600995],[4.00788802,50.9601574],[4.00776453,50.96014205],[4.0077816,50.96008436],[4.0079044,50.9600995]]]}},{"type":"Feature","id":"gebouw/Gebouw.18362294/0","properties":{"source":"Digitaal Vlaanderen Gebouwenregister","source_id":"gebouw/Gebouw.18362294/0","kind":"building","height_m":9.32,"status":null},"geometry":{"type":"Polygon","coordinates":[[[4.00919742,50.95588312],[4.00923308,50.95582904],[4.00944172,50.955887],[4.00940576,50.95594154],[4.00919742,50.95588312]]]}},{"type":"Feature","id":"gebouw/Gebouw.18735006/0","properties":{"source":"Digitaal Vlaanderen Gebouwenregister","source_id":"gebouw/Gebouw.18735006/0","kind":"building","height_m":7.16,"status":null},"geometry":{"type":"Polygon","coordinates":[[[4.00849877,50.95724374],[4.00847,50.95729251],[4.00843722,50.9572848],[4.00843391,50.95729041],[4.00828219,50.9572547],[4.0083141,50.95720028],[4.00849877,50.95724374]]]}},{"type":"Feature","id":"gebouw/Gebouw.18735007/0","properties":{"source":"Digitaal Vlaanderen Gebouwenregister","source_id":"gebouw/Gebouw.18735007/0","kind":"building","height_m":7.88,"status":null},"geometry":{"type":"Polygon","coordinates":[[[4.0083141,50.95720028],[4.00834446,50.9571485],[4.00852949,50.95719165],[4.00849877,50.95724374],[4.0083141,50.95720028]]]}},{"type":"Feature","id":"gebouw/Gebouw.18735008/0","properties":{"source":"Digitaal Vlaanderen Gebouwenregister","source_id":"gebouw/Gebouw.18735008/0","kind":"building","height_m":8.6,"status":null},"geometry":{"type":"Polygon","coordinates":[[[4.00950722,50.956126],[4.0095492,50.95613766],[4.00949789,50.95621139],[4.00946649,50.95620267],[4.00943586,50.95619416],[4.00948718,50.95612044],[4.00950722,50.956126]]]}},{"type":"Feature","id":"gebouw/Gebouw.20146512/0","properties":{"source":"Digitaal Vlaanderen Gebouwenregister","source_id":"gebouw/Gebouw.20146512/0","kind":"building","height_m":5.72,"status":null},"geometry":{"type":"Polygon","coordinates":[[[4.01380906,50.96025728],[4.01387351,50.9602342],[4.0139099,50.96027474],[4.01384546,50.96029782],[4.01380906,50.96025728]]]}},{"type":"Feature","id":"gebouw/Gebouw.20194287/0","properties":{"source":"Digitaal Vlaanderen Gebouwenregister","source_id":"gebouw/Gebouw.20194287/0","kind":"building","height_m":5.72,"status":null},"geometry":{"type":"Polygon","coordinates":[[[4.00626676,50.96052444],[4.00620716,50.96050626],[4.00624688,50.96045433],[4.00630648,50.9604725],[4.00626676,50.96052444]]]}},{"type":"Feature","id":"gebouw/Gebouw.20194656/0","properties":{"source":"Digitaal Vlaanderen Gebouwenregister","source_id":"gebouw/Gebouw.20194656/0","kind":"building","height_m":9.32,"status":null},"geometry":{"type":"Polygon","coordinates":[[[4.01100024,50.95700631],[4.01095078,50.95698701],[4.01104585,50.9568898],[4.01109531,50.95690909],[4.01100024,50.95700631]]]}},{"type":"Feature","id":"gebouw/Gebouw.20194657/0","properties":{"source":"Digitaal Vlaanderen Gebouwenregister","source_id":"gebouw/Gebouw.20194657/0","kind":"building","height_m":5.0,"status":null},"geometry":{"type":"Polygon","coordinates":[[[4.00841806,50.95670507],[4.00837568,50.95668654],[4.0083997,50.95666466],[4.00844206,50.95668318],[4.00841806,50.95670507]]]}},{"type":"Feature","id":"gebouw/Gebouw.31001642/0","properties":{"source":"Digitaal Vlaanderen Gebouwenregister","source_id":"gebouw/Gebouw.31001642/0","kind":"building","height_m":5.0,"status":null},"geometry":{"type":"Polygon","coordinates":[[[4.00919968,50.95650584],[4.00912275,50.95647261],[4.00915372,50.95644401],[4.00917658,50.95645388],[4.00921599,50.95641749],[4.00927006,50.95644085],[4.00919968,50.95650584]]]}},{"type":"Feature","id":"gebouw/Gebouw.31542219/0","properties":{"source":"Digitaal Vlaanderen Gebouwenregister","source_id":"gebouw/Gebouw.31542219/0","kind":"building","height_m":6.44,"status":null},"geometry":{"type":"Polygon","coordinates":[[[4.00785508,50.95795882],[4.00787564,50.95797429],[4.00794311,50.95793843],[4.00792241,50.95792294],[4.00785508,50.95795882]]]}},{"type":"Feature","id":"gebouw/Gebouw.32033979/0","properties":{"source":"Digitaal Vlaanderen Gebouwenregister","source_id":"gebouw/Gebouw.32033979/0","kind":"building","height_m":8.6,"status":null},"geometry":{"type":"Polygon","coordinates":[[[4.00862036,50.95717899],[4.00874077,50.95720652],[4.0087716,50.95715273],[4.00865119,50.95712521],[4.00862036,50.95717899]]]}},{"type":"Feature","id":"way/457916310","properties":{"source":"OpenStreetMap","source_id":"way/457916310","kind":"waterway","name":null,"waterway":"stream","landuse":null},"geometry":{"type":"LineString","coordinates":[[4.0058056,50.9550185],[4.0077116,50.9558162],[4.0077958,50.9558317],[4.007868,50.9558319],[4.0081536,50.9555057],[4.008341,50.9554035],[4.0084498,50.9553582],[4.00851,50.9553546],[4.0086,50.9553967],[4.0090917,50.9556835],[4.0092536,50.9557715],[4.0094918,50.9558176]]}},{"type":"Feature","id":"way/457916311","properties":{"source":"OpenStreetMap","source_id":"way/457916311","kind":"waterway","name":"Torensbeek","waterway":"stream","landuse":null},"geometry":{"type":"LineString","coordinates":[[4.0048975,50.9556219],[4.0053144,50.9557272],[4.0057644,50.9558235],[4.0063254,50.9559325],[4.006662,50.9560372],[4.0067881,50.9560742],[4.0071999,50.9560425],[4.0073174,50.9560552],[4.0075518,50.9561591],[4.0076587,50.9561716],[4.0077214,50.9561885],[4.0077956,50.9562514],[4.0078455,50.9562938],[4.0079426,50.956313],[4.0082192,50.9563745],[4.0085524,50.9564486],[4.0087384,50.9564681],[4.0089209,50.9565305],[4.0091686,50.9566014],[4.0092926,50.9566142],[4.0093256,50.956573],[4.0095121,50.956095],[4.0094918,50.9558176]]}},{"type":"Feature","id":"way/790538156","properties":{"source":"OpenStreetMap","source_id":"way/790538156","kind":"waterway","name":"Torensbeek","waterway":"stream","landuse":null},"geometry":{"type":"LineString","coordinates":[[4.0095511,50.9558308],[4.0096913,50.9558603]]}},{"type":"Feature","id":"way/790840060","properties":{"source":"OpenStreetMap","source_id":"way/790840060","kind":"waterway","name":"IJsbroekbeek","waterway":"stream","landuse":null},"geometry":{"type":"LineString","coordinates":[[4.0145903,50.9604524],[4.0146895,50.9605254]]}},{"type":"Feature","id":"way/790840062","properties":{"source":"OpenStreetMap","source_id":"way/790840062","kind":"waterway","name":"IJsbroekbeek","waterway":"stream","landuse":null},"geometry":{"type":"LineString","coordinates":[[4.0090106,50.9590979],[4.0092192,50.9591409],[4.0097174,50.9592525],[4.009885,50.9594201],[4.0100902,50.959519],[4.0105529,50.9597031],[4.0110746,50.9598568],[4.0113616,50.9599185],[4.0116714,50.9599802],[4.0120348,50.9600782],[4.0124962,50.9602146],[4.0125545,50.9602036],[4.0126289,50.9601656],[4.0127342,50.9600862],[4.0130735,50.9598446],[4.0131231,50.9598129],[4.0134343,50.9596199],[4.0134554,50.9596072],[4.0134681,50.9596222]]}},{"type":"Feature","id":"way/1288909784","properties":{"source":"OpenStreetMap","source_id":"way/1288909784","kind":"water","name":null,"waterway":null,"landuse":null},"geometry":{"type":"Polygon","coordinates":[[[4.0091888,50.9557541],[4.0092275,50.9557777],[4.0092513,50.9557833],[4.009298,50.9558024],[4.0093388,50.9558176],[4.0093704,50.9558252],[4.0093903,50.9558231],[4.0094125,50.9558129],[4.00942,50.9557918],[4.0093879,50.9557672],[4.0093491,50.9557426],[4.0092936,50.9557269],[4.0092519,50.9557197],[4.009209,50.9557127],[4.0091877,50.9557296],[4.0091888,50.9557541]]]}},{"type":"Feature","id":"way/1288911065","properties":{"source":"OpenStreetMap","source_id":"way/1288911065","kind":"water","name":null,"waterway":null,"landuse":null},"geometry":{"type":"Polygon","coordinates":[[[4.0085736,50.9554149],[4.0085178,50.9553996],[4.0084742,50.9553948],[4.0084488,50.9553913],[4.0084284,50.955385],[4.0084157,50.9553788],[4.0084113,50.9553655],[4.0084118,50.9553488],[4.0084295,50.9553308],[4.0084543,50.9553245],[4.0084831,50.9553252],[4.0085322,50.9553457],[4.0085709,50.9553774],[4.0086084,50.9553958],[4.0085736,50.9554149]]]}}]}