{"type":"FeatureCollection","features":[{"type":"Feature","id":"gebouw/Gebouw.9044365/0","properties":{"source":"Digitaal Vlaanderen Gebouwenregister","source_id":"gebouw/Gebouw.9044365/0","kind":"building","height_m":5.72,"status":null},"geometry":{"type":"Polygon","coordinates":[[[4.01380021,50.96880356],[4.01397273,50.96888319],[4.01389064,50.96895328],[4.01388895,50.96895437],[4.01371713,50.96887257],[4.01380021,50.96880356]]]}},{"type":"Feature","id":"gebouw/Gebouw.9044366/0","properties":{"source":"Digitaal Vlaanderen Gebouwenregister","source_id":"gebouw/Gebouw.9044366/0","kind":"building","height_m":6.44,"status":null},"geometry":{"type":"Polygon","coordinates":[[[4.01440407,50.96932679],[4.01403445,50.969135],[4.01397971,50.96917706],[4.0139834,50.96917901],[4.01407993,50.96923009],[4.01405722,50.96924688],[4.01410985,50.96927481],[4.01413284,50.96925858],[4.01417874,50.96928287],[4.01405163,50.9694064],[4.01394901,50.96936294],[4.0138808,50.969427],[4.01400685,50.96948024],[4.014015,50.96948369],[4.01401512,50.96948374],[4.01417901,50.96955296],[4.01440407,50.96932679]]]}},{"type":"Feature","id":"gebouw/Gebouw.9044564/0","properties":{"source":"Digitaal Vlaanderen Gebouwenregister","source_id":"gebouw/Gebouw.9044564/0","kind":"building","height_m":7.88,"status":null},"geometry":{"type":"Polygon","coordinates":[[[4.01360664,50.96851917],[4.01353532,50.96848092],[4.01349685,50.96850953],[4.01343869,50.96847799],[4.0135199,50.96841594],[4.01355016,50.96839455],[4.01349959,50.96836721],[4.01348544,50.96837787],[4.01347014,50.96838937],[4.01345614,50.96839992],[4.01342973,50.9684198],[4.01335783,50.96847391],[4.01339905,50.96849553],[4.01330097,50.96856712],[4.01343981,50.96864189],[4.01360664,50.96851917]]]}},{"type":"Feature","id":"gebouw/Gebouw.9044616/0","properties":{"source":"Digitaal Vlaanderen Gebouwenregister","source_id":"gebouw/Gebouw.9044616/0","kind":"building","height_m":5.0,"status":null},"geometry":{"type":"Polygon","coordinates":[[[4.01126978,50.97290949],[4.0115641,50.97291624],[4.01155122,50.97314611],[4.01125506,50.97314139],[4.01126978,50.97290949]]]}},{"type":"Feature","id":"gebouw/Gebouw.9100395/0","properties":{"source":"Digitaal Vlaanderen Gebouwenregister","source_id":"gebouw/Gebouw.9100395/0","kind":"building","height_m":7.16,"status":null},"geometry":{"type":"Polygon","coordinates":[[[4.01202807,50.96880805],[4.01192593,50.9688307],[4.01189365,50.96877526],[4.01186862,50.96873229],[4.01197021,50.96870871],[4.01202807,50.96880805]]]}},{"type":"Feature","id":"gebouw/Gebouw.9100892/0","properties":{"source":"Digitaal Vlaanderen Gebouwenregister","source_id":"gebouw/Gebouw.9100892/0","kind":"building","height_m":7.16,"status":null},"geometry":{"type":"Polygon","coordinates":[[[4.01395152,50.96920649],[4.01393514,50.96922656],[4.01386878,50.96930788],[4.01392123,50.96932495],[4.01388397,50.96937061],[4.01383152,50.96935354],[4.01371876,50.96931686],[4.01383875,50.96916981],[4.01395152,50.96920649]]]}},{"type":"Feature","id":"gebouw/Gebouw.9100893/0","properties":{"source":"Digitaal Vlaanderen Gebouwenregister","source_id":"gebouw/Gebouw.9100893/0","kind":"building","height_m":7.88,"status":null},"geometry":{"type":"Polygon","coordinates":[[[4.0130065,50.96810199],[4.01307623,50.96806905],[4.01306525,50.96805844],[4.01315866,50.9680162],[4.01317168,50.96802814],[4.01308545,50.96806784],[4.01311814,50.96809798],[4.01309499,50.96810915],[4.01310336,50.96811767],[4.01295712,50.96818218],[4.01298448,50.96820612],[4.01289843,50.96824601],[4.01287102,50.96822242],[4.01284633,50.96823377],[4.01284188,50.96823507],[4.01282037,50.96818834],[4.0130065,50.96810199]]]}},{"type":"Feature","id":"gebouw/Gebouw.9127948/0","properties":{"source":"Digitaal Vlaanderen Gebouwenregister","source_id":"gebouw/Gebouw.9127948/0","kind":"building","height_m":7.88,"status":null},"geometry":{"type":"Polygon","coordinates":[[[4.01160526,50.97243607],[4.01160575,50.97237539],[4.01167039,50.97237648],[4.01166846,50.97243583],[4.01160526,50.97243607]]]}},{"type":"Feature","id":"gebouw/Gebouw.9128064/0","properties":{"source":"Digitaal Vlaanderen Gebouwenregister","source_id":"gebouw/Gebouw.9128064/0","kind":"building","height_m":5.72,"status":null},"geometry":{"type":"Polygon","coordinates":[[[4.01432984,50.96894893],[4.01408913,50.96904836],[4.01389064,50.96895328],[4.01397273,50.96888319],[4.01405583,50.96881705],[4.01432984,50.96894893]]]}},{"type":"Feature","id":"gebouw/Gebouw.9172639/0","properties":{"source":"Digitaal Vlaanderen Gebouwenregister","source_id":"gebouw/Gebouw.9172639/0","kind":"building","height_m":5.0,"status":null},"geometry":{"type":"Polygon","coordinates":[[[4.01300603,50.96810146],[4.01282037,50.96818834],[4.012776,50.96807851],[4.0128885,50.96805687],[4.01294958,50.96803619],[4.01300603,50.96810146]]]}},{"type":"Feature","id":"gebouw/Gebouw.9419619/0","properties":{"source":"Digitaal Vlaanderen Gebouwenregister","source_id":"gebouw/Gebouw.9419619/0","kind":"building","height_m":9.32,"status":null},"geometry":{"type":"Polygon","coordinates":[[[4.01280054,50.96799821],[4.01276114,50.96789963],[4.0128925,50.96787953],[4.01290511,50.96791164],[4.01292612,50.96790837],[4.01294301,50.96795183],[4.01293437,50.96795342],[4.01295347,50.96800289],[4.01284622,50.96801969],[4.01283688,50.96799262],[4.01280054,50.96799821]]]}},{"type":"Feature","id":"gebouw/Gebouw.9443998/0","properties":{"source":"Digitaal Vlaanderen Gebouwenregister","source_id":"gebouw/Gebouw.9443998/0","kind":"building","height_m":7.88,"status":null},"geometry":{"type":"Polygon","coordinates":[[[4.01288839,50.96776687],[4.01284808,50.96778034],[4.01285113,50.9677842],[4.01280481,50.96780228],[4.01280764,50.96780536],[4.01270995,50.96783933],[4.01263347,50.96774589],[4.01273874,50.96771152],[4.01278238,50.96776407],[4.01285116,50.96774119],[4.01290722,50.96772255],[4.01292883,50.96774821],[4.01293221,50.96775223],[4.01290377,50.96776173],[4.01288839,50.96776687]]]}},{"type":"Feature","id":"gebouw/Gebouw.9444102/0","properties":{"source":"Digitaal Vlaanderen Gebouwenregister","source_id":"gebouw/Gebouw.9444102/0","kind":"building","height_m":7.16,"status":null},"geometry":{"type":"Polygon","coordinates":[[[4.01136995,50.97249192],[4.01137002,50.97248967],[4.01158678,50.972493],[4.01156849,50.97281121],[4.01136924,50.97280752],[4.01138017,50.97258362],[4.01132086,50.97258297],[4.01132401,50.97249048],[4.01136995,50.97249192]]]}},{"type":"Feature","id":"gebouw/Gebouw.9444103/0","properties":{"source":"Digitaal Vlaanderen Gebouwenregister","source_id":"gebouw/Gebouw.9444103/0","kind":"building","height_m":7.88,"status":null},"geometry":{"type":"Polygon","coordinates":[[[4.00885871,50.97176464],[4.00890782,50.97178036],[4.00887616,50.97182028],[4.00882472,50.97180304],[4.00885871,50.97176464]]]}},{"type":"Feature","id":"gebouw/Gebouw.9462104/0","properties":{"source":"Digitaal Vlaanderen Gebouwenregister","source_id":"gebouw/Gebouw.9462104/0","kind":"building","height_m":5.72,"status":null},"geometry":{"type":"Polygon","coordinates":[[[4.0128609,50.9677994],[4.01292523,50.96782239],[4.01289798,50.967853],[4.01283299,50.96783262],[4.0128609,50.9677994]]]}},{"type":"Feature","id":"gebouw/Gebouw.9476539/0","properties":{"source":"Digitaal Vlaanderen Gebouwenregister","source_id":"gebouw/Gebouw.9476539/0","kind":"building","height_m":6.44,"status":null},"geometry":{"type":"Polygon","coordinates":[[[4.01397863,50.96951499],[4.01377546,50.96942307],[4.01378937,50.9694101],[4.01363018,50.9693394],[4.01362378,50.96934551],[4.01360386,50.9693363],[4.01358097,50.96935527],[4.01356015,50.96937253],[4.01358033,50.96938305],[4.01354449,50.96941337],[4.01366759,50.96946717],[4.01365789,50.96947456],[4.01379353,50.96953655],[4.01389781,50.96958421],[4.01391149,50.9695725],[4.01391831,50.96956666],[4.01392201,50.96956349],[4.01393296,50.96955411],[4.01397863,50.96951499]]]}},{"type":"Feature","id":"gebouw/Gebouw.9476540/0","properties":{"source":"Digitaal Vlaanderen Gebouwenregister","source_id":"gebouw/Gebouw.9476540/0","kind":"building","height_m":7.16,"status":null},"geometry":{"type":"Polygon","coordinates":[[[4.01167431,50.9688943],[4.01175553,50.96885323],[4.01183384,50.96891778],[4.0117568,50.96895776],[4.01167431,50.9688943]]]}},{"type":"Feature","id":"gebouw/Gebouw.9476541/0","properties":{"source":"Digitaal Vlaanderen Gebouwenregister","source_id":"gebouw/Gebouw.9476541/0","kind":"building","height_m":7.88,"status":null},"geometry":{"type":"Polygon","coordinates":[[[4.00698847,50.97011559],[4.0069629,50.97003214],[4.00701438,50.97002616],[4.00704176,50.9701085],[4.00698847,50.97011559]]]}},{"type":"Feature","id":"gebouw/Gebouw.9484838/0","properties":{"source":"Digitaal Vlaanderen Gebouwenregister","source_id":"gebouw/Gebouw.9484838/0","kind":"building","height_m":9.32,"status":null},"geometry":{"type":"Polygon","coordinates":[[[4.00876537,50.96846261],[4.00872911,50.96844348],[4.00876999,50.9684134],[4.00880623,50.96843291],[4.00876537,50.96846261]]]}},{"type":"Feature","id":"gebouw/Gebouw.9563743/0","properties":{"source":"Digitaal Vlaanderen Gebouwenregister","source_id":"gebouw/Gebouw.9563743/0","kind":"building","height_m":5.0,"status":null},"geometry":{"type":"Polygon","coordinates":[[[4.01194215,50.96892722],[4.01193409,50.96891814],[4.01197758,50.96890082],[4.0120402,50.96896426],[4.01200032,50.96897974],[4.01199802,50.96897709],[4.01196832,50.96898931],[4.01191426,50.96893796],[4.01194215,50.96892722]]]}},{"type":"Feature","id":"gebouw/Gebouw.9563744/0","properties":{"source":"Digitaal Vlaanderen Gebouwenregister","source_id":"gebouw/Gebouw.9563744/0","kind":"building","height_m":5.72,"status":null},"geometry":{"type":"Polygon","coordinates":[[[4.01045175,50.96918837],[4.01043025,50.9691503],[4.01051657,50.96912896],[4.01053926,50.96916667],[4.01045175,50.96918837]]]}},{"type":"Feature","id":"gebouw/Gebouw.9689196/0","properties":{"source":"Digitaal Vlaanderen Gebouwenregister","source_id":"gebouw/Gebouw.9689196/0","kind":"building","height_m":9.32,"status":null},"geometry":{"type":"Polygon","coordinates":[[[4.01142571,50.97242803],[4.01130464,50.97242534],[4.01131062,50.97231688],[4.01143169,50.97231954],[4.01142571,50.97242803]]]}},{"type":"Feature","id":"gebouw/Gebouw.9731764/0","properties":{"source":"Digitaal Vlaanderen Gebouwenregister","source_id":"gebouw/Gebouw.9731764/0","kind":"building","height_m":5.0,"status":null},"geometry":{"type":"Polygon","coordinates":[[[4.00642195,50.97256854],[4.00642587,50.97251277],[4.00660292,50.97251454],[4.00659929,50.9725705],[4.00642195,50.97256854]]]}},{"type":"Feature","id":"gebouw/Gebouw.9732107/0","properties":{"source":"Digitaal Vlaanderen Gebouwenregister","source_id":"gebouw/Gebouw.9732107/0","kind":"building","height_m":5.0,"status":null},"geometry":{"type":"Polygon","coordinates":[[[4.01331855,50.96845311],[4.013379,50.96841399],[4.01339205,50.96840555],[4.013325,50.96836285],[4.01330717,50.96837483],[4.01326705,50.96835134],[4.0132625,50.96834868],[4.01314604,50.96842303],[4.01317996,50.968444],[4.01321908,50.96846819],[4.01320425,50.96847776],[4.01324327,50.96850182],[4.01331855,50.96845311]]]}},{"type":"Feature","id":"gebouw/Gebouw.9737492/0","properties":{"source":"Digitaal Vlaanderen Gebouwenregister","source_id":"gebouw/Gebouw.9737492/0","kind":"building","height_m":6.44,"status":null},"geometry":{"type":"Polygon","coordinates":[[[4.0135664,50.96878413],[4.01361034,50.96875034],[4.01365104,50.96876971],[4.0136053,50.96880423],[4.0135664,50.96878413]]]}},{"type":"Feature","id":"gebouw/Gebouw.9840994/0","properties":{"source":"Digitaal Vlaanderen Gebouwenregister","source_id":"gebouw/Gebouw.9840994/0","kind":"building","height_m":6.44,"status":null},"geometry":{"type":"Polygon","coordinates":[[[4.01182488,50.97294796],[4.01182094,50.97299418],[4.01164398,50.97298867],[4.01164732,50.97294282],[4.01182488,50.97294796]]]}},{"type":"Feature","id":"gebouw/Gebouw.15811041/0","properties":{"source":"Digitaal Vlaanderen Gebouwenregister","source_id":"gebouw/Gebouw.15811041/0","kind":"building","height_m":5.72,"status":null},"geometry":{"type":"Polygon","coordinates":[[[4.01355491,50.96831702],[4.01350892,50.96828738],[4.01354894,50.96826263],[4.01359493,50.96829227],[4.01355491,50.96831702]]]}},{"type":"Feature","id":"gebouw/Gebouw.16192282/0","properties":{"source":"Digitaal Vlaanderen Gebouwenregister","source_id":"gebouw/Gebouw.16192282/0","kind":"building","height_m":5.72,"status":null},"geometry":{"type":"Polygon","coordinates":[[[4.01269119,50.97266507],[4.01267077,50.97299721],[4.01237874,50.97299005],[4.01238321,50.97293304],[4.01212999,50.97292739],[4.0121473,50.97265148],[4.01269119,50.97266507]]]}},{"type":"Feature","id":"gebouw/Gebouw.16295616/0","properties":{"source":"Digitaal Vlaanderen Gebouwenregister","source_id":"gebouw/Gebouw.16295616/0","kind":"building","height_m":5.72,"status":null},"geometry":{"type":"Polygon","coordinates":[[[4.01313384,50.96763837],[4.01309775,50.96765914],[4.01307265,50.96764132],[4.01306082,50.96763292],[4.0130572,50.96763495],[4.01302411,50.96761145],[4.01307425,50.96758331],[4.01310591,50.96760579],[4.01309589,50.96761142],[4.01310915,50.96762083],[4.01313384,50.96763837]]]}},{"type":"Feature","id":"gebouw/Gebouw.18362227/0","properties":{"source":"Digitaal Vlaanderen Gebouwenregister","source_id":"gebouw/Gebouw.18362227/0","kind":"building","height_m":6.44,"status":null},"geometry":{"type":"Polygon","coordinates":[[[4.01115337,50.97258477],[4.01127186,50.97258766],[4.01126963,50.97262395],[4.01131672,50.9726251],[4.01130516,50.97280458],[4.01121503,50.97280404],[4.01113494,50.97280356],[4.01114543,50.97262092],[4.01115115,50.97262106],[4.01115337,50.97258477]]]}},{"type":"Feature","id":"gebouw/Gebouw.18362725/0","properties":{"source":"Digitaal Vlaanderen Gebouwenregister","source_id":"gebouw/Gebouw.18362725/0","kind":"building","height_m":7.16,"status":null},"geometry":{"type":"Polygon","coordinates":[[[4.01419858,50.96965158],[4.0142353,50.96966639],[4.01428178,50.96968514],[4.01456381,50.96979892],[4.01435547,50.97000759],[4.0143927,50.97002153],[4.0144189,50.97003134],[4.01433952,50.9701088],[4.01431196,50.97009771],[4.01429994,50.97009288],[4.01393167,50.96994478],[4.01391132,50.96993659],[4.01400161,50.96984623],[4.01402117,50.96982666],[4.01412014,50.96972762],[4.01417412,50.96967359],[4.01418048,50.96966723],[4.01419638,50.96965132],[4.01419683,50.96965087],[4.01419858,50.96965158]]]}},{"type":"Feature","id":"gebouw/Gebouw.19524758/0","properties":{"source":"Digitaal Vlaanderen Gebouwenregister","source_id":"gebouw/Gebouw.19524758/0","kind":"building","height_m":5.72,"status":null},"geometry":{"type":"Polygon","coordinates":[[[4.01126978,50.97290949],[4.01125506,50.97314139],[4.01114381,50.97313962],[4.01115662,50.97290689],[4.01126978,50.97290949]]]}},{"type":"Feature","id":"gebouw/Gebouw.19526253/0","properties":{"source":"Digitaal Vlaanderen Gebouwenregister","source_id":"gebouw/Gebouw.19526253/0","kind":"building","height_m":8.6,"status":null},"geometry":{"type":"Polygon","coordinates":[[[4.01316865,50.96802536],[4.01317168,50.96802814],[4.01307935,50.96807065],[4.01307672,50.96806838],[4.01306525,50.96805844],[4.01315866,50.9680162],[4.01316865,50.96802536]]]}},{"type":"Feature","id":"gebouw/Gebouw.19526254/0","properties":{"source":"Digitaal Vlaanderen Gebouwenregister","source_id":"gebouw/Gebouw.19526254/0","kind":"building","height_m":9.32,"status":null},"geometry":{"type":"Polygon","coordinates":[[[4.01297902,50.96820865],[4.01289843,50.96824601],[4.01287102,50.96822242],[4.01284633,50.96823377],[4.01284188,50.96823507],[4.01282037,50.96818834],[4.01300603,50.96810146],[4.01305722,50.96807782],[4.01310336,50.96811767],[4.01295712,50.96818218],[4.01298448,50.96820612],[4.01297902,50.96820865]]]}},{"type":"Feature","id":"gebouw/Gebouw.19932111/0","properties":{"source":"Digitaal Vlaanderen Gebouwenregister","source_id":"gebouw/Gebouw.19932111/0","kind":"building","height_m":7.16,"status":null},"geometry":{"type":"Polygon","coordinates":[[[4.0144323,50.96993064],[4.01435547,50.97000759],[4.0143927,50.97002153],[4.0144189,50.97003134],[4.01433952,50.9701088],[4.01431196,50.97009771],[4.01429994,50.97009288],[4.01393168,50.96994478],[4.01391132,50.96993659],[4.01400161,50.96984623],[4.01402117,50.96982666],[4.01406524,50.96978256],[4.0144323,50.96993064]]]}},{"type":"Feature","id":"gebouw/Gebouw.19932112/0","properties":{"source":"Digitaal Vlaanderen Gebouwenregister","source_id":"gebouw/Gebouw.19932112/0","kind":"building","height_m":7.88,"status":null},"geometry":{"type":"Polygon","coordinates":[[[4.01419858,50.96965158],[4.01423529,50.96966639],[4.01428178,50.96968514],[4.01456381,50.96979892],[4.0144323,50.96993064],[4.01406524,50.96978256],[4.01419858,50.96965158]]]}},{"type":"Feature","id":"gebouw/Gebouw.31001690/0","properties":{"source":"Digitaal Vlaanderen Gebouwenregister","source_id":"gebouw/Gebouw.31001690/0","kind":"building","height_m":9.32,"status":null},"geometry":{"type":"Polygon","coordinates":[[[4.01206604,50.9717209],[4.01206588,50.97169351],[4.01211482,50.9716934],[4.01211498,50.97172078],[4.01206604,50.9717209]]]}},{"type":"Feature","id":"gebouw/Gebouw.31762148/0","properties":{"source":"Digitaal Vlaanderen Gebouwenregister","source_id":"gebouw/Gebouw.31762148/0","kind":"building","height_m":8.6,"status":null},"geometry":{"type":"Polygon","coordinates":[[[4.01138312,50.96880886],[4.01143493,50.96879801],[4.01141769,50.96876519],[4.01136588,50.96877604],[4.01138312,50.96880886]]]}},{"type":"Feature","id":"gebouw/Gebouw.31762394/0","properties":{"source":"Digitaal Vlaanderen Gebouwenregister","source_id":"gebouw/Gebouw.31762394/0","kind":"building","height_m":9.32,"status":null},"geometry":{"type":"Polygon","coordinates":[[[4.01177637,50.96876622],[4.01183233,50.96885857],[4.01172338,50.96888489],[4.01175343,50.96893448],[4.01185939,50.96890889],[4.01188114,50.96894479],[4.0119676,50.96892391],[4.01186047,50.96874709],[4.01203902,50.96870397],[4.0120103,50.96865654],[4.01183778,50.9686982],[4.01183432,50.96869247],[4.0117491,50.96871306],[4.01175117,50.96871648],[4.01150457,50.96877604],[4.01153408,50.96882474],[4.01177637,50.96876622]]]}},{"type":"Feature","id":"gebouw/Gebouw.31975774/0","properties":{"source":"Digitaal Vlaanderen Gebouwenregister","source_id":"gebouw/Gebouw.31975774/0","kind":"building","height_m":8.6,"status":null},"geometry":{"type":"Polygon","coordinates":[[[4.01179566,50.96865785],[4.01188341,50.96865555],[4.01188204,50.96863461],[4.01179428,50.96863691],[4.01179566,50.96865785]]]}},{"type":"Feature","id":"way/152632760","properties":{"source":"OpenStreetMap","source_id":"way/152632760","kind":"vegetation","name":null,"waterway":null,"landuse":"forest"},"geometry":{"type":"Polygon","coordinates":[[[4.0099536,50.9704216],[4.0098316,50.9703872],[4.0093538,50.9711081],[4.0091043,50.9714897],[4.0086992,50.9713649],[4.0084838,50.9712985],[4.0082576,50.9712288],[4.0080927,50.9713803],[4.0083467,50.9714448],[4.008672,50.9714785],[4.0089216,50.9715711],[4.0089572,50.9716357],[4.0088681,50.9717507],[4.008963,50.971778],[4.009215,50.9714908],[4.0094957,50.9710138],[4.0098923,50.9712298],[4.0099636,50.9711906],[4.0095403,50.9709464],[4.0098968,50.9704722],[4.0099536,50.9704216]]]}},{"type":"Feature","id":"way/152632778","properties":{"source":"OpenStreetMap","source_id":"way/152632778","kind":"vegetation","name":null,"waterway":null,"landuse":"forest"},"geometry":{"type":"Polygon","coordinates":[[[4.0143466,50.9696077],[4.0142492,50.969552],[4.0134391,50.9700879],[4.0135084,50.9701196],[4.0143466,50.9696077]]]}},{"type":"Feature","id":"way/152632786","properties":{"source":"OpenStreetMap","source_id":"way/152632786","kind":"vegetation","name":null,"waterway":null,"landuse":"forest"},"geometry":{"type":"Polygon","coordinates":[[[4.0076248,50.9717198],[4.0069385,50.972326],[4.006475,50.9723091],[4.0063859,50.9717956],[4.0063948,50.971442],[4.0076248,50.9717198]]]}},{"type":"Feature","id":"way/152632816","properties":{"source":"OpenStreetMap","source_id":"way/152632816","kind":"vegetation","name":null,"waterway":null,"landuse":"forest"},"geometry":{"type":"Polygon","coordinates":[[[4.0106541,50.9690148],[4.0098695,50.9690991],[4.0092077,50.9691448],[4.009025,50.9691408],[4.0101629,50.9702352],[4.0102087,50.9701944],[4.010257,50.9701588],[4.0098442,50.9698056],[4.0109755,50.9695059],[4.0106541,50.9690148]]]}},{"type":"Feature","id":"way/152632819","properties":{"source":"OpenStreetMap","source_id":"way/152632819","kind":"vegetation","name":null,"waterway":null,"landuse":"forest"},"geometry":{"type":"Polygon","coordinates":[[[4.0120358,50.9694647],[4.0122562,50.9696197],[4.0131587,50.9702546],[4.0124772,50.9706295],[4.0123745,50.9705213],[4.0124703,50.9704694],[4.0117551,50.9699474],[4.0113696,50.9701368],[4.0111045,50.9699306],[4.0120358,50.9694647]]]}},{"type":"Feature","id":"way/152654824","properties":{"source":"OpenStreetMap","source_id":"way/152654824","kind":"vegetation","name":null,"waterway":null,"landuse":"forest"},"geometry":{"type":"Polygon","coordinates":[[[4.0064972,50.9684837],[4.0055427,50.9687137],[4.0054473,50.9685583],[4.0059846,50.9684414],[4.0062668,50.96838],[4.0061056,50.9681334],[4.0071439,50.9678983],[4.0076193,50.9682026],[4.0069513,50.9683613],[4.0064972,50.9684837]]]}},{"type":"Feature","id":"way/266667493","properties":{"source":"OpenStreetMap","source_id":"way/266667493","kind":"waterway","name":"Spechtmeersbeek","waterway":"stream","landuse":null},"geometry":{"type":"LineString","coordinates":[[4.0130295,50.9737322],[4.0119659,50.9736981],[4.010077,50.9736374],[4.0100303,50.9736776],[4.009141,50.9737051],[4.0081599,50.9736689],[4.0080542,50.9736891],[4.0076153,50.9736674],[4.0060551,50.9736515],[4.0059793,50.9736645],[4.0059104,50.9737615]]}},{"type":"Feature","id":"way/266667497","properties":{"source":"OpenStreetMap","source_id":"way/266667497","kind":"waterway","name":null,"waterway":"stream","landuse":null},"geometry":{"type":"LineString","coordinates":[[4.0151606,50.9723829],[4.0150664,50.9723952],[4.0133961,50.9723952],[4.0122656,50.9723858],[4.0119143,50.9723829],[4.0100784,50.9723604],[4.0090905,50.972344],[4.0069385,50.972326],[4.006475,50.9723091]]}},{"type":"Feature","id":"way/1236728092","properties":{"source":"OpenStreetMap","source_id":"way/1236728092","kind":"water","name":null,"waterway":null,"landuse":null},"geometry":{"type":"Polygon","coordinates":[[[4.0084926,50.9713743],[4.0085229,50.9714011],[4.0085562,50.9714278],[4.0086335,50.9714631],[4.0087532,50.9714888],[4.0087956,50.9715051],[4.008835,50.9715318],[4.0088744,50.9715365],[4.0089198,50.9715232],[4.0089425,50.9715051],[4.0089441,50.971465],[4.0089138,50.9714469],[4.0088713,50.9714459],[4.0087335,50.9713848],[4.0086992,50.9713649],[4.0086653,50.9713677],[4.0086183,50.9713324],[4.0085562,50.9713295],[4.0084838,50.9712985],[4.0084047,50.9712933],[4.0083971,50.9712866],[4.0083486,50.9712961],[4.0083486,50.9713343],[4.0084486,50.9713753],[4.0084926,50.9713743]]]}},{"type":"Feature","id":"way/1236728093","properties":{"source":"OpenStreetMap","source_id":"way/1236728093","kind":"water","name":null,"waterway":null,"landuse":null},"geometry":{"type":"Polygon","coordinates":[[[4.0126983,50.9704246],[4.0127332,50.9704262],[4.0129065,50.9703309],[4.0129065,50.9703089],[4.0128884,50.9702934],[4.0127616,50.9702177],[4.0126983,50.9702185],[4.0125495,50.9702983],[4.0125508,50.9703228],[4.0126983,50.9704246]]]}},{"type":"Feature","id":"way/1236728094","properties":{"source":"OpenStreetMap","source_id":"way/1236728094","kind":"water","name":null,"waterway":null,"landuse":null},"geometry":{"type":"Polygon","coordinates":[[[4.010937,50.9693942],[4.0109743,50.9694277],[4.0110257,50.9694299],[4.0110577,50.9694076],[4.0110559,50.9693763],[4.0110293,50.9693506],[4.0110452,50.969269],[4.011024,50.9692254],[4.0109743,50.9691863],[4.0109388,50.9691617],[4.0108838,50.9691662],[4.0108288,50.9691796],[4.0108004,50.9692087],[4.0107915,50.9692813],[4.0108039,50.9693495],[4.0108588,50.9693859],[4.0108713,50.9693942],[4.010937,50.9693942]]]}},{"type":"Feature","id":"way/1267642999","properties":{"source":"OpenStreetMap","source_id":"way/1267642999","kind":"waterway","name":null,"waterway":"ditch","landuse":null},"geometry":{"type":"LineString","coordinates":[[4.0108588,50.9693859],[4.0101161,50.9695835],[4.0096551,50.9696819]]}},{"type":"Feature","id":"way/1267643000","properties":{"source":"OpenStreetMap","source_id":"way/1267643000","kind":"waterway","name":null,"waterway":"ditch","landuse":null},"geometry":{"type":"LineString","coordinates":[[4.0104699,50.9704446],[4.0112084,50.9711382],[4.0112395,50.9711598],[4.0114224,50.9712357],[4.012154,50.9713489],[4.0122656,50.9723858]]}},{"type":"Feature","id":"way/1267643013","properties":{"source":"OpenStreetMap","source_id":"way/1267643013","kind":"waterway","name":null,"waterway":"ditch","landuse":null},"geometry":{"type":"LineString","coordinates":[[4.0080413,50.9684651],[4.0081231,50.9685145]]}},{"type":"Feature","id":"way/1267643014","properties":{"source":"OpenStreetMap","source_id":"way/1267643014","kind":"waterway","name":null,"waterway":"ditch","landuse":null},"geometry":{"type":"LineString","coordinates":[[4.0081231,50.9685145],[4.0089755,50.9690538]]}},{"type":"Feature","id":"way/1267643015","properties":{"source":"OpenStreetMap","source_id":"way/1267643015","kind":"waterway","name":null,"waterway":"ditch","landuse":null},"geometry":{"type":"LineString","coordinates":[[4.0089755,50.9690538],[4.0091235,50.9691803]]}},{"type":"Feature","id":"way/1267643016","properties":{"source":"OpenStreetMap","source_id":"way/1267643016","kind":"waterway","name":null,"waterway":"ditch","landuse":null},"geometry":{"type":"LineString","coordinates":[[4.0091235,50.9691803],[4.0096551,50.9696819],[4.01019,50.9701865],[4.0104347,50.9704128]]}},{"type":"Feature","id":"way/1267643017","properties":{"source":"OpenStreetMap","source_id":"way/1267643017","kind":"waterway","name":null,"waterway":"ditch","landuse":null},"geometry":{"type":"LineString","coordinates":[[4.0104347,50.9704128],[4.0104699,50.9704446]]}}]}