{"type":"FeatureCollection","features":[{"type":"Feature","id":"way/131389656","properties":{"source":"OpenStreetMap","source_id":"way/131389656","kind":"vegetation","name":null,"waterway":null,"landuse":"forest"},"geometry":{"type":"Polygon","coordinates":[[[4.0183446,50.9832531],[4.0196841,50.9831308],[4.0195271,50.982766],[4.0200706,50.982361],[4.0199264,50.9821864],[4.0209559,50.9816284],[4.0206979,50.9814137],[4.020613,50.9812764],[4.02053,50.9810678],[4.0195886,50.9813582],[4.0194385,50.9807152],[4.0189088,50.9800136],[4.0179375,50.9807269],[4.0169247,50.9801486],[4.0162567,50.980717],[4.0171451,50.9815399],[4.0147048,50.9824175],[4.0140514,50.9817328],[4.0137438,50.9814104],[4.0134805,50.9815099],[4.0145863,50.9826578],[4.0172971,50.9817136],[4.01744,50.9816638],[4.0177999,50.9815385],[4.0183446,50.9832531]]]}}]}