{"type":"FeatureCollection","features":[{"type":"Feature","id":"gebouw/Gebouw.12854335/0","properties":{"source":"Digitaal Vlaanderen Gebouwenregister","source_id":"gebouw/Gebouw.12854335/0","kind":"building","building":"official","height_m":5.85,"status":null},"geometry":{"type":"Polygon","coordinates":[[[3.95008111,50.93737816],[3.9500144,50.93735423],[3.95004945,50.93731488],[3.95008247,50.93732704],[3.95007683,50.93733345],[3.95011109,50.93734502],[3.95008111,50.93737816]]]}},{"type":"Feature","id":"gebouw/Gebouw.12873175/0","properties":{"source":"Digitaal Vlaanderen Gebouwenregister","source_id":"gebouw/Gebouw.12873175/0","kind":"building","building":"official","height_m":5.85,"status":null},"geometry":{"type":"Polygon","coordinates":[[[3.94724237,50.93599445],[3.94731377,50.93593616],[3.94736283,50.93596278],[3.94737464,50.93595323],[3.94738077,50.93595673],[3.94740798,50.93593645],[3.94751106,50.93599258],[3.94748574,50.93601343],[3.94749026,50.93601605],[3.9474054,50.93607989],[3.94734573,50.93604861],[3.94730707,50.93602836],[3.94724237,50.93599445]]]}},{"type":"Feature","id":"gebouw/Gebouw.12935891/0","properties":{"source":"Digitaal Vlaanderen Gebouwenregister","source_id":"gebouw/Gebouw.12935891/0","kind":"building","building":"official","height_m":8.85,"status":null},"geometry":{"type":"Polygon","coordinates":[[[3.9507661,50.94089947],[3.9507266,50.94094237],[3.9506946,50.94092565],[3.95073388,50.94088574],[3.9507661,50.94089947]]]}},{"type":"Feature","id":"gebouw/Gebouw.12955287/0","properties":{"source":"Digitaal Vlaanderen Gebouwenregister","source_id":"gebouw/Gebouw.12955287/0","kind":"building","building":"official","height_m":7.35,"status":null},"geometry":{"type":"Polygon","coordinates":[[[3.94588286,50.93610007],[3.94582697,50.93612459],[3.94576414,50.93606044],[3.94579302,50.93604808],[3.94583236,50.93608659],[3.94585991,50.93607474],[3.94588286,50.93610007]]]}},{"type":"Feature","id":"gebouw/Gebouw.12961219/0","properties":{"source":"Digitaal Vlaanderen Gebouwenregister","source_id":"gebouw/Gebouw.12961219/0","kind":"building","building":"official","height_m":5.85,"status":null},"geometry":{"type":"Polygon","coordinates":[[[3.94267237,50.93549374],[3.94263171,50.93546596],[3.9426623,50.93544773],[3.94270368,50.93547507],[3.94267237,50.93549374]]]}},{"type":"Feature","id":"gebouw/Gebouw.12977346/0","properties":{"source":"Digitaal Vlaanderen Gebouwenregister","source_id":"gebouw/Gebouw.12977346/0","kind":"building","building":"official","height_m":5.1,"status":null},"geometry":{"type":"Polygon","coordinates":[[[3.94982376,50.93701925],[3.94974351,50.93710554],[3.94961084,50.93705887],[3.94968743,50.93697028],[3.94972952,50.93698544],[3.94971467,50.93700334],[3.94975549,50.93701725],[3.94977079,50.93700041],[3.94982376,50.93701925]]]}},{"type":"Feature","id":"gebouw/Gebouw.12980652/0","properties":{"source":"Digitaal Vlaanderen Gebouwenregister","source_id":"gebouw/Gebouw.12980652/0","kind":"building","building":"official","height_m":5.1,"status":null},"geometry":{"type":"Polygon","coordinates":[[[3.94731309,50.93610914],[3.94728417,50.93613403],[3.94726037,50.93612004],[3.94723809,50.93613869],[3.94714829,50.93621384],[3.94721859,50.93624685],[3.94735698,50.93613197],[3.94731309,50.93610914]]]}},{"type":"Feature","id":"gebouw/Gebouw.13001369/0","properties":{"source":"Digitaal Vlaanderen Gebouwenregister","source_id":"gebouw/Gebouw.13001369/0","kind":"building","building":"official","height_m":8.85,"status":null},"geometry":{"type":"Polygon","coordinates":[[[3.94683505,50.93628061],[3.9468274,50.93628476],[3.94675236,50.93632547],[3.94666254,50.9363742],[3.94661533,50.93639981],[3.94652444,50.93632958],[3.94658582,50.93629958],[3.94661352,50.93632351],[3.94660055,50.93633079],[3.94663674,50.93635914],[3.94669963,50.93632436],[3.94666119,50.93629727],[3.94663869,50.93628143],[3.94666604,50.93626732],[3.94664077,50.93624628],[3.94672314,50.93619861],[3.94683505,50.93628061]]]}},{"type":"Feature","id":"gebouw/Gebouw.13003350/0","properties":{"source":"Digitaal Vlaanderen Gebouwenregister","source_id":"gebouw/Gebouw.13003350/0","kind":"building","building":"official","height_m":5.1,"status":null},"geometry":{"type":"Polygon","coordinates":[[[3.95103336,50.94078107],[3.95103046,50.9407836],[3.95105109,50.94079302],[3.95103655,50.94080572],[3.95107001,50.94082101],[3.95106362,50.94082659],[3.95109053,50.94083889],[3.95113209,50.94080259],[3.95111152,50.94079319],[3.9511224,50.94076449],[3.95109065,50.94074998],[3.95108315,50.94074098],[3.95109624,50.94072954],[3.95099116,50.9406776],[3.95096994,50.9406951],[3.950929,50.94067455],[3.95088969,50.94070806],[3.95103336,50.94078107]]]}},{"type":"Feature","id":"gebouw/Gebouw.13046616/0","properties":{"source":"Digitaal Vlaanderen Gebouwenregister","source_id":"gebouw/Gebouw.13046616/0","kind":"building","building":"official","height_m":5.1,"status":null},"geometry":{"type":"Polygon","coordinates":[[[3.95099453,50.94108233],[3.95095646,50.94111131],[3.95088052,50.94107084],[3.95091904,50.9410429],[3.95099453,50.94108233]]]}},{"type":"Feature","id":"gebouw/Gebouw.13048607/0","properties":{"source":"Digitaal Vlaanderen Gebouwenregister","source_id":"gebouw/Gebouw.13048607/0","kind":"building","building":"official","height_m":8.85,"status":null},"geometry":{"type":"Polygon","coordinates":[[[3.94657178,50.9362862],[3.94651261,50.93632044],[3.94646788,50.93628588],[3.94668126,50.93616801],[3.94672314,50.93619861],[3.94664077,50.93624628],[3.94659529,50.9362726],[3.94657178,50.9362862]]]}},{"type":"Feature","id":"gebouw/Gebouw.13073787/0","properties":{"source":"Digitaal Vlaanderen Gebouwenregister","source_id":"gebouw/Gebouw.13073787/0","kind":"building","building":"official","height_m":7.35,"status":null},"geometry":{"type":"Polygon","coordinates":[[[3.94579302,50.93604808],[3.94576414,50.93606044],[3.94569999,50.93599496],[3.94572876,50.93598198],[3.94574015,50.93597685],[3.94580738,50.93604193],[3.94579302,50.93604808]]]}},{"type":"Feature","id":"gebouw/Gebouw.13088631/0","properties":{"source":"Digitaal Vlaanderen Gebouwenregister","source_id":"gebouw/Gebouw.13088631/0","kind":"building","building":"official","height_m":7.35,"status":null},"geometry":{"type":"Polygon","coordinates":[[[3.94653975,50.93594396],[3.94640204,50.93599883],[3.94637955,50.93597386],[3.94640897,50.93596118],[3.94637197,50.93592366],[3.94635975,50.93592899],[3.94633496,50.93590177],[3.94645344,50.9358552],[3.94651291,50.93591637],[3.94653975,50.93594396]]]}},{"type":"Feature","id":"gebouw/Gebouw.13088761/0","properties":{"source":"Digitaal Vlaanderen Gebouwenregister","source_id":"gebouw/Gebouw.13088761/0","kind":"building","building":"official","height_m":5.85,"status":null},"geometry":{"type":"Polygon","coordinates":[[[3.95076854,50.9379554],[3.95074723,50.93798104],[3.95068534,50.9379575],[3.95069907,50.93794176],[3.95072215,50.93794973],[3.95072941,50.93794119],[3.95076854,50.9379554]]]}},{"type":"Feature","id":"gebouw/Gebouw.13096213/0","properties":{"source":"Digitaal Vlaanderen Gebouwenregister","source_id":"gebouw/Gebouw.13096213/0","kind":"building","building":"official","height_m":5.85,"status":null},"geometry":{"type":"Polygon","coordinates":[[[3.94968743,50.93697028],[3.94961084,50.93705887],[3.94951945,50.93702464],[3.94960338,50.93693599],[3.94964461,50.93695216],[3.94966998,50.93692565],[3.94971157,50.93694236],[3.94968743,50.93697028]]]}},{"type":"Feature","id":"gebouw/Gebouw.13104124/0","properties":{"source":"Digitaal Vlaanderen Gebouwenregister","source_id":"gebouw/Gebouw.13104124/0","kind":"building","building":"official","height_m":8.1,"status":null},"geometry":{"type":"Polygon","coordinates":[[[3.95197735,50.93911429],[3.95192569,50.93909631],[3.95185564,50.93917667],[3.9519073,50.93919465],[3.95197735,50.93911429]]]}},{"type":"Feature","id":"gebouw/Gebouw.13147362/0","properties":{"source":"Digitaal Vlaanderen Gebouwenregister","source_id":"gebouw/Gebouw.13147362/0","kind":"building","building":"official","height_m":5.1,"status":null},"geometry":{"type":"Polygon","coordinates":[[[3.95152323,50.93876946],[3.95145284,50.93874121],[3.95147146,50.93872129],[3.951544,50.93874924],[3.95152323,50.93876946]]]}},{"type":"Feature","id":"gebouw/Gebouw.13149922/0","properties":{"source":"Digitaal Vlaanderen Gebouwenregister","source_id":"gebouw/Gebouw.13149922/0","kind":"building","building":"official","height_m":8.1,"status":null},"geometry":{"type":"Polygon","coordinates":[[[3.95173684,50.93672589],[3.95170187,50.93670832],[3.95173953,50.9366766],[3.95177474,50.93669236],[3.95173684,50.93672589]]]}},{"type":"Feature","id":"gebouw/Gebouw.13150212/0","properties":{"source":"Digitaal Vlaanderen Gebouwenregister","source_id":"gebouw/Gebouw.13150212/0","kind":"building","building":"official","height_m":5.1,"status":null},"geometry":{"type":"Polygon","coordinates":[[[3.95113524,50.93787657],[3.95116953,50.93784138],[3.95119785,50.93781232],[3.95105465,50.93775623],[3.95098636,50.93782591],[3.95103077,50.93784291],[3.95105255,50.93785125],[3.95113074,50.93788119],[3.95113524,50.93787657]]]}},{"type":"Feature","id":"gebouw/Gebouw.13152372/0","properties":{"source":"Digitaal Vlaanderen Gebouwenregister","source_id":"gebouw/Gebouw.13152372/0","kind":"building","building":"official","height_m":5.1,"status":null},"geometry":{"type":"Polygon","coordinates":[[[3.94722553,50.93598231],[3.94722313,50.93598437],[3.9471857,50.93596476],[3.94724017,50.93592007],[3.9472468,50.9359232],[3.94722968,50.93593782],[3.94726086,50.935952],[3.94722553,50.93598231]]]}},{"type":"Feature","id":"gebouw/Gebouw.13184902/0","properties":{"source":"Digitaal Vlaanderen Gebouwenregister","source_id":"gebouw/Gebouw.13184902/0","kind":"building","building":"official","height_m":8.1,"status":null},"geometry":{"type":"Polygon","coordinates":[[[3.9519535,50.93816354],[3.95194675,50.93816922],[3.95195835,50.93817441],[3.95193708,50.93819642],[3.95192262,50.93819047],[3.95189995,50.93821067],[3.95183173,50.93818094],[3.9518856,50.93813202],[3.95192438,50.93815002],[3.9519535,50.93816354]]]}},{"type":"Feature","id":"gebouw/Gebouw.13207118/0","properties":{"source":"Digitaal Vlaanderen Gebouwenregister","source_id":"gebouw/Gebouw.13207118/0","kind":"building","building":"official","height_m":6.6,"status":null},"geometry":{"type":"Polygon","coordinates":[[[3.95142921,50.94105509],[3.95140164,50.94107583],[3.95135072,50.94111414],[3.95119767,50.94103328],[3.95121309,50.94102132],[3.95120836,50.94101844],[3.95116584,50.94105295],[3.95110497,50.94102228],[3.95109887,50.94101921],[3.95098886,50.94096379],[3.9508841,50.94091101],[3.95082983,50.94088367],[3.95076644,50.94085174],[3.95087245,50.940768],[3.95120131,50.94093758],[3.95129626,50.94098654],[3.95130173,50.94098262],[3.95142921,50.94105509]]]}},{"type":"Feature","id":"gebouw/Gebouw.13214604/0","properties":{"source":"Digitaal Vlaanderen Gebouwenregister","source_id":"gebouw/Gebouw.13214604/0","kind":"building","building":"official","height_m":5.1,"status":null},"geometry":{"type":"Polygon","coordinates":[[[3.95068735,50.93694836],[3.9506811,50.93695619],[3.95070078,50.93696293],[3.95065112,50.93702213],[3.95057071,50.93699489],[3.95059204,50.9369685],[3.95056074,50.93695779],[3.95059371,50.93691687],[3.95061055,50.93692253],[3.95068735,50.93694836]]]}},{"type":"Feature","id":"gebouw/Gebouw.13218016/0","properties":{"source":"Digitaal Vlaanderen Gebouwenregister","source_id":"gebouw/Gebouw.13218016/0","kind":"building","building":"official","height_m":8.1,"status":null},"geometry":{"type":"Polygon","coordinates":[[[3.95066628,50.93670222],[3.95060959,50.93668309],[3.95069634,50.93657831],[3.9507516,50.93659729],[3.95066628,50.93670222]]]}},{"type":"Feature","id":"gebouw/Gebouw.13218576/0","properties":{"source":"Digitaal Vlaanderen Gebouwenregister","source_id":"gebouw/Gebouw.13218576/0","kind":"building","building":"official","height_m":5.1,"status":null},"geometry":{"type":"Polygon","coordinates":[[[3.95162123,50.94082324],[3.95156675,50.94079885],[3.95161694,50.9407541],[3.95166878,50.94077923],[3.95162123,50.94082324]]]}},{"type":"Feature","id":"gebouw/Gebouw.13226541/0","properties":{"source":"Digitaal Vlaanderen Gebouwenregister","source_id":"gebouw/Gebouw.13226541/0","kind":"building","building":"official","height_m":7.35,"status":null},"geometry":{"type":"Polygon","coordinates":[[[3.94954341,50.93719387],[3.94945838,50.9371676],[3.94940075,50.93724345],[3.94932055,50.93734902],[3.9494015,50.93737358],[3.94954341,50.93719387]]]}},{"type":"Feature","id":"gebouw/Gebouw.13226621/0","properties":{"source":"Digitaal Vlaanderen Gebouwenregister","source_id":"gebouw/Gebouw.13226621/0","kind":"building","building":"official","height_m":8.85,"status":null},"geometry":{"type":"Polygon","coordinates":[[[3.95077382,50.94146899],[3.95072634,50.94150412],[3.95070879,50.94149477],[3.95067631,50.94151881],[3.9506937,50.94152826],[3.95064473,50.94156454],[3.95054256,50.94151033],[3.95059203,50.94147418],[3.95067425,50.94141409],[3.95077382,50.94146899]]]}},{"type":"Feature","id":"gebouw/Gebouw.13228782/0","properties":{"source":"Digitaal Vlaanderen Gebouwenregister","source_id":"gebouw/Gebouw.13228782/0","kind":"building","building":"official","height_m":5.1,"status":null},"geometry":{"type":"Polygon","coordinates":[[[3.9512612,50.93797157],[3.95119077,50.93805096],[3.95115598,50.93803785],[3.95127875,50.93789564],[3.95121973,50.93787273],[3.95119411,50.93789863],[3.95114417,50.93787993],[3.95113864,50.93787785],[3.95119785,50.93781232],[3.95125895,50.93774961],[3.95129894,50.93770857],[3.95130997,50.93771266],[3.9513725,50.93773588],[3.95144604,50.93776319],[3.95142526,50.93778449],[3.9512612,50.93797157]]]}},{"type":"Feature","id":"gebouw/Gebouw.13240139/0","properties":{"source":"Digitaal Vlaanderen Gebouwenregister","source_id":"gebouw/Gebouw.13240139/0","kind":"building","building":"official","height_m":8.85,"status":null},"geometry":{"type":"Polygon","coordinates":[[[3.9513139,50.93799068],[3.95140609,50.93788925],[3.9515121,50.93792627],[3.95158508,50.93784476],[3.95158426,50.93784445],[3.95142668,50.93778502],[3.95142526,50.93778449],[3.9512612,50.93797157],[3.9513139,50.93799068]]]}},{"type":"Feature","id":"gebouw/Gebouw.13247250/0","properties":{"source":"Digitaal Vlaanderen Gebouwenregister","source_id":"gebouw/Gebouw.13247250/0","kind":"building","building":"official","height_m":5.1,"status":null},"geometry":{"type":"Polygon","coordinates":[[[3.94519073,50.93584588],[3.94520934,50.93586068],[3.94512316,50.93590216],[3.94510054,50.93588545],[3.94519073,50.93584588]]]}},{"type":"Feature","id":"gebouw/Gebouw.13248910/0","properties":{"source":"Digitaal Vlaanderen Gebouwenregister","source_id":"gebouw/Gebouw.13248910/0","kind":"building","building":"official","height_m":8.1,"status":null},"geometry":{"type":"Polygon","coordinates":[[[3.94686306,50.9359268],[3.94683724,50.93594797],[3.94681834,50.9359362],[3.94671284,50.93587289],[3.94672489,50.93586454],[3.94663691,50.93581003],[3.94677553,50.93572278],[3.94679654,50.93573919],[3.94675163,50.93576567],[3.94681329,50.9358083],[3.9468169,50.93580592],[3.94685242,50.93582748],[3.94683516,50.93583911],[3.94691366,50.93588532],[3.94689116,50.93590377],[3.94688377,50.93590982],[3.94686306,50.9359268]]]}},{"type":"Feature","id":"gebouw/Gebouw.13254236/0","properties":{"source":"Digitaal Vlaanderen Gebouwenregister","source_id":"gebouw/Gebouw.13254236/0","kind":"building","building":"official","height_m":6.6,"status":null},"geometry":{"type":"Polygon","coordinates":[[[3.94989744,50.937454],[3.94987203,50.93744314],[3.94988755,50.93742646],[3.94985668,50.93741448],[3.94981896,50.93745546],[3.94983336,50.93746015],[3.94982032,50.93747554],[3.94981201,50.93748054],[3.94980803,50.93748546],[3.94980283,50.93748389],[3.94979763,50.9374903],[3.94979384,50.93748935],[3.94975427,50.93753618],[3.94972429,50.93752617],[3.9497748,50.93746471],[3.94977022,50.93746256],[3.94980642,50.93742153],[3.94982154,50.93740439],[3.94993972,50.93727042],[3.95003085,50.93729899],[3.94989744,50.937454]]]}},{"type":"Feature","id":"gebouw/Gebouw.13254492/0","properties":{"source":"Digitaal Vlaanderen Gebouwenregister","source_id":"gebouw/Gebouw.13254492/0","kind":"building","building":"official","height_m":5.1,"status":null},"geometry":{"type":"Polygon","coordinates":[[[3.95066458,50.94089857],[3.9505644,50.94097361],[3.95047761,50.9409245],[3.95057996,50.94084796],[3.95066458,50.94089857]]]}},{"type":"Feature","id":"gebouw/Gebouw.13254762/0","properties":{"source":"Digitaal Vlaanderen Gebouwenregister","source_id":"gebouw/Gebouw.13254762/0","kind":"building","building":"official","height_m":5.1,"status":null},"geometry":{"type":"Polygon","coordinates":[[[3.95076244,50.94080641],[3.95075791,50.94081015],[3.95065377,50.94075778],[3.95066058,50.94075231],[3.95066606,50.94074792],[3.95061938,50.94072117],[3.95058779,50.94070307],[3.9506595,50.94065302],[3.95067533,50.94066304],[3.95075317,50.94060023],[3.95084095,50.94064679],[3.95083756,50.94065008],[3.95088868,50.94067641],[3.95083999,50.9407165],[3.95085902,50.94072656],[3.95076244,50.94080641]]]}},{"type":"Feature","id":"gebouw/Gebouw.13260753/0","properties":{"source":"Digitaal Vlaanderen Gebouwenregister","source_id":"gebouw/Gebouw.13260753/0","kind":"building","building":"official","height_m":7.35,"status":null},"geometry":{"type":"Polygon","coordinates":[[[3.9508841,50.94091101],[3.95085258,50.94093574],[3.95080125,50.94090835],[3.95082983,50.94088367],[3.9508841,50.94091101]]]}},{"type":"Feature","id":"gebouw/Gebouw.13260805/0","properties":{"source":"Digitaal Vlaanderen Gebouwenregister","source_id":"gebouw/Gebouw.13260805/0","kind":"building","building":"official","height_m":5.85,"status":null},"geometry":{"type":"Polygon","coordinates":[[[3.94668116,50.93564427],[3.94671847,50.93568385],[3.94660046,50.93572865],[3.94651984,50.93564398],[3.94663077,50.93560316],[3.94660843,50.9355885],[3.94667847,50.93554463],[3.94670798,50.93556486],[3.94667417,50.9355818],[3.94663891,50.93559945],[3.94668116,50.93564427]]]}},{"type":"Feature","id":"gebouw/Gebouw.13270610/0","properties":{"source":"Digitaal Vlaanderen Gebouwenregister","source_id":"gebouw/Gebouw.13270610/0","kind":"building","building":"official","height_m":6.6,"status":null},"geometry":{"type":"Polygon","coordinates":[[[3.94691366,50.93588532],[3.94695773,50.93591327],[3.94690812,50.93595159],[3.94686306,50.9359268],[3.94691366,50.93588532]]]}},{"type":"Feature","id":"gebouw/Gebouw.13272734/0","properties":{"source":"Digitaal Vlaanderen Gebouwenregister","source_id":"gebouw/Gebouw.13272734/0","kind":"building","building":"official","height_m":6.6,"status":null},"geometry":{"type":"Polygon","coordinates":[[[3.94866203,50.93723669],[3.94859635,50.93720139],[3.94862587,50.93717915],[3.94868936,50.93721638],[3.94866203,50.93723669]]]}},{"type":"Feature","id":"gebouw/Gebouw.13275765/0","properties":{"source":"Digitaal Vlaanderen Gebouwenregister","source_id":"gebouw/Gebouw.13275765/0","kind":"building","building":"official","height_m":7.35,"status":null},"geometry":{"type":"Polygon","coordinates":[[[3.94620227,50.93562106],[3.94607632,50.9356786],[3.9459342,50.93554931],[3.94604322,50.93550084],[3.94609991,50.93555159],[3.94613062,50.93557907],[3.94614716,50.935572],[3.94620227,50.93562106]]]}},{"type":"Feature","id":"gebouw/Gebouw.13278626/0","properties":{"source":"Digitaal Vlaanderen Gebouwenregister","source_id":"gebouw/Gebouw.13278626/0","kind":"building","building":"official","height_m":6.6,"status":null},"geometry":{"type":"Polygon","coordinates":[[[3.94637071,50.93611744],[3.94641205,50.93609894],[3.94645189,50.93608111],[3.94660583,50.93601221],[3.94653975,50.93594396],[3.94640204,50.93599883],[3.94631875,50.93603201],[3.94632765,50.93604109],[3.9463444,50.93603458],[3.94639079,50.93608043],[3.94628804,50.93612307],[3.94630849,50.9361453],[3.94637071,50.93611744]]]}},{"type":"Feature","id":"gebouw/Gebouw.13295435/0","properties":{"source":"Digitaal Vlaanderen Gebouwenregister","source_id":"gebouw/Gebouw.13295435/0","kind":"building","building":"official","height_m":8.85,"status":null},"geometry":{"type":"Polygon","coordinates":[[[3.95185755,50.94090722],[3.95185005,50.94090393],[3.95183813,50.94091479],[3.95173029,50.94086896],[3.95176242,50.94083707],[3.95174563,50.94082824],[3.95175119,50.9408224],[3.95175989,50.9407958],[3.95174757,50.94079031],[3.95175893,50.94077922],[3.95194635,50.94085795],[3.95191402,50.94088743],[3.95189987,50.94088123],[3.95187844,50.94090076],[3.95186912,50.94089668],[3.95185755,50.94090722]]]}},{"type":"Feature","id":"gebouw/Gebouw.13298450/0","properties":{"source":"Digitaal Vlaanderen Gebouwenregister","source_id":"gebouw/Gebouw.13298450/0","kind":"building","building":"official","height_m":6.6,"status":null},"geometry":{"type":"Polygon","coordinates":[[[3.95157078,50.93666569],[3.95159557,50.93664125],[3.95156249,50.93662729],[3.95158722,50.93660263],[3.95169794,50.93663908],[3.95171031,50.93662544],[3.95166098,50.93660872],[3.95144629,50.93652271],[3.95137494,50.93659201],[3.95156461,50.93667178],[3.95157078,50.93666569]]]}},{"type":"Feature","id":"gebouw/Gebouw.13298486/0","properties":{"source":"Digitaal Vlaanderen Gebouwenregister","source_id":"gebouw/Gebouw.13298486/0","kind":"building","building":"official","height_m":6.6,"status":null},"geometry":{"type":"Polygon","coordinates":[[[3.94723809,50.93613869],[3.94726037,50.93612004],[3.94731723,50.93607246],[3.94734573,50.93604861],[3.94730707,50.93602836],[3.94721694,50.93610236],[3.9472005,50.93611586],[3.94720463,50.93611803],[3.94718684,50.93613252],[3.94714206,50.93611053],[3.94712521,50.93612575],[3.94707738,50.93616896],[3.94706868,50.93617681],[3.94714829,50.93621384],[3.94723809,50.93613869]]]}},{"type":"Feature","id":"gebouw/Gebouw.13300542/0","properties":{"source":"Digitaal Vlaanderen Gebouwenregister","source_id":"gebouw/Gebouw.13300542/0","kind":"building","building":"official","height_m":5.1,"status":null},"geometry":{"type":"Polygon","coordinates":[[[3.94703494,50.93615578],[3.94692393,50.93609112],[3.94682075,50.93602808],[3.94689252,50.93598808],[3.94709193,50.93611146],[3.94712521,50.93612575],[3.94707738,50.93616896],[3.94704159,50.93615061],[3.94703494,50.93615578]]]}},{"type":"Feature","id":"gebouw/Gebouw.13303376/0","properties":{"source":"Digitaal Vlaanderen Gebouwenregister","source_id":"gebouw/Gebouw.13303376/0","kind":"building","building":"official","height_m":6.6,"status":null},"geometry":{"type":"Polygon","coordinates":[[[3.95113829,50.93616726],[3.95122353,50.93619596],[3.9511978,50.93622597],[3.95111271,50.93619745],[3.95113829,50.93616726]]]}},{"type":"Feature","id":"gebouw/Gebouw.13306148/0","properties":{"source":"Digitaal Vlaanderen Gebouwenregister","source_id":"gebouw/Gebouw.13306148/0","kind":"building","building":"official","height_m":6.6,"status":null},"geometry":{"type":"Polygon","coordinates":[[[3.94417255,50.93529993],[3.94411256,50.9352518],[3.94419327,50.9352115],[3.94425302,50.93525978],[3.94417255,50.93529993]]]}},{"type":"Feature","id":"gebouw/Gebouw.13306735/0","properties":{"source":"Digitaal Vlaanderen Gebouwenregister","source_id":"gebouw/Gebouw.13306735/0","kind":"building","building":"official","height_m":5.85,"status":null},"geometry":{"type":"Polygon","coordinates":[[[3.9482975,50.93544227],[3.94824292,50.93541787],[3.94826944,50.93539579],[3.94832117,50.93541972],[3.9482975,50.93544227]]]}},{"type":"Feature","id":"gebouw/Gebouw.13312831/0","properties":{"source":"Digitaal Vlaanderen Gebouwenregister","source_id":"gebouw/Gebouw.13312831/0","kind":"building","building":"official","height_m":5.85,"status":null},"geometry":{"type":"Polygon","coordinates":[[[3.95165587,50.93657269],[3.95157644,50.93654157],[3.95160489,50.93651199],[3.95161318,50.93650337],[3.95151393,50.93645904],[3.95144629,50.93652271],[3.95166098,50.93660872],[3.95168641,50.93658466],[3.95165587,50.93657269]]]}},{"type":"Feature","id":"gebouw/Gebouw.13313191/0","properties":{"source":"Digitaal Vlaanderen Gebouwenregister","source_id":"gebouw/Gebouw.13313191/0","kind":"building","building":"official","height_m":5.85,"status":null},"geometry":{"type":"Polygon","coordinates":[[[3.95097319,50.94133271],[3.95092265,50.94131036],[3.95081574,50.94126309],[3.95076856,50.94130885],[3.95081475,50.94132928],[3.95075779,50.94138106],[3.95086729,50.94142839],[3.95097319,50.94133271]]]}},{"type":"Feature","id":"gebouw/Gebouw.13316445/0","properties":{"source":"Digitaal Vlaanderen Gebouwenregister","source_id":"gebouw/Gebouw.13316445/0","kind":"building","building":"official","height_m":7.35,"status":null},"geometry":{"type":"Polygon","coordinates":[[[3.95158706,50.93682501],[3.95163637,50.93677262],[3.95168975,50.93679723],[3.95162113,50.93681983],[3.95163367,50.9368375],[3.95168434,50.93682146],[3.95173479,50.93680548],[3.95175678,50.93679327],[3.95174253,50.93678679],[3.95159862,50.93672136],[3.95151723,50.93668435],[3.95151098,50.93669066],[3.95138615,50.93665267],[3.95133994,50.93670765],[3.95139899,50.93672702],[3.95138972,50.93673785],[3.95145755,50.93676103],[3.95146576,50.9367507],[3.95153957,50.93677546],[3.9515173,50.93679895],[3.9514498,50.93686207],[3.95147776,50.93689395],[3.95162602,50.93683944],[3.95158706,50.93682501]]]}},{"type":"Feature","id":"gebouw/Gebouw.13319169/0","properties":{"source":"Digitaal Vlaanderen Gebouwenregister","source_id":"gebouw/Gebouw.13319169/0","kind":"building","building":"official","height_m":7.35,"status":null},"geometry":{"type":"Polygon","coordinates":[[[3.94739438,50.9357989],[3.94748341,50.93573572],[3.94758832,50.93579652],[3.94750145,50.93585866],[3.94739438,50.9357989]]]}},{"type":"Feature","id":"gebouw/Gebouw.13329663/0","properties":{"source":"Digitaal Vlaanderen Gebouwenregister","source_id":"gebouw/Gebouw.13329663/0","kind":"building","building":"official","height_m":7.35,"status":null},"geometry":{"type":"Polygon","coordinates":[[[3.95099619,50.93788557],[3.95100009,50.93788076],[3.9510036,50.93787643],[3.95093852,50.93785513],[3.95082298,50.93781731],[3.95082149,50.9378191],[3.9507673,50.9378842],[3.95081498,50.93789953],[3.95094974,50.93794287],[3.95099619,50.93788557]]]}},{"type":"Feature","id":"gebouw/Gebouw.13339343/0","properties":{"source":"Digitaal Vlaanderen Gebouwenregister","source_id":"gebouw/Gebouw.13339343/0","kind":"building","building":"official","height_m":8.85,"status":null},"geometry":{"type":"Polygon","coordinates":[[[3.95193916,50.93617319],[3.95190965,50.93621028],[3.9519019,50.93620782],[3.95187174,50.93619824],[3.95179327,50.9361733],[3.95175564,50.93616135],[3.95172971,50.93615311],[3.95173972,50.93614064],[3.95179137,50.93607629],[3.95179907,50.93607874],[3.9518925,50.9361084],[3.95191071,50.93611418],[3.95187957,50.93615421],[3.95193916,50.93617319]]]}},{"type":"Feature","id":"gebouw/Gebouw.13341746/0","properties":{"source":"Digitaal Vlaanderen Gebouwenregister","source_id":"gebouw/Gebouw.13341746/0","kind":"building","building":"official","height_m":6.6,"status":null},"geometry":{"type":"Polygon","coordinates":[[[3.95039837,50.9369725],[3.95039419,50.93697763],[3.95025927,50.9369339],[3.95031617,50.93686352],[3.9503712,50.9368822],[3.95038257,50.93686961],[3.95046085,50.93689564],[3.95039837,50.9369725]]]}},{"type":"Feature","id":"gebouw/Gebouw.13345885/0","properties":{"source":"Digitaal Vlaanderen Gebouwenregister","source_id":"gebouw/Gebouw.13345885/0","kind":"building","building":"official","height_m":5.85,"status":null},"geometry":{"type":"Polygon","coordinates":[[[3.94643933,50.93579834],[3.94642168,50.93577903],[3.94622838,50.93585641],[3.94623217,50.93586014],[3.94629195,50.93591869],[3.94633496,50.93590177],[3.94645344,50.9358552],[3.94641092,50.9358092],[3.94643933,50.93579834]]]}},{"type":"Feature","id":"gebouw/Gebouw.13372498/0","properties":{"source":"Digitaal Vlaanderen Gebouwenregister","source_id":"gebouw/Gebouw.13372498/0","kind":"building","building":"official","height_m":8.1,"status":null},"geometry":{"type":"Polygon","coordinates":[[[3.95016074,50.93730931],[3.95022515,50.93733946],[3.95018881,50.93737248],[3.95012251,50.93734334],[3.95014405,50.93732417],[3.95016074,50.93730931]]]}},{"type":"Feature","id":"gebouw/Gebouw.13376891/0","properties":{"source":"Digitaal Vlaanderen Gebouwenregister","source_id":"gebouw/Gebouw.13376891/0","kind":"building","building":"official","height_m":8.85,"status":null},"geometry":{"type":"Polygon","coordinates":[[[3.94968148,50.93687137],[3.9496007,50.93684613],[3.9496249,50.9368187],[3.94970404,50.93684317],[3.94968148,50.93687137]]]}},{"type":"Feature","id":"gebouw/Gebouw.13382008/0","properties":{"source":"Digitaal Vlaanderen Gebouwenregister","source_id":"gebouw/Gebouw.13382008/0","kind":"building","building":"official","height_m":8.1,"status":null},"geometry":{"type":"Polygon","coordinates":[[[3.95092724,50.9369577],[3.95075811,50.9369002],[3.95073467,50.93692985],[3.95078678,50.93694759],[3.95076506,50.93697622],[3.95078765,50.93698365],[3.9508806,50.93701425],[3.95092724,50.9369577]]]}},{"type":"Feature","id":"gebouw/Gebouw.13385038/0","properties":{"source":"Digitaal Vlaanderen Gebouwenregister","source_id":"gebouw/Gebouw.13385038/0","kind":"building","building":"official","height_m":8.1,"status":null},"geometry":{"type":"Polygon","coordinates":[[[3.95156282,50.93773202],[3.95155836,50.93773015],[3.95156114,50.93772784],[3.95152103,50.93771197],[3.95151826,50.93771446],[3.95144179,50.9376844],[3.95145178,50.93767426],[3.95135686,50.93763583],[3.95133403,50.93762659],[3.95137229,50.93758456],[3.95144438,50.93761393],[3.95148783,50.9375729],[3.95153359,50.93759131],[3.95161794,50.93750578],[3.95165792,50.93752295],[3.95159917,50.93758421],[3.9516129,50.93759076],[3.9516112,50.93759227],[3.95160398,50.93759869],[3.95166618,50.93762391],[3.95166986,50.9376254],[3.95156282,50.93773202]]]}},{"type":"Feature","id":"gebouw/Gebouw.13389511/0","properties":{"source":"Digitaal Vlaanderen Gebouwenregister","source_id":"gebouw/Gebouw.13389511/0","kind":"building","building":"official","height_m":5.85,"status":null},"geometry":{"type":"Polygon","coordinates":[[[3.95187545,50.93908574],[3.95170829,50.93902415],[3.95168409,50.93905097],[3.95161463,50.93902453],[3.95164438,50.93899263],[3.95164035,50.9389908],[3.95167688,50.93895095],[3.95170674,50.93896316],[3.95174666,50.93891986],[3.95185906,50.93896008],[3.95188954,50.93892727],[3.95198462,50.93896242],[3.95187545,50.93908574]]]}},{"type":"Feature","id":"gebouw/Gebouw.13389911/0","properties":{"source":"Digitaal Vlaanderen Gebouwenregister","source_id":"gebouw/Gebouw.13389911/0","kind":"building","building":"official","height_m":8.85,"status":null},"geometry":{"type":"Polygon","coordinates":[[[3.95098344,50.9400722],[3.95094222,50.94005481],[3.95095768,50.94003969],[3.95096242,50.94004152],[3.95097137,50.94003193],[3.95096568,50.94002934],[3.95098525,50.94001018],[3.95102671,50.94002772],[3.95098344,50.9400722]]]}},{"type":"Feature","id":"gebouw/Gebouw.13390231/0","properties":{"source":"Digitaal Vlaanderen Gebouwenregister","source_id":"gebouw/Gebouw.13390231/0","kind":"building","building":"official","height_m":5.85,"status":null},"geometry":{"type":"Polygon","coordinates":[[[3.94742017,50.93608763],[3.94738813,50.93611238],[3.94731723,50.93607246],[3.94734573,50.93604861],[3.9474054,50.93607989],[3.94742017,50.93608763]]]}},{"type":"Feature","id":"gebouw/Gebouw.13390263/0","properties":{"source":"Digitaal Vlaanderen Gebouwenregister","source_id":"gebouw/Gebouw.13390263/0","kind":"building","building":"official","height_m":7.35,"status":null},"geometry":{"type":"Polygon","coordinates":[[[3.95200489,50.941229],[3.95191455,50.94128226],[3.95178152,50.94118216],[3.95187277,50.94113237],[3.95192239,50.94116866],[3.95200489,50.941229]]]}},{"type":"Feature","id":"gebouw/Gebouw.13393185/0","properties":{"source":"Digitaal Vlaanderen Gebouwenregister","source_id":"gebouw/Gebouw.13393185/0","kind":"building","building":"official","height_m":7.35,"status":null},"geometry":{"type":"Polygon","coordinates":[[[3.94612323,50.93580398],[3.94617997,50.93577837],[3.94619732,50.93577055],[3.9461476,50.9357266],[3.9461137,50.93569536],[3.94602231,50.93573485],[3.94582468,50.93582024],[3.94593601,50.93588846],[3.94599807,50.93586046],[3.94612323,50.93580398]]]}},{"type":"Feature","id":"gebouw/Gebouw.13400626/0","properties":{"source":"Digitaal Vlaanderen Gebouwenregister","source_id":"gebouw/Gebouw.13400626/0","kind":"building","building":"official","height_m":8.1,"status":null},"geometry":{"type":"Polygon","coordinates":[[[3.9506013,50.94035363],[3.95056514,50.94031458],[3.9506121,50.94029602],[3.95064591,50.94033309],[3.9506013,50.94035363]]]}},{"type":"Feature","id":"gebouw/Gebouw.13406415/0","properties":{"source":"Digitaal Vlaanderen Gebouwenregister","source_id":"gebouw/Gebouw.13406415/0","kind":"building","building":"official","height_m":7.35,"status":null},"geometry":{"type":"Polygon","coordinates":[[[3.94884605,50.94187663],[3.94879023,50.94183385],[3.94876598,50.94184648],[3.94882181,50.94188926],[3.94884605,50.94187663]]]}},{"type":"Feature","id":"gebouw/Gebouw.13410621/0","properties":{"source":"Digitaal Vlaanderen Gebouwenregister","source_id":"gebouw/Gebouw.13410621/0","kind":"building","building":"official","height_m":7.35,"status":null},"geometry":{"type":"Polygon","coordinates":[[[3.95167082,50.93638244],[3.95164735,50.93641215],[3.9517426,50.93644049],[3.95176498,50.93641045],[3.95167082,50.93638244]]]}},{"type":"Feature","id":"gebouw/Gebouw.13417839/0","properties":{"source":"Digitaal Vlaanderen Gebouwenregister","source_id":"gebouw/Gebouw.13417839/0","kind":"building","building":"official","height_m":7.35,"status":null},"geometry":{"type":"Polygon","coordinates":[[[3.95167316,50.93775246],[3.95174684,50.93767848],[3.95166534,50.9376443],[3.9515783,50.93773788],[3.95165719,50.93776848],[3.95167316,50.93775246]]]}},{"type":"Feature","id":"gebouw/Gebouw.13422709/0","properties":{"source":"Digitaal Vlaanderen Gebouwenregister","source_id":"gebouw/Gebouw.13422709/0","kind":"building","building":"official","height_m":5.85,"status":null},"geometry":{"type":"Polygon","coordinates":[[[3.9514756,50.94178411],[3.95138351,50.94183559],[3.95118791,50.94169268],[3.95127465,50.94164121],[3.95132511,50.94167709],[3.9514756,50.94178411]]]}},{"type":"Feature","id":"gebouw/Gebouw.13422848/0","properties":{"source":"Digitaal Vlaanderen Gebouwenregister","source_id":"gebouw/Gebouw.13422848/0","kind":"building","building":"official","height_m":6.6,"status":null},"geometry":{"type":"Polygon","coordinates":[[[3.94572876,50.93598198],[3.94574015,50.93597685],[3.94578773,50.93595537],[3.94576673,50.93593492],[3.94570609,50.93595993],[3.94568877,50.93594308],[3.9456613,50.93595547],[3.94569999,50.93599496],[3.94572876,50.93598198]]]}},{"type":"Feature","id":"gebouw/Gebouw.13427757/0","properties":{"source":"Digitaal Vlaanderen Gebouwenregister","source_id":"gebouw/Gebouw.13427757/0","kind":"building","building":"official","height_m":7.35,"status":null},"geometry":{"type":"Polygon","coordinates":[[[3.95147012,50.93756395],[3.95146427,50.93753892],[3.9515244,50.93753248],[3.95152953,50.93755795],[3.95147012,50.93756395]]]}},{"type":"Feature","id":"gebouw/Gebouw.13438837/0","properties":{"source":"Digitaal Vlaanderen Gebouwenregister","source_id":"gebouw/Gebouw.13438837/0","kind":"building","building":"official","height_m":5.85,"status":null},"geometry":{"type":"Polygon","coordinates":[[[3.951626,50.94125736],[3.95162488,50.94125791],[3.95162346,50.94125861],[3.95157163,50.94128411],[3.95156733,50.94128623],[3.95171351,50.94141773],[3.95176006,50.9413948],[3.95180364,50.94143218],[3.95185176,50.94140828],[3.95182992,50.94139073],[3.9518897,50.94136103],[3.95187016,50.94134346],[3.95188144,50.94133765],[3.95178533,50.94125521],[3.95168621,50.94130616],[3.951626,50.94125736]]]}},{"type":"Feature","id":"gebouw/Gebouw.13441476/0","properties":{"source":"Digitaal Vlaanderen Gebouwenregister","source_id":"gebouw/Gebouw.13441476/0","kind":"building","building":"official","height_m":5.1,"status":null},"geometry":{"type":"Polygon","coordinates":[[[3.95194652,50.93775451],[3.95192045,50.93774629],[3.95195917,50.93769725],[3.95197366,50.93770182],[3.95197938,50.93769457],[3.9519908,50.93769817],[3.95199296,50.93769542],[3.9520306,50.93764753],[3.95200084,50.93763866],[3.95201665,50.93761541],[3.95197038,50.93760108],[3.95192477,50.93765885],[3.95181406,50.93779909],[3.95181514,50.93779949],[3.95181524,50.93779952],[3.95189225,50.93782356],[3.95194652,50.93775451]]]}},{"type":"Feature","id":"gebouw/Gebouw.13443001/0","properties":{"source":"Digitaal Vlaanderen Gebouwenregister","source_id":"gebouw/Gebouw.13443001/0","kind":"building","building":"official","height_m":5.85,"status":null},"geometry":{"type":"Polygon","coordinates":[[[3.94656151,50.9361575],[3.9465338,50.93617123],[3.9464697,50.93611716],[3.946486,50.93610989],[3.94645189,50.93608111],[3.94660583,50.93601221],[3.94663981,50.93603981],[3.94658459,50.93606734],[3.94660346,50.93608271],[3.94661021,50.93608085],[3.94665012,50.93611358],[3.94661355,50.9361317],[3.94656151,50.9361575]]]}},{"type":"Feature","id":"gebouw/Gebouw.13447838/0","properties":{"source":"Digitaal Vlaanderen Gebouwenregister","source_id":"gebouw/Gebouw.13447838/0","kind":"building","building":"official","height_m":6.6,"status":null},"geometry":{"type":"Polygon","coordinates":[[[3.94940075,50.93724345],[3.94932055,50.93734902],[3.9491506,50.93729544],[3.9492329,50.93719203],[3.9492851,50.93720818],[3.94924023,50.93726474],[3.94931009,50.93728818],[3.94935625,50.93722863],[3.94931105,50.93721739],[3.94937274,50.93714115],[3.94945838,50.9371676],[3.94940075,50.93724345]]]}},{"type":"Feature","id":"gebouw/Gebouw.13458011/0","properties":{"source":"Digitaal Vlaanderen Gebouwenregister","source_id":"gebouw/Gebouw.13458011/0","kind":"building","building":"official","height_m":8.85,"status":null},"geometry":{"type":"Polygon","coordinates":[[[3.94625195,50.9363945],[3.94620792,50.93641076],[3.94612962,50.93632217],[3.9461751,50.93630487],[3.94625195,50.9363945]]]}},{"type":"Feature","id":"gebouw/Gebouw.13460537/0","properties":{"source":"Digitaal Vlaanderen Gebouwenregister","source_id":"gebouw/Gebouw.13460537/0","kind":"building","building":"official","height_m":8.85,"status":null},"geometry":{"type":"Polygon","coordinates":[[[3.94533551,50.93533234],[3.94527455,50.93532097],[3.9452881,50.93529159],[3.94534788,50.9353028],[3.94533551,50.93533234]]]}},{"type":"Feature","id":"gebouw/Gebouw.13462550/0","properties":{"source":"Digitaal Vlaanderen Gebouwenregister","source_id":"gebouw/Gebouw.13462550/0","kind":"building","building":"official","height_m":6.6,"status":null},"geometry":{"type":"Polygon","coordinates":[[[3.94595076,50.93805502],[3.94590182,50.93802565],[3.94593483,50.93800647],[3.94598263,50.93803402],[3.94595076,50.93805502]]]}},{"type":"Feature","id":"gebouw/Gebouw.13500582/0","properties":{"source":"Digitaal Vlaanderen Gebouwenregister","source_id":"gebouw/Gebouw.13500582/0","kind":"building","building":"official","height_m":5.1,"status":null},"geometry":{"type":"Polygon","coordinates":[[[3.94673078,50.93535979],[3.94681431,50.93541381],[3.94663479,50.93552648],[3.94658961,50.9354976],[3.94658574,50.93550019],[3.94654655,50.93547554],[3.94671457,50.93536997],[3.94673078,50.93535979]]]}},{"type":"Feature","id":"gebouw/Gebouw.13505099/0","properties":{"source":"Digitaal Vlaanderen Gebouwenregister","source_id":"gebouw/Gebouw.13505099/0","kind":"building","building":"official","height_m":8.85,"status":null},"geometry":{"type":"Polygon","coordinates":[[[3.95179781,50.94161644],[3.95154429,50.9414289],[3.9515433,50.94142944],[3.95134323,50.94153752],[3.95129692,50.94156253],[3.95122139,50.94160333],[3.95127465,50.9416412],[3.95129202,50.94165356],[3.95132511,50.94167709],[3.9514756,50.94178411],[3.95173889,50.94197135],[3.95204166,50.9417962],[3.95204262,50.94179563],[3.95192989,50.94171806],[3.95192789,50.94171668],[3.95193079,50.94171481],[3.95179781,50.94161644]]]}},{"type":"Feature","id":"gebouw/Gebouw.13512413/0","properties":{"source":"Digitaal Vlaanderen Gebouwenregister","source_id":"gebouw/Gebouw.13512413/0","kind":"building","building":"official","height_m":8.85,"status":null},"geometry":{"type":"Polygon","coordinates":[[[3.94850539,50.94171656],[3.94839482,50.94163597],[3.94845666,50.94160192],[3.94856864,50.94168328],[3.94850539,50.94171656]]]}},{"type":"Feature","id":"gebouw/Gebouw.13512812/0","properties":{"source":"Digitaal Vlaanderen Gebouwenregister","source_id":"gebouw/Gebouw.13512812/0","kind":"building","building":"official","height_m":6.6,"status":null},"geometry":{"type":"Polygon","coordinates":[[[3.94327367,50.941383],[3.94311446,50.94128417],[3.94322558,50.94121271],[3.94328297,50.94124732],[3.94326553,50.94125906],[3.94333209,50.9412987],[3.94332821,50.94130168],[3.9433658,50.94132426],[3.94327367,50.941383]]]}},{"type":"Feature","id":"gebouw/Gebouw.13532997/0","properties":{"source":"Digitaal Vlaanderen Gebouwenregister","source_id":"gebouw/Gebouw.13532997/0","kind":"building","building":"official","height_m":7.35,"status":null},"geometry":{"type":"Polygon","coordinates":[[[3.95149493,50.94088],[3.95145444,50.94085939],[3.95141296,50.94083828],[3.95141033,50.94084023],[3.95135301,50.94088267],[3.95136011,50.94088602],[3.95128954,50.94094059],[3.95144882,50.9410209],[3.95148288,50.94099523],[3.95148379,50.94099454],[3.95146453,50.94098433],[3.95151602,50.94094551],[3.95155909,50.94091267],[3.95149493,50.94088]]]}},{"type":"Feature","id":"gebouw/Gebouw.13538142/0","properties":{"source":"Digitaal Vlaanderen Gebouwenregister","source_id":"gebouw/Gebouw.13538142/0","kind":"building","building":"official","height_m":5.1,"status":null},"geometry":{"type":"Polygon","coordinates":[[[3.94671457,50.93536997],[3.94654655,50.93547554],[3.94646456,50.93542377],[3.94649261,50.93540572],[3.94656613,50.93535844],[3.94657022,50.93536069],[3.94661096,50.93533492],[3.94666957,50.93537468],[3.94669673,50.93535757],[3.94671457,50.93536997]]]}},{"type":"Feature","id":"gebouw/Gebouw.13538151/0","properties":{"source":"Digitaal Vlaanderen Gebouwenregister","source_id":"gebouw/Gebouw.13538151/0","kind":"building","building":"official","height_m":7.35,"status":null},"geometry":{"type":"Polygon","coordinates":[[[3.95129734,50.94115555],[3.95123182,50.94120629],[3.9510676,50.9411205],[3.95109915,50.94109679],[3.95111618,50.94110607],[3.9511492,50.94107945],[3.95129734,50.94115555]]]}},{"type":"Feature","id":"gebouw/Gebouw.13538707/0","properties":{"source":"Digitaal Vlaanderen Gebouwenregister","source_id":"gebouw/Gebouw.13538707/0","kind":"building","building":"official","height_m":5.85,"status":null},"geometry":{"type":"Polygon","coordinates":[[[3.95199781,50.94065464],[3.95194469,50.94070395],[3.95191789,50.94069272],[3.95183663,50.94076886],[3.95169711,50.94071292],[3.95179199,50.94062477],[3.95184002,50.94058015],[3.95199781,50.94065464]]]}},{"type":"Feature","id":"gebouw/Gebouw.13546460/0","properties":{"source":"Digitaal Vlaanderen Gebouwenregister","source_id":"gebouw/Gebouw.13546460/0","kind":"building","building":"official","height_m":6.6,"status":null},"geometry":{"type":"Polygon","coordinates":[[[3.94602231,50.93573485],[3.94582468,50.93582024],[3.9457983,50.93579528],[3.94587832,50.93576031],[3.94587221,50.93575546],[3.94598983,50.93570494],[3.94602231,50.93573485]]]}},{"type":"Feature","id":"gebouw/Gebouw.13551726/0","properties":{"source":"Digitaal Vlaanderen Gebouwenregister","source_id":"gebouw/Gebouw.13551726/0","kind":"building","building":"official","height_m":5.1,"status":null},"geometry":{"type":"Polygon","coordinates":[[[3.95135668,50.93621224],[3.95127251,50.93618493],[3.95138284,50.93605178],[3.95150617,50.93609384],[3.95141433,50.9362089],[3.95137101,50.936195],[3.95135668,50.93621224]]]}},{"type":"Feature","id":"gebouw/Gebouw.13579641/0","properties":{"source":"Digitaal Vlaanderen Gebouwenregister","source_id":"gebouw/Gebouw.13579641/0","kind":"building","building":"official","height_m":7.35,"status":null},"geometry":{"type":"Polygon","coordinates":[[[3.95053217,50.93700783],[3.95049874,50.93699575],[3.95052999,50.93695843],[3.95056413,50.93697126],[3.95053217,50.93700783]]]}},{"type":"Feature","id":"gebouw/Gebouw.13579901/0","properties":{"source":"Digitaal Vlaanderen Gebouwenregister","source_id":"gebouw/Gebouw.13579901/0","kind":"building","building":"official","height_m":8.85,"status":null},"geometry":{"type":"Polygon","coordinates":[[[3.94993972,50.93727042],[3.94982154,50.93740439],[3.94972172,50.9373687],[3.94977483,50.93730861],[3.94983775,50.93723741],[3.94994025,50.93726951],[3.94993972,50.93727042]]]}},{"type":"Feature","id":"gebouw/Gebouw.13585240/0","properties":{"source":"Digitaal Vlaanderen Gebouwenregister","source_id":"gebouw/Gebouw.13585240/0","kind":"building","building":"official","height_m":8.1,"status":null},"geometry":{"type":"Polygon","coordinates":[[[3.9511337,50.94127398],[3.9509622,50.94119507],[3.95093391,50.94118205],[3.9509261,50.94118925],[3.95093747,50.94119398],[3.95091312,50.94121462],[3.95100001,50.9412559],[3.95096243,50.94128551],[3.95095747,50.94128217],[3.95092265,50.94131036],[3.95097319,50.94133271],[3.95101877,50.94135286],[3.9511337,50.94127398]]]}},{"type":"Feature","id":"gebouw/Gebouw.13585468/0","properties":{"source":"Digitaal Vlaanderen Gebouwenregister","source_id":"gebouw/Gebouw.13585468/0","kind":"building","building":"official","height_m":8.1,"status":null},"geometry":{"type":"Polygon","coordinates":[[[3.94992815,50.93688295],[3.94987787,50.93686622],[3.94991378,50.93682221],[3.94984666,50.93680028],[3.94988439,50.93675194],[3.94993192,50.9367684],[3.94993977,50.9367594],[3.95001363,50.93678455],[3.94992815,50.93688295]]]}},{"type":"Feature","id":"gebouw/Gebouw.13588788/0","properties":{"source":"Digitaal Vlaanderen Gebouwenregister","source_id":"gebouw/Gebouw.13588788/0","kind":"building","building":"official","height_m":5.1,"status":null},"geometry":{"type":"Polygon","coordinates":[[[3.94689546,50.9414767],[3.94683203,50.94143751],[3.94688794,50.94140249],[3.94695158,50.94144273],[3.94689546,50.9414767]]]}},{"type":"Feature","id":"gebouw/Gebouw.13606807/0","properties":{"source":"Digitaal Vlaanderen Gebouwenregister","source_id":"gebouw/Gebouw.13606807/0","kind":"building","building":"official","height_m":5.85,"status":null},"geometry":{"type":"Polygon","coordinates":[[[3.9504471,50.93803983],[3.95046207,50.93802539],[3.95049006,50.93803488],[3.95050022,50.93802379],[3.95054526,50.93804105],[3.95052163,50.93806908],[3.9504471,50.93803983]]]}},{"type":"Feature","id":"gebouw/Gebouw.13607160/0","properties":{"source":"Digitaal Vlaanderen Gebouwenregister","source_id":"gebouw/Gebouw.13607160/0","kind":"building","building":"official","height_m":5.1,"status":null},"geometry":{"type":"Polygon","coordinates":[[[3.95193308,50.93639994],[3.95185751,50.93637588],[3.95161365,50.93629825],[3.95158095,50.93633911],[3.95168034,50.93637039],[3.95169138,50.93635971],[3.95175306,50.93637901],[3.95175787,50.93637299],[3.9518843,50.93641551],[3.95188862,50.9364116],[3.95191767,50.93642072],[3.95193308,50.93639994]]]}},{"type":"Feature","id":"gebouw/Gebouw.13608529/0","properties":{"source":"Digitaal Vlaanderen Gebouwenregister","source_id":"gebouw/Gebouw.13608529/0","kind":"building","building":"official","height_m":5.85,"status":null},"geometry":{"type":"Polygon","coordinates":[[[3.94956636,50.93729645],[3.94952083,50.93728267],[3.94946429,50.93735723],[3.94950673,50.93737007],[3.94951643,50.93737301],[3.94957298,50.93729845],[3.94956636,50.93729645]]]}},{"type":"Feature","id":"gebouw/Gebouw.13634368/0","properties":{"source":"Digitaal Vlaanderen Gebouwenregister","source_id":"gebouw/Gebouw.13634368/0","kind":"building","building":"official","height_m":8.1,"status":null},"geometry":{"type":"Polygon","coordinates":[[[3.94622838,50.93585641],[3.94642168,50.93577903],[3.94637714,50.93573068],[3.94625653,50.93577487],[3.946239,50.9357556],[3.94619732,50.93577055],[3.94617997,50.93577837],[3.94612323,50.93580398],[3.94619193,50.93587127],[3.94622838,50.93585641]]]}},{"type":"Feature","id":"gebouw/Gebouw.13649720/0","properties":{"source":"Digitaal Vlaanderen Gebouwenregister","source_id":"gebouw/Gebouw.13649720/0","kind":"building","building":"official","height_m":6.6,"status":null},"geometry":{"type":"Polygon","coordinates":[[[3.95110497,50.94102228],[3.95106571,50.94105596],[3.95094857,50.9409963],[3.95098886,50.94096379],[3.95109234,50.94101592],[3.95109887,50.94101921],[3.95110497,50.94102228]]]}},{"type":"Feature","id":"gebouw/Gebouw.13660177/0","properties":{"source":"Digitaal Vlaanderen Gebouwenregister","source_id":"gebouw/Gebouw.13660177/0","kind":"building","building":"official","height_m":5.85,"status":null},"geometry":{"type":"Polygon","coordinates":[[[3.95176807,50.93626446],[3.95176051,50.93626209],[3.95175372,50.93625997],[3.9516909,50.9362403],[3.95166705,50.93623284],[3.95161365,50.93629825],[3.95185751,50.93637588],[3.95186704,50.93636469],[3.95185251,50.93636059],[3.95186357,50.93634675],[3.95173809,50.93630483],[3.95176807,50.93626446]]]}},{"type":"Feature","id":"gebouw/Gebouw.13706128/0","properties":{"source":"Digitaal Vlaanderen Gebouwenregister","source_id":"gebouw/Gebouw.13706128/0","kind":"building","building":"official","height_m":8.1,"status":null},"geometry":{"type":"Polygon","coordinates":[[[3.94574452,50.93806231],[3.94571931,50.93801334],[3.94575993,50.93800268],[3.94578727,50.93805243],[3.94574452,50.93806231]]]}},{"type":"Feature","id":"gebouw/Gebouw.13804828/0","properties":{"source":"Digitaal Vlaanderen Gebouwenregister","source_id":"gebouw/Gebouw.13804828/0","kind":"building","building":"official","height_m":8.1,"status":null},"geometry":{"type":"Polygon","coordinates":[[[3.95002363,50.93643583],[3.94999434,50.93642272],[3.95004664,50.93636472],[3.95007645,50.93637573],[3.95002363,50.93643583]]]}},{"type":"Feature","id":"gebouw/Gebouw.13811254/0","properties":{"source":"Digitaal Vlaanderen Gebouwenregister","source_id":"gebouw/Gebouw.13811254/0","kind":"building","building":"official","height_m":8.1,"status":null},"geometry":{"type":"Polygon","coordinates":[[[3.95120898,50.94122284],[3.95111066,50.94116343],[3.95109959,50.94117155],[3.95103906,50.94113864],[3.9509622,50.94119507],[3.9511337,50.94127398],[3.95120801,50.9412235],[3.95120898,50.94122284]]]}},{"type":"Feature","id":"gebouw/Gebouw.13839125/0","properties":{"source":"Digitaal Vlaanderen Gebouwenregister","source_id":"gebouw/Gebouw.13839125/0","kind":"building","building":"official","height_m":8.85,"status":null},"geometry":{"type":"Polygon","coordinates":[[[3.94698235,50.93558304],[3.94696252,50.93559638],[3.94696925,50.93560037],[3.94684141,50.93568089],[3.94677406,50.93563672],[3.94685411,50.93558476],[3.94681597,50.93555956],[3.94685942,50.93553518],[3.94693164,50.93557804],[3.94695146,50.9355647],[3.94698235,50.93558304]]]}},{"type":"Feature","id":"gebouw/Gebouw.13839752/0","properties":{"source":"Digitaal Vlaanderen Gebouwenregister","source_id":"gebouw/Gebouw.13839752/0","kind":"building","building":"official","height_m":6.6,"status":null},"geometry":{"type":"Polygon","coordinates":[[[3.95027398,50.94032713],[3.9504213,50.94040539],[3.95040663,50.94041826],[3.95049986,50.94047188],[3.95044355,50.9405083],[3.95034164,50.94045007],[3.95035704,50.94043901],[3.9502915,50.94040447],[3.95025771,50.94036664],[3.9502362,50.94035403],[3.95025873,50.94033799],[3.95027398,50.94032713]]]}},{"type":"Feature","id":"gebouw/Gebouw.16671385/0","properties":{"source":"Digitaal Vlaanderen Gebouwenregister","source_id":"gebouw/Gebouw.16671385/0","kind":"building","building":"official","height_m":5.85,"status":null},"geometry":{"type":"Polygon","coordinates":[[[3.95058663,50.94070065],[3.95049892,50.94064958],[3.95057012,50.94060179],[3.95065642,50.9406518],[3.95058663,50.94070065]]]}},{"type":"Feature","id":"gebouw/Gebouw.16694470/0","properties":{"source":"Digitaal Vlaanderen Gebouwenregister","source_id":"gebouw/Gebouw.16694470/0","kind":"building","building":"official","height_m":8.1,"status":null},"geometry":{"type":"Polygon","coordinates":[[[3.95073339,50.93812772],[3.95073979,50.93813046],[3.95072308,50.93814815],[3.95062734,50.93811057],[3.95073513,50.93798593],[3.95074131,50.93798816],[3.95075231,50.93799213],[3.95078429,50.9379568],[3.95090535,50.93800055],[3.95087337,50.93803588],[3.95087676,50.93803711],[3.95080939,50.93811202],[3.95076695,50.93809583],[3.95073339,50.93812772]]]}},{"type":"Feature","id":"gebouw/Gebouw.16728269/0","properties":{"source":"Digitaal Vlaanderen Gebouwenregister","source_id":"gebouw/Gebouw.16728269/0","kind":"building","building":"official","height_m":8.85,"status":null},"geometry":{"type":"Polygon","coordinates":[[[3.94885579,50.93597559],[3.94881625,50.93596331],[3.9488391,50.93593264],[3.94887958,50.93594552],[3.94885579,50.93597559]]]}},{"type":"Feature","id":"gebouw/Gebouw.16739490/0","properties":{"source":"Digitaal Vlaanderen Gebouwenregister","source_id":"gebouw/Gebouw.16739490/0","kind":"building","building":"official","height_m":5.1,"status":null},"geometry":{"type":"Polygon","coordinates":[[[3.94368189,50.9412361],[3.94403405,50.94101081],[3.94379325,50.94086055],[3.94381204,50.94084853],[3.94369876,50.94077785],[3.94367997,50.94078987],[3.9436665,50.94078146],[3.94370757,50.94075519],[3.9435772,50.94067384],[3.94353534,50.94070062],[3.94349645,50.94067636],[3.9433982,50.94073921],[3.9433714,50.94072249],[3.94327415,50.94066181],[3.94314094,50.94074702],[3.94323757,50.94080732],[3.94326499,50.94082443],[3.94325138,50.94083314],[3.94333363,50.94088446],[3.94326376,50.94092916],[3.94322614,50.94095323],[3.94331117,50.94100628],[3.94325859,50.94103923],[3.94330907,50.94107053],[3.94336094,50.94103713],[3.94368189,50.9412361]]]}},{"type":"Feature","id":"gebouw/Gebouw.16739747/0","properties":{"source":"Digitaal Vlaanderen Gebouwenregister","source_id":"gebouw/Gebouw.16739747/0","kind":"building","building":"official","height_m":8.85,"status":null},"geometry":{"type":"Polygon","coordinates":[[[3.95105465,50.93775623],[3.95106304,50.93774767],[3.95095096,50.93770399],[3.95087383,50.93778141],[3.95087281,50.93778243],[3.95097187,50.93782036],[3.95098636,50.93782591],[3.95105465,50.93775623]]]}},{"type":"Feature","id":"gebouw/Gebouw.16739750/0","properties":{"source":"Digitaal Vlaanderen Gebouwenregister","source_id":"gebouw/Gebouw.16739750/0","kind":"building","building":"official","height_m":6.6,"status":null},"geometry":{"type":"Polygon","coordinates":[[[3.95192477,50.93765885],[3.95181406,50.93779909],[3.95172552,50.93777088],[3.95174914,50.93773955],[3.95173396,50.93773464],[3.95177272,50.93768878],[3.95179336,50.9376958],[3.95181731,50.93770393],[3.95186772,50.93764233],[3.95192477,50.93765885]]]}},{"type":"Feature","id":"gebouw/Gebouw.16739765/0","properties":{"source":"Digitaal Vlaanderen Gebouwenregister","source_id":"gebouw/Gebouw.16739765/0","kind":"building","building":"official","height_m":8.85,"status":null},"geometry":{"type":"Polygon","coordinates":[[[3.94331524,50.94117208],[3.94326947,50.94120194],[3.94321986,50.94117149],[3.94326918,50.94114257],[3.94331524,50.94117208]]]}},{"type":"Feature","id":"gebouw/Gebouw.16740161/0","properties":{"source":"Digitaal Vlaanderen Gebouwenregister","source_id":"gebouw/Gebouw.16740161/0","kind":"building","building":"official","height_m":8.85,"status":null},"geometry":{"type":"Polygon","coordinates":[[[3.95113241,50.93855351],[3.95111339,50.93857508],[3.95121229,50.93860995],[3.9511641,50.93866555],[3.951066,50.93863095],[3.95110964,50.93858155],[3.95110814,50.93858103],[3.95107818,50.93857046],[3.95110248,50.93854296],[3.95113241,50.93855351]]]}},{"type":"Feature","id":"gebouw/Gebouw.16748631/0","properties":{"source":"Digitaal Vlaanderen Gebouwenregister","source_id":"gebouw/Gebouw.16748631/0","kind":"building","building":"official","height_m":7.35,"status":null},"geometry":{"type":"Polygon","coordinates":[[[3.94841456,50.94175563],[3.94844397,50.94174385],[3.9484997,50.94179941],[3.94847029,50.94181118],[3.94841456,50.94175563]]]}},{"type":"Feature","id":"gebouw/Gebouw.16787268/0","properties":{"source":"Digitaal Vlaanderen Gebouwenregister","source_id":"gebouw/Gebouw.16787268/0","kind":"building","building":"official","height_m":5.1,"status":null},"geometry":{"type":"Polygon","coordinates":[[[3.95034311,50.94056145],[3.95032469,50.94057619],[3.95043748,50.94064193],[3.95045666,50.94063113],[3.95048319,50.94064689],[3.95048823,50.94064335],[3.95058663,50.94070065],[3.95065642,50.9406518],[3.95052384,50.94057415],[3.95039978,50.9405256],[3.95021566,50.9404184],[3.95020145,50.94042886],[3.95016304,50.94040667],[3.95020074,50.94038062],[3.95011991,50.94033394],[3.95008425,50.94035858],[3.95013475,50.94038775],[3.95009867,50.94041269],[3.95012515,50.94042798],[3.95012039,50.94043128],[3.95023203,50.94049287],[3.95023659,50.94048988],[3.9502737,50.94051207],[3.95027709,50.94051972],[3.95034311,50.94056145]]]}},{"type":"Feature","id":"gebouw/Gebouw.18242039/0","properties":{"source":"Digitaal Vlaanderen Gebouwenregister","source_id":"gebouw/Gebouw.18242039/0","kind":"building","building":"official","height_m":8.85,"status":null},"geometry":{"type":"Polygon","coordinates":[[[3.9518572,50.93626089],[3.95182702,50.93625134],[3.95187174,50.93619824],[3.95179327,50.9361733],[3.95175564,50.93616135],[3.95172971,50.93615311],[3.95168603,50.93620869],[3.95170829,50.93621567],[3.9516909,50.9362403],[3.95175372,50.93625997],[3.95176051,50.93626209],[3.95176807,50.93626446],[3.95186875,50.93629597],[3.95188748,50.93627049],[3.9518572,50.93626089]]]}},{"type":"Feature","id":"gebouw/Gebouw.18861765/0","properties":{"source":"Digitaal Vlaanderen Gebouwenregister","source_id":"gebouw/Gebouw.18861765/0","kind":"building","building":"official","height_m":7.35,"status":null},"geometry":{"type":"Polygon","coordinates":[[[3.95105358,50.93839578],[3.95108426,50.93836836],[3.95117911,50.9384083],[3.951149,50.9384371],[3.95105358,50.93839578]]]}},{"type":"Feature","id":"gebouw/Gebouw.18861766/0","properties":{"source":"Digitaal Vlaanderen Gebouwenregister","source_id":"gebouw/Gebouw.18861766/0","kind":"building","building":"official","height_m":8.1,"status":null},"geometry":{"type":"Polygon","coordinates":[[[3.95105136,50.93847111],[3.95109481,50.93842273],[3.95113823,50.93844035],[3.95109161,50.93848895],[3.95105136,50.93847111]]]}},{"type":"Feature","id":"gebouw/Gebouw.18861767/0","properties":{"source":"Digitaal Vlaanderen Gebouwenregister","source_id":"gebouw/Gebouw.18861767/0","kind":"building","building":"official","height_m":8.85,"status":null},"geometry":{"type":"Polygon","coordinates":[[[3.95108751,50.93841858],[3.95104257,50.93846811],[3.95100189,50.93845321],[3.95104923,50.93840282],[3.95108751,50.93841858]]]}},{"type":"Feature","id":"gebouw/Gebouw.18861768/0","properties":{"source":"Digitaal Vlaanderen Gebouwenregister","source_id":"gebouw/Gebouw.18861768/0","kind":"building","building":"official","height_m":5.1,"status":null},"geometry":{"type":"Polygon","coordinates":[[[3.95067785,50.93823559],[3.95065457,50.93825977],[3.95059904,50.93823906],[3.95062248,50.93821518],[3.95067785,50.93823559]]]}},{"type":"Feature","id":"gebouw/Gebouw.18861843/0","properties":{"source":"Digitaal Vlaanderen Gebouwenregister","source_id":"gebouw/Gebouw.18861843/0","kind":"building","building":"official","height_m":7.35,"status":null},"geometry":{"type":"Polygon","coordinates":[[[3.94729512,50.93578892],[3.94733179,50.9357555],[3.94739081,50.93578495],[3.94735564,50.93581803],[3.94729512,50.93578892]]]}},{"type":"Feature","id":"gebouw/Gebouw.19298579/0","properties":{"source":"Digitaal Vlaanderen Gebouwenregister","source_id":"gebouw/Gebouw.19298579/0","kind":"building","building":"official","height_m":8.85,"status":null},"geometry":{"type":"Polygon","coordinates":[[[3.94672614,50.93620118],[3.94672335,50.93620271],[3.94683153,50.93628252],[3.94682749,50.9362848],[3.94670733,50.9363499],[3.94659529,50.9362726],[3.94664077,50.93624628],[3.94672314,50.93619861],[3.94672614,50.93620118]]]}},{"type":"Feature","id":"gebouw/Gebouw.19695018/0","properties":{"source":"Digitaal Vlaanderen Gebouwenregister","source_id":"gebouw/Gebouw.19695018/0","kind":"building","building":"official","height_m":5.1,"status":null},"geometry":{"type":"Polygon","coordinates":[[[3.94707273,50.93591768],[3.9469489,50.93602224],[3.94693347,50.93601495],[3.94685769,50.93597912],[3.94687474,50.93596472],[3.94683724,50.93594797],[3.94686306,50.9359268],[3.94688377,50.93590982],[3.94689116,50.93590377],[3.94692581,50.93592015],[3.94698042,50.93587403],[3.94705965,50.9359115],[3.94707273,50.93591768]]]}},{"type":"Feature","id":"gebouw/Gebouw.19698547/0","properties":{"source":"Digitaal Vlaanderen Gebouwenregister","source_id":"gebouw/Gebouw.19698547/0","kind":"building","building":"official","height_m":5.85,"status":null},"geometry":{"type":"Polygon","coordinates":[[[3.95126109,50.93774742],[3.95134437,50.93777981],[3.95125282,50.93787378],[3.95116953,50.93784138],[3.95119785,50.93781232],[3.95125895,50.93774961],[3.95126109,50.93774742]]]}},{"type":"Feature","id":"gebouw/Gebouw.19698549/0","properties":{"source":"Digitaal Vlaanderen Gebouwenregister","source_id":"gebouw/Gebouw.19698549/0","kind":"building","building":"official","height_m":7.35,"status":null},"geometry":{"type":"Polygon","coordinates":[[[3.9512612,50.93797157],[3.95142526,50.93778449],[3.95144604,50.93776319],[3.9513725,50.93773588],[3.95130997,50.93771266],[3.95129895,50.93770857],[3.95128031,50.93772769],[3.95126109,50.93774742],[3.95134437,50.93777981],[3.95125282,50.93787378],[3.95116953,50.93784138],[3.95113524,50.93787657],[3.95119411,50.93789863],[3.95121973,50.93787273],[3.95127875,50.93789564],[3.95115598,50.93803785],[3.95119077,50.93805096],[3.9512612,50.93797157]]]}},{"type":"Feature","id":"gebouw/Gebouw.19699901/0","properties":{"source":"Digitaal Vlaanderen Gebouwenregister","source_id":"gebouw/Gebouw.19699901/0","kind":"building","building":"official","height_m":8.85,"status":null},"geometry":{"type":"Polygon","coordinates":[[[3.95119519,50.94093443],[3.95109234,50.94101592],[3.95098886,50.94096379],[3.9508841,50.94091101],[3.95082983,50.94088367],[3.95076644,50.94085174],[3.95087245,50.940768],[3.95119519,50.94093443]]]}},{"type":"Feature","id":"gebouw/Gebouw.19699902/0","properties":{"source":"Digitaal Vlaanderen Gebouwenregister","source_id":"gebouw/Gebouw.19699902/0","kind":"building","building":"official","height_m":5.1,"status":null},"geometry":{"type":"Polygon","coordinates":[[[3.95142921,50.94105509],[3.95140164,50.94107583],[3.95135072,50.94111414],[3.95119767,50.94103328],[3.95121309,50.94102132],[3.95120836,50.94101844],[3.95116585,50.94105295],[3.95110497,50.94102228],[3.95109887,50.94101921],[3.95109234,50.94101592],[3.95119519,50.94093443],[3.95120131,50.94093758],[3.95129626,50.94098654],[3.95142921,50.94105509]]]}},{"type":"Feature","id":"gebouw/Gebouw.19719377/0","properties":{"source":"Digitaal Vlaanderen Gebouwenregister","source_id":"gebouw/Gebouw.19719377/0","kind":"building","building":"official","height_m":8.85,"status":null},"geometry":{"type":"Polygon","coordinates":[[[3.95153359,50.93759131],[3.95145178,50.93767426],[3.95135686,50.93763583],[3.95133403,50.93762659],[3.95137229,50.93758456],[3.95144438,50.93761393],[3.95148783,50.9375729],[3.95153359,50.93759131]]]}},{"type":"Feature","id":"gebouw/Gebouw.19719378/0","properties":{"source":"Digitaal Vlaanderen Gebouwenregister","source_id":"gebouw/Gebouw.19719378/0","kind":"building","building":"official","height_m":5.1,"status":null},"geometry":{"type":"Polygon","coordinates":[[[3.95166618,50.93762391],[3.95160398,50.93759869],[3.9516112,50.93759227],[3.9516129,50.93759076],[3.95159917,50.93758421],[3.95162416,50.9375575],[3.95168055,50.93749724],[3.95166406,50.93748965],[3.95161794,50.93750578],[3.95153359,50.93759131],[3.95145178,50.93767426],[3.95144861,50.93767748],[3.95144179,50.9376844],[3.95151826,50.93771446],[3.95152103,50.93771197],[3.95156114,50.93772784],[3.95155836,50.93773015],[3.95156282,50.93773202],[3.95166618,50.93762391]]]}},{"type":"Feature","id":"gebouw/Gebouw.19954748/0","properties":{"source":"Digitaal Vlaanderen Gebouwenregister","source_id":"gebouw/Gebouw.19954748/0","kind":"building","building":"official","height_m":6.6,"status":null},"geometry":{"type":"Polygon","coordinates":[[[3.94691835,50.93580441],[3.94695559,50.93582732],[3.94691044,50.93585663],[3.9468732,50.93583372],[3.94691835,50.93580441]]]}},{"type":"Feature","id":"gebouw/Gebouw.19954906/0","properties":{"source":"Digitaal Vlaanderen Gebouwenregister","source_id":"gebouw/Gebouw.19954906/0","kind":"building","building":"official","height_m":8.1,"status":null},"geometry":{"type":"Polygon","coordinates":[[[3.94755425,50.94121755],[3.94747299,50.94116627],[3.94753117,50.94112948],[3.94761242,50.94118076],[3.94755425,50.94121755]]]}},{"type":"Feature","id":"gebouw/Gebouw.19954907/0","properties":{"source":"Digitaal Vlaanderen Gebouwenregister","source_id":"gebouw/Gebouw.19954907/0","kind":"building","building":"official","height_m":8.85,"status":null},"geometry":{"type":"Polygon","coordinates":[[[3.94640099,50.94138618],[3.94635768,50.94137362],[3.94643867,50.94126216],[3.94648198,50.94127472],[3.94640099,50.94138618]]]}},{"type":"Feature","id":"gebouw/Gebouw.19954961/0","properties":{"source":"Digitaal Vlaanderen Gebouwenregister","source_id":"gebouw/Gebouw.19954961/0","kind":"building","building":"official","height_m":8.85,"status":null},"geometry":{"type":"Polygon","coordinates":[[[3.95179986,50.93837066],[3.95169813,50.9383339],[3.95167388,50.93832788],[3.95165735,50.93834714],[3.95178307,50.93839021],[3.95179986,50.93837066]]]}},{"type":"Feature","id":"gebouw/Gebouw.19955000/0","properties":{"source":"Digitaal Vlaanderen Gebouwenregister","source_id":"gebouw/Gebouw.19955000/0","kind":"building","building":"official","height_m":6.6,"status":null},"geometry":{"type":"Polygon","coordinates":[[[3.94270388,50.93919355],[3.94267466,50.93916144],[3.94272447,50.93914335],[3.94275369,50.93917547],[3.94270388,50.93919355]]]}},{"type":"Feature","id":"gebouw/Gebouw.19955001/0","properties":{"source":"Digitaal Vlaanderen Gebouwenregister","source_id":"gebouw/Gebouw.19955001/0","kind":"building","building":"official","height_m":7.35,"status":null},"geometry":{"type":"Polygon","coordinates":[[[3.94343415,50.94039168],[3.94338416,50.94035565],[3.94342514,50.94033295],[3.94347513,50.94036898],[3.94343415,50.94039168]]]}},{"type":"Feature","id":"gebouw/Gebouw.19955020/0","properties":{"source":"Digitaal Vlaanderen Gebouwenregister","source_id":"gebouw/Gebouw.19955020/0","kind":"building","building":"official","height_m":8.1,"status":null},"geometry":{"type":"Polygon","coordinates":[[[3.95076994,50.93658334],[3.95071284,50.9365651],[3.95072857,50.93654543],[3.95075016,50.93655233],[3.9507533,50.93654841],[3.95073284,50.93654188],[3.95076681,50.9364994],[3.95080732,50.93651233],[3.95076887,50.93656039],[3.95078434,50.93656533],[3.95076994,50.93658334]]]}},{"type":"Feature","id":"gebouw/Gebouw.19956305/0","properties":{"source":"Digitaal Vlaanderen Gebouwenregister","source_id":"gebouw/Gebouw.19956305/0","kind":"building","building":"official","height_m":8.85,"status":null},"geometry":{"type":"Polygon","coordinates":[[[3.95077215,50.94081075],[3.95075206,50.9408253],[3.95072441,50.94084532],[3.9506295,50.94079409],[3.95058439,50.94075009],[3.95060037,50.94073688],[3.95061938,50.94072117],[3.95066606,50.94074792],[3.95066058,50.94075231],[3.95065377,50.94075778],[3.95075791,50.94081015],[3.95076244,50.94080641],[3.95077215,50.94081075]]]}},{"type":"Feature","id":"gebouw/Gebouw.20802212/0","properties":{"source":"Digitaal Vlaanderen Gebouwenregister","source_id":"gebouw/Gebouw.20802212/0","kind":"building","building":"official","height_m":6.6,"status":null},"geometry":{"type":"Polygon","coordinates":[[[3.94579129,50.93601442],[3.94582955,50.93599678],[3.94585566,50.93601944],[3.9458174,50.93603698],[3.94579129,50.93601442]]]}},{"type":"Feature","id":"gebouw/Gebouw.20802213/0","properties":{"source":"Digitaal Vlaanderen Gebouwenregister","source_id":"gebouw/Gebouw.20802213/0","kind":"building","building":"official","height_m":7.35,"status":null},"geometry":{"type":"Polygon","coordinates":[[[3.94870581,50.93584177],[3.94865596,50.93582523],[3.94869133,50.93578267],[3.94874118,50.93579921],[3.94870581,50.93584177]]]}},{"type":"Feature","id":"gebouw/Gebouw.20802226/0","properties":{"source":"Digitaal Vlaanderen Gebouwenregister","source_id":"gebouw/Gebouw.20802226/0","kind":"building","building":"official","height_m":8.1,"status":null},"geometry":{"type":"Polygon","coordinates":[[[3.95107657,50.94063291],[3.95099448,50.94059573],[3.95103247,50.94056224],[3.95101006,50.94055209],[3.95106968,50.94049956],[3.95117418,50.94054689],[3.95107657,50.94063291]]]}},{"type":"Feature","id":"gebouw/Gebouw.20802227/0","properties":{"source":"Digitaal Vlaanderen Gebouwenregister","source_id":"gebouw/Gebouw.20802227/0","kind":"building","building":"official","height_m":8.85,"status":null},"geometry":{"type":"Polygon","coordinates":[[[3.95133819,50.940645],[3.95124324,50.94060318],[3.95127272,50.94057646],[3.95136767,50.94061828],[3.95133819,50.940645]]]}},{"type":"Feature","id":"gebouw/Gebouw.20803060/0","properties":{"source":"Digitaal Vlaanderen Gebouwenregister","source_id":"gebouw/Gebouw.20803060/0","kind":"building","building":"official","height_m":8.1,"status":null},"geometry":{"type":"Polygon","coordinates":[[[3.94968249,50.93687045],[3.94962239,50.93684905],[3.94965539,50.93681204],[3.94971549,50.93683343],[3.94968249,50.93687045]]]}},{"type":"Feature","id":"gebouw/Gebouw.30826734/0","properties":{"source":"Digitaal Vlaanderen Gebouwenregister","source_id":"gebouw/Gebouw.30826734/0","kind":"building","building":"official","height_m":5.1,"status":null},"geometry":{"type":"Polygon","coordinates":[[[3.95017167,50.93620422],[3.95014228,50.93623406],[3.95009324,50.93621477],[3.95012263,50.93618494],[3.95017167,50.93620422]]]}},{"type":"Feature","id":"gebouw/Gebouw.30828911/0","properties":{"source":"Digitaal Vlaanderen Gebouwenregister","source_id":"gebouw/Gebouw.30828911/0","kind":"building","building":"official","height_m":8.85,"status":null},"geometry":{"type":"Polygon","coordinates":[[[3.95182122,50.93605181],[3.95191509,50.93608072],[3.9518925,50.9361084],[3.95179907,50.93607874],[3.95181381,50.93606066],[3.95182122,50.93605181]]]}},{"type":"Feature","id":"gebouw/Gebouw.30883362/0","properties":{"source":"Digitaal Vlaanderen Gebouwenregister","source_id":"gebouw/Gebouw.30883362/0","kind":"building","building":"official","height_m":5.1,"status":null},"geometry":{"type":"Polygon","coordinates":[[[3.94394007,50.94080625],[3.9439664,50.94079178],[3.94399497,50.94081258],[3.94391453,50.94085677],[3.94388409,50.94083461],[3.9439382,50.94080488],[3.94394007,50.94080625]]]}},{"type":"Feature","id":"gebouw/Gebouw.30883420/0","properties":{"source":"Digitaal Vlaanderen Gebouwenregister","source_id":"gebouw/Gebouw.30883420/0","kind":"building","building":"official","height_m":8.1,"status":null},"geometry":{"type":"Polygon","coordinates":[[[3.95048439,50.93822705],[3.95051175,50.93819932],[3.95060511,50.93823613],[3.95057775,50.93826385],[3.95048439,50.93822705]]]}},{"type":"Feature","id":"gebouw/Gebouw.30883421/0","properties":{"source":"Digitaal Vlaanderen Gebouwenregister","source_id":"gebouw/Gebouw.30883421/0","kind":"building","building":"official","height_m":8.85,"status":null},"geometry":{"type":"Polygon","coordinates":[[[3.94999909,50.93806566],[3.95002155,50.93809952],[3.9499403,50.93812099],[3.94991785,50.93808713],[3.94999909,50.93806566]]]}},{"type":"Feature","id":"gebouw/Gebouw.30884447/0","properties":{"source":"Digitaal Vlaanderen Gebouwenregister","source_id":"gebouw/Gebouw.30884447/0","kind":"building","building":"official","height_m":8.85,"status":null},"geometry":{"type":"Polygon","coordinates":[[[3.95003085,50.93729899],[3.94993972,50.93727042],[3.94982154,50.93740439],[3.94989258,50.93742978],[3.9499303,50.93738767],[3.94994883,50.93739429],[3.95003085,50.93729899]]]}},{"type":"Feature","id":"gebouw/Gebouw.30884449/0","properties":{"source":"Digitaal Vlaanderen Gebouwenregister","source_id":"gebouw/Gebouw.30884449/0","kind":"building","building":"official","height_m":5.85,"status":null},"geometry":{"type":"Polygon","coordinates":[[[3.94977205,50.93746807],[3.94980288,50.93747866],[3.94975427,50.93753618],[3.94972429,50.93752617],[3.94977205,50.93746807]]]}},{"type":"Feature","id":"gebouw/Gebouw.31008764/0","properties":{"source":"Digitaal Vlaanderen Gebouwenregister","source_id":"gebouw/Gebouw.31008764/0","kind":"building","building":"official","height_m":6.6,"status":null},"geometry":{"type":"Polygon","coordinates":[[[3.94696925,50.93560037],[3.94696252,50.93559638],[3.94693164,50.93557804],[3.94685942,50.93553518],[3.94681597,50.93555956],[3.94685411,50.93558476],[3.94677406,50.93563672],[3.94680667,50.93565811],[3.94684141,50.93568089],[3.94696925,50.93560037]]]}},{"type":"Feature","id":"gebouw/Gebouw.31008765/0","properties":{"source":"Digitaal Vlaanderen Gebouwenregister","source_id":"gebouw/Gebouw.31008765/0","kind":"building","building":"official","height_m":7.35,"status":null},"geometry":{"type":"Polygon","coordinates":[[[3.94693164,50.93557804],[3.94695146,50.9355647],[3.94698235,50.93558304],[3.94696252,50.93559638],[3.94693164,50.93557804]]]}},{"type":"Feature","id":"gebouw/Gebouw.31326729/0","properties":{"source":"Digitaal Vlaanderen Gebouwenregister","source_id":"gebouw/Gebouw.31326729/0","kind":"building","building":"official","height_m":7.35,"status":null},"geometry":{"type":"Polygon","coordinates":[[[3.95143609,50.93681715],[3.95146798,50.93683147],[3.95143074,50.93686459],[3.95139884,50.93685026],[3.95143609,50.93681715]]]}},{"type":"Feature","id":"gebouw/Gebouw.31326822/0","properties":{"source":"Digitaal Vlaanderen Gebouwenregister","source_id":"gebouw/Gebouw.31326822/0","kind":"building","building":"official","height_m":5.1,"status":null},"geometry":{"type":"Polygon","coordinates":[[[3.94614429,50.93827614],[3.94615138,50.93828678],[3.94611617,50.93829615],[3.94601937,50.9383219],[3.94601067,50.93832422],[3.94596255,50.93825201],[3.94597214,50.93824946],[3.94610326,50.93821457],[3.94614429,50.93827614]]]}},{"type":"Feature","id":"gebouw/Gebouw.31534857/0","properties":{"source":"Digitaal Vlaanderen Gebouwenregister","source_id":"gebouw/Gebouw.31534857/0","kind":"building","building":"official","height_m":7.35,"status":null},"geometry":{"type":"Polygon","coordinates":[[[3.94294382,50.94131087],[3.94291871,50.94129537],[3.94288656,50.94131631],[3.94291168,50.94133182],[3.94294382,50.94131087]]]}},{"type":"Feature","id":"gebouw/Gebouw.31844644/0","properties":{"source":"Digitaal Vlaanderen Gebouwenregister","source_id":"gebouw/Gebouw.31844644/0","kind":"building","building":"official","height_m":8.1,"status":null},"geometry":{"type":"Polygon","coordinates":[[[3.95182438,50.93835239],[3.95171456,50.93831476],[3.95169813,50.9383339],[3.95179986,50.93837066],[3.95180661,50.9383731],[3.95182438,50.93835239]]]}},{"type":"Feature","id":"gebouw/Gebouw.31844831/0","properties":{"source":"Digitaal Vlaanderen Gebouwenregister","source_id":"gebouw/Gebouw.31844831/0","kind":"building","building":"official","height_m":8.85,"status":null},"geometry":{"type":"Polygon","coordinates":[[[3.94633979,50.94177014],[3.94631748,50.94176155],[3.94629672,50.94178305],[3.94626884,50.94181193],[3.94628825,50.94181941],[3.9463284,50.94183488],[3.94637704,50.9417845],[3.94633979,50.94177014]]]}},{"type":"Feature","id":"gebouw/Gebouw.31845225/0","properties":{"source":"Digitaal Vlaanderen Gebouwenregister","source_id":"gebouw/Gebouw.31845225/0","kind":"building","building":"official","height_m":7.35,"status":null},"geometry":{"type":"Polygon","coordinates":[[[3.94506888,50.94099519],[3.9450538,50.940986],[3.94498579,50.94103055],[3.94500077,50.94103968],[3.94503607,50.94106118],[3.94510408,50.94101663],[3.94506888,50.94099519]]]}},{"type":"Feature","id":"gebouw/Gebouw.31845235/0","properties":{"source":"Digitaal Vlaanderen Gebouwenregister","source_id":"gebouw/Gebouw.31845235/0","kind":"building","building":"official","height_m":5.85,"status":null},"geometry":{"type":"Polygon","coordinates":[[[3.94959657,50.93758076],[3.94955106,50.93756753],[3.94950634,50.93762516],[3.94950089,50.93763218],[3.94957121,50.93760957],[3.9495763,50.93760379],[3.94959657,50.93758076]]]}},{"type":"Feature","id":"gebouw/Gebouw.31845238/0","properties":{"source":"Digitaal Vlaanderen Gebouwenregister","source_id":"gebouw/Gebouw.31845238/0","kind":"building","building":"official","height_m":8.1,"status":null},"geometry":{"type":"Polygon","coordinates":[[[3.94878319,50.941832],[3.94874528,50.94180295],[3.94869358,50.94182989],[3.94873149,50.94185894],[3.94878319,50.941832]]]}},{"type":"Feature","id":"gebouw/Gebouw.32032302/0","properties":{"source":"Digitaal Vlaanderen Gebouwenregister","source_id":"gebouw/Gebouw.32032302/0","kind":"building","building":"official","height_m":5.1,"status":null},"geometry":{"type":"Polygon","coordinates":[[[3.95074091,50.93689435],[3.950654,50.9368648],[3.95062811,50.93689342],[3.95071649,50.93692366],[3.95074091,50.93689435]]]}},{"type":"Feature","id":"gebouw/Gebouw.32032416/0","properties":{"source":"Digitaal Vlaanderen Gebouwenregister","source_id":"gebouw/Gebouw.32032416/0","kind":"building","building":"official","height_m":5.1,"status":null},"geometry":{"type":"Polygon","coordinates":[[[3.95122027,50.94160586],[3.95113848,50.94165096],[3.9512619,50.9417403],[3.95134369,50.9416952],[3.95122027,50.94160586]]]}},{"type":"Feature","id":"way/150598469","properties":{"source":"OpenStreetMap","source_id":"way/150598469","kind":"waterway","waterway":"stream","name":"Molenbeek"},"geometry":{"type":"LineString","coordinates":[[3.9465519,50.9396221],[3.946613,50.939695],[3.9466506,50.9397592],[3.9466801,50.9398167],[3.9467176,50.9398759],[3.9467364,50.9399333],[3.9467847,50.9399587],[3.9468437,50.9399722],[3.9469188,50.9399722],[3.9470019,50.9399654],[3.947087,50.9399655],[3.9471521,50.9399959],[3.9471897,50.9400364],[3.9471977,50.9400871],[3.947154,50.9401379],[3.9471387,50.9401902],[3.9471326,50.9402545],[3.947146,50.9403035],[3.9471977,50.9403778],[3.9472479,50.9404219],[3.9473157,50.9404623],[3.9473882,50.9405063],[3.9474088,50.9405604],[3.9474249,50.9406297],[3.9474472,50.9407142],[3.9475223,50.9407716],[3.9475491,50.9408206],[3.9475724,50.9408731],[3.9476395,50.9409306],[3.9477047,50.9409829],[3.9477798,50.9410201],[3.9478916,50.9410252],[3.9480051,50.9410049],[3.948133,50.9409914],[3.9482572,50.940966],[3.9483637,50.9409509],[3.9484315,50.9409677],[3.9484683,50.9410117],[3.9484602,50.9410455],[3.9484503,50.9410894],[3.948453,50.941135],[3.9484637,50.9411857],[3.9485327,50.9412382],[3.9486078,50.9412906],[3.9487472,50.9413802],[3.9488634,50.9414443],[3.9489117,50.9414798],[3.9489757,50.9415336]]}},{"type":"Feature","id":"way/198173750","properties":{"source":"OpenStreetMap","source_id":"way/198173750","kind":"vegetation","landuse":"forest","natural":null,"name":null},"geometry":{"type":"Polygon","coordinates":[[[3.9417063,50.9404962],[3.9419251,50.9407022],[3.9413554,50.9409476],[3.9413051,50.9409133],[3.9417063,50.9404962]]]}},{"type":"Feature","id":"way/198187998","properties":{"source":"OpenStreetMap","source_id":"way/198187998","kind":"vegetation","landuse":"forest","natural":null,"name":null},"geometry":{"type":"Polygon","coordinates":[[[3.9475949,50.9418293],[3.9467471,50.9414521],[3.9462615,50.9418336],[3.9466842,50.9419966],[3.9466533,50.9420257],[3.9471022,50.9422102],[3.9471643,50.9422352],[3.9475669,50.9418828],[3.9475949,50.9418293]]]}},{"type":"Feature","id":"way/198188052","properties":{"source":"OpenStreetMap","source_id":"way/198188052","kind":"vegetation","landuse":"forest","natural":null,"name":null},"geometry":{"type":"Polygon","coordinates":[[[3.9493209,50.9387149],[3.9487176,50.9388585],[3.9483642,50.9389584],[3.9477319,50.9392329],[3.9476708,50.9392629],[3.9478055,50.9393504],[3.9485557,50.9398662],[3.9487658,50.9400768],[3.9491102,50.9404605],[3.949399,50.9407302],[3.9497774,50.9410531],[3.9490217,50.9415302],[3.9489467,50.9415686],[3.9493214,50.9417701],[3.9495312,50.9418386],[3.9496802,50.9419083],[3.9500075,50.9421963],[3.950122,50.9422795],[3.9507207,50.9425999],[3.9514311,50.9420742],[3.951693,50.9418865],[3.9515273,50.9418149],[3.9513023,50.9417212],[3.9511194,50.9417552],[3.9508922,50.9414712],[3.9516559,50.9412538],[3.9506697,50.9406937],[3.9508245,50.9406217],[3.9504478,50.940397],[3.9507958,50.9402213],[3.9504339,50.9400635],[3.9502683,50.9399175],[3.9504233,50.9397075],[3.950153,50.9396011],[3.9504777,50.9392447],[3.9493209,50.9387149]]]}},{"type":"Feature","id":"way/198188066","properties":{"source":"OpenStreetMap","source_id":"way/198188066","kind":"vegetation","landuse":"forest","natural":"scrub","name":null},"geometry":{"type":"Polygon","coordinates":[[[3.9457882,50.9398375],[3.9458822,50.9398554],[3.9460393,50.9398254],[3.9461718,50.9397932],[3.9462268,50.9397853],[3.9463154,50.9397638],[3.9464324,50.9397283],[3.9464869,50.9397352],[3.9465358,50.9398198],[3.9465755,50.9398887],[3.9468658,50.9401491],[3.9472989,50.9406577],[3.9475498,50.9409367],[3.9476778,50.9410638],[3.947786,50.9411073],[3.9479878,50.9411414],[3.9480347,50.9411835],[3.9476245,50.9415342],[3.9475949,50.9418293],[3.9478093,50.9419488],[3.9479989,50.9418005],[3.9483101,50.941557],[3.9485973,50.9413443],[3.9489467,50.9415686],[3.9490217,50.9415302],[3.9485783,50.9412282],[3.9484995,50.9411631],[3.9484971,50.9411104],[3.9485045,50.9409879],[3.9484823,50.9409414],[3.9484183,50.9409274],[3.9482018,50.9409398],[3.9480173,50.940977],[3.9478992,50.9409879],[3.9478106,50.9409894],[3.9477491,50.9409708],[3.947695,50.9409352],[3.9475695,50.9407739],[3.9475129,50.9406763],[3.9474932,50.9405817],[3.9474293,50.9404763],[3.9473358,50.9404282],[3.947257,50.9403693],[3.9472029,50.9403119],[3.9471906,50.940267],[3.9471808,50.9402143],[3.94723,50.940115],[3.9472251,50.9400499],[3.9471783,50.9399724],[3.9470799,50.9399398],[3.9469298,50.939946],[3.9468363,50.9399429],[3.9467797,50.9399212],[3.9467428,50.9398592],[3.9466641,50.9396887],[3.9467281,50.9396499],[3.9467625,50.9396112],[3.9468289,50.9395786],[3.9469028,50.9395476],[3.9470897,50.9394949],[3.9471759,50.9394406],[3.9472792,50.9394096],[3.9473825,50.9393848],[3.9474785,50.9393522],[3.9475671,50.9393398],[3.9478055,50.9393504],[3.9476708,50.9392629],[3.9475818,50.9392437],[3.9474637,50.9392561],[3.9470012,50.9394065],[3.9461745,50.939667],[3.9458743,50.939774],[3.9457882,50.9398375]]]}},{"type":"Feature","id":"way/198188077","properties":{"source":"OpenStreetMap","source_id":"way/198188077","kind":"water","name":null},"geometry":{"type":"Polygon","coordinates":[[[3.9465358,50.9398198],[3.9464869,50.9397352],[3.9464324,50.9397283],[3.9463154,50.9397638],[3.9462268,50.9397853],[3.9461718,50.9397932],[3.9460393,50.9398254],[3.9458822,50.9398554],[3.945812,50.9398852],[3.9458269,50.9399293],[3.9458871,50.9399559],[3.9459834,50.9399523],[3.9460661,50.9399372],[3.9460824,50.9399158],[3.9461555,50.9399026],[3.9462791,50.939888],[3.9465155,50.9398448],[3.9465358,50.9398198]]]}},{"type":"Feature","id":"way/198276294","properties":{"source":"OpenStreetMap","source_id":"way/198276294","kind":"vegetation","landuse":"forest","natural":null,"name":null},"geometry":{"type":"Polygon","coordinates":[[[3.9452352,50.9361014],[3.944878,50.93625],[3.9444683,50.9358866],[3.9437912,50.9362588],[3.9433621,50.9359107],[3.9441463,50.9356023],[3.944395,50.9358226],[3.9448605,50.9356021],[3.944965,50.9356422],[3.9451072,50.9359603],[3.9452352,50.9361014]]]}},{"type":"Feature","id":"way/198276366","properties":{"source":"OpenStreetMap","source_id":"way/198276366","kind":"vegetation","landuse":"forest","natural":null,"name":null},"geometry":{"type":"Polygon","coordinates":[[[3.9416854,50.9356445],[3.9419262,50.9358554],[3.9416784,50.9360356],[3.9414919,50.9358277],[3.9416854,50.9356445]]]}},{"type":"Feature","id":"way/198276386","properties":{"source":"OpenStreetMap","source_id":"way/198276386","kind":"vegetation","landuse":"forest","natural":null,"name":null},"geometry":{"type":"Polygon","coordinates":[[[3.9473534,50.9390264],[3.9463932,50.9392922],[3.946345,50.9391666],[3.9463584,50.9391143],[3.9471911,50.9387722],[3.9473534,50.9390264]]]}},{"type":"Feature","id":"way/410843387","properties":{"source":"OpenStreetMap","source_id":"way/410843387","kind":"waterway","waterway":"stream","name":"Molenbeek"},"geometry":{"type":"LineString","coordinates":[[3.9463485,50.9393748],[3.9465519,50.9396221]]}},{"type":"Feature","id":"way/410843388","properties":{"source":"OpenStreetMap","source_id":"way/410843388","kind":"waterway","waterway":"stream","name":"Kokelaarsbeek"},"geometry":{"type":"LineString","coordinates":[[3.9422637,50.9407675],[3.9425005,50.9406888],[3.9432329,50.9404663],[3.94439,50.9400578],[3.9448317,50.9398899],[3.944899,50.9398642],[3.9449614,50.9398506],[3.9454343,50.9396827],[3.9457464,50.9395692],[3.9458304,50.939539],[3.9460369,50.9394452],[3.9460753,50.9394285],[3.9461713,50.9393998],[3.9462625,50.939362],[3.946349,50.9393347]]}},{"type":"Feature","id":"way/410843389","properties":{"source":"OpenStreetMap","source_id":"way/410843389","kind":"waterway","waterway":"stream","name":"Kokelaarsbeek"},"geometry":{"type":"LineString","coordinates":[[3.9420217,50.940846],[3.9422637,50.9407675]]}},{"type":"Feature","id":"way/457961807","properties":{"source":"OpenStreetMap","source_id":"way/457961807","kind":"waterway","waterway":"stream","name":"Molenbeek"},"geometry":{"type":"LineString","coordinates":[[3.951632,50.9419132],[3.9517684,50.9419954]]}},{"type":"Feature","id":"way/457961808","properties":{"source":"OpenStreetMap","source_id":"way/457961808","kind":"waterway","waterway":"stream","name":"Molenbeek"},"geometry":{"type":"LineString","coordinates":[[3.9489757,50.9415336],[3.9490485,50.9415738],[3.9490902,50.9416078],[3.9491821,50.9416744],[3.9492406,50.9417118],[3.9494124,50.941771],[3.9495399,50.9418095],[3.949613,50.9418312],[3.9497098,50.9418811],[3.9497878,50.9419503],[3.9498311,50.9419904],[3.9498891,50.9420492],[3.9499737,50.9421143],[3.9500512,50.9421725],[3.9500906,50.9421954],[3.9501057,50.9422029],[3.950148,50.9422196],[3.9501682,50.942225],[3.9501951,50.9422267],[3.9502289,50.9422252],[3.9502677,50.9422179],[3.9503522,50.9421996],[3.9504019,50.9421944],[3.950531,50.94218],[3.9505783,50.942169],[3.950618,50.9421665],[3.9507292,50.9421363],[3.9508703,50.9420942],[3.9509177,50.9420735],[3.9509423,50.9420608],[3.9510008,50.9420174],[3.9510204,50.9419967],[3.9510664,50.9419463],[3.9511028,50.9419263],[3.9511527,50.9419009],[3.9512161,50.941882],[3.9513121,50.9418679],[3.9513889,50.9418506],[3.9514438,50.9418476],[3.9514926,50.9418558],[3.9515304,50.9418644],[3.9515783,50.9418811],[3.951632,50.9419132]]}},{"type":"Feature","id":"way/1023542211","properties":{"source":"OpenStreetMap","source_id":"way/1023542211","kind":"waterway","waterway":"stream","name":"Molenbeek"},"geometry":{"type":"LineString","coordinates":[[3.9436584,50.93437],[3.943744,50.9344604],[3.9438521,50.9345649],[3.9439275,50.9346374],[3.9440081,50.9346897],[3.9440991,50.9347482],[3.9442849,50.9348728],[3.9443661,50.9349345],[3.944407,50.9349763],[3.944429,50.9350355],[3.9444638,50.9350908],[3.9445075,50.9351229],[3.9445585,50.9351551],[3.944589,50.9351858],[3.9445987,50.9352193],[3.9445944,50.9352619],[3.9445504,50.9353647],[3.944529,50.9354069],[3.9445247,50.9354495],[3.9445585,50.9354847],[3.9446067,50.9355083],[3.9446722,50.9355222],[3.9447516,50.9355269],[3.9448019,50.9355438],[3.9448642,50.9355726],[3.9449091,50.9356233],[3.9449199,50.9356779],[3.9449285,50.9357552],[3.9449366,50.9358194],[3.9449413,50.9358904],[3.944954,50.9359284],[3.9449868,50.9359622],[3.945027,50.9359918],[3.9450808,50.9360409],[3.9451504,50.936097],[3.9452228,50.9361558],[3.9452907,50.9362301],[3.9453497,50.9363079],[3.9453819,50.9363552],[3.9453899,50.9364482],[3.9454508,50.9364972],[3.9454857,50.9365564],[3.9454857,50.9366138],[3.9454302,50.9366578],[3.9453685,50.9367119],[3.9453918,50.9367575],[3.9454374,50.9368099],[3.9454709,50.9368801],[3.9454597,50.9369105],[3.9454262,50.9369383],[3.945402,50.936957],[3.9453998,50.9369958],[3.9453757,50.9370431],[3.9453095,50.9370736],[3.9451914,50.9371141],[3.9451933,50.9371581],[3.9452504,50.9371834],[3.9453658,50.9371919],[3.9454677,50.9372037],[3.9455535,50.9372527],[3.9455796,50.9373001],[3.9455554,50.9373542],[3.9455026,50.9374031],[3.9454141,50.9374479],[3.9452787,50.9374335],[3.9451593,50.9374014],[3.9450466,50.9373693],[3.9449607,50.9373566],[3.9448964,50.9374056],[3.944909,50.9374496],[3.9449259,50.9374986],[3.9449474,50.9375273],[3.9450217,50.9375705],[3.945119,50.9376279],[3.9451638,50.9376652],[3.9452255,50.9377446],[3.9452952,50.9378528],[3.9453095,50.9379186],[3.9453167,50.9380083],[3.9453569,50.9380641],[3.9454409,50.9381214],[3.9455232,50.9381604],[3.9456332,50.9381874],[3.9457172,50.9382144],[3.9457646,50.9382635],[3.9457386,50.9383209],[3.9456689,50.9383817],[3.9456466,50.9384427],[3.9456474,50.9385102],[3.9457064,50.9385457],[3.9457896,50.938522],[3.9458647,50.9385034],[3.9458907,50.9385508],[3.9458915,50.9386184],[3.9458826,50.9387148],[3.9458271,50.9387789],[3.9458037,50.9388066],[3.9458003,50.9388169],[3.94581,50.9388282],[3.9458566,50.9388584],[3.9459371,50.9388922],[3.9459612,50.9389344],[3.9459953,50.9389548],[3.9460516,50.9389599],[3.9461436,50.9390037],[3.9462241,50.9390561],[3.9462616,50.9390967],[3.9463019,50.9391423],[3.9463027,50.9391747],[3.9463319,50.9392381],[3.9463523,50.9393024],[3.946349,50.9393347],[3.9463485,50.9393748]]}}]}