{"type":"FeatureCollection","features":[{"type":"Feature","id":"gebouw/Gebouw.12866644/0","properties":{"source":"Digitaal Vlaanderen Gebouwenregister","source_id":"gebouw/Gebouw.12866644/0","kind":"building","building":"official","height_m":8.1,"status":null},"geometry":{"type":"Polygon","coordinates":[[[3.94743853,50.95070205],[3.94750449,50.95064582],[3.94765814,50.95071579],[3.94759287,50.95077248],[3.94743853,50.95070205]]]}},{"type":"Feature","id":"gebouw/Gebouw.12915003/0","properties":{"source":"Digitaal Vlaanderen Gebouwenregister","source_id":"gebouw/Gebouw.12915003/0","kind":"building","building":"official","height_m":7.35,"status":null},"geometry":{"type":"Polygon","coordinates":[[[3.94653402,50.94935147],[3.94649261,50.94939166],[3.94642443,50.94936243],[3.94646897,50.94932103],[3.94653402,50.94935147]]]}},{"type":"Feature","id":"gebouw/Gebouw.12936356/0","properties":{"source":"Digitaal Vlaanderen Gebouwenregister","source_id":"gebouw/Gebouw.12936356/0","kind":"building","building":"official","height_m":6.6,"status":null},"geometry":{"type":"Polygon","coordinates":[[[3.94591654,50.94949295],[3.94581645,50.94958687],[3.94573747,50.94955285],[3.94575081,50.94954128],[3.9456919,50.94951423],[3.94577409,50.94943322],[3.94582982,50.94945662],[3.94582698,50.94945932],[3.94585763,50.94947208],[3.94586031,50.94946952],[3.94591654,50.94949295]]]}},{"type":"Feature","id":"gebouw/Gebouw.13023367/0","properties":{"source":"Digitaal Vlaanderen Gebouwenregister","source_id":"gebouw/Gebouw.13023367/0","kind":"building","building":"official","height_m":5.85,"status":null},"geometry":{"type":"Polygon","coordinates":[[[3.94548625,50.94963842],[3.94537509,50.94959064],[3.94544626,50.94952471],[3.9455566,50.94957474],[3.94548625,50.94963842]]]}},{"type":"Feature","id":"gebouw/Gebouw.13072274/0","properties":{"source":"Digitaal Vlaanderen Gebouwenregister","source_id":"gebouw/Gebouw.13072274/0","kind":"building","building":"official","height_m":6.6,"status":null},"geometry":{"type":"Polygon","coordinates":[[[3.9479127,50.95158602],[3.94796315,50.95154051],[3.9480537,50.95157467],[3.94803671,50.95159185],[3.94808146,50.95160997],[3.94805933,50.95163007],[3.94809726,50.95164611],[3.94804718,50.95169373],[3.94809175,50.95171065],[3.94805605,50.95174603],[3.94784399,50.95165561],[3.94787388,50.95162736],[3.94789286,50.95163478],[3.94790658,50.95162147],[3.94784009,50.95159346],[3.94785062,50.95158205],[3.94786327,50.95158709],[3.94786606,50.951586],[3.94786897,50.95158504],[3.94787197,50.95158421],[3.94787506,50.95158351],[3.94787822,50.95158295],[3.94788143,50.95158253],[3.94788469,50.95158225],[3.94788796,50.95158211],[3.94789124,50.95158212],[3.94789451,50.95158228],[3.94789776,50.95158258],[3.94790097,50.95158302],[3.94790411,50.9515836],[3.94790719,50.95158432],[3.94791018,50.95158517],[3.9479127,50.95158602]]]}},{"type":"Feature","id":"gebouw/Gebouw.13099299/0","properties":{"source":"Digitaal Vlaanderen Gebouwenregister","source_id":"gebouw/Gebouw.13099299/0","kind":"building","building":"official","height_m":7.35,"status":null},"geometry":{"type":"Polygon","coordinates":[[[3.94639927,50.9491304],[3.94645565,50.94915506],[3.94641829,50.94918873],[3.94636222,50.94916409],[3.94639927,50.9491304]]]}},{"type":"Feature","id":"gebouw/Gebouw.13135366/0","properties":{"source":"Digitaal Vlaanderen Gebouwenregister","source_id":"gebouw/Gebouw.13135366/0","kind":"building","building":"official","height_m":8.1,"status":null},"geometry":{"type":"Polygon","coordinates":[[[3.94454111,50.94885044],[3.94452205,50.9487273],[3.94462036,50.94872107],[3.94462265,50.9487392],[3.9448488,50.94872244],[3.9448683,50.94883022],[3.94454111,50.94885044]]]}},{"type":"Feature","id":"gebouw/Gebouw.13205733/0","properties":{"source":"Digitaal Vlaanderen Gebouwenregister","source_id":"gebouw/Gebouw.13205733/0","kind":"building","building":"official","height_m":7.35,"status":null},"geometry":{"type":"Polygon","coordinates":[[[3.94552783,50.9492705],[3.9454287,50.94934389],[3.94542786,50.94934345],[3.94521668,50.94923291],[3.94529174,50.94916143],[3.94531745,50.94913695],[3.94551766,50.94925116],[3.945603,50.9491882],[3.94565799,50.94921736],[3.94556586,50.94928773],[3.94552825,50.94927018],[3.94552783,50.9492705]]]}},{"type":"Feature","id":"gebouw/Gebouw.13206732/0","properties":{"source":"Digitaal Vlaanderen Gebouwenregister","source_id":"gebouw/Gebouw.13206732/0","kind":"building","building":"official","height_m":5.1,"status":null},"geometry":{"type":"Polygon","coordinates":[[[3.94623056,50.95026708],[3.94618299,50.95030134],[3.94612317,50.95026817],[3.94611551,50.95027422],[3.94607801,50.95025381],[3.94613303,50.95019916],[3.94622981,50.95025185],[3.94623056,50.95026708]]]}},{"type":"Feature","id":"gebouw/Gebouw.13214376/0","properties":{"source":"Digitaal Vlaanderen Gebouwenregister","source_id":"gebouw/Gebouw.13214376/0","kind":"building","building":"official","height_m":5.1,"status":null},"geometry":{"type":"Polygon","coordinates":[[[3.94565059,50.95038056],[3.94581238,50.95022434],[3.94589432,50.9502588],[3.94573086,50.95041499],[3.94565059,50.95038056]]]}},{"type":"Feature","id":"gebouw/Gebouw.13240799/0","properties":{"source":"Digitaal Vlaanderen Gebouwenregister","source_id":"gebouw/Gebouw.13240799/0","kind":"building","building":"official","height_m":8.85,"status":null},"geometry":{"type":"Polygon","coordinates":[[[3.9421348,50.94882356],[3.94215191,50.94885409],[3.94218891,50.94884736],[3.94220715,50.94889178],[3.94217221,50.94889633],[3.94219627,50.94895394],[3.94215959,50.94896017],[3.94205256,50.94891647],[3.94207368,50.9489103],[3.94204207,50.94884101],[3.9421348,50.94882356]]]}},{"type":"Feature","id":"gebouw/Gebouw.13240979/0","properties":{"source":"Digitaal Vlaanderen Gebouwenregister","source_id":"gebouw/Gebouw.13240979/0","kind":"building","building":"official","height_m":8.85,"status":null},"geometry":{"type":"Polygon","coordinates":[[[3.94807605,50.95113003],[3.94804232,50.95111089],[3.94808736,50.95107976],[3.9481187,50.95109915],[3.94807605,50.95113003]]]}},{"type":"Feature","id":"gebouw/Gebouw.13245101/0","properties":{"source":"Digitaal Vlaanderen Gebouwenregister","source_id":"gebouw/Gebouw.13245101/0","kind":"building","building":"official","height_m":8.85,"status":null},"geometry":{"type":"Polygon","coordinates":[[[3.94236056,50.94887001],[3.94241624,50.94889363],[3.9424235,50.9488967],[3.94238645,50.94893079],[3.94232491,50.94890338],[3.94225242,50.94887109],[3.94228683,50.94883875],[3.94236056,50.94887001]]]}},{"type":"Feature","id":"gebouw/Gebouw.13254213/0","properties":{"source":"Digitaal Vlaanderen Gebouwenregister","source_id":"gebouw/Gebouw.13254213/0","kind":"building","building":"official","height_m":7.35,"status":null},"geometry":{"type":"Polygon","coordinates":[[[3.94761178,50.95080381],[3.9477372,50.95087719],[3.94769001,50.95090297],[3.94767983,50.95089605],[3.94766504,50.95090136],[3.94762651,50.95087747],[3.94763267,50.95087306],[3.94756832,50.95083455],[3.94761178,50.95080381]]]}},{"type":"Feature","id":"gebouw/Gebouw.13260363/0","properties":{"source":"Digitaal Vlaanderen Gebouwenregister","source_id":"gebouw/Gebouw.13260363/0","kind":"building","building":"official","height_m":7.35,"status":null},"geometry":{"type":"Polygon","coordinates":[[[3.94643505,50.95022855],[3.94622763,50.95043452],[3.94615025,50.95040466],[3.94636203,50.95020263],[3.94633665,50.95017807],[3.94628576,50.95019614],[3.94623022,50.95013669],[3.94628988,50.9501147],[3.94630381,50.95012851],[3.94639286,50.95009549],[3.94647699,50.9501869],[3.94640255,50.95021405],[3.94643505,50.95022855]]]}},{"type":"Feature","id":"gebouw/Gebouw.13260385/0","properties":{"source":"Digitaal Vlaanderen Gebouwenregister","source_id":"gebouw/Gebouw.13260385/0","kind":"building","building":"official","height_m":5.85,"status":null},"geometry":{"type":"Polygon","coordinates":[[[3.94620321,50.95147549],[3.94637848,50.95134398],[3.94640847,50.95135993],[3.9464807,50.95130574],[3.94645072,50.95128979],[3.94651666,50.95124031],[3.94638073,50.95116496],[3.94606693,50.95140254],[3.94620321,50.95147549]]]}},{"type":"Feature","id":"gebouw/Gebouw.13265780/0","properties":{"source":"Digitaal Vlaanderen Gebouwenregister","source_id":"gebouw/Gebouw.13265780/0","kind":"building","building":"official","height_m":6.6,"status":null},"geometry":{"type":"Polygon","coordinates":[[[3.94604472,50.94987848],[3.94599564,50.94984828],[3.94599466,50.94984768],[3.94594926,50.94981976],[3.94599529,50.94978914],[3.94608917,50.94972669],[3.94613099,50.94975237],[3.94613532,50.94975503],[3.94612091,50.9497644],[3.94614508,50.94977925],[3.94618696,50.94980495],[3.9461079,50.94985789],[3.94609038,50.94984724],[3.94604472,50.94987848]]]}},{"type":"Feature","id":"gebouw/Gebouw.13290373/0","properties":{"source":"Digitaal Vlaanderen Gebouwenregister","source_id":"gebouw/Gebouw.13290373/0","kind":"building","building":"official","height_m":5.85,"status":null},"geometry":{"type":"Polygon","coordinates":[[[3.94650748,50.95071671],[3.94662794,50.95077767],[3.94669517,50.95081168],[3.94648468,50.95096884],[3.94659893,50.95102226],[3.94655932,50.95105455],[3.94644486,50.95100052],[3.94626186,50.95090037],[3.94632102,50.95085805],[3.94639049,50.95080835],[3.94637903,50.95080317],[3.94649855,50.95071219],[3.94650748,50.95071671]]]}},{"type":"Feature","id":"gebouw/Gebouw.13308313/0","properties":{"source":"Digitaal Vlaanderen Gebouwenregister","source_id":"gebouw/Gebouw.13308313/0","kind":"building","building":"official","height_m":5.85,"status":null},"geometry":{"type":"Polygon","coordinates":[[[3.9471003,50.95028677],[3.94703142,50.9503475],[3.94687322,50.95027757],[3.94694211,50.95021648],[3.94707776,50.95027676],[3.9470947,50.95026064],[3.94707506,50.95025185],[3.94714245,50.95019038],[3.94717757,50.95020502],[3.94722566,50.95016444],[3.94733352,50.95021126],[3.94736477,50.95018455],[3.94731999,50.9501619],[3.94737559,50.95011332],[3.94747531,50.95015961],[3.94739378,50.95023989],[3.94734612,50.95028682],[3.94731408,50.95027269],[3.94724765,50.95032876],[3.94711684,50.95027218],[3.9471003,50.95028677]]]}},{"type":"Feature","id":"gebouw/Gebouw.13329471/0","properties":{"source":"Digitaal Vlaanderen Gebouwenregister","source_id":"gebouw/Gebouw.13329471/0","kind":"building","building":"official","height_m":7.35,"status":null},"geometry":{"type":"Polygon","coordinates":[[[3.94254361,50.94897885],[3.94248223,50.94895486],[3.94250343,50.94893439],[3.9425643,50.94895898],[3.94254361,50.94897885]]]}},{"type":"Feature","id":"gebouw/Gebouw.13347755/0","properties":{"source":"Digitaal Vlaanderen Gebouwenregister","source_id":"gebouw/Gebouw.13347755/0","kind":"building","building":"official","height_m":8.85,"status":null},"geometry":{"type":"Polygon","coordinates":[[[3.94639376,50.94873151],[3.94630914,50.94869836],[3.94621966,50.94878519],[3.94617574,50.94882781],[3.94626012,50.94886096],[3.94626042,50.94886068],[3.9463007,50.94882165],[3.94639376,50.94873151]]]}},{"type":"Feature","id":"gebouw/Gebouw.13357038/0","properties":{"source":"Digitaal Vlaanderen Gebouwenregister","source_id":"gebouw/Gebouw.13357038/0","kind":"building","building":"official","height_m":5.1,"status":null},"geometry":{"type":"Polygon","coordinates":[[[3.94231526,50.94914841],[3.94229748,50.94916573],[3.94236813,50.94919466],[3.94235702,50.94920549],[3.94242418,50.949233],[3.94231024,50.94934401],[3.94169761,50.9490931],[3.94168646,50.94910272],[3.94168382,50.949105],[3.94159953,50.94906837],[3.94159321,50.94907461],[3.94158769,50.94907267],[3.94158,50.94906957],[3.94157267,50.94906614],[3.94156573,50.9490624],[3.94155923,50.94905836],[3.94155319,50.94905405],[3.94154763,50.94904948],[3.94154473,50.9490467],[3.9415426,50.94904467],[3.94153811,50.94903966],[3.94153418,50.94903446],[3.94153084,50.9490291],[3.9415281,50.9490236],[3.94152597,50.949018],[3.94152446,50.94901231],[3.94147391,50.94901421],[3.94148259,50.94897567],[3.94157297,50.94896705],[3.94158343,50.94895446],[3.94161332,50.94893547],[3.94165239,50.94892472],[3.94168387,50.9489236],[3.9416865,50.9489238],[3.9417266,50.94893552],[3.9417438,50.94891891],[3.94172162,50.94890975],[3.941725,50.94890648],[3.94174515,50.94891478],[3.94176822,50.94889555],[3.94183512,50.94892803],[3.941818,50.94894377],[3.94231526,50.94914841]]]}},{"type":"Feature","id":"gebouw/Gebouw.13372649/0","properties":{"source":"Digitaal Vlaanderen Gebouwenregister","source_id":"gebouw/Gebouw.13372649/0","kind":"building","building":"official","height_m":8.85,"status":null},"geometry":{"type":"Polygon","coordinates":[[[3.94858778,50.95164587],[3.94870518,50.95169762],[3.94864615,50.95175105],[3.94823994,50.95156504],[3.94828672,50.95152687],[3.94831472,50.95150403],[3.94838922,50.95144324],[3.9485023,50.95149627],[3.94841769,50.95157747],[3.94846777,50.95160157],[3.94846316,50.95160585],[3.94857592,50.95165555],[3.94858778,50.95164587]]]}},{"type":"Feature","id":"gebouw/Gebouw.13398003/0","properties":{"source":"Digitaal Vlaanderen Gebouwenregister","source_id":"gebouw/Gebouw.13398003/0","kind":"building","building":"official","height_m":7.35,"status":null},"geometry":{"type":"Polygon","coordinates":[[[3.94542365,50.94941454],[3.94538328,50.94939045],[3.94529065,50.9494706],[3.94532481,50.94948635],[3.94534729,50.9494669],[3.94535434,50.94947098],[3.94535982,50.94946653],[3.94542365,50.94941454]]]}},{"type":"Feature","id":"gebouw/Gebouw.13398053/0","properties":{"source":"Digitaal Vlaanderen Gebouwenregister","source_id":"gebouw/Gebouw.13398053/0","kind":"building","building":"official","height_m":8.85,"status":null},"geometry":{"type":"Polygon","coordinates":[[[3.94749761,50.95074092],[3.94745969,50.95077822],[3.94737159,50.95074289],[3.94741144,50.95070473],[3.94749761,50.95074092]]]}},{"type":"Feature","id":"gebouw/Gebouw.13408149/0","properties":{"source":"Digitaal Vlaanderen Gebouwenregister","source_id":"gebouw/Gebouw.13408149/0","kind":"building","building":"official","height_m":7.35,"status":null},"geometry":{"type":"Polygon","coordinates":[[[3.94748582,50.95092427],[3.94730973,50.95081842],[3.94738743,50.95076703],[3.94747081,50.95081733],[3.94745798,50.95082674],[3.94755108,50.9508837],[3.94748582,50.95092427]]]}},{"type":"Feature","id":"gebouw/Gebouw.13419872/0","properties":{"source":"Digitaal Vlaanderen Gebouwenregister","source_id":"gebouw/Gebouw.13419872/0","kind":"building","building":"official","height_m":6.6,"status":null},"geometry":{"type":"Polygon","coordinates":[[[3.94690843,50.95011687],[3.94682986,50.9500852],[3.94684833,50.95006698],[3.94680208,50.95004834],[3.94681021,50.95004008],[3.94675832,50.95002083],[3.94682418,50.94995104],[3.94687899,50.94997342],[3.94689224,50.94995979],[3.94694567,50.94998108],[3.94697687,50.94995015],[3.94704673,50.94997907],[3.94690843,50.95011687]]]}},{"type":"Feature","id":"gebouw/Gebouw.13435520/0","properties":{"source":"Digitaal Vlaanderen Gebouwenregister","source_id":"gebouw/Gebouw.13435520/0","kind":"building","building":"official","height_m":6.6,"status":null},"geometry":{"type":"Polygon","coordinates":[[[3.94607273,50.95116624],[3.94599841,50.95113734],[3.94615743,50.95097399],[3.94616664,50.95097597],[3.94620761,50.95094521],[3.94648248,50.95109265],[3.94643906,50.95112472],[3.94622536,50.95101227],[3.94607273,50.95116624]]]}},{"type":"Feature","id":"gebouw/Gebouw.13456166/0","properties":{"source":"Digitaal Vlaanderen Gebouwenregister","source_id":"gebouw/Gebouw.13456166/0","kind":"building","building":"official","height_m":6.6,"status":null},"geometry":{"type":"Polygon","coordinates":[[[3.9474892,50.95135801],[3.94743357,50.95126752],[3.94746455,50.95125991],[3.94744931,50.95123514],[3.94760468,50.95119735],[3.94762964,50.95120458],[3.94765054,50.95124397],[3.94770694,50.95123082],[3.94774469,50.95129884],[3.9474892,50.95135801]]]}},{"type":"Feature","id":"gebouw/Gebouw.13461692/0","properties":{"source":"Digitaal Vlaanderen Gebouwenregister","source_id":"gebouw/Gebouw.13461692/0","kind":"building","building":"official","height_m":6.6,"status":null},"geometry":{"type":"Polygon","coordinates":[[[3.94557977,50.94995495],[3.94573987,50.950022],[3.94578837,50.95004231],[3.9455492,50.95027007],[3.94552477,50.95025954],[3.94544276,50.95022419],[3.94529058,50.95015859],[3.94548401,50.94997287],[3.94552609,50.94993247],[3.94568016,50.94978454],[3.9458746,50.94986942],[3.94581008,50.94993015],[3.94583231,50.94994004],[3.94577518,50.9499907],[3.94570798,50.94996268],[3.94576075,50.94991345],[3.94566455,50.9498724],[3.94557977,50.94995495]]]}},{"type":"Feature","id":"gebouw/Gebouw.13466355/0","properties":{"source":"Digitaal Vlaanderen Gebouwenregister","source_id":"gebouw/Gebouw.13466355/0","kind":"building","building":"official","height_m":7.35,"status":null},"geometry":{"type":"Polygon","coordinates":[[[3.94220705,50.94873097],[3.94226596,50.9487203],[3.94226728,50.94872004],[3.94226699,50.94871921],[3.94234481,50.94870373],[3.94238114,50.94877832],[3.94240307,50.9487746],[3.94241162,50.94879619],[3.94248807,50.9487818],[3.94252099,50.94885323],[3.9424448,50.94886733],[3.94241624,50.94889363],[3.94236816,50.94887324],[3.94236056,50.94887001],[3.94228683,50.94883875],[3.94223181,50.94881542],[3.94224115,50.9488068],[3.94220705,50.94873097]]]}},{"type":"Feature","id":"gebouw/Gebouw.13490330/0","properties":{"source":"Digitaal Vlaanderen Gebouwenregister","source_id":"gebouw/Gebouw.13490330/0","kind":"building","building":"official","height_m":6.6,"status":null},"geometry":{"type":"Polygon","coordinates":[[[3.94886718,50.95130738],[3.94869463,50.95120803],[3.94873679,50.95117729],[3.94876756,50.95119335],[3.94879069,50.95117749],[3.94886257,50.95121825],[3.94884678,50.95123002],[3.94891885,50.95127199],[3.94886718,50.95130738]]]}},{"type":"Feature","id":"gebouw/Gebouw.13500630/0","properties":{"source":"Digitaal Vlaanderen Gebouwenregister","source_id":"gebouw/Gebouw.13500630/0","kind":"building","building":"official","height_m":5.1,"status":null},"geometry":{"type":"Polygon","coordinates":[[[3.94709107,50.95145326],[3.94708796,50.95145391],[3.94697601,50.95147652],[3.94698419,50.95149626],[3.94692666,50.95150804],[3.94689654,50.9514507],[3.94693772,50.95144194],[3.9469062,50.95137885],[3.94702915,50.95135281],[3.94705607,50.95140403],[3.94706436,50.9514023],[3.94709107,50.95145326]]]}},{"type":"Feature","id":"gebouw/Gebouw.13512390/0","properties":{"source":"Digitaal Vlaanderen Gebouwenregister","source_id":"gebouw/Gebouw.13512390/0","kind":"building","building":"official","height_m":5.1,"status":null},"geometry":{"type":"Polygon","coordinates":[[[3.94617991,50.9490061],[3.94629827,50.94907963],[3.94632007,50.94905607],[3.94628733,50.94904162],[3.94632997,50.94900004],[3.94636347,50.9490136],[3.94642763,50.94894995],[3.9465086,50.94898455],[3.94636153,50.94912114],[3.9462773,50.94917474],[3.94609264,50.94906085],[3.94617991,50.9490061]]]}},{"type":"Feature","id":"gebouw/Gebouw.13546286/0","properties":{"source":"Digitaal Vlaanderen Gebouwenregister","source_id":"gebouw/Gebouw.13546286/0","kind":"building","building":"official","height_m":6.6,"status":null},"geometry":{"type":"Polygon","coordinates":[[[3.94130744,50.94912097],[3.94134429,50.94908433],[3.94136926,50.94909435],[3.9413847,50.94907899],[3.94141611,50.94904834],[3.94155586,50.94910529],[3.94154986,50.94911231],[3.94155453,50.94911407],[3.94155739,50.94912664],[3.94153439,50.94914933],[3.94151707,50.9491518],[3.94151101,50.9491494],[3.94148727,50.94917238],[3.94146114,50.94916199],[3.94144613,50.94917838],[3.94130744,50.94912097]]]}},{"type":"Feature","id":"gebouw/Gebouw.13546490/0","properties":{"source":"Digitaal Vlaanderen Gebouwenregister","source_id":"gebouw/Gebouw.13546490/0","kind":"building","building":"official","height_m":6.6,"status":null},"geometry":{"type":"Polygon","coordinates":[[[3.94521668,50.94923291],[3.94521075,50.94923855],[3.94519147,50.94922922],[3.94524613,50.94918109],[3.94505719,50.94910486],[3.94484516,50.94901932],[3.94493169,50.94893529],[3.94509863,50.94900501],[3.94509242,50.94901063],[3.9451389,50.94903014],[3.94519777,50.94905485],[3.94525925,50.94899749],[3.9453974,50.9490551],[3.94528641,50.9491586],[3.94529174,50.94916143],[3.94521668,50.94923291]]]}},{"type":"Feature","id":"gebouw/Gebouw.13546647/0","properties":{"source":"Digitaal Vlaanderen Gebouwenregister","source_id":"gebouw/Gebouw.13546647/0","kind":"building","building":"official","height_m":7.35,"status":null},"geometry":{"type":"Polygon","coordinates":[[[3.94641804,50.94929737],[3.9464628,50.94931745],[3.94638636,50.94938813],[3.94635816,50.9494142],[3.9463818,50.94942441],[3.94640026,50.94943237],[3.94636189,50.9494689],[3.94634991,50.94946407],[3.94631695,50.94949664],[3.94624336,50.94946691],[3.946355,50.94935856],[3.94641535,50.94929998],[3.94641804,50.94929737]]]}},{"type":"Feature","id":"gebouw/Gebouw.13554597/0","properties":{"source":"Digitaal Vlaanderen Gebouwenregister","source_id":"gebouw/Gebouw.13554597/0","kind":"building","building":"official","height_m":7.35,"status":null},"geometry":{"type":"Polygon","coordinates":[[[3.94615416,50.95004905],[3.94614326,50.95004223],[3.94609464,50.9500733],[3.94608215,50.95006464],[3.94605466,50.95008193],[3.94598494,50.95004091],[3.94601177,50.95002225],[3.94599805,50.95001448],[3.94602049,50.94999996],[3.94604496,50.94998413],[3.9460665,50.94999656],[3.94611465,50.94996533],[3.94620104,50.95001946],[3.94615416,50.95004905]]]}},{"type":"Feature","id":"gebouw/Gebouw.13563969/0","properties":{"source":"Digitaal Vlaanderen Gebouwenregister","source_id":"gebouw/Gebouw.13563969/0","kind":"building","building":"official","height_m":7.35,"status":null},"geometry":{"type":"Polygon","coordinates":[[[3.94565499,50.94910837],[3.94556441,50.94917124],[3.94553013,50.949153],[3.94551052,50.94916485],[3.94542894,50.94911714],[3.94544545,50.94910523],[3.94543543,50.94909993],[3.9455287,50.9490359],[3.94565499,50.94910837]]]}},{"type":"Feature","id":"gebouw/Gebouw.13589078/0","properties":{"source":"Digitaal Vlaanderen Gebouwenregister","source_id":"gebouw/Gebouw.13589078/0","kind":"building","building":"official","height_m":6.6,"status":null},"geometry":{"type":"Polygon","coordinates":[[[3.94589985,50.94886696],[3.94604663,50.94883297],[3.94610383,50.9489296],[3.9461023,50.94892998],[3.94596926,50.94896261],[3.94592938,50.94889664],[3.9459191,50.94889909],[3.94589985,50.94886696]]]}},{"type":"Feature","id":"gebouw/Gebouw.13626587/0","properties":{"source":"Digitaal Vlaanderen Gebouwenregister","source_id":"gebouw/Gebouw.13626587/0","kind":"building","building":"official","height_m":8.85,"status":null},"geometry":{"type":"Polygon","coordinates":[[[3.94616918,50.95015916],[3.94609038,50.95012928],[3.94612379,50.9500916],[3.94620475,50.95012122],[3.94616918,50.95015916]]]}},{"type":"Feature","id":"gebouw/Gebouw.13659801/0","properties":{"source":"Digitaal Vlaanderen Gebouwenregister","source_id":"gebouw/Gebouw.13659801/0","kind":"building","building":"official","height_m":7.35,"status":null},"geometry":{"type":"Polygon","coordinates":[[[3.94690806,50.95115028],[3.94698549,50.95126393],[3.94687174,50.9512952],[3.94684062,50.95125018],[3.94682058,50.95125569],[3.9467804,50.95119411],[3.94680263,50.95118772],[3.94679697,50.95118084],[3.94690806,50.95115028]]]}},{"type":"Feature","id":"gebouw/Gebouw.13659836/0","properties":{"source":"Digitaal Vlaanderen Gebouwenregister","source_id":"gebouw/Gebouw.13659836/0","kind":"building","building":"official","height_m":6.6,"status":null},"geometry":{"type":"Polygon","coordinates":[[[3.94579754,50.95009751],[3.94586349,50.95012702],[3.94565611,50.95033169],[3.9455889,50.95030397],[3.94579754,50.95009751]]]}},{"type":"Feature","id":"gebouw/Gebouw.13660283/0","properties":{"source":"Digitaal Vlaanderen Gebouwenregister","source_id":"gebouw/Gebouw.13660283/0","kind":"building","building":"official","height_m":8.85,"status":null},"geometry":{"type":"Polygon","coordinates":[[[3.9459422,50.94882197],[3.94593479,50.94881175],[3.9458178,50.948841],[3.94578591,50.94879082],[3.94578742,50.94879044],[3.94575125,50.94873419],[3.9458683,50.94870419],[3.94591481,50.94877327],[3.94595603,50.94876361],[3.94596213,50.94877125],[3.94599999,50.94873517],[3.94605855,50.94875926],[3.94601237,50.948805],[3.9459422,50.94882197]]]}},{"type":"Feature","id":"gebouw/Gebouw.13660320/0","properties":{"source":"Digitaal Vlaanderen Gebouwenregister","source_id":"gebouw/Gebouw.13660320/0","kind":"building","building":"official","height_m":5.1,"status":null},"geometry":{"type":"Polygon","coordinates":[[[3.94607168,50.95025037],[3.94606216,50.95025832],[3.94592129,50.95018679],[3.94587746,50.95022277],[3.9458332,50.95019908],[3.94587327,50.95016183],[3.94586814,50.95015933],[3.94594736,50.95009809],[3.94601668,50.95013583],[3.94613303,50.95019916],[3.94607168,50.95025037]]]}},{"type":"Feature","id":"gebouw/Gebouw.13762608/0","properties":{"source":"Digitaal Vlaanderen Gebouwenregister","source_id":"gebouw/Gebouw.13762608/0","kind":"building","building":"official","height_m":5.1,"status":null},"geometry":{"type":"Polygon","coordinates":[[[3.94688555,50.95088611],[3.94672943,50.95100692],[3.94664387,50.95096291],[3.94679192,50.95084592],[3.94678498,50.95084098],[3.94674998,50.95078099],[3.94674491,50.9507824],[3.94670838,50.95071907],[3.94680922,50.95069375],[3.94682943,50.950727],[3.94682829,50.95072728],[3.94689514,50.95083838],[3.94689239,50.95083904],[3.94686545,50.95086022],[3.94685298,50.95087004],[3.94688555,50.95088611]]]}},{"type":"Feature","id":"gebouw/Gebouw.13772627/0","properties":{"source":"Digitaal Vlaanderen Gebouwenregister","source_id":"gebouw/Gebouw.13772627/0","kind":"building","building":"official","height_m":8.85,"status":null},"geometry":{"type":"Polygon","coordinates":[[[3.94778968,50.9509518],[3.94772182,50.95091172],[3.94775503,50.95088911],[3.94782339,50.9509286],[3.94778968,50.9509518]]]}},{"type":"Feature","id":"gebouw/Gebouw.13804677/0","properties":{"source":"Digitaal Vlaanderen Gebouwenregister","source_id":"gebouw/Gebouw.13804677/0","kind":"building","building":"official","height_m":7.35,"status":null},"geometry":{"type":"Polygon","coordinates":[[[3.94739378,50.95023989],[3.94747531,50.95015961],[3.94748934,50.95014579],[3.94753382,50.9501648],[3.94754222,50.95015817],[3.94757469,50.95017351],[3.947687,50.95007818],[3.9476068,50.95004225],[3.94773331,50.94993331],[3.94874505,50.95039915],[3.94849662,50.95061003],[3.94857055,50.95064238],[3.94846559,50.95073332],[3.94830481,50.95065904],[3.94819415,50.9507547],[3.94763523,50.95049989],[3.94774557,50.95040076],[3.94751924,50.95029863],[3.94751376,50.95030381],[3.94742229,50.9502639],[3.94743075,50.95025607],[3.94739378,50.95023989]],[[3.94771573,50.95009116],[3.94760488,50.95018591],[3.94763336,50.95019968],[3.94762445,50.95020691],[3.94766298,50.95022537],[3.94778436,50.95012463],[3.94771573,50.95009116]]]}},{"type":"Feature","id":"gebouw/Gebouw.14888935/0","properties":{"source":"Digitaal Vlaanderen Gebouwenregister","source_id":"gebouw/Gebouw.14888935/0","kind":"building","building":"official","height_m":5.85,"status":null},"geometry":{"type":"Polygon","coordinates":[[[3.94654868,50.94955662],[3.94666789,50.94960595],[3.94657082,50.94969897],[3.9464512,50.9496488],[3.94654465,50.94956043],[3.94654868,50.94955662]]]}},{"type":"Feature","id":"gebouw/Gebouw.16710854/0","properties":{"source":"Digitaal Vlaanderen Gebouwenregister","source_id":"gebouw/Gebouw.16710854/0","kind":"building","building":"official","height_m":6.6,"status":null},"geometry":{"type":"Polygon","coordinates":[[[3.94769165,50.9518814],[3.94778503,50.95179342],[3.94779633,50.95179693],[3.94784313,50.95175316],[3.94795739,50.95180137],[3.94794853,50.9518101],[3.94804955,50.95185274],[3.94798891,50.95190989],[3.94788948,50.95186653],[3.94781828,50.95193453],[3.94769165,50.9518814]]]}},{"type":"Feature","id":"gebouw/Gebouw.16718481/0","properties":{"source":"Digitaal Vlaanderen Gebouwenregister","source_id":"gebouw/Gebouw.16718481/0","kind":"building","building":"official","height_m":7.35,"status":null},"geometry":{"type":"Polygon","coordinates":[[[3.9473605,50.95115071],[3.94733157,50.95110365],[3.94733655,50.95109714],[3.94732621,50.95108171],[3.94732362,50.95108094],[3.94732905,50.95107348],[3.94730944,50.95106765],[3.94729332,50.95104142],[3.94734273,50.95102995],[3.94735733,50.95103428],[3.94738411,50.95102752],[3.9473928,50.95101457],[3.94744631,50.95100263],[3.94749439,50.951085],[3.94755388,50.95107205],[3.94758331,50.95112877],[3.94748371,50.95115321],[3.94748081,50.95114849],[3.94746659,50.951152],[3.94745338,50.95113263],[3.94746811,50.95112867],[3.94745985,50.95111587],[3.94739836,50.95113074],[3.94740533,50.95114036],[3.9473605,50.95115071]]]}},{"type":"Feature","id":"gebouw/Gebouw.16739699/0","properties":{"source":"Digitaal Vlaanderen Gebouwenregister","source_id":"gebouw/Gebouw.16739699/0","kind":"building","building":"official","height_m":8.85,"status":null},"geometry":{"type":"Polygon","coordinates":[[[3.94789739,50.9508148],[3.94790139,50.9508166],[3.94792511,50.95079548],[3.94797215,50.95081656],[3.94790575,50.95087569],[3.9478601,50.95085613],[3.94785602,50.95085439],[3.94789739,50.9508148]]]}},{"type":"Feature","id":"gebouw/Gebouw.16764038/0","properties":{"source":"Digitaal Vlaanderen Gebouwenregister","source_id":"gebouw/Gebouw.16764038/0","kind":"building","building":"official","height_m":6.6,"status":null},"geometry":{"type":"Polygon","coordinates":[[[3.94619603,50.94937135],[3.94615572,50.94930547],[3.94621153,50.94929185],[3.94620648,50.94928359],[3.94628342,50.94926462],[3.9463134,50.9493197],[3.94635492,50.94928067],[3.94647822,50.94916474],[3.9465316,50.94918714],[3.94641803,50.94929737],[3.94639717,50.94931762],[3.9463849,50.94932953],[3.946355,50.94935856],[3.94631301,50.9493424],[3.94619603,50.94937135]]]}},{"type":"Feature","id":"gebouw/Gebouw.16764263/0","properties":{"source":"Digitaal Vlaanderen Gebouwenregister","source_id":"gebouw/Gebouw.16764263/0","kind":"building","building":"official","height_m":8.85,"status":null},"geometry":{"type":"Polygon","coordinates":[[[3.94573183,50.94937921],[3.94569146,50.94940712],[3.94568574,50.94940389],[3.94561634,50.94945178],[3.94552718,50.94940114],[3.94559502,50.9493518],[3.94557716,50.94934163],[3.94565823,50.94928356],[3.94575277,50.94933785],[3.9457107,50.94936708],[3.94573183,50.94937921]]]}},{"type":"Feature","id":"gebouw/Gebouw.18241759/0","properties":{"source":"Digitaal Vlaanderen Gebouwenregister","source_id":"gebouw/Gebouw.18241759/0","kind":"building","building":"official","height_m":5.85,"status":null},"geometry":{"type":"Polygon","coordinates":[[[3.9477073,50.95209109],[3.94769921,50.95209946],[3.94767752,50.9520911],[3.94766486,50.9521042],[3.94765616,50.95210085],[3.94763447,50.95212329],[3.94757761,50.95209911],[3.94756836,50.95209518],[3.94755189,50.95210974],[3.94750557,50.95209037],[3.94753143,50.9520657],[3.94751621,50.95205918],[3.94756363,50.95201407],[3.94757254,50.9520056],[3.94768262,50.95205337],[3.94769631,50.95205931],[3.94772569,50.95207206],[3.94772249,50.95207536],[3.9477073,50.95209109]]]}},{"type":"Feature","id":"gebouw/Gebouw.18241760/0","properties":{"source":"Digitaal Vlaanderen Gebouwenregister","source_id":"gebouw/Gebouw.18241760/0","kind":"building","building":"official","height_m":6.6,"status":null},"geometry":{"type":"Polygon","coordinates":[[[3.94770381,50.95194969],[3.94776244,50.95197516],[3.94768262,50.95205337],[3.94757254,50.9520056],[3.94763288,50.95194852],[3.94768242,50.95196933],[3.94770381,50.95194969]]]}},{"type":"Feature","id":"gebouw/Gebouw.18242258/0","properties":{"source":"Digitaal Vlaanderen Gebouwenregister","source_id":"gebouw/Gebouw.18242258/0","kind":"building","building":"official","height_m":6.6,"status":null},"geometry":{"type":"Polygon","coordinates":[[[3.94654465,50.94956043],[3.9464512,50.9496488],[3.94633306,50.94959899],[3.94643274,50.94951291],[3.94654465,50.94956043]]]}},{"type":"Feature","id":"gebouw/Gebouw.18362112/0","properties":{"source":"Digitaal Vlaanderen Gebouwenregister","source_id":"gebouw/Gebouw.18362112/0","kind":"building","building":"official","height_m":5.1,"status":null},"geometry":{"type":"Polygon","coordinates":[[[3.94816904,50.95187314],[3.94813415,50.95190683],[3.94823628,50.95194903],[3.94827118,50.95191534],[3.94816904,50.95187314]]]}},{"type":"Feature","id":"gebouw/Gebouw.18362113/0","properties":{"source":"Digitaal Vlaanderen Gebouwenregister","source_id":"gebouw/Gebouw.18362113/0","kind":"building","building":"official","height_m":5.85,"status":null},"geometry":{"type":"Polygon","coordinates":[[[3.94780866,50.95203203],[3.94790836,50.95207217],[3.94785388,50.95212768],[3.94775376,50.95208424],[3.94780866,50.95203203]]]}},{"type":"Feature","id":"gebouw/Gebouw.18362114/0","properties":{"source":"Digitaal Vlaanderen Gebouwenregister","source_id":"gebouw/Gebouw.18362114/0","kind":"building","building":"official","height_m":6.6,"status":null},"geometry":{"type":"Polygon","coordinates":[[[3.94831908,50.95227346],[3.94827988,50.952257],[3.94835015,50.95219024],[3.94838935,50.9522067],[3.94831908,50.95227346]]]}},{"type":"Feature","id":"gebouw/Gebouw.18362115/0","properties":{"source":"Digitaal Vlaanderen Gebouwenregister","source_id":"gebouw/Gebouw.18362115/0","kind":"building","building":"official","height_m":7.35,"status":null},"geometry":{"type":"Polygon","coordinates":[[[3.94827785,50.95239157],[3.94825921,50.95241473],[3.94820647,50.95239544],[3.94822759,50.95237207],[3.94827785,50.95239157]]]}},{"type":"Feature","id":"gebouw/Gebouw.18362116/0","properties":{"source":"Digitaal Vlaanderen Gebouwenregister","source_id":"gebouw/Gebouw.18362116/0","kind":"building","building":"official","height_m":8.1,"status":null},"geometry":{"type":"Polygon","coordinates":[[[3.94864319,50.95232224],[3.94872582,50.95235774],[3.94867008,50.95240706],[3.94859018,50.95237167],[3.94864319,50.95232224]]]}},{"type":"Feature","id":"gebouw/Gebouw.18362643/0","properties":{"source":"Digitaal Vlaanderen Gebouwenregister","source_id":"gebouw/Gebouw.18362643/0","kind":"building","building":"official","height_m":7.35,"status":null},"geometry":{"type":"Polygon","coordinates":[[[3.94847139,50.95237986],[3.94851594,50.95239831],[3.94849348,50.95242315],[3.94844802,50.95240445],[3.94847139,50.95237986]]]}},{"type":"Feature","id":"gebouw/Gebouw.18493819/0","properties":{"source":"Digitaal Vlaanderen Gebouwenregister","source_id":"gebouw/Gebouw.18493819/0","kind":"building","building":"official","height_m":5.85,"status":null},"geometry":{"type":"Polygon","coordinates":[[[3.94888141,50.95118995],[3.9489023,50.95119951],[3.9488884,50.95121205],[3.94882195,50.95127199],[3.9487319,50.95123113],[3.94881482,50.95115948],[3.94888141,50.95118995]]]}},{"type":"Feature","id":"gebouw/Gebouw.18861838/0","properties":{"source":"Digitaal Vlaanderen Gebouwenregister","source_id":"gebouw/Gebouw.18861838/0","kind":"building","building":"official","height_m":8.1,"status":null},"geometry":{"type":"Polygon","coordinates":[[[3.9455874,50.94978791],[3.94548872,50.94988497],[3.94538958,50.94984266],[3.94541922,50.94981638],[3.94546112,50.94983202],[3.94552755,50.94976435],[3.9455874,50.94978791]]]}},{"type":"Feature","id":"gebouw/Gebouw.18861839/0","properties":{"source":"Digitaal Vlaanderen Gebouwenregister","source_id":"gebouw/Gebouw.18861839/0","kind":"building","building":"official","height_m":8.85,"status":null},"geometry":{"type":"Polygon","coordinates":[[[3.94665944,50.95141651],[3.94668805,50.95148433],[3.94663846,50.95149243],[3.9466358,50.95148534],[3.9466123,50.95148885],[3.94660052,50.95145742],[3.9465849,50.95145975],[3.94657269,50.95143113],[3.94665944,50.95141651]]]}},{"type":"Feature","id":"gebouw/Gebouw.18861840/0","properties":{"source":"Digitaal Vlaanderen Gebouwenregister","source_id":"gebouw/Gebouw.18861840/0","kind":"building","building":"official","height_m":5.1,"status":null},"geometry":{"type":"Polygon","coordinates":[[[3.94801234,50.9511164],[3.94805837,50.95116551],[3.94799271,50.95119079],[3.9479475,50.9511403],[3.94801234,50.9511164]]]}},{"type":"Feature","id":"gebouw/Gebouw.18862614/0","properties":{"source":"Digitaal Vlaanderen Gebouwenregister","source_id":"gebouw/Gebouw.18862614/0","kind":"building","building":"official","height_m":5.1,"status":null},"geometry":{"type":"Polygon","coordinates":[[[3.94677323,50.94949454],[3.94681841,50.94951349],[3.9467637,50.9495653],[3.94671845,50.9495459],[3.94677323,50.94949454]]]}},{"type":"Feature","id":"gebouw/Gebouw.18862615/0","properties":{"source":"Digitaal Vlaanderen Gebouwenregister","source_id":"gebouw/Gebouw.18862615/0","kind":"building","building":"official","height_m":5.85,"status":null},"geometry":{"type":"Polygon","coordinates":[[[3.94647456,50.94877187],[3.94639273,50.94873776],[3.94638787,50.94874264],[3.94632364,50.94880706],[3.94631002,50.94882071],[3.9463893,50.94885415],[3.94640171,50.94884218],[3.94647456,50.94877187]]]}},{"type":"Feature","id":"gebouw/Gebouw.19298545/0","properties":{"source":"Digitaal Vlaanderen Gebouwenregister","source_id":"gebouw/Gebouw.19298545/0","kind":"building","building":"official","height_m":5.85,"status":null},"geometry":{"type":"Polygon","coordinates":[[[3.94656585,50.95045887],[3.94651001,50.95051416],[3.946348,50.95044888],[3.94635665,50.95044032],[3.94631817,50.95042481],[3.94636062,50.95038278],[3.94633733,50.9503734],[3.94639891,50.95031242],[3.94647336,50.950342],[3.94641627,50.95039859],[3.94656585,50.95045887]]]}},{"type":"Feature","id":"gebouw/Gebouw.19298556/0","properties":{"source":"Digitaal Vlaanderen Gebouwenregister","source_id":"gebouw/Gebouw.19298556/0","kind":"building","building":"official","height_m":5.1,"status":null},"geometry":{"type":"Polygon","coordinates":[[[3.94601238,50.948805],[3.94605748,50.94876032],[3.94600745,50.94874017],[3.94596395,50.94878107],[3.94592003,50.9487925],[3.94593908,50.948821],[3.94601238,50.948805]]]}},{"type":"Feature","id":"gebouw/Gebouw.19706891/0","properties":{"source":"Digitaal Vlaanderen Gebouwenregister","source_id":"gebouw/Gebouw.19706891/0","kind":"building","building":"official","height_m":8.85,"status":null},"geometry":{"type":"Polygon","coordinates":[[[3.94739378,50.95023989],[3.94734612,50.95028682],[3.94731408,50.95027269],[3.94724765,50.95032876],[3.94711684,50.95027218],[3.9471003,50.95028677],[3.94707776,50.95027676],[3.9470947,50.95026064],[3.94707506,50.95025185],[3.94714245,50.95019038],[3.94717757,50.95020502],[3.94722566,50.95016444],[3.94733352,50.95021126],[3.94736477,50.95018455],[3.94731999,50.9501619],[3.94737559,50.95011332],[3.94747531,50.95015961],[3.94739378,50.95023989]]]}},{"type":"Feature","id":"gebouw/Gebouw.19706892/0","properties":{"source":"Digitaal Vlaanderen Gebouwenregister","source_id":"gebouw/Gebouw.19706892/0","kind":"building","building":"official","height_m":5.1,"status":null},"geometry":{"type":"Polygon","coordinates":[[[3.9471003,50.95028677],[3.94703142,50.9503475],[3.94687322,50.95027757],[3.94694211,50.95021648],[3.94705077,50.95026477],[3.94707776,50.95027676],[3.9471003,50.95028677]]]}},{"type":"Feature","id":"gebouw/Gebouw.19711406/0","properties":{"source":"Digitaal Vlaanderen Gebouwenregister","source_id":"gebouw/Gebouw.19711406/0","kind":"building","building":"official","height_m":6.6,"status":null},"geometry":{"type":"Polygon","coordinates":[[[3.94236816,50.94887324],[3.94233132,50.94890623],[3.94225242,50.94887109],[3.94228683,50.94883875],[3.94236056,50.94887001],[3.94236816,50.94887324]]]}},{"type":"Feature","id":"gebouw/Gebouw.19711407/0","properties":{"source":"Digitaal Vlaanderen Gebouwenregister","source_id":"gebouw/Gebouw.19711407/0","kind":"building","building":"official","height_m":7.35,"status":null},"geometry":{"type":"Polygon","coordinates":[[[3.9424235,50.9488967],[3.94238645,50.94893079],[3.94233132,50.94890623],[3.94236816,50.94887324],[3.94241624,50.94889363],[3.9424235,50.9488967]]]}},{"type":"Feature","id":"gebouw/Gebouw.19719917/0","properties":{"source":"Digitaal Vlaanderen Gebouwenregister","source_id":"gebouw/Gebouw.19719917/0","kind":"building","building":"official","height_m":8.85,"status":null},"geometry":{"type":"Polygon","coordinates":[[[3.946355,50.94935856],[3.94631301,50.9493424],[3.94619603,50.94937135],[3.94615572,50.94930547],[3.94621153,50.94929185],[3.94620648,50.94928359],[3.94628342,50.94926462],[3.9463134,50.9493197],[3.94635956,50.9492763],[3.94641535,50.94929998],[3.946355,50.94935856]]]}},{"type":"Feature","id":"gebouw/Gebouw.19719918/0","properties":{"source":"Digitaal Vlaanderen Gebouwenregister","source_id":"gebouw/Gebouw.19719918/0","kind":"building","building":"official","height_m":5.1,"status":null},"geometry":{"type":"Polygon","coordinates":[[[3.94641804,50.94929737],[3.94641535,50.94929998],[3.94635956,50.9492763],[3.94647822,50.94916474],[3.94653159,50.94918714],[3.94641804,50.94929737]]]}},{"type":"Feature","id":"gebouw/Gebouw.19720182/0","properties":{"source":"Digitaal Vlaanderen Gebouwenregister","source_id":"gebouw/Gebouw.19720182/0","kind":"building","building":"official","height_m":5.1,"status":null},"geometry":{"type":"Polygon","coordinates":[[[3.94575917,50.95003299],[3.94583208,50.95006335],[3.94560083,50.95028364],[3.94554881,50.95026199],[3.94551709,50.95029239],[3.94526188,50.95018614],[3.94529058,50.95015859],[3.94542033,50.95003412],[3.94552368,50.94993495],[3.94573752,50.95002398],[3.94575917,50.95003299]]]}},{"type":"Feature","id":"gebouw/Gebouw.19720183/0","properties":{"source":"Digitaal Vlaanderen Gebouwenregister","source_id":"gebouw/Gebouw.19720183/0","kind":"building","building":"official","height_m":5.85,"status":null},"geometry":{"type":"Polygon","coordinates":[[[3.9458746,50.94986942],[3.94581008,50.94993015],[3.94583231,50.94994004],[3.94577518,50.9499907],[3.94570798,50.94996268],[3.94576075,50.94991345],[3.94566455,50.9498724],[3.94557977,50.94995495],[3.94552609,50.94993247],[3.94568016,50.94978454],[3.9458746,50.94986942]]]}},{"type":"Feature","id":"gebouw/Gebouw.19954811/0","properties":{"source":"Digitaal Vlaanderen Gebouwenregister","source_id":"gebouw/Gebouw.19954811/0","kind":"building","building":"official","height_m":8.85,"status":null},"geometry":{"type":"Polygon","coordinates":[[[3.94707607,50.94973429],[3.94703172,50.9497163],[3.94707762,50.94966891],[3.9471223,50.94968597],[3.94707607,50.94973429]]]}},{"type":"Feature","id":"gebouw/Gebouw.19954997/0","properties":{"source":"Digitaal Vlaanderen Gebouwenregister","source_id":"gebouw/Gebouw.19954997/0","kind":"building","building":"official","height_m":8.85,"status":null},"geometry":{"type":"Polygon","coordinates":[[[3.94649829,50.94939368],[3.94652816,50.94936682],[3.9465688,50.94938485],[3.94653892,50.94941172],[3.94649829,50.94939368]]]}},{"type":"Feature","id":"gebouw/Gebouw.19956314/0","properties":{"source":"Digitaal Vlaanderen Gebouwenregister","source_id":"gebouw/Gebouw.19956314/0","kind":"building","building":"official","height_m":6.6,"status":null},"geometry":{"type":"Polygon","coordinates":[[[3.94588889,50.95011579],[3.94590051,50.95012324],[3.94602399,50.95020236],[3.9458992,50.95028226],[3.94583355,50.95024157],[3.94583208,50.95019599],[3.9458311,50.95016559],[3.945799,50.95014557],[3.94586934,50.95010326],[3.94588889,50.95011579]]]}},{"type":"Feature","id":"gebouw/Gebouw.20194482/0","properties":{"source":"Digitaal Vlaanderen Gebouwenregister","source_id":"gebouw/Gebouw.20194482/0","kind":"building","building":"official","height_m":5.1,"status":null},"geometry":{"type":"Polygon","coordinates":[[[3.94794277,50.95206408],[3.94797286,50.95203911],[3.94801215,50.95205801],[3.94798206,50.95208298],[3.94794277,50.95206408]]]}},{"type":"Feature","id":"gebouw/Gebouw.20194483/0","properties":{"source":"Digitaal Vlaanderen Gebouwenregister","source_id":"gebouw/Gebouw.20194483/0","kind":"building","building":"official","height_m":5.85,"status":null},"geometry":{"type":"Polygon","coordinates":[[[3.94850513,50.95195551],[3.94852842,50.95193191],[3.94857474,50.95195018],[3.94855146,50.95197376],[3.94850513,50.95195551]]]}},{"type":"Feature","id":"gebouw/Gebouw.20723779/0","properties":{"source":"Digitaal Vlaanderen Gebouwenregister","source_id":"gebouw/Gebouw.20723779/0","kind":"building","building":"official","height_m":5.85,"status":null},"geometry":{"type":"Polygon","coordinates":[[[3.94615085,50.94991235],[3.94626892,50.94998499],[3.94621606,50.95001956],[3.94623704,50.95003296],[3.94611068,50.95011469],[3.94597112,50.95002858],[3.94615085,50.94991235]]]}},{"type":"Feature","id":"gebouw/Gebouw.20723831/0","properties":{"source":"Digitaal Vlaanderen Gebouwenregister","source_id":"gebouw/Gebouw.20723831/0","kind":"building","building":"official","height_m":8.85,"status":null},"geometry":{"type":"Polygon","coordinates":[[[3.94601881,50.94959342],[3.94596576,50.94956071],[3.94589241,50.94963819],[3.94589616,50.94964098],[3.94586487,50.94966268],[3.94586681,50.94966381],[3.94590401,50.9496854],[3.94591303,50.94969063],[3.94591444,50.94969145],[3.9459165,50.94969269],[3.94592488,50.94969756],[3.94589183,50.94971939],[3.94593573,50.94974443],[3.94606948,50.94966282],[3.94604279,50.94960825],[3.94603862,50.94960567],[3.94603634,50.94960426],[3.94601881,50.94959342]]]}},{"type":"Feature","id":"gebouw/Gebouw.20802230/0","properties":{"source":"Digitaal Vlaanderen Gebouwenregister","source_id":"gebouw/Gebouw.20802230/0","kind":"building","building":"official","height_m":6.6,"status":null},"geometry":{"type":"Polygon","coordinates":[[[3.94201696,50.94923032],[3.94199753,50.94924963],[3.94199414,50.94925301],[3.94193359,50.94922871],[3.94193799,50.94922434],[3.94195641,50.94920602],[3.94201696,50.94923032]]]}},{"type":"Feature","id":"gebouw/Gebouw.20911195/0","properties":{"source":"Digitaal Vlaanderen Gebouwenregister","source_id":"gebouw/Gebouw.20911195/0","kind":"building","building":"official","height_m":5.85,"status":null},"geometry":{"type":"Polygon","coordinates":[[[3.94552368,50.94993495],[3.94542033,50.95003412],[3.94529058,50.95015859],[3.94526188,50.95018614],[3.94541119,50.9502483],[3.94543851,50.95022227],[3.945596,50.95028824],[3.94583208,50.95006335],[3.94575917,50.95003299],[3.94573752,50.95002398],[3.94552368,50.94993495]]]}},{"type":"Feature","id":"gebouw/Gebouw.31326826/0","properties":{"source":"Digitaal Vlaanderen Gebouwenregister","source_id":"gebouw/Gebouw.31326826/0","kind":"building","building":"official","height_m":8.1,"status":null},"geometry":{"type":"Polygon","coordinates":[[[3.94553271,50.94956661],[3.945473,50.94961976],[3.94543465,50.94960257],[3.94545054,50.94958843],[3.94541372,50.94957192],[3.94545754,50.94953291],[3.94553271,50.94956661]]]}},{"type":"Feature","id":"gebouw/Gebouw.31844765/0","properties":{"source":"Digitaal Vlaanderen Gebouwenregister","source_id":"gebouw/Gebouw.31844765/0","kind":"building","building":"official","height_m":8.85,"status":null},"geometry":{"type":"Polygon","coordinates":[[[3.94807715,50.95123237],[3.94802906,50.9511836],[3.94801115,50.95119061],[3.94805921,50.95123936],[3.94806236,50.95124255],[3.94808027,50.95123554],[3.94807715,50.95123237]]]}},{"type":"Feature","id":"gebouw/Gebouw.31844861/0","properties":{"source":"Digitaal Vlaanderen Gebouwenregister","source_id":"gebouw/Gebouw.31844861/0","kind":"building","building":"official","height_m":8.85,"status":null},"geometry":{"type":"Polygon","coordinates":[[[3.94717552,50.94985954],[3.94725641,50.94978429],[3.94720764,50.94976337],[3.94712675,50.94983862],[3.94717552,50.94985954]]]}},{"type":"Feature","id":"gebouw/Gebouw.31844889/0","properties":{"source":"Digitaal Vlaanderen Gebouwenregister","source_id":"gebouw/Gebouw.31844889/0","kind":"building","building":"official","height_m":7.35,"status":null},"geometry":{"type":"Polygon","coordinates":[[[3.94573931,50.9498009],[3.9457655,50.9497839],[3.9457641,50.94978306],[3.94572366,50.94975871],[3.94568953,50.94978133],[3.94573307,50.94980385],[3.94573402,50.94980434],[3.94573931,50.9498009]]]}},{"type":"Feature","id":"gebouw/Gebouw.31845467/0","properties":{"source":"Digitaal Vlaanderen Gebouwenregister","source_id":"gebouw/Gebouw.31845467/0","kind":"building","building":"official","height_m":8.85,"status":null},"geometry":{"type":"Polygon","coordinates":[[[3.94803595,50.95124843],[3.94802733,50.95122534],[3.94800528,50.95119619],[3.9479885,50.95119867],[3.94799117,50.95122254],[3.94800301,50.9512552],[3.94803595,50.95124843]]]}},{"type":"Feature","id":"gebouw/Gebouw.32034830/0","properties":{"source":"Digitaal Vlaanderen Gebouwenregister","source_id":"gebouw/Gebouw.32034830/0","kind":"building","building":"official","height_m":6.6,"status":null},"geometry":{"type":"Polygon","coordinates":[[[3.94577473,50.94977791],[3.9457655,50.9497839],[3.94573931,50.9498009],[3.94578024,50.94982381],[3.94581416,50.94980165],[3.94577473,50.94977791]]]}},{"type":"Feature","id":"way/175422485","properties":{"source":"OpenStreetMap","source_id":"way/175422485","kind":"vegetation","landuse":"forest","natural":null,"name":null},"geometry":{"type":"Polygon","coordinates":[[[3.9500157,50.9512175],[3.9501301,50.9512502],[3.9500667,50.9513189],[3.9499942,50.9514103],[3.9499599,50.9514678],[3.9499604,50.9515596],[3.9499968,50.9515704],[3.9499369,50.9516027],[3.9499369,50.9516391],[3.9500053,50.9516727],[3.95011,50.9517104],[3.9501934,50.9517468],[3.9503024,50.9517037],[3.9503494,50.9516983],[3.9504434,50.9516916],[3.9504926,50.951631],[3.950499,50.9515866],[3.9505439,50.9515623],[3.9507073,50.9514959],[3.9506686,50.9514448],[3.9505048,50.951491],[3.950452,50.9514425],[3.9504156,50.9514102],[3.9504413,50.9513483],[3.9504498,50.9512998],[3.9504285,50.9512809],[3.9503024,50.9512648],[3.9502917,50.9512446],[3.9503857,50.9511625],[3.9505075,50.9510103],[3.9505994,50.950838],[3.9506101,50.950733],[3.9505139,50.9506414],[3.9504306,50.9505795],[3.950296,50.9505404],[3.9501015,50.9505],[3.9500237,50.9505183],[3.949898,50.9506672],[3.9494334,50.9511918],[3.9492563,50.9513929],[3.9493127,50.9514275],[3.9490752,50.9515216],[3.9491057,50.9515674],[3.9492017,50.9515623],[3.9493086,50.9515744],[3.9493599,50.9516041],[3.949392,50.9516498],[3.9495323,50.9515916],[3.9494497,50.9515139],[3.9494582,50.9514277],[3.9495159,50.9513577],[3.9496185,50.9512648],[3.9497403,50.9512002],[3.9498044,50.9511625],[3.9498536,50.951145],[3.94991,50.951153],[3.9499239,50.9510949],[3.949872,50.9510579],[3.9498713,50.9510325],[3.9500363,50.9508379],[3.9501362,50.9507234],[3.9502224,50.9506157],[3.9502969,50.9506025],[3.9503365,50.950609],[3.950468,50.9506641],[3.9505664,50.9507261],[3.9506024,50.9507537],[3.950593,50.950796],[3.950436,50.9510324],[3.9503389,50.9511867],[3.9502848,50.9512115],[3.9500662,50.9511559],[3.9500157,50.9512175]]]}},{"type":"Feature","id":"way/175422499","properties":{"source":"OpenStreetMap","source_id":"way/175422499","kind":"water","name":null},"geometry":{"type":"Polygon","coordinates":[[[3.9503389,50.9511867],[3.9502848,50.9512115],[3.9500662,50.9511559],[3.9500157,50.9512175],[3.9499114,50.9511855],[3.94991,50.951153],[3.9499239,50.9510949],[3.949872,50.9510579],[3.9498713,50.9510325],[3.9500363,50.9508379],[3.9501362,50.9507234],[3.9502224,50.9506157],[3.9502969,50.9506025],[3.9503365,50.950609],[3.950468,50.9506641],[3.9505664,50.9507261],[3.9506024,50.9507537],[3.950593,50.950796],[3.950436,50.9510324],[3.9503389,50.9511867]]]}},{"type":"Feature","id":"way/175459035","properties":{"source":"OpenStreetMap","source_id":"way/175459035","kind":"vegetation","landuse":"forest","natural":null,"name":null},"geometry":{"type":"Polygon","coordinates":[[[3.9464679,50.9507039],[3.9460009,50.9512426],[3.9464861,50.9514111],[3.9464921,50.9515997],[3.9467446,50.951692],[3.9465766,50.951842],[3.9465689,50.9518803],[3.9465689,50.9519225],[3.9465154,50.9520195],[3.9464239,50.9520293],[3.9463481,50.9520068],[3.946211,50.9519572],[3.9456587,50.9523314],[3.9452083,50.9522558],[3.9453743,50.9518861],[3.9456046,50.9517986],[3.9457434,50.9517509],[3.9455883,50.9516236],[3.9456432,50.9515583],[3.9450692,50.9513399],[3.9458253,50.950596],[3.9460894,50.9506963],[3.9464679,50.9507039]]]}},{"type":"Feature","id":"way/175459061","properties":{"source":"OpenStreetMap","source_id":"way/175459061","kind":"vegetation","landuse":"forest","natural":null,"name":null},"geometry":{"type":"Polygon","coordinates":[[[3.9444678,50.94911],[3.9449177,50.9487249],[3.9453001,50.9489309],[3.9454641,50.9491406],[3.9456686,50.9491273],[3.9453388,50.9494902],[3.9444678,50.94911]]]}},{"type":"Feature","id":"way/255597393","properties":{"source":"OpenStreetMap","source_id":"way/255597393","kind":"water","name":null},"geometry":{"type":"Polygon","coordinates":[[[3.9515176,50.9516774],[3.9515028,50.951642],[3.9509208,50.9512356],[3.950867,50.9512453],[3.9506901,50.951384],[3.9513325,50.9517746],[3.9514747,50.9517172],[3.9515176,50.9516774]]]}},{"type":"Feature","id":"way/404556894","properties":{"source":"OpenStreetMap","source_id":"way/404556894","kind":"waterway","waterway":"stream","name":null},"geometry":{"type":"LineString","coordinates":[[3.9514184,50.9498059],[3.9513379,50.9500053],[3.9511877,50.9501152],[3.9509892,50.9503095],[3.9508068,50.9505258],[3.9506941,50.9507016],[3.9507102,50.9509584],[3.9506137,50.9512524],[3.9501523,50.9515532],[3.9498734,50.9517424],[3.9504796,50.9521277],[3.9501738,50.9523778],[3.9499646,50.95254],[3.9496856,50.952807],[3.9495837,50.9529016]]}},{"type":"Feature","id":"way/404559255","properties":{"source":"OpenStreetMap","source_id":"way/404559255","kind":"waterway","waterway":"stream","name":"Zijpbeek"},"geometry":{"type":"LineString","coordinates":[[3.9468915,50.9518886],[3.947016,50.9519484],[3.9472038,50.9520406],[3.9472928,50.9520929],[3.9474648,50.9521265],[3.9481311,50.9523246]]}},{"type":"Feature","id":"way/467733283","properties":{"source":"OpenStreetMap","source_id":"way/467733283","kind":"waterway","waterway":"stream","name":null},"geometry":{"type":"LineString","coordinates":[[3.951464,50.9497569],[3.9514184,50.9498059]]}},{"type":"Feature","id":"way/653117320","properties":{"source":"OpenStreetMap","source_id":"way/653117320","kind":"water","name":null},"geometry":{"type":"Polygon","coordinates":[[[3.951728,50.9514689],[3.9516717,50.9514385],[3.9512587,50.95106],[3.9515618,50.9509164],[3.9519909,50.9513625],[3.951728,50.9514689]]]}}]}