{"type":"FeatureCollection","features":[{"type":"Feature","id":"gebouw/Gebouw.13055957/0","properties":{"source":"Digitaal Vlaanderen Gebouwenregister","source_id":"gebouw/Gebouw.13055957/0","kind":"building","building":"official","height_m":8.85,"status":null},"geometry":{"type":"Polygon","coordinates":[[[3.94167475,50.88768427],[3.94172995,50.88758742],[3.94176229,50.88759476],[3.94177841,50.88756636],[3.9417627,50.88756279],[3.94176318,50.88756194],[3.9417911,50.88751296],[3.94170667,50.88749371],[3.94167829,50.88754351],[3.94167823,50.88754361],[3.94166653,50.88754095],[3.94159541,50.88766626],[3.94167475,50.88768427]]]}},{"type":"Feature","id":"gebouw/Gebouw.13275526/0","properties":{"source":"Digitaal Vlaanderen Gebouwenregister","source_id":"gebouw/Gebouw.13275526/0","kind":"building","building":"official","height_m":8.1,"status":null},"geometry":{"type":"Polygon","coordinates":[[[3.94200209,50.88788661],[3.94198502,50.88784311],[3.94204642,50.88783348],[3.94206348,50.88787698],[3.94200209,50.88788661]]]}},{"type":"Feature","id":"gebouw/Gebouw.13298277/0","properties":{"source":"Digitaal Vlaanderen Gebouwenregister","source_id":"gebouw/Gebouw.13298277/0","kind":"building","building":"official","height_m":7.35,"status":null},"geometry":{"type":"Polygon","coordinates":[[[3.94469742,50.88797181],[3.94466616,50.88795476],[3.94470763,50.88792501],[3.94473924,50.88794037],[3.94469742,50.88797181]]]}},{"type":"Feature","id":"gebouw/Gebouw.13305963/0","properties":{"source":"Digitaal Vlaanderen Gebouwenregister","source_id":"gebouw/Gebouw.13305963/0","kind":"building","building":"official","height_m":7.35,"status":null},"geometry":{"type":"Polygon","coordinates":[[[3.94264746,50.8874304],[3.94259049,50.88741666],[3.94262135,50.88736547],[3.94267833,50.88737922],[3.94264746,50.8874304]]]}},{"type":"Feature","id":"gebouw/Gebouw.13316024/0","properties":{"source":"Digitaal Vlaanderen Gebouwenregister","source_id":"gebouw/Gebouw.13316024/0","kind":"building","building":"official","height_m":6.6,"status":null},"geometry":{"type":"Polygon","coordinates":[[[3.9459247,50.88733364],[3.94587975,50.8873147],[3.94590131,50.88729536],[3.94594626,50.8873143],[3.9459247,50.88733364]]]}},{"type":"Feature","id":"gebouw/Gebouw.13345569/0","properties":{"source":"Digitaal Vlaanderen Gebouwenregister","source_id":"gebouw/Gebouw.13345569/0","kind":"building","building":"official","height_m":7.35,"status":null},"geometry":{"type":"Polygon","coordinates":[[[3.94240878,50.88777709],[3.94233971,50.88791367],[3.94225844,50.88789791],[3.94226093,50.88789287],[3.94226513,50.8878937],[3.94226737,50.88788916],[3.94226933,50.88788412],[3.9421934,50.88786938],[3.9422351,50.88777827],[3.94220009,50.88777176],[3.94220862,50.8877529],[3.94223871,50.88775924],[3.94225413,50.88772732],[3.94238928,50.88775322],[3.94242825,50.88767485],[3.94251851,50.88769312],[3.94247253,50.88779087],[3.94240878,50.88777709]]]}},{"type":"Feature","id":"gebouw/Gebouw.13510684/0","properties":{"source":"Digitaal Vlaanderen Gebouwenregister","source_id":"gebouw/Gebouw.13510684/0","kind":"building","building":"official","height_m":8.1,"status":null},"geometry":{"type":"Polygon","coordinates":[[[3.94455991,50.88734163],[3.94461119,50.88736502],[3.94455647,50.88741301],[3.94450519,50.88738961],[3.94455991,50.88734163]]]}},{"type":"Feature","id":"gebouw/Gebouw.13563536/0","properties":{"source":"Digitaal Vlaanderen Gebouwenregister","source_id":"gebouw/Gebouw.13563536/0","kind":"building","building":"official","height_m":6.6,"status":null},"geometry":{"type":"Polygon","coordinates":[[[3.94176012,50.88784962],[3.94159172,50.88781026],[3.94161403,50.88777274],[3.94159923,50.88776922],[3.94161792,50.88773716],[3.9416279,50.88774007],[3.94163692,50.88772497],[3.94171976,50.88774372],[3.94172622,50.88773535],[3.94181431,50.88775716],[3.94176012,50.88784962]]]}},{"type":"Feature","id":"gebouw/Gebouw.13655695/0","properties":{"source":"Digitaal Vlaanderen Gebouwenregister","source_id":"gebouw/Gebouw.13655695/0","kind":"building","building":"official","height_m":5.85,"status":null},"geometry":{"type":"Polygon","coordinates":[[[3.94202218,50.88748421],[3.94203702,50.88745582],[3.94210471,50.88746997],[3.94208986,50.88749837],[3.94202218,50.88748421]]]}},{"type":"Feature","id":"gebouw/Gebouw.16686900/0","properties":{"source":"Digitaal Vlaanderen Gebouwenregister","source_id":"gebouw/Gebouw.16686900/0","kind":"building","building":"official","height_m":5.1,"status":null},"geometry":{"type":"Polygon","coordinates":[[[3.94139043,50.88783016],[3.9412594,50.88780076],[3.94127945,50.88776502],[3.94127342,50.8877635],[3.94126734,50.88776197],[3.94129123,50.88772452],[3.94125446,50.88771637],[3.9412903,50.88765378],[3.94132982,50.88766323],[3.94132701,50.88766827],[3.9414172,50.88768917],[3.94142179,50.88768415],[3.94149452,50.8877005],[3.94145829,50.88776188],[3.94143401,50.88775635],[3.94139043,50.88783016]]]}},{"type":"Feature","id":"gebouw/Gebouw.19719786/0","properties":{"source":"Digitaal Vlaanderen Gebouwenregister","source_id":"gebouw/Gebouw.19719786/0","kind":"building","building":"official","height_m":5.1,"status":null},"geometry":{"type":"Polygon","coordinates":[[[3.94143401,50.88775635],[3.94139043,50.88783016],[3.9412594,50.88780076],[3.94127945,50.88776502],[3.94127342,50.8877635],[3.94126734,50.88776197],[3.94129123,50.88772452],[3.94143401,50.88775635]]]}},{"type":"Feature","id":"gebouw/Gebouw.19719787/0","properties":{"source":"Digitaal Vlaanderen Gebouwenregister","source_id":"gebouw/Gebouw.19719787/0","kind":"building","building":"official","height_m":5.85,"status":null},"geometry":{"type":"Polygon","coordinates":[[[3.94145829,50.88776188],[3.94149452,50.8877005],[3.9415011,50.88768935],[3.94142737,50.88767194],[3.9414172,50.88768917],[3.94140017,50.88768522],[3.94140969,50.88766878],[3.9413325,50.8876509],[3.9413259,50.8876623],[3.9412903,50.88765378],[3.94125446,50.88771637],[3.94129123,50.88772452],[3.94126734,50.88776197],[3.94127342,50.8877635],[3.94127945,50.88776502],[3.9412594,50.88780076],[3.94139043,50.88783016],[3.94143401,50.88775635],[3.94145829,50.88776188]]]}},{"type":"Feature","id":"gebouw/Gebouw.19955500/0","properties":{"source":"Digitaal Vlaanderen Gebouwenregister","source_id":"gebouw/Gebouw.19955500/0","kind":"building","building":"official","height_m":8.1,"status":null},"geometry":{"type":"Polygon","coordinates":[[[3.94510006,50.88755688],[3.9451586,50.88750281],[3.94522105,50.88752986],[3.94516252,50.88758393],[3.94510006,50.88755688]]]}},{"type":"Feature","id":"way/163705330","properties":{"source":"OpenStreetMap","source_id":"way/163705330","kind":"vegetation","landuse":"forest","natural":null,"name":null},"geometry":{"type":"Polygon","coordinates":[[[3.945054,50.8871705],[3.9449614,50.8871419],[3.9446211,50.8876797],[3.9448538,50.8877651],[3.9444997,50.8881003],[3.9447783,50.8882643],[3.9447885,50.8883754],[3.9448552,50.8883809],[3.9448683,50.8883128],[3.9457844,50.8874033],[3.945054,50.8871705]]]}}]}