{"type":"FeatureCollection","features":[{"type":"Feature","id":"gebouw/Gebouw.12893576/0","properties":{"source":"Digitaal Vlaanderen Gebouwenregister","source_id":"gebouw/Gebouw.12893576/0","kind":"building","building":"official","height_m":6.6,"status":null},"geometry":{"type":"Polygon","coordinates":[[[3.93134136,50.93421431],[3.93127221,50.93421312],[3.93127005,50.93426305],[3.93128933,50.93426838],[3.93126939,50.93430854],[3.93122592,50.93434404],[3.9311629,50.93434328],[3.93116232,50.93435201],[3.93110495,50.93435107],[3.93110728,50.93428265],[3.93109195,50.93424905],[3.93108404,50.9342317],[3.93108312,50.93422968],[3.93116089,50.93423108],[3.93126224,50.934211],[3.93126789,50.93420988],[3.93127239,50.93420898],[3.9312755,50.93413711],[3.93133669,50.93413817],[3.93134136,50.93421431]]]}},{"type":"Feature","id":"gebouw/Gebouw.12979698/0","properties":{"source":"Digitaal Vlaanderen Gebouwenregister","source_id":"gebouw/Gebouw.12979698/0","kind":"building","building":"official","height_m":5.1,"status":null},"geometry":{"type":"Polygon","coordinates":[[[3.9311556,50.93494365],[3.93114795,50.93495541],[3.93100851,50.93491959],[3.93106134,50.93484051],[3.93119562,50.93487717],[3.93124584,50.93489088],[3.93124568,50.93489108],[3.93120654,50.93494215],[3.93118469,50.93493567],[3.93118577,50.93493422],[3.93116576,50.93492804],[3.9311556,50.93494365]]]}},{"type":"Feature","id":"gebouw/Gebouw.13008970/0","properties":{"source":"Digitaal Vlaanderen Gebouwenregister","source_id":"gebouw/Gebouw.13008970/0","kind":"building","building":"official","height_m":8.1,"status":null},"geometry":{"type":"Polygon","coordinates":[[[3.93124229,50.93097002],[3.93140521,50.93103197],[3.93140845,50.93102859],[3.93145885,50.93104795],[3.93149507,50.93101029],[3.93144467,50.93099093],[3.93148947,50.93094436],[3.9314601,50.93093484],[3.93146543,50.93092885],[3.93133964,50.93088152],[3.93131338,50.93090936],[3.93132501,50.93091375],[3.93131795,50.93092084],[3.9312967,50.93091284],[3.93124229,50.93097002]]]}},{"type":"Feature","id":"gebouw/Gebouw.13009009/0","properties":{"source":"Digitaal Vlaanderen Gebouwenregister","source_id":"gebouw/Gebouw.13009009/0","kind":"building","building":"official","height_m":5.85,"status":null},"geometry":{"type":"Polygon","coordinates":[[[3.93189106,50.93442732],[3.93180891,50.93441439],[3.93177921,50.93440968],[3.93177225,50.93442721],[3.93170194,50.93441606],[3.93175023,50.93427952],[3.93186882,50.93429665],[3.93188065,50.93426857],[3.93195384,50.93428003],[3.93189106,50.93442732]]]}},{"type":"Feature","id":"gebouw/Gebouw.13052453/0","properties":{"source":"Digitaal Vlaanderen Gebouwenregister","source_id":"gebouw/Gebouw.13052453/0","kind":"building","building":"official","height_m":8.85,"status":null},"geometry":{"type":"Polygon","coordinates":[[[3.93098641,50.93421644],[3.93095409,50.9342117],[3.93098956,50.93409395],[3.93102276,50.93409733],[3.93102577,50.93408503],[3.93107116,50.93409145],[3.93105127,50.93415984],[3.93100487,50.93415532],[3.93098641,50.93421644]]]}},{"type":"Feature","id":"gebouw/Gebouw.13071902/0","properties":{"source":"Digitaal Vlaanderen Gebouwenregister","source_id":"gebouw/Gebouw.13071902/0","kind":"building","building":"official","height_m":6.6,"status":null},"geometry":{"type":"Polygon","coordinates":[[[3.93168418,50.93469323],[3.9316386,50.93476726],[3.93156532,50.93474925],[3.93156796,50.93474535],[3.931515,50.93473169],[3.93156033,50.93466339],[3.93161455,50.93467648],[3.93161507,50.93467584],[3.93168418,50.93469323]]]}},{"type":"Feature","id":"gebouw/Gebouw.13072082/0","properties":{"source":"Digitaal Vlaanderen Gebouwenregister","source_id":"gebouw/Gebouw.13072082/0","kind":"building","building":"official","height_m":6.6,"status":null},"geometry":{"type":"Polygon","coordinates":[[[3.93527137,50.93050723],[3.93522286,50.93053805],[3.9351753,50.93050846],[3.93522356,50.93047748],[3.93527137,50.93050723]]]}},{"type":"Feature","id":"gebouw/Gebouw.13104924/0","properties":{"source":"Digitaal Vlaanderen Gebouwenregister","source_id":"gebouw/Gebouw.13104924/0","kind":"building","building":"official","height_m":5.1,"status":null},"geometry":{"type":"Polygon","coordinates":[[[3.93110039,50.93413451],[3.93108957,50.93418965],[3.93106366,50.93418702],[3.93105463,50.9341861],[3.93105761,50.93417374],[3.93106782,50.93413143],[3.93110039,50.93413451]]]}},{"type":"Feature","id":"gebouw/Gebouw.13110570/0","properties":{"source":"Digitaal Vlaanderen Gebouwenregister","source_id":"gebouw/Gebouw.13110570/0","kind":"building","building":"official","height_m":5.1,"status":null},"geometry":{"type":"Polygon","coordinates":[[[3.94108716,50.93470406],[3.94092909,50.93461442],[3.94108993,50.93450008],[3.9412461,50.93458971],[3.94108716,50.93470406]]]}},{"type":"Feature","id":"gebouw/Gebouw.13111130/0","properties":{"source":"Digitaal Vlaanderen Gebouwenregister","source_id":"gebouw/Gebouw.13111130/0","kind":"building","building":"official","height_m":6.6,"status":null},"geometry":{"type":"Polygon","coordinates":[[[3.93172681,50.93488856],[3.93166592,50.93488826],[3.9316663,50.93486496],[3.93172696,50.93486467],[3.93172681,50.93488856]]]}},{"type":"Feature","id":"gebouw/Gebouw.13125887/0","properties":{"source":"Digitaal Vlaanderen Gebouwenregister","source_id":"gebouw/Gebouw.13125887/0","kind":"building","building":"official","height_m":8.85,"status":null},"geometry":{"type":"Polygon","coordinates":[[[3.93094233,50.93128759],[3.93112773,50.93135578],[3.93117012,50.93131014],[3.93117623,50.93131253],[3.93119579,50.93129202],[3.93121342,50.93129001],[3.93122797,50.93127443],[3.93122263,50.9312647],[3.93106522,50.93120599],[3.93104102,50.93123239],[3.9310054,50.93121923],[3.93098367,50.93124273],[3.93098148,50.93124371],[3.93098678,50.93124991],[3.93097538,50.93126219],[3.93096398,50.93126249],[3.93096398,50.93126409],[3.93094233,50.93128759]]]}},{"type":"Feature","id":"gebouw/Gebouw.13138006/0","properties":{"source":"Digitaal Vlaanderen Gebouwenregister","source_id":"gebouw/Gebouw.13138006/0","kind":"building","building":"official","height_m":8.1,"status":null},"geometry":{"type":"Polygon","coordinates":[[[3.93123667,50.93142924],[3.93114696,50.93139628],[3.93117854,50.93136416],[3.9312416,50.93138809],[3.93123502,50.93139467],[3.93125972,50.93140487],[3.93123667,50.93142924]]]}},{"type":"Feature","id":"gebouw/Gebouw.13164002/0","properties":{"source":"Digitaal Vlaanderen Gebouwenregister","source_id":"gebouw/Gebouw.13164002/0","kind":"building","building":"official","height_m":6.6,"status":null},"geometry":{"type":"Polygon","coordinates":[[[3.93103955,50.93461337],[3.93094383,50.93459209],[3.93095589,50.93456627],[3.93105707,50.93458847],[3.93103955,50.93461337]]]}},{"type":"Feature","id":"gebouw/Gebouw.13164023/0","properties":{"source":"Digitaal Vlaanderen Gebouwenregister","source_id":"gebouw/Gebouw.13164023/0","kind":"building","building":"official","height_m":8.85,"status":null},"geometry":{"type":"Polygon","coordinates":[[[3.94031528,50.93351046],[3.94028658,50.9335018],[3.94031404,50.93346103],[3.94035626,50.93347259],[3.94034856,50.93348398],[3.94033622,50.93348078],[3.94031528,50.93351046]]]}},{"type":"Feature","id":"gebouw/Gebouw.13172939/0","properties":{"source":"Digitaal Vlaanderen Gebouwenregister","source_id":"gebouw/Gebouw.13172939/0","kind":"building","building":"official","height_m":8.85,"status":null},"geometry":{"type":"Polygon","coordinates":[[[3.93366679,50.93518931],[3.93363708,50.93514805],[3.93368664,50.93513375],[3.93371755,50.93517396],[3.93366679,50.93518931]]]}},{"type":"Feature","id":"gebouw/Gebouw.13177929/0","properties":{"source":"Digitaal Vlaanderen Gebouwenregister","source_id":"gebouw/Gebouw.13177929/0","kind":"building","building":"official","height_m":7.35,"status":null},"geometry":{"type":"Polygon","coordinates":[[[3.93225065,50.93447239],[3.93224242,50.93447631],[3.93223615,50.93447846],[3.93222952,50.93448011],[3.93222261,50.93448123],[3.93221555,50.93448182],[3.93220843,50.93448185],[3.93219982,50.93448113],[3.9321915,50.93447963],[3.93218363,50.93447735],[3.93217637,50.93447437],[3.93216989,50.93447073],[3.93216435,50.93446654],[3.93215825,50.93445903],[3.93213505,50.93446301],[3.93212597,50.93446176],[3.93212486,50.93446449],[3.93203645,50.93445226],[3.93202706,50.93445097],[3.93203973,50.93441313],[3.93201926,50.93441004],[3.93204012,50.93435593],[3.93212544,50.93436802],[3.93219447,50.93435992],[3.93219967,50.9343649],[3.9322648,50.93437198],[3.93224879,50.93442063],[3.93223477,50.93441865],[3.93222699,50.93444568],[3.93225599,50.93444891],[3.93225065,50.93447239]]]}},{"type":"Feature","id":"gebouw/Gebouw.13184189/0","properties":{"source":"Digitaal Vlaanderen Gebouwenregister","source_id":"gebouw/Gebouw.13184189/0","kind":"building","building":"official","height_m":8.85,"status":null},"geometry":{"type":"Polygon","coordinates":[[[3.93093668,50.93188449],[3.93089457,50.93186941],[3.93094182,50.93181558],[3.93098457,50.93182969],[3.93093668,50.93188449]]]}},{"type":"Feature","id":"gebouw/Gebouw.13228617/0","properties":{"source":"Digitaal Vlaanderen Gebouwenregister","source_id":"gebouw/Gebouw.13228617/0","kind":"building","building":"official","height_m":7.35,"status":null},"geometry":{"type":"Polygon","coordinates":[[[3.93132586,50.93528286],[3.93129524,50.93532616],[3.93113212,50.9352796],[3.93115578,50.93524488],[3.93116634,50.93524776],[3.93118417,50.9352216],[3.93112759,50.93520602],[3.93116776,50.93514773],[3.93138901,50.93520465],[3.93139369,50.93521623],[3.93136922,50.93524954],[3.93135302,50.93525386],[3.93134756,50.93525219],[3.93132586,50.93528286]]]}},{"type":"Feature","id":"gebouw/Gebouw.13276169/0","properties":{"source":"Digitaal Vlaanderen Gebouwenregister","source_id":"gebouw/Gebouw.13276169/0","kind":"building","building":"official","height_m":8.85,"status":null},"geometry":{"type":"Polygon","coordinates":[[[3.93104675,50.93500611],[3.93101551,50.93507845],[3.9310236,50.93507995],[3.93100852,50.93511375],[3.93082364,50.93508085],[3.93083859,50.93504947],[3.93087684,50.93505558],[3.93090515,50.93498648],[3.93090753,50.93498066],[3.93104675,50.93500611]]]}},{"type":"Feature","id":"gebouw/Gebouw.13283241/0","properties":{"source":"Digitaal Vlaanderen Gebouwenregister","source_id":"gebouw/Gebouw.13283241/0","kind":"building","building":"official","height_m":7.35,"status":null},"geometry":{"type":"Polygon","coordinates":[[[3.9390307,50.93330828],[3.93899224,50.93330184],[3.9390131,50.93325323],[3.93905417,50.93326074],[3.9390307,50.93330828]]]}},{"type":"Feature","id":"gebouw/Gebouw.13293737/0","properties":{"source":"Digitaal Vlaanderen Gebouwenregister","source_id":"gebouw/Gebouw.13293737/0","kind":"building","building":"official","height_m":8.85,"status":null},"geometry":{"type":"Polygon","coordinates":[[[3.93300363,50.92927374],[3.93295457,50.92931946],[3.9329059,50.92929777],[3.93295498,50.92925175],[3.93300363,50.92927374]]]}},{"type":"Feature","id":"gebouw/Gebouw.13295430/0","properties":{"source":"Digitaal Vlaanderen Gebouwenregister","source_id":"gebouw/Gebouw.13295430/0","kind":"building","building":"official","height_m":5.1,"status":null},"geometry":{"type":"Polygon","coordinates":[[[3.94130051,50.93231574],[3.94136179,50.93236716],[3.94122432,50.93242769],[3.94118329,50.93237213],[3.94130051,50.93231574]]]}},{"type":"Feature","id":"gebouw/Gebouw.13302799/0","properties":{"source":"Digitaal Vlaanderen Gebouwenregister","source_id":"gebouw/Gebouw.13302799/0","kind":"building","building":"official","height_m":5.85,"status":null},"geometry":{"type":"Polygon","coordinates":[[[3.93447331,50.93515544],[3.93448227,50.93513874],[3.93431193,50.93510555],[3.93428883,50.93514653],[3.93418629,50.93512663],[3.93400946,50.93509232],[3.93395655,50.93520188],[3.93391064,50.93529694],[3.93446158,50.93540398],[3.93456301,50.93519817],[3.93449671,50.93518647],[3.93450923,50.93516313],[3.93447331,50.93515544]]]}},{"type":"Feature","id":"gebouw/Gebouw.13303439/0","properties":{"source":"Digitaal Vlaanderen Gebouwenregister","source_id":"gebouw/Gebouw.13303439/0","kind":"building","building":"official","height_m":8.85,"status":null},"geometry":{"type":"Polygon","coordinates":[[[3.93121196,50.93447105],[3.93127737,50.93449068],[3.93126997,50.93450054],[3.93139699,50.93453883],[3.93136634,50.93457897],[3.93135352,50.93457506],[3.9313308,50.9346048],[3.93127882,50.9345893],[3.93127116,50.93459874],[3.93122313,50.93458362],[3.93119929,50.93461386],[3.9311358,50.93459387],[3.93119381,50.93452031],[3.93117886,50.93451411],[3.93121196,50.93447105]]]}},{"type":"Feature","id":"gebouw/Gebouw.13308236/0","properties":{"source":"Digitaal Vlaanderen Gebouwenregister","source_id":"gebouw/Gebouw.13308236/0","kind":"building","building":"official","height_m":6.6,"status":null},"geometry":{"type":"Polygon","coordinates":[[[3.93228244,50.93474151],[3.9321262,50.93470608],[3.93215543,50.93465509],[3.93215329,50.9346546],[3.93196762,50.9346121],[3.93192957,50.93467938],[3.93192753,50.934683],[3.93209862,50.93472163],[3.93206374,50.93478332],[3.93189264,50.93474469],[3.93186193,50.934799],[3.93196679,50.93482343],[3.93191869,50.93490643],[3.93199827,50.93492286],[3.9319829,50.93494702],[3.93206459,50.93496812],[3.93207985,50.9349617],[3.93215954,50.93481039],[3.93223816,50.93482787],[3.93228244,50.93474151]]]}},{"type":"Feature","id":"gebouw/Gebouw.13313337/0","properties":{"source":"Digitaal Vlaanderen Gebouwenregister","source_id":"gebouw/Gebouw.13313337/0","kind":"building","building":"official","height_m":7.35,"status":null},"geometry":{"type":"Polygon","coordinates":[[[3.93160255,50.93382601],[3.9315934,50.93384357],[3.93151644,50.93382684],[3.93152869,50.93380899],[3.93160255,50.93382601]]]}},{"type":"Feature","id":"gebouw/Gebouw.13316454/0","properties":{"source":"Digitaal Vlaanderen Gebouwenregister","source_id":"gebouw/Gebouw.13316454/0","kind":"building","building":"official","height_m":5.1,"status":null},"geometry":{"type":"Polygon","coordinates":[[[3.93145532,50.93474753],[3.93149425,50.93475885],[3.93148992,50.93476536],[3.9315424,50.93477876],[3.93152008,50.93480982],[3.93150441,50.93480467],[3.931484,50.93483468],[3.93146904,50.93483073],[3.9314378,50.93488221],[3.93141286,50.93487553],[3.93144578,50.93482376],[3.93139559,50.9348089],[3.93138689,50.93480633],[3.93143474,50.93474154],[3.93143904,50.93474279],[3.93145532,50.93474753]]]}},{"type":"Feature","id":"gebouw/Gebouw.13316640/0","properties":{"source":"Digitaal Vlaanderen Gebouwenregister","source_id":"gebouw/Gebouw.13316640/0","kind":"building","building":"official","height_m":5.1,"status":null},"geometry":{"type":"Polygon","coordinates":[[[3.93190633,50.93378259],[3.93184837,50.93377087],[3.93186549,50.93373363],[3.93192394,50.9337443],[3.93190633,50.93378259]]]}},{"type":"Feature","id":"gebouw/Gebouw.13321281/0","properties":{"source":"Digitaal Vlaanderen Gebouwenregister","source_id":"gebouw/Gebouw.13321281/0","kind":"building","building":"official","height_m":7.35,"status":null},"geometry":{"type":"Polygon","coordinates":[[[3.94089261,50.93498813],[3.94078377,50.93508046],[3.94078195,50.93507959],[3.94076575,50.93507184],[3.94067554,50.9350287],[3.94076346,50.93495283],[3.94072061,50.93493105],[3.94068135,50.93496111],[3.94060891,50.93492375],[3.94065223,50.93489085],[3.94056604,50.93484803],[3.94061384,50.93480914],[3.94064669,50.93482638],[3.9408349,50.93492512],[3.94080831,50.93494802],[3.94087794,50.93498114],[3.94089261,50.93498813]]]}},{"type":"Feature","id":"gebouw/Gebouw.13347975/0","properties":{"source":"Digitaal Vlaanderen Gebouwenregister","source_id":"gebouw/Gebouw.13347975/0","kind":"building","building":"official","height_m":7.35,"status":null},"geometry":{"type":"Polygon","coordinates":[[[3.93118873,50.9316167],[3.93114263,50.93160012],[3.93117697,50.93156458],[3.93122295,50.93158138],[3.93118873,50.9316167]]]}},{"type":"Feature","id":"gebouw/Gebouw.13350561/0","properties":{"source":"Digitaal Vlaanderen Gebouwenregister","source_id":"gebouw/Gebouw.13350561/0","kind":"building","building":"official","height_m":7.35,"status":null},"geometry":{"type":"Polygon","coordinates":[[[3.94066506,50.93456064],[3.94072754,50.93451391],[3.94086989,50.93458597],[3.94080431,50.93463459],[3.94066506,50.93456064]]]}},{"type":"Feature","id":"gebouw/Gebouw.13369579/0","properties":{"source":"Digitaal Vlaanderen Gebouwenregister","source_id":"gebouw/Gebouw.13369579/0","kind":"building","building":"official","height_m":5.85,"status":null},"geometry":{"type":"Polygon","coordinates":[[[3.93098525,50.93170208],[3.9309128,50.93167498],[3.93094346,50.93163923],[3.93101972,50.93166639],[3.93098525,50.93170208]]]}},{"type":"Feature","id":"gebouw/Gebouw.13372573/0","properties":{"source":"Digitaal Vlaanderen Gebouwenregister","source_id":"gebouw/Gebouw.13372573/0","kind":"building","building":"official","height_m":5.85,"status":null},"geometry":{"type":"Polygon","coordinates":[[[3.93976869,50.93348441],[3.93967855,50.93345814],[3.93970576,50.93341656],[3.9397959,50.93344328],[3.93976869,50.93348441]]]}},{"type":"Feature","id":"gebouw/Gebouw.13381816/0","properties":{"source":"Digitaal Vlaanderen Gebouwenregister","source_id":"gebouw/Gebouw.13381816/0","kind":"building","building":"official","height_m":8.1,"status":null},"geometry":{"type":"Polygon","coordinates":[[[3.93082541,50.9318973],[3.93078181,50.9318837],[3.93080491,50.93185497],[3.93077836,50.93184647],[3.93079209,50.93182842],[3.9308633,50.93185106],[3.93082541,50.9318973]]]}},{"type":"Feature","id":"gebouw/Gebouw.13389787/0","properties":{"source":"Digitaal Vlaanderen Gebouwenregister","source_id":"gebouw/Gebouw.13389787/0","kind":"building","building":"official","height_m":5.85,"status":null},"geometry":{"type":"Polygon","coordinates":[[[3.93108116,50.93085214],[3.93106512,50.93087005],[3.93101999,50.93092042],[3.9310159,50.93092499],[3.93091818,50.93089024],[3.93089058,50.93092271],[3.93071527,50.9308632],[3.9307599,50.93081069],[3.93093199,50.93086796],[3.93104396,50.93074231],[3.93114743,50.93077815],[3.93108116,50.93085214]]]}},{"type":"Feature","id":"gebouw/Gebouw.13389959/0","properties":{"source":"Digitaal Vlaanderen Gebouwenregister","source_id":"gebouw/Gebouw.13389959/0","kind":"building","building":"official","height_m":8.85,"status":null},"geometry":{"type":"Polygon","coordinates":[[[3.94057034,50.93478632],[3.9405316,50.93481681],[3.94039195,50.93474181],[3.94043048,50.93471294],[3.94046189,50.93472942],[3.94057034,50.93478632]]]}},{"type":"Feature","id":"gebouw/Gebouw.13397834/0","properties":{"source":"Digitaal Vlaanderen Gebouwenregister","source_id":"gebouw/Gebouw.13397834/0","kind":"building","building":"official","height_m":6.6,"status":null},"geometry":{"type":"Polygon","coordinates":[[[3.94113396,50.93131035],[3.94109397,50.93128649],[3.94113055,50.93126302],[3.94117124,50.93128629],[3.94113396,50.93131035]]]}},{"type":"Feature","id":"gebouw/Gebouw.13400534/0","properties":{"source":"Digitaal Vlaanderen Gebouwenregister","source_id":"gebouw/Gebouw.13400534/0","kind":"building","building":"official","height_m":6.6,"status":null},"geometry":{"type":"Polygon","coordinates":[[[3.93204588,50.93408051],[3.93197955,50.93407658],[3.93198742,50.93403452],[3.93205281,50.93403859],[3.93204588,50.93408051]]]}},{"type":"Feature","id":"gebouw/Gebouw.13401355/0","properties":{"source":"Digitaal Vlaanderen Gebouwenregister","source_id":"gebouw/Gebouw.13401355/0","kind":"building","building":"official","height_m":5.85,"status":null},"geometry":{"type":"Polygon","coordinates":[[[3.93082187,50.93476054],[3.93081074,50.93475927],[3.93082187,50.93472969],[3.93053464,50.93469529],[3.93051947,50.93474275],[3.93065161,50.93476022],[3.93064727,50.93477028],[3.93068459,50.93477458],[3.9306776,50.93479401],[3.9306836,50.9347949],[3.93081782,50.93481474],[3.930854,50.93482009],[3.93086804,50.93482217],[3.93087735,50.93479656],[3.93081177,50.93478663],[3.93082187,50.93476054]]]}},{"type":"Feature","id":"gebouw/Gebouw.13407344/0","properties":{"source":"Digitaal Vlaanderen Gebouwenregister","source_id":"gebouw/Gebouw.13407344/0","kind":"building","building":"official","height_m":6.6,"status":null},"geometry":{"type":"Polygon","coordinates":[[[3.9310581,50.93459522],[3.93111947,50.93461526],[3.93110339,50.93463822],[3.93117673,50.93466185],[3.93115215,50.93469682],[3.93101486,50.93465264],[3.9310581,50.93459522]]]}},{"type":"Feature","id":"gebouw/Gebouw.13407432/0","properties":{"source":"Digitaal Vlaanderen Gebouwenregister","source_id":"gebouw/Gebouw.13407432/0","kind":"building","building":"official","height_m":5.1,"status":null},"geometry":{"type":"Polygon","coordinates":[[[3.93186344,50.93470404],[3.93178105,50.9348383],[3.93162013,50.93479726],[3.9316386,50.93476726],[3.93168418,50.93469323],[3.93168711,50.93468846],[3.93177369,50.93471029],[3.93178943,50.93468516],[3.93186344,50.93470404]]]}},{"type":"Feature","id":"gebouw/Gebouw.13410617/0","properties":{"source":"Digitaal Vlaanderen Gebouwenregister","source_id":"gebouw/Gebouw.13410617/0","kind":"building","building":"official","height_m":8.85,"status":null},"geometry":{"type":"Polygon","coordinates":[[[3.93506261,50.93063987],[3.93502177,50.93066582],[3.93495147,50.93062016],[3.93499297,50.93059463],[3.93506261,50.93063987]]]}},{"type":"Feature","id":"gebouw/Gebouw.13415747/0","properties":{"source":"Digitaal Vlaanderen Gebouwenregister","source_id":"gebouw/Gebouw.13415747/0","kind":"building","building":"official","height_m":8.85,"status":null},"geometry":{"type":"Polygon","coordinates":[[[3.93062709,50.93161256],[3.93071557,50.9315152],[3.93090735,50.9315847],[3.93081754,50.93168257],[3.93062709,50.93161256]]]}},{"type":"Feature","id":"gebouw/Gebouw.13428069/0","properties":{"source":"Digitaal Vlaanderen Gebouwenregister","source_id":"gebouw/Gebouw.13428069/0","kind":"building","building":"official","height_m":7.35,"status":null},"geometry":{"type":"Polygon","coordinates":[[[3.94046189,50.93472942],[3.94049833,50.93470124],[3.94065033,50.93477794],[3.94072214,50.93472199],[3.94075694,50.93473924],[3.9408175,50.93469272],[3.94090438,50.93473779],[3.94082973,50.93479177],[3.94092536,50.93484228],[3.94085452,50.93489628],[3.94067829,50.934802],[3.94064669,50.93482638],[3.94061384,50.93480914],[3.94057034,50.93478632],[3.94046189,50.93472942]]]}},{"type":"Feature","id":"gebouw/Gebouw.13435298/0","properties":{"source":"Digitaal Vlaanderen Gebouwenregister","source_id":"gebouw/Gebouw.13435298/0","kind":"building","building":"official","height_m":6.6,"status":null},"geometry":{"type":"Polygon","coordinates":[[[3.93157684,50.93486755],[3.93179075,50.93492487],[3.93185041,50.93494086],[3.93185745,50.93494275],[3.93183623,50.93497496],[3.9317647,50.93508354],[3.93175148,50.93510361],[3.93165412,50.93524986],[3.93137649,50.93516736],[3.93137352,50.93516648],[3.93137377,50.93516612],[3.931422,50.93509387],[3.93142477,50.93508972],[3.93148441,50.93500038],[3.93157365,50.9348667],[3.93157684,50.93486755]]]}},{"type":"Feature","id":"gebouw/Gebouw.13450314/0","properties":{"source":"Digitaal Vlaanderen Gebouwenregister","source_id":"gebouw/Gebouw.13450314/0","kind":"building","building":"official","height_m":5.1,"status":null},"geometry":{"type":"Polygon","coordinates":[[[3.94015905,50.93269963],[3.94018888,50.93271762],[3.94009705,50.93277906],[3.9400672,50.93276145],[3.94015905,50.93269963]]]}},{"type":"Feature","id":"gebouw/Gebouw.13450632/0","properties":{"source":"Digitaal Vlaanderen Gebouwenregister","source_id":"gebouw/Gebouw.13450632/0","kind":"building","building":"official","height_m":5.1,"status":null},"geometry":{"type":"Polygon","coordinates":[[[3.93092856,50.93459126],[3.93090121,50.93465057],[3.93087022,50.93464484],[3.9307744,50.93462712],[3.93078889,50.93459948],[3.93076727,50.93459536],[3.93076438,50.93460107],[3.93070499,50.93458889],[3.93071123,50.93458064],[3.93064091,50.93456694],[3.9306703,50.93450555],[3.93079794,50.93452994],[3.93078149,50.93456684],[3.93092856,50.93459126]]]}},{"type":"Feature","id":"gebouw/Gebouw.13460161/0","properties":{"source":"Digitaal Vlaanderen Gebouwenregister","source_id":"gebouw/Gebouw.13460161/0","kind":"building","building":"official","height_m":5.85,"status":null},"geometry":{"type":"Polygon","coordinates":[[[3.93285745,50.93315235],[3.93281012,50.93315148],[3.93281325,50.93310745],[3.93286106,50.93310802],[3.93285745,50.93315235]]]}},{"type":"Feature","id":"gebouw/Gebouw.13465777/0","properties":{"source":"Digitaal Vlaanderen Gebouwenregister","source_id":"gebouw/Gebouw.13465777/0","kind":"building","building":"official","height_m":5.85,"status":null},"geometry":{"type":"Polygon","coordinates":[[[3.93154348,50.9343499],[3.93151521,50.93441172],[3.93141919,50.93439394],[3.93144615,50.93433297],[3.93142662,50.93432956],[3.93144097,50.93429654],[3.93146214,50.93424783],[3.93146459,50.9342422],[3.93146095,50.93423385],[3.93147261,50.93420978],[3.93149818,50.93421473],[3.93149494,50.93422216],[3.93156313,50.93423421],[3.93155475,50.9342519],[3.93158564,50.93425769],[3.93154348,50.9343499]]]}},{"type":"Feature","id":"gebouw/Gebouw.13479051/0","properties":{"source":"Digitaal Vlaanderen Gebouwenregister","source_id":"gebouw/Gebouw.13479051/0","kind":"building","building":"official","height_m":7.35,"status":null},"geometry":{"type":"Polygon","coordinates":[[[3.93571638,50.9307269],[3.93568773,50.93070885],[3.93559322,50.93076877],[3.93555614,50.93074541],[3.93570782,50.93064926],[3.93577354,50.93069066],[3.93571638,50.9307269]]]}},{"type":"Feature","id":"gebouw/Gebouw.13483316/0","properties":{"source":"Digitaal Vlaanderen Gebouwenregister","source_id":"gebouw/Gebouw.13483316/0","kind":"building","building":"official","height_m":6.6,"status":null},"geometry":{"type":"Polygon","coordinates":[[[3.9312686,50.92861755],[3.93118832,50.92858754],[3.93126815,50.92850224],[3.93134425,50.92853068],[3.93129315,50.92858528],[3.93129733,50.92858685],[3.9312686,50.92861755]]]}},{"type":"Feature","id":"gebouw/Gebouw.13489563/0","properties":{"source":"Digitaal Vlaanderen Gebouwenregister","source_id":"gebouw/Gebouw.13489563/0","kind":"building","building":"official","height_m":7.35,"status":null},"geometry":{"type":"Polygon","coordinates":[[[3.93952885,50.9335533],[3.93948973,50.93354881],[3.93949864,50.93352601],[3.93947038,50.93352275],[3.93948046,50.93348417],[3.9395762,50.93349175],[3.93959166,50.93349297],[3.93957825,50.93353154],[3.93953524,50.93352854],[3.93952885,50.9335533]]]}},{"type":"Feature","id":"gebouw/Gebouw.13489894/0","properties":{"source":"Digitaal Vlaanderen Gebouwenregister","source_id":"gebouw/Gebouw.13489894/0","kind":"building","building":"official","height_m":8.1,"status":null},"geometry":{"type":"Polygon","coordinates":[[[3.93091077,50.93423435],[3.93087141,50.93430703],[3.93082878,50.93429735],[3.93086988,50.93422506],[3.93091077,50.93423435]]]}},{"type":"Feature","id":"gebouw/Gebouw.13490157/0","properties":{"source":"Digitaal Vlaanderen Gebouwenregister","source_id":"gebouw/Gebouw.13490157/0","kind":"building","building":"official","height_m":7.35,"status":null},"geometry":{"type":"Polygon","coordinates":[[[3.93183623,50.93497496],[3.93188467,50.93498816],[3.93181404,50.93509861],[3.93179528,50.9350933],[3.93178255,50.93511326],[3.93175148,50.93510361],[3.9317647,50.93508354],[3.93183623,50.93497496]]]}},{"type":"Feature","id":"gebouw/Gebouw.13490394/0","properties":{"source":"Digitaal Vlaanderen Gebouwenregister","source_id":"gebouw/Gebouw.13490394/0","kind":"building","building":"official","height_m":5.1,"status":null},"geometry":{"type":"Polygon","coordinates":[[[3.93080819,50.93146551],[3.93084582,50.9314243],[3.93085328,50.93142701],[3.93085898,50.93142076],[3.93086395,50.93141531],[3.93082847,50.93140222],[3.93086388,50.9313634],[3.93102537,50.93142269],[3.93096572,50.93148854],[3.93098434,50.93149314],[3.93095843,50.93152062],[3.93080819,50.93146551]]]}},{"type":"Feature","id":"gebouw/Gebouw.13505236/0","properties":{"source":"Digitaal Vlaanderen Gebouwenregister","source_id":"gebouw/Gebouw.13505236/0","kind":"building","building":"official","height_m":8.1,"status":null},"geometry":{"type":"Polygon","coordinates":[[[3.93137727,50.93493617],[3.93147953,50.93496363],[3.93145818,50.93499258],[3.93135823,50.93496287],[3.93137727,50.93493617]]]}},{"type":"Feature","id":"gebouw/Gebouw.13512333/0","properties":{"source":"Digitaal Vlaanderen Gebouwenregister","source_id":"gebouw/Gebouw.13512333/0","kind":"building","building":"official","height_m":7.35,"status":null},"geometry":{"type":"Polygon","coordinates":[[[3.93158684,50.93435782],[3.93162751,50.93436525],[3.9315932,50.9344435],[3.93150855,50.93442816],[3.93151521,50.93441172],[3.93154348,50.9343499],[3.93158564,50.93425769],[3.93155475,50.9342519],[3.93156313,50.93423421],[3.93159932,50.93415238],[3.9317117,50.93417326],[3.93164,50.93433677],[3.9315994,50.93432914],[3.93158684,50.93435782]]]}},{"type":"Feature","id":"gebouw/Gebouw.13512719/0","properties":{"source":"Digitaal Vlaanderen Gebouwenregister","source_id":"gebouw/Gebouw.13512719/0","kind":"building","building":"official","height_m":8.85,"status":null},"geometry":{"type":"Polygon","coordinates":[[[3.9405364,50.93501007],[3.9404242,50.93494973],[3.9404613,50.93492206],[3.94057326,50.93498164],[3.9405364,50.93501007]]]}},{"type":"Feature","id":"gebouw/Gebouw.13522240/0","properties":{"source":"Digitaal Vlaanderen Gebouwenregister","source_id":"gebouw/Gebouw.13522240/0","kind":"building","building":"official","height_m":8.1,"status":null},"geometry":{"type":"Polygon","coordinates":[[[3.93109195,50.93424905],[3.93110728,50.93428265],[3.93110495,50.93435107],[3.93098543,50.93434902],[3.93098701,50.93430245],[3.93092857,50.9343011],[3.93093039,50.93422083],[3.93101744,50.93422225],[3.931017,50.93423267],[3.93101632,50.9342487],[3.93109195,50.93424905]]]}},{"type":"Feature","id":"gebouw/Gebouw.13522270/0","properties":{"source":"Digitaal Vlaanderen Gebouwenregister","source_id":"gebouw/Gebouw.13522270/0","kind":"building","building":"official","height_m":8.1,"status":null},"geometry":{"type":"Polygon","coordinates":[[[3.93082575,50.93471948],[3.93083603,50.93469244],[3.93073112,50.93467652],[3.93072733,50.93468619],[3.93066426,50.93467849],[3.93067206,50.93464935],[3.93055295,50.93463533],[3.93053464,50.93469529],[3.93082187,50.93472969],[3.93082575,50.93471948]]]}},{"type":"Feature","id":"gebouw/Gebouw.13538345/0","properties":{"source":"Digitaal Vlaanderen Gebouwenregister","source_id":"gebouw/Gebouw.13538345/0","kind":"building","building":"official","height_m":8.85,"status":null},"geometry":{"type":"Polygon","coordinates":[[[3.93163386,50.93112099],[3.93156703,50.93109589],[3.9315914,50.93107097],[3.93165823,50.93109664],[3.93163386,50.93112099]]]}},{"type":"Feature","id":"gebouw/Gebouw.13551608/0","properties":{"source":"Digitaal Vlaanderen Gebouwenregister","source_id":"gebouw/Gebouw.13551608/0","kind":"building","building":"official","height_m":6.6,"status":null},"geometry":{"type":"Polygon","coordinates":[[[3.930854,50.93482009],[3.93081782,50.93481474],[3.9306836,50.9347949],[3.93067148,50.93482872],[3.93080382,50.93485175],[3.93080951,50.93483671],[3.93084566,50.93484217],[3.930854,50.93482009]]]}},{"type":"Feature","id":"gebouw/Gebouw.13552033/0","properties":{"source":"Digitaal Vlaanderen Gebouwenregister","source_id":"gebouw/Gebouw.13552033/0","kind":"building","building":"official","height_m":5.85,"status":null},"geometry":{"type":"Polygon","coordinates":[[[3.94125225,50.92904351],[3.94121337,50.92901779],[3.94125024,50.92899553],[3.94128912,50.92902125],[3.94125225,50.92904351]]]}},{"type":"Feature","id":"gebouw/Gebouw.13626586/0","properties":{"source":"Digitaal Vlaanderen Gebouwenregister","source_id":"gebouw/Gebouw.13626586/0","kind":"building","building":"official","height_m":8.1,"status":null},"geometry":{"type":"Polygon","coordinates":[[[3.94074362,50.93511181],[3.94068365,50.93516434],[3.94067454,50.93516003],[3.9406722,50.93515892],[3.94054061,50.9350967],[3.94059985,50.93504566],[3.94072969,50.9351054],[3.94074362,50.93511181]]]}},{"type":"Feature","id":"gebouw/Gebouw.13656153/0","properties":{"source":"Digitaal Vlaanderen Gebouwenregister","source_id":"gebouw/Gebouw.13656153/0","kind":"building","building":"official","height_m":7.35,"status":null},"geometry":{"type":"Polygon","coordinates":[[[3.93064559,50.93190949],[3.93081112,50.93196013],[3.93084464,50.93197038],[3.93087332,50.9319364],[3.93078244,50.93190847],[3.93079128,50.93189929],[3.9306819,50.93186382],[3.93064559,50.93190949]]]}},{"type":"Feature","id":"gebouw/Gebouw.13758959/0","properties":{"source":"Digitaal Vlaanderen Gebouwenregister","source_id":"gebouw/Gebouw.13758959/0","kind":"building","building":"official","height_m":8.85,"status":null},"geometry":{"type":"Polygon","coordinates":[[[3.93162662,50.93397317],[3.93156356,50.93401214],[3.93147831,50.93395195],[3.93163016,50.93386185],[3.93171447,50.93391888],[3.93162662,50.93397317]]]}},{"type":"Feature","id":"gebouw/Gebouw.13762751/0","properties":{"source":"Digitaal Vlaanderen Gebouwenregister","source_id":"gebouw/Gebouw.13762751/0","kind":"building","building":"official","height_m":8.85,"status":null},"geometry":{"type":"Polygon","coordinates":[[[3.93110169,50.93447385],[3.93104934,50.93454036],[3.9309209,50.93450222],[3.93097094,50.93443832],[3.93102733,50.93445581],[3.93105226,50.93446357],[3.93105546,50.93445946],[3.93110169,50.93447385]]]}},{"type":"Feature","id":"gebouw/Gebouw.13763220/0","properties":{"source":"Digitaal Vlaanderen Gebouwenregister","source_id":"gebouw/Gebouw.13763220/0","kind":"building","building":"official","height_m":5.1,"status":null},"geometry":{"type":"Polygon","coordinates":[[[3.93109228,50.93199086],[3.93107703,50.93200828],[3.93108972,50.93201227],[3.93111193,50.93201925],[3.93109625,50.9320384],[3.93107391,50.93203146],[3.93095084,50.93199323],[3.93098198,50.9319547],[3.93109228,50.93199086]]]}},{"type":"Feature","id":"gebouw/Gebouw.13839659/0","properties":{"source":"Digitaal Vlaanderen Gebouwenregister","source_id":"gebouw/Gebouw.13839659/0","kind":"building","building":"official","height_m":8.85,"status":null},"geometry":{"type":"Polygon","coordinates":[[[3.93949287,50.93475683],[3.93946846,50.93474698],[3.93946247,50.93475192],[3.93941179,50.93472891],[3.93944342,50.93469956],[3.93951827,50.93473423],[3.93949287,50.93475683]]]}},{"type":"Feature","id":"gebouw/Gebouw.13839729/0","properties":{"source":"Digitaal Vlaanderen Gebouwenregister","source_id":"gebouw/Gebouw.13839729/0","kind":"building","building":"official","height_m":7.35,"status":null},"geometry":{"type":"Polygon","coordinates":[[[3.93060753,50.93507224],[3.93068987,50.93508488],[3.93070179,50.93505389],[3.93061945,50.93504124],[3.93060753,50.93507224]]]}},{"type":"Feature","id":"gebouw/Gebouw.16651364/0","properties":{"source":"Digitaal Vlaanderen Gebouwenregister","source_id":"gebouw/Gebouw.16651364/0","kind":"building","building":"official","height_m":6.6,"status":null},"geometry":{"type":"Polygon","coordinates":[[[3.94061887,50.93471688],[3.94054998,50.93468119],[3.94057846,50.9346592],[3.94064712,50.93469474],[3.94061887,50.93471688]]]}},{"type":"Feature","id":"gebouw/Gebouw.16695010/0","properties":{"source":"Digitaal Vlaanderen Gebouwenregister","source_id":"gebouw/Gebouw.16695010/0","kind":"building","building":"official","height_m":8.1,"status":null},"geometry":{"type":"Polygon","coordinates":[[[3.9359285,50.93079886],[3.93586776,50.93072705],[3.93592876,50.93070659],[3.935925,50.93070096],[3.9360538,50.93065913],[3.93611703,50.93073511],[3.9359285,50.93079886]]]}},{"type":"Feature","id":"gebouw/Gebouw.16699748/0","properties":{"source":"Digitaal Vlaanderen Gebouwenregister","source_id":"gebouw/Gebouw.16699748/0","kind":"building","building":"official","height_m":6.6,"status":null},"geometry":{"type":"Polygon","coordinates":[[[3.93087022,50.93464484],[3.93085406,50.93467569],[3.93075664,50.93465922],[3.9307744,50.93462712],[3.93087022,50.93464484]]]}},{"type":"Feature","id":"gebouw/Gebouw.16701846/0","properties":{"source":"Digitaal Vlaanderen Gebouwenregister","source_id":"gebouw/Gebouw.16701846/0","kind":"building","building":"official","height_m":5.1,"status":null},"geometry":{"type":"Polygon","coordinates":[[[3.94110622,50.93441297],[3.94098689,50.93444469],[3.9409503,50.93438656],[3.94094069,50.93437129],[3.94109636,50.93432803],[3.94110689,50.93434316],[3.94112643,50.93433773],[3.94121598,50.9342886],[3.94124728,50.93431537],[3.94120146,50.93433798],[3.94121269,50.9343486],[3.94114923,50.93438938],[3.94115327,50.93440048],[3.94110622,50.93441297]]]}},{"type":"Feature","id":"gebouw/Gebouw.16702493/0","properties":{"source":"Digitaal Vlaanderen Gebouwenregister","source_id":"gebouw/Gebouw.16702493/0","kind":"building","building":"official","height_m":8.85,"status":null},"geometry":{"type":"Polygon","coordinates":[[[3.93131223,50.9348166],[3.93131085,50.93482095],[3.93130901,50.93482409],[3.93128272,50.93486172],[3.93127997,50.93486566],[3.93127982,50.93486563],[3.93121294,50.93485039],[3.93123865,50.93481109],[3.9312533,50.93475146],[3.93117106,50.93474208],[3.93117614,50.93472767],[3.93114952,50.93472534],[3.93113513,50.93476699],[3.93110006,50.93476159],[3.93108916,50.93475991],[3.93111192,50.93469158],[3.93115215,50.93469682],[3.93133912,50.93472116],[3.93131223,50.9348166]]]}},{"type":"Feature","id":"gebouw/Gebouw.16710658/0","properties":{"source":"Digitaal Vlaanderen Gebouwenregister","source_id":"gebouw/Gebouw.16710658/0","kind":"building","building":"official","height_m":8.1,"status":null},"geometry":{"type":"Polygon","coordinates":[[[3.93108971,50.93112729],[3.93111905,50.93109551],[3.93113136,50.93109989],[3.93118604,50.93104002],[3.93132456,50.93109049],[3.93124043,50.93118203],[3.93108971,50.93112729]]]}},{"type":"Feature","id":"gebouw/Gebouw.18696951/0","properties":{"source":"Digitaal Vlaanderen Gebouwenregister","source_id":"gebouw/Gebouw.18696951/0","kind":"building","building":"official","height_m":7.35,"status":null},"geometry":{"type":"Polygon","coordinates":[[[3.93133579,50.9341341],[3.93134017,50.93417489],[3.93128303,50.93417704],[3.93127865,50.93413625],[3.93133579,50.9341341]]]}},{"type":"Feature","id":"gebouw/Gebouw.18696952/0","properties":{"source":"Digitaal Vlaanderen Gebouwenregister","source_id":"gebouw/Gebouw.18696952/0","kind":"building","building":"official","height_m":8.1,"status":null},"geometry":{"type":"Polygon","coordinates":[[[3.94109301,50.93212924],[3.94110908,50.93215351],[3.94107408,50.93216157],[3.94105853,50.93213836],[3.94109301,50.93212924]]]}},{"type":"Feature","id":"gebouw/Gebouw.18861810/0","properties":{"source":"Digitaal Vlaanderen Gebouwenregister","source_id":"gebouw/Gebouw.18861810/0","kind":"building","building":"official","height_m":5.1,"status":null},"geometry":{"type":"Polygon","coordinates":[[[3.9307456,50.9339419],[3.9307203,50.93400414],[3.93065843,50.93399241],[3.9306879,50.93393052],[3.9307456,50.9339419]]]}},{"type":"Feature","id":"gebouw/Gebouw.18861814/0","properties":{"source":"Digitaal Vlaanderen Gebouwenregister","source_id":"gebouw/Gebouw.18861814/0","kind":"building","building":"official","height_m":8.1,"status":null},"geometry":{"type":"Polygon","coordinates":[[[3.93100348,50.93175764],[3.93108507,50.93166808],[3.93112607,50.9316831],[3.93104608,50.93177279],[3.93100348,50.93175764]]]}},{"type":"Feature","id":"gebouw/Gebouw.18862317/0","properties":{"source":"Digitaal Vlaanderen Gebouwenregister","source_id":"gebouw/Gebouw.18862317/0","kind":"building","building":"official","height_m":7.35,"status":null},"geometry":{"type":"Polygon","coordinates":[[[3.93982613,50.93355925],[3.93980168,50.93359108],[3.93972612,50.93356856],[3.93974999,50.93353696],[3.93982613,50.93355925]]]}},{"type":"Feature","id":"gebouw/Gebouw.18862318/0","properties":{"source":"Digitaal Vlaanderen Gebouwenregister","source_id":"gebouw/Gebouw.18862318/0","kind":"building","building":"official","height_m":8.1,"status":null},"geometry":{"type":"Polygon","coordinates":[[[3.93948471,50.93361478],[3.93949489,50.93358996],[3.93958221,50.93360204],[3.9395738,50.93362632],[3.93948471,50.93361478]]]}},{"type":"Feature","id":"gebouw/Gebouw.18862398/0","properties":{"source":"Digitaal Vlaanderen Gebouwenregister","source_id":"gebouw/Gebouw.18862398/0","kind":"building","building":"official","height_m":5.1,"status":null},"geometry":{"type":"Polygon","coordinates":[[[3.94040524,50.93522926],[3.94042606,50.93520917],[3.94050091,50.93524278],[3.94048063,50.9352626],[3.94040524,50.93522926]]]}},{"type":"Feature","id":"gebouw/Gebouw.19232743/0","properties":{"source":"Digitaal Vlaanderen Gebouwenregister","source_id":"gebouw/Gebouw.19232743/0","kind":"building","building":"official","height_m":5.85,"status":null},"geometry":{"type":"Polygon","coordinates":[[[3.93223718,50.9341514],[3.93230027,50.93409902],[3.93230706,50.93410229],[3.93232826,50.93408388],[3.9323629,50.93410061],[3.93233736,50.93412172],[3.932361,50.93413314],[3.93233235,50.93415681],[3.93230871,50.93414538],[3.93227779,50.93417093],[3.93223718,50.9341514]]]}},{"type":"Feature","id":"gebouw/Gebouw.19719400/0","properties":{"source":"Digitaal Vlaanderen Gebouwenregister","source_id":"gebouw/Gebouw.19719400/0","kind":"building","building":"official","height_m":8.1,"status":null},"geometry":{"type":"Polygon","coordinates":[[[3.93164,50.93433677],[3.9315994,50.93432914],[3.93158684,50.93435782],[3.93154348,50.9343499],[3.93158564,50.93425769],[3.93155475,50.9342519],[3.93156313,50.93423421],[3.93159932,50.93415238],[3.9317117,50.93417326],[3.93164,50.93433677]]]}},{"type":"Feature","id":"gebouw/Gebouw.19719401/0","properties":{"source":"Digitaal Vlaanderen Gebouwenregister","source_id":"gebouw/Gebouw.19719401/0","kind":"building","building":"official","height_m":8.85,"status":null},"geometry":{"type":"Polygon","coordinates":[[[3.93162751,50.93436525],[3.9315932,50.9344435],[3.93150856,50.93442816],[3.93151521,50.93441172],[3.93154348,50.9343499],[3.93158684,50.93435782],[3.93162751,50.93436525]]]}},{"type":"Feature","id":"gebouw/Gebouw.19720168/0","properties":{"source":"Digitaal Vlaanderen Gebouwenregister","source_id":"gebouw/Gebouw.19720168/0","kind":"building","building":"official","height_m":8.1,"status":null},"geometry":{"type":"Polygon","coordinates":[[[3.93185175,50.934817],[3.93191604,50.93483128],[3.93185372,50.93493533],[3.93185041,50.93494086],[3.93179075,50.93492487],[3.93183235,50.93485131],[3.93185175,50.934817]]]}},{"type":"Feature","id":"gebouw/Gebouw.19721038/0","properties":{"source":"Digitaal Vlaanderen Gebouwenregister","source_id":"gebouw/Gebouw.19721038/0","kind":"building","building":"official","height_m":8.1,"status":null},"geometry":{"type":"Polygon","coordinates":[[[3.93109059,50.93201255],[3.93107703,50.93200828],[3.93109228,50.93199086],[3.93098198,50.9319547],[3.93096977,50.93196981],[3.93088451,50.93194243],[3.93085898,50.93197417],[3.9309446,50.93200096],[3.93095084,50.93199323],[3.93107486,50.93203176],[3.93109059,50.93201255]]]}},{"type":"Feature","id":"gebouw/Gebouw.19721039/0","properties":{"source":"Digitaal Vlaanderen Gebouwenregister","source_id":"gebouw/Gebouw.19721039/0","kind":"building","building":"official","height_m":8.85,"status":null},"geometry":{"type":"Polygon","coordinates":[[[3.93109059,50.93201255],[3.93107486,50.93203176],[3.93109625,50.9320384],[3.93111193,50.93201925],[3.93109059,50.93201255]]]}},{"type":"Feature","id":"gebouw/Gebouw.19955091/0","properties":{"source":"Digitaal Vlaanderen Gebouwenregister","source_id":"gebouw/Gebouw.19955091/0","kind":"building","building":"official","height_m":7.35,"status":null},"geometry":{"type":"Polygon","coordinates":[[[3.93213081,50.92891113],[3.93216352,50.92888003],[3.93225099,50.92891677],[3.93221828,50.92894787],[3.93213081,50.92891113]]]}},{"type":"Feature","id":"gebouw/Gebouw.19955099/0","properties":{"source":"Digitaal Vlaanderen Gebouwenregister","source_id":"gebouw/Gebouw.19955099/0","kind":"building","building":"official","height_m":8.85,"status":null},"geometry":{"type":"Polygon","coordinates":[[[3.93190619,50.93380538],[3.9319468,50.93381314],[3.93193037,50.93384746],[3.9318925,50.93384022],[3.93180715,50.93382391],[3.93182357,50.93378959],[3.93190619,50.93380538]]]}},{"type":"Feature","id":"gebouw/Gebouw.19956107/0","properties":{"source":"Digitaal Vlaanderen Gebouwenregister","source_id":"gebouw/Gebouw.19956107/0","kind":"building","building":"official","height_m":8.85,"status":null},"geometry":{"type":"Polygon","coordinates":[[[3.93956833,50.93353071],[3.9395244,50.93352594],[3.93947255,50.9335203],[3.9394703,50.93352854],[3.93941827,50.93352288],[3.93942972,50.93348083],[3.93947812,50.93348609],[3.93947944,50.93348123],[3.9395762,50.93349175],[3.93958528,50.93349274],[3.9395802,50.93351139],[3.93957379,50.93351069],[3.93956833,50.93353071]]]}},{"type":"Feature","id":"gebouw/Gebouw.20802118/0","properties":{"source":"Digitaal Vlaanderen Gebouwenregister","source_id":"gebouw/Gebouw.20802118/0","kind":"building","building":"official","height_m":8.1,"status":null},"geometry":{"type":"Polygon","coordinates":[[[3.94124783,50.92899968],[3.94128181,50.92902607],[3.94124745,50.92904373],[3.94121348,50.92901734],[3.94124783,50.92899968]]]}},{"type":"Feature","id":"gebouw/Gebouw.20802128/0","properties":{"source":"Digitaal Vlaanderen Gebouwenregister","source_id":"gebouw/Gebouw.20802128/0","kind":"building","building":"official","height_m":6.6,"status":null},"geometry":{"type":"Polygon","coordinates":[[[3.93194729,50.93432852],[3.93196823,50.93427549],[3.93199984,50.93428048],[3.93197889,50.9343335],[3.93194729,50.93432852]]]}},{"type":"Feature","id":"gebouw/Gebouw.20802131/0","properties":{"source":"Digitaal Vlaanderen Gebouwenregister","source_id":"gebouw/Gebouw.20802131/0","kind":"building","building":"official","height_m":8.85,"status":null},"geometry":{"type":"Polygon","coordinates":[[[3.93279239,50.93470478],[3.93271,50.93468779],[3.93273035,50.93464838],[3.93281274,50.93466537],[3.93279239,50.93470478]]]}},{"type":"Feature","id":"gebouw/Gebouw.31251517/0","properties":{"source":"Digitaal Vlaanderen Gebouwenregister","source_id":"gebouw/Gebouw.31251517/0","kind":"building","building":"official","height_m":5.85,"status":null},"geometry":{"type":"Polygon","coordinates":[[[3.93104884,50.93071817],[3.9310217,50.9307481],[3.93093775,50.93071817],[3.93096335,50.93068796],[3.93104884,50.93071817]]]}},{"type":"Feature","id":"gebouw/Gebouw.31557916/0","properties":{"source":"Digitaal Vlaanderen Gebouwenregister","source_id":"gebouw/Gebouw.31557916/0","kind":"building","building":"official","height_m":8.1,"status":null},"geometry":{"type":"Polygon","coordinates":[[[3.94123691,50.93493469],[3.94115686,50.93499098],[3.94123121,50.9350332],[3.94131126,50.9349769],[3.94123691,50.93493469]]]}},{"type":"Feature","id":"gebouw/Gebouw.31844897/0","properties":{"source":"Digitaal Vlaanderen Gebouwenregister","source_id":"gebouw/Gebouw.31844897/0","kind":"building","building":"official","height_m":8.85,"status":null},"geometry":{"type":"Polygon","coordinates":[[[3.93960286,50.933489],[3.93955204,50.93357538],[3.93960758,50.93358843],[3.93965839,50.93350205],[3.93960286,50.933489]]]}},{"type":"Feature","id":"gebouw/Gebouw.31844939/0","properties":{"source":"Digitaal Vlaanderen Gebouwenregister","source_id":"gebouw/Gebouw.31844939/0","kind":"building","building":"official","height_m":8.85,"status":null},"geometry":{"type":"Polygon","coordinates":[[[3.93062536,50.93509608],[3.9306112,50.93512986],[3.93068753,50.93514263],[3.93070169,50.93510886],[3.93062536,50.93509608]]]}},{"type":"Feature","id":"gebouw/Gebouw.31845067/0","properties":{"source":"Digitaal Vlaanderen Gebouwenregister","source_id":"gebouw/Gebouw.31845067/0","kind":"building","building":"official","height_m":5.85,"status":null},"geometry":{"type":"Polygon","coordinates":[[[3.93104968,50.93071927],[3.93096229,50.930688],[3.93093536,50.93071806],[3.93102275,50.93074933],[3.93104968,50.93071927]]]}},{"type":"Feature","id":"gebouw/Gebouw.31845188/0","properties":{"source":"Digitaal Vlaanderen Gebouwenregister","source_id":"gebouw/Gebouw.31845188/0","kind":"building","building":"official","height_m":6.6,"status":null},"geometry":{"type":"Polygon","coordinates":[[[3.93255566,50.93471071],[3.93251025,50.93470057],[3.932491,50.93473499],[3.93253641,50.93474513],[3.93255566,50.93471071]]]}},{"type":"Feature","id":"way/140594006","properties":{"source":"OpenStreetMap","source_id":"way/140594006","kind":"waterway","waterway":"stream","name":null},"geometry":{"type":"LineString","coordinates":[[3.9366568,50.9301329],[3.9369824,50.9299409],[3.937043,50.9299097],[3.9371181,50.9298861],[3.9371959,50.9298708]]}},{"type":"Feature","id":"way/140594010","properties":{"source":"OpenStreetMap","source_id":"way/140594010","kind":"waterway","waterway":"stream","name":"Molenbeek"},"geometry":{"type":"LineString","coordinates":[[3.9370547,50.9287283],[3.9370725,50.9287906],[3.9370736,50.9288624],[3.9370736,50.9289384],[3.9370698,50.929007],[3.9370618,50.9290678],[3.9370564,50.9291659],[3.9370494,50.9292563],[3.9370333,50.9293053],[3.9370081,50.9293333],[3.936969,50.929378],[3.9369572,50.9294229],[3.9369625,50.9294685],[3.9369706,50.9295327],[3.9369867,50.929575],[3.937004,50.9296276],[3.9370323,50.9296714],[3.9370855,50.9297065],[3.9371396,50.9297474],[3.9371488,50.9297617],[3.9371637,50.9297846],[3.9371798,50.9298252],[3.9371959,50.9298708],[3.9372312,50.9298914],[3.9372924,50.9299013],[3.9373568,50.9299097],[3.937444,50.9299235],[3.9375226,50.9299533],[3.9375529,50.9299784],[3.9375593,50.9300086],[3.937511,50.9300594],[3.9374641,50.9301041],[3.9374507,50.9301548],[3.9374668,50.9302056],[3.9375204,50.9302444],[3.9375821,50.9302715],[3.9376411,50.9302783],[3.9376921,50.9302918],[3.9377629,50.9303247],[3.9378246,50.9303669],[3.9378745,50.9304186],[3.9379147,50.9304744],[3.9379523,50.9305082],[3.9379925,50.930547],[3.93803,50.9305775],[3.938081,50.9305927],[3.9381347,50.9306113],[3.9381883,50.9306265],[3.9382232,50.9306485],[3.9382672,50.930683],[3.9382956,50.9307279],[3.9383331,50.9308057],[3.9383761,50.9308513],[3.9384378,50.9309259]]}},{"type":"Feature","id":"way/140595886","properties":{"source":"OpenStreetMap","source_id":"way/140595886","kind":"vegetation","landuse":"forest","natural":null,"name":null},"geometry":{"type":"Polygon","coordinates":[[[3.9407953,50.9332272],[3.941112,50.9330146],[3.9412041,50.9329524],[3.9415252,50.932737],[3.9414147,50.9327331],[3.9412057,50.9326685],[3.941077,50.932611],[3.9409911,50.9325333],[3.9408755,50.932381],[3.9404343,50.9327272],[3.9406873,50.9328763],[3.9407637,50.9330879],[3.9407953,50.9332272]]]}},{"type":"Feature","id":"way/140698092","properties":{"source":"OpenStreetMap","source_id":"way/140698092","kind":"waterway","waterway":"drain","name":null},"geometry":{"type":"LineString","coordinates":[[3.9365031,50.9302964],[3.9370368,50.9307021]]}},{"type":"Feature","id":"way/140698102","properties":{"source":"OpenStreetMap","source_id":"way/140698102","kind":"waterway","waterway":"drain","name":null},"geometry":{"type":"LineString","coordinates":[[3.9357869,50.9302508],[3.9359854,50.9300969],[3.9360283,50.9300682],[3.9360739,50.9300462],[3.9361168,50.9300445],[3.9361544,50.9300479],[3.9361892,50.9300597],[3.9364548,50.9302626]]}},{"type":"Feature","id":"way/163601469","properties":{"source":"OpenStreetMap","source_id":"way/163601469","kind":"vegetation","landuse":"forest","natural":null,"name":null},"geometry":{"type":"Polygon","coordinates":[[[3.9378785,50.9294228],[3.9380984,50.9296529],[3.9384264,50.9299478],[3.9386147,50.9301024],[3.9390847,50.9304216],[3.9393582,50.9305901],[3.9393828,50.930632],[3.9393177,50.9306849],[3.937832,50.931112],[3.9377387,50.9310565],[3.9375792,50.9309205],[3.9360261,50.9298362],[3.9362003,50.9296858],[3.9357716,50.9294558],[3.9348735,50.9290887],[3.9343522,50.9288707],[3.934545,50.9286857],[3.9346982,50.9284924],[3.935062,50.9283698],[3.9353357,50.9284575],[3.9352016,50.9285875],[3.9353967,50.9287259],[3.9355221,50.9288005],[3.9355883,50.9288554],[3.9357068,50.9288796],[3.9358392,50.928895],[3.9359068,50.9289136],[3.9359556,50.9289565],[3.9360985,50.9290124],[3.9361786,50.9290816],[3.9362744,50.9291804],[3.9363337,50.9292617],[3.9364852,50.9293957],[3.9366152,50.9295024],[3.9366337,50.9295567],[3.9367569,50.9296592],[3.9368369,50.929712],[3.9368998,50.9297213],[3.937019,50.9297221],[3.937181,50.9297111],[3.9370829,50.9296572],[3.9370515,50.9296307],[3.9370228,50.9294887],[3.9370067,50.9294135],[3.9370215,50.9293865],[3.9370872,50.929318],[3.9371181,50.9292445],[3.9371194,50.9290078],[3.937114,50.9289393],[3.937114,50.928859],[3.9371108,50.9287388],[3.9372104,50.9287559],[3.9373098,50.9287952],[3.9374218,50.9288675],[3.9374865,50.92892],[3.9378785,50.9294228]]]}},{"type":"Feature","id":"way/198282166","properties":{"source":"OpenStreetMap","source_id":"way/198282166","kind":"vegetation","landuse":"forest","natural":null,"name":null},"geometry":{"type":"Polygon","coordinates":[[[3.9397147,50.9337075],[3.9391592,50.9336659],[3.9386096,50.9336589],[3.9369491,50.933642],[3.936747,50.9336714],[3.9366086,50.9341498],[3.936209,50.9341247],[3.9360696,50.9344307],[3.9352716,50.9343169],[3.9353591,50.9336927],[3.9350031,50.9337901],[3.9348579,50.9337862],[3.9345545,50.9337005],[3.9344037,50.9338028],[3.9341549,50.9338919],[3.9339571,50.9339431],[3.9336898,50.9339705],[3.933661,50.9340301],[3.9337619,50.9340635],[3.9338578,50.9341214],[3.9340201,50.9342575],[3.9340897,50.9343527],[3.9345968,50.934375],[3.9352645,50.9343719],[3.9367653,50.9346543],[3.9371791,50.9347604],[3.9374211,50.9347918],[3.9374647,50.9346873],[3.9376809,50.9343736],[3.9387578,50.9347408],[3.9388159,50.9346839],[3.9389319,50.9346742],[3.9392955,50.9347351],[3.9397147,50.9337075]]]}},{"type":"Feature","id":"way/198282177","properties":{"source":"OpenStreetMap","source_id":"way/198282177","kind":"vegetation","landuse":"forest","natural":null,"name":null},"geometry":{"type":"Polygon","coordinates":[[[3.939726,50.9348064],[3.9402841,50.9348961],[3.940563,50.9348932],[3.9408329,50.9340728],[3.9411884,50.9341265],[3.9412139,50.9338938],[3.9406538,50.933724],[3.9407971,50.9334146],[3.9408078,50.9334025],[3.9408754,50.9334239],[3.9409269,50.9334488],[3.9410964,50.9335574],[3.9411659,50.9336134],[3.941216,50.9336593],[3.9412649,50.9336502],[3.9413342,50.9336957],[3.9413929,50.933671],[3.9417464,50.9337835],[3.9419007,50.9340092],[3.94186,50.9340505],[3.9419295,50.9341115],[3.9422323,50.9343762],[3.9424935,50.9345168],[3.9423585,50.9344963],[3.9421519,50.9345334],[3.94154,50.9347236],[3.9414377,50.9348023],[3.9413159,50.9348818],[3.9410428,50.935009],[3.9407022,50.9352121],[3.9402245,50.9349916],[3.9400014,50.9353304],[3.941274,50.9358193],[3.9411839,50.935908],[3.9399156,50.9354517],[3.9393879,50.9353562],[3.939726,50.9348064]]]}},{"type":"Feature","id":"way/457961779","properties":{"source":"OpenStreetMap","source_id":"way/457961779","kind":"waterway","waterway":"drain","name":null},"geometry":{"type":"LineString","coordinates":[[3.9364548,50.9302626],[3.9365031,50.9302964]]}},{"type":"Feature","id":"way/459636110","properties":{"source":"OpenStreetMap","source_id":"way/459636110","kind":"waterway","waterway":"stream","name":"Kokelaarloop"},"geometry":{"type":"LineString","coordinates":[[3.932782,50.9341701],[3.9328273,50.9341775],[3.9329728,50.9342009]]}},{"type":"Feature","id":"way/459636111","properties":{"source":"OpenStreetMap","source_id":"way/459636111","kind":"waterway","waterway":"stream","name":"Kokelaarloop"},"geometry":{"type":"LineString","coordinates":[[3.9329728,50.9342009],[3.9333632,50.9342455],[3.9334007,50.9342359],[3.9334328,50.9342093],[3.9336039,50.9339447],[3.9336347,50.9339464]]}},{"type":"Feature","id":"way/459636112","properties":{"source":"OpenStreetMap","source_id":"way/459636112","kind":"waterway","waterway":"stream","name":"Kokelaarloop"},"geometry":{"type":"LineString","coordinates":[[3.9336347,50.9339464],[3.9336794,50.9339702]]}},{"type":"Feature","id":"way/459636113","properties":{"source":"OpenStreetMap","source_id":"way/459636113","kind":"waterway","waterway":"stream","name":"Kokelaarloop"},"geometry":{"type":"LineString","coordinates":[[3.9304932,50.9332997],[3.9312855,50.9335282],[3.932099,50.9339102],[3.9323323,50.9340446],[3.9325639,50.9340344],[3.9326779,50.9340673],[3.9327632,50.9341086],[3.9327726,50.9341426],[3.932782,50.9341701]]}},{"type":"Feature","id":"way/459636114","properties":{"source":"OpenStreetMap","source_id":"way/459636114","kind":"waterway","waterway":"stream","name":"Kokelaarloop"},"geometry":{"type":"LineString","coordinates":[[3.9405159,50.9338197],[3.9408921,50.933623],[3.9413142,50.933591]]}},{"type":"Feature","id":"way/459636121","properties":{"source":"OpenStreetMap","source_id":"way/459636121","kind":"waterway","waterway":"stream","name":"Kokelaarloop"},"geometry":{"type":"LineString","coordinates":[[3.9336794,50.9339702],[3.9341709,50.9339016],[3.9345901,50.9337137],[3.9349926,50.9337719],[3.9354757,50.9336828],[3.9356229,50.9336692],[3.9358999,50.933662],[3.9366278,50.9336718],[3.9367554,50.9336683],[3.9374383,50.9336639],[3.9386802,50.9336863],[3.9398505,50.9337289],[3.9402084,50.9337697],[3.9405159,50.9338197]]}},{"type":"Feature","id":"way/459638641","properties":{"source":"OpenStreetMap","source_id":"way/459638641","kind":"waterway","waterway":"stream","name":"Smoorbeek"},"geometry":{"type":"LineString","coordinates":[[3.9346929,50.9284709],[3.9347493,50.9284731],[3.9348158,50.928475],[3.9348452,50.9284816],[3.9348539,50.9285018],[3.9348626,50.9285261],[3.9348779,50.9285374],[3.934906,50.9285464],[3.9349366,50.9285546],[3.9349652,50.92856],[3.9350009,50.928573],[3.9350442,50.9285966],[3.9350939,50.9286162],[3.9351639,50.9286455],[3.9352328,50.9286708],[3.9352646,50.9286871],[3.9352938,50.928709],[3.935323,50.9287317],[3.9353578,50.9287483],[3.9354023,50.9287719],[3.9354367,50.9287922],[3.9354762,50.9288077],[3.9355207,50.9288345],[3.9355538,50.9288524],[3.9355601,50.9288613],[3.93556,50.9288734],[3.935551,50.9288831],[3.9355253,50.9288975],[3.9355046,50.9289152],[3.935493,50.928933],[3.9354928,50.9289499],[3.935508,50.9289661],[3.9355399,50.9289719],[3.9355619,50.9289713],[3.9355927,50.9289681],[3.9356233,50.9289747],[3.9356552,50.9289845],[3.9356769,50.928987],[3.935691,50.9289855],[3.9357001,50.928975],[3.9357232,50.9289597],[3.9357618,50.9289429],[3.9357989,50.9289342],[3.9358283,50.9289407],[3.9358435,50.9289537],[3.9358511,50.9289675],[3.9358522,50.9289828],[3.9358444,50.9289949],[3.9358391,50.9290119],[3.9358416,50.9290422],[3.9358415,50.9290583],[3.9358324,50.9290745],[3.9358181,50.9290906],[3.935818,50.9291043],[3.9358256,50.9291189],[3.9358433,50.9291318],[3.9358714,50.9291408],[3.9358918,50.9291433],[3.9359111,50.9291377],[3.9359342,50.9291257],[3.9359561,50.9291088],[3.9359754,50.9290936],[3.9360178,50.9290743],[3.9360332,50.9290704],[3.9360575,50.9290704],[3.9360805,50.9290746],[3.9360945,50.9290843],[3.9361072,50.9290965],[3.9361134,50.9291143],[3.9361209,50.9291304],[3.9361374,50.9291475],[3.9361564,50.9291677],[3.936183,50.9291953],[3.9362084,50.9292188],[3.9362442,50.9292533],[3.9362606,50.9292752],[3.9362884,50.9293173],[3.9363035,50.9293424],[3.9363123,50.9293561],[3.9363403,50.9293724],[3.9363848,50.9293976],[3.9364535,50.9294447],[3.9364893,50.9294742],[3.9365071,50.9294872],[3.9365184,50.9295091],[3.9365285,50.9295252],[3.9365514,50.9295415],[3.9365742,50.9295618],[3.9366111,50.9295918],[3.936639,50.9296145],[3.9366695,50.9296372],[3.9367042,50.9296627],[3.9367333,50.9296871],[3.9367511,50.9297089],[3.9367599,50.9297211],[3.9367573,50.9297283],[3.9367405,50.9297469],[3.9367301,50.9297622],[3.9367338,50.9297751],[3.9367401,50.9297824],[3.9367568,50.9297825],[3.9367786,50.9297761],[3.9368093,50.9297722],[3.9368387,50.9297723],[3.9369129,50.9297733],[3.9369334,50.9297734],[3.93695,50.9297719],[3.9369834,50.9297631],[3.937018,50.9297568],[3.9370436,50.9297544],[3.9370883,50.9297562],[3.9371049,50.9297579],[3.9371488,50.9297617]]}},{"type":"Feature","id":"way/758951998","properties":{"source":"OpenStreetMap","source_id":"way/758951998","kind":"vegetation","landuse":"forest","natural":null,"name":null},"geometry":{"type":"Polygon","coordinates":[[[3.9334213,50.9286516],[3.9330388,50.9291333],[3.9324686,50.9289171],[3.932272,50.9291349],[3.9319067,50.9289922],[3.9317729,50.9289407],[3.9322345,50.928344],[3.9328129,50.9285417],[3.9329237,50.9284942],[3.9333875,50.9286409],[3.9334213,50.9286516]]]}},{"type":"Feature","id":"way/758952006","properties":{"source":"OpenStreetMap","source_id":"way/758952006","kind":"vegetation","landuse":"forest","natural":null,"name":null},"geometry":{"type":"Polygon","coordinates":[[[3.9304528,50.9339887],[3.9314208,50.9336046],[3.9312858,50.9335423],[3.9311334,50.9334922],[3.9309792,50.9334422],[3.9304528,50.9339887]]]}},{"type":"Feature","id":"way/824968036","properties":{"source":"OpenStreetMap","source_id":"way/824968036","kind":"vegetation","landuse":"forest","natural":null,"name":null},"geometry":{"type":"Polygon","coordinates":[[[3.9399898,50.9321702],[3.940945,50.9317128],[3.9405783,50.9314825],[3.9403892,50.9313535],[3.9402102,50.9311989],[3.9401294,50.9311482],[3.9400391,50.9311181],[3.9399312,50.9311187],[3.9396587,50.9311697],[3.9388477,50.9314012],[3.9388732,50.9314304],[3.9389088,50.9314621],[3.9389363,50.9314921],[3.9389698,50.9315124],[3.9390141,50.9315352],[3.9390576,50.9315529],[3.9391006,50.9315656],[3.9391656,50.9315724],[3.939238,50.9315842],[3.9393098,50.9315948],[3.9393914,50.9316092],[3.9394565,50.9316222],[3.9395274,50.9316346],[3.9396087,50.931657],[3.9396618,50.9316839],[3.9396906,50.9317042],[3.9397074,50.9317224],[3.9397383,50.9317575],[3.9397664,50.9317849],[3.939802,50.9318069],[3.9398207,50.9318272],[3.9398422,50.9318403],[3.9398844,50.9318521],[3.9399522,50.931861],[3.9399969,50.9318678],[3.9400209,50.9318746],[3.9400346,50.9318892],[3.9400387,50.9319143],[3.9400366,50.931943],[3.9400299,50.9319726],[3.9400092,50.9320009],[3.9399924,50.9320178],[3.9399669,50.9320372],[3.9399495,50.932058],[3.9399361,50.932077],[3.9399347,50.9321011],[3.9399408,50.9321239],[3.9399508,50.9321459],[3.9399898,50.9321702]]]}},{"type":"Feature","id":"way/824968038","properties":{"source":"OpenStreetMap","source_id":"way/824968038","kind":"vegetation","landuse":"forest","natural":null,"name":null},"geometry":{"type":"Polygon","coordinates":[[[3.9396403,50.9322115],[3.9399099,50.9322069],[3.9398921,50.9321882],[3.9398727,50.9321709],[3.9398596,50.9321543],[3.9398489,50.9321315],[3.9398475,50.9321087],[3.9398527,50.9320821],[3.9398669,50.9320563],[3.939878,50.932037],[3.9398916,50.9320179],[3.939908,50.931999],[3.9399217,50.9319819],[3.9399367,50.9319623],[3.9399465,50.9319416],[3.9399499,50.9319245],[3.9399466,50.9319118],[3.9399366,50.9319004],[3.9399213,50.9318927],[3.9399045,50.9318889],[3.9398831,50.9318868],[3.9398516,50.9318834],[3.9398214,50.9318796],[3.9397966,50.9318728],[3.9397637,50.9318581],[3.9397242,50.9318392],[3.9396952,50.9318133],[3.9396776,50.9317859],[3.9396662,50.9317613],[3.9396343,50.9317321],[3.9395921,50.9317059],[3.9395552,50.9316899],[3.9394837,50.9316719],[3.9394127,50.9316624],[3.9393549,50.9316496],[3.9392864,50.9316327],[3.9392058,50.931622],[3.9391421,50.9316098],[3.9390855,50.9316025],[3.939026,50.9315956],[3.9389757,50.9315816],[3.9389232,50.931567],[3.9388702,50.9315417],[3.9388409,50.931516],[3.9388203,50.93149],[3.9387901,50.931468],[3.9387686,50.9314604],[3.9387476,50.9314583],[3.9387318,50.9314536],[3.938724,50.9314434],[3.9383958,50.9315408],[3.938405,50.9316607],[3.9389021,50.9317983],[3.9390635,50.931871],[3.9393395,50.9320332],[3.9396403,50.9322115]]]}},{"type":"Feature","id":"way/1023542208","properties":{"source":"OpenStreetMap","source_id":"way/1023542208","kind":"waterway","waterway":"stream","name":"Molenbeek"},"geometry":{"type":"LineString","coordinates":[[3.9384378,50.9309259],[3.9388132,50.9314278]]}},{"type":"Feature","id":"way/1023542210","properties":{"source":"OpenStreetMap","source_id":"way/1023542210","kind":"waterway","waterway":"stream","name":"Molenbeek"},"geometry":{"type":"LineString","coordinates":[[3.9388132,50.9314278],[3.9388749,50.9314752],[3.9389348,50.9315194],[3.9389919,50.9315484],[3.9390581,50.9315753],[3.9391293,50.9315836],[3.9392219,50.9316005],[3.9392879,50.9316104],[3.9393921,50.931626],[3.9394918,50.931651],[3.9395921,50.9316732],[3.9396393,50.9317029],[3.9396826,50.9317392],[3.9397125,50.931764],[3.9397399,50.9317893],[3.9397561,50.9318082],[3.9397741,50.9318266],[3.939807,50.9318456],[3.9398378,50.9318555],[3.9398995,50.931864],[3.9399521,50.9318731],[3.9399845,50.9318837],[3.9399975,50.9319026],[3.9399998,50.9319318],[3.9399893,50.9319561],[3.9399696,50.9319872],[3.9399287,50.9320244],[3.9398968,50.932077],[3.9399059,50.9321144],[3.9399166,50.9321414],[3.9399649,50.9321769],[3.940039,50.9322181],[3.9401111,50.9322357],[3.940217,50.9322395],[3.9403565,50.9322564],[3.9405056,50.9322663],[3.9406351,50.9322752],[3.9407376,50.9322895],[3.9408345,50.9323148],[3.940894,50.9323449],[3.9409291,50.9323705],[3.940952,50.9324085],[3.9409949,50.9324643],[3.9410271,50.9325066],[3.941074,50.9325505],[3.9411145,50.9325768],[3.9411504,50.9325983],[3.9412151,50.9326267],[3.9412738,50.9326515],[3.9413613,50.932677],[3.9414381,50.9326997],[3.9415126,50.9327107],[3.941604,50.9326841],[3.941724,50.9326504],[3.9418012,50.9326385],[3.9418923,50.9326385],[3.9419587,50.9326592],[3.9420144,50.9326862],[3.9420748,50.9327379],[3.9421415,50.9328079],[3.9422223,50.9328849],[3.9423333,50.9329917],[3.9424234,50.9330708],[3.9425381,50.933147],[3.9426916,50.9332416],[3.9427963,50.9333328],[3.9428874,50.9334326],[3.9430229,50.9335906],[3.9431413,50.9337152],[3.9432479,50.9338318],[3.9433499,50.9339603],[3.9435851,50.934286]]}},{"type":"Feature","id":"way/1421826689","properties":{"source":"OpenStreetMap","source_id":"way/1421826689","kind":"waterway","waterway":"stream","name":"Molenbeek"},"geometry":{"type":"LineString","coordinates":[[3.9370569,50.9286505],[3.9370547,50.9286758],[3.9370547,50.9287283]]}}]}