{"type":"FeatureCollection","features":[{"type":"Feature","id":"gebouw/Gebouw.12866285/0","properties":{"source":"Digitaal Vlaanderen Gebouwenregister","source_id":"gebouw/Gebouw.12866285/0","kind":"building","building":"official","height_m":8.85,"status":null},"geometry":{"type":"Polygon","coordinates":[[[3.94047292,50.94870848],[3.94043438,50.94874609],[3.94037766,50.94872416],[3.94041786,50.94868475],[3.94047292,50.94870848]]]}},{"type":"Feature","id":"gebouw/Gebouw.12917887/0","properties":{"source":"Digitaal Vlaanderen Gebouwenregister","source_id":"gebouw/Gebouw.12917887/0","kind":"building","building":"official","height_m":5.85,"status":null},"geometry":{"type":"Polygon","coordinates":[[[3.93939948,50.94858245],[3.93936305,50.94862326],[3.9393293,50.94861073],[3.93936633,50.94857053],[3.93939948,50.94858245]]]}},{"type":"Feature","id":"gebouw/Gebouw.13078153/0","properties":{"source":"Digitaal Vlaanderen Gebouwenregister","source_id":"gebouw/Gebouw.13078153/0","kind":"building","building":"official","height_m":5.85,"status":null},"geometry":{"type":"Polygon","coordinates":[[[3.94050826,50.9451314],[3.94061514,50.9451955],[3.94058836,50.94521397],[3.94066559,50.94526141],[3.94057886,50.9453205],[3.94039217,50.94521012],[3.94050826,50.9451314]]]}},{"type":"Feature","id":"gebouw/Gebouw.13252061/0","properties":{"source":"Digitaal Vlaanderen Gebouwenregister","source_id":"gebouw/Gebouw.13252061/0","kind":"building","building":"official","height_m":8.85,"status":null},"geometry":{"type":"Polygon","coordinates":[[[3.93949888,50.94830084],[3.93940713,50.9482656],[3.93942726,50.948243],[3.93952092,50.94827829],[3.93949888,50.94830084]]]}},{"type":"Feature","id":"gebouw/Gebouw.13254283/0","properties":{"source":"Digitaal Vlaanderen Gebouwenregister","source_id":"gebouw/Gebouw.13254283/0","kind":"building","building":"official","height_m":5.85,"status":null},"geometry":{"type":"Polygon","coordinates":[[[3.93686839,50.94770963],[3.93694819,50.94763166],[3.93715394,50.94770398],[3.93713414,50.94772646],[3.93721934,50.9477564],[3.93716764,50.94781613],[3.93686839,50.94770963]]]}},{"type":"Feature","id":"gebouw/Gebouw.13285675/0","properties":{"source":"Digitaal Vlaanderen Gebouwenregister","source_id":"gebouw/Gebouw.13285675/0","kind":"building","building":"official","height_m":5.85,"status":null},"geometry":{"type":"Polygon","coordinates":[[[3.94095911,50.9448805],[3.94113284,50.94488431],[3.94112706,50.94502286],[3.94097982,50.9450185],[3.94098127,50.94497467],[3.94095557,50.94497282],[3.94095911,50.9448805]]]}},{"type":"Feature","id":"gebouw/Gebouw.13336158/0","properties":{"source":"Digitaal Vlaanderen Gebouwenregister","source_id":"gebouw/Gebouw.13336158/0","kind":"building","building":"official","height_m":5.1,"status":null},"geometry":{"type":"Polygon","coordinates":[[[3.93946245,50.94866444],[3.93936156,50.94862492],[3.93936305,50.94862326],[3.93939948,50.94858245],[3.93954219,50.9484226],[3.93957747,50.94838309],[3.93960959,50.94834712],[3.93977947,50.9484162],[3.93965129,50.94855434],[3.93958302,50.94852827],[3.93946245,50.94866444]]]}},{"type":"Feature","id":"gebouw/Gebouw.13407289/0","properties":{"source":"Digitaal Vlaanderen Gebouwenregister","source_id":"gebouw/Gebouw.13407289/0","kind":"building","building":"official","height_m":5.85,"status":null},"geometry":{"type":"Polygon","coordinates":[[[3.93961676,50.94834999],[3.93965541,50.94830526],[3.9396958,50.94832079],[3.93965718,50.94836615],[3.93961676,50.94834999]]]}},{"type":"Feature","id":"gebouw/Gebouw.13413614/0","properties":{"source":"Digitaal Vlaanderen Gebouwenregister","source_id":"gebouw/Gebouw.13413614/0","kind":"building","building":"official","height_m":6.6,"status":null},"geometry":{"type":"Polygon","coordinates":[[[3.93683416,50.94865216],[3.93705358,50.9484231],[3.93701153,50.94840381],[3.93710089,50.94831625],[3.93737927,50.94842389],[3.93733455,50.94846857],[3.93729148,50.94845107],[3.93724911,50.94849127],[3.93730009,50.94851329],[3.93725371,50.94855778],[3.9372268,50.94854695],[3.93705119,50.94872101],[3.93696182,50.94868491],[3.93702688,50.94862703],[3.93699545,50.94861507],[3.93703319,50.94857846],[3.93705349,50.94858622],[3.93713241,50.94850897],[3.93708226,50.94848879],[3.93689837,50.94867802],[3.93683416,50.94865216]]]}},{"type":"Feature","id":"gebouw/Gebouw.13415750/0","properties":{"source":"Digitaal Vlaanderen Gebouwenregister","source_id":"gebouw/Gebouw.13415750/0","kind":"building","building":"official","height_m":6.6,"status":null},"geometry":{"type":"Polygon","coordinates":[[[3.93885855,50.94849488],[3.93862394,50.94875638],[3.93864021,50.9487622],[3.93858661,50.94882049],[3.93857133,50.94881503],[3.93850525,50.94888867],[3.93823129,50.94879407],[3.93832756,50.94868596],[3.9383555,50.94869617],[3.93848613,50.94855032],[3.93845739,50.94854017],[3.93858465,50.94839726],[3.93885855,50.94849488]]]}},{"type":"Feature","id":"gebouw/Gebouw.13443785/0","properties":{"source":"Digitaal Vlaanderen Gebouwenregister","source_id":"gebouw/Gebouw.13443785/0","kind":"building","building":"official","height_m":8.85,"status":null},"geometry":{"type":"Polygon","coordinates":[[[3.93957747,50.94838309],[3.93954219,50.9484226],[3.93951345,50.94841169],[3.93955117,50.948373],[3.93957747,50.94838309]]]}},{"type":"Feature","id":"gebouw/Gebouw.13459987/0","properties":{"source":"Digitaal Vlaanderen Gebouwenregister","source_id":"gebouw/Gebouw.13459987/0","kind":"building","building":"official","height_m":5.85,"status":null},"geometry":{"type":"Polygon","coordinates":[[[3.94051639,50.94536016],[3.94056764,50.94532513],[3.94062426,50.94535843],[3.94057294,50.94539557],[3.94051639,50.94536016]]]}},{"type":"Feature","id":"gebouw/Gebouw.13472825/0","properties":{"source":"Digitaal Vlaanderen Gebouwenregister","source_id":"gebouw/Gebouw.13472825/0","kind":"building","building":"official","height_m":8.85,"status":null},"geometry":{"type":"Polygon","coordinates":[[[3.93969062,50.94442175],[3.9399013,50.94450534],[3.93986002,50.94454687],[3.93978105,50.94451554],[3.93963475,50.94466037],[3.9395053,50.94460817],[3.93969062,50.94442175]]]}},{"type":"Feature","id":"gebouw/Gebouw.13479230/0","properties":{"source":"Digitaal Vlaanderen Gebouwenregister","source_id":"gebouw/Gebouw.13479230/0","kind":"building","building":"official","height_m":6.6,"status":null},"geometry":{"type":"Polygon","coordinates":[[[3.94106048,50.94454276],[3.94121348,50.94454252],[3.94121429,50.94463339],[3.94115723,50.94463323],[3.94115736,50.94461554],[3.94100014,50.94461485],[3.9410018,50.94454285],[3.94102302,50.94454281],[3.94106048,50.94454276]]]}},{"type":"Feature","id":"gebouw/Gebouw.13487396/0","properties":{"source":"Digitaal Vlaanderen Gebouwenregister","source_id":"gebouw/Gebouw.13487396/0","kind":"building","building":"official","height_m":6.6,"status":null},"geometry":{"type":"Polygon","coordinates":[[[3.94009454,50.94492094],[3.94003849,50.94498322],[3.93979078,50.94489358],[3.93984565,50.94483084],[3.94009454,50.94492094]]]}},{"type":"Feature","id":"gebouw/Gebouw.13489495/0","properties":{"source":"Digitaal Vlaanderen Gebouwenregister","source_id":"gebouw/Gebouw.13489495/0","kind":"building","building":"official","height_m":5.85,"status":null},"geometry":{"type":"Polygon","coordinates":[[[3.94115246,50.94505911],[3.94115125,50.9451031],[3.9410707,50.94510082],[3.94107259,50.94505805],[3.94115246,50.94505911]]]}},{"type":"Feature","id":"gebouw/Gebouw.13571654/0","properties":{"source":"Digitaal Vlaanderen Gebouwenregister","source_id":"gebouw/Gebouw.13571654/0","kind":"building","building":"official","height_m":6.6,"status":null},"geometry":{"type":"Polygon","coordinates":[[[3.93960305,50.9483445],[3.93957,50.94832989],[3.93962853,50.94827395],[3.9396642,50.94828862],[3.93960305,50.9483445]]]}},{"type":"Feature","id":"gebouw/Gebouw.13705972/0","properties":{"source":"Digitaal Vlaanderen Gebouwenregister","source_id":"gebouw/Gebouw.13705972/0","kind":"building","building":"official","height_m":8.1,"status":null},"geometry":{"type":"Polygon","coordinates":[[[3.93486206,50.94241921],[3.93485576,50.94242316],[3.93481956,50.94244591],[3.93476014,50.94241084],[3.93479583,50.94238724],[3.93479757,50.9423861],[3.93486206,50.94241921]]]}},{"type":"Feature","id":"gebouw/Gebouw.16739702/0","properties":{"source":"Digitaal Vlaanderen Gebouwenregister","source_id":"gebouw/Gebouw.16739702/0","kind":"building","building":"official","height_m":6.6,"status":null},"geometry":{"type":"Polygon","coordinates":[[[3.9400731,50.94860467],[3.94005458,50.94856958],[3.94009551,50.94855891],[3.94011687,50.94859436],[3.9400731,50.94860467]]]}},{"type":"Feature","id":"gebouw/Gebouw.19716702/0","properties":{"source":"Digitaal Vlaanderen Gebouwenregister","source_id":"gebouw/Gebouw.19716702/0","kind":"building","building":"official","height_m":5.1,"status":null},"geometry":{"type":"Polygon","coordinates":[[[3.93938343,50.94494441],[3.93956066,50.94475161],[3.93971357,50.94480385],[3.93953314,50.94499822],[3.93938343,50.94494441]]]}},{"type":"Feature","id":"gebouw/Gebouw.19954990/0","properties":{"source":"Digitaal Vlaanderen Gebouwenregister","source_id":"gebouw/Gebouw.19954990/0","kind":"building","building":"official","height_m":8.1,"status":null},"geometry":{"type":"Polygon","coordinates":[[[3.93578388,50.94832904],[3.93574128,50.94831066],[3.93581182,50.94822905],[3.93585726,50.94824485],[3.93578388,50.94832904]]]}},{"type":"Feature","id":"gebouw/Gebouw.19954991/0","properties":{"source":"Digitaal Vlaanderen Gebouwenregister","source_id":"gebouw/Gebouw.19954991/0","kind":"building","building":"official","height_m":8.85,"status":null},"geometry":{"type":"Polygon","coordinates":[[[3.93599779,50.94841944],[3.93601736,50.94839572],[3.93605735,50.94840888],[3.93605485,50.94841191],[3.93605945,50.94841343],[3.93607668,50.94839255],[3.93611137,50.94840398],[3.93609359,50.94842553],[3.93608866,50.94842391],[3.93607214,50.94844392],[3.93599779,50.94841944]]]}},{"type":"Feature","id":"gebouw/Gebouw.19954992/0","properties":{"source":"Digitaal Vlaanderen Gebouwenregister","source_id":"gebouw/Gebouw.19954992/0","kind":"building","building":"official","height_m":5.1,"status":null},"geometry":{"type":"Polygon","coordinates":[[[3.93674889,50.94868033],[3.93677372,50.94865731],[3.93677706,50.94865875],[3.93679865,50.94863875],[3.93683116,50.94865275],[3.93681144,50.94867102],[3.93681618,50.94867306],[3.93678948,50.9486978],[3.93674889,50.94868033]]]}},{"type":"Feature","id":"gebouw/Gebouw.19954993/0","properties":{"source":"Digitaal Vlaanderen Gebouwenregister","source_id":"gebouw/Gebouw.19954993/0","kind":"building","building":"official","height_m":5.85,"status":null},"geometry":{"type":"Polygon","coordinates":[[[3.93723076,50.94834957],[3.93727137,50.94830215],[3.93729553,50.94831152],[3.93732579,50.94827789],[3.93736504,50.94829059],[3.93735577,50.94830191],[3.9374047,50.94831817],[3.93738925,50.94833684],[3.93740666,50.94834331],[3.93739424,50.94835985],[3.93739186,50.94835796],[3.9373559,50.94839955],[3.93723076,50.94834957]]]}},{"type":"Feature","id":"gebouw/Gebouw.20723788/0","properties":{"source":"Digitaal Vlaanderen Gebouwenregister","source_id":"gebouw/Gebouw.20723788/0","kind":"building","building":"official","height_m":8.1,"status":null},"geometry":{"type":"Polygon","coordinates":[[[3.94040188,50.94435389],[3.94039979,50.94435632],[3.94027355,50.94450316],[3.94020442,50.94447965],[3.94021996,50.94446141],[3.94020796,50.94445724],[3.94017387,50.94444539],[3.94017092,50.94444878],[3.94009812,50.9444239],[3.94017327,50.94433764],[3.94018849,50.94434293],[3.94023491,50.94435907],[3.94023101,50.94436354],[3.9402549,50.94437185],[3.94027508,50.94434869],[3.94029646,50.94435612],[3.94032246,50.94432628],[3.94035162,50.94433642],[3.94040188,50.94435389]]]}},{"type":"Feature","id":"gebouw/Gebouw.20723789/0","properties":{"source":"Digitaal Vlaanderen Gebouwenregister","source_id":"gebouw/Gebouw.20723789/0","kind":"building","building":"official","height_m":8.85,"status":null},"geometry":{"type":"Polygon","coordinates":[[[3.94075858,50.94455833],[3.94072418,50.94455572],[3.94065843,50.94455073],[3.94064061,50.94464444],[3.94070893,50.94464966],[3.94074062,50.94465208],[3.94075858,50.94455833]]]}},{"type":"Feature","id":"gebouw/Gebouw.20723790/0","properties":{"source":"Digitaal Vlaanderen Gebouwenregister","source_id":"gebouw/Gebouw.20723790/0","kind":"building","building":"official","height_m":5.1,"status":null},"geometry":{"type":"Polygon","coordinates":[[[3.9408511,50.9445995],[3.94086344,50.94453462],[3.94076465,50.94452712],[3.94075858,50.94455833],[3.94074062,50.94465208],[3.94074072,50.94465209],[3.94083966,50.94465965],[3.9408511,50.9445995]]]}},{"type":"Feature","id":"gebouw/Gebouw.20723835/0","properties":{"source":"Digitaal Vlaanderen Gebouwenregister","source_id":"gebouw/Gebouw.20723835/0","kind":"building","building":"official","height_m":7.35,"status":null},"geometry":{"type":"Polygon","coordinates":[[[3.94022616,50.945376],[3.94056209,50.94552067],[3.94015774,50.94589537],[3.93982182,50.9457507],[3.94022616,50.945376]]]}},{"type":"Feature","id":"gebouw/Gebouw.30832122/0","properties":{"source":"Digitaal Vlaanderen Gebouwenregister","source_id":"gebouw/Gebouw.30832122/0","kind":"building","building":"official","height_m":5.1,"status":null},"geometry":{"type":"Polygon","coordinates":[[[3.94003576,50.94458591],[3.94021493,50.94464932],[3.9400663,50.94481264],[3.93989033,50.94475033],[3.94003576,50.94458591]]]}},{"type":"Feature","id":"gebouw/Gebouw.31326819/0","properties":{"source":"Digitaal Vlaanderen Gebouwenregister","source_id":"gebouw/Gebouw.31326819/0","kind":"building","building":"official","height_m":7.35,"status":null},"geometry":{"type":"Polygon","coordinates":[[[3.93919518,50.94514504],[3.93922542,50.94511514],[3.93929641,50.9451438],[3.93926617,50.9451737],[3.93919518,50.94514504]]]}},{"type":"Feature","id":"gebouw/Gebouw.31844554/0","properties":{"source":"Digitaal Vlaanderen Gebouwenregister","source_id":"gebouw/Gebouw.31844554/0","kind":"building","building":"official","height_m":8.1,"status":null},"geometry":{"type":"Polygon","coordinates":[[[3.94050545,50.94445792],[3.94041722,50.94442622],[3.94038268,50.94446459],[3.9404728,50.94449697],[3.94050287,50.94450777],[3.94053741,50.9444694],[3.94050545,50.94445792]]]}},{"type":"Feature","id":"gebouw/Gebouw.31845522/0","properties":{"source":"Digitaal Vlaanderen Gebouwenregister","source_id":"gebouw/Gebouw.31845522/0","kind":"building","building":"official","height_m":5.1,"status":null},"geometry":{"type":"Polygon","coordinates":[[[3.94066667,50.94424559],[3.94066668,50.94430159],[3.94071479,50.94430158],[3.94071478,50.94424558],[3.94066667,50.94424559]]]}},{"type":"Feature","id":"way/198173729","properties":{"source":"OpenStreetMap","source_id":"way/198173729","kind":"vegetation","landuse":"forest","natural":null,"name":null},"geometry":{"type":"Polygon","coordinates":[[[3.9391378,50.9422064],[3.9383045,50.9430485],[3.9388615,50.9433153],[3.9392397,50.9429389],[3.9399617,50.9432375],[3.9396959,50.9435406],[3.9396294,50.9437009],[3.9396392,50.9438218],[3.9395802,50.9438993],[3.9394373,50.9441536],[3.9390216,50.9440468],[3.9392329,50.9438497],[3.9375977,50.9431565],[3.937895,50.942853],[3.9375143,50.9426692],[3.9374211,50.9426025],[3.938416,50.9423051],[3.9391378,50.9422064]]]}},{"type":"Feature","id":"way/198173742","properties":{"source":"OpenStreetMap","source_id":"way/198173742","kind":"vegetation","landuse":"forest","natural":null,"name":null},"geometry":{"type":"Polygon","coordinates":[[[3.9361799,50.9470467],[3.935341,50.9478584],[3.9349964,50.9477287],[3.9357629,50.9469058],[3.9361799,50.9470467]]]}},{"type":"Feature","id":"way/198173744","properties":{"source":"OpenStreetMap","source_id":"way/198173744","kind":"vegetation","landuse":"forest","natural":null,"name":null},"geometry":{"type":"Polygon","coordinates":[[[3.9373679,50.9436984],[3.9388736,50.9442317],[3.9385735,50.9446285],[3.9370825,50.9440363],[3.9373679,50.9436984]]]}},{"type":"Feature","id":"way/198173747","properties":{"source":"OpenStreetMap","source_id":"way/198173747","kind":"vegetation","landuse":"forest","natural":null,"name":null},"geometry":{"type":"Polygon","coordinates":[[[3.9355422,50.9433171],[3.9357278,50.9432267],[3.9366842,50.942853],[3.9360204,50.9435601],[3.9355422,50.9433171]]]}},{"type":"Feature","id":"way/198173755","properties":{"source":"OpenStreetMap","source_id":"way/198173755","kind":"vegetation","landuse":"forest","natural":null,"name":"Natuurgebied Geelstervallei"},"geometry":{"type":"Polygon","coordinates":[[[3.9292749,50.9491193],[3.9295393,50.9483784],[3.9300473,50.9484529],[3.9304022,50.9485231],[3.9304857,50.9486721],[3.9305553,50.9488475],[3.9306388,50.9490536],[3.930771,50.9491983],[3.9308406,50.9493386],[3.9308634,50.9495987],[3.9317799,50.9495313],[3.9313759,50.9502736],[3.9320933,50.9501935],[3.9322402,50.9499393],[3.9324236,50.9496173],[3.9331799,50.9497656],[3.9332758,50.9497187],[3.9333153,50.9497421],[3.9339949,50.9491716],[3.9336446,50.9490196],[3.9335387,50.9489045],[3.9338452,50.9484928],[3.9328868,50.9482497],[3.9332972,50.9476094],[3.9334032,50.9476381],[3.9336952,50.9472307],[3.9324617,50.9468033],[3.9324715,50.9467765],[3.9316243,50.9466768],[3.9311666,50.9478574],[3.9309667,50.9478374],[3.9311895,50.9470406],[3.9303037,50.94696],[3.9300797,50.9477133],[3.9304117,50.9477637],[3.9302187,50.9483536],[3.9295228,50.9482835],[3.9293279,50.9482571],[3.9291192,50.9481914],[3.9283641,50.9481366],[3.928211,50.9484829],[3.9286011,50.9485733],[3.928565,50.9486318],[3.9289554,50.9486775],[3.9288078,50.9490433],[3.9292749,50.9491193]]]}},{"type":"Feature","id":"way/198173767","properties":{"source":"OpenStreetMap","source_id":"way/198173767","kind":"vegetation","landuse":"forest","natural":null,"name":null},"geometry":{"type":"Polygon","coordinates":[[[3.9410703,50.9438597],[3.9416234,50.9441018],[3.9415385,50.9441924],[3.9409828,50.9442259],[3.9409389,50.9441674],[3.940795,50.9441215],[3.9410703,50.9438597]]]}},{"type":"Feature","id":"way/198294286","properties":{"source":"OpenStreetMap","source_id":"way/198294286","kind":"vegetation","landuse":"forest","natural":null,"name":null},"geometry":{"type":"Polygon","coordinates":[[[3.9365378,50.9424684],[3.935386,50.9420276],[3.9353217,50.9420976],[3.9364245,50.9425028],[3.9365378,50.9424684]]]}},{"type":"Feature","id":"way/457961832","properties":{"source":"OpenStreetMap","source_id":"way/457961832","kind":"waterway","waterway":"stream","name":"Molenbeek"},"geometry":{"type":"LineString","coordinates":[[3.938398,50.9431659],[3.9395467,50.9436857]]}}]}