{"type":"FeatureCollection","features":[{"type":"Feature","id":"gebouw/Gebouw.13345659/0","properties":{"source":"Digitaal Vlaanderen Gebouwenregister","source_id":"gebouw/Gebouw.13345659/0","kind":"building","building":"official","height_m":7.35,"status":null},"geometry":{"type":"Polygon","coordinates":[[[3.90847505,50.92053703],[3.90860107,50.92056896],[3.90857948,50.92060412],[3.90859486,50.92060839],[3.9085743,50.92063735],[3.90856039,50.92063403],[3.90849859,50.92073056],[3.90839238,50.92070426],[3.90841489,50.92066964],[3.90839422,50.92066449],[3.90843501,50.92060008],[3.90845515,50.92060492],[3.90846839,50.920585],[3.90844796,50.92057982],[3.90847505,50.92053703]]]}},{"type":"Feature","id":"gebouw/Gebouw.13430772/0","properties":{"source":"Digitaal Vlaanderen Gebouwenregister","source_id":"gebouw/Gebouw.13430772/0","kind":"building","building":"official","height_m":5.1,"status":null},"geometry":{"type":"Polygon","coordinates":[[[3.90901709,50.92078376],[3.90898719,50.92077729],[3.90899766,50.92074711],[3.90900463,50.9207139],[3.9090358,50.92071661],[3.90902966,50.92075266],[3.90901709,50.92078376]]]}},{"type":"Feature","id":"gebouw/Gebouw.13460539/0","properties":{"source":"Digitaal Vlaanderen Gebouwenregister","source_id":"gebouw/Gebouw.13460539/0","kind":"building","building":"official","height_m":5.85,"status":null},"geometry":{"type":"Polygon","coordinates":[[[3.90872988,50.9203541],[3.90873447,50.92034831],[3.90884983,50.92037789],[3.90878918,50.92047269],[3.90874242,50.92046138],[3.90871028,50.9205149],[3.9084967,50.92046078],[3.90852532,50.92041632],[3.9085126,50.92041299],[3.90857486,50.92031515],[3.90872988,50.9203541]]]}}]}