{"type":"FeatureCollection","features":[{"type":"Feature","id":"gebouw/Gebouw.12952747/0","properties":{"source":"Digitaal Vlaanderen Gebouwenregister","source_id":"gebouw/Gebouw.12952747/0","kind":"building","building":"official","height_m":5.85,"status":null},"geometry":{"type":"Polygon","coordinates":[[[3.90883937,50.91849926],[3.9087679,50.91847468],[3.90879683,50.91844108],[3.90886829,50.91846566],[3.90883937,50.91849926]]]}},{"type":"Feature","id":"gebouw/Gebouw.12968442/0","properties":{"source":"Digitaal Vlaanderen Gebouwenregister","source_id":"gebouw/Gebouw.12968442/0","kind":"building","building":"official","height_m":5.1,"status":null},"geometry":{"type":"Polygon","coordinates":[[[3.90385271,50.91714877],[3.9038107,50.91713877],[3.90389153,50.917003],[3.90392959,50.91701206],[3.9039108,50.91704363],[3.90391474,50.91704457],[3.90385271,50.91714877]]]}},{"type":"Feature","id":"gebouw/Gebouw.13058259/0","properties":{"source":"Digitaal Vlaanderen Gebouwenregister","source_id":"gebouw/Gebouw.13058259/0","kind":"building","building":"official","height_m":7.35,"status":null},"geometry":{"type":"Polygon","coordinates":[[[3.90886145,50.91824447],[3.90871493,50.91840477],[3.90846431,50.91831324],[3.90821143,50.9182209],[3.90834321,50.91807673],[3.9085961,50.91816907],[3.90860621,50.918158],[3.90872683,50.91820205],[3.90873145,50.918197],[3.90886145,50.91824447]]]}},{"type":"Feature","id":"gebouw/Gebouw.13104741/0","properties":{"source":"Digitaal Vlaanderen Gebouwenregister","source_id":"gebouw/Gebouw.13104741/0","kind":"building","building":"official","height_m":7.35,"status":null},"geometry":{"type":"Polygon","coordinates":[[[3.90716909,50.91661033],[3.90681444,50.91647498],[3.90683076,50.91645747],[3.90682098,50.91645307],[3.90686504,50.91640713],[3.90688166,50.9164135],[3.90689058,50.91640421],[3.90690008,50.91640785],[3.90691119,50.91639626],[3.90693131,50.91640398],[3.90694374,50.91639102],[3.90695681,50.91639603],[3.90698234,50.91636942],[3.9069695,50.9163645],[3.90698373,50.91634967],[3.90697063,50.91634465],[3.90698605,50.91632857],[3.90737952,50.9164794],[3.9073234,50.91653867],[3.90726243,50.91651578],[3.90716909,50.91661033]]]}},{"type":"Feature","id":"gebouw/Gebouw.13221934/0","properties":{"source":"Digitaal Vlaanderen Gebouwenregister","source_id":"gebouw/Gebouw.13221934/0","kind":"building","building":"official","height_m":8.1,"status":null},"geometry":{"type":"Polygon","coordinates":[[[3.90902174,50.91775343],[3.90889199,50.91769202],[3.90895273,50.91764074],[3.90908248,50.91770214],[3.90902174,50.91775343]]]}},{"type":"Feature","id":"gebouw/Gebouw.13254448/0","properties":{"source":"Digitaal Vlaanderen Gebouwenregister","source_id":"gebouw/Gebouw.13254448/0","kind":"building","building":"official","height_m":8.1,"status":null},"geometry":{"type":"Polygon","coordinates":[[[3.90894806,50.92007949],[3.90899607,50.92000792],[3.90901839,50.92001301],[3.90906151,50.91994504],[3.90888764,50.91989803],[3.90884399,50.91996482],[3.90887029,50.91997155],[3.90885416,50.9199964],[3.90884054,50.91999292],[3.90880816,50.92004311],[3.90894806,50.92007949]]]}},{"type":"Feature","id":"gebouw/Gebouw.13267799/0","properties":{"source":"Digitaal Vlaanderen Gebouwenregister","source_id":"gebouw/Gebouw.13267799/0","kind":"building","building":"official","height_m":8.85,"status":null},"geometry":{"type":"Polygon","coordinates":[[[3.90935314,50.91830542],[3.90920804,50.91845895],[3.90906813,50.91840516],[3.90914249,50.91832272],[3.90903436,50.91828195],[3.90904063,50.91827501],[3.90900112,50.91826047],[3.90907368,50.91818329],[3.90912627,50.91820198],[3.9091131,50.91821821],[3.90935314,50.91830542]]]}},{"type":"Feature","id":"gebouw/Gebouw.13275516/0","properties":{"source":"Digitaal Vlaanderen Gebouwenregister","source_id":"gebouw/Gebouw.13275516/0","kind":"building","building":"official","height_m":5.1,"status":null},"geometry":{"type":"Polygon","coordinates":[[[3.90568067,50.91686638],[3.9056281,50.91684124],[3.90564779,50.91682479],[3.90570035,50.91684992],[3.90568067,50.91686638]]]}},{"type":"Feature","id":"gebouw/Gebouw.13342387/0","properties":{"source":"Digitaal Vlaanderen Gebouwenregister","source_id":"gebouw/Gebouw.13342387/0","kind":"building","building":"official","height_m":5.85,"status":null},"geometry":{"type":"Polygon","coordinates":[[[3.90916873,50.91947042],[3.90933467,50.91951341],[3.90925327,50.91963772],[3.90908644,50.91959491],[3.90916873,50.91947042]]]}},{"type":"Feature","id":"gebouw/Gebouw.13397564/0","properties":{"source":"Digitaal Vlaanderen Gebouwenregister","source_id":"gebouw/Gebouw.13397564/0","kind":"building","building":"official","height_m":6.6,"status":null},"geometry":{"type":"Polygon","coordinates":[[[3.90957439,50.91833535],[3.90952923,50.91831594],[3.90956436,50.91828328],[3.90960952,50.91830268],[3.90957439,50.91833535]]]}},{"type":"Feature","id":"gebouw/Gebouw.13411509/0","properties":{"source":"Digitaal Vlaanderen Gebouwenregister","source_id":"gebouw/Gebouw.13411509/0","kind":"building","building":"official","height_m":7.35,"status":null},"geometry":{"type":"Polygon","coordinates":[[[3.90747733,50.91695199],[3.90732715,50.91689538],[3.90740253,50.91681547],[3.90755272,50.91687208],[3.90747733,50.91695199]]]}},{"type":"Feature","id":"gebouw/Gebouw.13422654/0","properties":{"source":"Digitaal Vlaanderen Gebouwenregister","source_id":"gebouw/Gebouw.13422654/0","kind":"building","building":"official","height_m":5.1,"status":null},"geometry":{"type":"Polygon","coordinates":[[[3.90884975,50.91766701],[3.90881387,50.91764847],[3.9088607,50.91761226],[3.90889657,50.9176308],[3.90884975,50.91766701]]]}},{"type":"Feature","id":"gebouw/Gebouw.13435846/0","properties":{"source":"Digitaal Vlaanderen Gebouwenregister","source_id":"gebouw/Gebouw.13435846/0","kind":"building","building":"official","height_m":8.1,"status":null},"geometry":{"type":"Polygon","coordinates":[[[3.90907668,50.91968859],[3.90919795,50.9197201],[3.90918135,50.91974515],[3.90919555,50.91974866],[3.90920451,50.91976058],[3.90919095,50.91978227],[3.90917358,50.91978776],[3.90915939,50.91978388],[3.90910862,50.91986184],[3.90902966,50.91984029],[3.9090249,50.91984645],[3.90894387,50.91982469],[3.90897575,50.91977459],[3.90901459,50.91978468],[3.90907668,50.91968859]]]}},{"type":"Feature","id":"gebouw/Gebouw.13448504/0","properties":{"source":"Digitaal Vlaanderen Gebouwenregister","source_id":"gebouw/Gebouw.13448504/0","kind":"building","building":"official","height_m":6.6,"status":null},"geometry":{"type":"Polygon","coordinates":[[[3.90936398,50.91901149],[3.90948677,50.91886108],[3.90962285,50.91890565],[3.90959895,50.9189368],[3.90963133,50.91894869],[3.90957128,50.91902138],[3.90953693,50.91900784],[3.90949479,50.91905555],[3.90936398,50.91901149]]]}},{"type":"Feature","id":"gebouw/Gebouw.13475365/0","properties":{"source":"Digitaal Vlaanderen Gebouwenregister","source_id":"gebouw/Gebouw.13475365/0","kind":"building","building":"official","height_m":5.85,"status":null},"geometry":{"type":"Polygon","coordinates":[[[3.90688407,50.91717741],[3.90598252,50.91682537],[3.90617207,50.9166314],[3.90641326,50.91672558],[3.90645356,50.91668434],[3.90649341,50.91670003],[3.90659112,50.91659978],[3.90697033,50.91674785],[3.9068787,50.91684162],[3.90700975,50.91689279],[3.90700342,50.91689928],[3.90711376,50.91694236],[3.90688407,50.91717741]]]}},{"type":"Feature","id":"gebouw/Gebouw.13479409/0","properties":{"source":"Digitaal Vlaanderen Gebouwenregister","source_id":"gebouw/Gebouw.13479409/0","kind":"building","building":"official","height_m":5.85,"status":null},"geometry":{"type":"Polygon","coordinates":[[[3.90945259,50.91973396],[3.90936035,50.91970835],[3.90937786,50.91968274],[3.90947073,50.91970686],[3.90945259,50.91973396]]]}},{"type":"Feature","id":"gebouw/Gebouw.13489929/0","properties":{"source":"Digitaal Vlaanderen Gebouwenregister","source_id":"gebouw/Gebouw.13489929/0","kind":"building","building":"official","height_m":7.35,"status":null},"geometry":{"type":"Polygon","coordinates":[[[3.90880039,50.91876113],[3.90880307,50.91875774],[3.90891488,50.91861611],[3.90891694,50.9186135],[3.90900117,50.91864127],[3.90900286,50.91863929],[3.90901522,50.91864348],[3.90901379,50.91864555],[3.90903605,50.9186527],[3.90900366,50.91869497],[3.90900067,50.91869398],[3.90895984,50.9187448],[3.90897001,50.91874812],[3.90892751,50.91880137],[3.90880039,50.91876113]]]}},{"type":"Feature","id":"gebouw/Gebouw.13504779/0","properties":{"source":"Digitaal Vlaanderen Gebouwenregister","source_id":"gebouw/Gebouw.13504779/0","kind":"building","building":"official","height_m":7.35,"status":null},"geometry":{"type":"Polygon","coordinates":[[[3.90945198,50.91946837],[3.90940904,50.91945689],[3.90942628,50.91943114],[3.90946922,50.91944262],[3.90945198,50.91946837]]]}},{"type":"Feature","id":"gebouw/Gebouw.13527589/0","properties":{"source":"Digitaal Vlaanderen Gebouwenregister","source_id":"gebouw/Gebouw.13527589/0","kind":"building","building":"official","height_m":5.85,"status":null},"geometry":{"type":"Polygon","coordinates":[[[3.90756992,50.91844783],[3.90752008,50.91850735],[3.90744229,50.91848093],[3.90724951,50.91841543],[3.90727916,50.91837657],[3.90729578,50.91835479],[3.90756992,50.91844783]]]}},{"type":"Feature","id":"gebouw/Gebouw.13577063/0","properties":{"source":"Digitaal Vlaanderen Gebouwenregister","source_id":"gebouw/Gebouw.13577063/0","kind":"building","building":"official","height_m":8.85,"status":null},"geometry":{"type":"Polygon","coordinates":[[[3.9096072,50.91736562],[3.90953219,50.91732763],[3.90955359,50.91731074],[3.90962861,50.91734873],[3.9096072,50.91736562]]]}},{"type":"Feature","id":"gebouw/Gebouw.13578935/0","properties":{"source":"Digitaal Vlaanderen Gebouwenregister","source_id":"gebouw/Gebouw.13578935/0","kind":"building","building":"official","height_m":8.85,"status":null},"geometry":{"type":"Polygon","coordinates":[[[3.90809059,50.91880184],[3.90819393,50.91881264],[3.90788984,50.91930527],[3.90771436,50.91926443],[3.90772715,50.91924215],[3.90766452,50.91922348],[3.90766162,50.91922856],[3.90724542,50.91910603],[3.90733247,50.91900254],[3.90726517,50.91897696],[3.90733256,50.91889676],[3.90725508,50.91886949],[3.90730756,50.91881171],[3.90738793,50.91884039],[3.9075832,50.91861548],[3.90763455,50.91863416],[3.90768517,50.91865195],[3.90768916,50.91865326],[3.90786838,50.9186703],[3.90787898,50.91862496],[3.90796923,50.91863358],[3.90805009,50.91864141],[3.90815318,50.91865139],[3.90815075,50.91866051],[3.90817737,50.91866322],[3.90820918,50.91866646],[3.90822655,50.91866823],[3.9082033,50.91875844],[3.90813481,50.91875136],[3.90813137,50.91876423],[3.90769351,50.91872372],[3.90766496,50.91875882],[3.90761344,50.91874363],[3.9073759,50.91901344],[3.90755744,50.91906449],[3.90772902,50.9191155],[3.90783549,50.91894092],[3.9078563,50.9189461],[3.90786642,50.91892905],[3.90792271,50.91894156],[3.90791282,50.91895935],[3.90797883,50.91897566],[3.90809059,50.91880184]]]}},{"type":"Feature","id":"gebouw/Gebouw.13588593/0","properties":{"source":"Digitaal Vlaanderen Gebouwenregister","source_id":"gebouw/Gebouw.13588593/0","kind":"building","building":"official","height_m":7.35,"status":null},"geometry":{"type":"Polygon","coordinates":[[[3.90971566,50.91794408],[3.90963394,50.91792196],[3.90963366,50.91792309],[3.90963278,50.91792579],[3.9096316,50.91792843],[3.90963013,50.91793102],[3.90962838,50.91793354],[3.90962636,50.91793598],[3.90962407,50.91793832],[3.90962153,50.91794055],[3.90961875,50.91794267],[3.90961574,50.91794466],[3.90961253,50.91794651],[3.90960911,50.91794821],[3.90960551,50.91794976],[3.90960176,50.91795115],[3.90959785,50.91795237],[3.90959383,50.91795341],[3.90958969,50.91795427],[3.90958548,50.91795495],[3.9095812,50.91795545],[3.90957687,50.91795575],[3.90957252,50.91795586],[3.90956817,50.91795577],[3.90956384,50.9179555],[3.90955955,50.91795504],[3.90955532,50.91795438],[3.90955118,50.91795355],[3.90954713,50.91795253],[3.90954321,50.91795134],[3.90953943,50.91794997],[3.90953581,50.91794845],[3.90953237,50.91794676],[3.90952912,50.91794493],[3.90952608,50.91794296],[3.90952327,50.91794087],[3.90952069,50.91793865],[3.90951837,50.91793632],[3.90951631,50.9179339],[3.90951452,50.91793139],[3.90941971,50.91795544],[3.90936711,50.91788018],[3.90938089,50.91787693],[3.90936921,50.91785981],[3.90955742,50.9178093],[3.90957352,50.91783558],[3.90975657,50.91788624],[3.90971566,50.91794408]]]}},{"type":"Feature","id":"gebouw/Gebouw.13660542/0","properties":{"source":"Digitaal Vlaanderen Gebouwenregister","source_id":"gebouw/Gebouw.13660542/0","kind":"building","building":"official","height_m":5.1,"status":null},"geometry":{"type":"Polygon","coordinates":[[[3.90887789,50.91853879],[3.90884948,50.91851031],[3.90890271,50.9184891],[3.90893112,50.91851758],[3.90887789,50.91853879]]]}},{"type":"Feature","id":"gebouw/Gebouw.13705824/0","properties":{"source":"Digitaal Vlaanderen Gebouwenregister","source_id":"gebouw/Gebouw.13705824/0","kind":"building","building":"official","height_m":5.1,"status":null},"geometry":{"type":"Polygon","coordinates":[[[3.90934673,50.91920677],[3.90949536,50.91925187],[3.90950209,50.91924328],[3.90956533,50.91926263],[3.90947659,50.91937569],[3.90945914,50.91937084],[3.90943406,50.91940296],[3.90927864,50.91935499],[3.90935138,50.91926161],[3.90931313,50.91924974],[3.90934673,50.91920677]]]}},{"type":"Feature","id":"gebouw/Gebouw.13706227/0","properties":{"source":"Digitaal Vlaanderen Gebouwenregister","source_id":"gebouw/Gebouw.13706227/0","kind":"building","building":"official","height_m":5.85,"status":null},"geometry":{"type":"Polygon","coordinates":[[[3.90954977,50.91725087],[3.90945835,50.91720104],[3.90949368,50.91717514],[3.9095851,50.91722498],[3.90954977,50.91725087]]]}},{"type":"Feature","id":"gebouw/Gebouw.13773477/0","properties":{"source":"Digitaal Vlaanderen Gebouwenregister","source_id":"gebouw/Gebouw.13773477/0","kind":"building","building":"official","height_m":7.35,"status":null},"geometry":{"type":"Polygon","coordinates":[[[3.90869534,50.92017352],[3.90887488,50.92022001],[3.90883029,50.92028946],[3.90865107,50.92024203],[3.90869534,50.92017352]]]}},{"type":"Feature","id":"gebouw/Gebouw.13839592/0","properties":{"source":"Digitaal Vlaanderen Gebouwenregister","source_id":"gebouw/Gebouw.13839592/0","kind":"building","building":"official","height_m":8.1,"status":null},"geometry":{"type":"Polygon","coordinates":[[[3.90953171,50.91812134],[3.90948574,50.91816503],[3.90948927,50.91816651],[3.90945018,50.91820404],[3.90945668,50.91820685],[3.90941943,50.91824197],[3.90926676,50.9181797],[3.90927275,50.91817328],[3.90924064,50.91816087],[3.90935497,50.91805434],[3.90938401,50.91806629],[3.90938884,50.9180619],[3.90953171,50.91812134]]]}},{"type":"Feature","id":"gebouw/Gebouw.16676824/0","properties":{"source":"Digitaal Vlaanderen Gebouwenregister","source_id":"gebouw/Gebouw.16676824/0","kind":"building","building":"official","height_m":8.1,"status":null},"geometry":{"type":"Polygon","coordinates":[[[3.90967843,50.91725111],[3.90968839,50.91724299],[3.90969862,50.917248],[3.90973256,50.91722034],[3.9097057,50.91720717],[3.90970961,50.91720399],[3.90968731,50.91719306],[3.90967208,50.91720547],[3.90958892,50.9171647],[3.90955633,50.91719126],[3.90967843,50.91725111]]]}},{"type":"Feature","id":"gebouw/Gebouw.16718247/0","properties":{"source":"Digitaal Vlaanderen Gebouwenregister","source_id":"gebouw/Gebouw.16718247/0","kind":"building","building":"official","height_m":7.35,"status":null},"geometry":{"type":"Polygon","coordinates":[[[3.90873582,50.91801189],[3.9086798,50.91799222],[3.9087262,50.91793943],[3.90878222,50.9179591],[3.90873582,50.91801189]]]}},{"type":"Feature","id":"gebouw/Gebouw.18862622/0","properties":{"source":"Digitaal Vlaanderen Gebouwenregister","source_id":"gebouw/Gebouw.18862622/0","kind":"building","building":"official","height_m":6.6,"status":null},"geometry":{"type":"Polygon","coordinates":[[[3.90947009,50.92011154],[3.90945342,50.92013976],[3.90940583,50.92012957],[3.90942291,50.9201001],[3.90947009,50.92011154]]]}},{"type":"Feature","id":"gebouw/Gebouw.18862623/0","properties":{"source":"Digitaal Vlaanderen Gebouwenregister","source_id":"gebouw/Gebouw.18862623/0","kind":"building","building":"official","height_m":7.35,"status":null},"geometry":{"type":"Polygon","coordinates":[[[3.9055032,50.91676141],[3.90548081,50.91678405],[3.90539152,50.91674996],[3.90540996,50.91672674],[3.9055032,50.91676141]]]}},{"type":"Feature","id":"gebouw/Gebouw.19695990/0","properties":{"source":"Digitaal Vlaanderen Gebouwenregister","source_id":"gebouw/Gebouw.19695990/0","kind":"building","building":"official","height_m":5.1,"status":null},"geometry":{"type":"Polygon","coordinates":[[[3.90860621,50.918158],[3.90872683,50.91820205],[3.90873145,50.918197],[3.90886145,50.91824447],[3.90871493,50.91840477],[3.90846431,50.91831324],[3.90852982,50.91824158],[3.9085961,50.91816907],[3.90860621,50.918158]]]}},{"type":"Feature","id":"gebouw/Gebouw.19695991/0","properties":{"source":"Digitaal Vlaanderen Gebouwenregister","source_id":"gebouw/Gebouw.19695991/0","kind":"building","building":"official","height_m":5.85,"status":null},"geometry":{"type":"Polygon","coordinates":[[[3.9085961,50.91816907],[3.90852982,50.91824158],[3.90846431,50.91831324],[3.90821143,50.9182209],[3.90827792,50.91814815],[3.90834321,50.91807673],[3.9085961,50.91816907]]]}},{"type":"Feature","id":"gebouw/Gebouw.19955161/0","properties":{"source":"Digitaal Vlaanderen Gebouwenregister","source_id":"gebouw/Gebouw.19955161/0","kind":"building","building":"official","height_m":5.85,"status":null},"geometry":{"type":"Polygon","coordinates":[[[3.9069485,50.91853455],[3.90699609,50.91848827],[3.90706643,50.91851717],[3.90701884,50.91856345],[3.9069485,50.91853455]]]}},{"type":"Feature","id":"gebouw/Gebouw.31845488/0","properties":{"source":"Digitaal Vlaanderen Gebouwenregister","source_id":"gebouw/Gebouw.31845488/0","kind":"building","building":"official","height_m":6.6,"status":null},"geometry":{"type":"Polygon","coordinates":[[[3.90947435,50.91983113],[3.9095841,50.91985942],[3.90960548,50.91982627],[3.90949573,50.91979798],[3.90947435,50.91983113]]]}},{"type":"Feature","id":"way/198903844","properties":{"source":"OpenStreetMap","source_id":"way/198903844","kind":"vegetation","landuse":"forest","natural":null,"name":null},"geometry":{"type":"Polygon","coordinates":[[[3.8994491,50.9134271],[3.8996878,50.9134398],[3.8998739,50.9134526],[3.9000074,50.9134743],[3.9002238,50.91351],[3.9004166,50.9135548],[3.9003472,50.913626],[3.9002603,50.9136413],[3.9000924,50.9136184],[3.8999508,50.9135954],[3.8996635,50.9135533],[3.8995725,50.9135508],[3.8995158,50.9135699],[3.8994814,50.9136273],[3.8994491,50.9137089],[3.8994996,50.9137587],[3.8996322,50.9138685],[3.8995017,50.9139602],[3.8994592,50.9140329],[3.8994025,50.914061],[3.8993439,50.9140941],[3.8992589,50.9141171],[3.8992407,50.9142013],[3.8992003,50.9142535],[3.8991274,50.9143135],[3.8991092,50.91439],[3.8990849,50.9144487],[3.8990586,50.9144895],[3.8990202,50.9145507],[3.8989514,50.914603],[3.8989069,50.9146311],[3.8987714,50.914626],[3.899321,50.9136886],[3.8994491,50.9134271]]]}},{"type":"Feature","id":"way/198903854","properties":{"source":"OpenStreetMap","source_id":"way/198903854","kind":"vegetation","landuse":"forest","natural":null,"name":null},"geometry":{"type":"Polygon","coordinates":[[[3.9017442,50.9139195],[3.9033489,50.9143623],[3.9030438,50.9144201],[3.9028496,50.9144329],[3.9024207,50.9143283],[3.9018705,50.9141344],[3.9016965,50.9140069],[3.9017442,50.9139195]]]}},{"type":"Feature","id":"way/199078441","properties":{"source":"OpenStreetMap","source_id":"way/199078441","kind":"vegetation","landuse":"forest","natural":null,"name":null},"geometry":{"type":"Polygon","coordinates":[[[3.9064114,50.9151776],[3.9064634,50.9151889],[3.9064748,50.9152023],[3.9064504,50.9152125],[3.905446,50.9154455],[3.9040688,50.9157222],[3.9033949,50.9158392],[3.9023172,50.9160301],[3.9014284,50.9161368],[3.9006796,50.9161943],[3.8999177,50.9162292],[3.899235,50.9162425],[3.8986042,50.9162207],[3.8986042,50.9161293],[3.8997092,50.9161322],[3.8997322,50.9160277],[3.9006922,50.9160204],[3.9011573,50.9160088],[3.9016661,50.9159696],[3.9019308,50.9159174],[3.9023015,50.9158564],[3.9030427,50.915736],[3.9033789,50.9156648],[3.9041455,50.9155545],[3.9045161,50.9155211],[3.9049305,50.9154674],[3.9052068,50.9154021],[3.9054554,50.9153368],[3.9057317,50.9152744],[3.9058514,50.9152715],[3.9059504,50.9152671],[3.9063947,50.9151946],[3.9064114,50.9151776]]]}}]}