{"type":"FeatureCollection","features":[{"type":"Feature","id":"gebouw/Gebouw.12866533/0","properties":{"source":"Digitaal Vlaanderen Gebouwenregister","source_id":"gebouw/Gebouw.12866533/0","kind":"building","building":"official","height_m":5.85,"status":null},"geometry":{"type":"Polygon","coordinates":[[[3.94056497,50.90586625],[3.94055933,50.90586338],[3.94052971,50.90589005],[3.94049347,50.90587396],[3.94052242,50.9058479],[3.94047915,50.90582868],[3.94052853,50.90578422],[3.94052458,50.90578247],[3.94055079,50.90575888],[3.94055952,50.90576276],[3.94062525,50.90570358],[3.94057961,50.90568332],[3.9405765,50.90568611],[3.94049336,50.90564919],[3.94045214,50.9056863],[3.94045161,50.90568606],[3.940361,50.90576765],[3.94048122,50.90582102],[3.94038315,50.90590932],[3.94030694,50.90587548],[3.94029837,50.9058832],[3.94022759,50.90585177],[3.94026303,50.90581987],[3.94018166,50.9057844],[3.94042933,50.90553152],[3.9406451,50.90562912],[3.94067866,50.90564429],[3.94069807,50.90565307],[3.94076074,50.90568142],[3.94074028,50.90569896],[3.94070257,50.90573128],[3.94071417,50.9057369],[3.94056497,50.90586625]]]}},{"type":"Feature","id":"gebouw/Gebouw.12901025/0","properties":{"source":"Digitaal Vlaanderen Gebouwenregister","source_id":"gebouw/Gebouw.12901025/0","kind":"building","building":"official","height_m":8.85,"status":null},"geometry":{"type":"Polygon","coordinates":[[[3.9391321,50.90671589],[3.93908445,50.90670898],[3.93909109,50.90669069],[3.93912208,50.90669519],[3.93913002,50.90667331],[3.93909903,50.90666881],[3.93910417,50.90665463],[3.93837141,50.9065483],[3.93833528,50.90664784],[3.93911571,50.90676108],[3.9391321,50.90671589]]]}},{"type":"Feature","id":"gebouw/Gebouw.12901077/0","properties":{"source":"Digitaal Vlaanderen Gebouwenregister","source_id":"gebouw/Gebouw.12901077/0","kind":"building","building":"official","height_m":7.35,"status":null},"geometry":{"type":"Polygon","coordinates":[[[3.93841711,50.90481195],[3.93840812,50.9048223],[3.93830881,50.90478269],[3.93839558,50.90469497],[3.93841167,50.90470148],[3.93843477,50.90471081],[3.93847555,50.90472728],[3.93847488,50.90472808],[3.93847832,50.90474023],[3.93847971,50.90474096],[3.93844193,50.90477709],[3.93844717,50.90477924],[3.93841711,50.90481195]]]}},{"type":"Feature","id":"gebouw/Gebouw.12910753/0","properties":{"source":"Digitaal Vlaanderen Gebouwenregister","source_id":"gebouw/Gebouw.12910753/0","kind":"building","building":"official","height_m":5.85,"status":null},"geometry":{"type":"Polygon","coordinates":[[[3.93831475,50.90466164],[3.93822386,50.90474853],[3.93812625,50.90470927],[3.93809418,50.90469637],[3.9381367,50.90465379],[3.93817622,50.90467011],[3.93820761,50.90464001],[3.9382195,50.90464487],[3.93825348,50.90461229],[3.93833027,50.90464442],[3.938332,50.90464514],[3.93831475,50.90466164]]]}},{"type":"Feature","id":"gebouw/Gebouw.13048710/0","properties":{"source":"Digitaal Vlaanderen Gebouwenregister","source_id":"gebouw/Gebouw.13048710/0","kind":"building","building":"official","height_m":5.1,"status":null},"geometry":{"type":"Polygon","coordinates":[[[3.93804379,50.90449196],[3.9379137,50.90462929],[3.93785894,50.90460873],[3.93788149,50.90458433],[3.93785298,50.90457343],[3.93795991,50.90446048],[3.93804256,50.9044915],[3.93804379,50.90449196]]]}},{"type":"Feature","id":"gebouw/Gebouw.13073682/0","properties":{"source":"Digitaal Vlaanderen Gebouwenregister","source_id":"gebouw/Gebouw.13073682/0","kind":"building","building":"official","height_m":5.1,"status":null},"geometry":{"type":"Polygon","coordinates":[[[3.93782725,50.90443961],[3.93777554,50.90448357],[3.93775695,50.90447427],[3.93772524,50.90450268],[3.9376827,50.90448337],[3.9376736,50.90449189],[3.93761559,50.9044657],[3.93759925,50.90447971],[3.93749135,50.9044315],[3.9375258,50.90440021],[3.93748227,50.90438101],[3.93750104,50.90436208],[3.93746029,50.90434524],[3.93746318,50.90434268],[3.93753341,50.90428056],[3.93753459,50.90427951],[3.9375897,50.90430383],[3.9375722,50.90431969],[3.93763061,50.90434546],[3.93770624,50.90437956],[3.93773286,50.90435585],[3.93783774,50.90440385],[3.93780715,50.90443023],[3.93782725,50.90443961]]]}},{"type":"Feature","id":"gebouw/Gebouw.13104406/0","properties":{"source":"Digitaal Vlaanderen Gebouwenregister","source_id":"gebouw/Gebouw.13104406/0","kind":"building","building":"official","height_m":8.1,"status":null},"geometry":{"type":"Polygon","coordinates":[[[3.94113288,50.90722188],[3.94110291,50.90720531],[3.94113112,50.90718491],[3.94112899,50.90718373],[3.94115819,50.90716261],[3.9411903,50.90718037],[3.94113288,50.90722188]]]}},{"type":"Feature","id":"gebouw/Gebouw.13104748/0","properties":{"source":"Digitaal Vlaanderen Gebouwenregister","source_id":"gebouw/Gebouw.13104748/0","kind":"building","building":"official","height_m":8.1,"status":null},"geometry":{"type":"Polygon","coordinates":[[[3.94055555,50.90592968],[3.94051893,50.90591161],[3.94059281,50.90585173],[3.94062944,50.90586981],[3.94055555,50.90592968]]]}},{"type":"Feature","id":"gebouw/Gebouw.13196245/0","properties":{"source":"Digitaal Vlaanderen Gebouwenregister","source_id":"gebouw/Gebouw.13196245/0","kind":"building","building":"official","height_m":5.85,"status":null},"geometry":{"type":"Polygon","coordinates":[[[3.93692558,50.90159343],[3.93687034,50.90166187],[3.93668861,50.90160684],[3.93675373,50.90153301],[3.93685521,50.9015664],[3.93685221,50.90156864],[3.93692558,50.90159343]]]}},{"type":"Feature","id":"gebouw/Gebouw.13240767/0","properties":{"source":"Digitaal Vlaanderen Gebouwenregister","source_id":"gebouw/Gebouw.13240767/0","kind":"building","building":"official","height_m":7.35,"status":null},"geometry":{"type":"Polygon","coordinates":[[[3.93797265,50.90495173],[3.93783115,50.90506431],[3.93775915,50.90502917],[3.9378144,50.90496666],[3.93784978,50.90492664],[3.93785941,50.90491575],[3.93797265,50.90495173]]]}},{"type":"Feature","id":"gebouw/Gebouw.13252063/0","properties":{"source":"Digitaal Vlaanderen Gebouwenregister","source_id":"gebouw/Gebouw.13252063/0","kind":"building","building":"official","height_m":5.85,"status":null},"geometry":{"type":"Polygon","coordinates":[[[3.93830881,50.90478269],[3.93840812,50.9048223],[3.93841178,50.90482371],[3.93834614,50.90489189],[3.93826807,50.90486103],[3.93826784,50.90486094],[3.93824165,50.90485059],[3.93822506,50.90484403],[3.93822064,50.90484228],[3.93826547,50.90479454],[3.93828542,50.90477329],[3.93830881,50.90478269]]]}},{"type":"Feature","id":"gebouw/Gebouw.13305875/0","properties":{"source":"Digitaal Vlaanderen Gebouwenregister","source_id":"gebouw/Gebouw.13305875/0","kind":"building","building":"official","height_m":8.85,"status":null},"geometry":{"type":"Polygon","coordinates":[[[3.93814223,50.90481129],[3.93811913,50.90483499],[3.93810135,50.90482843],[3.93806922,50.90486083],[3.93794953,50.90481379],[3.93796017,50.90480176],[3.93796343,50.90479806],[3.93800107,50.90475548],[3.93814223,50.90481129]]]}},{"type":"Feature","id":"gebouw/Gebouw.13306410/0","properties":{"source":"Digitaal Vlaanderen Gebouwenregister","source_id":"gebouw/Gebouw.13306410/0","kind":"building","building":"official","height_m":5.1,"status":null},"geometry":{"type":"Polygon","coordinates":[[[3.93739835,50.90407066],[3.9373204,50.90413152],[3.93725268,50.90409824],[3.93733527,50.90402945],[3.93739835,50.90407066]]]}},{"type":"Feature","id":"gebouw/Gebouw.13312446/0","properties":{"source":"Digitaal Vlaanderen Gebouwenregister","source_id":"gebouw/Gebouw.13312446/0","kind":"building","building":"official","height_m":5.1,"status":null},"geometry":{"type":"Polygon","coordinates":[[[3.93769693,50.90472254],[3.93766408,50.90471],[3.93770386,50.90466832],[3.93773703,50.90468097],[3.93778468,50.90463105],[3.93782483,50.90464637],[3.93776827,50.90470563],[3.9377278,50.90469019],[3.93769693,50.90472254]]]}},{"type":"Feature","id":"gebouw/Gebouw.13325683/0","properties":{"source":"Digitaal Vlaanderen Gebouwenregister","source_id":"gebouw/Gebouw.13325683/0","kind":"building","building":"official","height_m":5.85,"status":null},"geometry":{"type":"Polygon","coordinates":[[[3.93973485,50.90672578],[3.93975286,50.90670914],[3.93955988,50.90662566],[3.93954187,50.90664231],[3.93973485,50.90672578]]]}},{"type":"Feature","id":"gebouw/Gebouw.13350875/0","properties":{"source":"Digitaal Vlaanderen Gebouwenregister","source_id":"gebouw/Gebouw.13350875/0","kind":"building","building":"official","height_m":8.85,"status":null},"geometry":{"type":"Polygon","coordinates":[[[3.94087769,50.90797409],[3.94081692,50.90795255],[3.94085165,50.90791788],[3.94091127,50.90794131],[3.94087769,50.90797409]]]}},{"type":"Feature","id":"gebouw/Gebouw.13350945/0","properties":{"source":"Digitaal Vlaanderen Gebouwenregister","source_id":"gebouw/Gebouw.13350945/0","kind":"building","building":"official","height_m":7.35,"status":null},"geometry":{"type":"Polygon","coordinates":[[[3.93807273,50.90504436],[3.93802825,50.90507502],[3.93797431,50.90504927],[3.93801309,50.90501593],[3.93807273,50.90504436]]]}},{"type":"Feature","id":"gebouw/Gebouw.13365428/0","properties":{"source":"Digitaal Vlaanderen Gebouwenregister","source_id":"gebouw/Gebouw.13365428/0","kind":"building","building":"official","height_m":6.6,"status":null},"geometry":{"type":"Polygon","coordinates":[[[3.94128966,50.9070204],[3.94124173,50.90699752],[3.94126904,50.90697465],[3.94131697,50.90699753],[3.94128966,50.9070204]]]}},{"type":"Feature","id":"gebouw/Gebouw.13369262/0","properties":{"source":"Digitaal Vlaanderen Gebouwenregister","source_id":"gebouw/Gebouw.13369262/0","kind":"building","building":"official","height_m":6.6,"status":null},"geometry":{"type":"Polygon","coordinates":[[[3.937933,50.90734757],[3.93790623,50.90741475],[3.93767953,50.90737734],[3.93770395,50.90731243],[3.9377105,50.90731344],[3.937933,50.90734757]]]}},{"type":"Feature","id":"gebouw/Gebouw.13370771/0","properties":{"source":"Digitaal Vlaanderen Gebouwenregister","source_id":"gebouw/Gebouw.13370771/0","kind":"building","building":"official","height_m":8.85,"status":null},"geometry":{"type":"Polygon","coordinates":[[[3.94133022,50.90513914],[3.94132455,50.90514267],[3.94132176,50.9051444],[3.94135632,50.9051675],[3.9412991,50.90520203],[3.94126103,50.9051768],[3.94129112,50.90515864],[3.94123035,50.90510823],[3.94126231,50.905094],[3.9412714,50.90508995],[3.94133022,50.90513914]]]}},{"type":"Feature","id":"gebouw/Gebouw.13379089/0","properties":{"source":"Digitaal Vlaanderen Gebouwenregister","source_id":"gebouw/Gebouw.13379089/0","kind":"building","building":"official","height_m":5.85,"status":null},"geometry":{"type":"Polygon","coordinates":[[[3.93755749,50.90176841],[3.93753035,50.90175325],[3.93752435,50.90175773],[3.9374237,50.90170555],[3.93738857,50.90173449],[3.9373378,50.90170831],[3.93733099,50.90170696],[3.93732449,50.90170392],[3.93725597,50.90176616],[3.93713445,50.90171043],[3.93715245,50.90169478],[3.93721382,50.90164194],[3.93716252,50.90161812],[3.93720366,50.90158269],[3.93738676,50.90166667],[3.9374144,50.90164444],[3.93746059,50.9016073],[3.93765505,50.90171255],[3.93761303,50.9017469],[3.93759814,50.90173922],[3.93755749,50.90176841]]]}},{"type":"Feature","id":"gebouw/Gebouw.13387761/0","properties":{"source":"Digitaal Vlaanderen Gebouwenregister","source_id":"gebouw/Gebouw.13387761/0","kind":"building","building":"official","height_m":7.35,"status":null},"geometry":{"type":"Polygon","coordinates":[[[3.93725427,50.90706524],[3.93709839,50.90702854],[3.93713995,50.9069615],[3.93735957,50.90701494],[3.93732076,50.90708065],[3.93725427,50.90706524]]]}},{"type":"Feature","id":"gebouw/Gebouw.13392651/0","properties":{"source":"Digitaal Vlaanderen Gebouwenregister","source_id":"gebouw/Gebouw.13392651/0","kind":"building","building":"official","height_m":7.35,"status":null},"geometry":{"type":"Polygon","coordinates":[[[3.93800107,50.90475548],[3.93796343,50.90479806],[3.93789196,50.90477253],[3.93792058,50.9047384],[3.93794124,50.90474533],[3.93798163,50.90469994],[3.93797445,50.90469697],[3.93798966,50.90467957],[3.93789817,50.90464569],[3.9379137,50.90462929],[3.93804379,50.90449196],[3.93813563,50.9045266],[3.93810039,50.9045637],[3.93811268,50.9045684],[3.93805351,50.90463122],[3.9380976,50.90464627],[3.93806403,50.90468425],[3.93804915,50.90470108],[3.93800107,50.90475548]]]}},{"type":"Feature","id":"gebouw/Gebouw.13395102/0","properties":{"source":"Digitaal Vlaanderen Gebouwenregister","source_id":"gebouw/Gebouw.13395102/0","kind":"building","building":"official","height_m":5.1,"status":null},"geometry":{"type":"Polygon","coordinates":[[[3.93805638,50.90589677],[3.93802349,50.90596586],[3.93792739,50.90594612],[3.93793232,50.90593724],[3.93781654,50.90591322],[3.93778159,50.90590597],[3.9378064,50.90585633],[3.9378099,50.90584932],[3.93805638,50.90589677]]]}},{"type":"Feature","id":"gebouw/Gebouw.13395301/0","properties":{"source":"Digitaal Vlaanderen Gebouwenregister","source_id":"gebouw/Gebouw.13395301/0","kind":"building","building":"official","height_m":5.85,"status":null},"geometry":{"type":"Polygon","coordinates":[[[3.93676287,50.90168693],[3.93669784,50.90176219],[3.93660954,50.90173169],[3.93667457,50.90165642],[3.93676287,50.90168693]]]}},{"type":"Feature","id":"gebouw/Gebouw.13403354/0","properties":{"source":"Digitaal Vlaanderen Gebouwenregister","source_id":"gebouw/Gebouw.13403354/0","kind":"building","building":"official","height_m":6.6,"status":null},"geometry":{"type":"Polygon","coordinates":[[[3.93752057,50.90188128],[3.93747279,50.90185361],[3.93749557,50.90183795],[3.93754425,50.90186506],[3.93752057,50.90188128]]]}},{"type":"Feature","id":"gebouw/Gebouw.13435814/0","properties":{"source":"Digitaal Vlaanderen Gebouwenregister","source_id":"gebouw/Gebouw.13435814/0","kind":"building","building":"official","height_m":6.6,"status":null},"geometry":{"type":"Polygon","coordinates":[[[3.94066247,50.90598492],[3.94057894,50.90593495],[3.94065527,50.90588395],[3.94073879,50.90593392],[3.94066247,50.90598492]]]}},{"type":"Feature","id":"gebouw/Gebouw.13438410/0","properties":{"source":"Digitaal Vlaanderen Gebouwenregister","source_id":"gebouw/Gebouw.13438410/0","kind":"building","building":"official","height_m":5.1,"status":null},"geometry":{"type":"Polygon","coordinates":[[[3.9378144,50.90496666],[3.93781025,50.90496537],[3.93776078,50.90502042],[3.93770573,50.90499583],[3.93773999,50.90496133],[3.93766876,50.90493576],[3.93772171,50.90487467],[3.93782711,50.90491336],[3.93782331,50.90491771],[3.93784978,50.90492664],[3.9378144,50.90496666]]]}},{"type":"Feature","id":"gebouw/Gebouw.13440993/0","properties":{"source":"Digitaal Vlaanderen Gebouwenregister","source_id":"gebouw/Gebouw.13440993/0","kind":"building","building":"official","height_m":7.35,"status":null},"geometry":{"type":"Polygon","coordinates":[[[3.93748753,50.90426044],[3.93741889,50.90432045],[3.93735616,50.90428895],[3.93736437,50.90428062],[3.93718506,50.90419889],[3.93725147,50.90414318],[3.93725466,50.90414474],[3.93724964,50.90414904],[3.93725695,50.90415231],[3.93732338,50.90418194],[3.93740522,50.90421855],[3.9374059,50.90421802],[3.937425,50.90420082],[3.93741793,50.90419767],[3.93742029,50.90419554],[3.9374287,50.9041992],[3.9374431,50.90420565],[3.93751397,50.90423733],[3.93748753,50.90426044]]]}},{"type":"Feature","id":"gebouw/Gebouw.13443180/0","properties":{"source":"Digitaal Vlaanderen Gebouwenregister","source_id":"gebouw/Gebouw.13443180/0","kind":"building","building":"official","height_m":5.1,"status":null},"geometry":{"type":"Polygon","coordinates":[[[3.9382304,50.90503446],[3.9381944,50.90502268],[3.93814138,50.90500533],[3.93800594,50.9049623],[3.93804848,50.90490591],[3.9381914,50.90495247],[3.93824752,50.90488554],[3.93819907,50.90486814],[3.93822506,50.90484403],[3.93824165,50.90485059],[3.93826807,50.90486103],[3.93834614,50.90489189],[3.93828185,50.90497102],[3.93827919,50.90497434],[3.9382853,50.90497631],[3.93827047,50.90499478],[3.93826422,50.90499277],[3.93826252,50.90499488],[3.93824854,50.90501193],[3.93825487,50.90501397],[3.93823996,50.90503249],[3.93823362,50.90503045],[3.9382304,50.90503446]]]}},{"type":"Feature","id":"gebouw/Gebouw.13453068/0","properties":{"source":"Digitaal Vlaanderen Gebouwenregister","source_id":"gebouw/Gebouw.13453068/0","kind":"building","building":"official","height_m":5.1,"status":null},"geometry":{"type":"Polygon","coordinates":[[[3.93645006,50.90169162],[3.93650189,50.90163439],[3.93658293,50.90166261],[3.93652782,50.90172374],[3.93645006,50.90169162]]]}},{"type":"Feature","id":"gebouw/Gebouw.13453252/0","properties":{"source":"Digitaal Vlaanderen Gebouwenregister","source_id":"gebouw/Gebouw.13453252/0","kind":"building","building":"official","height_m":8.1,"status":null},"geometry":{"type":"Polygon","coordinates":[[[3.93842841,50.90584739],[3.93841072,50.90587287],[3.93841461,50.90587416],[3.93836553,50.90595554],[3.93810097,50.90589277],[3.93817562,50.90577075],[3.93842841,50.90584739]]]}},{"type":"Feature","id":"gebouw/Gebouw.13453353/0","properties":{"source":"Digitaal Vlaanderen Gebouwenregister","source_id":"gebouw/Gebouw.13453353/0","kind":"building","building":"official","height_m":7.35,"status":null},"geometry":{"type":"Polygon","coordinates":[[[3.93750921,50.90765119],[3.93745206,50.90763783],[3.93741506,50.90770106],[3.93730827,50.90767608],[3.93738762,50.90754036],[3.93755124,50.90757932],[3.93750921,50.90765119]]]}},{"type":"Feature","id":"gebouw/Gebouw.13458090/0","properties":{"source":"Digitaal Vlaanderen Gebouwenregister","source_id":"gebouw/Gebouw.13458090/0","kind":"building","building":"official","height_m":5.1,"status":null},"geometry":{"type":"Polygon","coordinates":[[[3.93812625,50.90470927],[3.93810782,50.90472739],[3.93806713,50.90471221],[3.93807096,50.90470936],[3.93804915,50.90470108],[3.93806403,50.90468425],[3.93809418,50.90469637],[3.93812625,50.90470927]]]}},{"type":"Feature","id":"gebouw/Gebouw.13459923/0","properties":{"source":"Digitaal Vlaanderen Gebouwenregister","source_id":"gebouw/Gebouw.13459923/0","kind":"building","building":"official","height_m":7.35,"status":null},"geometry":{"type":"Polygon","coordinates":[[[3.93759972,50.90691426],[3.9375982,50.90691545],[3.9375641,50.90697068],[3.93729503,50.90690527],[3.93730483,50.90688926],[3.93727288,50.90688148],[3.93712685,50.90684591],[3.93708266,50.90691654],[3.93701161,50.9069004],[3.93716052,50.90665688],[3.93724133,50.90667542],[3.93733338,50.90669697],[3.93737123,50.90670633],[3.93739262,50.90671161],[3.93753813,50.90674786],[3.93752301,50.90677455],[3.93757654,50.90678626],[3.93758433,50.90682932],[3.9373344,50.90677192],[3.93729754,50.90683756],[3.93742404,50.90686754],[3.93744794,50.90682564],[3.93759003,50.90686077],[3.93759972,50.90691426]]]}},{"type":"Feature","id":"gebouw/Gebouw.13467754/0","properties":{"source":"Digitaal Vlaanderen Gebouwenregister","source_id":"gebouw/Gebouw.13467754/0","kind":"building","building":"official","height_m":8.1,"status":null},"geometry":{"type":"Polygon","coordinates":[[[3.93813287,50.90520605],[3.93809986,50.90518795],[3.93805929,50.90521582],[3.93793074,50.90514222],[3.93795565,50.90512505],[3.93802825,50.90507502],[3.93807273,50.90504436],[3.93811659,50.90501413],[3.93814138,50.90500533],[3.9381944,50.90502268],[3.93810513,50.9050821],[3.93809884,50.90507894],[3.93808288,50.9050884],[3.93819174,50.90514551],[3.93813287,50.90520605]]]}},{"type":"Feature","id":"gebouw/Gebouw.13472506/0","properties":{"source":"Digitaal Vlaanderen Gebouwenregister","source_id":"gebouw/Gebouw.13472506/0","kind":"building","building":"official","height_m":8.1,"status":null},"geometry":{"type":"Polygon","coordinates":[[[3.93778195,50.90725544],[3.9377573,50.90725099],[3.93774297,50.90728268],[3.93781933,50.90729648],[3.93783226,50.90726789],[3.93799111,50.90729661],[3.9380073,50.90726078],[3.93779409,50.90722224],[3.93778195,50.90725544]]]}},{"type":"Feature","id":"gebouw/Gebouw.13487283/0","properties":{"source":"Digitaal Vlaanderen Gebouwenregister","source_id":"gebouw/Gebouw.13487283/0","kind":"building","building":"official","height_m":7.35,"status":null},"geometry":{"type":"Polygon","coordinates":[[[3.93741202,50.90466214],[3.93735869,50.9046403],[3.93739161,50.90460816],[3.93744495,50.90462999],[3.93741202,50.90466214]]]}},{"type":"Feature","id":"gebouw/Gebouw.13490207/0","properties":{"source":"Digitaal Vlaanderen Gebouwenregister","source_id":"gebouw/Gebouw.13490207/0","kind":"building","building":"official","height_m":8.85,"status":null},"geometry":{"type":"Polygon","coordinates":[[[3.93897094,50.90508451],[3.93879884,50.90500096],[3.93866639,50.90510371],[3.9389238,50.90517401],[3.93898487,50.90510247],[3.93905266,50.90512594],[3.93899349,50.90519689],[3.93893324,50.90517764],[3.9388864,50.90524774],[3.93864005,50.90518601],[3.93864958,50.90516775],[3.93854562,50.90513977],[3.9385865,50.90507761],[3.93856291,50.90506572],[3.93859301,50.90504184],[3.93867789,50.90497545],[3.9387658,50.90490582],[3.93880498,50.904925],[3.93885065,50.90494807],[3.93894156,50.90499421],[3.93902466,50.90503584],[3.93897094,50.90508451]]]}},{"type":"Feature","id":"gebouw/Gebouw.13498658/0","properties":{"source":"Digitaal Vlaanderen Gebouwenregister","source_id":"gebouw/Gebouw.13498658/0","kind":"building","building":"official","height_m":6.6,"status":null},"geometry":{"type":"Polygon","coordinates":[[[3.93701388,50.90436813],[3.93697373,50.90434956],[3.93705222,50.90428531],[3.93709269,50.90430558],[3.93701388,50.90436813]]]}},{"type":"Feature","id":"gebouw/Gebouw.13527228/0","properties":{"source":"Digitaal Vlaanderen Gebouwenregister","source_id":"gebouw/Gebouw.13527228/0","kind":"building","building":"official","height_m":5.1,"status":null},"geometry":{"type":"Polygon","coordinates":[[[3.93647588,50.9036231],[3.93642322,50.90359438],[3.93633795,50.90365691],[3.93639061,50.90368563],[3.93647588,50.9036231]]]}},{"type":"Feature","id":"gebouw/Gebouw.13546128/0","properties":{"source":"Digitaal Vlaanderen Gebouwenregister","source_id":"gebouw/Gebouw.13546128/0","kind":"building","building":"official","height_m":5.1,"status":null},"geometry":{"type":"Polygon","coordinates":[[[3.93992073,50.90654728],[3.93990617,50.90650197],[3.93996399,50.90649454],[3.93997855,50.90653985],[3.93992073,50.90654728]]]}},{"type":"Feature","id":"gebouw/Gebouw.13554843/0","properties":{"source":"Digitaal Vlaanderen Gebouwenregister","source_id":"gebouw/Gebouw.13554843/0","kind":"building","building":"official","height_m":7.35,"status":null},"geometry":{"type":"Polygon","coordinates":[[[3.93816523,50.90662316],[3.93817165,50.90661486],[3.93819405,50.90656054],[3.93820509,50.90656217],[3.93821973,50.90652629],[3.93831218,50.90629983],[3.93830263,50.90629801],[3.938313,50.90625486],[3.93822777,50.90624634],[3.93821634,50.90628863],[3.93773409,50.90623392],[3.93773214,50.90624206],[3.93770131,50.90637281],[3.93768849,50.9064252],[3.93765826,50.90648334],[3.93768076,50.90649026],[3.93780921,50.9065331],[3.93791649,50.90656589],[3.93803718,50.90660278],[3.93815352,50.90663834],[3.93816523,50.90662316]],[[3.93805058,50.90652723],[3.93778191,50.90644849],[3.93781778,50.90629927],[3.93812566,50.90633375],[3.93805058,50.90652723]]]}},{"type":"Feature","id":"gebouw/Gebouw.13589255/0","properties":{"source":"Digitaal Vlaanderen Gebouwenregister","source_id":"gebouw/Gebouw.13589255/0","kind":"building","building":"official","height_m":8.85,"status":null},"geometry":{"type":"Polygon","coordinates":[[[3.93785786,50.90475871],[3.93778132,50.90473052],[3.93779947,50.9047108],[3.93787602,50.90473899],[3.93785786,50.90475871]]]}},{"type":"Feature","id":"gebouw/Gebouw.13603719/0","properties":{"source":"Digitaal Vlaanderen Gebouwenregister","source_id":"gebouw/Gebouw.13603719/0","kind":"building","building":"official","height_m":7.35,"status":null},"geometry":{"type":"Polygon","coordinates":[[[3.93770525,50.90724351],[3.93775056,50.90724888],[3.9377412,50.90728669],[3.93772084,50.90728471],[3.93769561,50.90728225],[3.93770525,50.90724351]]]}},{"type":"Feature","id":"gebouw/Gebouw.13634042/0","properties":{"source":"Digitaal Vlaanderen Gebouwenregister","source_id":"gebouw/Gebouw.13634042/0","kind":"building","building":"official","height_m":6.6,"status":null},"geometry":{"type":"Polygon","coordinates":[[[3.93698216,50.90667497],[3.93693588,50.90666414],[3.93695624,50.90663279],[3.93700284,50.90664531],[3.93698216,50.90667497]]]}},{"type":"Feature","id":"gebouw/Gebouw.13655564/0","properties":{"source":"Digitaal Vlaanderen Gebouwenregister","source_id":"gebouw/Gebouw.13655564/0","kind":"building","building":"official","height_m":6.6,"status":null},"geometry":{"type":"Polygon","coordinates":[[[3.93785921,50.90491451],[3.93777377,50.90488334],[3.93781,50.90484363],[3.93789544,50.9048748],[3.93785921,50.90491451]]]}},{"type":"Feature","id":"gebouw/Gebouw.13762728/0","properties":{"source":"Digitaal Vlaanderen Gebouwenregister","source_id":"gebouw/Gebouw.13762728/0","kind":"building","building":"official","height_m":5.1,"status":null},"geometry":{"type":"Polygon","coordinates":[[[3.93934622,50.9040593],[3.93928613,50.90402015],[3.93941059,50.90394603],[3.93946745,50.90398803],[3.93934622,50.9040593]]]}},{"type":"Feature","id":"gebouw/Gebouw.13804871/0","properties":{"source":"Digitaal Vlaanderen Gebouwenregister","source_id":"gebouw/Gebouw.13804871/0","kind":"building","building":"official","height_m":8.85,"status":null},"geometry":{"type":"Polygon","coordinates":[[[3.93841737,50.90524285],[3.938368,50.905229],[3.93838448,50.90520552],[3.93843385,50.90521937],[3.93841737,50.90524285]]]}},{"type":"Feature","id":"gebouw/Gebouw.13805337/0","properties":{"source":"Digitaal Vlaanderen Gebouwenregister","source_id":"gebouw/Gebouw.13805337/0","kind":"building","building":"official","height_m":7.35,"status":null},"geometry":{"type":"Polygon","coordinates":[[[3.93743777,50.90731477],[3.93740287,50.90730738],[3.93741961,50.90727604],[3.9374545,50.90728343],[3.93743777,50.90731477]]]}},{"type":"Feature","id":"gebouw/Gebouw.13839693/0","properties":{"source":"Digitaal Vlaanderen Gebouwenregister","source_id":"gebouw/Gebouw.13839693/0","kind":"building","building":"official","height_m":7.35,"status":null},"geometry":{"type":"Polygon","coordinates":[[[3.94101106,50.90721675],[3.94093822,50.90718077],[3.94095933,50.90716368],[3.94103217,50.90719966],[3.94101106,50.90721675]]]}},{"type":"Feature","id":"gebouw/Gebouw.14945041/0","properties":{"source":"Digitaal Vlaanderen Gebouwenregister","source_id":"gebouw/Gebouw.14945041/0","kind":"building","building":"official","height_m":5.85,"status":null},"geometry":{"type":"Polygon","coordinates":[[[3.9369754,50.90184471],[3.93702485,50.90186049],[3.93716683,50.90191006],[3.93711529,50.90196785],[3.93706549,50.9019513],[3.9369798,50.90192283],[3.93698569,50.90191256],[3.93687723,50.90188217],[3.93691472,50.90182953],[3.93691602,50.90182989],[3.93697435,50.90174588],[3.93706981,50.9017745],[3.93704116,50.9018153],[3.93700333,50.90180536],[3.9369754,50.90184471]]]}},{"type":"Feature","id":"gebouw/Gebouw.16671680/0","properties":{"source":"Digitaal Vlaanderen Gebouwenregister","source_id":"gebouw/Gebouw.16671680/0","kind":"building","building":"official","height_m":6.6,"status":null},"geometry":{"type":"Polygon","coordinates":[[[3.93865721,50.90590127],[3.93847456,50.90585333],[3.93847028,50.90586391],[3.9384263,50.90585023],[3.9384301,50.90584513],[3.93830223,50.90581051],[3.93817562,50.90577075],[3.93816053,50.90576659],[3.93814794,50.90578001],[3.93806634,50.90575547],[3.93806025,50.90576548],[3.93790909,50.90572537],[3.937945,50.90567268],[3.93792303,50.90566678],[3.93801064,50.905532],[3.93803402,50.90553802],[3.93809696,50.90555425],[3.93837823,50.90563848],[3.93843075,50.90568897],[3.93836055,50.90577066],[3.93849449,50.90581313],[3.93852329,50.90576875],[3.93853129,50.90577095],[3.93858023,50.90569988],[3.93846373,50.90566582],[3.93849087,50.90562972],[3.93860621,50.90566215],[3.93860493,50.90566401],[3.93875116,50.9057055],[3.93869491,50.90578466],[3.93872691,50.9057952],[3.93865721,50.90590127]],[[3.93820741,50.90571859],[3.93824097,50.90567418],[3.9381652,50.90564932],[3.93818125,50.90562783],[3.93811499,50.90560607],[3.9380899,50.90564008],[3.93805465,50.90563051],[3.93802958,50.90566565],[3.9381082,50.90568983],[3.93810994,50.90568681],[3.93820741,50.90571859]]]}},{"type":"Feature","id":"gebouw/Gebouw.16692941/0","properties":{"source":"Digitaal Vlaanderen Gebouwenregister","source_id":"gebouw/Gebouw.16692941/0","kind":"building","building":"official","height_m":8.85,"status":null},"geometry":{"type":"Polygon","coordinates":[[[3.93839558,50.90469497],[3.93830881,50.90478269],[3.93828542,50.90477329],[3.9382395,50.90475482],[3.93822386,50.90474853],[3.93831475,50.90466164],[3.93836463,50.90468264],[3.93839558,50.90469497]]]}},{"type":"Feature","id":"gebouw/Gebouw.16716271/0","properties":{"source":"Digitaal Vlaanderen Gebouwenregister","source_id":"gebouw/Gebouw.16716271/0","kind":"building","building":"official","height_m":5.85,"status":null},"geometry":{"type":"Polygon","coordinates":[[[3.94133619,50.90532978],[3.94119023,50.90541838],[3.94105416,50.90533067],[3.94110602,50.90529902],[3.94114952,50.90532804],[3.94124229,50.90527232],[3.94119592,50.90524395],[3.94125448,50.90520885],[3.94128875,50.9052317],[3.94133413,50.90526197],[3.94134007,50.90526593],[3.94128544,50.90529872],[3.94133619,50.90532978]]]}},{"type":"Feature","id":"gebouw/Gebouw.19693192/0","properties":{"source":"Digitaal Vlaanderen Gebouwenregister","source_id":"gebouw/Gebouw.19693192/0","kind":"building","building":"official","height_m":8.1,"status":null},"geometry":{"type":"Polygon","coordinates":[[[3.9382304,50.90503446],[3.9381944,50.90502268],[3.93814138,50.90500533],[3.93813315,50.90500271],[3.93800594,50.9049623],[3.93804848,50.90490591],[3.93818799,50.90495136],[3.9381914,50.90495247],[3.93824752,50.90488554],[3.93826784,50.90486094],[3.93826807,50.90486103],[3.93834614,50.90489189],[3.93828185,50.90497102],[3.93827919,50.90497434],[3.9382853,50.90497631],[3.93827047,50.90499478],[3.93826422,50.90499277],[3.93826252,50.90499488],[3.93824854,50.90501193],[3.93825487,50.90501397],[3.93823996,50.90503249],[3.93823362,50.90503045],[3.9382304,50.90503446]]]}},{"type":"Feature","id":"gebouw/Gebouw.19693193/0","properties":{"source":"Digitaal Vlaanderen Gebouwenregister","source_id":"gebouw/Gebouw.19693193/0","kind":"building","building":"official","height_m":8.85,"status":null},"geometry":{"type":"Polygon","coordinates":[[[3.93826784,50.90486094],[3.93824752,50.90488554],[3.93819907,50.90486814],[3.93822506,50.90484403],[3.93824165,50.90485059],[3.93826784,50.90486094]]]}},{"type":"Feature","id":"gebouw/Gebouw.19710554/0","properties":{"source":"Digitaal Vlaanderen Gebouwenregister","source_id":"gebouw/Gebouw.19710554/0","kind":"building","building":"official","height_m":6.6,"status":null},"geometry":{"type":"Polygon","coordinates":[[[3.93850168,50.90581542],[3.93847615,50.90585375],[3.93847166,50.90586051],[3.93842841,50.90584739],[3.93817562,50.90577075],[3.93816053,50.90576658],[3.93814794,50.90578001],[3.93806634,50.90575547],[3.93806025,50.90576548],[3.93790909,50.90572537],[3.937945,50.90567268],[3.93792303,50.90566678],[3.93801063,50.905532],[3.93803402,50.90553802],[3.93809696,50.90555425],[3.93837823,50.90563848],[3.93843075,50.90568897],[3.93838146,50.90574272],[3.93831423,50.9057234],[3.93829359,50.90574942],[3.93850168,50.90581542]],[[3.93820741,50.90571859],[3.93824097,50.90567418],[3.9381652,50.90564932],[3.93818125,50.90562783],[3.93811499,50.90560607],[3.9380899,50.90564008],[3.93805465,50.90563051],[3.93802958,50.90566565],[3.9381082,50.90568983],[3.93810994,50.90568681],[3.93820741,50.90571859]]]}},{"type":"Feature","id":"gebouw/Gebouw.19710555/0","properties":{"source":"Digitaal Vlaanderen Gebouwenregister","source_id":"gebouw/Gebouw.19710555/0","kind":"building","building":"official","height_m":7.35,"status":null},"geometry":{"type":"Polygon","coordinates":[[[3.93860493,50.90566401],[3.93875116,50.9057055],[3.93869491,50.90578466],[3.93872691,50.9057952],[3.93865721,50.90590127],[3.93847615,50.90585375],[3.93850168,50.90581542],[3.93853129,50.90577095],[3.93858023,50.90569988],[3.93860493,50.90566401]]]}},{"type":"Feature","id":"gebouw/Gebouw.19710556/0","properties":{"source":"Digitaal Vlaanderen Gebouwenregister","source_id":"gebouw/Gebouw.19710556/0","kind":"building","building":"official","height_m":8.1,"status":null},"geometry":{"type":"Polygon","coordinates":[[[3.93860493,50.90566401],[3.93858023,50.90569988],[3.93846373,50.90566582],[3.93849087,50.90562972],[3.93860493,50.90566401]]]}},{"type":"Feature","id":"gebouw/Gebouw.19719275/0","properties":{"source":"Digitaal Vlaanderen Gebouwenregister","source_id":"gebouw/Gebouw.19719275/0","kind":"building","building":"official","height_m":8.85,"status":null},"geometry":{"type":"Polygon","coordinates":[[[3.93723633,50.90687258],[3.93712685,50.90684591],[3.93708266,50.90691654],[3.93701161,50.9069004],[3.93716052,50.90665688],[3.93724133,50.90667542],[3.93733474,50.90669731],[3.93723633,50.90687258]]]}},{"type":"Feature","id":"gebouw/Gebouw.19719276/0","properties":{"source":"Digitaal Vlaanderen Gebouwenregister","source_id":"gebouw/Gebouw.19719276/0","kind":"building","building":"official","height_m":5.1,"status":null},"geometry":{"type":"Polygon","coordinates":[[[3.9375982,50.90691545],[3.9375641,50.90697068],[3.93729503,50.90690527],[3.93730483,50.90688926],[3.93723633,50.90687258],[3.93733474,50.90669731],[3.93753813,50.90674786],[3.93752301,50.90677455],[3.93757653,50.90678626],[3.93758433,50.90682932],[3.93755209,50.90682192],[3.93749993,50.90680994],[3.93744849,50.90679812],[3.93737692,50.90678169],[3.9373381,50.90684717],[3.93742404,50.90686754],[3.93744166,50.90683666],[3.93744794,50.90682564],[3.93748496,50.90683479],[3.93753628,50.90684748],[3.93759003,50.90686077],[3.93759972,50.90691426],[3.9375982,50.90691545]]]}},{"type":"Feature","id":"gebouw/Gebouw.19954678/0","properties":{"source":"Digitaal Vlaanderen Gebouwenregister","source_id":"gebouw/Gebouw.19954678/0","kind":"building","building":"official","height_m":8.1,"status":null},"geometry":{"type":"Polygon","coordinates":[[[3.93743993,50.90444111],[3.93738994,50.90448388],[3.93735115,50.90446576],[3.93740115,50.90442298],[3.93743993,50.90444111]]]}},{"type":"Feature","id":"gebouw/Gebouw.19954679/0","properties":{"source":"Digitaal Vlaanderen Gebouwenregister","source_id":"gebouw/Gebouw.19954679/0","kind":"building","building":"official","height_m":8.85,"status":null},"geometry":{"type":"Polygon","coordinates":[[[3.93733699,50.90201009],[3.93730681,50.90204501],[3.93717393,50.9019991],[3.9372041,50.90196418],[3.93733699,50.90201009]]]}},{"type":"Feature","id":"gebouw/Gebouw.19954790/0","properties":{"source":"Digitaal Vlaanderen Gebouwenregister","source_id":"gebouw/Gebouw.19954790/0","kind":"building","building":"official","height_m":6.6,"status":null},"geometry":{"type":"Polygon","coordinates":[[[3.93734695,50.90708821],[3.93709839,50.90702904],[3.93713912,50.90696064],[3.93738768,50.90701981],[3.93734695,50.90708821]]]}},{"type":"Feature","id":"gebouw/Gebouw.19955231/0","properties":{"source":"Digitaal Vlaanderen Gebouwenregister","source_id":"gebouw/Gebouw.19955231/0","kind":"building","building":"official","height_m":8.85,"status":null},"geometry":{"type":"Polygon","coordinates":[[[3.93712805,50.90665385],[3.93698626,50.90662205],[3.93700305,50.90659212],[3.93714484,50.90662392],[3.93712805,50.90665385]]]}},{"type":"Feature","id":"gebouw/Gebouw.19955257/0","properties":{"source":"Digitaal Vlaanderen Gebouwenregister","source_id":"gebouw/Gebouw.19955257/0","kind":"building","building":"official","height_m":5.85,"status":null},"geometry":{"type":"Polygon","coordinates":[[[3.94127826,50.90826179],[3.9412529,50.90827982],[3.94125097,50.90828119],[3.94124738,50.90828374],[3.94123781,50.90827818],[3.94123349,50.90827566],[3.94120015,50.90825628],[3.94122892,50.9082365],[3.94127826,50.90826179]]]}},{"type":"Feature","id":"gebouw/Gebouw.19955435/0","properties":{"source":"Digitaal Vlaanderen Gebouwenregister","source_id":"gebouw/Gebouw.19955435/0","kind":"building","building":"official","height_m":8.85,"status":null},"geometry":{"type":"Polygon","coordinates":[[[3.93722182,50.90223263],[3.93715302,50.90218593],[3.93712611,50.90220178],[3.93707937,50.90217006],[3.93705581,50.90218393],[3.93710167,50.90221507],[3.93709826,50.90221708],[3.93718345,50.9022749],[3.93721585,50.90225582],[3.93720033,50.90224528],[3.93722182,50.90223263]]]}},{"type":"Feature","id":"gebouw/Gebouw.19955446/0","properties":{"source":"Digitaal Vlaanderen Gebouwenregister","source_id":"gebouw/Gebouw.19955446/0","kind":"building","building":"official","height_m":8.1,"status":null},"geometry":{"type":"Polygon","coordinates":[[[3.94018391,50.90545727],[3.94014786,50.90550819],[3.94006593,50.905485],[3.94010198,50.90543408],[3.94018391,50.90545727]]]}},{"type":"Feature","id":"gebouw/Gebouw.30883272/0","properties":{"source":"Digitaal Vlaanderen Gebouwenregister","source_id":"gebouw/Gebouw.30883272/0","kind":"building","building":"official","height_m":5.1,"status":null},"geometry":{"type":"Polygon","coordinates":[[[3.9369699,50.90667372],[3.93687938,50.90664572],[3.93690713,50.90661007],[3.93699765,50.90663807],[3.9369699,50.90667372]]]}},{"type":"Feature","id":"gebouw/Gebouw.30883273/0","properties":{"source":"Digitaal Vlaanderen Gebouwenregister","source_id":"gebouw/Gebouw.30883273/0","kind":"building","building":"official","height_m":5.85,"status":null},"geometry":{"type":"Polygon","coordinates":[[[3.94010465,50.90543297],[3.9401893,50.90545939],[3.94014996,50.90550981],[3.94006531,50.9054834],[3.94010465,50.90543297]]]}},{"type":"Feature","id":"gebouw/Gebouw.30883276/0","properties":{"source":"Digitaal Vlaanderen Gebouwenregister","source_id":"gebouw/Gebouw.30883276/0","kind":"building","building":"official","height_m":8.1,"status":null},"geometry":{"type":"Polygon","coordinates":[[[3.94039895,50.9047781],[3.94036215,50.90477134],[3.94037961,50.90473367],[3.9404164,50.90474043],[3.94039895,50.9047781]]]}},{"type":"Feature","id":"gebouw/Gebouw.31326791/0","properties":{"source":"Digitaal Vlaanderen Gebouwenregister","source_id":"gebouw/Gebouw.31326791/0","kind":"building","building":"official","height_m":8.85,"status":null},"geometry":{"type":"Polygon","coordinates":[[[3.93917146,50.90522612],[3.93912287,50.90521015],[3.93918043,50.90514012],[3.93922902,50.90515608],[3.93917146,50.90522612]]]}},{"type":"Feature","id":"gebouw/Gebouw.31538504/0","properties":{"source":"Digitaal Vlaanderen Gebouwenregister","source_id":"gebouw/Gebouw.31538504/0","kind":"building","building":"official","height_m":6.6,"status":null},"geometry":{"type":"Polygon","coordinates":[[[3.93737854,50.90730489],[3.93739276,50.90727693],[3.93737496,50.90727326],[3.93736055,50.90730108],[3.93737854,50.90730489]]]}},{"type":"Feature","id":"gebouw/Gebouw.31544020/0","properties":{"source":"Digitaal Vlaanderen Gebouwenregister","source_id":"gebouw/Gebouw.31544020/0","kind":"building","building":"official","height_m":8.1,"status":null},"geometry":{"type":"Polygon","coordinates":[[[3.93741298,50.90733012],[3.93736024,50.90731913],[3.9373554,50.90732771],[3.93734975,50.90733772],[3.93740242,50.90734968],[3.93740714,50.90734093],[3.93741298,50.90733012]]]}},{"type":"Feature","id":"gebouw/Gebouw.31844532/0","properties":{"source":"Digitaal Vlaanderen Gebouwenregister","source_id":"gebouw/Gebouw.31844532/0","kind":"building","building":"official","height_m":5.1,"status":null},"geometry":{"type":"Polygon","coordinates":[[[3.94108852,50.90566373],[3.94098551,50.90573144],[3.94098838,50.90573318],[3.94099532,50.90572875],[3.94106336,50.90577134],[3.94105647,50.90577574],[3.94118452,50.90585608],[3.94129125,50.90578742],[3.94108852,50.90566373]]]}},{"type":"Feature","id":"gebouw/Gebouw.31844686/0","properties":{"source":"Digitaal Vlaanderen Gebouwenregister","source_id":"gebouw/Gebouw.31844686/0","kind":"building","building":"official","height_m":8.1,"status":null},"geometry":{"type":"Polygon","coordinates":[[[3.94109528,50.90722685],[3.94115097,50.90718313],[3.94111167,50.90716312],[3.94105598,50.90720685],[3.94109528,50.90722685]]]}},{"type":"Feature","id":"gebouw/Gebouw.31844701/0","properties":{"source":"Digitaal Vlaanderen Gebouwenregister","source_id":"gebouw/Gebouw.31844701/0","kind":"building","building":"official","height_m":5.85,"status":null},"geometry":{"type":"Polygon","coordinates":[[[3.93640074,50.90208989],[3.93642939,50.90205898],[3.93638146,50.90204121],[3.9363795,50.90204333],[3.93635714,50.90203504],[3.93633045,50.90206382],[3.93640074,50.90208989]]]}},{"type":"Feature","id":"gebouw/Gebouw.31844886/0","properties":{"source":"Digitaal Vlaanderen Gebouwenregister","source_id":"gebouw/Gebouw.31844886/0","kind":"building","building":"official","height_m":5.1,"status":null},"geometry":{"type":"Polygon","coordinates":[[[3.93768805,50.90825285],[3.93766225,50.90830512],[3.93773054,50.90831787],[3.93775604,50.90826627],[3.93768805,50.90825285]]]}},{"type":"Feature","id":"gebouw/Gebouw.31844905/0","properties":{"source":"Digitaal Vlaanderen Gebouwenregister","source_id":"gebouw/Gebouw.31844905/0","kind":"building","building":"official","height_m":5.85,"status":null},"geometry":{"type":"Polygon","coordinates":[[[3.94064339,50.90636212],[3.94073818,50.90629213],[3.94068775,50.90626483],[3.94059297,50.90633482],[3.94064339,50.90636212]]]}},{"type":"Feature","id":"gebouw/Gebouw.31845021/0","properties":{"source":"Digitaal Vlaanderen Gebouwenregister","source_id":"gebouw/Gebouw.31845021/0","kind":"building","building":"official","height_m":7.35,"status":null},"geometry":{"type":"Polygon","coordinates":[[[3.93966903,50.90394703],[3.93972873,50.90401083],[3.93975924,50.90399941],[3.93969955,50.90393561],[3.93966903,50.90394703]]]}},{"type":"Feature","id":"gebouw/Gebouw.31845038/0","properties":{"source":"Digitaal Vlaanderen Gebouwenregister","source_id":"gebouw/Gebouw.31845038/0","kind":"building","building":"official","height_m":6.6,"status":null},"geometry":{"type":"Polygon","coordinates":[[[3.93738805,50.90702038],[3.93713883,50.90695902],[3.93709575,50.90702898],[3.93709862,50.90702968],[3.93707743,50.90706408],[3.93732717,50.90711953],[3.93738805,50.90702038]]]}},{"type":"Feature","id":"gebouw/Gebouw.31845121/0","properties":{"source":"Digitaal Vlaanderen Gebouwenregister","source_id":"gebouw/Gebouw.31845121/0","kind":"building","building":"official","height_m":5.85,"status":null},"geometry":{"type":"Polygon","coordinates":[[[3.93952003,50.90397478],[3.93956185,50.90394838],[3.93948495,50.90389967],[3.93944313,50.90392607],[3.93952003,50.90397478]]]}},{"type":"Feature","id":"gebouw/Gebouw.31845135/0","properties":{"source":"Digitaal Vlaanderen Gebouwenregister","source_id":"gebouw/Gebouw.31845135/0","kind":"building","building":"official","height_m":7.35,"status":null},"geometry":{"type":"Polygon","coordinates":[[[3.93843794,50.90753873],[3.93850007,50.90755065],[3.93851414,50.90752134],[3.9384946,50.90751759],[3.93849333,50.90752024],[3.93845296,50.90751249],[3.93844655,50.90752583],[3.93841866,50.90752048],[3.93840763,50.90754344],[3.93843331,50.90754837],[3.93843794,50.90753873]]]}},{"type":"Feature","id":"gebouw/Gebouw.31845327/0","properties":{"source":"Digitaal Vlaanderen Gebouwenregister","source_id":"gebouw/Gebouw.31845327/0","kind":"building","building":"official","height_m":7.35,"status":null},"geometry":{"type":"Polygon","coordinates":[[[3.93705208,50.90682098],[3.93699623,50.90680744],[3.93695252,50.90687955],[3.93700837,50.90689309],[3.93705208,50.90682098]]]}},{"type":"Feature","id":"gebouw/Gebouw.31845394/0","properties":{"source":"Digitaal Vlaanderen Gebouwenregister","source_id":"gebouw/Gebouw.31845394/0","kind":"building","building":"official","height_m":8.1,"status":null},"geometry":{"type":"Polygon","coordinates":[[[3.93903876,50.90746627],[3.93908922,50.90747957],[3.93911089,50.90744672],[3.9390999,50.90744382],[3.9391151,50.90742078],[3.93907563,50.90741037],[3.93903876,50.90746627]]]}},{"type":"Feature","id":"gebouw/Gebouw.31845410/0","properties":{"source":"Digitaal Vlaanderen Gebouwenregister","source_id":"gebouw/Gebouw.31845410/0","kind":"building","building":"official","height_m":6.6,"status":null},"geometry":{"type":"Polygon","coordinates":[[[3.93817748,50.90750739],[3.93823529,50.90752012],[3.93823736,50.90751636],[3.93825158,50.9075195],[3.93825794,50.90750797],[3.93824034,50.90750409],[3.9382434,50.90749854],[3.93818897,50.90748655],[3.93817748,50.90750739]]]}},{"type":"Feature","id":"way/163410547","properties":{"source":"OpenStreetMap","source_id":"way/163410547","kind":"vegetation","landuse":"forest","natural":null,"name":null},"geometry":{"type":"Polygon","coordinates":[[[3.9342518,50.9067973],[3.9354328,50.9069219],[3.9362447,50.9070699],[3.9366243,50.907163],[3.9366322,50.9071397],[3.936105,50.9069901],[3.9354539,50.9068105],[3.93493,50.9066691],[3.9343098,50.9065612],[3.9342518,50.9067973]]]}},{"type":"Feature","id":"way/457976735","properties":{"source":"OpenStreetMap","source_id":"way/457976735","kind":"waterway","waterway":"stream","name":null},"geometry":{"type":"LineString","coordinates":[[3.9395977,50.9016464],[3.9398843,50.9017845],[3.9400432,50.9016742],[3.9402424,50.9017697],[3.9399834,50.9019841],[3.9400293,50.9020049],[3.9403898,50.9021684],[3.9405944,50.902283],[3.9408566,50.9024746],[3.9412674,50.9028197],[3.9416281,50.9030872],[3.942123,50.9034263],[3.9427073,50.9038327],[3.9431927,50.9041636]]}},{"type":"Feature","id":"way/458941567","properties":{"source":"OpenStreetMap","source_id":"way/458941567","kind":"vegetation","landuse":"orchard","natural":null,"name":null},"geometry":{"type":"Polygon","coordinates":[[[3.9408373,50.9042163],[3.9415079,50.9049156],[3.9407797,50.9053902],[3.9399254,50.9045132],[3.9406777,50.9040464],[3.9408373,50.9042163]]]}},{"type":"Feature","id":"way/793429570","properties":{"source":"OpenStreetMap","source_id":"way/793429570","kind":"waterway","waterway":"ditch","name":null},"geometry":{"type":"LineString","coordinates":[[3.9394087,50.9054093],[3.9391103,50.9057383]]}},{"type":"Feature","id":"way/793429571","properties":{"source":"OpenStreetMap","source_id":"way/793429571","kind":"waterway","waterway":"ditch","name":null},"geometry":{"type":"LineString","coordinates":[[3.9396702,50.9051324],[3.9394469,50.9053687]]}},{"type":"Feature","id":"way/793429572","properties":{"source":"OpenStreetMap","source_id":"way/793429572","kind":"waterway","waterway":"ditch","name":null},"geometry":{"type":"LineString","coordinates":[[3.9378034,50.9067376],[3.9381071,50.9068329]]}},{"type":"Feature","id":"way/793429573","properties":{"source":"OpenStreetMap","source_id":"way/793429573","kind":"waterway","waterway":"ditch","name":null},"geometry":{"type":"LineString","coordinates":[[3.9385926,50.9065628],[3.9385644,50.9067206],[3.9385584,50.9068123]]}},{"type":"Feature","id":"way/793429574","properties":{"source":"OpenStreetMap","source_id":"way/793429574","kind":"waterway","waterway":"ditch","name":null},"geometry":{"type":"LineString","coordinates":[[3.9387857,50.9063379],[3.9387502,50.9064597]]}},{"type":"Feature","id":"way/793429575","properties":{"source":"OpenStreetMap","source_id":"way/793429575","kind":"waterway","waterway":"ditch","name":null},"geometry":{"type":"LineString","coordinates":[[3.9390948,50.905559],[3.9390332,50.9056186],[3.9389721,50.9056901],[3.9388709,50.9058203],[3.93884,50.9058656],[3.9387897,50.905951],[3.9387193,50.9060808],[3.9386556,50.9062622],[3.9386134,50.9064263],[3.9386013,50.906513]]}},{"type":"Feature","id":"way/793429579","properties":{"source":"OpenStreetMap","source_id":"way/793429579","kind":"waterway","waterway":"ditch","name":null},"geometry":{"type":"LineString","coordinates":[[3.938773,50.9081476],[3.9387455,50.9079895],[3.9387374,50.9078905]]}},{"type":"Feature","id":"way/794453756","properties":{"source":"OpenStreetMap","source_id":"way/794453756","kind":"waterway","waterway":"stream","name":null},"geometry":{"type":"LineString","coordinates":[[3.9385356,50.9027165],[3.9392437,50.9020752],[3.9393258,50.9020331],[3.9400293,50.9020049]]}}]}