{"type":"FeatureCollection","features":[{"type":"Feature","id":"gebouw/Gebouw.12854332/0","properties":{"source":"Digitaal Vlaanderen Gebouwenregister","source_id":"gebouw/Gebouw.12854332/0","kind":"building","building":"official","height_m":8.1,"status":null},"geometry":{"type":"Polygon","coordinates":[[[3.9300919,50.93238669],[3.93018935,50.93226515],[3.93023733,50.93228058],[3.93025861,50.93225414],[3.93035035,50.93228442],[3.93032027,50.93232129],[3.93031039,50.93231819],[3.93026929,50.93237018],[3.93024437,50.93236246],[3.93019943,50.93241784],[3.9300919,50.93238669]]]}},{"type":"Feature","id":"gebouw/Gebouw.12854351/0","properties":{"source":"Digitaal Vlaanderen Gebouwenregister","source_id":"gebouw/Gebouw.12854351/0","kind":"building","building":"official","height_m":8.85,"status":null},"geometry":{"type":"Polygon","coordinates":[[[3.93008871,50.93144584],[3.93005963,50.93143783],[3.93005482,50.9314446],[3.92992384,50.93140486],[3.92994469,50.93137771],[3.92991614,50.93136895],[3.92993913,50.93133902],[3.93003314,50.93136786],[3.93002836,50.93137388],[3.93012264,50.93140315],[3.93008871,50.93144584]]]}},{"type":"Feature","id":"gebouw/Gebouw.12862523/0","properties":{"source":"Digitaal Vlaanderen Gebouwenregister","source_id":"gebouw/Gebouw.12862523/0","kind":"building","building":"official","height_m":8.85,"status":null},"geometry":{"type":"Polygon","coordinates":[[[3.92961346,50.93485208],[3.92949961,50.93479846],[3.92950631,50.93479231],[3.92946078,50.93477041],[3.92934119,50.93472381],[3.92935052,50.93471587],[3.92924252,50.93468042],[3.92927393,50.93464022],[3.92933922,50.93466037],[3.92948664,50.93450787],[3.92951874,50.93452015],[3.92952349,50.93452211],[3.92956104,50.93448944],[3.92967015,50.93453722],[3.92964286,50.9345642],[3.92974061,50.93460368],[3.92973439,50.93460922],[3.92979038,50.93463251],[3.92970324,50.93471977],[3.92961783,50.93468543],[3.92964295,50.9346631],[3.92948802,50.93460108],[3.92941714,50.93467842],[3.92952271,50.93471705],[3.92956374,50.93474433],[3.92959122,50.93471727],[3.92970781,50.9347696],[3.92961346,50.93485208]]]}},{"type":"Feature","id":"gebouw/Gebouw.12865979/0","properties":{"source":"Digitaal Vlaanderen Gebouwenregister","source_id":"gebouw/Gebouw.12865979/0","kind":"building","building":"official","height_m":8.85,"status":null},"geometry":{"type":"Polygon","coordinates":[[[3.92988857,50.93260558],[3.92978317,50.9325634],[3.92966668,50.93267834],[3.92966969,50.93267961],[3.92977063,50.93272027],[3.92981245,50.93267959],[3.92985234,50.93269681],[3.92989933,50.93264937],[3.92985961,50.93263388],[3.92988857,50.93260558]]]}},{"type":"Feature","id":"gebouw/Gebouw.12893813/0","properties":{"source":"Digitaal Vlaanderen Gebouwenregister","source_id":"gebouw/Gebouw.12893813/0","kind":"building","building":"official","height_m":8.85,"status":null},"geometry":{"type":"Polygon","coordinates":[[[3.93017953,50.93472422],[3.93017699,50.93472829],[3.93026309,50.93474971],[3.9302721,50.93473526],[3.93025009,50.93472979],[3.9302548,50.93472136],[3.93021146,50.93471058],[3.930208,50.93471613],[3.93018972,50.93471158],[3.93019353,50.93470527],[3.93010827,50.93468431],[3.93009602,50.93470292],[3.93017953,50.93472422]]]}},{"type":"Feature","id":"gebouw/Gebouw.12909975/0","properties":{"source":"Digitaal Vlaanderen Gebouwenregister","source_id":"gebouw/Gebouw.12909975/0","kind":"building","building":"official","height_m":7.35,"status":null},"geometry":{"type":"Polygon","coordinates":[[[3.9283332,50.9350399],[3.92838361,50.93506001],[3.92837994,50.93506358],[3.92840296,50.93507302],[3.92837266,50.93510252],[3.92829971,50.93507259],[3.9283332,50.9350399]]]}},{"type":"Feature","id":"gebouw/Gebouw.12915285/0","properties":{"source":"Digitaal Vlaanderen Gebouwenregister","source_id":"gebouw/Gebouw.12915285/0","kind":"building","building":"official","height_m":7.35,"status":null},"geometry":{"type":"Polygon","coordinates":[[[3.93042922,50.93187524],[3.9305941,50.93192736],[3.93056155,50.93196754],[3.93054153,50.93196216],[3.93047894,50.93204095],[3.9304557,50.93203379],[3.9303916,50.93201405],[3.9303447,50.93199946],[3.93040683,50.93191971],[3.93039683,50.93191649],[3.93042922,50.93187524]]]}},{"type":"Feature","id":"gebouw/Gebouw.12933949/0","properties":{"source":"Digitaal Vlaanderen Gebouwenregister","source_id":"gebouw/Gebouw.12933949/0","kind":"building","building":"official","height_m":5.85,"status":null},"geometry":{"type":"Polygon","coordinates":[[[3.92942161,50.93254544],[3.92947954,50.93256246],[3.92945574,50.93259217],[3.92939834,50.93257521],[3.92933318,50.93255595],[3.92935478,50.9325258],[3.92942161,50.93254544]]]}},{"type":"Feature","id":"gebouw/Gebouw.12961024/0","properties":{"source":"Digitaal Vlaanderen Gebouwenregister","source_id":"gebouw/Gebouw.12961024/0","kind":"building","building":"official","height_m":8.1,"status":null},"geometry":{"type":"Polygon","coordinates":[[[3.92918679,50.93534754],[3.92924726,50.93529088],[3.92931118,50.93531452],[3.9294839,50.9351352],[3.92932061,50.9350666],[3.92936581,50.93502048],[3.92921772,50.93496252],[3.92916749,50.93501375],[3.92912415,50.93499529],[3.92909018,50.93502758],[3.92908285,50.93502423],[3.9289548,50.93515374],[3.92902624,50.93518433],[3.92905428,50.93515851],[3.92908328,50.93517108],[3.9291214,50.93513597],[3.92909241,50.9351234],[3.92915413,50.93506655],[3.92934813,50.93514756],[3.92932209,50.93517388],[3.9293351,50.93517906],[3.92923746,50.9352767],[3.9290712,50.93520261],[3.92900779,50.93526406],[3.92905869,50.93528553],[3.92905087,50.93529284],[3.92912749,50.93532552],[3.92913016,50.93532301],[3.92913112,50.93532342],[3.92918679,50.93534754]]]}},{"type":"Feature","id":"gebouw/Gebouw.12971431/0","properties":{"source":"Digitaal Vlaanderen Gebouwenregister","source_id":"gebouw/Gebouw.12971431/0","kind":"building","building":"official","height_m":5.85,"status":null},"geometry":{"type":"Polygon","coordinates":[[[3.92921169,50.93162712],[3.92919406,50.93164743],[3.92917867,50.93166517],[3.92913369,50.93165034],[3.92914748,50.93163379],[3.92916628,50.93161123],[3.92921169,50.93162712]]]}},{"type":"Feature","id":"gebouw/Gebouw.13001557/0","properties":{"source":"Digitaal Vlaanderen Gebouwenregister","source_id":"gebouw/Gebouw.13001557/0","kind":"building","building":"official","height_m":5.85,"status":null},"geometry":{"type":"Polygon","coordinates":[[[3.93048165,50.93180549],[3.93055506,50.93170947],[3.93072284,50.93176352],[3.93069694,50.9317966],[3.93067823,50.93179132],[3.93063245,50.93185256],[3.93048165,50.93180549]]]}},{"type":"Feature","id":"gebouw/Gebouw.13008712/0","properties":{"source":"Digitaal Vlaanderen Gebouwenregister","source_id":"gebouw/Gebouw.13008712/0","kind":"building","building":"official","height_m":8.1,"status":null},"geometry":{"type":"Polygon","coordinates":[[[3.92969514,50.93248092],[3.92965842,50.93252507],[3.92965693,50.93252686],[3.92965248,50.93252547],[3.92965212,50.93252535],[3.92965191,50.93252528],[3.92964907,50.93252436],[3.92961119,50.93251192],[3.92956894,50.93249804],[3.92956607,50.9324971],[3.92960642,50.93245151],[3.92969514,50.93248092]]]}},{"type":"Feature","id":"gebouw/Gebouw.13046146/0","properties":{"source":"Digitaal Vlaanderen Gebouwenregister","source_id":"gebouw/Gebouw.13046146/0","kind":"building","building":"official","height_m":8.1,"status":null},"geometry":{"type":"Polygon","coordinates":[[[3.9306661,50.93483608],[3.93064202,50.93489265],[3.93044507,50.93485623],[3.93047298,50.93479009],[3.93054555,50.93480222],[3.93054193,50.93481123],[3.93066714,50.93483364],[3.9306661,50.93483608]]]}},{"type":"Feature","id":"gebouw/Gebouw.13048757/0","properties":{"source":"Digitaal Vlaanderen Gebouwenregister","source_id":"gebouw/Gebouw.13048757/0","kind":"building","building":"official","height_m":8.85,"status":null},"geometry":{"type":"Polygon","coordinates":[[[3.93009099,50.93313638],[3.93001762,50.93311531],[3.93001322,50.93312074],[3.92995909,50.93310746],[3.93003778,50.93301073],[3.93009416,50.93302763],[3.93021934,50.93306514],[3.93021296,50.93307476],[3.930191,50.93310785],[3.93018367,50.93310578],[3.9301251,50.93308896],[3.93009099,50.93313638]]]}},{"type":"Feature","id":"gebouw/Gebouw.13099489/0","properties":{"source":"Digitaal Vlaanderen Gebouwenregister","source_id":"gebouw/Gebouw.13099489/0","kind":"building","building":"official","height_m":5.85,"status":null},"geometry":{"type":"Polygon","coordinates":[[[3.92933318,50.93255595],[3.92939834,50.93257521],[3.92945574,50.93259217],[3.9295443,50.93261834],[3.9294482,50.93273782],[3.9293057,50.93269373],[3.92936981,50.93261171],[3.9291842,50.93255556],[3.92921022,50.93251962],[3.92933318,50.93255595]]]}},{"type":"Feature","id":"gebouw/Gebouw.13138282/0","properties":{"source":"Digitaal Vlaanderen Gebouwenregister","source_id":"gebouw/Gebouw.13138282/0","kind":"building","building":"official","height_m":8.1,"status":null},"geometry":{"type":"Polygon","coordinates":[[[3.92964547,50.93301456],[3.92963644,50.93302386],[3.92958575,50.93300359],[3.92961704,50.93296966],[3.92963233,50.93295309],[3.92963356,50.93295175],[3.92964901,50.932935],[3.92966436,50.93294031],[3.92968601,50.9329153],[3.92968049,50.93291341],[3.92972203,50.93287121],[3.92971066,50.93286818],[3.92976186,50.93281266],[3.92979839,50.93282757],[3.92984037,50.93278584],[3.92985998,50.93279358],[3.92978488,50.93287095],[3.92964547,50.93301456]]]}},{"type":"Feature","id":"gebouw/Gebouw.13156182/0","properties":{"source":"Digitaal Vlaanderen Gebouwenregister","source_id":"gebouw/Gebouw.13156182/0","kind":"building","building":"official","height_m":5.1,"status":null},"geometry":{"type":"Polygon","coordinates":[[[3.92995732,50.93256757],[3.92995572,50.93256956],[3.92984206,50.93253292],[3.92991675,50.93244197],[3.92996884,50.93245905],[3.92997891,50.9324472],[3.93004053,50.93246848],[3.93001385,50.93250216],[3.93004323,50.93251146],[3.93001376,50.93254723],[3.93005667,50.93256037],[3.93003042,50.93259018],[3.93008327,50.93260777],[3.93005547,50.93264334],[3.92994639,50.9326078],[3.92997462,50.93257312],[3.92995732,50.93256757]]]}},{"type":"Feature","id":"gebouw/Gebouw.13164867/0","properties":{"source":"Digitaal Vlaanderen Gebouwenregister","source_id":"gebouw/Gebouw.13164867/0","kind":"building","building":"official","height_m":7.35,"status":null},"geometry":{"type":"Polygon","coordinates":[[[3.92968097,50.93187526],[3.92966726,50.93189576],[3.92960427,50.93187892],[3.92961812,50.93185822],[3.92968097,50.93187526]]]}},{"type":"Feature","id":"gebouw/Gebouw.13222815/0","properties":{"source":"Digitaal Vlaanderen Gebouwenregister","source_id":"gebouw/Gebouw.13222815/0","kind":"building","building":"official","height_m":7.35,"status":null},"geometry":{"type":"Polygon","coordinates":[[[3.93032135,50.93517744],[3.93034097,50.93513902],[3.93034232,50.93513915],[3.93037185,50.93508217],[3.93051241,50.9351116],[3.9305121,50.93511371],[3.93054982,50.93512135],[3.93053078,50.93516053],[3.93049111,50.93515202],[3.93048389,50.93516628],[3.93056013,50.935183],[3.93052119,50.93525968],[3.93043755,50.93524517],[3.93045772,50.93520439],[3.93032135,50.93517744]]]}},{"type":"Feature","id":"gebouw/Gebouw.13231668/0","properties":{"source":"Digitaal Vlaanderen Gebouwenregister","source_id":"gebouw/Gebouw.13231668/0","kind":"building","building":"official","height_m":5.1,"status":null},"geometry":{"type":"Polygon","coordinates":[[[3.93010884,50.93170374],[3.9301048,50.9317091],[3.93004854,50.93169326],[3.93005322,50.93168723],[3.93007346,50.9316611],[3.93006134,50.93165773],[3.93009823,50.93160673],[3.93022404,50.93164503],[3.93018748,50.9316926],[3.93012958,50.9316762],[3.93010884,50.93170374]]]}},{"type":"Feature","id":"gebouw/Gebouw.13237709/0","properties":{"source":"Digitaal Vlaanderen Gebouwenregister","source_id":"gebouw/Gebouw.13237709/0","kind":"building","building":"official","height_m":8.85,"status":null},"geometry":{"type":"Polygon","coordinates":[[[3.92969627,50.93247956],[3.92969514,50.93248092],[3.92960642,50.93245151],[3.92965664,50.93238765],[3.9297479,50.93241762],[3.9297469,50.93241883],[3.92969627,50.93247956]]]}},{"type":"Feature","id":"gebouw/Gebouw.13272814/0","properties":{"source":"Digitaal Vlaanderen Gebouwenregister","source_id":"gebouw/Gebouw.13272814/0","kind":"building","building":"official","height_m":8.1,"status":null},"geometry":{"type":"Polygon","coordinates":[[[3.92994071,50.93119759],[3.92984248,50.93116727],[3.92985656,50.93115002],[3.92995329,50.93117947],[3.92994071,50.93119759]]]}},{"type":"Feature","id":"gebouw/Gebouw.13295761/0","properties":{"source":"Digitaal Vlaanderen Gebouwenregister","source_id":"gebouw/Gebouw.13295761/0","kind":"building","building":"official","height_m":5.85,"status":null},"geometry":{"type":"Polygon","coordinates":[[[3.92960216,50.9324198],[3.92958262,50.93244191],[3.92958145,50.93244324],[3.92958112,50.93244361],[3.92954111,50.93248891],[3.92953989,50.93248851],[3.92948932,50.9324719],[3.92948117,50.93246922],[3.92951688,50.93242355],[3.92951795,50.93242219],[3.9295196,50.93242006],[3.92953684,50.93239801],[3.92960216,50.9324198]]]}},{"type":"Feature","id":"gebouw/Gebouw.13302753/0","properties":{"source":"Digitaal Vlaanderen Gebouwenregister","source_id":"gebouw/Gebouw.13302753/0","kind":"building","building":"official","height_m":7.35,"status":null},"geometry":{"type":"Polygon","coordinates":[[[3.93064823,50.93113704],[3.93048591,50.93108632],[3.93050304,50.93106381],[3.93040883,50.93103411],[3.93045475,50.93097546],[3.93070952,50.93105511],[3.93064823,50.93113704]]]}},{"type":"Feature","id":"gebouw/Gebouw.13308310/0","properties":{"source":"Digitaal Vlaanderen Gebouwenregister","source_id":"gebouw/Gebouw.13308310/0","kind":"building","building":"official","height_m":8.1,"status":null},"geometry":{"type":"Polygon","coordinates":[[[3.93024205,50.93474417],[3.93018529,50.93473005],[3.93019875,50.93470754],[3.9302548,50.93472136],[3.93024205,50.93474417]]]}},{"type":"Feature","id":"gebouw/Gebouw.13318524/0","properties":{"source":"Digitaal Vlaanderen Gebouwenregister","source_id":"gebouw/Gebouw.13318524/0","kind":"building","building":"official","height_m":5.1,"status":null},"geometry":{"type":"Polygon","coordinates":[[[3.92662052,50.93415196],[3.9265849,50.93413252],[3.92661748,50.93410868],[3.9266531,50.93412813],[3.92662052,50.93415196]]]}},{"type":"Feature","id":"gebouw/Gebouw.13321279/0","properties":{"source":"Digitaal Vlaanderen Gebouwenregister","source_id":"gebouw/Gebouw.13321279/0","kind":"building","building":"official","height_m":5.85,"status":null},"geometry":{"type":"Polygon","coordinates":[[[3.9285091,50.93520065],[3.92837648,50.93514837],[3.92852975,50.93498985],[3.92866701,50.93504365],[3.9285091,50.93520065]]]}},{"type":"Feature","id":"gebouw/Gebouw.13332398/0","properties":{"source":"Digitaal Vlaanderen Gebouwenregister","source_id":"gebouw/Gebouw.13332398/0","kind":"building","building":"official","height_m":6.6,"status":null},"geometry":{"type":"Polygon","coordinates":[[[3.92943553,50.93280356],[3.92939875,50.93285171],[3.92928691,50.93281515],[3.92932833,50.93276151],[3.92930891,50.932756],[3.92925353,50.93282753],[3.92921352,50.93281442],[3.92930449,50.9326958],[3.92930454,50.93269582],[3.92930745,50.93269667],[3.9294482,50.93273782],[3.92947857,50.93274722],[3.92947854,50.93274727],[3.92943553,50.93280356]]]}},{"type":"Feature","id":"gebouw/Gebouw.13348242/0","properties":{"source":"Digitaal Vlaanderen Gebouwenregister","source_id":"gebouw/Gebouw.13348242/0","kind":"building","building":"official","height_m":5.1,"status":null},"geometry":{"type":"Polygon","coordinates":[[[3.93035983,50.93474583],[3.93034162,50.93477128],[3.93026603,50.9347501],[3.93027734,50.93473029],[3.9302714,50.93472907],[3.93027936,50.93471105],[3.9302568,50.93470618],[3.93030539,50.93458351],[3.93041353,50.93459941],[3.93035983,50.93474583]]]}},{"type":"Feature","id":"gebouw/Gebouw.13359039/0","properties":{"source":"Digitaal Vlaanderen Gebouwenregister","source_id":"gebouw/Gebouw.13359039/0","kind":"building","building":"official","height_m":7.35,"status":null},"geometry":{"type":"Polygon","coordinates":[[[3.93018816,50.93124548],[3.93015574,50.93123588],[3.93015563,50.93123585],[3.93011935,50.93122511],[3.92995588,50.93117672],[3.92995531,50.93117655],[3.92994071,50.93119759],[3.92992365,50.9312222],[3.92991782,50.93123061],[3.92996248,50.9312446],[3.92995956,50.93124899],[3.92998599,50.93125748],[3.9299886,50.93125489],[3.93014654,50.93129922],[3.93018754,50.93125079],[3.93018816,50.93124548]]]}},{"type":"Feature","id":"gebouw/Gebouw.13365943/0","properties":{"source":"Digitaal Vlaanderen Gebouwenregister","source_id":"gebouw/Gebouw.13365943/0","kind":"building","building":"official","height_m":5.85,"status":null},"geometry":{"type":"Polygon","coordinates":[[[3.9302772,50.93107067],[3.93027748,50.93107075],[3.93025054,50.93110728],[3.93017753,50.93120632],[3.93015518,50.93123664],[3.93015259,50.93124015],[3.92995329,50.93117947],[3.92985656,50.93115002],[3.92964254,50.93108543],[3.92951465,50.93104684],[3.92945427,50.9311298],[3.92927883,50.93107976],[3.92934139,50.93099533],[3.92946002,50.93083524],[3.92946646,50.93083706],[3.92954963,50.93072279],[3.92968819,50.93076306],[3.929681,50.93077294],[3.92972708,50.93078617],[3.92965266,50.93088973],[3.9302772,50.93107067]]]}},{"type":"Feature","id":"gebouw/Gebouw.13395529/0","properties":{"source":"Digitaal Vlaanderen Gebouwenregister","source_id":"gebouw/Gebouw.13395529/0","kind":"building","building":"official","height_m":5.85,"status":null},"geometry":{"type":"Polygon","coordinates":[[[3.930265,50.93430672],[3.93023032,50.93434593],[3.92990307,50.93423129],[3.92992846,50.9342031],[3.92999823,50.93422807],[3.93002794,50.93419463],[3.92995698,50.93416875],[3.92998548,50.93413876],[3.93005288,50.93416313],[3.93004761,50.93416853],[3.9301238,50.93419472],[3.93010208,50.93421816],[3.9300947,50.93422613],[3.9302067,50.93426757],[3.93019389,50.93428339],[3.930265,50.93430672]]]}},{"type":"Feature","id":"gebouw/Gebouw.13407723/0","properties":{"source":"Digitaal Vlaanderen Gebouwenregister","source_id":"gebouw/Gebouw.13407723/0","kind":"building","building":"official","height_m":7.35,"status":null},"geometry":{"type":"Polygon","coordinates":[[[3.92925765,50.93481435],[3.92916241,50.93476724],[3.92919339,50.93474471],[3.92928724,50.93478985],[3.92925765,50.93481435]]]}},{"type":"Feature","id":"gebouw/Gebouw.13411277/0","properties":{"source":"Digitaal Vlaanderen Gebouwenregister","source_id":"gebouw/Gebouw.13411277/0","kind":"building","building":"official","height_m":8.85,"status":null},"geometry":{"type":"Polygon","coordinates":[[[3.92993458,50.93417218],[3.92989851,50.93415916],[3.92992652,50.93413022],[3.9299614,50.93414324],[3.92993458,50.93417218]]]}},{"type":"Feature","id":"gebouw/Gebouw.13430754/0","properties":{"source":"Digitaal Vlaanderen Gebouwenregister","source_id":"gebouw/Gebouw.13430754/0","kind":"building","building":"official","height_m":5.1,"status":null},"geometry":{"type":"Polygon","coordinates":[[[3.92877585,50.93305103],[3.92874465,50.93303634],[3.92879216,50.93299604],[3.92882337,50.93301073],[3.92877585,50.93305103]]]}},{"type":"Feature","id":"gebouw/Gebouw.13434939/0","properties":{"source":"Digitaal Vlaanderen Gebouwenregister","source_id":"gebouw/Gebouw.13434939/0","kind":"building","building":"official","height_m":7.35,"status":null},"geometry":{"type":"Polygon","coordinates":[[[3.93015655,50.93442274],[3.93003295,50.93437914],[3.93004341,50.9343673],[3.9299925,50.93434934],[3.92998205,50.93436118],[3.93000135,50.93436799],[3.92992275,50.93445917],[3.92999984,50.93448809],[3.93002724,50.93445894],[3.9301019,50.93448507],[3.93015655,50.93442274]]]}},{"type":"Feature","id":"gebouw/Gebouw.13453384/0","properties":{"source":"Digitaal Vlaanderen Gebouwenregister","source_id":"gebouw/Gebouw.13453384/0","kind":"building","building":"official","height_m":8.1,"status":null},"geometry":{"type":"Polygon","coordinates":[[[3.93066553,50.93416686],[3.9306094,50.93429716],[3.93049644,50.93427854],[3.93051465,50.93423514],[3.93048757,50.93423026],[3.93052571,50.93414258],[3.93066553,50.93416686]]]}},{"type":"Feature","id":"gebouw/Gebouw.13455896/0","properties":{"source":"Digitaal Vlaanderen Gebouwenregister","source_id":"gebouw/Gebouw.13455896/0","kind":"building","building":"official","height_m":6.6,"status":null},"geometry":{"type":"Polygon","coordinates":[[[3.92598045,50.93327089],[3.92592908,50.93321648],[3.92602024,50.93318212],[3.9260716,50.93323654],[3.92598045,50.93327089]]]}},{"type":"Feature","id":"gebouw/Gebouw.13470384/0","properties":{"source":"Digitaal Vlaanderen Gebouwenregister","source_id":"gebouw/Gebouw.13470384/0","kind":"building","building":"official","height_m":5.1,"status":null},"geometry":{"type":"Polygon","coordinates":[[[3.92983196,50.93130392],[3.92971337,50.93145449],[3.92974418,50.93146418],[3.92980916,50.93138168],[3.92981334,50.931383],[3.92983951,50.93135313],[3.92987464,50.9313641],[3.92990109,50.93133026],[3.92986934,50.93132035],[3.92987234,50.93131652],[3.92983196,50.93130392]]]}},{"type":"Feature","id":"gebouw/Gebouw.13474772/0","properties":{"source":"Digitaal Vlaanderen Gebouwenregister","source_id":"gebouw/Gebouw.13474772/0","kind":"building","building":"official","height_m":6.6,"status":null},"geometry":{"type":"Polygon","coordinates":[[[3.93024963,50.93245678],[3.93019396,50.93243921],[3.93022042,50.93240573],[3.93026595,50.9324201],[3.93025545,50.93243339],[3.93026559,50.93243659],[3.93024963,50.93245678]]]}},{"type":"Feature","id":"gebouw/Gebouw.13475082/0","properties":{"source":"Digitaal Vlaanderen Gebouwenregister","source_id":"gebouw/Gebouw.13475082/0","kind":"building","building":"official","height_m":5.1,"status":null},"geometry":{"type":"Polygon","coordinates":[[[3.92965191,50.93252528],[3.92960264,50.93258798],[3.9294991,50.9325554],[3.92951803,50.93253261],[3.92944965,50.93250956],[3.92948117,50.93246922],[3.92948932,50.9324719],[3.92953989,50.93248851],[3.92954111,50.93248891],[3.92956225,50.93249585],[3.92956607,50.9324971],[3.92956894,50.93249804],[3.92961119,50.93251192],[3.92964907,50.93252436],[3.92965191,50.93252528]]]}},{"type":"Feature","id":"gebouw/Gebouw.13479510/0","properties":{"source":"Digitaal Vlaanderen Gebouwenregister","source_id":"gebouw/Gebouw.13479510/0","kind":"building","building":"official","height_m":5.1,"status":null},"geometry":{"type":"Polygon","coordinates":[[[3.93043407,50.9314702],[3.93012018,50.93137409],[3.93016568,50.93131475],[3.93015961,50.93131289],[3.93017116,50.93129782],[3.93048982,50.93139678],[3.93043407,50.9314702]]]}},{"type":"Feature","id":"gebouw/Gebouw.13483327/0","properties":{"source":"Digitaal Vlaanderen Gebouwenregister","source_id":"gebouw/Gebouw.13483327/0","kind":"building","building":"official","height_m":5.85,"status":null},"geometry":{"type":"Polygon","coordinates":[[[3.93027447,50.93159932],[3.93009168,50.93154269],[3.93011949,50.93150681],[3.93007378,50.93149212],[3.93010866,50.93144809],[3.93033814,50.9315186],[3.93027447,50.93159932]]]}},{"type":"Feature","id":"gebouw/Gebouw.13487144/0","properties":{"source":"Digitaal Vlaanderen Gebouwenregister","source_id":"gebouw/Gebouw.13487144/0","kind":"building","building":"official","height_m":6.6,"status":null},"geometry":{"type":"Polygon","coordinates":[[[3.93058996,50.931211],[3.93055902,50.93125199],[3.93054549,50.9312479],[3.93050248,50.93130382],[3.93035705,50.93125925],[3.93039908,50.93120503],[3.93032693,50.931182],[3.93035835,50.93114023],[3.93058996,50.931211]]]}},{"type":"Feature","id":"gebouw/Gebouw.13519524/0","properties":{"source":"Digitaal Vlaanderen Gebouwenregister","source_id":"gebouw/Gebouw.13519524/0","kind":"building","building":"official","height_m":5.1,"status":null},"geometry":{"type":"Polygon","coordinates":[[[3.9297961,50.93201277],[3.92969755,50.9319869],[3.9296998,50.93198348],[3.92963354,50.93196609],[3.92964573,50.93194754],[3.92971074,50.93196461],[3.92971184,50.93196293],[3.92981165,50.93198913],[3.9297961,50.93201277]]]}},{"type":"Feature","id":"gebouw/Gebouw.13522052/0","properties":{"source":"Digitaal Vlaanderen Gebouwenregister","source_id":"gebouw/Gebouw.13522052/0","kind":"building","building":"official","height_m":6.6,"status":null},"geometry":{"type":"Polygon","coordinates":[[[3.93006199,50.93201465],[3.93001194,50.9320805],[3.92998948,50.93207442],[3.92980225,50.9320237],[3.92980197,50.93202363],[3.92981677,50.93200093],[3.9298724,50.93201473],[3.92990351,50.93197093],[3.92984892,50.93195511],[3.9298695,50.93192639],[3.92999136,50.93195943],[3.92997037,50.93198746],[3.93006199,50.93201465]]]}},{"type":"Feature","id":"gebouw/Gebouw.13532996/0","properties":{"source":"Digitaal Vlaanderen Gebouwenregister","source_id":"gebouw/Gebouw.13532996/0","kind":"building","building":"official","height_m":6.6,"status":null},"geometry":{"type":"Polygon","coordinates":[[[3.93019915,50.93117647],[3.93024514,50.93119037],[3.93022404,50.93121825],[3.93025996,50.93122911],[3.93023641,50.93125977],[3.93023582,50.9312596],[3.93018816,50.93124548],[3.93015574,50.93123588],[3.93017864,50.93120453],[3.93019915,50.93117647]]]}},{"type":"Feature","id":"gebouw/Gebouw.13554153/0","properties":{"source":"Digitaal Vlaanderen Gebouwenregister","source_id":"gebouw/Gebouw.13554153/0","kind":"building","building":"official","height_m":7.35,"status":null},"geometry":{"type":"Polygon","coordinates":[[[3.92886558,50.93468531],[3.92881736,50.93466145],[3.92884115,50.93464414],[3.9288889,50.93466664],[3.92886558,50.93468531]]]}},{"type":"Feature","id":"gebouw/Gebouw.13554950/0","properties":{"source":"Digitaal Vlaanderen Gebouwenregister","source_id":"gebouw/Gebouw.13554950/0","kind":"building","building":"official","height_m":6.6,"status":null},"geometry":{"type":"Polygon","coordinates":[[[3.93053718,50.93491573],[3.93054659,50.93492562],[3.93062096,50.93493963],[3.93059808,50.93498407],[3.93061328,50.93498756],[3.93058842,50.93504371],[3.93043326,50.93501822],[3.9304513,50.93497509],[3.93045569,50.93497582],[3.93046459,50.93495451],[3.93044715,50.93495143],[3.9304639,50.93491184],[3.93052294,50.93492155],[3.93053718,50.93491573]]]}},{"type":"Feature","id":"gebouw/Gebouw.13564347/0","properties":{"source":"Digitaal Vlaanderen Gebouwenregister","source_id":"gebouw/Gebouw.13564347/0","kind":"building","building":"official","height_m":7.35,"status":null},"geometry":{"type":"Polygon","coordinates":[[[3.92888695,50.93484897],[3.92882805,50.93482386],[3.92887886,50.93477738],[3.92893612,50.93480083],[3.92888695,50.93484897]]]}},{"type":"Feature","id":"gebouw/Gebouw.13579813/0","properties":{"source":"Digitaal Vlaanderen Gebouwenregister","source_id":"gebouw/Gebouw.13579813/0","kind":"building","building":"official","height_m":5.85,"status":null},"geometry":{"type":"Polygon","coordinates":[[[3.92832866,50.93520208],[3.92823284,50.93514444],[3.92824971,50.93512815],[3.92835666,50.93517171],[3.92832866,50.93520208]]]}},{"type":"Feature","id":"gebouw/Gebouw.13588727/0","properties":{"source":"Digitaal Vlaanderen Gebouwenregister","source_id":"gebouw/Gebouw.13588727/0","kind":"building","building":"official","height_m":8.85,"status":null},"geometry":{"type":"Polygon","coordinates":[[[3.9302513,50.93479081],[3.9301856,50.9349],[3.93004033,50.93486437],[3.93010667,50.93475512],[3.9302513,50.93479081]]]}},{"type":"Feature","id":"gebouw/Gebouw.13603895/0","properties":{"source":"Digitaal Vlaanderen Gebouwenregister","source_id":"gebouw/Gebouw.13603895/0","kind":"building","building":"official","height_m":8.85,"status":null},"geometry":{"type":"Polygon","coordinates":[[[3.93001194,50.9320805],[3.93001189,50.93208056],[3.92993843,50.93217631],[3.92982847,50.93214458],[3.92986556,50.93209345],[3.92976124,50.93206529],[3.92976792,50.93205645],[3.92973553,50.932048],[3.9297594,50.9320121],[3.92980197,50.93202363],[3.92980225,50.9320237],[3.92998948,50.93207442],[3.93001194,50.9320805]]]}},{"type":"Feature","id":"gebouw/Gebouw.13626831/0","properties":{"source":"Digitaal Vlaanderen Gebouwenregister","source_id":"gebouw/Gebouw.13626831/0","kind":"building","building":"official","height_m":7.35,"status":null},"geometry":{"type":"Polygon","coordinates":[[[3.93030653,50.9317371],[3.93021589,50.93185278],[3.93013142,50.93182639],[3.93005854,50.93180363],[3.9299794,50.93177891],[3.92998732,50.93176904],[3.92979509,50.93171593],[3.92982286,50.93167253],[3.9298617,50.93168334],[3.92986717,50.93167508],[3.9299154,50.9316892],[3.92991819,50.93168504],[3.9299875,50.93169891],[3.93002917,50.93171346],[3.9300314,50.93171131],[3.93011371,50.93173895],[3.93011825,50.93173293],[3.93021189,50.93176324],[3.93024437,50.93171733],[3.93030653,50.9317371]]]}},{"type":"Feature","id":"gebouw/Gebouw.13759318/0","properties":{"source":"Digitaal Vlaanderen Gebouwenregister","source_id":"gebouw/Gebouw.13759318/0","kind":"building","building":"official","height_m":8.1,"status":null},"geometry":{"type":"Polygon","coordinates":[[[3.93066634,50.93509195],[3.93065309,50.93512606],[3.93061104,50.93511754],[3.93062019,50.93509968],[3.93044153,50.93506586],[3.93044824,50.93505367],[3.93066634,50.93509195]]]}},{"type":"Feature","id":"gebouw/Gebouw.13773491/0","properties":{"source":"Digitaal Vlaanderen Gebouwenregister","source_id":"gebouw/Gebouw.13773491/0","kind":"building","building":"official","height_m":8.85,"status":null},"geometry":{"type":"Polygon","coordinates":[[[3.92971975,50.93282219],[3.92977218,50.93276987],[3.92973396,50.93275554],[3.92977063,50.93272027],[3.92966969,50.93267961],[3.92958591,50.93276485],[3.92960386,50.93277232],[3.92958212,50.93279447],[3.92966791,50.93282892],[3.92968918,50.93280987],[3.92971975,50.93282219]]]}},{"type":"Feature","id":"gebouw/Gebouw.13852630/0","properties":{"source":"Digitaal Vlaanderen Gebouwenregister","source_id":"gebouw/Gebouw.13852630/0","kind":"building","building":"official","height_m":8.1,"status":null},"geometry":{"type":"Polygon","coordinates":[[[3.9303514,50.93506733],[3.93036193,50.93504062],[3.93043119,50.9350516],[3.93041984,50.93507742],[3.9303514,50.93506733]]]}},{"type":"Feature","id":"gebouw/Gebouw.16651636/0","properties":{"source":"Digitaal Vlaanderen Gebouwenregister","source_id":"gebouw/Gebouw.16651636/0","kind":"building","building":"official","height_m":8.1,"status":null},"geometry":{"type":"Polygon","coordinates":[[[3.9303739,50.93445535],[3.93035249,50.93451281],[3.93044029,50.93452616],[3.93041353,50.93459941],[3.93030539,50.93458351],[3.93026887,50.93457814],[3.93031727,50.9344466],[3.93034478,50.93445084],[3.9303739,50.93445535]]]}},{"type":"Feature","id":"gebouw/Gebouw.16715841/0","properties":{"source":"Digitaal Vlaanderen Gebouwenregister","source_id":"gebouw/Gebouw.16715841/0","kind":"building","building":"official","height_m":7.35,"status":null},"geometry":{"type":"Polygon","coordinates":[[[3.92755488,50.93442921],[3.927533,50.93440575],[3.9276194,50.93437358],[3.92764138,50.93439761],[3.92755488,50.93442921]]]}},{"type":"Feature","id":"gebouw/Gebouw.16787935/0","properties":{"source":"Digitaal Vlaanderen Gebouwenregister","source_id":"gebouw/Gebouw.16787935/0","kind":"building","building":"official","height_m":5.85,"status":null},"geometry":{"type":"Polygon","coordinates":[[[3.92952271,50.93192946],[3.9294392,50.9319073],[3.92945181,50.93188833],[3.92953531,50.93191049],[3.92952271,50.93192946]]]}},{"type":"Feature","id":"gebouw/Gebouw.18861813/0","properties":{"source":"Digitaal Vlaanderen Gebouwenregister","source_id":"gebouw/Gebouw.18861813/0","kind":"building","building":"official","height_m":7.35,"status":null},"geometry":{"type":"Polygon","coordinates":[[[3.92939759,50.93191779],[3.92936989,50.9319597],[3.92932871,50.93194919],[3.92935737,50.93190695],[3.92939759,50.93191779]]]}},{"type":"Feature","id":"gebouw/Gebouw.18862311/0","properties":{"source":"Digitaal Vlaanderen Gebouwenregister","source_id":"gebouw/Gebouw.18862311/0","kind":"building","building":"official","height_m":7.35,"status":null},"geometry":{"type":"Polygon","coordinates":[[[3.92758844,50.93382212],[3.92763921,50.93378445],[3.92767993,50.93380561],[3.92762578,50.93384325],[3.92758844,50.93382212]]]}},{"type":"Feature","id":"gebouw/Gebouw.18862319/0","properties":{"source":"Digitaal Vlaanderen Gebouwenregister","source_id":"gebouw/Gebouw.18862319/0","kind":"building","building":"official","height_m":8.85,"status":null},"geometry":{"type":"Polygon","coordinates":[[[3.92901126,50.93278655],[3.92896287,50.93285123],[3.92893371,50.93284294],[3.92898384,50.93277892],[3.92901126,50.93278655]]]}},{"type":"Feature","id":"gebouw/Gebouw.19298612/0","properties":{"source":"Digitaal Vlaanderen Gebouwenregister","source_id":"gebouw/Gebouw.19298612/0","kind":"building","building":"official","height_m":6.6,"status":null},"geometry":{"type":"Polygon","coordinates":[[[3.92937764,50.93285818],[3.929355,50.93288868],[3.92931111,50.93287566],[3.92933375,50.93284517],[3.92937764,50.93285818]]]}},{"type":"Feature","id":"gebouw/Gebouw.19695280/0","properties":{"source":"Digitaal Vlaanderen Gebouwenregister","source_id":"gebouw/Gebouw.19695280/0","kind":"building","building":"official","height_m":8.1,"status":null},"geometry":{"type":"Polygon","coordinates":[[[3.9295443,50.93261834],[3.9294482,50.93273782],[3.92930745,50.93269667],[3.92930454,50.93269582],[3.92930449,50.9326958],[3.92931987,50.932676],[3.92936981,50.93261171],[3.92936882,50.93261141],[3.92939565,50.93257622],[3.92941465,50.93258161],[3.92945321,50.93259254],[3.9294544,50.93259287],[3.92954418,50.93261831],[3.9295443,50.93261834]],[[3.92935937,50.93267971],[3.9293788,50.93268541],[3.9294292,50.93261684],[3.92940977,50.93261114],[3.92935937,50.93267971]]]}},{"type":"Feature","id":"gebouw/Gebouw.19695281/0","properties":{"source":"Digitaal Vlaanderen Gebouwenregister","source_id":"gebouw/Gebouw.19695281/0","kind":"building","building":"official","height_m":8.85,"status":null},"geometry":{"type":"Polygon","coordinates":[[[3.92939565,50.93257622],[3.92936882,50.93261141],[3.9291842,50.93255556],[3.92920978,50.93252022],[3.92921023,50.93251962],[3.92933318,50.93255595],[3.92939565,50.93257622]]]}},{"type":"Feature","id":"gebouw/Gebouw.19695282/0","properties":{"source":"Digitaal Vlaanderen Gebouwenregister","source_id":"gebouw/Gebouw.19695282/0","kind":"building","building":"official","height_m":5.1,"status":null},"geometry":{"type":"Polygon","coordinates":[[[3.9294196,50.93254483],[3.92939678,50.93257475],[3.92939565,50.93257622],[3.92933318,50.93255595],[3.92935478,50.9325258],[3.9294196,50.93254483]]]}},{"type":"Feature","id":"gebouw/Gebouw.19695283/0","properties":{"source":"Digitaal Vlaanderen Gebouwenregister","source_id":"gebouw/Gebouw.19695283/0","kind":"building","building":"official","height_m":5.85,"status":null},"geometry":{"type":"Polygon","coordinates":[[[3.9294196,50.93254483],[3.92947954,50.93256246],[3.9294544,50.93259287],[3.92945321,50.93259254],[3.92941465,50.93258161],[3.92939565,50.93257622],[3.92939678,50.93257475],[3.9294196,50.93254483]]]}},{"type":"Feature","id":"gebouw/Gebouw.19699224/0","properties":{"source":"Digitaal Vlaanderen Gebouwenregister","source_id":"gebouw/Gebouw.19699224/0","kind":"building","building":"official","height_m":5.1,"status":null},"geometry":{"type":"Polygon","coordinates":[[[3.930191,50.93310785],[3.93018367,50.93310578],[3.9301251,50.93308896],[3.93009099,50.93313638],[3.93001762,50.93311531],[3.93009416,50.93302763],[3.93021934,50.93306514],[3.93021296,50.93307476],[3.930191,50.93310785]]]}},{"type":"Feature","id":"gebouw/Gebouw.19699226/0","properties":{"source":"Digitaal Vlaanderen Gebouwenregister","source_id":"gebouw/Gebouw.19699226/0","kind":"building","building":"official","height_m":6.6,"status":null},"geometry":{"type":"Polygon","coordinates":[[[3.93001762,50.93311531],[3.93001324,50.93312075],[3.92995994,50.93310767],[3.92995908,50.93310746],[3.93003778,50.93301073],[3.93009416,50.93302763],[3.93001762,50.93311531]]]}},{"type":"Feature","id":"gebouw/Gebouw.19713566/0","properties":{"source":"Digitaal Vlaanderen Gebouwenregister","source_id":"gebouw/Gebouw.19713566/0","kind":"building","building":"official","height_m":6.6,"status":null},"geometry":{"type":"Polygon","coordinates":[[[3.93017864,50.93120453],[3.93015574,50.93123588],[3.93015563,50.93123585],[3.93011935,50.93122511],[3.92995588,50.93117672],[3.92995531,50.93117655],[3.92989354,50.93115827],[3.92980544,50.93113219],[3.92975537,50.93111736],[3.92970638,50.93110286],[3.92964271,50.93108401],[3.92951573,50.93104642],[3.92934171,50.93099491],[3.92946002,50.93083524],[3.92946812,50.93083734],[3.92965126,50.93089013],[3.93027659,50.9310705],[3.93024863,50.93110876],[3.93019915,50.93117647],[3.93017864,50.93120453]]]}},{"type":"Feature","id":"gebouw/Gebouw.19713567/0","properties":{"source":"Digitaal Vlaanderen Gebouwenregister","source_id":"gebouw/Gebouw.19713567/0","kind":"building","building":"official","height_m":7.35,"status":null},"geometry":{"type":"Polygon","coordinates":[[[3.92954963,50.93072279],[3.92955054,50.93072305],[3.92968819,50.93076306],[3.929681,50.93077294],[3.92972708,50.93078617],[3.92965126,50.93089013],[3.92946812,50.93083734],[3.92954963,50.93072279]]]}},{"type":"Feature","id":"gebouw/Gebouw.19713568/0","properties":{"source":"Digitaal Vlaanderen Gebouwenregister","source_id":"gebouw/Gebouw.19713568/0","kind":"building","building":"official","height_m":8.1,"status":null},"geometry":{"type":"Polygon","coordinates":[[[3.92934171,50.93099491],[3.92951573,50.93104642],[3.92945427,50.9311298],[3.92927883,50.93107976],[3.92934139,50.93099533],[3.92934171,50.93099491]]]}},{"type":"Feature","id":"gebouw/Gebouw.19713569/0","properties":{"source":"Digitaal Vlaanderen Gebouwenregister","source_id":"gebouw/Gebouw.19713569/0","kind":"building","building":"official","height_m":8.85,"status":null},"geometry":{"type":"Polygon","coordinates":[[[3.92995531,50.93117655],[3.92989354,50.93115827],[3.92980544,50.93113219],[3.92975537,50.93111736],[3.92970638,50.93110286],[3.92967719,50.93114224],[3.92986237,50.93119705],[3.92985887,50.9312014],[3.92992365,50.9312222],[3.92994071,50.93119759],[3.92995531,50.93117655]]]}},{"type":"Feature","id":"gebouw/Gebouw.19955073/0","properties":{"source":"Digitaal Vlaanderen Gebouwenregister","source_id":"gebouw/Gebouw.19955073/0","kind":"building","building":"official","height_m":7.35,"status":null},"geometry":{"type":"Polygon","coordinates":[[[3.92982593,50.93404999],[3.92989989,50.93407676],[3.92988226,50.93409621],[3.92980804,50.93406936],[3.92982567,50.93405027],[3.92982593,50.93404999]]]}},{"type":"Feature","id":"gebouw/Gebouw.19955074/0","properties":{"source":"Digitaal Vlaanderen Gebouwenregister","source_id":"gebouw/Gebouw.19955074/0","kind":"building","building":"official","height_m":8.1,"status":null},"geometry":{"type":"Polygon","coordinates":[[[3.92634171,50.93226024],[3.92632815,50.93228429],[3.92632654,50.93228714],[3.92624224,50.93226816],[3.92622247,50.9322637],[3.92623763,50.93223681],[3.92634171,50.93226024]]]}},{"type":"Feature","id":"gebouw/Gebouw.19955075/0","properties":{"source":"Digitaal Vlaanderen Gebouwenregister","source_id":"gebouw/Gebouw.19955075/0","kind":"building","building":"official","height_m":8.85,"status":null},"geometry":{"type":"Polygon","coordinates":[[[3.92942078,50.93184156],[3.92938903,50.93187976],[3.929422,50.93189071],[3.92940324,50.93191328],[3.92936513,50.93190063],[3.92938278,50.93187939],[3.92937503,50.93187682],[3.92939758,50.93184844],[3.92940674,50.9318369],[3.92942078,50.93184156]]]}},{"type":"Feature","id":"gebouw/Gebouw.19955076/0","properties":{"source":"Digitaal Vlaanderen Gebouwenregister","source_id":"gebouw/Gebouw.19955076/0","kind":"building","building":"official","height_m":5.1,"status":null},"geometry":{"type":"Polygon","coordinates":[[[3.9299951,50.93263246],[3.92997716,50.93264802],[3.93004025,50.93267825],[3.93005909,50.93266191],[3.9299951,50.93263246]]]}},{"type":"Feature","id":"gebouw/Gebouw.19956310/0","properties":{"source":"Digitaal Vlaanderen Gebouwenregister","source_id":"gebouw/Gebouw.19956310/0","kind":"building","building":"official","height_m":8.1,"status":null},"geometry":{"type":"Polygon","coordinates":[[[3.92925353,50.93282753],[3.92921352,50.93281442],[3.92925815,50.93275677],[3.92929863,50.93276928],[3.92925353,50.93282753]]]}},{"type":"Feature","id":"gebouw/Gebouw.19956311/0","properties":{"source":"Digitaal Vlaanderen Gebouwenregister","source_id":"gebouw/Gebouw.19956311/0","kind":"building","building":"official","height_m":8.85,"status":null},"geometry":{"type":"Polygon","coordinates":[[[3.92943553,50.93280356],[3.92947854,50.93274727],[3.92947857,50.93274722],[3.9294482,50.93273782],[3.92930745,50.93269667],[3.92930454,50.93269582],[3.92930449,50.9326958],[3.92926827,50.93274312],[3.9292838,50.93274788],[3.92932833,50.93276151],[3.9292952,50.93280442],[3.92928691,50.93281515],[3.92939875,50.93285171],[3.92943553,50.93280356]]]}},{"type":"Feature","id":"gebouw/Gebouw.20723807/0","properties":{"source":"Digitaal Vlaanderen Gebouwenregister","source_id":"gebouw/Gebouw.20723807/0","kind":"building","building":"official","height_m":8.85,"status":null},"geometry":{"type":"Polygon","coordinates":[[[3.93004303,50.93298733],[3.92990515,50.93293385],[3.92988821,50.93292728],[3.9297982,50.93301995],[3.92980739,50.93302353],[3.92991717,50.93306627],[3.92994348,50.93307651],[3.92995291,50.93308018],[3.93002713,50.93300377],[3.93002867,50.93300244],[3.93004043,50.93299007],[3.93004303,50.93298733]]]}},{"type":"Feature","id":"gebouw/Gebouw.20802132/0","properties":{"source":"Digitaal Vlaanderen Gebouwenregister","source_id":"gebouw/Gebouw.20802132/0","kind":"building","building":"official","height_m":5.1,"status":null},"geometry":{"type":"Polygon","coordinates":[[[3.93051419,50.93388373],[3.93051821,50.93388726],[3.93051291,50.93388967],[3.93045037,50.93391803],[3.93042561,50.93389622],[3.93049344,50.93386546],[3.93051419,50.93388373]]]}},{"type":"Feature","id":"gebouw/Gebouw.20803351/0","properties":{"source":"Digitaal Vlaanderen Gebouwenregister","source_id":"gebouw/Gebouw.20803351/0","kind":"building","building":"official","height_m":5.85,"status":null},"geometry":{"type":"Polygon","coordinates":[[[3.92942051,50.93187962],[3.92939513,50.93191343],[3.92937871,50.93190872],[3.92935795,50.93190276],[3.92938363,50.93186856],[3.92942051,50.93187962]]]}},{"type":"Feature","id":"gebouw/Gebouw.20803352/0","properties":{"source":"Digitaal Vlaanderen Gebouwenregister","source_id":"gebouw/Gebouw.20803352/0","kind":"building","building":"official","height_m":6.6,"status":null},"geometry":{"type":"Polygon","coordinates":[[[3.92940389,50.93185379],[3.92943309,50.93181379],[3.92950881,50.93183587],[3.9294796,50.93187587],[3.92940389,50.93185379]]]}},{"type":"Feature","id":"gebouw/Gebouw.30959403/0","properties":{"source":"Digitaal Vlaanderen Gebouwenregister","source_id":"gebouw/Gebouw.30959403/0","kind":"building","building":"official","height_m":7.35,"status":null},"geometry":{"type":"Polygon","coordinates":[[[3.93024382,50.93210883],[3.93037567,50.93215129],[3.93032719,50.93221135],[3.93020769,50.93217333],[3.9302181,50.93216047],[3.93020543,50.93215639],[3.93024382,50.93210883]]]}},{"type":"Feature","id":"gebouw/Gebouw.30959405/0","properties":{"source":"Digitaal Vlaanderen Gebouwenregister","source_id":"gebouw/Gebouw.30959405/0","kind":"building","building":"official","height_m":8.85,"status":null},"geometry":{"type":"Polygon","coordinates":[[[3.93037567,50.93215129],[3.93024382,50.93210883],[3.93027186,50.93207411],[3.9302793,50.93207644],[3.93029996,50.93205081],[3.93042441,50.93209089],[3.93037567,50.93215129]]]}},{"type":"Feature","id":"gebouw/Gebouw.31251492/0","properties":{"source":"Digitaal Vlaanderen Gebouwenregister","source_id":"gebouw/Gebouw.31251492/0","kind":"building","building":"official","height_m":5.1,"status":null},"geometry":{"type":"Polygon","coordinates":[[[3.9301276,50.93302086],[3.93024221,50.9330663],[3.9302193,50.93308929],[3.93011848,50.93313588],[3.93008226,50.93312201],[3.93011353,50.93308999],[3.93007718,50.93307586],[3.93004597,50.93310792],[3.93004046,50.93311359],[3.93003824,50.93311266],[3.9301276,50.93302086]]]}},{"type":"Feature","id":"gebouw/Gebouw.31251510/0","properties":{"source":"Digitaal Vlaanderen Gebouwenregister","source_id":"gebouw/Gebouw.31251510/0","kind":"building","building":"official","height_m":5.1,"status":null},"geometry":{"type":"Polygon","coordinates":[[[3.93003824,50.93311266],[3.93003602,50.93311173],[3.93004143,50.93310616],[3.93007268,50.933074],[3.93005849,50.93306849],[3.93003633,50.93305987],[3.93000502,50.93309203],[3.92997847,50.93308171],[3.92997261,50.93308765],[3.92995291,50.93308018],[3.93002713,50.93300377],[3.93002847,50.93300238],[3.93004307,50.93298735],[3.93004509,50.93298815],[3.93010715,50.93301275],[3.9301276,50.93302086],[3.93003824,50.93311266]]]}},{"type":"Feature","id":"gebouw/Gebouw.31394497/0","properties":{"source":"Digitaal Vlaanderen Gebouwenregister","source_id":"gebouw/Gebouw.31394497/0","kind":"building","building":"official","height_m":5.85,"status":null},"geometry":{"type":"Polygon","coordinates":[[[3.93042397,50.93209134],[3.93036131,50.93207107],[3.93029935,50.93205103],[3.93027878,50.93207669],[3.93027116,50.93207425],[3.93024376,50.93210844],[3.93037637,50.93215071],[3.93042397,50.93209134]]]}},{"type":"Feature","id":"gebouw/Gebouw.31394498/0","properties":{"source":"Digitaal Vlaanderen Gebouwenregister","source_id":"gebouw/Gebouw.31394498/0","kind":"building","building":"official","height_m":6.6,"status":null},"geometry":{"type":"Polygon","coordinates":[[[3.93037637,50.93215071],[3.93024376,50.93210844],[3.93024362,50.93210861],[3.93020553,50.93215613],[3.93021819,50.93216023],[3.93020808,50.93217271],[3.93032771,50.93221142],[3.93037613,50.93215102],[3.93037637,50.93215071]]]}},{"type":"Feature","id":"gebouw/Gebouw.31539911/0","properties":{"source":"Digitaal Vlaanderen Gebouwenregister","source_id":"gebouw/Gebouw.31539911/0","kind":"building","building":"official","height_m":8.85,"status":null},"geometry":{"type":"Polygon","coordinates":[[[3.93043218,50.93417698],[3.93041172,50.93417461],[3.93041124,50.93417626],[3.9304024,50.93420678],[3.93040382,50.93420695],[3.93043052,50.93421023],[3.93043174,50.93421038],[3.93044112,50.93417801],[3.93043218,50.93417698]]]}},{"type":"Feature","id":"gebouw/Gebouw.31674393/0","properties":{"source":"Digitaal Vlaanderen Gebouwenregister","source_id":"gebouw/Gebouw.31674393/0","kind":"building","building":"official","height_m":7.35,"status":null},"geometry":{"type":"Polygon","coordinates":[[[3.93002541,50.93180601],[3.92996046,50.93178712],[3.92991955,50.93184081],[3.93006199,50.93188311],[3.93010308,50.93182862],[3.93002541,50.93180601]]]}},{"type":"Feature","id":"gebouw/Gebouw.31674395/0","properties":{"source":"Digitaal Vlaanderen Gebouwenregister","source_id":"gebouw/Gebouw.31674395/0","kind":"building","building":"official","height_m":8.85,"status":null},"geometry":{"type":"Polygon","coordinates":[[[3.93006199,50.93188311],[3.92991955,50.93184081],[3.92987889,50.93189416],[3.93000888,50.93193372],[3.93003037,50.93190426],[3.93004349,50.93190811],[3.93006199,50.93188311]]]}},{"type":"Feature","id":"gebouw/Gebouw.31674396/0","properties":{"source":"Digitaal Vlaanderen Gebouwenregister","source_id":"gebouw/Gebouw.31674396/0","kind":"building","building":"official","height_m":5.1,"status":null},"geometry":{"type":"Polygon","coordinates":[[[3.93014385,50.93164675],[3.93007904,50.93162683],[3.93003893,50.93167896],[3.93003641,50.93168224],[3.93005322,50.93168723],[3.93010884,50.93170374],[3.93017959,50.93172475],[3.9302196,50.93167002],[3.93014385,50.93164675]]]}},{"type":"Feature","id":"gebouw/Gebouw.31674397/0","properties":{"source":"Digitaal Vlaanderen Gebouwenregister","source_id":"gebouw/Gebouw.31674397/0","kind":"building","building":"official","height_m":5.85,"status":null},"geometry":{"type":"Polygon","coordinates":[[[3.93017959,50.93172475],[3.93010884,50.93170374],[3.93005322,50.93168723],[3.93003641,50.93168224],[3.92999558,50.93173529],[3.93006248,50.93175584],[3.93012672,50.93177558],[3.9301483,50.93174614],[3.93016079,50.93174992],[3.93017959,50.93172475]]]}},{"type":"Feature","id":"gebouw/Gebouw.31701749/0","properties":{"source":"Digitaal Vlaanderen Gebouwenregister","source_id":"gebouw/Gebouw.31701749/0","kind":"building","building":"official","height_m":8.85,"status":null},"geometry":{"type":"Polygon","coordinates":[[[3.93021585,50.93309246],[3.93024191,50.93306724],[3.93012739,50.93302123],[3.9300389,50.93311248],[3.93004048,50.93311309],[3.93007803,50.93307577],[3.93011363,50.93308941],[3.9300824,50.93312192],[3.93011829,50.93313577],[3.93021585,50.93309246]]]}},{"type":"Feature","id":"gebouw/Gebouw.31701750/0","properties":{"source":"Digitaal Vlaanderen Gebouwenregister","source_id":"gebouw/Gebouw.31701750/0","kind":"building","building":"official","height_m":5.1,"status":null},"geometry":{"type":"Polygon","coordinates":[[[3.93012739,50.93302123],[3.93010693,50.93301301],[3.93004508,50.93298815],[3.93004303,50.93298733],[3.93004043,50.93299007],[3.93002867,50.93300244],[3.93002713,50.93300377],[3.92995291,50.93308018],[3.92997266,50.93308719],[3.92997835,50.93308112],[3.93000514,50.93309139],[3.93003606,50.93305919],[3.93005884,50.93306809],[3.93007246,50.93307341],[3.93003615,50.93311122],[3.9300389,50.93311248],[3.93012739,50.93302123]]]}},{"type":"Feature","id":"gebouw/Gebouw.31844505/0","properties":{"source":"Digitaal Vlaanderen Gebouwenregister","source_id":"gebouw/Gebouw.31844505/0","kind":"building","building":"official","height_m":7.35,"status":null},"geometry":{"type":"Polygon","coordinates":[[[3.92978329,50.93491059],[3.9297342,50.93488063],[3.92971048,50.93489615],[3.92975957,50.93492611],[3.92978329,50.93491059]]]}},{"type":"Feature","id":"gebouw/Gebouw.31844838/0","properties":{"source":"Digitaal Vlaanderen Gebouwenregister","source_id":"gebouw/Gebouw.31844838/0","kind":"building","building":"official","height_m":5.1,"status":null},"geometry":{"type":"Polygon","coordinates":[[[3.92875601,50.93462701],[3.9287525,50.93462447],[3.92869011,50.93465894],[3.92870919,50.93467273],[3.92874733,50.93470029],[3.92880971,50.93466582],[3.92875601,50.93462701]]]}},{"type":"Feature","id":"gebouw/Gebouw.31844974/0","properties":{"source":"Digitaal Vlaanderen Gebouwenregister","source_id":"gebouw/Gebouw.31844974/0","kind":"building","building":"official","height_m":8.1,"status":null},"geometry":{"type":"Polygon","coordinates":[[[3.92969804,50.93411391],[3.92966639,50.93414894],[3.92971527,50.93416601],[3.92974654,50.9341314],[3.92969804,50.93411391]]]}},{"type":"Feature","id":"gebouw/Gebouw.31844985/0","properties":{"source":"Digitaal Vlaanderen Gebouwenregister","source_id":"gebouw/Gebouw.31844985/0","kind":"building","building":"official","height_m":7.35,"status":null},"geometry":{"type":"Polygon","coordinates":[[[3.9297274,50.93446402],[3.92963833,50.93443307],[3.92960619,50.93447028],[3.92968049,50.93449833],[3.92969315,50.93448378],[3.92970625,50.93448833],[3.9297274,50.93446402]]]}},{"type":"Feature","id":"gebouw/Gebouw.31845322/0","properties":{"source":"Digitaal Vlaanderen Gebouwenregister","source_id":"gebouw/Gebouw.31845322/0","kind":"building","building":"official","height_m":8.1,"status":null},"geometry":{"type":"Polygon","coordinates":[[[3.93052303,50.9329067],[3.93047517,50.93296215],[3.93052432,50.93297909],[3.93057218,50.93292364],[3.93052303,50.9329067]]]}},{"type":"Feature","id":"gebouw/Gebouw.31845375/0","properties":{"source":"Digitaal Vlaanderen Gebouwenregister","source_id":"gebouw/Gebouw.31845375/0","kind":"building","building":"official","height_m":7.35,"status":null},"geometry":{"type":"Polygon","coordinates":[[[3.92966697,50.93486073],[3.92971283,50.93488657],[3.92974042,50.93486702],[3.92969456,50.93484118],[3.92966697,50.93486073]]]}},{"type":"Feature","id":"way/198797111","properties":{"source":"OpenStreetMap","source_id":"way/198797111","kind":"vegetation","landuse":"forest","natural":null,"name":null},"geometry":{"type":"Polygon","coordinates":[[[3.9274747,50.9325633],[3.9279266,50.9326899],[3.928687,50.9328567],[3.9289088,50.9329033],[3.9293522,50.9329892],[3.9299009,50.9330996],[3.9298798,50.9331425],[3.929201,50.9336947],[3.9294528,50.9337941],[3.929242,50.9339304],[3.928977,50.9338378],[3.929105,50.933753],[3.9284624,50.9334981],[3.9281474,50.9339803],[3.9279955,50.9341417],[3.9279725,50.9341352],[3.9271087,50.9337136],[3.9270061,50.9336659],[3.926973,50.9336154],[3.9269509,50.9335214],[3.9268358,50.9334181],[3.926817,50.9333709],[3.926937,50.933258],[3.9264889,50.9329254],[3.9270659,50.9324645],[3.927214,50.932505],[3.9274747,50.9325633]]]}},{"type":"Feature","id":"way/674236357","properties":{"source":"OpenStreetMap","source_id":"way/674236357","kind":"vegetation","landuse":"forest","natural":null,"name":null},"geometry":{"type":"Polygon","coordinates":[[[3.9289088,50.9329033],[3.9293522,50.9329892],[3.929463,50.9328443],[3.9290593,50.9327044],[3.9289088,50.9329033]]]}}]}