{"type":"FeatureCollection","features":[{"type":"Feature","id":"gebouw/Gebouw.12873962/0","properties":{"source":"Digitaal Vlaanderen Gebouwenregister","source_id":"gebouw/Gebouw.12873962/0","kind":"building","building":"official","height_m":6.6,"status":null},"geometry":{"type":"Polygon","coordinates":[[[3.93003534,50.88037429],[3.9298917,50.88044818],[3.92979586,50.88033833],[3.9297242,50.88036257],[3.92962819,50.88024557],[3.92963231,50.88024403],[3.92954672,50.88016343],[3.92976418,50.88007188],[3.92973527,50.88004564],[3.92978151,50.88002768],[3.92977697,50.88002453],[3.92996513,50.87992091],[3.93002701,50.87988684],[3.93008523,50.87985478],[3.93014745,50.87982051],[3.93015263,50.87981766],[3.93027331,50.87989432],[3.93039716,50.879973],[3.93042889,50.87999315],[3.93045959,50.88001265],[3.93043774,50.88003532],[3.93039949,50.880075],[3.93029543,50.88018398],[3.93024124,50.88024123],[3.93019213,50.88019225],[3.93032995,50.8800556],[3.93016771,50.87995432],[3.93012757,50.87997824],[3.93011457,50.87996991],[3.9299937,50.88003395],[3.93022191,50.88025196],[3.93012149,50.88030102],[3.92993381,50.8801223],[3.92970806,50.88021544],[3.92978392,50.88031119],[3.92994003,50.8802618],[3.93003534,50.88037429]]]}},{"type":"Feature","id":"gebouw/Gebouw.12933837/0","properties":{"source":"Digitaal Vlaanderen Gebouwenregister","source_id":"gebouw/Gebouw.12933837/0","kind":"building","building":"official","height_m":7.35,"status":null},"geometry":{"type":"Polygon","coordinates":[[[3.92169395,50.87861158],[3.92180319,50.87863273],[3.92178677,50.87866669],[3.92167753,50.87864554],[3.92169395,50.87861158]]]}},{"type":"Feature","id":"gebouw/Gebouw.12933898/0","properties":{"source":"Digitaal Vlaanderen Gebouwenregister","source_id":"gebouw/Gebouw.12933898/0","kind":"building","building":"official","height_m":8.1,"status":null},"geometry":{"type":"Polygon","coordinates":[[[3.92959915,50.87931218],[3.92980061,50.87922133],[3.92984246,50.87925575],[3.92972564,50.87930873],[3.92977459,50.87934965],[3.92969638,50.87938953],[3.92959915,50.87931218]]]}},{"type":"Feature","id":"gebouw/Gebouw.13003241/0","properties":{"source":"Digitaal Vlaanderen Gebouwenregister","source_id":"gebouw/Gebouw.13003241/0","kind":"building","building":"official","height_m":8.85,"status":null},"geometry":{"type":"Polygon","coordinates":[[[3.93008683,50.88130108],[3.92997481,50.88137661],[3.92992816,50.88134914],[3.92993085,50.88134715],[3.92988314,50.88131912],[3.92988192,50.88131841],[3.92987908,50.88132038],[3.92987392,50.8813174],[3.92998537,50.88124195],[3.93008683,50.88130108]]]}},{"type":"Feature","id":"gebouw/Gebouw.13008127/0","properties":{"source":"Digitaal Vlaanderen Gebouwenregister","source_id":"gebouw/Gebouw.13008127/0","kind":"building","building":"official","height_m":5.85,"status":null},"geometry":{"type":"Polygon","coordinates":[[[3.93047465,50.8809379],[3.93044024,50.88091576],[3.93049482,50.88088181],[3.93052923,50.88090395],[3.93047465,50.8809379]]]}},{"type":"Feature","id":"gebouw/Gebouw.13008536/0","properties":{"source":"Digitaal Vlaanderen Gebouwenregister","source_id":"gebouw/Gebouw.13008536/0","kind":"building","building":"official","height_m":6.6,"status":null},"geometry":{"type":"Polygon","coordinates":[[[3.93053608,50.88072323],[3.93032942,50.88061461],[3.93035307,50.88059805],[3.93056032,50.88070667],[3.93053608,50.88072323]]]}},{"type":"Feature","id":"gebouw/Gebouw.13032585/0","properties":{"source":"Digitaal Vlaanderen Gebouwenregister","source_id":"gebouw/Gebouw.13032585/0","kind":"building","building":"official","height_m":7.35,"status":null},"geometry":{"type":"Polygon","coordinates":[[[3.92841224,50.87808967],[3.92838183,50.87803376],[3.92854504,50.87799823],[3.92857545,50.87805413],[3.92841224,50.87808967]]]}},{"type":"Feature","id":"gebouw/Gebouw.13043411/0","properties":{"source":"Digitaal Vlaanderen Gebouwenregister","source_id":"gebouw/Gebouw.13043411/0","kind":"building","building":"official","height_m":8.85,"status":null},"geometry":{"type":"Polygon","coordinates":[[[3.92972283,50.8814006],[3.92972391,50.88140028],[3.92969515,50.88134951],[3.92965671,50.88135818],[3.92967005,50.88138006],[3.9296314,50.8813923],[3.92957308,50.88132079],[3.92966739,50.88129858],[3.92964636,50.88126229],[3.92962804,50.88126699],[3.92960921,50.88123953],[3.92953592,50.88125795],[3.92955506,50.8812901],[3.92939809,50.88133534],[3.92948167,50.88144211],[3.92952901,50.88142803],[3.9295474,50.88145278],[3.92972283,50.8814006]]]}},{"type":"Feature","id":"gebouw/Gebouw.13055824/0","properties":{"source":"Digitaal Vlaanderen Gebouwenregister","source_id":"gebouw/Gebouw.13055824/0","kind":"building","building":"official","height_m":8.1,"status":null},"geometry":{"type":"Polygon","coordinates":[[[3.92959616,50.87911989],[3.92957092,50.87909422],[3.92960495,50.87908083],[3.92961053,50.87908651],[3.92966957,50.87906328],[3.92968557,50.87907955],[3.92962969,50.87910153],[3.92963335,50.87910526],[3.92959616,50.87911989]]]}},{"type":"Feature","id":"gebouw/Gebouw.13057829/0","properties":{"source":"Digitaal Vlaanderen Gebouwenregister","source_id":"gebouw/Gebouw.13057829/0","kind":"building","building":"official","height_m":8.85,"status":null},"geometry":{"type":"Polygon","coordinates":[[[3.92835115,50.88076862],[3.9283618,50.88078243],[3.9283645,50.8807816],[3.92837924,50.8808007],[3.92814191,50.88087398],[3.92814479,50.88087771],[3.92810173,50.88089101],[3.92810167,50.88089094],[3.92807346,50.88085437],[3.92835115,50.88076862]]]}},{"type":"Feature","id":"gebouw/Gebouw.13078517/0","properties":{"source":"Digitaal Vlaanderen Gebouwenregister","source_id":"gebouw/Gebouw.13078517/0","kind":"building","building":"official","height_m":8.85,"status":null},"geometry":{"type":"Polygon","coordinates":[[[3.92459703,50.88121318],[3.92467711,50.88113336],[3.92473207,50.88115483],[3.92479883,50.88108906],[3.92492427,50.8811391],[3.92477744,50.88128468],[3.92459703,50.88121318]]]}},{"type":"Feature","id":"gebouw/Gebouw.13088658/0","properties":{"source":"Digitaal Vlaanderen Gebouwenregister","source_id":"gebouw/Gebouw.13088658/0","kind":"building","building":"official","height_m":5.1,"status":null},"geometry":{"type":"Polygon","coordinates":[[[3.92749989,50.88138852],[3.92744813,50.88132887],[3.9275446,50.88129537],[3.92759636,50.88135501],[3.92749989,50.88138852]]]}},{"type":"Feature","id":"gebouw/Gebouw.13099425/0","properties":{"source":"Digitaal Vlaanderen Gebouwenregister","source_id":"gebouw/Gebouw.13099425/0","kind":"building","building":"official","height_m":7.35,"status":null},"geometry":{"type":"Polygon","coordinates":[[[3.92909721,50.88051252],[3.92914262,50.88054236],[3.92916578,50.88052831],[3.92916852,50.88053013],[3.92912321,50.88055761],[3.92916897,50.88058751],[3.92915018,50.88059892],[3.92916773,50.88061046],[3.92917513,50.88061532],[3.92918431,50.88060973],[3.92920984,50.88062649],[3.9292311,50.88064058],[3.9291347,50.8806984],[3.92903676,50.88063505],[3.92900101,50.88065648],[3.92892178,50.88060384],[3.92895338,50.88058321],[3.92893462,50.8805706],[3.92901166,50.88052374],[3.92904113,50.88054397],[3.92909721,50.88051252]]]}},{"type":"Feature","id":"gebouw/Gebouw.13104379/0","properties":{"source":"Digitaal Vlaanderen Gebouwenregister","source_id":"gebouw/Gebouw.13104379/0","kind":"building","building":"official","height_m":5.85,"status":null},"geometry":{"type":"Polygon","coordinates":[[[3.92414251,50.8813639],[3.92410358,50.88134836],[3.92410117,50.8813506],[3.92407407,50.88134016],[3.92404439,50.88132873],[3.92401866,50.88135285],[3.92389094,50.88130335],[3.92389941,50.8812955],[3.92389556,50.88129378],[3.92390923,50.881279],[3.92386362,50.88126035],[3.92390538,50.88121865],[3.92399568,50.88112848],[3.92399696,50.8811272],[3.92405695,50.88116466],[3.92400113,50.88121901],[3.92398032,50.88123926],[3.92412037,50.88129336],[3.92417068,50.88124249],[3.92423214,50.88126659],[3.92414251,50.8813639]]]}},{"type":"Feature","id":"gebouw/Gebouw.13125878/0","properties":{"source":"Digitaal Vlaanderen Gebouwenregister","source_id":"gebouw/Gebouw.13125878/0","kind":"building","building":"official","height_m":6.6,"status":null},"geometry":{"type":"Polygon","coordinates":[[[3.92794848,50.88110422],[3.92787417,50.88113174],[3.92787086,50.88113297],[3.92787421,50.88113613],[3.92782263,50.88115452],[3.9278108,50.8811806],[3.92795014,50.88132933],[3.92804041,50.88129619],[3.92793208,50.88117424],[3.92803269,50.88114065],[3.92815646,50.88127317],[3.92808686,50.88129644],[3.92811229,50.8813261],[3.92818186,50.88130206],[3.92818522,50.88130091],[3.9281608,50.88127257],[3.92822835,50.88124798],[3.92817201,50.88118345],[3.92821049,50.88116888],[3.92811848,50.88106953],[3.92809081,50.88108072],[3.92806975,50.88105929],[3.92794848,50.88110422]]]}},{"type":"Feature","id":"gebouw/Gebouw.13135027/0","properties":{"source":"Digitaal Vlaanderen Gebouwenregister","source_id":"gebouw/Gebouw.13135027/0","kind":"building","building":"official","height_m":5.85,"status":null},"geometry":{"type":"Polygon","coordinates":[[[3.9299719,50.8807581],[3.9299254,50.88077789],[3.92992302,50.88077543],[3.9298932,50.88074455],[3.9299522,50.88072126],[3.92996648,50.88073453],[3.92998011,50.8807472],[3.92996806,50.88075316],[3.9299719,50.8807581]]]}},{"type":"Feature","id":"gebouw/Gebouw.13137993/0","properties":{"source":"Digitaal Vlaanderen Gebouwenregister","source_id":"gebouw/Gebouw.13137993/0","kind":"building","building":"official","height_m":7.35,"status":null},"geometry":{"type":"Polygon","coordinates":[[[3.92765471,50.88106512],[3.92763155,50.88103885],[3.92767462,50.88102366],[3.92769777,50.88104994],[3.92765471,50.88106512]]]}},{"type":"Feature","id":"gebouw/Gebouw.13162722/0","properties":{"source":"Digitaal Vlaanderen Gebouwenregister","source_id":"gebouw/Gebouw.13162722/0","kind":"building","building":"official","height_m":5.1,"status":null},"geometry":{"type":"Polygon","coordinates":[[[3.92820498,50.87812766],[3.92830754,50.8781046],[3.92839662,50.87826808],[3.9282926,50.87829055],[3.92820498,50.87812766]]]}},{"type":"Feature","id":"gebouw/Gebouw.13201381/0","properties":{"source":"Digitaal Vlaanderen Gebouwenregister","source_id":"gebouw/Gebouw.13201381/0","kind":"building","building":"official","height_m":5.85,"status":null},"geometry":{"type":"Polygon","coordinates":[[[3.92922564,50.88112297],[3.92917982,50.8810453],[3.92923027,50.88103339],[3.92919071,50.88096391],[3.92930941,50.88093577],[3.9293387,50.88098566],[3.92933942,50.8809869],[3.9293409,50.88098655],[3.92934401,50.88099207],[3.92935437,50.8810098],[3.92938231,50.88100328],[3.92939375,50.8810229],[3.92939118,50.88102354],[3.92942373,50.88107923],[3.92922564,50.88112297]]]}},{"type":"Feature","id":"gebouw/Gebouw.13201796/0","properties":{"source":"Digitaal Vlaanderen Gebouwenregister","source_id":"gebouw/Gebouw.13201796/0","kind":"building","building":"official","height_m":6.6,"status":null},"geometry":{"type":"Polygon","coordinates":[[[3.92874997,50.88098268],[3.92875193,50.8809815],[3.92879213,50.88095714],[3.9287784,50.88094793],[3.92884901,50.88090513],[3.92875917,50.88084451],[3.92875422,50.88084757],[3.92871939,50.88082499],[3.9286938,50.88082242],[3.92861527,50.88087091],[3.92861327,50.88088575],[3.92863704,50.88090115],[3.92863173,50.88090429],[3.92874997,50.88098268]]]}},{"type":"Feature","id":"gebouw/Gebouw.13218290/0","properties":{"source":"Digitaal Vlaanderen Gebouwenregister","source_id":"gebouw/Gebouw.13218290/0","kind":"building","building":"official","height_m":6.6,"status":null},"geometry":{"type":"Polygon","coordinates":[[[3.92895702,50.87861511],[3.92890146,50.87863223],[3.9288269,50.87853846],[3.92895709,50.87849682],[3.92898455,50.87853433],[3.92902222,50.87852215],[3.92906711,50.87858118],[3.92906017,50.87858332],[3.92895702,50.87861511]]]}},{"type":"Feature","id":"gebouw/Gebouw.13226127/0","properties":{"source":"Digitaal Vlaanderen Gebouwenregister","source_id":"gebouw/Gebouw.13226127/0","kind":"building","building":"official","height_m":7.35,"status":null},"geometry":{"type":"Polygon","coordinates":[[[3.92770646,50.88123141],[3.92773535,50.881221],[3.92784283,50.88134466],[3.92779791,50.88136039],[3.92781383,50.88137842],[3.92772814,50.88140859],[3.92760389,50.88126836],[3.92763184,50.88125829],[3.92770646,50.88123141]]]}},{"type":"Feature","id":"gebouw/Gebouw.13226334/0","properties":{"source":"Digitaal Vlaanderen Gebouwenregister","source_id":"gebouw/Gebouw.13226334/0","kind":"building","building":"official","height_m":5.1,"status":null},"geometry":{"type":"Polygon","coordinates":[[[3.92079188,50.87808877],[3.92095444,50.87811833],[3.92082968,50.87840651],[3.92066622,50.8783775],[3.92079188,50.87808877]]]}},{"type":"Feature","id":"gebouw/Gebouw.13238161/0","properties":{"source":"Digitaal Vlaanderen Gebouwenregister","source_id":"gebouw/Gebouw.13238161/0","kind":"building","building":"official","height_m":5.85,"status":null},"geometry":{"type":"Polygon","coordinates":[[[3.92995964,50.87896594],[3.92993249,50.87893988],[3.92997025,50.8789262],[3.92999741,50.87895189],[3.92995964,50.87896594]]]}},{"type":"Feature","id":"gebouw/Gebouw.13240632/0","properties":{"source":"Digitaal Vlaanderen Gebouwenregister","source_id":"gebouw/Gebouw.13240632/0","kind":"building","building":"official","height_m":5.1,"status":null},"geometry":{"type":"Polygon","coordinates":[[[3.92858556,50.87737506],[3.92843948,50.87739855],[3.92842347,50.87735871],[3.92856956,50.87733522],[3.92858556,50.87737506]]]}},{"type":"Feature","id":"gebouw/Gebouw.13248928/0","properties":{"source":"Digitaal Vlaanderen Gebouwenregister","source_id":"gebouw/Gebouw.13248928/0","kind":"building","building":"official","height_m":8.1,"status":null},"geometry":{"type":"Polygon","coordinates":[[[3.92941885,50.8788525],[3.92930878,50.87889492],[3.92927586,50.87886134],[3.92926347,50.8788487],[3.92924651,50.87885524],[3.92924184,50.87885039],[3.92920206,50.87880912],[3.92932792,50.87875915],[3.92941885,50.8788525]]]}},{"type":"Feature","id":"gebouw/Gebouw.13285308/0","properties":{"source":"Digitaal Vlaanderen Gebouwenregister","source_id":"gebouw/Gebouw.13285308/0","kind":"building","building":"official","height_m":5.1,"status":null},"geometry":{"type":"Polygon","coordinates":[[[3.92929136,50.88120865],[3.92924647,50.881222],[3.92920711,50.88116904],[3.92919692,50.88117208],[3.92914067,50.8810964],[3.92917601,50.88108589],[3.92922975,50.88115818],[3.92924948,50.88115231],[3.92929136,50.88120865]]]}},{"type":"Feature","id":"gebouw/Gebouw.13293534/0","properties":{"source":"Digitaal Vlaanderen Gebouwenregister","source_id":"gebouw/Gebouw.13293534/0","kind":"building","building":"official","height_m":5.1,"status":null},"geometry":{"type":"Polygon","coordinates":[[[3.92993663,50.88055558],[3.92999233,50.8806067],[3.93004679,50.88058295],[3.93006435,50.88059587],[3.9300981,50.88058154],[3.93014754,50.88062535],[3.93005224,50.88066644],[3.9300281,50.88064341],[3.92998342,50.88066469],[3.93002633,50.88070627],[3.92996648,50.88073453],[3.9299522,50.88072126],[3.92992804,50.88069881],[3.92982639,50.8806043],[3.92993663,50.88055558]]]}},{"type":"Feature","id":"gebouw/Gebouw.13313017/0","properties":{"source":"Digitaal Vlaanderen Gebouwenregister","source_id":"gebouw/Gebouw.13313017/0","kind":"building","building":"official","height_m":5.85,"status":null},"geometry":{"type":"Polygon","coordinates":[[[3.92866538,50.88080856],[3.92858655,50.88075528],[3.92863128,50.8807288],[3.9287101,50.88078208],[3.92866538,50.88080856]]]}},{"type":"Feature","id":"gebouw/Gebouw.13321404/0","properties":{"source":"Digitaal Vlaanderen Gebouwenregister","source_id":"gebouw/Gebouw.13321404/0","kind":"building","building":"official","height_m":5.1,"status":null},"geometry":{"type":"Polygon","coordinates":[[[3.92821269,50.87709222],[3.92816854,50.87701194],[3.92827791,50.87698787],[3.92827969,50.87699112],[3.9283017,50.87698627],[3.92831779,50.87701553],[3.92828854,50.87702197],[3.92831481,50.87706974],[3.92821269,50.87709222]]]}},{"type":"Feature","id":"gebouw/Gebouw.13381657/0","properties":{"source":"Digitaal Vlaanderen Gebouwenregister","source_id":"gebouw/Gebouw.13381657/0","kind":"building","building":"official","height_m":5.85,"status":null},"geometry":{"type":"Polygon","coordinates":[[[3.9289456,50.88107369],[3.92901454,50.8811426],[3.92902789,50.88113673],[3.9290739,50.88118085],[3.9289745,50.88122512],[3.92885779,50.88111323],[3.9289456,50.88107369]]]}},{"type":"Feature","id":"gebouw/Gebouw.13389767/0","properties":{"source":"Digitaal Vlaanderen Gebouwenregister","source_id":"gebouw/Gebouw.13389767/0","kind":"building","building":"official","height_m":8.85,"status":null},"geometry":{"type":"Polygon","coordinates":[[[3.92926867,50.88124117],[3.92924455,50.88121003],[3.92923635,50.88121257],[3.92920164,50.88116776],[3.92924813,50.88115335],[3.92928279,50.8811981],[3.92927729,50.8811998],[3.92930146,50.881231],[3.92926867,50.88124117]]]}},{"type":"Feature","id":"gebouw/Gebouw.13389999/0","properties":{"source":"Digitaal Vlaanderen Gebouwenregister","source_id":"gebouw/Gebouw.13389999/0","kind":"building","building":"official","height_m":7.35,"status":null},"geometry":{"type":"Polygon","coordinates":[[[3.9257996,50.88075291],[3.92575238,50.88078139],[3.92572446,50.88076286],[3.92571972,50.88075972],[3.92576979,50.88073298],[3.9257996,50.88075291]]]}},{"type":"Feature","id":"gebouw/Gebouw.13395207/0","properties":{"source":"Digitaal Vlaanderen Gebouwenregister","source_id":"gebouw/Gebouw.13395207/0","kind":"building","building":"official","height_m":7.35,"status":null},"geometry":{"type":"Polygon","coordinates":[[[3.92996176,50.88118551],[3.9299281,50.88115574],[3.92996066,50.88114292],[3.92999135,50.88117195],[3.92996176,50.88118551]]]}},{"type":"Feature","id":"gebouw/Gebouw.13415221/0","properties":{"source":"Digitaal Vlaanderen Gebouwenregister","source_id":"gebouw/Gebouw.13415221/0","kind":"building","building":"official","height_m":5.85,"status":null},"geometry":{"type":"Polygon","coordinates":[[[3.92981764,50.88116093],[3.92987261,50.88126089],[3.92977546,50.88128697],[3.92971488,50.8811856],[3.92972076,50.88118419],[3.92981764,50.88116093]]]}},{"type":"Feature","id":"gebouw/Gebouw.13433100/0","properties":{"source":"Digitaal Vlaanderen Gebouwenregister","source_id":"gebouw/Gebouw.13433100/0","kind":"building","building":"official","height_m":5.1,"status":null},"geometry":{"type":"Polygon","coordinates":[[[3.9298584,50.87938002],[3.92982109,50.87934845],[3.92991121,50.87930582],[3.92994853,50.87933739],[3.9298584,50.87938002]]]}},{"type":"Feature","id":"gebouw/Gebouw.13434993/0","properties":{"source":"Digitaal Vlaanderen Gebouwenregister","source_id":"gebouw/Gebouw.13434993/0","kind":"building","building":"official","height_m":7.35,"status":null},"geometry":{"type":"Polygon","coordinates":[[[3.9287198,50.87842145],[3.92880083,50.87839626],[3.9287827,50.87837099],[3.92885501,50.87834806],[3.92884979,50.87833989],[3.92893082,50.8783147],[3.92893306,50.87831738],[3.92894379,50.87831609],[3.92896126,50.87831663],[3.92897453,50.87832403],[3.92898659,50.87833759],[3.92898537,50.87834995],[3.9289738,50.8783619],[3.92900776,50.87841155],[3.92885442,50.87845966],[3.92885134,50.87845603],[3.92876789,50.8784823],[3.9287198,50.87842145]]]}},{"type":"Feature","id":"gebouw/Gebouw.13435790/0","properties":{"source":"Digitaal Vlaanderen Gebouwenregister","source_id":"gebouw/Gebouw.13435790/0","kind":"building","building":"official","height_m":6.6,"status":null},"geometry":{"type":"Polygon","coordinates":[[[3.92841209,50.87838306],[3.92837463,50.87839398],[3.92835512,50.87836747],[3.92835082,50.87836163],[3.92834725,50.87836268],[3.92830747,50.87830866],[3.92842543,50.87827427],[3.92843213,50.87828278],[3.92844003,50.878285],[3.92846102,50.87831544],[3.92845776,50.87832138],[3.92848521,50.87835945],[3.92848658,50.87836135],[3.9284366,50.87837592],[3.92841209,50.87838306]]]}},{"type":"Feature","id":"gebouw/Gebouw.13439216/0","properties":{"source":"Digitaal Vlaanderen Gebouwenregister","source_id":"gebouw/Gebouw.13439216/0","kind":"building","building":"official","height_m":6.6,"status":null},"geometry":{"type":"Polygon","coordinates":[[[3.92978394,50.88084772],[3.92958205,50.88094399],[3.92955981,50.88090606],[3.92959973,50.88089651],[3.92956868,50.88084385],[3.92970229,50.88081263],[3.92971232,50.88083285],[3.92976565,50.88082073],[3.92978394,50.88084772]]]}},{"type":"Feature","id":"gebouw/Gebouw.13460254/0","properties":{"source":"Digitaal Vlaanderen Gebouwenregister","source_id":"gebouw/Gebouw.13460254/0","kind":"building","building":"official","height_m":8.1,"status":null},"geometry":{"type":"Polygon","coordinates":[[[3.92126844,50.87848357],[3.9210935,50.87845324],[3.92109859,50.87844148],[3.92106717,50.87843603],[3.92106233,50.8784472],[3.92088926,50.87841719],[3.92101442,50.87812828],[3.92118836,50.87815844],[3.92108389,50.87839958],[3.92111566,50.87840509],[3.92122061,50.87816283],[3.92139433,50.87819295],[3.92126844,50.87848357]]]}},{"type":"Feature","id":"gebouw/Gebouw.13462373/0","properties":{"source":"Digitaal Vlaanderen Gebouwenregister","source_id":"gebouw/Gebouw.13462373/0","kind":"building","building":"official","height_m":8.85,"status":null},"geometry":{"type":"Polygon","coordinates":[[[3.92807347,50.88100807],[3.92801311,50.88094782],[3.92806873,50.88092553],[3.92812908,50.88098578],[3.92807347,50.88100807]]]}},{"type":"Feature","id":"gebouw/Gebouw.13467419/0","properties":{"source":"Digitaal Vlaanderen Gebouwenregister","source_id":"gebouw/Gebouw.13467419/0","kind":"building","building":"official","height_m":8.85,"status":null},"geometry":{"type":"Polygon","coordinates":[[[3.92880846,50.88058057],[3.92884218,50.88055949],[3.92889915,50.88059603],[3.92889164,50.88060071],[3.92891118,50.88061325],[3.92888812,50.88062764],[3.92886881,50.88061525],[3.92886497,50.88061769],[3.92884783,50.88060643],[3.92880846,50.88058057]]]}},{"type":"Feature","id":"gebouw/Gebouw.13489803/0","properties":{"source":"Digitaal Vlaanderen Gebouwenregister","source_id":"gebouw/Gebouw.13489803/0","kind":"building","building":"official","height_m":7.35,"status":null},"geometry":{"type":"Polygon","coordinates":[[[3.92970792,50.87878378],[3.92967314,50.87875026],[3.92973817,50.87872475],[3.9297702,50.87875991],[3.92970792,50.87878378]]]}},{"type":"Feature","id":"gebouw/Gebouw.13498059/0","properties":{"source":"Digitaal Vlaanderen Gebouwenregister","source_id":"gebouw/Gebouw.13498059/0","kind":"building","building":"official","height_m":7.35,"status":null},"geometry":{"type":"Polygon","coordinates":[[[3.92899702,50.87867755],[3.92908133,50.87864605],[3.92908585,50.87865065],[3.92917774,50.87861574],[3.92924946,50.87869278],[3.92912371,50.87874051],[3.92911528,50.87873009],[3.92906392,50.87874894],[3.92905668,50.87874123],[3.92901106,50.87869256],[3.92899702,50.87867755]]]}},{"type":"Feature","id":"gebouw/Gebouw.13498211/0","properties":{"source":"Digitaal Vlaanderen Gebouwenregister","source_id":"gebouw/Gebouw.13498211/0","kind":"building","building":"official","height_m":8.85,"status":null},"geometry":{"type":"Polygon","coordinates":[[[3.92509059,50.88113256],[3.92503782,50.88111042],[3.92508825,50.88106231],[3.92514102,50.88108445],[3.92509059,50.88113256]]]}},{"type":"Feature","id":"gebouw/Gebouw.13511992/0","properties":{"source":"Digitaal Vlaanderen Gebouwenregister","source_id":"gebouw/Gebouw.13511992/0","kind":"building","building":"official","height_m":8.1,"status":null},"geometry":{"type":"Polygon","coordinates":[[[3.92760663,50.87778425],[3.92759933,50.87777243],[3.92758042,50.8777771],[3.92755379,50.87773396],[3.92760984,50.87772011],[3.92761349,50.87772601],[3.9276222,50.87772386],[3.92763179,50.87773941],[3.9276205,50.8777422],[3.92762807,50.87775447],[3.92763758,50.87775212],[3.9276507,50.87777336],[3.92760663,50.87778425]]]}},{"type":"Feature","id":"gebouw/Gebouw.13512141/0","properties":{"source":"Digitaal Vlaanderen Gebouwenregister","source_id":"gebouw/Gebouw.13512141/0","kind":"building","building":"official","height_m":7.35,"status":null},"geometry":{"type":"Polygon","coordinates":[[[3.92584194,50.88118837],[3.92580659,50.88117018],[3.92585188,50.88113496],[3.92588723,50.88115315],[3.92584194,50.88118837]]]}},{"type":"Feature","id":"gebouw/Gebouw.13512207/0","properties":{"source":"Digitaal Vlaanderen Gebouwenregister","source_id":"gebouw/Gebouw.13512207/0","kind":"building","building":"official","height_m":7.35,"status":null},"geometry":{"type":"Polygon","coordinates":[[[3.92978394,50.88084772],[3.92982465,50.88088361],[3.92970032,50.88093413],[3.9297742,50.88106252],[3.92979078,50.88105798],[3.92980511,50.88107634],[3.92979092,50.88108688],[3.92968131,50.88111448],[3.92958205,50.88094399],[3.92978394,50.88084772]]]}},{"type":"Feature","id":"gebouw/Gebouw.13519181/0","properties":{"source":"Digitaal Vlaanderen Gebouwenregister","source_id":"gebouw/Gebouw.13519181/0","kind":"building","building":"official","height_m":8.85,"status":null},"geometry":{"type":"Polygon","coordinates":[[[3.92976661,50.88074424],[3.92956028,50.88080231],[3.92950355,50.88072222],[3.92955805,50.88070671],[3.92955227,50.88069852],[3.92961395,50.88068093],[3.92964096,50.88071907],[3.92973166,50.88069345],[3.92976661,50.88074424]]]}},{"type":"Feature","id":"gebouw/Gebouw.13519243/0","properties":{"source":"Digitaal Vlaanderen Gebouwenregister","source_id":"gebouw/Gebouw.13519243/0","kind":"building","building":"official","height_m":5.85,"status":null},"geometry":{"type":"Polygon","coordinates":[[[3.92845011,50.87813552],[3.92843336,50.87810534],[3.92848401,50.87809409],[3.92850076,50.87812427],[3.92845011,50.87813552]]]}},{"type":"Feature","id":"gebouw/Gebouw.13519576/0","properties":{"source":"Digitaal Vlaanderen Gebouwenregister","source_id":"gebouw/Gebouw.13519576/0","kind":"building","building":"official","height_m":8.1,"status":null},"geometry":{"type":"Polygon","coordinates":[[[3.92552745,50.88126992],[3.92545928,50.8813397],[3.92541757,50.8813237],[3.9254854,50.88125341],[3.92552745,50.88126992]]]}},{"type":"Feature","id":"gebouw/Gebouw.13519598/0","properties":{"source":"Digitaal Vlaanderen Gebouwenregister","source_id":"gebouw/Gebouw.13519598/0","kind":"building","building":"official","height_m":6.6,"status":null},"geometry":{"type":"Polygon","coordinates":[[[3.93017893,50.88135638],[3.93006866,50.88143146],[3.92997481,50.88137661],[3.93008683,50.88130108],[3.93017893,50.88135638]]]}},{"type":"Feature","id":"gebouw/Gebouw.13522108/0","properties":{"source":"Digitaal Vlaanderen Gebouwenregister","source_id":"gebouw/Gebouw.13522108/0","kind":"building","building":"official","height_m":8.1,"status":null},"geometry":{"type":"Polygon","coordinates":[[[3.92963038,50.87901376],[3.9295032,50.87906634],[3.92946575,50.87903044],[3.92944783,50.87901327],[3.92940167,50.87896901],[3.92952744,50.87891509],[3.92963038,50.87901376]]]}},{"type":"Feature","id":"gebouw/Gebouw.13546817/0","properties":{"source":"Digitaal Vlaanderen Gebouwenregister","source_id":"gebouw/Gebouw.13546817/0","kind":"building","building":"official","height_m":8.85,"status":null},"geometry":{"type":"Polygon","coordinates":[[[3.92890242,50.88064228],[3.92887421,50.88066033],[3.92881789,50.88062511],[3.92884783,50.88060643],[3.92886497,50.88061769],[3.92889168,50.88063523],[3.92890242,50.88064228]]]}},{"type":"Feature","id":"gebouw/Gebouw.13552398/0","properties":{"source":"Digitaal Vlaanderen Gebouwenregister","source_id":"gebouw/Gebouw.13552398/0","kind":"building","building":"official","height_m":5.1,"status":null},"geometry":{"type":"Polygon","coordinates":[[[3.92890146,50.88126003],[3.92895341,50.88130372],[3.92884379,50.88135515],[3.92879128,50.88131297],[3.92890146,50.88126003]]]}},{"type":"Feature","id":"gebouw/Gebouw.13554255/0","properties":{"source":"Digitaal Vlaanderen Gebouwenregister","source_id":"gebouw/Gebouw.13554255/0","kind":"building","building":"official","height_m":7.35,"status":null},"geometry":{"type":"Polygon","coordinates":[[[3.93030033,50.8809952],[3.93034004,50.88101959],[3.93028041,50.88105842],[3.93023983,50.88103347],[3.9302739,50.88101192],[3.93030033,50.8809952]]]}},{"type":"Feature","id":"gebouw/Gebouw.13585588/0","properties":{"source":"Digitaal Vlaanderen Gebouwenregister","source_id":"gebouw/Gebouw.13585588/0","kind":"building","building":"official","height_m":8.1,"status":null},"geometry":{"type":"Polygon","coordinates":[[[3.92827309,50.87737018],[3.9282674,50.87733611],[3.92823058,50.87724429],[3.92837864,50.87721846],[3.9284274,50.87733822],[3.92827309,50.87737018]]]}},{"type":"Feature","id":"gebouw/Gebouw.13589457/0","properties":{"source":"Digitaal Vlaanderen Gebouwenregister","source_id":"gebouw/Gebouw.13589457/0","kind":"building","building":"official","height_m":7.35,"status":null},"geometry":{"type":"Polygon","coordinates":[[[3.9301761,50.8805008],[3.9303044,50.88040657],[3.93043167,50.88047575],[3.93030811,50.88056847],[3.9301761,50.8805008]]]}},{"type":"Feature","id":"gebouw/Gebouw.13604090/0","properties":{"source":"Digitaal Vlaanderen Gebouwenregister","source_id":"gebouw/Gebouw.13604090/0","kind":"building","building":"official","height_m":6.6,"status":null},"geometry":{"type":"Polygon","coordinates":[[[3.92917783,50.88116097],[3.92916115,50.88114266],[3.92910397,50.88116336],[3.92912054,50.88118168],[3.92914958,50.8812138],[3.92919842,50.88119613],[3.92916939,50.88116402],[3.92917783,50.88116097]]]}},{"type":"Feature","id":"gebouw/Gebouw.13626795/0","properties":{"source":"Digitaal Vlaanderen Gebouwenregister","source_id":"gebouw/Gebouw.13626795/0","kind":"building","building":"official","height_m":7.35,"status":null},"geometry":{"type":"Polygon","coordinates":[[[3.92788024,50.87783189],[3.92793144,50.87793869],[3.92779764,50.87796554],[3.92775123,50.87785672],[3.92788024,50.87783189]]]}},{"type":"Feature","id":"gebouw/Gebouw.13660299/0","properties":{"source":"Digitaal Vlaanderen Gebouwenregister","source_id":"gebouw/Gebouw.13660299/0","kind":"building","building":"official","height_m":7.35,"status":null},"geometry":{"type":"Polygon","coordinates":[[[3.93057352,50.88124662],[3.93052618,50.88121785],[3.93058764,50.88117737],[3.93063499,50.88120614],[3.93057352,50.88124662]]]}},{"type":"Feature","id":"gebouw/Gebouw.13758961/0","properties":{"source":"Digitaal Vlaanderen Gebouwenregister","source_id":"gebouw/Gebouw.13758961/0","kind":"building","building":"official","height_m":5.85,"status":null},"geometry":{"type":"Polygon","coordinates":[[[3.92950263,50.87914746],[3.92958474,50.87910607],[3.92962479,50.8791398],[3.92968739,50.87911006],[3.92972123,50.87913856],[3.92999956,50.87900847],[3.93000661,50.87901369],[3.93003091,50.87900217],[3.93007786,50.87904414],[3.92990907,50.87912305],[3.9299143,50.87912737],[3.92994263,50.87915295],[3.92987593,50.87918145],[3.92984831,50.87915883],[3.92976179,50.87920007],[3.92967314,50.87922801],[3.92955985,50.87928143],[3.92946795,50.87920614],[3.92953594,50.87917433],[3.92950263,50.87914746]]]}},{"type":"Feature","id":"gebouw/Gebouw.13762791/0","properties":{"source":"Digitaal Vlaanderen Gebouwenregister","source_id":"gebouw/Gebouw.13762791/0","kind":"building","building":"official","height_m":7.35,"status":null},"geometry":{"type":"Polygon","coordinates":[[[3.93033861,50.88122119],[3.93024105,50.88128817],[3.9302827,50.88131399],[3.93031325,50.88129354],[3.9303291,50.88130302],[3.9303492,50.88128957],[3.93035214,50.88129132],[3.9303926,50.88126425],[3.93037381,50.88125301],[3.93038302,50.88124684],[3.93033861,50.88122119]]]}},{"type":"Feature","id":"gebouw/Gebouw.13773393/0","properties":{"source":"Digitaal Vlaanderen Gebouwenregister","source_id":"gebouw/Gebouw.13773393/0","kind":"building","building":"official","height_m":7.35,"status":null},"geometry":{"type":"Polygon","coordinates":[[[3.93017466,50.88108336],[3.9301427,50.88111202],[3.93018196,50.88112803],[3.93021119,50.88109965],[3.93017466,50.88108336]]]}},{"type":"Feature","id":"gebouw/Gebouw.13805064/0","properties":{"source":"Digitaal Vlaanderen Gebouwenregister","source_id":"gebouw/Gebouw.13805064/0","kind":"building","building":"official","height_m":5.1,"status":null},"geometry":{"type":"Polygon","coordinates":[[[3.92893427,50.88085753],[3.92873024,50.88072582],[3.92882022,50.88066805],[3.92902548,50.88080088],[3.92893427,50.88085753]]]}},{"type":"Feature","id":"gebouw/Gebouw.13839910/0","properties":{"source":"Digitaal Vlaanderen Gebouwenregister","source_id":"gebouw/Gebouw.13839910/0","kind":"building","building":"official","height_m":8.1,"status":null},"geometry":{"type":"Polygon","coordinates":[[[3.92951006,50.87827499],[3.9294891,50.87824449],[3.92954192,50.87822996],[3.92956288,50.87826046],[3.92951006,50.87827499]]]}},{"type":"Feature","id":"gebouw/Gebouw.13839969/0","properties":{"source":"Digitaal Vlaanderen Gebouwenregister","source_id":"gebouw/Gebouw.13839969/0","kind":"building","building":"official","height_m":7.35,"status":null},"geometry":{"type":"Polygon","coordinates":[[[3.92948219,50.88126254],[3.92945695,50.88122382],[3.92950091,50.88121235],[3.92952614,50.88125107],[3.92948219,50.88126254]]]}},{"type":"Feature","id":"gebouw/Gebouw.16653463/0","properties":{"source":"Digitaal Vlaanderen Gebouwenregister","source_id":"gebouw/Gebouw.16653463/0","kind":"building","building":"official","height_m":5.85,"status":null},"geometry":{"type":"Polygon","coordinates":[[[3.9285164,50.88112812],[3.92840208,50.88104028],[3.92840706,50.88103741],[3.92837427,50.88101064],[3.92839981,50.88099741],[3.92843439,50.88102453],[3.92845494,50.88101378],[3.92845978,50.88101712],[3.92856707,50.88096335],[3.92867386,50.88104731],[3.92856354,50.88110293],[3.92856254,50.88110343],[3.92856352,50.88110421],[3.9285164,50.88112812]]]}},{"type":"Feature","id":"gebouw/Gebouw.16686588/0","properties":{"source":"Digitaal Vlaanderen Gebouwenregister","source_id":"gebouw/Gebouw.16686588/0","kind":"building","building":"official","height_m":5.1,"status":null},"geometry":{"type":"Polygon","coordinates":[[[3.92993132,50.88102196],[3.92991792,50.88101279],[3.92984753,50.88105383],[3.92980825,50.88102763],[3.92988396,50.88098171],[3.92989229,50.88098619],[3.9299192,50.88097019],[3.9299668,50.88100012],[3.92993132,50.88102196]]]}},{"type":"Feature","id":"gebouw/Gebouw.16787569/0","properties":{"source":"Digitaal Vlaanderen Gebouwenregister","source_id":"gebouw/Gebouw.16787569/0","kind":"building","building":"official","height_m":5.85,"status":null},"geometry":{"type":"Polygon","coordinates":[[[3.92844058,50.8782593],[3.92842376,50.87823346],[3.92848446,50.87821764],[3.92850129,50.87824348],[3.92844058,50.8782593]]]}},{"type":"Feature","id":"gebouw/Gebouw.16787635/0","properties":{"source":"Digitaal Vlaanderen Gebouwenregister","source_id":"gebouw/Gebouw.16787635/0","kind":"building","building":"official","height_m":5.85,"status":null},"geometry":{"type":"Polygon","coordinates":[[[3.92501832,50.88126172],[3.92506582,50.88128076],[3.92505509,50.88129159],[3.92509767,50.88130895],[3.92501886,50.88138029],[3.92487569,50.88132361],[3.92487447,50.88132313],[3.92495918,50.881238],[3.92501832,50.88126172]]]}},{"type":"Feature","id":"gebouw/Gebouw.18241762/0","properties":{"source":"Digitaal Vlaanderen Gebouwenregister","source_id":"gebouw/Gebouw.18241762/0","kind":"building","building":"official","height_m":8.1,"status":null},"geometry":{"type":"Polygon","coordinates":[[[3.92212956,50.88028667],[3.92205434,50.88026619],[3.92204658,50.88027543],[3.92193934,50.88024359],[3.92199332,50.88017641],[3.92217386,50.88023368],[3.92212956,50.88028667]]]}},{"type":"Feature","id":"gebouw/Gebouw.18242104/0","properties":{"source":"Digitaal Vlaanderen Gebouwenregister","source_id":"gebouw/Gebouw.18242104/0","kind":"building","building":"official","height_m":8.1,"status":null},"geometry":{"type":"Polygon","coordinates":[[[3.92948414,50.88044692],[3.92954888,50.88041674],[3.92954534,50.88041207],[3.92955013,50.88040011],[3.92956038,50.88038878],[3.92958162,50.88037862],[3.92959788,50.88039464],[3.92960088,50.88039331],[3.9296866,50.88046889],[3.92966812,50.8804773],[3.92965519,50.88048319],[3.92961688,50.88050063],[3.92957095,50.88052154],[3.92948414,50.88044692]]]}},{"type":"Feature","id":"gebouw/Gebouw.18242105/0","properties":{"source":"Digitaal Vlaanderen Gebouwenregister","source_id":"gebouw/Gebouw.18242105/0","kind":"building","building":"official","height_m":8.85,"status":null},"geometry":{"type":"Polygon","coordinates":[[[3.92929356,50.8805223],[3.92940863,50.88046999],[3.92950171,50.88055297],[3.92946014,50.8805719],[3.92945194,50.88056469],[3.9293703,50.88060183],[3.92932491,50.88056214],[3.92933272,50.88055922],[3.92929356,50.8805223]]]}},{"type":"Feature","id":"gebouw/Gebouw.18861702/0","properties":{"source":"Digitaal Vlaanderen Gebouwenregister","source_id":"gebouw/Gebouw.18861702/0","kind":"building","building":"official","height_m":5.1,"status":null},"geometry":{"type":"Polygon","coordinates":[[[3.92917765,50.88022412],[3.9292381,50.88027953],[3.92921805,50.88028833],[3.92917316,50.88030802],[3.92911458,50.88025289],[3.92915594,50.88023402],[3.92917765,50.88022412]]]}},{"type":"Feature","id":"gebouw/Gebouw.18861703/0","properties":{"source":"Digitaal Vlaanderen Gebouwenregister","source_id":"gebouw/Gebouw.18861703/0","kind":"building","building":"official","height_m":5.85,"status":null},"geometry":{"type":"Polygon","coordinates":[[[3.92841082,50.87714737],[3.92842443,50.87717914],[3.92828127,50.87720374],[3.92826855,50.87717434],[3.92841082,50.87714737]]]}},{"type":"Feature","id":"gebouw/Gebouw.18862649/0","properties":{"source":"Digitaal Vlaanderen Gebouwenregister","source_id":"gebouw/Gebouw.18862649/0","kind":"building","building":"official","height_m":8.85,"status":null},"geometry":{"type":"Polygon","coordinates":[[[3.92529638,50.881228],[3.92523033,50.88129331],[3.92520299,50.88128328],[3.92526838,50.88121716],[3.92529638,50.881228]]]}},{"type":"Feature","id":"gebouw/Gebouw.18862650/0","properties":{"source":"Digitaal Vlaanderen Gebouwenregister","source_id":"gebouw/Gebouw.18862650/0","kind":"building","building":"official","height_m":5.1,"status":null},"geometry":{"type":"Polygon","coordinates":[[[3.92746206,50.88058621],[3.92756112,50.88055294],[3.92770528,50.88071475],[3.92760965,50.88074884],[3.92746206,50.88058621]]]}},{"type":"Feature","id":"gebouw/Gebouw.19225572/0","properties":{"source":"Digitaal Vlaanderen Gebouwenregister","source_id":"gebouw/Gebouw.19225572/0","kind":"building","building":"official","height_m":5.1,"status":null},"geometry":{"type":"Polygon","coordinates":[[[3.92228374,50.88027249],[3.92236503,50.88030175],[3.92248207,50.88034386],[3.92233834,50.88049627],[3.92211052,50.88042082],[3.92217355,50.8803493],[3.92234623,50.88040717],[3.92239063,50.88035753],[3.92222431,50.88029683],[3.92221218,50.88031216],[3.92215244,50.88029402],[3.922195,50.88024056],[3.92228374,50.88027249]]]}},{"type":"Feature","id":"gebouw/Gebouw.19954660/0","properties":{"source":"Digitaal Vlaanderen Gebouwenregister","source_id":"gebouw/Gebouw.19954660/0","kind":"building","building":"official","height_m":8.1,"status":null},"geometry":{"type":"Polygon","coordinates":[[[3.92201809,50.88093363],[3.92197076,50.88091885],[3.92200869,50.88087023],[3.92205601,50.88088501],[3.92201809,50.88093363]]]}},{"type":"Feature","id":"gebouw/Gebouw.19954661/0","properties":{"source":"Digitaal Vlaanderen Gebouwenregister","source_id":"gebouw/Gebouw.19954661/0","kind":"building","building":"official","height_m":8.85,"status":null},"geometry":{"type":"Polygon","coordinates":[[[3.92131757,50.88071299],[3.92135814,50.88066271],[3.92140354,50.88067737],[3.92136296,50.88072765],[3.92131757,50.88071299]]]}},{"type":"Feature","id":"gebouw/Gebouw.19954662/0","properties":{"source":"Digitaal Vlaanderen Gebouwenregister","source_id":"gebouw/Gebouw.19954662/0","kind":"building","building":"official","height_m":5.1,"status":null},"geometry":{"type":"Polygon","coordinates":[[[3.92164822,50.88081774],[3.92168682,50.8807678],[3.92173419,50.88078245],[3.92169558,50.88083239],[3.92164822,50.88081774]]]}},{"type":"Feature","id":"gebouw/Gebouw.19955463/0","properties":{"source":"Digitaal Vlaanderen Gebouwenregister","source_id":"gebouw/Gebouw.19955463/0","kind":"building","building":"official","height_m":7.35,"status":null},"geometry":{"type":"Polygon","coordinates":[[[3.92706084,50.87834724],[3.92710801,50.8783403],[3.92712576,50.87838864],[3.92707859,50.87839557],[3.92706084,50.87834724]]]}},{"type":"Feature","id":"gebouw/Gebouw.19955466/0","properties":{"source":"Digitaal Vlaanderen Gebouwenregister","source_id":"gebouw/Gebouw.19955466/0","kind":"building","building":"official","height_m":5.1,"status":null},"geometry":{"type":"Polygon","coordinates":[[[3.9298582,50.88069645],[3.92982721,50.88066386],[3.92985696,50.88065253],[3.92988795,50.88068513],[3.9298582,50.88069645]]]}},{"type":"Feature","id":"gebouw/Gebouw.19955467/0","properties":{"source":"Digitaal Vlaanderen Gebouwenregister","source_id":"gebouw/Gebouw.19955467/0","kind":"building","building":"official","height_m":5.85,"status":null},"geometry":{"type":"Polygon","coordinates":[[[3.92845314,50.87746515],[3.92850242,50.87745423],[3.92853203,50.8775077],[3.92848275,50.87751862],[3.92845314,50.87746515]]]}},{"type":"Feature","id":"gebouw/Gebouw.19955468/0","properties":{"source":"Digitaal Vlaanderen Gebouwenregister","source_id":"gebouw/Gebouw.19955468/0","kind":"building","building":"official","height_m":6.6,"status":null},"geometry":{"type":"Polygon","coordinates":[[[3.92853721,50.87745017],[3.92858153,50.87744266],[3.92860323,50.87749391],[3.92855891,50.87750142],[3.92853721,50.87745017]]]}},{"type":"Feature","id":"gebouw/Gebouw.19955469/0","properties":{"source":"Digitaal Vlaanderen Gebouwenregister","source_id":"gebouw/Gebouw.19955469/0","kind":"building","building":"official","height_m":7.35,"status":null},"geometry":{"type":"Polygon","coordinates":[[[3.92943839,50.87844718],[3.92944243,50.8784176],[3.92949081,50.87842025],[3.92948676,50.87844983],[3.92943839,50.87844718]]]}},{"type":"Feature","id":"gebouw/Gebouw.19955470/0","properties":{"source":"Digitaal Vlaanderen Gebouwenregister","source_id":"gebouw/Gebouw.19955470/0","kind":"building","building":"official","height_m":8.1,"status":null},"geometry":{"type":"Polygon","coordinates":[[[3.92972464,50.87901094],[3.92968993,50.87897892],[3.92976387,50.87894683],[3.92979858,50.87897884],[3.92972464,50.87901094]]]}},{"type":"Feature","id":"gebouw/Gebouw.19955475/0","properties":{"source":"Digitaal Vlaanderen Gebouwenregister","source_id":"gebouw/Gebouw.19955475/0","kind":"building","building":"official","height_m":7.35,"status":null},"geometry":{"type":"Polygon","coordinates":[[[3.92903637,50.87984428],[3.92896486,50.87977256],[3.92900976,50.87975464],[3.92908127,50.87982636],[3.92903637,50.87984428]]]}},{"type":"Feature","id":"gebouw/Gebouw.19956133/0","properties":{"source":"Digitaal Vlaanderen Gebouwenregister","source_id":"gebouw/Gebouw.19956133/0","kind":"building","building":"official","height_m":5.85,"status":null},"geometry":{"type":"Polygon","coordinates":[[[3.93025332,50.88105117],[3.93029621,50.88102204],[3.93033059,50.88104231],[3.9302877,50.88107144],[3.93025332,50.88105117]]]}},{"type":"Feature","id":"gebouw/Gebouw.19956258/0","properties":{"source":"Digitaal Vlaanderen Gebouwenregister","source_id":"gebouw/Gebouw.19956258/0","kind":"building","building":"official","height_m":5.1,"status":null},"geometry":{"type":"Polygon","coordinates":[[[3.92118836,50.87815844],[3.92106233,50.8784472],[3.92088926,50.87841719],[3.92101442,50.87812828],[3.92118836,50.87815844]]]}},{"type":"Feature","id":"gebouw/Gebouw.19956259/0","properties":{"source":"Digitaal Vlaanderen Gebouwenregister","source_id":"gebouw/Gebouw.19956259/0","kind":"building","building":"official","height_m":5.85,"status":null},"geometry":{"type":"Polygon","coordinates":[[[3.92122061,50.87816283],[3.92139433,50.87819295],[3.92126844,50.87848357],[3.9210935,50.87845324],[3.92122061,50.87816283]]]}},{"type":"Feature","id":"gebouw/Gebouw.19961196/0","properties":{"source":"Digitaal Vlaanderen Gebouwenregister","source_id":"gebouw/Gebouw.19961196/0","kind":"building","building":"official","height_m":5.1,"status":null},"geometry":{"type":"Polygon","coordinates":[[[3.92878987,50.88131581],[3.92884516,50.88136007],[3.92895309,50.88130635],[3.92890777,50.88125962],[3.92878987,50.88131581]]]}},{"type":"Feature","id":"gebouw/Gebouw.20801996/0","properties":{"source":"Digitaal Vlaanderen Gebouwenregister","source_id":"gebouw/Gebouw.20801996/0","kind":"building","building":"official","height_m":6.6,"status":null},"geometry":{"type":"Polygon","coordinates":[[[3.92973626,50.87981673],[3.92945317,50.87995055],[3.9294485,50.87994649],[3.92938217,50.87988891],[3.92966774,50.87975725],[3.92973626,50.87981673]]]}},{"type":"Feature","id":"gebouw/Gebouw.30883400/0","properties":{"source":"Digitaal Vlaanderen Gebouwenregister","source_id":"gebouw/Gebouw.30883400/0","kind":"building","building":"official","height_m":6.6,"status":null},"geometry":{"type":"Polygon","coordinates":[[[3.92900486,50.87935783],[3.92894773,50.8793875],[3.92897542,50.87940887],[3.92903254,50.87937921],[3.92900486,50.87935783]]]}},{"type":"Feature","id":"gebouw/Gebouw.31326756/0","properties":{"source":"Digitaal Vlaanderen Gebouwenregister","source_id":"gebouw/Gebouw.31326756/0","kind":"building","building":"official","height_m":5.1,"status":null},"geometry":{"type":"Polygon","coordinates":[[[3.92758792,50.87788262],[3.92767267,50.87786343],[3.92766792,50.87785502],[3.92769566,50.87784874],[3.92768601,50.87783167],[3.92757351,50.87785713],[3.92758792,50.87788262]]]}},{"type":"Feature","id":"gebouw/Gebouw.31326757/0","properties":{"source":"Digitaal Vlaanderen Gebouwenregister","source_id":"gebouw/Gebouw.31326757/0","kind":"building","building":"official","height_m":5.85,"status":null},"geometry":{"type":"Polygon","coordinates":[[[3.92769035,50.87770382],[3.92760817,50.87772358],[3.92761443,50.87773399],[3.92760366,50.87773658],[3.92760089,50.87773196],[3.92755661,50.87774262],[3.92757701,50.87777657],[3.92762213,50.87776572],[3.92762046,50.87776294],[3.92763039,50.87776055],[3.92763179,50.87776288],[3.92771396,50.87774312],[3.92769035,50.87770382]]]}},{"type":"Feature","id":"gebouw/Gebouw.31326758/0","properties":{"source":"Digitaal Vlaanderen Gebouwenregister","source_id":"gebouw/Gebouw.31326758/0","kind":"building","building":"official","height_m":6.6,"status":null},"geometry":{"type":"Polygon","coordinates":[[[3.92754198,50.88129055],[3.92749175,50.88130817],[3.92745649,50.88126796],[3.92750672,50.88125033],[3.92754198,50.88129055]]]}},{"type":"Feature","id":"gebouw/Gebouw.31326759/0","properties":{"source":"Digitaal Vlaanderen Gebouwenregister","source_id":"gebouw/Gebouw.31326759/0","kind":"building","building":"official","height_m":7.35,"status":null},"geometry":{"type":"Polygon","coordinates":[[[3.92778859,50.88114101],[3.92774782,50.88115987],[3.92769941,50.88111847],[3.92770472,50.88111601],[3.92774054,50.88109944],[3.92778859,50.88114101]]]}},{"type":"Feature","id":"gebouw/Gebouw.31550128/0","properties":{"source":"Digitaal Vlaanderen Gebouwenregister","source_id":"gebouw/Gebouw.31550128/0","kind":"building","building":"official","height_m":8.1,"status":null},"geometry":{"type":"Polygon","coordinates":[[[3.92890146,50.88126003],[3.92879128,50.88131297],[3.92880224,50.88132178],[3.92882568,50.8813406],[3.92884379,50.88135515],[3.92895341,50.88130372],[3.92890146,50.88126003]]]}},{"type":"Feature","id":"gebouw/Gebouw.31844553/0","properties":{"source":"Digitaal Vlaanderen Gebouwenregister","source_id":"gebouw/Gebouw.31844553/0","kind":"building","building":"official","height_m":7.35,"status":null},"geometry":{"type":"Polygon","coordinates":[[[3.92929831,50.88120147],[3.9293564,50.88118291],[3.9293346,50.8811556],[3.92927651,50.88117417],[3.92929831,50.88120147]]]}},{"type":"Feature","id":"gebouw/Gebouw.31844703/0","properties":{"source":"Digitaal Vlaanderen Gebouwenregister","source_id":"gebouw/Gebouw.31844703/0","kind":"building","building":"official","height_m":7.35,"status":null},"geometry":{"type":"Polygon","coordinates":[[[3.9299379,50.88071891],[3.92988521,50.88074094],[3.92991928,50.88077356],[3.92997197,50.88075153],[3.9299379,50.88071891]]]}},{"type":"Feature","id":"gebouw/Gebouw.31844794/0","properties":{"source":"Digitaal Vlaanderen Gebouwenregister","source_id":"gebouw/Gebouw.31844794/0","kind":"building","building":"official","height_m":8.1,"status":null},"geometry":{"type":"Polygon","coordinates":[[[3.92863783,50.8795984],[3.92858663,50.87961357],[3.92862743,50.87966552],[3.92867674,50.87965097],[3.92863783,50.8795984]]]}},{"type":"Feature","id":"gebouw/Gebouw.31844893/0","properties":{"source":"Digitaal Vlaanderen Gebouwenregister","source_id":"gebouw/Gebouw.31844893/0","kind":"building","building":"official","height_m":5.85,"status":null},"geometry":{"type":"Polygon","coordinates":[[[3.927624,50.87788441],[3.92764554,50.87793613],[3.92770323,50.87792651],[3.92768168,50.87787479],[3.927624,50.87788441]]]}},{"type":"Feature","id":"gebouw/Gebouw.32031900/0","properties":{"source":"Digitaal Vlaanderen Gebouwenregister","source_id":"gebouw/Gebouw.32031900/0","kind":"building","building":"official","height_m":5.1,"status":null},"geometry":{"type":"Polygon","coordinates":[[[3.93028889,50.88108328],[3.93041701,50.8810017],[3.93035735,50.8809642],[3.93022923,50.88104579],[3.93028889,50.88108328]]]}},{"type":"Feature","id":"way/163834882","properties":{"source":"OpenStreetMap","source_id":"way/163834882","kind":"vegetation","landuse":"forest","natural":null,"name":null},"geometry":{"type":"Polygon","coordinates":[[[3.927854,50.8810714],[3.927998,50.8810633],[3.928134,50.881188],[3.9282138,50.8812663],[3.9282544,50.8813557],[3.9281125,50.8814298],[3.928115,50.8813124],[3.9280073,50.8813494],[3.9279375,50.8813513],[3.927854,50.8810714]]]}},{"type":"Feature","id":"way/163834884","properties":{"source":"OpenStreetMap","source_id":"way/163834884","kind":"vegetation","landuse":"forest","natural":null,"name":null},"geometry":{"type":"Polygon","coordinates":[[[3.9281766,50.8763135],[3.9278753,50.8758793],[3.9311538,50.8749363],[3.9319358,50.875704],[3.9300809,50.8756662],[3.9289945,50.8760353],[3.9281766,50.8763135]]]}},{"type":"Feature","id":"way/163834896","properties":{"source":"OpenStreetMap","source_id":"way/163834896","kind":"vegetation","landuse":"forest","natural":null,"name":null},"geometry":{"type":"Polygon","coordinates":[[[3.9285291,50.8770824],[3.9286387,50.877306],[3.9287522,50.8774937],[3.9266223,50.8779986],[3.9265119,50.8777691],[3.9265969,50.8776957],[3.9270217,50.8773303],[3.9270819,50.8773506],[3.9285291,50.8770824]]]}},{"type":"Feature","id":"way/163928905","properties":{"source":"OpenStreetMap","source_id":"way/163928905","kind":"vegetation","landuse":"forest","natural":null,"name":null},"geometry":{"type":"Polygon","coordinates":[[[3.9263851,50.8772935],[3.9262628,50.876961],[3.9265263,50.876901],[3.9266024,50.8769095],[3.9267545,50.8770055],[3.9267736,50.8771152],[3.9267029,50.8772009],[3.9265942,50.8772661],[3.9263851,50.8772935]]]}},{"type":"Feature","id":"way/458762915","properties":{"source":"OpenStreetMap","source_id":"way/458762915","kind":"waterway","waterway":"stream","name":"Holbeek"},"geometry":{"type":"LineString","coordinates":[[3.9265384,50.8778277],[3.9265626,50.8778545]]}},{"type":"Feature","id":"way/458762919","properties":{"source":"OpenStreetMap","source_id":"way/458762919","kind":"waterway","waterway":"stream","name":"Holbeek"},"geometry":{"type":"LineString","coordinates":[[3.9276611,50.8801914],[3.9276873,50.8802167]]}},{"type":"Feature","id":"way/458762920","properties":{"source":"OpenStreetMap","source_id":"way/458762920","kind":"waterway","waterway":"stream","name":"Holbeek"},"geometry":{"type":"LineString","coordinates":[[3.9276873,50.8802167],[3.9277947,50.8802978],[3.9278057,50.8803443],[3.9277776,50.8804039],[3.9277469,50.8804429],[3.927738,50.880459],[3.9277398,50.8804831],[3.9278039,50.8805363],[3.9278426,50.880583],[3.9278582,50.8806296],[3.9278542,50.8807199],[3.9278639,50.8807561],[3.9278873,50.8807777],[3.9279256,50.8807985],[3.9279897,50.8808264],[3.9279995,50.8808528],[3.9279984,50.8808817],[3.9279634,50.8809324],[3.9279562,50.8809644],[3.9279523,50.8809986],[3.9279512,50.881008],[3.9279552,50.8810749],[3.9279568,50.8811447],[3.9279713,50.8811764],[3.9280214,50.8812001],[3.9281621,50.8812666],[3.9282358,50.8813013],[3.928288,50.8813714],[3.9282891,50.8814208],[3.9282749,50.8815473],[3.9282811,50.8816142],[3.9283879,50.8817649],[3.9284384,50.8818456]]}},{"type":"Feature","id":"way/458762921","properties":{"source":"OpenStreetMap","source_id":"way/458762921","kind":"waterway","waterway":"drain","name":null},"geometry":{"type":"LineString","coordinates":[[3.9283448,50.8803023],[3.9281304,50.8803666],[3.9280528,50.880382],[3.9279728,50.8803915],[3.9279102,50.8803966],[3.9278708,50.8804127],[3.9278233,50.8804244],[3.9277776,50.8804039]]}},{"type":"Feature","id":"way/458762922","properties":{"source":"OpenStreetMap","source_id":"way/458762922","kind":"waterway","waterway":"drain","name":null},"geometry":{"type":"LineString","coordinates":[[3.9280169,50.8804171],[3.9281687,50.8805984],[3.9283889,50.8808606]]}},{"type":"Feature","id":"way/458762923","properties":{"source":"OpenStreetMap","source_id":"way/458762923","kind":"waterway","waterway":"drain","name":null},"geometry":{"type":"LineString","coordinates":[[3.9284282,50.8811658],[3.9282144,50.8809201]]}},{"type":"Feature","id":"way/458762924","properties":{"source":"OpenStreetMap","source_id":"way/458762924","kind":"waterway","waterway":"drain","name":null},"geometry":{"type":"LineString","coordinates":[[3.9287058,50.8807489],[3.9283889,50.8808606],[3.9282538,50.8809082],[3.9282144,50.8809201],[3.9279523,50.8809986]]}},{"type":"Feature","id":"way/458762931","properties":{"source":"OpenStreetMap","source_id":"way/458762931","kind":"waterway","waterway":"stream","name":"Holbeek"},"geometry":{"type":"LineString","coordinates":[[3.9263274,50.8764706],[3.9263747,50.8765668],[3.9263744,50.8765973],[3.9263186,50.8766288],[3.9262889,50.8766479],[3.9263115,50.876709],[3.9262798,50.8767947],[3.9263023,50.8768342],[3.9263836,50.8768504],[3.9264037,50.8769057],[3.926401,50.8769523],[3.9263258,50.8769643],[3.9262794,50.8770342],[3.9262942,50.8770611],[3.9262821,50.8770938],[3.9263464,50.8771353],[3.9263621,50.8772568],[3.9263657,50.8773073],[3.926375,50.8773501],[3.9263968,50.8773775],[3.9264107,50.8774257],[3.9264084,50.8774627],[3.9264281,50.8775369],[3.926448,50.8775779],[3.9264478,50.8776078],[3.9264623,50.8776434],[3.9264606,50.8776787],[3.9264765,50.877711],[3.9264919,50.8777599],[3.9265081,50.8778176],[3.9265384,50.8778277]]}},{"type":"Feature","id":"way/458762932","properties":{"source":"OpenStreetMap","source_id":"way/458762932","kind":"waterway","waterway":"stream","name":"Holbeek"},"geometry":{"type":"LineString","coordinates":[[3.9271392,50.8790388],[3.9271754,50.8791408],[3.9271706,50.8791931],[3.9271726,50.8792237],[3.9271874,50.8792443],[3.9272335,50.8792416],[3.9272709,50.8792851],[3.9272682,50.8793302],[3.9272945,50.8794626],[3.9273167,50.8794945],[3.9273605,50.8795356],[3.9273648,50.8795705],[3.9273531,50.8796141],[3.9273572,50.8796432],[3.9274278,50.8797104],[3.9274691,50.8797221],[3.9275576,50.8797053],[3.9275714,50.8797297],[3.9275649,50.8797556],[3.9274819,50.8798225],[3.927484,50.8798473],[3.9275241,50.8798648],[3.9275672,50.8798872],[3.9275746,50.8799145],[3.9275184,50.8799376],[3.9275429,50.8799786],[3.9275825,50.8799874],[3.9276733,50.8800021],[3.9277006,50.8800313],[3.9276796,50.8800719],[3.9276426,50.8800907],[3.927608,50.8801037],[3.9275928,50.8801258],[3.9276478,50.8801759],[3.9276611,50.8801914]]}},{"type":"Feature","id":"way/1013876070","properties":{"source":"OpenStreetMap","source_id":"way/1013876070","kind":"waterway","waterway":"stream","name":"Holbeek"},"geometry":{"type":"LineString","coordinates":[[3.9265626,50.8778545],[3.9265738,50.8778865],[3.9265824,50.877952],[3.9266026,50.8779971],[3.9266478,50.8780758],[3.9267111,50.8781953],[3.9267517,50.878274],[3.9267661,50.8783294],[3.9267853,50.8783811],[3.9268005,50.878427],[3.9268368,50.8784911],[3.9268869,50.8785459],[3.9269787,50.8785846],[3.9270236,50.8786909],[3.9270344,50.8787288],[3.9270451,50.878816],[3.927083,50.87888],[3.9271344,50.879014]]}},{"type":"Feature","id":"way/1013876071","properties":{"source":"OpenStreetMap","source_id":"way/1013876071","kind":"waterway","waterway":"stream","name":"Holbeek"},"geometry":{"type":"LineString","coordinates":[[3.9271344,50.879014],[3.9271392,50.8790388]]}}]}