{"type":"FeatureCollection","features":[{"type":"Feature","id":"gebouw/Gebouw.13222700/0","properties":{"source":"Digitaal Vlaanderen Gebouwenregister","source_id":"gebouw/Gebouw.13222700/0","kind":"building","building":"official","height_m":6.6,"status":null},"geometry":{"type":"Polygon","coordinates":[[[3.91935615,50.9222652],[3.91932662,50.9222492],[3.91938271,50.92220784],[3.91941225,50.92222385],[3.91935615,50.9222652]]]}},{"type":"Feature","id":"gebouw/Gebouw.13649806/0","properties":{"source":"Digitaal Vlaanderen Gebouwenregister","source_id":"gebouw/Gebouw.13649806/0","kind":"building","building":"official","height_m":8.1,"status":null},"geometry":{"type":"Polygon","coordinates":[[[3.91915057,50.92192245],[3.9192042,50.9219463],[3.91915989,50.92198603],[3.91910362,50.92196396],[3.91915057,50.92192245]]]}},{"type":"Feature","id":"way/459638632","properties":{"source":"OpenStreetMap","source_id":"way/459638632","kind":"waterway","waterway":"drain","name":null},"geometry":{"type":"LineString","coordinates":[[3.9133822,50.921527],[3.9130894,50.9219353],[3.9128854,50.922226]]}}]}