{"type":"FeatureCollection","features":[{"type":"Feature","id":"gebouw/Gebouw.19955390/0","properties":{"source":"Digitaal Vlaanderen Gebouwenregister","source_id":"gebouw/Gebouw.19955390/0","kind":"building","building":"official","height_m":6.6,"status":null},"geometry":{"type":"Polygon","coordinates":[[[3.91859616,50.90114893],[3.9186441,50.90116835],[3.91856262,50.90124876],[3.91851319,50.90122873],[3.91859616,50.90114893]]]}},{"type":"Feature","id":"gebouw/Gebouw.31326755/0","properties":{"source":"Digitaal Vlaanderen Gebouwenregister","source_id":"gebouw/Gebouw.31326755/0","kind":"building","building":"official","height_m":8.85,"status":null},"geometry":{"type":"Polygon","coordinates":[[[3.9185958,50.90114927],[3.91864272,50.90116864],[3.91856085,50.90124794],[3.91851353,50.90122841],[3.9185958,50.90114927]]]}},{"type":"Feature","id":"way/791119636","properties":{"source":"OpenStreetMap","source_id":"way/791119636","kind":"waterway","waterway":"ditch","name":null},"geometry":{"type":"LineString","coordinates":[[3.9195033,50.9015181],[3.918867,50.9009819],[3.9185991,50.9007427]]}},{"type":"Feature","id":"way/791119638","properties":{"source":"OpenStreetMap","source_id":"way/791119638","kind":"waterway","waterway":"ditch","name":null},"geometry":{"type":"LineString","coordinates":[[3.917957,50.9002299],[3.9179403,50.900205],[3.9179104,50.9001872]]}},{"type":"Feature","id":"way/791119639","properties":{"source":"OpenStreetMap","source_id":"way/791119639","kind":"waterway","waterway":"ditch","name":null},"geometry":{"type":"LineString","coordinates":[[3.9187248,50.9009835],[3.918411,50.9007129],[3.9182594,50.900559],[3.9179859,50.9002646]]}},{"type":"Feature","id":"way/791119640","properties":{"source":"OpenStreetMap","source_id":"way/791119640","kind":"waterway","waterway":"ditch","name":null},"geometry":{"type":"LineString","coordinates":[[3.919502,50.9017968],[3.9194396,50.901639],[3.9194202,50.9016027],[3.9193933,50.9015629],[3.9193451,50.9015109],[3.9187865,50.9010351]]}}]}