{"type":"FeatureCollection","features":[{"type":"Feature","id":"way/163727399","properties":{"source":"OpenStreetMap","source_id":"way/163727399","kind":"vegetation","landuse":"forest","natural":null,"name":null},"geometry":{"type":"Polygon","coordinates":[[[3.9199744,50.8826848],[3.9200662,50.8826217],[3.9200507,50.8825558],[3.9200043,50.8825107],[3.9199347,50.882479],[3.9199231,50.882435],[3.9199231,50.882396],[3.9199057,50.8823362],[3.9198613,50.8823192],[3.9197491,50.882307],[3.9195925,50.8823326],[3.9195268,50.8823509],[3.919493,50.8823484],[3.9194011,50.8823271],[3.9193141,50.882307],[3.9191585,50.8823039],[3.9190422,50.88231],[3.9189247,50.8822867],[3.9187825,50.8821866],[3.9186608,50.8821133],[3.9185733,50.8820478],[3.9184366,50.8820107],[3.9183314,50.8820012],[3.9182685,50.8820297],[3.9181755,50.8820116],[3.9180702,50.8819831],[3.9179199,50.8819615],[3.9178132,50.8819564],[3.9177107,50.8819374],[3.9175781,50.8818736],[3.9174933,50.8818244],[3.9173621,50.8817563],[3.9170819,50.8816812],[3.9167538,50.8816114],[3.9166704,50.8816131],[3.9165528,50.8815751],[3.9164503,50.8814406],[3.9164749,50.8813664],[3.916885,50.8809334],[3.9167729,50.880861],[3.9169424,50.8807092],[3.9169807,50.8805798],[3.9169698,50.8798035],[3.9168495,50.8797966],[3.9168522,50.8805625],[3.9168413,50.8806333],[3.9167893,50.8807057],[3.9161331,50.8813992],[3.9160675,50.8813595],[3.916032,50.8812974],[3.9159554,50.8812267],[3.9158761,50.8810628],[3.915805,50.8809903],[3.9156765,50.8809955],[3.9156683,50.881068],[3.9156383,50.8811076],[3.9151543,50.8809765],[3.915075,50.8809179],[3.9150121,50.8809231],[3.9149575,50.8809576],[3.9134072,50.8806419],[3.9133594,50.8806171],[3.9132842,50.8805781],[3.9131502,50.8805677],[3.9130026,50.8806091],[3.9128686,50.880704],[3.9128372,50.8807782],[3.9127907,50.8808385],[3.9127278,50.8808653],[3.9127148,50.8808751],[3.9126869,50.8808961],[3.9127334,50.8809303],[3.9128283,50.8808726],[3.9128665,50.8808226],[3.9129076,50.8807967],[3.9129868,50.8807803],[3.9130675,50.8807639],[3.9131585,50.8807697],[3.9132629,50.8807343],[3.9133596,50.880688],[3.9134582,50.8806953],[3.915043,50.8810325],[3.9156191,50.8811398],[3.9155611,50.8812862],[3.9157235,50.8813521],[3.9158704,50.8814472],[3.9161797,50.8815277],[3.9163267,50.8815814],[3.9165973,50.8816643],[3.9170381,50.8817619],[3.9174596,50.8819351],[3.9177535,50.8820474],[3.9181053,50.8820961],[3.918318,50.8821205],[3.9185074,50.8821425],[3.9188013,50.882262],[3.9189134,50.8823474],[3.919072,50.8823669],[3.919246,50.8823499],[3.9193697,50.8823791],[3.9193929,50.8824621],[3.9195592,50.8825377],[3.9197847,50.8826272],[3.9199744,50.8826848]]]}},{"type":"Feature","id":"way/460818908","properties":{"source":"OpenStreetMap","source_id":"way/460818908","kind":"waterway","waterway":"drain","name":null},"geometry":{"type":"LineString","coordinates":[[3.9194693,50.8815796],[3.9194396,50.881564]]}},{"type":"Feature","id":"way/460818909","properties":{"source":"OpenStreetMap","source_id":"way/460818909","kind":"waterway","waterway":"drain","name":null},"geometry":{"type":"LineString","coordinates":[[3.9194396,50.881564],[3.9192604,50.8814602]]}},{"type":"Feature","id":"way/460818910","properties":{"source":"OpenStreetMap","source_id":"way/460818910","kind":"waterway","waterway":"drain","name":null},"geometry":{"type":"LineString","coordinates":[[3.9192604,50.8814602],[3.9191997,50.8814318]]}},{"type":"Feature","id":"way/460818911","properties":{"source":"OpenStreetMap","source_id":"way/460818911","kind":"waterway","waterway":"drain","name":null},"geometry":{"type":"LineString","coordinates":[[3.9191997,50.8814318],[3.9190953,50.8813855]]}},{"type":"Feature","id":"way/460818912","properties":{"source":"OpenStreetMap","source_id":"way/460818912","kind":"waterway","waterway":"drain","name":null},"geometry":{"type":"LineString","coordinates":[[3.9190953,50.8813855],[3.9190445,50.8813481]]}},{"type":"Feature","id":"way/460818913","properties":{"source":"OpenStreetMap","source_id":"way/460818913","kind":"waterway","waterway":"drain","name":null},"geometry":{"type":"LineString","coordinates":[[3.9199194,50.8817603],[3.9194693,50.8815796]]}},{"type":"Feature","id":"way/460818915","properties":{"source":"OpenStreetMap","source_id":"way/460818915","kind":"waterway","waterway":"drain","name":null},"geometry":{"type":"LineString","coordinates":[[3.9200394,50.8821676],[3.9197176,50.882071]]}},{"type":"Feature","id":"way/460818916","properties":{"source":"OpenStreetMap","source_id":"way/460818916","kind":"waterway","waterway":"drain","name":null},"geometry":{"type":"LineString","coordinates":[[3.9195751,50.8817781],[3.9194408,50.8819861]]}},{"type":"Feature","id":"way/460818917","properties":{"source":"OpenStreetMap","source_id":"way/460818917","kind":"waterway","waterway":"drain","name":null},"geometry":{"type":"LineString","coordinates":[[3.9198785,50.8818137],[3.9197176,50.882071],[3.9194408,50.8819861],[3.9193042,50.8819441]]}},{"type":"Feature","id":"way/460818918","properties":{"source":"OpenStreetMap","source_id":"way/460818918","kind":"waterway","waterway":"drain","name":null},"geometry":{"type":"LineString","coordinates":[[3.9193832,50.8816241],[3.9191822,50.8819073]]}},{"type":"Feature","id":"way/460818919","properties":{"source":"OpenStreetMap","source_id":"way/460818919","kind":"waterway","waterway":"drain","name":null},"geometry":{"type":"LineString","coordinates":[[3.9191913,50.8815172],[3.9189658,50.8818418]]}},{"type":"Feature","id":"way/460818920","properties":{"source":"OpenStreetMap","source_id":"way/460818920","kind":"waterway","waterway":"drain","name":null},"geometry":{"type":"LineString","coordinates":[[3.9189528,50.8814384],[3.9187305,50.8817706]]}},{"type":"Feature","id":"way/460818921","properties":{"source":"OpenStreetMap","source_id":"way/460818921","kind":"waterway","waterway":"drain","name":null},"geometry":{"type":"LineString","coordinates":[[3.9187524,50.8813209],[3.9186959,50.8813636],[3.9184769,50.8816939]]}},{"type":"Feature","id":"way/460818922","properties":{"source":"OpenStreetMap","source_id":"way/460818922","kind":"waterway","waterway":"drain","name":null},"geometry":{"type":"LineString","coordinates":[[3.9192336,50.8820973],[3.9192025,50.8821712]]}},{"type":"Feature","id":"way/460818924","properties":{"source":"OpenStreetMap","source_id":"way/460818924","kind":"waterway","waterway":"drain","name":null},"geometry":{"type":"LineString","coordinates":[[3.9185068,50.8812194],[3.91825,50.8816236],[3.9183798,50.8816646],[3.9184769,50.8816939],[3.9187305,50.8817706],[3.9189658,50.8818418],[3.9191822,50.8819073],[3.9193042,50.8819441],[3.9192336,50.8820973]]}}]}