{"type":"FeatureCollection","features":[{"type":"Feature","id":"way/460818914","properties":{"source":"OpenStreetMap","source_id":"way/460818914","kind":"waterway","waterway":"drain","name":null},"geometry":{"type":"LineString","coordinates":[[3.9190445,50.8813481],[3.9188356,50.8812501],[3.9187256,50.8811967],[3.9185901,50.8811486],[3.9183474,50.8810774],[3.9181583,50.88104],[3.9178958,50.8810204],[3.9176446,50.8810026],[3.9172551,50.8808904],[3.9170717,50.8808388],[3.9169898,50.8808334],[3.9167525,50.880844]]}},{"type":"Feature","id":"way/460818925","properties":{"source":"OpenStreetMap","source_id":"way/460818925","kind":"waterway","waterway":"drain","name":null},"geometry":{"type":"LineString","coordinates":[[3.9169136,50.8798407],[3.916908,50.8804764],[3.9168769,50.8806972],[3.916812,50.8807738],[3.9167525,50.880844],[3.9164846,50.8811602],[3.9162391,50.8813645],[3.9161657,50.8813921],[3.9160968,50.8814729]]}}]}