{"type":"FeatureCollection","features":[{"type":"Feature","id":"gebouw/Gebouw.12952747/0","properties":{"source":"Digitaal Vlaanderen Gebouwenregister","source_id":"gebouw/Gebouw.12952747/0","kind":"building","building":"official","height_m":5.85,"status":null},"geometry":{"type":"Polygon","coordinates":[[[3.90883937,50.91849926],[3.9087679,50.91847468],[3.90879683,50.91844108],[3.90886829,50.91846566],[3.90883937,50.91849926]]]}},{"type":"Feature","id":"gebouw/Gebouw.12968442/0","properties":{"source":"Digitaal Vlaanderen Gebouwenregister","source_id":"gebouw/Gebouw.12968442/0","kind":"building","building":"official","height_m":5.1,"status":null},"geometry":{"type":"Polygon","coordinates":[[[3.90385271,50.91714877],[3.9038107,50.91713877],[3.90389153,50.917003],[3.90392959,50.91701206],[3.9039108,50.91704363],[3.90391474,50.91704457],[3.90385271,50.91714877]]]}},{"type":"Feature","id":"gebouw/Gebouw.13058259/0","properties":{"source":"Digitaal Vlaanderen Gebouwenregister","source_id":"gebouw/Gebouw.13058259/0","kind":"building","building":"official","height_m":7.35,"status":null},"geometry":{"type":"Polygon","coordinates":[[[3.90886145,50.91824447],[3.90871493,50.91840477],[3.90846431,50.91831324],[3.90821143,50.9182209],[3.90834321,50.91807673],[3.9085961,50.91816907],[3.90860621,50.918158],[3.90872683,50.91820205],[3.90873145,50.918197],[3.90886145,50.91824447]]]}},{"type":"Feature","id":"gebouw/Gebouw.13104741/0","properties":{"source":"Digitaal Vlaanderen Gebouwenregister","source_id":"gebouw/Gebouw.13104741/0","kind":"building","building":"official","height_m":7.35,"status":null},"geometry":{"type":"Polygon","coordinates":[[[3.90716909,50.91661033],[3.90681444,50.91647498],[3.90683076,50.91645747],[3.90682098,50.91645307],[3.90686504,50.91640713],[3.90688166,50.9164135],[3.90689058,50.91640421],[3.90690008,50.91640785],[3.90691119,50.91639626],[3.90693131,50.91640398],[3.90694374,50.91639102],[3.90695681,50.91639603],[3.90698234,50.91636942],[3.9069695,50.9163645],[3.90698373,50.91634967],[3.90697063,50.91634465],[3.90698605,50.91632857],[3.90737952,50.9164794],[3.9073234,50.91653867],[3.90726243,50.91651578],[3.90716909,50.91661033]]]}},{"type":"Feature","id":"gebouw/Gebouw.13221934/0","properties":{"source":"Digitaal Vlaanderen Gebouwenregister","source_id":"gebouw/Gebouw.13221934/0","kind":"building","building":"official","height_m":8.1,"status":null},"geometry":{"type":"Polygon","coordinates":[[[3.90902174,50.91775343],[3.90889199,50.91769202],[3.90895273,50.91764074],[3.90908248,50.91770214],[3.90902174,50.91775343]]]}},{"type":"Feature","id":"gebouw/Gebouw.13254448/0","properties":{"source":"Digitaal Vlaanderen Gebouwenregister","source_id":"gebouw/Gebouw.13254448/0","kind":"building","building":"official","height_m":8.1,"status":null},"geometry":{"type":"Polygon","coordinates":[[[3.90894806,50.92007949],[3.90899607,50.92000792],[3.90901839,50.92001301],[3.90906151,50.91994504],[3.90888764,50.91989803],[3.90884399,50.91996482],[3.90887029,50.91997155],[3.90885416,50.9199964],[3.90884054,50.91999292],[3.90880816,50.92004311],[3.90894806,50.92007949]]]}},{"type":"Feature","id":"gebouw/Gebouw.13267799/0","properties":{"source":"Digitaal Vlaanderen Gebouwenregister","source_id":"gebouw/Gebouw.13267799/0","kind":"building","building":"official","height_m":8.85,"status":null},"geometry":{"type":"Polygon","coordinates":[[[3.90935314,50.91830542],[3.90920804,50.91845895],[3.90906813,50.91840516],[3.90914249,50.91832272],[3.90903436,50.91828195],[3.90904063,50.91827501],[3.90900112,50.91826047],[3.90907368,50.91818329],[3.90912627,50.91820198],[3.9091131,50.91821821],[3.90935314,50.91830542]]]}},{"type":"Feature","id":"gebouw/Gebouw.13275516/0","properties":{"source":"Digitaal Vlaanderen Gebouwenregister","source_id":"gebouw/Gebouw.13275516/0","kind":"building","building":"official","height_m":5.1,"status":null},"geometry":{"type":"Polygon","coordinates":[[[3.90568067,50.91686638],[3.9056281,50.91684124],[3.90564779,50.91682479],[3.90570035,50.91684992],[3.90568067,50.91686638]]]}},{"type":"Feature","id":"gebouw/Gebouw.13342387/0","properties":{"source":"Digitaal Vlaanderen Gebouwenregister","source_id":"gebouw/Gebouw.13342387/0","kind":"building","building":"official","height_m":5.85,"status":null},"geometry":{"type":"Polygon","coordinates":[[[3.90916873,50.91947042],[3.90933467,50.91951341],[3.90925327,50.91963772],[3.90908644,50.91959491],[3.90916873,50.91947042]]]}},{"type":"Feature","id":"gebouw/Gebouw.13345659/0","properties":{"source":"Digitaal Vlaanderen Gebouwenregister","source_id":"gebouw/Gebouw.13345659/0","kind":"building","building":"official","height_m":7.35,"status":null},"geometry":{"type":"Polygon","coordinates":[[[3.90847505,50.92053703],[3.90860107,50.92056896],[3.90857948,50.92060412],[3.90859486,50.92060839],[3.9085743,50.92063735],[3.90856039,50.92063403],[3.90849859,50.92073056],[3.90839238,50.92070426],[3.90841489,50.92066964],[3.90839422,50.92066449],[3.90843501,50.92060008],[3.90845515,50.92060492],[3.90846839,50.920585],[3.90844796,50.92057982],[3.90847505,50.92053703]]]}},{"type":"Feature","id":"gebouw/Gebouw.13411509/0","properties":{"source":"Digitaal Vlaanderen Gebouwenregister","source_id":"gebouw/Gebouw.13411509/0","kind":"building","building":"official","height_m":7.35,"status":null},"geometry":{"type":"Polygon","coordinates":[[[3.90747733,50.91695199],[3.90732715,50.91689538],[3.90740253,50.91681547],[3.90755272,50.91687208],[3.90747733,50.91695199]]]}},{"type":"Feature","id":"gebouw/Gebouw.13422654/0","properties":{"source":"Digitaal Vlaanderen Gebouwenregister","source_id":"gebouw/Gebouw.13422654/0","kind":"building","building":"official","height_m":5.1,"status":null},"geometry":{"type":"Polygon","coordinates":[[[3.90884975,50.91766701],[3.90881387,50.91764847],[3.9088607,50.91761226],[3.90889657,50.9176308],[3.90884975,50.91766701]]]}},{"type":"Feature","id":"gebouw/Gebouw.13430772/0","properties":{"source":"Digitaal Vlaanderen Gebouwenregister","source_id":"gebouw/Gebouw.13430772/0","kind":"building","building":"official","height_m":5.1,"status":null},"geometry":{"type":"Polygon","coordinates":[[[3.90901709,50.92078376],[3.90898719,50.92077729],[3.90899766,50.92074711],[3.90900463,50.9207139],[3.9090358,50.92071661],[3.90902966,50.92075266],[3.90901709,50.92078376]]]}},{"type":"Feature","id":"gebouw/Gebouw.13435846/0","properties":{"source":"Digitaal Vlaanderen Gebouwenregister","source_id":"gebouw/Gebouw.13435846/0","kind":"building","building":"official","height_m":8.1,"status":null},"geometry":{"type":"Polygon","coordinates":[[[3.90907668,50.91968859],[3.90919795,50.9197201],[3.90918135,50.91974515],[3.90919555,50.91974866],[3.90920451,50.91976058],[3.90919095,50.91978227],[3.90917358,50.91978776],[3.90915939,50.91978388],[3.90910862,50.91986184],[3.90902966,50.91984029],[3.9090249,50.91984645],[3.90894387,50.91982469],[3.90897575,50.91977459],[3.90901459,50.91978468],[3.90907668,50.91968859]]]}},{"type":"Feature","id":"gebouw/Gebouw.13460539/0","properties":{"source":"Digitaal Vlaanderen Gebouwenregister","source_id":"gebouw/Gebouw.13460539/0","kind":"building","building":"official","height_m":5.85,"status":null},"geometry":{"type":"Polygon","coordinates":[[[3.90872988,50.9203541],[3.90873447,50.92034831],[3.90884983,50.92037789],[3.90878918,50.92047269],[3.90874242,50.92046138],[3.90871028,50.9205149],[3.9084967,50.92046078],[3.90852532,50.92041632],[3.9085126,50.92041299],[3.90857486,50.92031515],[3.90872988,50.9203541]]]}},{"type":"Feature","id":"gebouw/Gebouw.13475365/0","properties":{"source":"Digitaal Vlaanderen Gebouwenregister","source_id":"gebouw/Gebouw.13475365/0","kind":"building","building":"official","height_m":5.85,"status":null},"geometry":{"type":"Polygon","coordinates":[[[3.90688407,50.91717741],[3.90598252,50.91682537],[3.90617207,50.9166314],[3.90641326,50.91672558],[3.90645356,50.91668434],[3.90649341,50.91670003],[3.90659112,50.91659978],[3.90697033,50.91674785],[3.9068787,50.91684162],[3.90700975,50.91689279],[3.90700342,50.91689928],[3.90711376,50.91694236],[3.90688407,50.91717741]]]}},{"type":"Feature","id":"gebouw/Gebouw.13489929/0","properties":{"source":"Digitaal Vlaanderen Gebouwenregister","source_id":"gebouw/Gebouw.13489929/0","kind":"building","building":"official","height_m":7.35,"status":null},"geometry":{"type":"Polygon","coordinates":[[[3.90880039,50.91876113],[3.90880307,50.91875774],[3.90891488,50.91861611],[3.90891694,50.9186135],[3.90900117,50.91864127],[3.90900286,50.91863929],[3.90901522,50.91864348],[3.90901379,50.91864555],[3.90903605,50.9186527],[3.90900366,50.91869497],[3.90900067,50.91869398],[3.90895984,50.9187448],[3.90897001,50.91874812],[3.90892751,50.91880137],[3.90880039,50.91876113]]]}},{"type":"Feature","id":"gebouw/Gebouw.13527589/0","properties":{"source":"Digitaal Vlaanderen Gebouwenregister","source_id":"gebouw/Gebouw.13527589/0","kind":"building","building":"official","height_m":5.85,"status":null},"geometry":{"type":"Polygon","coordinates":[[[3.90756992,50.91844783],[3.90752008,50.91850735],[3.90744229,50.91848093],[3.90724951,50.91841543],[3.90727916,50.91837657],[3.90729578,50.91835479],[3.90756992,50.91844783]]]}},{"type":"Feature","id":"gebouw/Gebouw.13578935/0","properties":{"source":"Digitaal Vlaanderen Gebouwenregister","source_id":"gebouw/Gebouw.13578935/0","kind":"building","building":"official","height_m":8.85,"status":null},"geometry":{"type":"Polygon","coordinates":[[[3.90809059,50.91880184],[3.90819393,50.91881264],[3.90788984,50.91930527],[3.90771436,50.91926443],[3.90772715,50.91924215],[3.90766452,50.91922348],[3.90766162,50.91922856],[3.90724542,50.91910603],[3.90733247,50.91900254],[3.90726517,50.91897696],[3.90733256,50.91889676],[3.90725508,50.91886949],[3.90730756,50.91881171],[3.90738793,50.91884039],[3.9075832,50.91861548],[3.90763455,50.91863416],[3.90768517,50.91865195],[3.90768916,50.91865326],[3.90786838,50.9186703],[3.90787898,50.91862496],[3.90796923,50.91863358],[3.90805009,50.91864141],[3.90815318,50.91865139],[3.90815075,50.91866051],[3.90817737,50.91866322],[3.90820918,50.91866646],[3.90822655,50.91866823],[3.9082033,50.91875844],[3.90813481,50.91875136],[3.90813137,50.91876423],[3.90769351,50.91872372],[3.90766496,50.91875882],[3.90761344,50.91874363],[3.9073759,50.91901344],[3.90755744,50.91906449],[3.90772902,50.9191155],[3.90783549,50.91894092],[3.9078563,50.9189461],[3.90786642,50.91892905],[3.90792271,50.91894156],[3.90791282,50.91895935],[3.90797883,50.91897566],[3.90809059,50.91880184]]]}},{"type":"Feature","id":"gebouw/Gebouw.13660542/0","properties":{"source":"Digitaal Vlaanderen Gebouwenregister","source_id":"gebouw/Gebouw.13660542/0","kind":"building","building":"official","height_m":5.1,"status":null},"geometry":{"type":"Polygon","coordinates":[[[3.90887789,50.91853879],[3.90884948,50.91851031],[3.90890271,50.9184891],[3.90893112,50.91851758],[3.90887789,50.91853879]]]}},{"type":"Feature","id":"gebouw/Gebouw.13773477/0","properties":{"source":"Digitaal Vlaanderen Gebouwenregister","source_id":"gebouw/Gebouw.13773477/0","kind":"building","building":"official","height_m":7.35,"status":null},"geometry":{"type":"Polygon","coordinates":[[[3.90869534,50.92017352],[3.90887488,50.92022001],[3.90883029,50.92028946],[3.90865107,50.92024203],[3.90869534,50.92017352]]]}},{"type":"Feature","id":"gebouw/Gebouw.16718247/0","properties":{"source":"Digitaal Vlaanderen Gebouwenregister","source_id":"gebouw/Gebouw.16718247/0","kind":"building","building":"official","height_m":7.35,"status":null},"geometry":{"type":"Polygon","coordinates":[[[3.90873582,50.91801189],[3.9086798,50.91799222],[3.9087262,50.91793943],[3.90878222,50.9179591],[3.90873582,50.91801189]]]}},{"type":"Feature","id":"gebouw/Gebouw.18862623/0","properties":{"source":"Digitaal Vlaanderen Gebouwenregister","source_id":"gebouw/Gebouw.18862623/0","kind":"building","building":"official","height_m":7.35,"status":null},"geometry":{"type":"Polygon","coordinates":[[[3.9055032,50.91676141],[3.90548081,50.91678405],[3.90539152,50.91674996],[3.90540996,50.91672674],[3.9055032,50.91676141]]]}},{"type":"Feature","id":"gebouw/Gebouw.19695990/0","properties":{"source":"Digitaal Vlaanderen Gebouwenregister","source_id":"gebouw/Gebouw.19695990/0","kind":"building","building":"official","height_m":5.1,"status":null},"geometry":{"type":"Polygon","coordinates":[[[3.90860621,50.918158],[3.90872683,50.91820205],[3.90873145,50.918197],[3.90886145,50.91824447],[3.90871493,50.91840477],[3.90846431,50.91831324],[3.90852982,50.91824158],[3.9085961,50.91816907],[3.90860621,50.918158]]]}},{"type":"Feature","id":"gebouw/Gebouw.19695991/0","properties":{"source":"Digitaal Vlaanderen Gebouwenregister","source_id":"gebouw/Gebouw.19695991/0","kind":"building","building":"official","height_m":5.85,"status":null},"geometry":{"type":"Polygon","coordinates":[[[3.9085961,50.91816907],[3.90852982,50.91824158],[3.90846431,50.91831324],[3.90821143,50.9182209],[3.90827792,50.91814815],[3.90834321,50.91807673],[3.9085961,50.91816907]]]}},{"type":"Feature","id":"gebouw/Gebouw.19955161/0","properties":{"source":"Digitaal Vlaanderen Gebouwenregister","source_id":"gebouw/Gebouw.19955161/0","kind":"building","building":"official","height_m":5.85,"status":null},"geometry":{"type":"Polygon","coordinates":[[[3.9069485,50.91853455],[3.90699609,50.91848827],[3.90706643,50.91851717],[3.90701884,50.91856345],[3.9069485,50.91853455]]]}},{"type":"Feature","id":"way/199078441","properties":{"source":"OpenStreetMap","source_id":"way/199078441","kind":"vegetation","landuse":"forest","natural":null,"name":null},"geometry":{"type":"Polygon","coordinates":[[[3.9064114,50.9151776],[3.9064634,50.9151889],[3.9064748,50.9152023],[3.9064504,50.9152125],[3.905446,50.9154455],[3.9040688,50.9157222],[3.9033949,50.9158392],[3.9023172,50.9160301],[3.9014284,50.9161368],[3.9006796,50.9161943],[3.8999177,50.9162292],[3.899235,50.9162425],[3.8986042,50.9162207],[3.8986042,50.9161293],[3.8997092,50.9161322],[3.8997322,50.9160277],[3.9006922,50.9160204],[3.9011573,50.9160088],[3.9016661,50.9159696],[3.9019308,50.9159174],[3.9023015,50.9158564],[3.9030427,50.915736],[3.9033789,50.9156648],[3.9041455,50.9155545],[3.9045161,50.9155211],[3.9049305,50.9154674],[3.9052068,50.9154021],[3.9054554,50.9153368],[3.9057317,50.9152744],[3.9058514,50.9152715],[3.9059504,50.9152671],[3.9063947,50.9151946],[3.9064114,50.9151776]]]}}]}