{"type":"FeatureCollection","features":[{"type":"Feature","id":"way/198903844","properties":{"source":"OpenStreetMap","source_id":"way/198903844","kind":"vegetation","landuse":"forest","natural":null,"name":null},"geometry":{"type":"Polygon","coordinates":[[[3.8994491,50.9134271],[3.8996878,50.9134398],[3.8998739,50.9134526],[3.9000074,50.9134743],[3.9002238,50.91351],[3.9004166,50.9135548],[3.9003472,50.913626],[3.9002603,50.9136413],[3.9000924,50.9136184],[3.8999508,50.9135954],[3.8996635,50.9135533],[3.8995725,50.9135508],[3.8995158,50.9135699],[3.8994814,50.9136273],[3.8994491,50.9137089],[3.8994996,50.9137587],[3.8996322,50.9138685],[3.8995017,50.9139602],[3.8994592,50.9140329],[3.8994025,50.914061],[3.8993439,50.9140941],[3.8992589,50.9141171],[3.8992407,50.9142013],[3.8992003,50.9142535],[3.8991274,50.9143135],[3.8991092,50.91439],[3.8990849,50.9144487],[3.8990586,50.9144895],[3.8990202,50.9145507],[3.8989514,50.914603],[3.8989069,50.9146311],[3.8987714,50.914626],[3.899321,50.9136886],[3.8994491,50.9134271]]]}},{"type":"Feature","id":"way/198903854","properties":{"source":"OpenStreetMap","source_id":"way/198903854","kind":"vegetation","landuse":"forest","natural":null,"name":null},"geometry":{"type":"Polygon","coordinates":[[[3.9017442,50.9139195],[3.9033489,50.9143623],[3.9030438,50.9144201],[3.9028496,50.9144329],[3.9024207,50.9143283],[3.9018705,50.9141344],[3.9016965,50.9140069],[3.9017442,50.9139195]]]}},{"type":"Feature","id":"way/1451095270","properties":{"source":"OpenStreetMap","source_id":"way/1451095270","kind":"water","name":null},"geometry":{"type":"Polygon","coordinates":[[[3.9085241,50.9103712],[3.9089901,50.9104271],[3.9091639,50.9100202],[3.9087165,50.9099041],[3.9085241,50.9103712]]]}}]}