{"type":"FeatureCollection","features":[{"type":"Feature","id":"gebouw/Gebouw.12854145/0","properties":{"source":"Digitaal Vlaanderen Gebouwenregister","source_id":"gebouw/Gebouw.12854145/0","kind":"building","building":"official","height_m":7.35,"status":null},"geometry":{"type":"Polygon","coordinates":[[[3.96268461,50.93250286],[3.96244332,50.93216019],[3.96258037,50.93212195],[3.96281667,50.93246554],[3.96268461,50.93250286]]]}},{"type":"Feature","id":"gebouw/Gebouw.12917596/0","properties":{"source":"Digitaal Vlaanderen Gebouwenregister","source_id":"gebouw/Gebouw.12917596/0","kind":"building","building":"official","height_m":8.1,"status":null},"geometry":{"type":"Polygon","coordinates":[[[3.9563615,50.93451997],[3.95647117,50.9346676],[3.9565766,50.9346364],[3.95679418,50.93493213],[3.95673423,50.93494967],[3.9569307,50.93521268],[3.95657162,50.935319],[3.95604884,50.93461217],[3.9563615,50.93451997]]]}},{"type":"Feature","id":"gebouw/Gebouw.12917838/0","properties":{"source":"Digitaal Vlaanderen Gebouwenregister","source_id":"gebouw/Gebouw.12917838/0","kind":"building","building":"official","height_m":5.1,"status":null},"geometry":{"type":"Polygon","coordinates":[[[3.95806584,50.93494],[3.95756605,50.93509073],[3.95709011,50.93443232],[3.95732566,50.93436425],[3.95726786,50.93428527],[3.95745609,50.93423076],[3.9574939,50.9342822],[3.95750195,50.93428021],[3.95752114,50.93430554],[3.9575418,50.93429965],[3.95762437,50.93442144],[3.95767945,50.93440492],[3.95806584,50.93494]]]}},{"type":"Feature","id":"gebouw/Gebouw.12936246/0","properties":{"source":"Digitaal Vlaanderen Gebouwenregister","source_id":"gebouw/Gebouw.12936246/0","kind":"building","building":"official","height_m":5.1,"status":null},"geometry":{"type":"Polygon","coordinates":[[[3.95985485,50.93115981],[3.95981633,50.93110398],[3.95990727,50.93107812],[3.95994651,50.93113394],[3.95985485,50.93115981]]]}},{"type":"Feature","id":"gebouw/Gebouw.12952661/0","properties":{"source":"Digitaal Vlaanderen Gebouwenregister","source_id":"gebouw/Gebouw.12952661/0","kind":"building","building":"official","height_m":8.85,"status":null},"geometry":{"type":"Polygon","coordinates":[[[3.95387701,50.93075806],[3.95380094,50.93074955],[3.95380601,50.93072957],[3.95388188,50.93073657],[3.95387701,50.93075806]]]}},{"type":"Feature","id":"gebouw/Gebouw.12954811/0","properties":{"source":"Digitaal Vlaanderen Gebouwenregister","source_id":"gebouw/Gebouw.12954811/0","kind":"building","building":"official","height_m":5.85,"status":null},"geometry":{"type":"Polygon","coordinates":[[[3.9566144,50.93254933],[3.95657267,50.93254531],[3.95658311,50.93250025],[3.95662628,50.93250501],[3.9566144,50.93254933]]]}},{"type":"Feature","id":"gebouw/Gebouw.12954817/0","properties":{"source":"Digitaal Vlaanderen Gebouwenregister","source_id":"gebouw/Gebouw.12954817/0","kind":"building","building":"official","height_m":5.85,"status":null},"geometry":{"type":"Polygon","coordinates":[[[3.96243523,50.92892156],[3.96220348,50.92896373],[3.9621834,50.92891835],[3.96241951,50.92887654],[3.96243523,50.92892156]]]}},{"type":"Feature","id":"gebouw/Gebouw.12961349/0","properties":{"source":"Digitaal Vlaanderen Gebouwenregister","source_id":"gebouw/Gebouw.12961349/0","kind":"building","building":"official","height_m":8.85,"status":null},"geometry":{"type":"Polygon","coordinates":[[[3.96258793,50.92986548],[3.9625489,50.9298939],[3.9625508,50.92989487],[3.96250057,50.92993385],[3.96253449,50.92995131],[3.96258472,50.92991234],[3.9625856,50.92991279],[3.96262205,50.92988233],[3.96258793,50.92986548]]]}},{"type":"Feature","id":"gebouw/Gebouw.12970679/0","properties":{"source":"Digitaal Vlaanderen Gebouwenregister","source_id":"gebouw/Gebouw.12970679/0","kind":"building","building":"official","height_m":8.85,"status":null},"geometry":{"type":"Polygon","coordinates":[[[3.95768325,50.92954407],[3.95720845,50.92934103],[3.95710856,50.9294351],[3.95696472,50.92937044],[3.95724482,50.92910505],[3.95726122,50.92908962],[3.95724411,50.92908236],[3.95727155,50.92905652],[3.95728906,50.92906339],[3.95734988,50.92900599],[3.95742606,50.92903827],[3.95742526,50.92903903],[3.95742883,50.92904054],[3.95749702,50.92906926],[3.95771222,50.92886659],[3.95787271,50.92871545],[3.95792346,50.92866765],[3.95810881,50.92874649],[3.9581952,50.9286653],[3.95863045,50.92884974],[3.95859194,50.92888571],[3.95873117,50.92894468],[3.95834624,50.9293074],[3.95806194,50.92918622],[3.95768325,50.92954407]]]}},{"type":"Feature","id":"gebouw/Gebouw.13032567/0","properties":{"source":"Digitaal Vlaanderen Gebouwenregister","source_id":"gebouw/Gebouw.13032567/0","kind":"building","building":"official","height_m":7.35,"status":null},"geometry":{"type":"Polygon","coordinates":[[[3.95476165,50.93002521],[3.95478679,50.9299789],[3.95478545,50.92997638],[3.95478316,50.92997121],[3.95478145,50.92996594],[3.95478033,50.92996062],[3.9547798,50.92995526],[3.95477986,50.92994988],[3.95478051,50.92994453],[3.95478175,50.92993921],[3.95478358,50.92993397],[3.95478598,50.92992881],[3.95478895,50.92992378],[3.95479246,50.92991889],[3.9547965,50.92991416],[3.95480106,50.92990963],[3.9548061,50.9299053],[3.95481161,50.92990121],[3.95481756,50.92989738],[3.95482392,50.92989381],[3.95483065,50.92989053],[3.95483773,50.92988756],[3.95484513,50.92988491],[3.95487824,50.92983298],[3.95490903,50.92984055],[3.95490359,50.92984787],[3.9552854,50.92995039],[3.9553301,50.92994605],[3.95532544,50.92992445],[3.95591319,50.92987053],[3.95599481,50.93024489],[3.95590714,50.93025273],[3.95569793,50.93027144],[3.95567472,50.93016515],[3.95538066,50.93019167],[3.95534725,50.93003491],[3.95523922,50.93004444],[3.95523223,50.93005582],[3.95521756,50.93005204],[3.95517736,50.93013644],[3.95476165,50.93002521]]]}},{"type":"Feature","id":"gebouw/Gebouw.13043689/0","properties":{"source":"Digitaal Vlaanderen Gebouwenregister","source_id":"gebouw/Gebouw.13043689/0","kind":"building","building":"official","height_m":5.85,"status":null},"geometry":{"type":"Polygon","coordinates":[[[3.96115306,50.93519408],[3.96111108,50.93516943],[3.96115338,50.93513973],[3.96119608,50.93516407],[3.96115306,50.93519408]]]}},{"type":"Feature","id":"gebouw/Gebouw.13078561/0","properties":{"source":"Digitaal Vlaanderen Gebouwenregister","source_id":"gebouw/Gebouw.13078561/0","kind":"building","building":"official","height_m":5.85,"status":null},"geometry":{"type":"Polygon","coordinates":[[[3.96025584,50.93206733],[3.96030085,50.93212676],[3.96019683,50.93215524],[3.96015737,50.9320991],[3.96015494,50.93209564],[3.96025584,50.93206733]]]}},{"type":"Feature","id":"gebouw/Gebouw.13099550/0","properties":{"source":"Digitaal Vlaanderen Gebouwenregister","source_id":"gebouw/Gebouw.13099550/0","kind":"building","building":"official","height_m":6.6,"status":null},"geometry":{"type":"Polygon","coordinates":[[[3.96262594,50.92941586],[3.96254073,50.92942783],[3.96253041,50.92939418],[3.96236821,50.92941408],[3.96234804,50.9293598],[3.96234762,50.92935868],[3.96245002,50.9293433],[3.96262687,50.92931672],[3.96264945,50.92931333],[3.96265517,50.92933523],[3.96262594,50.92941586]]]}},{"type":"Feature","id":"gebouw/Gebouw.13110510/0","properties":{"source":"Digitaal Vlaanderen Gebouwenregister","source_id":"gebouw/Gebouw.13110510/0","kind":"building","building":"official","height_m":5.1,"status":null},"geometry":{"type":"Polygon","coordinates":[[[3.96188143,50.92963273],[3.96193757,50.92977903],[3.96190632,50.92982694],[3.96164801,50.92975972],[3.96163268,50.92972599],[3.96164674,50.92970443],[3.9616593,50.92970771],[3.96173289,50.92959478],[3.96188143,50.92963273]]]}},{"type":"Feature","id":"gebouw/Gebouw.13130624/0","properties":{"source":"Digitaal Vlaanderen Gebouwenregister","source_id":"gebouw/Gebouw.13130624/0","kind":"building","building":"official","height_m":6.6,"status":null},"geometry":{"type":"Polygon","coordinates":[[[3.96100433,50.93150139],[3.96230804,50.93113415],[3.96225256,50.9310528],[3.96251241,50.93097982],[3.96274433,50.93130868],[3.96261323,50.93134736],[3.96262668,50.93136702],[3.96247181,50.93141071],[3.96245598,50.9313894],[3.9617401,50.93159329],[3.9617557,50.9316143],[3.96160226,50.93165814],[3.96158689,50.93163547],[3.96156789,50.93164168],[3.96157749,50.93165474],[3.96151241,50.93167325],[3.96150185,50.93165914],[3.96144533,50.93167552],[3.96145254,50.93168738],[3.96138936,50.93170513],[3.96138144,50.93169433],[3.96118169,50.93175287],[3.96100433,50.93150139]]]}},{"type":"Feature","id":"gebouw/Gebouw.13156969/0","properties":{"source":"Digitaal Vlaanderen Gebouwenregister","source_id":"gebouw/Gebouw.13156969/0","kind":"building","building":"official","height_m":5.85,"status":null},"geometry":{"type":"Polygon","coordinates":[[[3.96152834,50.92894429],[3.96151572,50.92889162],[3.96155752,50.92888703],[3.96157038,50.92893955],[3.96152834,50.92894429]]]}},{"type":"Feature","id":"gebouw/Gebouw.13184152/0","properties":{"source":"Digitaal Vlaanderen Gebouwenregister","source_id":"gebouw/Gebouw.13184152/0","kind":"building","building":"official","height_m":8.1,"status":null},"geometry":{"type":"Polygon","coordinates":[[[3.95625821,50.9312648],[3.95618524,50.9315816],[3.95470049,50.93144411],[3.95476461,50.93116629],[3.95478178,50.93116814],[3.95484111,50.93089123],[3.95482509,50.93088971],[3.95487307,50.93068218],[3.95484056,50.93067937],[3.95473867,50.93111634],[3.95456182,50.93109965],[3.95470412,50.93048125],[3.95488235,50.93049767],[3.95485674,50.93060981],[3.95487016,50.93061101],[3.95488912,50.93061276],[3.95489279,50.93059689],[3.95507142,50.93061333],[3.95500434,50.93090674],[3.95497628,50.93090407],[3.95492913,50.93111385],[3.95496919,50.93111771],[3.95495447,50.93118431],[3.95498427,50.9311874],[3.9549974,50.93114763],[3.95625821,50.9312648]]]}},{"type":"Feature","id":"gebouw/Gebouw.13184279/0","properties":{"source":"Digitaal Vlaanderen Gebouwenregister","source_id":"gebouw/Gebouw.13184279/0","kind":"building","building":"official","height_m":8.85,"status":null},"geometry":{"type":"Polygon","coordinates":[[[3.96208153,50.9293721],[3.96206842,50.92934924],[3.96211137,50.92933979],[3.96212426,50.92936269],[3.96208153,50.9293721]]]}},{"type":"Feature","id":"gebouw/Gebouw.13217782/0","properties":{"source":"Digitaal Vlaanderen Gebouwenregister","source_id":"gebouw/Gebouw.13217782/0","kind":"building","building":"official","height_m":8.1,"status":null},"geometry":{"type":"Polygon","coordinates":[[[3.96240346,50.9288295],[3.96216273,50.92887172],[3.96214249,50.92882604],[3.9623844,50.92878483],[3.96239019,50.92879839],[3.96240346,50.9288295]]]}},{"type":"Feature","id":"gebouw/Gebouw.13228874/0","properties":{"source":"Digitaal Vlaanderen Gebouwenregister","source_id":"gebouw/Gebouw.13228874/0","kind":"building","building":"official","height_m":6.6,"status":null},"geometry":{"type":"Polygon","coordinates":[[[3.95892364,50.93377999],[3.95932348,50.93434426],[3.95893045,50.93445401],[3.95854606,50.93388671],[3.95892364,50.93377999]]]}},{"type":"Feature","id":"gebouw/Gebouw.13254729/0","properties":{"source":"Digitaal Vlaanderen Gebouwenregister","source_id":"gebouw/Gebouw.13254729/0","kind":"building","building":"official","height_m":7.35,"status":null},"geometry":{"type":"Polygon","coordinates":[[[3.95880449,50.93343011],[3.95879565,50.93343261],[3.95835241,50.93280851],[3.95841796,50.93279074],[3.95843468,50.9328152],[3.95857618,50.93277255],[3.95901935,50.93339724],[3.9589546,50.9334159],[3.95893752,50.93339247],[3.95886173,50.93341391],[3.95880449,50.93343011]]]}},{"type":"Feature","id":"gebouw/Gebouw.13265619/0","properties":{"source":"Digitaal Vlaanderen Gebouwenregister","source_id":"gebouw/Gebouw.13265619/0","kind":"building","building":"official","height_m":7.35,"status":null},"geometry":{"type":"Polygon","coordinates":[[[3.96021827,50.93152351],[3.96049596,50.93191737],[3.95960043,50.93217552],[3.95931852,50.93177576],[3.96021827,50.93152351]]]}},{"type":"Feature","id":"gebouw/Gebouw.13272813/0","properties":{"source":"Digitaal Vlaanderen Gebouwenregister","source_id":"gebouw/Gebouw.13272813/0","kind":"building","building":"official","height_m":7.35,"status":null},"geometry":{"type":"Polygon","coordinates":[[[3.96121934,50.92929665],[3.96117493,50.92928284],[3.96124936,50.92921722],[3.96111566,50.92915547],[3.96102734,50.92923003],[3.96110271,50.92926493],[3.96109156,50.92927605],[3.96112167,50.92928873],[3.96105237,50.92941886],[3.96104729,50.92943968],[3.96113206,50.92946003],[3.96121934,50.92929665]]]}},{"type":"Feature","id":"gebouw/Gebouw.13290062/0","properties":{"source":"Digitaal Vlaanderen Gebouwenregister","source_id":"gebouw/Gebouw.13290062/0","kind":"building","building":"official","height_m":6.6,"status":null},"geometry":{"type":"Polygon","coordinates":[[[3.95767709,50.93332991],[3.95771084,50.93329508],[3.95770786,50.9332847],[3.95799337,50.93325208],[3.95807843,50.93354315],[3.95766207,50.93359216],[3.95763118,50.93348617],[3.95761696,50.93348779],[3.9575884,50.93339147],[3.95761922,50.93338813],[3.95767709,50.93332991]]]}},{"type":"Feature","id":"gebouw/Gebouw.13295214/0","properties":{"source":"Digitaal Vlaanderen Gebouwenregister","source_id":"gebouw/Gebouw.13295214/0","kind":"building","building":"official","height_m":5.1,"status":null},"geometry":{"type":"Polygon","coordinates":[[[3.96085885,50.92941031],[3.96091777,50.92925606],[3.96092956,50.92922519],[3.96096615,50.92923078],[3.96095459,50.92926105],[3.96098561,50.92926578],[3.96092788,50.92942114],[3.96085885,50.92941031]]]}},{"type":"Feature","id":"gebouw/Gebouw.13298496/0","properties":{"source":"Digitaal Vlaanderen Gebouwenregister","source_id":"gebouw/Gebouw.13298496/0","kind":"building","building":"official","height_m":5.1,"status":null},"geometry":{"type":"Polygon","coordinates":[[[3.96079895,50.92921712],[3.96065971,50.92915275],[3.96064889,50.92916234],[3.96063758,50.9291575],[3.96062274,50.92915877],[3.96061416,50.92916662],[3.96061652,50.92917505],[3.96062674,50.92918005],[3.96062339,50.92918303],[3.96057358,50.92916153],[3.96047054,50.92925061],[3.96051084,50.92926922],[3.96048434,50.92929037],[3.96049515,50.92929541],[3.96063464,50.92936037],[3.96079895,50.92921712]]]}},{"type":"Feature","id":"gebouw/Gebouw.13319027/0","properties":{"source":"Digitaal Vlaanderen Gebouwenregister","source_id":"gebouw/Gebouw.13319027/0","kind":"building","building":"official","height_m":8.85,"status":null},"geometry":{"type":"Polygon","coordinates":[[[3.95898473,50.92995301],[3.95912108,50.92982959],[3.9583979,50.92951172],[3.95843221,50.92948054],[3.95821901,50.92938683],[3.9581847,50.929418],[3.95811872,50.929389],[3.95798369,50.92951089],[3.95898473,50.92995301]]]}},{"type":"Feature","id":"gebouw/Gebouw.13320847/0","properties":{"source":"Digitaal Vlaanderen Gebouwenregister","source_id":"gebouw/Gebouw.13320847/0","kind":"building","building":"official","height_m":5.85,"status":null},"geometry":{"type":"Polygon","coordinates":[[[3.96079662,50.92900971],[3.96080135,50.92905533],[3.9607158,50.92905882],[3.96071434,50.92904452],[3.96068596,50.92904569],[3.96068272,50.92901435],[3.96079662,50.92900971]]]}},{"type":"Feature","id":"gebouw/Gebouw.13326413/0","properties":{"source":"Digitaal Vlaanderen Gebouwenregister","source_id":"gebouw/Gebouw.13326413/0","kind":"building","building":"official","height_m":8.85,"status":null},"geometry":{"type":"Polygon","coordinates":[[[3.96100335,50.93262281],[3.96048441,50.93277124],[3.96033626,50.9325614],[3.96085705,50.93241592],[3.96093869,50.93253038],[3.96100335,50.93262281]]]}},{"type":"Feature","id":"gebouw/Gebouw.13368853/0","properties":{"source":"Digitaal Vlaanderen Gebouwenregister","source_id":"gebouw/Gebouw.13368853/0","kind":"building","building":"official","height_m":5.85,"status":null},"geometry":{"type":"Polygon","coordinates":[[[3.95401066,50.93337243],[3.95386247,50.93335566],[3.953894,50.93324205],[3.95397846,50.93325254],[3.95401983,50.93310133],[3.95392372,50.93309076],[3.95393375,50.93305436],[3.95379863,50.93303949],[3.9537886,50.93307589],[3.95359182,50.93305424],[3.95360153,50.93301902],[3.95351254,50.93300923],[3.95350887,50.93302256],[3.95291675,50.93295742],[3.95286916,50.93313016],[3.95347387,50.93319694],[3.95337286,50.93352429],[3.95380249,50.93357177],[3.95379495,50.93360778],[3.95393714,50.9336209],[3.95401066,50.93337243]]]}},{"type":"Feature","id":"gebouw/Gebouw.13377087/0","properties":{"source":"Digitaal Vlaanderen Gebouwenregister","source_id":"gebouw/Gebouw.13377087/0","kind":"building","building":"official","height_m":7.35,"status":null},"geometry":{"type":"Polygon","coordinates":[[[3.96228889,50.92914215],[3.96228705,50.92914228],[3.96225224,50.92904939],[3.96250841,50.92901213],[3.96251937,50.92904745],[3.96244003,50.92905922],[3.96244461,50.92907281],[3.96248691,50.92906671],[3.96250301,50.92910945],[3.96228889,50.92914215]]]}},{"type":"Feature","id":"gebouw/Gebouw.13377310/0","properties":{"source":"Digitaal Vlaanderen Gebouwenregister","source_id":"gebouw/Gebouw.13377310/0","kind":"building","building":"official","height_m":8.1,"status":null},"geometry":{"type":"Polygon","coordinates":[[[3.95673552,50.93047713],[3.9566278,50.92996898],[3.95698449,50.92993803],[3.95708752,50.93040064],[3.95708932,50.93040929],[3.95709677,50.9304452],[3.95705717,50.93044849],[3.95706003,50.93046315],[3.95702379,50.93046637],[3.9570206,50.93045191],[3.95673552,50.93047713]]]}},{"type":"Feature","id":"gebouw/Gebouw.13382316/0","properties":{"source":"Digitaal Vlaanderen Gebouwenregister","source_id":"gebouw/Gebouw.13382316/0","kind":"building","building":"official","height_m":5.1,"status":null},"geometry":{"type":"Polygon","coordinates":[[[3.95787996,50.92981676],[3.95804286,50.92966947],[3.95891772,50.93005529],[3.95879497,50.93016597],[3.95874609,50.93014382],[3.95861963,50.93008807],[3.95857894,50.93012493],[3.95787996,50.92981676]]]}},{"type":"Feature","id":"gebouw/Gebouw.13395319/0","properties":{"source":"Digitaal Vlaanderen Gebouwenregister","source_id":"gebouw/Gebouw.13395319/0","kind":"building","building":"official","height_m":5.85,"status":null},"geometry":{"type":"Polygon","coordinates":[[[3.95998706,50.93306247],[3.95988063,50.93291335],[3.95993446,50.932898],[3.95988658,50.93283092],[3.95983275,50.93284626],[3.95951874,50.93240628],[3.9594359,50.93242985],[3.95941515,50.93240072],[3.95932757,50.93242563],[3.95933024,50.93242937],[3.9592569,50.93245024],[3.95927499,50.93247563],[3.95905024,50.93253957],[3.95951745,50.93319579],[3.95957066,50.93318014],[3.95960627,50.93323166],[3.95965734,50.93321721],[3.95965677,50.93321637],[3.95991856,50.93314247],[3.95991915,50.93314324],[3.95997021,50.93312853],[3.95993387,50.93307726],[3.95998706,50.93306247]]]}},{"type":"Feature","id":"gebouw/Gebouw.13395515/0","properties":{"source":"Digitaal Vlaanderen Gebouwenregister","source_id":"gebouw/Gebouw.13395515/0","kind":"building","building":"official","height_m":8.85,"status":null},"geometry":{"type":"Polygon","coordinates":[[[3.96033626,50.9325614],[3.96012717,50.93226525],[3.96077469,50.93208133],[3.96080806,50.93212847],[3.96098711,50.9323782],[3.96085705,50.93241592],[3.96033626,50.9325614]]]}},{"type":"Feature","id":"gebouw/Gebouw.13397188/0","properties":{"source":"Digitaal Vlaanderen Gebouwenregister","source_id":"gebouw/Gebouw.13397188/0","kind":"building","building":"official","height_m":8.1,"status":null},"geometry":{"type":"Polygon","coordinates":[[[3.95861995,50.93345225],[3.95851451,50.93330142],[3.95840415,50.93333265],[3.95829856,50.93336253],[3.95824365,50.93337807],[3.95819133,50.93339287],[3.95829698,50.93354316],[3.95838623,50.93351818],[3.95837501,50.93350231],[3.95841011,50.93349241],[3.9584302,50.93352092],[3.95850454,50.93350001],[3.95848434,50.93347131],[3.95851933,50.93346147],[3.95853066,50.93347747],[3.95861995,50.93345225]]]}},{"type":"Feature","id":"gebouw/Gebouw.13401013/0","properties":{"source":"Digitaal Vlaanderen Gebouwenregister","source_id":"gebouw/Gebouw.13401013/0","kind":"building","building":"official","height_m":5.85,"status":null},"geometry":{"type":"Polygon","coordinates":[[[3.95554496,50.93483929],[3.95599655,50.93545122],[3.95569001,50.93554265],[3.95518623,50.93486583],[3.95541652,50.93479779],[3.95541976,50.93479683],[3.95546779,50.93486208],[3.95554496,50.93483929]]]}},{"type":"Feature","id":"gebouw/Gebouw.13407567/0","properties":{"source":"Digitaal Vlaanderen Gebouwenregister","source_id":"gebouw/Gebouw.13407567/0","kind":"building","building":"official","height_m":7.35,"status":null},"geometry":{"type":"Polygon","coordinates":[[[3.96173379,50.92985032],[3.96171524,50.9297988],[3.96175719,50.92979302],[3.96177505,50.92984318],[3.96173379,50.92985032]]]}},{"type":"Feature","id":"gebouw/Gebouw.13411457/0","properties":{"source":"Digitaal Vlaanderen Gebouwenregister","source_id":"gebouw/Gebouw.13411457/0","kind":"building","building":"official","height_m":8.85,"status":null},"geometry":{"type":"Polygon","coordinates":[[[3.95918173,50.93370559],[3.95968098,50.93356394],[3.96014524,50.93422731],[3.95964774,50.93436781],[3.95918173,50.93370559]]]}},{"type":"Feature","id":"gebouw/Gebouw.13413530/0","properties":{"source":"Digitaal Vlaanderen Gebouwenregister","source_id":"gebouw/Gebouw.13413530/0","kind":"building","building":"official","height_m":6.6,"status":null},"geometry":{"type":"Polygon","coordinates":[[[3.95865964,50.93080654],[3.95870725,50.93079305],[3.95932649,50.93061753],[3.95938866,50.9307052],[3.95946975,50.93068223],[3.95963308,50.93091258],[3.95970738,50.93089153],[3.95974983,50.93087911],[3.95980166,50.93095245],[3.9598688,50.93104744],[3.95975366,50.93108243],[3.95982123,50.93117802],[3.95994801,50.9311407],[3.96013379,50.93140601],[3.95923455,50.93166066],[3.95909407,50.93146018],[3.95911568,50.93145436],[3.95865964,50.93080654]]]}},{"type":"Feature","id":"gebouw/Gebouw.13417650/0","properties":{"source":"Digitaal Vlaanderen Gebouwenregister","source_id":"gebouw/Gebouw.13417650/0","kind":"building","building":"official","height_m":5.1,"status":null},"geometry":{"type":"Polygon","coordinates":[[[3.9607938,50.93109384],[3.96141335,50.93091901],[3.96099374,50.93032693],[3.96078829,50.93003704],[3.96026868,50.92987593],[3.95985184,50.92999201],[3.96016465,50.9304292],[3.96039927,50.93036174],[3.960484,50.93047109],[3.96069779,50.93041063],[3.9607302,50.9304561],[3.96076551,50.93050564],[3.96077593,50.93052027],[3.96072844,50.93053657],[3.96072376,50.93053051],[3.96045702,50.93060335],[3.96046186,50.93061042],[3.96035866,50.93063978],[3.96039655,50.93069291],[3.96042192,50.93068567],[3.96043255,50.93070057],[3.96044393,50.9307165],[3.96038165,50.93073415],[3.96054756,50.93096766],[3.96057351,50.9309603],[3.96058307,50.93097374],[3.96052722,50.93098959],[3.96050653,50.93099546],[3.96051822,50.93101225],[3.96047842,50.93102331],[3.96051775,50.93107982],[3.96057123,50.93115664],[3.9606883,50.93112361],[3.9607938,50.93109384]]]}},{"type":"Feature","id":"gebouw/Gebouw.13427497/0","properties":{"source":"Digitaal Vlaanderen Gebouwenregister","source_id":"gebouw/Gebouw.13427497/0","kind":"building","building":"official","height_m":5.85,"status":null},"geometry":{"type":"Polygon","coordinates":[[[3.95623203,50.93042279],[3.95615973,50.9300729],[3.95615079,50.93007363],[3.95614812,50.93006183],[3.95615824,50.93006105],[3.95615186,50.93003266],[3.95612737,50.92992137],[3.95609864,50.92979081],[3.95628218,50.92977499],[3.95638077,50.92976649],[3.95643786,50.93003695],[3.95644794,50.93003599],[3.95645037,50.93004781],[3.95644145,50.93004861],[3.95651571,50.93039826],[3.95650727,50.93039898],[3.95623203,50.93042279]]]}},{"type":"Feature","id":"gebouw/Gebouw.13432776/0","properties":{"source":"Digitaal Vlaanderen Gebouwenregister","source_id":"gebouw/Gebouw.13432776/0","kind":"building","building":"official","height_m":5.1,"status":null},"geometry":{"type":"Polygon","coordinates":[[[3.96175104,50.92940552],[3.96166988,50.92947464],[3.96153581,50.92940954],[3.96155486,50.92939427],[3.96149372,50.9293659],[3.96155446,50.92931382],[3.96175104,50.92940552]]]}},{"type":"Feature","id":"gebouw/Gebouw.13435763/0","properties":{"source":"Digitaal Vlaanderen Gebouwenregister","source_id":"gebouw/Gebouw.13435763/0","kind":"building","building":"official","height_m":8.85,"status":null},"geometry":{"type":"Polygon","coordinates":[[[3.95761019,50.9306248],[3.95732663,50.93065052],[3.95713227,50.9297983],[3.95727155,50.9297859],[3.95752403,50.92990507],[3.95759096,50.93018864],[3.95751283,50.9301963],[3.95761019,50.9306248]]]}},{"type":"Feature","id":"gebouw/Gebouw.13435787/0","properties":{"source":"Digitaal Vlaanderen Gebouwenregister","source_id":"gebouw/Gebouw.13435787/0","kind":"building","building":"official","height_m":8.85,"status":null},"geometry":{"type":"Polygon","coordinates":[[[3.95770397,50.93420279],[3.95796738,50.9341265],[3.9580516,50.93424696],[3.95811502,50.93422996],[3.95849301,50.9347592],[3.95817411,50.93485235],[3.95770397,50.93420279]]]}},{"type":"Feature","id":"gebouw/Gebouw.13443171/0","properties":{"source":"Digitaal Vlaanderen Gebouwenregister","source_id":"gebouw/Gebouw.13443171/0","kind":"building","building":"official","height_m":7.35,"status":null},"geometry":{"type":"Polygon","coordinates":[[[3.95661597,50.93444309],[3.95684866,50.93437462],[3.95726395,50.93493693],[3.95719959,50.93495469],[3.95717246,50.93491627],[3.95700365,50.93496658],[3.95661597,50.93444309]]]}},{"type":"Feature","id":"gebouw/Gebouw.13447764/0","properties":{"source":"Digitaal Vlaanderen Gebouwenregister","source_id":"gebouw/Gebouw.13447764/0","kind":"building","building":"official","height_m":5.1,"status":null},"geometry":{"type":"Polygon","coordinates":[[[3.96241951,50.92887654],[3.9621834,50.92891835],[3.96216273,50.92887172],[3.96240346,50.9288295],[3.96241951,50.92887654]]]}},{"type":"Feature","id":"gebouw/Gebouw.13448355/0","properties":{"source":"Digitaal Vlaanderen Gebouwenregister","source_id":"gebouw/Gebouw.13448355/0","kind":"building","building":"official","height_m":7.35,"status":null},"geometry":{"type":"Polygon","coordinates":[[[3.96260645,50.93028571],[3.96263032,50.9302673],[3.96267297,50.93028758],[3.96264837,50.93030749],[3.96260645,50.93028571]]]}},{"type":"Feature","id":"gebouw/Gebouw.13449960/0","properties":{"source":"Digitaal Vlaanderen Gebouwenregister","source_id":"gebouw/Gebouw.13449960/0","kind":"building","building":"official","height_m":5.1,"status":null},"geometry":{"type":"Polygon","coordinates":[[[3.96104503,50.92860825],[3.9609573,50.92858953],[3.96097525,50.92855014],[3.96106397,50.92856721],[3.96104503,50.92860825]]]}},{"type":"Feature","id":"gebouw/Gebouw.13450373/0","properties":{"source":"Digitaal Vlaanderen Gebouwenregister","source_id":"gebouw/Gebouw.13450373/0","kind":"building","building":"official","height_m":8.85,"status":null},"geometry":{"type":"Polygon","coordinates":[[[3.96245002,50.9293433],[3.96244616,50.92933303],[3.96237701,50.92934352],[3.96234811,50.9292675],[3.96259227,50.92923039],[3.96259639,50.92922976],[3.96262687,50.92931672],[3.96245002,50.9293433]]]}},{"type":"Feature","id":"gebouw/Gebouw.13453077/0","properties":{"source":"Digitaal Vlaanderen Gebouwenregister","source_id":"gebouw/Gebouw.13453077/0","kind":"building","building":"official","height_m":7.35,"status":null},"geometry":{"type":"Polygon","coordinates":[[[3.95645811,50.93541269],[3.95626719,50.93546927],[3.95570294,50.93471339],[3.95582659,50.93467675],[3.95583132,50.93468284],[3.9558617,50.93467363],[3.95585754,50.93466778],[3.95589631,50.93465627],[3.95645811,50.93541269]]]}},{"type":"Feature","id":"gebouw/Gebouw.13453265/0","properties":{"source":"Digitaal Vlaanderen Gebouwenregister","source_id":"gebouw/Gebouw.13453265/0","kind":"building","building":"official","height_m":8.85,"status":null},"geometry":{"type":"Polygon","coordinates":[[[3.95391858,50.9346308],[3.95396315,50.93467825],[3.95375487,50.93475578],[3.95366672,50.93466333],[3.95372817,50.9346407],[3.95393019,50.9345663],[3.95397239,50.93460998],[3.95391858,50.9346308]]]}},{"type":"Feature","id":"gebouw/Gebouw.13455941/0","properties":{"source":"Digitaal Vlaanderen Gebouwenregister","source_id":"gebouw/Gebouw.13455941/0","kind":"building","building":"official","height_m":8.85,"status":null},"geometry":{"type":"Polygon","coordinates":[[[3.96137661,50.92979735],[3.96133334,50.92977059],[3.9613853,50.92973226],[3.96143118,50.92975711],[3.96137661,50.92979735]]]}},{"type":"Feature","id":"gebouw/Gebouw.13461691/0","properties":{"source":"Digitaal Vlaanderen Gebouwenregister","source_id":"gebouw/Gebouw.13461691/0","kind":"building","building":"official","height_m":5.85,"status":null},"geometry":{"type":"Polygon","coordinates":[[[3.9623844,50.92878483],[3.96214249,50.92882604],[3.96209458,50.92871865],[3.96222149,50.92871688],[3.96223231,50.92874205],[3.96225428,50.92873931],[3.96226969,50.92874603],[3.96227683,50.92876475],[3.96236956,50.92875005],[3.9623844,50.92878483]]]}},{"type":"Feature","id":"gebouw/Gebouw.13467946/0","properties":{"source":"Digitaal Vlaanderen Gebouwenregister","source_id":"gebouw/Gebouw.13467946/0","kind":"building","building":"official","height_m":8.1,"status":null},"geometry":{"type":"Polygon","coordinates":[[[3.95179837,50.93489822],[3.95163372,50.93472571],[3.95221095,50.93450886],[3.95223929,50.93449809],[3.9522409,50.93449749],[3.95240348,50.93466587],[3.95179837,50.93489822]]]}},{"type":"Feature","id":"gebouw/Gebouw.13467956/0","properties":{"source":"Digitaal Vlaanderen Gebouwenregister","source_id":"gebouw/Gebouw.13467956/0","kind":"building","building":"official","height_m":6.6,"status":null},"geometry":{"type":"Polygon","coordinates":[[[3.95791255,50.93054857],[3.95783718,50.93018984],[3.95811836,50.93016641],[3.95818929,50.93050076],[3.95819184,50.93051278],[3.95822023,50.93051038],[3.9582245,50.93053084],[3.9582162,50.93053156],[3.95821686,50.93053265],[3.95815705,50.93055899],[3.95809912,50.93057985],[3.95809837,50.93058009],[3.95800242,50.93060505],[3.95796403,50.93061242],[3.95796335,50.9306118],[3.95795476,50.93061233],[3.95794036,50.93054554],[3.95791255,50.93054857]]]}},{"type":"Feature","id":"gebouw/Gebouw.13468044/0","properties":{"source":"Digitaal Vlaanderen Gebouwenregister","source_id":"gebouw/Gebouw.13468044/0","kind":"building","building":"official","height_m":5.1,"status":null},"geometry":{"type":"Polygon","coordinates":[[[3.96188062,50.931011],[3.96180155,50.93089994],[3.96231244,50.93075824],[3.96238941,50.93086597],[3.96188062,50.931011]]]}},{"type":"Feature","id":"gebouw/Gebouw.13475371/0","properties":{"source":"Digitaal Vlaanderen Gebouwenregister","source_id":"gebouw/Gebouw.13475371/0","kind":"building","building":"official","height_m":5.85,"status":null},"geometry":{"type":"Polygon","coordinates":[[[3.96251496,50.92881718],[3.96240346,50.9288295],[3.96239019,50.92879839],[3.96243471,50.92879127],[3.9625066,50.92878338],[3.96251496,50.92881718]]]}},{"type":"Feature","id":"gebouw/Gebouw.13489461/0","properties":{"source":"Digitaal Vlaanderen Gebouwenregister","source_id":"gebouw/Gebouw.13489461/0","kind":"building","building":"official","height_m":7.35,"status":null},"geometry":{"type":"Polygon","coordinates":[[[3.96232904,50.93465694],[3.96233643,50.9346507],[3.96242776,50.93469389],[3.96242156,50.93469912],[3.96246612,50.9347202],[3.9624459,50.93473727],[3.96239984,50.93471548],[3.96238162,50.93473086],[3.96214344,50.93461821],[3.96218068,50.93458677],[3.96232904,50.93465694]]]}},{"type":"Feature","id":"gebouw/Gebouw.13510855/0","properties":{"source":"Digitaal Vlaanderen Gebouwenregister","source_id":"gebouw/Gebouw.13510855/0","kind":"building","building":"official","height_m":5.85,"status":null},"geometry":{"type":"Polygon","coordinates":[[[3.96244044,50.93257249],[3.96219464,50.93223208],[3.96231411,50.93219825],[3.96255872,50.93253806],[3.96244044,50.93257249]]]}},{"type":"Feature","id":"gebouw/Gebouw.13519157/0","properties":{"source":"Digitaal Vlaanderen Gebouwenregister","source_id":"gebouw/Gebouw.13519157/0","kind":"building","building":"official","height_m":8.85,"status":null},"geometry":{"type":"Polygon","coordinates":[[[3.96250841,50.92901213],[3.96225224,50.92904939],[3.96222795,50.92898452],[3.96248261,50.92894658],[3.96247253,50.92891698],[3.96257835,50.928904],[3.9625919,50.92894191],[3.96249177,50.92895703],[3.96250841,50.92901213]]]}},{"type":"Feature","id":"gebouw/Gebouw.13519562/0","properties":{"source":"Digitaal Vlaanderen Gebouwenregister","source_id":"gebouw/Gebouw.13519562/0","kind":"building","building":"official","height_m":6.6,"status":null},"geometry":{"type":"Polygon","coordinates":[[[3.96100685,50.92874736],[3.96105928,50.92870144],[3.96110761,50.92872401],[3.96113392,50.9287011],[3.96131067,50.92878436],[3.96128702,50.92880428],[3.96130384,50.92881266],[3.96127223,50.92883931],[3.96126405,50.92883557],[3.96124828,50.92884944],[3.96117087,50.9288143],[3.96116494,50.92881955],[3.96100685,50.92874736]]]}},{"type":"Feature","id":"gebouw/Gebouw.13526760/0","properties":{"source":"Digitaal Vlaanderen Gebouwenregister","source_id":"gebouw/Gebouw.13526760/0","kind":"building","building":"official","height_m":5.1,"status":null},"geometry":{"type":"Polygon","coordinates":[[[3.95326599,50.93396859],[3.95330819,50.93374376],[3.95415454,50.93380884],[3.95407024,50.93425352],[3.95390689,50.93424182],[3.95389772,50.93429743],[3.95340814,50.9342599],[3.95341836,50.93420519],[3.95333744,50.93419905],[3.95334619,50.93415477],[3.95316257,50.93414076],[3.95316723,50.93411761],[3.95313876,50.93411527],[3.95314312,50.93409296],[3.95311479,50.9340908],[3.95312242,50.93404773],[3.95315101,50.9340498],[3.95315471,50.9340276],[3.95318318,50.93402975],[3.9531874,50.93400642],[3.95336963,50.93401949],[3.9533781,50.93397729],[3.95326599,50.93396859]]]}},{"type":"Feature","id":"gebouw/Gebouw.13538500/0","properties":{"source":"Digitaal Vlaanderen Gebouwenregister","source_id":"gebouw/Gebouw.13538500/0","kind":"building","building":"official","height_m":8.1,"status":null},"geometry":{"type":"Polygon","coordinates":[[[3.96257775,50.9291664],[3.96231295,50.92920789],[3.9623111,50.92920244],[3.96228889,50.92914215],[3.96250301,50.92910945],[3.96255528,50.92910147],[3.96257775,50.9291664]]]}},{"type":"Feature","id":"gebouw/Gebouw.13539015/0","properties":{"source":"Digitaal Vlaanderen Gebouwenregister","source_id":"gebouw/Gebouw.13539015/0","kind":"building","building":"official","height_m":7.35,"status":null},"geometry":{"type":"Polygon","coordinates":[[[3.96109479,50.93393414],[3.96148197,50.93382321],[3.96104339,50.93320473],[3.96064955,50.9333165],[3.96073982,50.93344186],[3.96066391,50.93346363],[3.96061365,50.93347804],[3.96096629,50.93397096],[3.96109479,50.93393414]]]}},{"type":"Feature","id":"gebouw/Gebouw.13551871/0","properties":{"source":"Digitaal Vlaanderen Gebouwenregister","source_id":"gebouw/Gebouw.13551871/0","kind":"building","building":"official","height_m":5.85,"status":null},"geometry":{"type":"Polygon","coordinates":[[[3.96031822,50.93338405],[3.95984487,50.93351799],[3.9601016,50.93387223],[3.96056742,50.93374183],[3.96031822,50.93338405]]]}},{"type":"Feature","id":"gebouw/Gebouw.13552510/0","properties":{"source":"Digitaal Vlaanderen Gebouwenregister","source_id":"gebouw/Gebouw.13552510/0","kind":"building","building":"official","height_m":8.1,"status":null},"geometry":{"type":"Polygon","coordinates":[[[3.96132574,50.93190375],[3.96164944,50.93180952],[3.96167008,50.93183714],[3.96169747,50.93182958],[3.96168325,50.93180901],[3.96177686,50.93178318],[3.96179108,50.93180375],[3.96214135,50.9317071],[3.96212405,50.93168128],[3.96226966,50.93164167],[3.9622848,50.93166448],[3.96230065,50.93165994],[3.9622846,50.93163759],[3.96248655,50.93157965],[3.9625026,50.931602],[3.96248098,50.93160821],[3.96248457,50.93161319],[3.96250687,50.9316068],[3.96254518,50.93166012],[3.96251982,50.93166739],[3.96274147,50.93197594],[3.96202298,50.93218224],[3.96232571,50.93260852],[3.96188011,50.93273594],[3.96131269,50.93193935],[3.96134552,50.93193061],[3.96132574,50.93190375]]]}},{"type":"Feature","id":"gebouw/Gebouw.13563760/0","properties":{"source":"Digitaal Vlaanderen Gebouwenregister","source_id":"gebouw/Gebouw.13563760/0","kind":"building","building":"official","height_m":8.1,"status":null},"geometry":{"type":"Polygon","coordinates":[[[3.9606278,50.9294746],[3.96069923,50.92951043],[3.96070498,50.92951332],[3.96069404,50.92954175],[3.96068526,50.92954953],[3.96059397,50.92950258],[3.96057174,50.92952097],[3.96049693,50.92948485],[3.960553,50.92943848],[3.9606278,50.9294746]]]}},{"type":"Feature","id":"gebouw/Gebouw.13574410/0","properties":{"source":"Digitaal Vlaanderen Gebouwenregister","source_id":"gebouw/Gebouw.13574410/0","kind":"building","building":"official","height_m":8.1,"status":null},"geometry":{"type":"Polygon","coordinates":[[[3.96267189,50.92960887],[3.96267074,50.92960992],[3.96254668,50.9295516],[3.96251075,50.92953471],[3.96261352,50.92945015],[3.96262594,50.92941586],[3.96265517,50.92933523],[3.96273601,50.92934664],[3.96269346,50.92944667],[3.9626773,50.92944221],[3.96266572,50.92945164],[3.96269368,50.92946506],[3.96266786,50.92948692],[3.96276287,50.92953145],[3.96274822,50.92954392],[3.96267189,50.92960887]]]}},{"type":"Feature","id":"gebouw/Gebouw.13578926/0","properties":{"source":"Digitaal Vlaanderen Gebouwenregister","source_id":"gebouw/Gebouw.13578926/0","kind":"building","building":"official","height_m":6.6,"status":null},"geometry":{"type":"Polygon","coordinates":[[[3.95707482,50.93166227],[3.957173,50.93164995],[3.95718301,50.93165877],[3.95721271,50.93165337],[3.95720131,50.93161533],[3.95733978,50.93159979],[3.9571924,50.93110893],[3.95804499,50.93100827],[3.95830719,50.93189953],[3.95871115,50.93185085],[3.95878802,50.93211245],[3.95842116,50.93215629],[3.958356,50.9319383],[3.95832151,50.93194297],[3.95842825,50.93231674],[3.95800427,50.93236521],[3.95798403,50.93230327],[3.95791623,50.93231217],[3.95787561,50.93217686],[3.95794674,50.93216871],[3.95792987,50.93211037],[3.9577448,50.93213425],[3.95775425,50.93216854],[3.95766145,50.93217845],[3.95767108,50.93220821],[3.95755237,50.93222245],[3.95754465,50.93219343],[3.95732404,50.93221432],[3.95727944,50.9320509],[3.95746352,50.93203083],[3.95745551,50.93200353],[3.95742808,50.93191014],[3.95724524,50.93193206],[3.95726392,50.93199264],[3.95717047,50.93200237],[3.95707262,50.93166935],[3.95707262,50.93166577],[3.95707482,50.93166227]]]}},{"type":"Feature","id":"gebouw/Gebouw.13588551/0","properties":{"source":"Digitaal Vlaanderen Gebouwenregister","source_id":"gebouw/Gebouw.13588551/0","kind":"building","building":"official","height_m":7.35,"status":null},"geometry":{"type":"Polygon","coordinates":[[[3.9585439,50.93404791],[3.95851747,50.93400829],[3.95858469,50.93399051],[3.95861324,50.93402832],[3.9585439,50.93404791]]]}},{"type":"Feature","id":"gebouw/Gebouw.13609064/0","properties":{"source":"Digitaal Vlaanderen Gebouwenregister","source_id":"gebouw/Gebouw.13609064/0","kind":"building","building":"official","height_m":6.6,"status":null},"geometry":{"type":"Polygon","coordinates":[[[3.96228253,50.92857059],[3.96211657,50.92860177],[3.96210406,50.92857506],[3.96210951,50.92857403],[3.9620953,50.92854367],[3.96208984,50.9285447],[3.96208815,50.9285411],[3.96235849,50.92849098],[3.9623846,50.92855141],[3.96230781,50.92856584],[3.96228253,50.92857059]]]}},{"type":"Feature","id":"gebouw/Gebouw.13626474/0","properties":{"source":"Digitaal Vlaanderen Gebouwenregister","source_id":"gebouw/Gebouw.13626474/0","kind":"building","building":"official","height_m":5.1,"status":null},"geometry":{"type":"Polygon","coordinates":[[[3.95915848,50.92857549],[3.95923469,50.92857562],[3.9595766,50.92873356],[3.95979399,50.92883398],[3.95983214,50.9288516],[3.95965302,50.9290063],[3.95940476,50.92889192],[3.95936884,50.92892097],[3.9589,50.92870459],[3.95896116,50.92865372],[3.95903246,50.92868703],[3.95915848,50.92857549]]]}},{"type":"Feature","id":"gebouw/Gebouw.13650071/0","properties":{"source":"Digitaal Vlaanderen Gebouwenregister","source_id":"gebouw/Gebouw.13650071/0","kind":"building","building":"official","height_m":8.85,"status":null},"geometry":{"type":"Polygon","coordinates":[[[3.96234811,50.9292675],[3.96234593,50.92926768],[3.96232881,50.92922365],[3.96257826,50.92918712],[3.96259227,50.92923039],[3.96234811,50.9292675]]]}},{"type":"Feature","id":"gebouw/Gebouw.13650193/0","properties":{"source":"Digitaal Vlaanderen Gebouwenregister","source_id":"gebouw/Gebouw.13650193/0","kind":"building","building":"official","height_m":5.85,"status":null},"geometry":{"type":"Polygon","coordinates":[[[3.96148689,50.92937176],[3.96143479,50.92934714],[3.9614305,50.92935077],[3.9613804,50.92932758],[3.96138456,50.92932399],[3.96134639,50.92930636],[3.96133804,50.92931359],[3.96132104,50.9293056],[3.96128878,50.92930637],[3.9612731,50.92931993],[3.96126244,50.92931501],[3.9612315,50.92934453],[3.96123812,50.92934849],[3.96120653,50.92940814],[3.96140318,50.92946326],[3.96145134,50.9294105],[3.96148083,50.92937836],[3.96148689,50.92937176]]]}},{"type":"Feature","id":"gebouw/Gebouw.13655328/0","properties":{"source":"Digitaal Vlaanderen Gebouwenregister","source_id":"gebouw/Gebouw.13655328/0","kind":"building","building":"official","height_m":5.1,"status":null},"geometry":{"type":"Polygon","coordinates":[[[3.96089114,50.93144672],[3.9607467,50.93124524],[3.96158959,50.93100616],[3.96169551,50.93115896],[3.96111179,50.93132362],[3.96114663,50.93137384],[3.96089114,50.93144672]]]}},{"type":"Feature","id":"gebouw/Gebouw.13762764/0","properties":{"source":"Digitaal Vlaanderen Gebouwenregister","source_id":"gebouw/Gebouw.13762764/0","kind":"building","building":"official","height_m":5.1,"status":null},"geometry":{"type":"Polygon","coordinates":[[[3.95897183,50.93270226],[3.95935021,50.93323043],[3.95939484,50.93329272],[3.95913517,50.9333667],[3.95858996,50.93260565],[3.95884944,50.93253142],[3.95897183,50.93270226]]]}},{"type":"Feature","id":"gebouw/Gebouw.13763248/0","properties":{"source":"Digitaal Vlaanderen Gebouwenregister","source_id":"gebouw/Gebouw.13763248/0","kind":"building","building":"official","height_m":8.1,"status":null},"geometry":{"type":"Polygon","coordinates":[[[3.96230781,50.92856584],[3.96233417,50.92862905],[3.96214559,50.92866455],[3.96211657,50.92860177],[3.96228253,50.92857059],[3.96230781,50.92856584]]]}},{"type":"Feature","id":"gebouw/Gebouw.13810711/0","properties":{"source":"Digitaal Vlaanderen Gebouwenregister","source_id":"gebouw/Gebouw.13810711/0","kind":"building","building":"official","height_m":5.85,"status":null},"geometry":{"type":"Polygon","coordinates":[[[3.95421238,50.93148249],[3.95331898,50.93139831],[3.95323427,50.93175449],[3.95254831,50.93168981],[3.95263159,50.93133452],[3.9525378,50.93132486],[3.95254756,50.93128706],[3.9525517,50.93128749],[3.95259373,50.93112461],[3.95267527,50.93113301],[3.95268275,50.93110403],[3.95264329,50.93109996],[3.95266258,50.93102521],[3.95267087,50.93099307],[3.95271083,50.93099718],[3.95281803,50.9305334],[3.95265354,50.9305181],[3.95266839,50.9304542],[3.95262663,50.93045032],[3.95265796,50.9303155],[3.95269973,50.93031937],[3.95272962,50.93019079],[3.95283054,50.93020015],[3.95283304,50.93018929],[3.9529429,50.93019938],[3.95301904,50.93020638],[3.95301648,50.9302174],[3.9534046,50.93025339],[3.95333112,50.93058108],[3.95324696,50.93057273],[3.95321633,50.93070518],[3.95347333,50.93072924],[3.95347986,50.93070137],[3.95361091,50.93071364],[3.95360437,50.93074151],[3.95360735,50.93074179],[3.95361395,50.93071649],[3.95378112,50.9307318],[3.95377211,50.93075771],[3.95436773,50.93081391],[3.95421238,50.93148249]]]}},{"type":"Feature","id":"gebouw/Gebouw.13840014/0","properties":{"source":"Digitaal Vlaanderen Gebouwenregister","source_id":"gebouw/Gebouw.13840014/0","kind":"building","building":"official","height_m":5.1,"status":null},"geometry":{"type":"Polygon","coordinates":[[[3.95675127,50.93366131],[3.95673013,50.93375371],[3.95675267,50.93375568],[3.95674365,50.93379678],[3.95672052,50.93379475],[3.95669941,50.9338875],[3.95654453,50.93387393],[3.95654185,50.93388975],[3.95647936,50.93388326],[3.95648276,50.93386834],[3.95633467,50.93385592],[3.95635573,50.93376053],[3.95633045,50.93375824],[3.95633975,50.93371725],[3.95636432,50.93371984],[3.95638706,50.93362535],[3.95653565,50.93363987],[3.95653857,50.93362405],[3.956602,50.93362963],[3.95659647,50.93364546],[3.95675127,50.93366131]]]}},{"type":"Feature","id":"gebouw/Gebouw.13852094/0","properties":{"source":"Digitaal Vlaanderen Gebouwenregister","source_id":"gebouw/Gebouw.13852094/0","kind":"building","building":"official","height_m":6.6,"status":null},"geometry":{"type":"Polygon","coordinates":[[[3.95500426,50.93048923],[3.95491983,50.93048175],[3.95492578,50.93045513],[3.95501023,50.9304626],[3.95500426,50.93048923]]]}},{"type":"Feature","id":"gebouw/Gebouw.16651210/0","properties":{"source":"Digitaal Vlaanderen Gebouwenregister","source_id":"gebouw/Gebouw.16651210/0","kind":"building","building":"official","height_m":8.1,"status":null},"geometry":{"type":"Polygon","coordinates":[[[3.96142749,50.92903976],[3.961492,50.92898369],[3.96152678,50.92900317],[3.96158619,50.92894969],[3.96165753,50.92908467],[3.96156438,50.92916313],[3.9614181,50.92909424],[3.96144739,50.92906941],[3.96141237,50.92905291],[3.96142749,50.92903976]]]}},{"type":"Feature","id":"gebouw/Gebouw.16653894/0","properties":{"source":"Digitaal Vlaanderen Gebouwenregister","source_id":"gebouw/Gebouw.16653894/0","kind":"building","building":"official","height_m":5.1,"status":null},"geometry":{"type":"Polygon","coordinates":[[[3.95436648,50.93080239],[3.95429133,50.93079525],[3.95429642,50.93077451],[3.95437179,50.93078256],[3.95436648,50.93080239]]]}},{"type":"Feature","id":"gebouw/Gebouw.16670805/0","properties":{"source":"Digitaal Vlaanderen Gebouwenregister","source_id":"gebouw/Gebouw.16670805/0","kind":"building","building":"official","height_m":7.35,"status":null},"geometry":{"type":"Polygon","coordinates":[[[3.96177814,50.93331447],[3.96157281,50.93302957],[3.96118479,50.93313973],[3.96138704,50.93342701],[3.9616141,50.93374952],[3.96191295,50.93366365],[3.96168235,50.93334318],[3.96168164,50.9333422],[3.96177814,50.93331447]]]}},{"type":"Feature","id":"gebouw/Gebouw.16671316/0","properties":{"source":"Digitaal Vlaanderen Gebouwenregister","source_id":"gebouw/Gebouw.16671316/0","kind":"building","building":"official","height_m":8.1,"status":null},"geometry":{"type":"Polygon","coordinates":[[[3.95618524,50.9315816],[3.95470049,50.93144411],[3.95429076,50.93321922],[3.95452641,50.93324118],[3.95449457,50.93337752],[3.95455459,50.93338312],[3.95423732,50.93474188],[3.95424544,50.93474229],[3.95553312,50.93438462],[3.95584645,50.93303785],[3.95590954,50.93304371],[3.95593251,50.93294495],[3.95586943,50.93293909],[3.95618524,50.9315816]]]}},{"type":"Feature","id":"gebouw/Gebouw.16671459/0","properties":{"source":"Digitaal Vlaanderen Gebouwenregister","source_id":"gebouw/Gebouw.16671459/0","kind":"building","building":"official","height_m":7.35,"status":null},"geometry":{"type":"Polygon","coordinates":[[[3.95240348,50.93466587],[3.9522409,50.93449749],[3.95223929,50.93449809],[3.95221095,50.93450886],[3.95216281,50.93445939],[3.95219319,50.93444759],[3.95208476,50.93433619],[3.95230369,50.93425086],[3.95237235,50.9343238],[3.95238667,50.93431842],[3.95257668,50.93424491],[3.95261378,50.93428326],[3.95274784,50.93423147],[3.95279645,50.93428283],[3.9526623,50.93433342],[3.95282616,50.93450281],[3.95240348,50.93466587]]]}},{"type":"Feature","id":"gebouw/Gebouw.16677589/0","properties":{"source":"Digitaal Vlaanderen Gebouwenregister","source_id":"gebouw/Gebouw.16677589/0","kind":"building","building":"official","height_m":5.85,"status":null},"geometry":{"type":"Polygon","coordinates":[[[3.95852839,50.93140814],[3.95851664,50.93135942],[3.95857755,50.93135297],[3.95859121,50.93140183],[3.95852839,50.93140814]]]}},{"type":"Feature","id":"gebouw/Gebouw.16686698/0","properties":{"source":"Digitaal Vlaanderen Gebouwenregister","source_id":"gebouw/Gebouw.16686698/0","kind":"building","building":"official","height_m":6.6,"status":null},"geometry":{"type":"Polygon","coordinates":[[[3.96133772,50.93182293],[3.96125017,50.93184808],[3.96123356,50.9318249],[3.96132416,50.93179888],[3.96134077,50.93182206],[3.96133772,50.93182293]]]}},{"type":"Feature","id":"gebouw/Gebouw.16694229/0","properties":{"source":"Digitaal Vlaanderen Gebouwenregister","source_id":"gebouw/Gebouw.16694229/0","kind":"building","building":"official","height_m":7.35,"status":null},"geometry":{"type":"Polygon","coordinates":[[[3.95671118,50.93344611],[3.95675148,50.93327037],[3.95669148,50.93326488],[3.95669907,50.93323175],[3.95653188,50.93321536],[3.95648184,50.93342259],[3.95671118,50.93344611]]]}},{"type":"Feature","id":"gebouw/Gebouw.16699681/0","properties":{"source":"Digitaal Vlaanderen Gebouwenregister","source_id":"gebouw/Gebouw.16699681/0","kind":"building","building":"official","height_m":5.85,"status":null},"geometry":{"type":"Polygon","coordinates":[[[3.95849043,50.93249276],[3.9584618,50.93239044],[3.95857167,50.93237752],[3.95860178,50.93247975],[3.95849043,50.93249276]]]}},{"type":"Feature","id":"gebouw/Gebouw.16715609/0","properties":{"source":"Digitaal Vlaanderen Gebouwenregister","source_id":"gebouw/Gebouw.16715609/0","kind":"building","building":"official","height_m":8.85,"status":null},"geometry":{"type":"Polygon","coordinates":[[[3.95393019,50.9345663],[3.95372817,50.9346407],[3.95366672,50.93466333],[3.95357569,50.93456787],[3.95391214,50.93444008],[3.95400417,50.93453764],[3.95393019,50.9345663]]]}},{"type":"Feature","id":"gebouw/Gebouw.16715807/0","properties":{"source":"Digitaal Vlaanderen Gebouwenregister","source_id":"gebouw/Gebouw.16715807/0","kind":"building","building":"official","height_m":8.85,"status":null},"geometry":{"type":"Polygon","coordinates":[[[3.95269997,50.93327968],[3.95279025,50.93328983],[3.95274415,50.93345366],[3.95337286,50.93352429],[3.95347387,50.93319694],[3.95286916,50.93313016],[3.95283298,50.93312616],[3.95287585,50.93296956],[3.95266486,50.9329465],[3.95285863,50.93223876],[3.95285974,50.93223469],[3.95282941,50.93223137],[3.9525568,50.93220157],[3.95246975,50.93219205],[3.95244629,50.93218948],[3.95224463,50.93292035],[3.95220719,50.93305606],[3.95212846,50.93304776],[3.95212246,50.93304713],[3.95208811,50.93317728],[3.95191383,50.93315891],[3.95180144,50.93355862],[3.95176383,50.93369238],[3.95244671,50.93376844],[3.95245807,50.93372749],[3.95251837,50.93373405],[3.95264605,50.93327362],[3.95269997,50.93327968]]]}},{"type":"Feature","id":"gebouw/Gebouw.16718120/0","properties":{"source":"Digitaal Vlaanderen Gebouwenregister","source_id":"gebouw/Gebouw.16718120/0","kind":"building","building":"official","height_m":6.6,"status":null},"geometry":{"type":"Polygon","coordinates":[[[3.96245875,50.92886329],[3.9624475,50.92883188],[3.96250314,50.92882691],[3.96250936,50.9288598],[3.96245875,50.92886329]]]}},{"type":"Feature","id":"gebouw/Gebouw.16787655/0","properties":{"source":"Digitaal Vlaanderen Gebouwenregister","source_id":"gebouw/Gebouw.16787655/0","kind":"building","building":"official","height_m":7.35,"status":null},"geometry":{"type":"Polygon","coordinates":[[[3.96085885,50.92941031],[3.96079344,50.92940005],[3.96085209,50.92924666],[3.96091777,50.92925606],[3.96085885,50.92941031]]]}},{"type":"Feature","id":"gebouw/Gebouw.18210893/0","properties":{"source":"Digitaal Vlaanderen Gebouwenregister","source_id":"gebouw/Gebouw.18210893/0","kind":"building","building":"official","height_m":8.85,"status":null},"geometry":{"type":"Polygon","coordinates":[[[3.95873117,50.92894468],[3.95915077,50.92912575],[3.95926809,50.92910986],[3.95974654,50.92931123],[3.95930391,50.92972839],[3.95833645,50.92931795],[3.95834624,50.9293074],[3.95873117,50.92894468]]]}},{"type":"Feature","id":"gebouw/Gebouw.18862017/0","properties":{"source":"Digitaal Vlaanderen Gebouwenregister","source_id":"gebouw/Gebouw.18862017/0","kind":"building","building":"official","height_m":7.35,"status":null},"geometry":{"type":"Polygon","coordinates":[[[3.96260478,50.92882394],[3.96260701,50.92885294],[3.96255083,50.92885647],[3.96254512,50.92882886],[3.96260478,50.92882394]]]}},{"type":"Feature","id":"gebouw/Gebouw.18862032/0","properties":{"source":"Digitaal Vlaanderen Gebouwenregister","source_id":"gebouw/Gebouw.18862032/0","kind":"building","building":"official","height_m":5.1,"status":null},"geometry":{"type":"Polygon","coordinates":[[[3.9544124,50.93138196],[3.95442865,50.93131311],[3.95453791,50.93132298],[3.95452289,50.93139186],[3.9544124,50.93138196]]]}},{"type":"Feature","id":"gebouw/Gebouw.18862034/0","properties":{"source":"Digitaal Vlaanderen Gebouwenregister","source_id":"gebouw/Gebouw.18862034/0","kind":"building","building":"official","height_m":6.6,"status":null},"geometry":{"type":"Polygon","coordinates":[[[3.95440552,50.93354672],[3.95439322,50.9336025],[3.95435166,50.93359838],[3.95436471,50.93354281],[3.95440552,50.93354672]]]}},{"type":"Feature","id":"gebouw/Gebouw.18862035/0","properties":{"source":"Digitaal Vlaanderen Gebouwenregister","source_id":"gebouw/Gebouw.18862035/0","kind":"building","building":"official","height_m":7.35,"status":null},"geometry":{"type":"Polygon","coordinates":[[[3.95442068,50.9334816],[3.95440828,50.9335367],[3.95436746,50.93353327],[3.95438158,50.93347776],[3.95442068,50.9334816]]]}},{"type":"Feature","id":"gebouw/Gebouw.18862109/0","properties":{"source":"Digitaal Vlaanderen Gebouwenregister","source_id":"gebouw/Gebouw.18862109/0","kind":"building","building":"official","height_m":8.85,"status":null},"geometry":{"type":"Polygon","coordinates":[[[3.9543862,50.93346866],[3.95439909,50.93341258],[3.95443701,50.93341635],[3.95442397,50.93347172],[3.9543862,50.93346866]]]}},{"type":"Feature","id":"gebouw/Gebouw.18862110/0","properties":{"source":"Digitaal Vlaanderen Gebouwenregister","source_id":"gebouw/Gebouw.18862110/0","kind":"building","building":"official","height_m":5.1,"status":null},"geometry":{"type":"Polygon","coordinates":[[[3.95282616,50.93450281],[3.95293881,50.93461939],[3.95265159,50.9347302],[3.9525831,50.93475663],[3.95251613,50.93478246],[3.95240348,50.93466587],[3.95282616,50.93450281]]]}},{"type":"Feature","id":"gebouw/Gebouw.18862495/0","properties":{"source":"Digitaal Vlaanderen Gebouwenregister","source_id":"gebouw/Gebouw.18862495/0","kind":"building","building":"official","height_m":5.85,"status":null},"geometry":{"type":"Polygon","coordinates":[[[3.9623311,50.93465538],[3.96229183,50.93468814],[3.96213882,50.93461502],[3.96217953,50.93458055],[3.9623311,50.93465538]]]}},{"type":"Feature","id":"gebouw/Gebouw.19221423/0","properties":{"source":"Digitaal Vlaanderen Gebouwenregister","source_id":"gebouw/Gebouw.19221423/0","kind":"building","building":"official","height_m":7.35,"status":null},"geometry":{"type":"Polygon","coordinates":[[[3.95279025,50.93328983],[3.95269997,50.93327968],[3.95262696,50.93353915],[3.95263393,50.93353992],[3.95265391,50.93354215],[3.95269097,50.93354628],[3.95269209,50.9335464],[3.95277621,50.93355577],[3.95277699,50.93355586],[3.95293761,50.93357375],[3.95294449,50.93357452],[3.95307444,50.933589],[3.95320528,50.93360357],[3.95320157,50.93361905],[3.95322304,50.93362179],[3.95321791,50.93363781],[3.95333172,50.9336505],[3.95332646,50.93366948],[3.95331737,50.93370224],[3.95317283,50.93422334],[3.9539112,50.93430533],[3.95406073,50.93374965],[3.95409154,50.93363514],[3.95393714,50.9336209],[3.95379495,50.93360778],[3.95380249,50.93357177],[3.95337286,50.93352429],[3.95274415,50.93345366],[3.95279025,50.93328983]]]}},{"type":"Feature","id":"gebouw/Gebouw.19692820/0","properties":{"source":"Digitaal Vlaanderen Gebouwenregister","source_id":"gebouw/Gebouw.19692820/0","kind":"building","building":"official","height_m":8.1,"status":null},"geometry":{"type":"Polygon","coordinates":[[[3.96100433,50.93150139],[3.96230804,50.93113415],[3.96219028,50.9309708],[3.96186344,50.93106263],[3.96174806,50.93089854],[3.96233686,50.93073403],[3.96274433,50.93130868],[3.96261323,50.93134736],[3.96262668,50.93136702],[3.96247181,50.93141071],[3.96245598,50.9313894],[3.9617401,50.93159329],[3.9617557,50.9316143],[3.96160226,50.93165814],[3.96158689,50.93163547],[3.96156789,50.93164168],[3.96157749,50.93165474],[3.96151241,50.93167325],[3.96150185,50.93165914],[3.96144533,50.93167552],[3.96145254,50.93168738],[3.96138936,50.93170513],[3.96138144,50.93169433],[3.96118169,50.93175287],[3.96100433,50.93150139]]]}},{"type":"Feature","id":"gebouw/Gebouw.19696392/0","properties":{"source":"Digitaal Vlaanderen Gebouwenregister","source_id":"gebouw/Gebouw.19696392/0","kind":"building","building":"official","height_m":5.1,"status":null},"geometry":{"type":"Polygon","coordinates":[[[3.95932649,50.93061753],[3.95929013,50.93062784],[3.95926612,50.93059402],[3.95921427,50.93060871],[3.95923827,50.93064254],[3.9591076,50.93067957],[3.95899321,50.930712],[3.95865964,50.93080654],[3.95911568,50.93145436],[3.95909407,50.93146018],[3.95923509,50.93166142],[3.96036057,50.93134245],[3.95982159,50.93058296],[3.95938866,50.9307052],[3.95932649,50.93061753]]]}},{"type":"Feature","id":"gebouw/Gebouw.19697413/0","properties":{"source":"Digitaal Vlaanderen Gebouwenregister","source_id":"gebouw/Gebouw.19697413/0","kind":"building","building":"official","height_m":5.85,"status":null},"geometry":{"type":"Polygon","coordinates":[[[3.95834624,50.9293074],[3.95806194,50.92918622],[3.95768325,50.92954407],[3.95720845,50.92934103],[3.95749702,50.92906926],[3.95771222,50.92886659],[3.95787271,50.92871545],[3.95792346,50.92866765],[3.95810881,50.92874649],[3.9581952,50.9286653],[3.95863045,50.92884974],[3.95859194,50.92888571],[3.95873117,50.92894468],[3.95834624,50.9293074]]]}},{"type":"Feature","id":"gebouw/Gebouw.19697414/0","properties":{"source":"Digitaal Vlaanderen Gebouwenregister","source_id":"gebouw/Gebouw.19697414/0","kind":"building","building":"official","height_m":6.6,"status":null},"geometry":{"type":"Polygon","coordinates":[[[3.95720845,50.92934103],[3.95710856,50.9294351],[3.95696472,50.92937044],[3.95724482,50.92910505],[3.95726122,50.92908962],[3.95724411,50.92908236],[3.95727155,50.92905652],[3.95728906,50.92906339],[3.95734988,50.92900599],[3.95742606,50.92903827],[3.95742526,50.92903903],[3.95742883,50.92904054],[3.95749702,50.92906926],[3.95720845,50.92934103]]]}},{"type":"Feature","id":"gebouw/Gebouw.19699744/0","properties":{"source":"Digitaal Vlaanderen Gebouwenregister","source_id":"gebouw/Gebouw.19699744/0","kind":"building","building":"official","height_m":8.1,"status":null},"geometry":{"type":"Polygon","coordinates":[[[3.96155486,50.92888732],[3.96155773,50.92889696],[3.96157038,50.92893955],[3.96157856,50.92893841],[3.96158619,50.92894969],[3.96165753,50.92908467],[3.96156438,50.92916313],[3.9614181,50.92909424],[3.96144739,50.92906941],[3.96141237,50.92905291],[3.96142749,50.92903976],[3.96151188,50.92896271],[3.96150619,50.92895919],[3.96152834,50.92894429],[3.96151572,50.92889162],[3.96155486,50.92888732]]]}},{"type":"Feature","id":"gebouw/Gebouw.19699853/0","properties":{"source":"Digitaal Vlaanderen Gebouwenregister","source_id":"gebouw/Gebouw.19699853/0","kind":"building","building":"official","height_m":8.85,"status":null},"geometry":{"type":"Polygon","coordinates":[[[3.95495447,50.93118431],[3.95496919,50.93111771],[3.95501558,50.9309078],[3.95500434,50.93090674],[3.95497628,50.93090407],[3.95484111,50.93089123],[3.95480861,50.93104294],[3.95478178,50.93116814],[3.95476461,50.93116629],[3.95470049,50.93144411],[3.95618524,50.9315816],[3.95624904,50.93130462],[3.95498427,50.9311874],[3.95495447,50.93118431]]]}},{"type":"Feature","id":"gebouw/Gebouw.19699854/0","properties":{"source":"Digitaal Vlaanderen Gebouwenregister","source_id":"gebouw/Gebouw.19699854/0","kind":"building","building":"official","height_m":5.1,"status":null},"geometry":{"type":"Polygon","coordinates":[[[3.95480861,50.93104294],[3.95484111,50.93089123],[3.95482509,50.93088971],[3.95479224,50.93088659],[3.95484056,50.93067937],[3.95487307,50.93068218],[3.95488912,50.93061276],[3.95485674,50.93060981],[3.95488235,50.93049767],[3.95470412,50.93048125],[3.95456182,50.93109965],[3.95473867,50.93111634],[3.95475691,50.93103812],[3.95480861,50.93104294]]]}},{"type":"Feature","id":"gebouw/Gebouw.19699855/0","properties":{"source":"Digitaal Vlaanderen Gebouwenregister","source_id":"gebouw/Gebouw.19699855/0","kind":"building","building":"official","height_m":5.85,"status":null},"geometry":{"type":"Polygon","coordinates":[[[3.95502042,50.9308364],[3.95500434,50.93090674],[3.95497628,50.93090407],[3.95484111,50.93089123],[3.95482509,50.93088971],[3.95487307,50.93068218],[3.95488912,50.93061276],[3.95489279,50.93059689],[3.95507142,50.93061333],[3.95504508,50.93072855],[3.95513812,50.93073712],[3.95514166,50.93072251],[3.95521975,50.93073007],[3.9551885,50.93086627],[3.95511024,50.9308595],[3.95511975,50.93081793],[3.95502659,50.93080942],[3.95502042,50.9308364]]]}},{"type":"Feature","id":"gebouw/Gebouw.19720786/0","properties":{"source":"Digitaal Vlaanderen Gebouwenregister","source_id":"gebouw/Gebouw.19720786/0","kind":"building","building":"official","height_m":8.1,"status":null},"geometry":{"type":"Polygon","coordinates":[[[3.95777748,50.932289],[3.9579128,50.93274864],[3.95798699,50.93300063],[3.95792922,50.93300762],[3.95740637,50.93307087],[3.95690606,50.93136675],[3.9570446,50.93135011],[3.95702576,50.93128422],[3.95688732,50.93130046],[3.95687318,50.93125192],[3.95685922,50.93125364],[3.95684569,50.93120994],[3.95685965,50.93120822],[3.95685177,50.93118119],[3.95684061,50.9311826],[3.95683049,50.93115055],[3.95684166,50.93114914],[3.95680343,50.93101759],[3.95687742,50.93100919],[3.95687485,50.93100034],[3.95694314,50.9309924],[3.95694571,50.93100125],[3.95715539,50.93097632],[3.95716033,50.93099442],[3.9571743,50.93099272],[3.95718766,50.93103639],[3.95717369,50.93103809],[3.95719492,50.9311086],[3.95746959,50.93204357],[3.95761394,50.93202599],[3.95769698,50.93201559],[3.95777748,50.932289]]]}},{"type":"Feature","id":"gebouw/Gebouw.19720787/0","properties":{"source":"Digitaal Vlaanderen Gebouwenregister","source_id":"gebouw/Gebouw.19720787/0","kind":"building","building":"official","height_m":8.85,"status":null},"geometry":{"type":"Polygon","coordinates":[[[3.957616,50.93105891],[3.95804499,50.93100827],[3.95805803,50.93105246],[3.95822713,50.93162788],[3.95827337,50.93162279],[3.95828071,50.93165272],[3.95826317,50.9316546],[3.95826779,50.9316685],[3.95831032,50.93166378],[3.95833565,50.9317573],[3.95843661,50.9317439],[3.95847653,50.93188047],[3.95870811,50.93185258],[3.95878639,50.93211268],[3.95841931,50.93215658],[3.95835434,50.93193973],[3.95831636,50.93194444],[3.95842787,50.93231758],[3.95800132,50.93236616],[3.95798326,50.93230592],[3.95791337,50.93231382],[3.95787488,50.93217904],[3.95794597,50.93216932],[3.9579284,50.93211056],[3.95787995,50.93194848],[3.957616,50.93105891]]]}},{"type":"Feature","id":"gebouw/Gebouw.19720788/0","properties":{"source":"Digitaal Vlaanderen Gebouwenregister","source_id":"gebouw/Gebouw.19720788/0","kind":"building","building":"official","height_m":5.1,"status":null},"geometry":{"type":"Polygon","coordinates":[[[3.95761394,50.93202599],[3.95746959,50.93204357],[3.95719492,50.9311086],[3.957616,50.93105891],[3.95787995,50.93194848],[3.95768599,50.93197082],[3.95766068,50.93188235],[3.95757459,50.93189271],[3.95761394,50.93202599]]]}},{"type":"Feature","id":"gebouw/Gebouw.19954754/0","properties":{"source":"Digitaal Vlaanderen Gebouwenregister","source_id":"gebouw/Gebouw.19954754/0","kind":"building","building":"official","height_m":6.6,"status":null},"geometry":{"type":"Polygon","coordinates":[[[3.95421238,50.93148249],[3.95416882,50.93166711],[3.95407867,50.93204916],[3.95405232,50.93216082],[3.95393286,50.93214957],[3.95392995,50.93214929],[3.95355923,50.93211436],[3.9535847,50.93200643],[3.95318374,50.93196864],[3.95318472,50.93196449],[3.95323427,50.93175449],[3.95331898,50.93139831],[3.95421238,50.93148249]]]}},{"type":"Feature","id":"gebouw/Gebouw.19955004/0","properties":{"source":"Digitaal Vlaanderen Gebouwenregister","source_id":"gebouw/Gebouw.19955004/0","kind":"building","building":"official","height_m":5.1,"status":null},"geometry":{"type":"Polygon","coordinates":[[[3.95876109,50.92869936],[3.95887676,50.92859962],[3.9590397,50.92867323],[3.95914174,50.92858668],[3.95927813,50.92858491],[3.95939098,50.92863705],[3.95943875,50.92859575],[3.9599153,50.92881592],[3.95965718,50.92903905],[3.95964165,50.92903187],[3.9594313,50.92893469],[3.95937527,50.92898312],[3.95876109,50.92869936]]]}},{"type":"Feature","id":"gebouw/Gebouw.19955027/0","properties":{"source":"Digitaal Vlaanderen Gebouwenregister","source_id":"gebouw/Gebouw.19955027/0","kind":"building","building":"official","height_m":8.85,"status":null},"geometry":{"type":"Polygon","coordinates":[[[3.9586314,50.93406016],[3.95866093,50.93410059],[3.95860335,50.93411738],[3.95857382,50.93407695],[3.9586314,50.93406016]]]}},{"type":"Feature","id":"gebouw/Gebouw.19955028/0","properties":{"source":"Digitaal Vlaanderen Gebouwenregister","source_id":"gebouw/Gebouw.19955028/0","kind":"building","building":"official","height_m":5.1,"status":null},"geometry":{"type":"Polygon","coordinates":[[[3.9529975,50.92945031],[3.95301706,50.9294754],[3.95291446,50.92950735],[3.9528949,50.92948226],[3.9529975,50.92945031]]]}},{"type":"Feature","id":"gebouw/Gebouw.19955029/0","properties":{"source":"Digitaal Vlaanderen Gebouwenregister","source_id":"gebouw/Gebouw.19955029/0","kind":"building","building":"official","height_m":5.85,"status":null},"geometry":{"type":"Polygon","coordinates":[[[3.95421607,50.92986776],[3.95418554,50.92996091],[3.95413029,50.92995367],[3.95416082,50.92986053],[3.95421607,50.92986776]]]}},{"type":"Feature","id":"gebouw/Gebouw.19955110/0","properties":{"source":"Digitaal Vlaanderen Gebouwenregister","source_id":"gebouw/Gebouw.19955110/0","kind":"building","building":"official","height_m":8.1,"status":null},"geometry":{"type":"Polygon","coordinates":[[[3.96061812,50.92975479],[3.96055839,50.92974617],[3.96057733,50.92969374],[3.96063706,50.92970235],[3.96061812,50.92975479]]]}},{"type":"Feature","id":"gebouw/Gebouw.20802216/0","properties":{"source":"Digitaal Vlaanderen Gebouwenregister","source_id":"gebouw/Gebouw.20802216/0","kind":"building","building":"official","height_m":5.1,"status":null},"geometry":{"type":"Polygon","coordinates":[[[3.95227047,50.93129967],[3.9525378,50.93132486],[3.95263159,50.93133452],[3.95254831,50.93168981],[3.95323427,50.93175449],[3.95318472,50.93196449],[3.95318374,50.93196864],[3.9527409,50.93192691],[3.95211745,50.93186653],[3.9521216,50.93184896],[3.95217382,50.93162768],[3.95225069,50.93130196],[3.95225165,50.93129789],[3.95227047,50.93129967]]]}},{"type":"Feature","id":"gebouw/Gebouw.20802217/0","properties":{"source":"Digitaal Vlaanderen Gebouwenregister","source_id":"gebouw/Gebouw.20802217/0","kind":"building","building":"official","height_m":5.85,"status":null},"geometry":{"type":"Polygon","coordinates":[[[3.95255175,50.9308381],[3.95244878,50.93082858],[3.95247985,50.93069442],[3.95258282,50.93070394],[3.95255175,50.9308381]]]}},{"type":"Feature","id":"gebouw/Gebouw.30883318/0","properties":{"source":"Digitaal Vlaanderen Gebouwenregister","source_id":"gebouw/Gebouw.30883318/0","kind":"building","building":"official","height_m":8.1,"status":null},"geometry":{"type":"Polygon","coordinates":[[[3.96064001,50.92966892],[3.960582,50.92966128],[3.96061747,50.92955285],[3.96067548,50.9295605],[3.96064001,50.92966892]]]}},{"type":"Feature","id":"gebouw/Gebouw.30884455/0","properties":{"source":"Digitaal Vlaanderen Gebouwenregister","source_id":"gebouw/Gebouw.30884455/0","kind":"building","building":"official","height_m":5.85,"status":null},"geometry":{"type":"Polygon","coordinates":[[[3.95829856,50.93336253],[3.95828041,50.93333693],[3.95838601,50.93330705],[3.95840415,50.93333265],[3.95851451,50.93330142],[3.95845439,50.93321659],[3.95818353,50.93329324],[3.95824365,50.93337807],[3.95829856,50.93336253]]]}},{"type":"Feature","id":"gebouw/Gebouw.31075272/0","properties":{"source":"Digitaal Vlaanderen Gebouwenregister","source_id":"gebouw/Gebouw.31075272/0","kind":"building","building":"official","height_m":5.1,"status":null},"geometry":{"type":"Polygon","coordinates":[[[3.95704763,50.93039172],[3.95670266,50.93042044],[3.95668327,50.93032993],[3.9565874,50.9298826],[3.9570029,50.92984703],[3.95709546,50.93027904],[3.95704128,50.93028355],[3.95702535,50.93028488],[3.95704763,50.93039172]]]}},{"type":"Feature","id":"gebouw/Gebouw.31523963/0","properties":{"source":"Digitaal Vlaanderen Gebouwenregister","source_id":"gebouw/Gebouw.31523963/0","kind":"building","building":"official","height_m":8.85,"status":null},"geometry":{"type":"Polygon","coordinates":[[[3.96178885,50.92917198],[3.96177077,50.9291401],[3.96174304,50.92914537],[3.96175969,50.92917827],[3.96178885,50.92917198]]]}},{"type":"Feature","id":"gebouw/Gebouw.31525084/0","properties":{"source":"Digitaal Vlaanderen Gebouwenregister","source_id":"gebouw/Gebouw.31525084/0","kind":"building","building":"official","height_m":8.1,"status":null},"geometry":{"type":"Polygon","coordinates":[[[3.95332677,50.9351382],[3.95329425,50.93512665],[3.95327382,50.9351498],[3.9533064,50.93516128],[3.95332677,50.9351382]]]}},{"type":"Feature","id":"gebouw/Gebouw.31532486/0","properties":{"source":"Digitaal Vlaanderen Gebouwenregister","source_id":"gebouw/Gebouw.31532486/0","kind":"building","building":"official","height_m":6.6,"status":null},"geometry":{"type":"Polygon","coordinates":[[[3.95760063,50.93418972],[3.95762783,50.93418153],[3.95760637,50.93415238],[3.95757915,50.93416056],[3.95760063,50.93418972]]]}},{"type":"Feature","id":"gebouw/Gebouw.31534257/0","properties":{"source":"Digitaal Vlaanderen Gebouwenregister","source_id":"gebouw/Gebouw.31534257/0","kind":"building","building":"official","height_m":7.35,"status":null},"geometry":{"type":"Polygon","coordinates":[[[3.96215196,50.92932379],[3.96212071,50.92932981],[3.96213382,50.92935698],[3.96216502,50.92935097],[3.96215196,50.92932379]]]}},{"type":"Feature","id":"gebouw/Gebouw.31538702/0","properties":{"source":"Digitaal Vlaanderen Gebouwenregister","source_id":"gebouw/Gebouw.31538702/0","kind":"building","building":"official","height_m":6.6,"status":null},"geometry":{"type":"Polygon","coordinates":[[[3.96176049,50.92911797],[3.96173545,50.92906396],[3.96170436,50.92906986],[3.96173114,50.92912375],[3.96176049,50.92911797]]]}},{"type":"Feature","id":"gebouw/Gebouw.31541067/0","properties":{"source":"Digitaal Vlaanderen Gebouwenregister","source_id":"gebouw/Gebouw.31541067/0","kind":"building","building":"official","height_m":7.35,"status":null},"geometry":{"type":"Polygon","coordinates":[[[3.9603811,50.93147929],[3.96034254,50.93149043],[3.96035824,50.93151224],[3.9603968,50.9315011],[3.9603811,50.93147929]]]}},{"type":"Feature","id":"gebouw/Gebouw.31543596/0","properties":{"source":"Digitaal Vlaanderen Gebouwenregister","source_id":"gebouw/Gebouw.31543596/0","kind":"building","building":"official","height_m":5.1,"status":null},"geometry":{"type":"Polygon","coordinates":[[[3.95759937,50.93104107],[3.95759176,50.9310156],[3.95755505,50.93101988],[3.95756267,50.93104534],[3.95759937,50.93104107]]]}},{"type":"Feature","id":"gebouw/Gebouw.31546768/0","properties":{"source":"Digitaal Vlaanderen Gebouwenregister","source_id":"gebouw/Gebouw.31546768/0","kind":"building","building":"official","height_m":8.1,"status":null},"geometry":{"type":"Polygon","coordinates":[[[3.95355884,50.9344058],[3.95345963,50.93440181],[3.95345624,50.93442905],[3.95355609,50.93443306],[3.95355884,50.9344058]]]}},{"type":"Feature","id":"gebouw/Gebouw.31546820/0","properties":{"source":"Digitaal Vlaanderen Gebouwenregister","source_id":"gebouw/Gebouw.31546820/0","kind":"building","building":"official","height_m":6.6,"status":null},"geometry":{"type":"Polygon","coordinates":[[[3.95595207,50.93031825],[3.95595601,50.93033584],[3.95600531,50.93033142],[3.95600137,50.93031384],[3.95595207,50.93031825]]]}},{"type":"Feature","id":"gebouw/Gebouw.31577825/0","properties":{"source":"Digitaal Vlaanderen Gebouwenregister","source_id":"gebouw/Gebouw.31577825/0","kind":"building","building":"official","height_m":8.85,"status":null},"geometry":{"type":"Polygon","coordinates":[[[3.96151568,50.92994264],[3.96113971,50.92981294],[3.96107016,50.92989345],[3.96110879,50.92990678],[3.96104076,50.92998553],[3.96137968,50.93010134],[3.96175494,50.93022957],[3.96219061,50.93037844],[3.96223506,50.93032626],[3.96214608,50.93029557],[3.96219195,50.93024247],[3.962105,50.93021247],[3.96214929,50.9301612],[3.96189012,50.9300718],[3.96151568,50.92994264]]]}},{"type":"Feature","id":"gebouw/Gebouw.31706293/0","properties":{"source":"Digitaal Vlaanderen Gebouwenregister","source_id":"gebouw/Gebouw.31706293/0","kind":"building","building":"official","height_m":5.85,"status":null},"geometry":{"type":"Polygon","coordinates":[[[3.96148798,50.92937227],[3.96148689,50.92937176],[3.96148083,50.92937836],[3.96145134,50.9294105],[3.96140318,50.92946326],[3.96137187,50.92949757],[3.96152731,50.92956907],[3.96156656,50.92953545],[3.96154504,50.92952538],[3.96156746,50.92950625],[3.96156079,50.92950338],[3.96163422,50.92944029],[3.96156076,50.92940632],[3.96148798,50.92937227]]]}},{"type":"Feature","id":"gebouw/Gebouw.31844557/0","properties":{"source":"Digitaal Vlaanderen Gebouwenregister","source_id":"gebouw/Gebouw.31844557/0","kind":"building","building":"official","height_m":5.85,"status":null},"geometry":{"type":"Polygon","coordinates":[[[3.96244419,50.92878191],[3.9623844,50.92878483],[3.96239019,50.92879839],[3.96240346,50.9288295],[3.96246072,50.92881975],[3.96244419,50.92878191]]]}},{"type":"Feature","id":"gebouw/Gebouw.31844628/0","properties":{"source":"Digitaal Vlaanderen Gebouwenregister","source_id":"gebouw/Gebouw.31844628/0","kind":"building","building":"official","height_m":5.1,"status":null},"geometry":{"type":"Polygon","coordinates":[[[3.96265741,50.92889431],[3.96265196,50.9288689],[3.96257302,50.92887567],[3.96257908,50.92890392],[3.96265804,50.92889723],[3.96265741,50.92889431]]]}},{"type":"Feature","id":"gebouw/Gebouw.31844693/0","properties":{"source":"Digitaal Vlaanderen Gebouwenregister","source_id":"gebouw/Gebouw.31844693/0","kind":"building","building":"official","height_m":8.85,"status":null},"geometry":{"type":"Polygon","coordinates":[[[3.96269794,50.93018412],[3.96265192,50.93016226],[3.9626202,50.93018892],[3.96266622,50.93021079],[3.96269794,50.93018412]]]}},{"type":"Feature","id":"gebouw/Gebouw.31844702/0","properties":{"source":"Digitaal Vlaanderen Gebouwenregister","source_id":"gebouw/Gebouw.31844702/0","kind":"building","building":"official","height_m":6.6,"status":null},"geometry":{"type":"Polygon","coordinates":[[[3.96261214,50.92918269],[3.96268874,50.92917115],[3.96268051,50.92914932],[3.96260391,50.92916087],[3.96261214,50.92918269]]]}},{"type":"Feature","id":"gebouw/Gebouw.31844713/0","properties":{"source":"Digitaal Vlaanderen Gebouwenregister","source_id":"gebouw/Gebouw.31844713/0","kind":"building","building":"official","height_m":5.85,"status":null},"geometry":{"type":"Polygon","coordinates":[[[3.96136663,50.93294541],[3.96129853,50.9329898],[3.96133431,50.93301173],[3.96140242,50.93296734],[3.96136663,50.93294541]]]}},{"type":"Feature","id":"gebouw/Gebouw.31844745/0","properties":{"source":"Digitaal Vlaanderen Gebouwenregister","source_id":"gebouw/Gebouw.31844745/0","kind":"building","building":"official","height_m":7.35,"status":null},"geometry":{"type":"Polygon","coordinates":[[[3.95650766,50.92952546],[3.95653692,50.92966106],[3.95661966,50.92965393],[3.9565904,50.92951833],[3.95650766,50.92952546]]]}},{"type":"Feature","id":"gebouw/Gebouw.31844795/0","properties":{"source":"Digitaal Vlaanderen Gebouwenregister","source_id":"gebouw/Gebouw.31844795/0","kind":"building","building":"official","height_m":8.85,"status":null},"geometry":{"type":"Polygon","coordinates":[[[3.96041194,50.92956375],[3.96046003,50.92949893],[3.96031272,50.92945494],[3.96031143,50.92945664],[3.96029468,50.92945159],[3.96028098,50.92946987],[3.96029764,50.9294749],[3.96026434,50.92951898],[3.96041194,50.92956375]]]}},{"type":"Feature","id":"gebouw/Gebouw.31844821/0","properties":{"source":"Digitaal Vlaanderen Gebouwenregister","source_id":"gebouw/Gebouw.31844821/0","kind":"building","building":"official","height_m":5.85,"status":null},"geometry":{"type":"Polygon","coordinates":[[[3.95235646,50.93216285],[3.95216052,50.93285553],[3.95225153,50.93286581],[3.95244747,50.93217313],[3.95235646,50.93216285]]]}},{"type":"Feature","id":"gebouw/Gebouw.31844847/0","properties":{"source":"Digitaal Vlaanderen Gebouwenregister","source_id":"gebouw/Gebouw.31844847/0","kind":"building","building":"official","height_m":7.35,"status":null},"geometry":{"type":"Polygon","coordinates":[[[3.9602501,50.92978578],[3.96053467,50.9298717],[3.96060953,50.92977269],[3.96032495,50.92968676],[3.9602501,50.92978578]]]}},{"type":"Feature","id":"gebouw/Gebouw.31844849/0","properties":{"source":"Digitaal Vlaanderen Gebouwenregister","source_id":"gebouw/Gebouw.31844849/0","kind":"building","building":"official","height_m":8.85,"status":null},"geometry":{"type":"Polygon","coordinates":[[[3.95616249,50.93379366],[3.95614754,50.93386354],[3.95622912,50.93387051],[3.95624407,50.93380063],[3.95616249,50.93379366]]]}},{"type":"Feature","id":"gebouw/Gebouw.31844911/0","properties":{"source":"Digitaal Vlaanderen Gebouwenregister","source_id":"gebouw/Gebouw.31844911/0","kind":"building","building":"official","height_m":5.85,"status":null},"geometry":{"type":"Polygon","coordinates":[[[3.95343685,50.93051471],[3.95353763,50.93052396],[3.95354136,50.93050291],[3.95357184,50.93050507],[3.95358178,50.93044898],[3.95345015,50.93043967],[3.95343685,50.93051471]]]}},{"type":"Feature","id":"gebouw/Gebouw.31844926/0","properties":{"source":"Digitaal Vlaanderen Gebouwenregister","source_id":"gebouw/Gebouw.31844926/0","kind":"building","building":"official","height_m":8.1,"status":null},"geometry":{"type":"Polygon","coordinates":[[[3.95270273,50.9321583],[3.95268849,50.93221376],[3.95281715,50.93222695],[3.95283138,50.93217149],[3.95270273,50.9321583]]]}},{"type":"Feature","id":"gebouw/Gebouw.31844986/0","properties":{"source":"Digitaal Vlaanderen Gebouwenregister","source_id":"gebouw/Gebouw.31844986/0","kind":"building","building":"official","height_m":8.1,"status":null},"geometry":{"type":"Polygon","coordinates":[[[3.95328301,50.93034756],[3.95305785,50.93032626],[3.95302446,50.9304673],[3.95324962,50.93048859],[3.95328301,50.93034756]]]}},{"type":"Feature","id":"gebouw/Gebouw.31845090/0","properties":{"source":"Digitaal Vlaanderen Gebouwenregister","source_id":"gebouw/Gebouw.31845090/0","kind":"building","building":"official","height_m":5.1,"status":null},"geometry":{"type":"Polygon","coordinates":[[[3.95292807,50.93224513],[3.95294925,50.93215286],[3.95311139,50.93216773],[3.95311346,50.93215873],[3.9531586,50.9319621],[3.95320686,50.93175191],[3.95334039,50.93117036],[3.9537385,50.93120686],[3.95377633,50.93104207],[3.95379449,50.930963],[3.95339998,50.93092683],[3.95341531,50.93086004],[3.95358116,50.93087524],[3.95359724,50.93080519],[3.95389843,50.9308328],[3.95391119,50.93077724],[3.95436449,50.9308188],[3.95441374,50.93060428],[3.95353763,50.93052396],[3.95343685,50.93051471],[3.95248329,50.93042728],[3.95228188,50.93130445],[3.95215209,50.93186971],[3.95213957,50.9319242],[3.95237778,50.93194604],[3.95236566,50.93199882],[3.95246786,50.9320082],[3.95245051,50.93208377],[3.95244577,50.9321044],[3.95248896,50.93210836],[3.95246975,50.93219205],[3.9525568,50.93220157],[3.95257608,50.93211761],[3.95284977,50.93214271],[3.95282941,50.93223137],[3.95285974,50.93223469],[3.95285863,50.93223876],[3.95292807,50.93224513]]]}},{"type":"Feature","id":"gebouw/Gebouw.31845111/0","properties":{"source":"Digitaal Vlaanderen Gebouwenregister","source_id":"gebouw/Gebouw.31845111/0","kind":"building","building":"official","height_m":7.35,"status":null},"geometry":{"type":"Polygon","coordinates":[[[3.9542564,50.93057188],[3.95442085,50.93058707],[3.95442988,50.93054805],[3.95426543,50.93053286],[3.9542564,50.93057188]]]}},{"type":"Feature","id":"gebouw/Gebouw.31845186/0","properties":{"source":"Digitaal Vlaanderen Gebouwenregister","source_id":"gebouw/Gebouw.31845186/0","kind":"building","building":"official","height_m":5.1,"status":null},"geometry":{"type":"Polygon","coordinates":[[[3.96176822,50.93470293],[3.96170007,50.93475099],[3.96174004,50.93477362],[3.96176759,50.93475419],[3.96179565,50.93477008],[3.96182444,50.93474978],[3.96179703,50.93473426],[3.96180884,50.93472593],[3.96176822,50.93470293]]]}},{"type":"Feature","id":"gebouw/Gebouw.31845194/0","properties":{"source":"Digitaal Vlaanderen Gebouwenregister","source_id":"gebouw/Gebouw.31845194/0","kind":"building","building":"official","height_m":6.6,"status":null},"geometry":{"type":"Polygon","coordinates":[[[3.96212689,50.93336101],[3.9622313,50.93333219],[3.96221861,50.93331384],[3.96211421,50.93334266],[3.96212689,50.93336101]]]}},{"type":"Feature","id":"gebouw/Gebouw.31845303/0","properties":{"source":"Digitaal Vlaanderen Gebouwenregister","source_id":"gebouw/Gebouw.31845303/0","kind":"building","building":"official","height_m":7.35,"status":null},"geometry":{"type":"Polygon","coordinates":[[[3.96140275,50.93296319],[3.96147034,50.93291178],[3.96143872,50.93289518],[3.96137112,50.93294659],[3.96140275,50.93296319]]]}},{"type":"Feature","id":"gebouw/Gebouw.31845313/0","properties":{"source":"Digitaal Vlaanderen Gebouwenregister","source_id":"gebouw/Gebouw.31845313/0","kind":"building","building":"official","height_m":5.85,"status":null},"geometry":{"type":"Polygon","coordinates":[[[3.95398517,50.93335853],[3.95400695,50.93327711],[3.95391695,50.93326749],[3.95389516,50.93334891],[3.95398517,50.93335853]]]}},{"type":"Feature","id":"gebouw/Gebouw.31845358/0","properties":{"source":"Digitaal Vlaanderen Gebouwenregister","source_id":"gebouw/Gebouw.31845358/0","kind":"building","building":"official","height_m":8.1,"status":null},"geometry":{"type":"Polygon","coordinates":[[[3.96219573,50.93327842],[3.962087,50.93330661],[3.96209987,50.93332643],[3.9622086,50.93329825],[3.96219573,50.93327842]]]}},{"type":"Feature","id":"gebouw/Gebouw.31845556/0","properties":{"source":"Digitaal Vlaanderen Gebouwenregister","source_id":"gebouw/Gebouw.31845556/0","kind":"building","building":"official","height_m":8.1,"status":null},"geometry":{"type":"Polygon","coordinates":[[[3.95359501,50.93087801],[3.95375675,50.93089055],[3.95376997,50.93082247],[3.95360823,50.93080993],[3.95359501,50.93087801]]]}},{"type":"Feature","id":"gebouw/Gebouw.32032051/0","properties":{"source":"Digitaal Vlaanderen Gebouwenregister","source_id":"gebouw/Gebouw.32032051/0","kind":"building","building":"official","height_m":5.85,"status":null},"geometry":{"type":"Polygon","coordinates":[[[3.95379449,50.930963],[3.95377633,50.93104207],[3.95402146,50.93106491],[3.9540399,50.93098586],[3.95379449,50.930963]]]}},{"type":"Feature","id":"gebouw/Gebouw.32032219/0","properties":{"source":"Digitaal Vlaanderen Gebouwenregister","source_id":"gebouw/Gebouw.32032219/0","kind":"building","building":"official","height_m":5.85,"status":null},"geometry":{"type":"Polygon","coordinates":[[[3.95392928,50.93201913],[3.95397209,50.93186201],[3.95388158,50.93185217],[3.95383877,50.93200928],[3.95392928,50.93201913]]]}}]}