{"type":"FeatureCollection","features":[{"type":"Feature","id":"gebouw/Gebouw.12862523/0","properties":{"source":"Digitaal Vlaanderen Gebouwenregister","source_id":"gebouw/Gebouw.12862523/0","kind":"building","building":"official","height_m":8.85,"status":null},"geometry":{"type":"Polygon","coordinates":[[[3.92961346,50.93485208],[3.92949961,50.93479846],[3.92950631,50.93479231],[3.92946078,50.93477041],[3.92934119,50.93472381],[3.92935052,50.93471587],[3.92924252,50.93468042],[3.92927393,50.93464022],[3.92933922,50.93466037],[3.92948664,50.93450787],[3.92951874,50.93452015],[3.92952349,50.93452211],[3.92956104,50.93448944],[3.92967015,50.93453722],[3.92964286,50.9345642],[3.92974061,50.93460368],[3.92973439,50.93460922],[3.92979038,50.93463251],[3.92970324,50.93471977],[3.92961783,50.93468543],[3.92964295,50.9346631],[3.92948802,50.93460108],[3.92941714,50.93467842],[3.92952271,50.93471705],[3.92956374,50.93474433],[3.92959122,50.93471727],[3.92970781,50.9347696],[3.92961346,50.93485208]]]}},{"type":"Feature","id":"gebouw/Gebouw.12893813/0","properties":{"source":"Digitaal Vlaanderen Gebouwenregister","source_id":"gebouw/Gebouw.12893813/0","kind":"building","building":"official","height_m":8.85,"status":null},"geometry":{"type":"Polygon","coordinates":[[[3.93017953,50.93472422],[3.93017699,50.93472829],[3.93026309,50.93474971],[3.9302721,50.93473526],[3.93025009,50.93472979],[3.9302548,50.93472136],[3.93021146,50.93471058],[3.930208,50.93471613],[3.93018972,50.93471158],[3.93019353,50.93470527],[3.93010827,50.93468431],[3.93009602,50.93470292],[3.93017953,50.93472422]]]}},{"type":"Feature","id":"gebouw/Gebouw.12909975/0","properties":{"source":"Digitaal Vlaanderen Gebouwenregister","source_id":"gebouw/Gebouw.12909975/0","kind":"building","building":"official","height_m":7.35,"status":null},"geometry":{"type":"Polygon","coordinates":[[[3.9283332,50.9350399],[3.92838361,50.93506001],[3.92837994,50.93506358],[3.92840296,50.93507302],[3.92837266,50.93510252],[3.92829971,50.93507259],[3.9283332,50.9350399]]]}},{"type":"Feature","id":"gebouw/Gebouw.12960988/0","properties":{"source":"Digitaal Vlaanderen Gebouwenregister","source_id":"gebouw/Gebouw.12960988/0","kind":"building","building":"official","height_m":8.1,"status":null},"geometry":{"type":"Polygon","coordinates":[[[3.92902711,50.93843113],[3.92889278,50.93859161],[3.92886454,50.93858202],[3.92851021,50.93846265],[3.92852081,50.93844942],[3.92855797,50.93840546],[3.9285642,50.93839808],[3.92859607,50.93836037],[3.92853816,50.93834048],[3.92852523,50.93835528],[3.9283447,50.93829379],[3.92839816,50.93823032],[3.92863858,50.93831008],[3.92864561,50.93830176],[3.92902711,50.93843113]]]}},{"type":"Feature","id":"gebouw/Gebouw.12961024/0","properties":{"source":"Digitaal Vlaanderen Gebouwenregister","source_id":"gebouw/Gebouw.12961024/0","kind":"building","building":"official","height_m":8.1,"status":null},"geometry":{"type":"Polygon","coordinates":[[[3.92918679,50.93534754],[3.92924726,50.93529088],[3.92931118,50.93531452],[3.9294839,50.9351352],[3.92932061,50.9350666],[3.92936581,50.93502048],[3.92921772,50.93496252],[3.92916749,50.93501375],[3.92912415,50.93499529],[3.92909018,50.93502758],[3.92908285,50.93502423],[3.9289548,50.93515374],[3.92902624,50.93518433],[3.92905428,50.93515851],[3.92908328,50.93517108],[3.9291214,50.93513597],[3.92909241,50.9351234],[3.92915413,50.93506655],[3.92934813,50.93514756],[3.92932209,50.93517388],[3.9293351,50.93517906],[3.92923746,50.9352767],[3.9290712,50.93520261],[3.92900779,50.93526406],[3.92905869,50.93528553],[3.92905087,50.93529284],[3.92912749,50.93532552],[3.92913016,50.93532301],[3.92913112,50.93532342],[3.92918679,50.93534754]]]}},{"type":"Feature","id":"gebouw/Gebouw.12980264/0","properties":{"source":"Digitaal Vlaanderen Gebouwenregister","source_id":"gebouw/Gebouw.12980264/0","kind":"building","building":"official","height_m":6.6,"status":null},"geometry":{"type":"Polygon","coordinates":[[[3.92797156,50.93818982],[3.92796263,50.93820918],[3.92797037,50.93821081],[3.92794239,50.93826839],[3.92775486,50.93823148],[3.92778931,50.93815527],[3.92790612,50.93817741],[3.92797156,50.93818982]]]}},{"type":"Feature","id":"gebouw/Gebouw.13008623/0","properties":{"source":"Digitaal Vlaanderen Gebouwenregister","source_id":"gebouw/Gebouw.13008623/0","kind":"building","building":"official","height_m":8.85,"status":null},"geometry":{"type":"Polygon","coordinates":[[[3.93021762,50.93792526],[3.93016191,50.93792233],[3.93016385,50.93789598],[3.93022077,50.93789803],[3.93021762,50.93792526]]]}},{"type":"Feature","id":"gebouw/Gebouw.13037008/0","properties":{"source":"Digitaal Vlaanderen Gebouwenregister","source_id":"gebouw/Gebouw.13037008/0","kind":"building","building":"official","height_m":8.1,"status":null},"geometry":{"type":"Polygon","coordinates":[[[3.93047608,50.93847052],[3.93040366,50.93843614],[3.93042849,50.93841602],[3.93050099,50.93844844],[3.93047608,50.93847052]]]}},{"type":"Feature","id":"gebouw/Gebouw.13043550/0","properties":{"source":"Digitaal Vlaanderen Gebouwenregister","source_id":"gebouw/Gebouw.13043550/0","kind":"building","building":"official","height_m":5.1,"status":null},"geometry":{"type":"Polygon","coordinates":[[[3.92846935,50.93877021],[3.92843194,50.93882322],[3.92835833,50.93880239],[3.92839445,50.93875023],[3.92846935,50.93877021]]]}},{"type":"Feature","id":"gebouw/Gebouw.13046146/0","properties":{"source":"Digitaal Vlaanderen Gebouwenregister","source_id":"gebouw/Gebouw.13046146/0","kind":"building","building":"official","height_m":8.1,"status":null},"geometry":{"type":"Polygon","coordinates":[[[3.9306661,50.93483608],[3.93064202,50.93489265],[3.93044507,50.93485623],[3.93047298,50.93479009],[3.93054555,50.93480222],[3.93054193,50.93481123],[3.93066714,50.93483364],[3.9306661,50.93483608]]]}},{"type":"Feature","id":"gebouw/Gebouw.13052453/0","properties":{"source":"Digitaal Vlaanderen Gebouwenregister","source_id":"gebouw/Gebouw.13052453/0","kind":"building","building":"official","height_m":8.85,"status":null},"geometry":{"type":"Polygon","coordinates":[[[3.93098641,50.93421644],[3.93095409,50.9342117],[3.93098956,50.93409395],[3.93102276,50.93409733],[3.93102577,50.93408503],[3.93107116,50.93409145],[3.93105127,50.93415984],[3.93100487,50.93415532],[3.93098641,50.93421644]]]}},{"type":"Feature","id":"gebouw/Gebouw.13058453/0","properties":{"source":"Digitaal Vlaanderen Gebouwenregister","source_id":"gebouw/Gebouw.13058453/0","kind":"building","building":"official","height_m":8.85,"status":null},"geometry":{"type":"Polygon","coordinates":[[[3.92936573,50.93631105],[3.92929884,50.93628389],[3.92932577,50.93625656],[3.92932802,50.93625428],[3.92930269,50.93624453],[3.92930824,50.93623914],[3.929263,50.93622277],[3.92927201,50.93621466],[3.92927457,50.93621236],[3.92910505,50.93615058],[3.92916064,50.93608503],[3.92934371,50.93615126],[3.92934439,50.9361515],[3.92937951,50.93616421],[3.9293337,50.93621128],[3.92933263,50.93621236],[3.92942669,50.93625156],[3.92940393,50.93627377],[3.92939428,50.93628318],[3.92939398,50.93628306],[3.92938871,50.93628102],[3.92936573,50.93631105]]]}},{"type":"Feature","id":"gebouw/Gebouw.13104890/0","properties":{"source":"Digitaal Vlaanderen Gebouwenregister","source_id":"gebouw/Gebouw.13104890/0","kind":"building","building":"official","height_m":6.6,"status":null},"geometry":{"type":"Polygon","coordinates":[[[3.93087317,50.93695125],[3.93084846,50.93697218],[3.93078349,50.93702724],[3.93075638,50.93701356],[3.93082319,50.93695824],[3.93084669,50.9369388],[3.93087317,50.93695125]]]}},{"type":"Feature","id":"gebouw/Gebouw.13156202/0","properties":{"source":"Digitaal Vlaanderen Gebouwenregister","source_id":"gebouw/Gebouw.13156202/0","kind":"building","building":"official","height_m":6.6,"status":null},"geometry":{"type":"Polygon","coordinates":[[[3.92784268,50.93841766],[3.92775457,50.93840061],[3.92775116,50.93840642],[3.92767392,50.93839139],[3.92771905,50.93829901],[3.92773891,50.93829304],[3.92788911,50.938323],[3.92784268,50.93841766]]]}},{"type":"Feature","id":"gebouw/Gebouw.13164002/0","properties":{"source":"Digitaal Vlaanderen Gebouwenregister","source_id":"gebouw/Gebouw.13164002/0","kind":"building","building":"official","height_m":6.6,"status":null},"geometry":{"type":"Polygon","coordinates":[[[3.93103955,50.93461337],[3.93094383,50.93459209],[3.93095589,50.93456627],[3.93105707,50.93458847],[3.93103955,50.93461337]]]}},{"type":"Feature","id":"gebouw/Gebouw.13164697/0","properties":{"source":"Digitaal Vlaanderen Gebouwenregister","source_id":"gebouw/Gebouw.13164697/0","kind":"building","building":"official","height_m":5.85,"status":null},"geometry":{"type":"Polygon","coordinates":[[[3.93096492,50.93663219],[3.93100162,50.936654],[3.93094412,50.93669324],[3.93090695,50.93667096],[3.93096492,50.93663219]]]}},{"type":"Feature","id":"gebouw/Gebouw.13190460/0","properties":{"source":"Digitaal Vlaanderen Gebouwenregister","source_id":"gebouw/Gebouw.13190460/0","kind":"building","building":"official","height_m":5.1,"status":null},"geometry":{"type":"Polygon","coordinates":[[[3.92902213,50.9371062],[3.92886413,50.93705212],[3.92890019,50.93700911],[3.92890284,50.93700595],[3.9289242,50.93701272],[3.92895799,50.93697366],[3.92895912,50.93697235],[3.92899825,50.93692711],[3.92899938,50.93692581],[3.92903564,50.93688387],[3.92919434,50.93693843],[3.92915816,50.93698024],[3.92915703,50.93698154],[3.92914563,50.93699472],[3.92916325,50.93700081],[3.92913545,50.93703279],[3.92913431,50.9370341],[3.92911339,50.93705815],[3.92909382,50.93705131],[3.92906828,50.93708073],[3.92905,50.93707448],[3.92904936,50.93707426],[3.92902213,50.9371062]]]}},{"type":"Feature","id":"gebouw/Gebouw.13200159/0","properties":{"source":"Digitaal Vlaanderen Gebouwenregister","source_id":"gebouw/Gebouw.13200159/0","kind":"building","building":"official","height_m":7.35,"status":null},"geometry":{"type":"Polygon","coordinates":[[[3.92715695,50.93758413],[3.92724768,50.93745471],[3.92763898,50.93756475],[3.92754494,50.93769396],[3.92715695,50.93758413]]]}},{"type":"Feature","id":"gebouw/Gebouw.13206467/0","properties":{"source":"Digitaal Vlaanderen Gebouwenregister","source_id":"gebouw/Gebouw.13206467/0","kind":"building","building":"official","height_m":8.85,"status":null},"geometry":{"type":"Polygon","coordinates":[[[3.92924701,50.93677859],[3.92916458,50.93675125],[3.92920959,50.93669406],[3.92929413,50.93672322],[3.92924701,50.93677859]]]}},{"type":"Feature","id":"gebouw/Gebouw.13209141/0","properties":{"source":"Digitaal Vlaanderen Gebouwenregister","source_id":"gebouw/Gebouw.13209141/0","kind":"building","building":"official","height_m":7.35,"status":null},"geometry":{"type":"Polygon","coordinates":[[[3.93040254,50.93581964],[3.93040683,50.93582084],[3.93043565,50.93582889],[3.93041509,50.93586875],[3.93041844,50.93586953],[3.9303932,50.93591346],[3.93034579,50.93590259],[3.93038825,50.93584019],[3.93040254,50.93581964]]]}},{"type":"Feature","id":"gebouw/Gebouw.13222815/0","properties":{"source":"Digitaal Vlaanderen Gebouwenregister","source_id":"gebouw/Gebouw.13222815/0","kind":"building","building":"official","height_m":7.35,"status":null},"geometry":{"type":"Polygon","coordinates":[[[3.93032135,50.93517744],[3.93034097,50.93513902],[3.93034232,50.93513915],[3.93037185,50.93508217],[3.93051241,50.9351116],[3.9305121,50.93511371],[3.93054982,50.93512135],[3.93053078,50.93516053],[3.93049111,50.93515202],[3.93048389,50.93516628],[3.93056013,50.935183],[3.93052119,50.93525968],[3.93043755,50.93524517],[3.93045772,50.93520439],[3.93032135,50.93517744]]]}},{"type":"Feature","id":"gebouw/Gebouw.13231884/0","properties":{"source":"Digitaal Vlaanderen Gebouwenregister","source_id":"gebouw/Gebouw.13231884/0","kind":"building","building":"official","height_m":5.1,"status":null},"geometry":{"type":"Polygon","coordinates":[[[3.93044378,50.93611477],[3.93044317,50.93611502],[3.93043301,50.9361191],[3.93042049,50.93612413],[3.93041987,50.93612351],[3.93040568,50.93610941],[3.93042879,50.93610013],[3.93042898,50.93610005],[3.93044378,50.93611477]]]}},{"type":"Feature","id":"gebouw/Gebouw.13233367/0","properties":{"source":"Digitaal Vlaanderen Gebouwenregister","source_id":"gebouw/Gebouw.13233367/0","kind":"building","building":"official","height_m":5.85,"status":null},"geometry":{"type":"Polygon","coordinates":[[[3.93081137,50.93624193],[3.93081366,50.93624352],[3.9308147,50.93624293],[3.9309085,50.93630866],[3.93095683,50.93628072],[3.93098492,50.93630011],[3.93102234,50.93627932],[3.93102793,50.93628333],[3.93105349,50.93626913],[3.93102547,50.93624899],[3.93106842,50.93622322],[3.9309872,50.93616605],[3.93088335,50.9362247],[3.93086346,50.93621037],[3.93081137,50.93624193]]]}},{"type":"Feature","id":"gebouw/Gebouw.13235607/0","properties":{"source":"Digitaal Vlaanderen Gebouwenregister","source_id":"gebouw/Gebouw.13235607/0","kind":"building","building":"official","height_m":7.35,"status":null},"geometry":{"type":"Polygon","coordinates":[[[3.92891009,50.93637248],[3.92896289,50.93639155],[3.92894093,50.93641458],[3.92899483,50.93643475],[3.92901831,50.93641003],[3.92902944,50.93641445],[3.92904707,50.9363941],[3.92918584,50.93644279],[3.92923658,50.93638413],[3.92897727,50.93629361],[3.92891009,50.93637248]]]}},{"type":"Feature","id":"gebouw/Gebouw.13240149/0","properties":{"source":"Digitaal Vlaanderen Gebouwenregister","source_id":"gebouw/Gebouw.13240149/0","kind":"building","building":"official","height_m":7.35,"status":null},"geometry":{"type":"Polygon","coordinates":[[[3.92906452,50.93743298],[3.92911523,50.937384],[3.92923366,50.93743289],[3.92924288,50.93742539],[3.92937437,50.93748014],[3.92936839,50.93748499],[3.92942474,50.93750711],[3.92936951,50.93756052],[3.92931145,50.93753609],[3.92930436,50.93754295],[3.92917153,50.93748856],[3.92917884,50.93748194],[3.92906452,50.93743298]]]}},{"type":"Feature","id":"gebouw/Gebouw.13240762/0","properties":{"source":"Digitaal Vlaanderen Gebouwenregister","source_id":"gebouw/Gebouw.13240762/0","kind":"building","building":"official","height_m":8.1,"status":null},"geometry":{"type":"Polygon","coordinates":[[[3.92808536,50.93875277],[3.92808375,50.93875552],[3.92795695,50.93872545],[3.92799299,50.93866506],[3.92811886,50.93869534],[3.92808536,50.93875277]]]}},{"type":"Feature","id":"gebouw/Gebouw.13249456/0","properties":{"source":"Digitaal Vlaanderen Gebouwenregister","source_id":"gebouw/Gebouw.13249456/0","kind":"building","building":"official","height_m":8.1,"status":null},"geometry":{"type":"Polygon","coordinates":[[[3.92840864,50.93898034],[3.92834827,50.93896672],[3.92836434,50.93893751],[3.92842546,50.93895054],[3.92840864,50.93898034]]]}},{"type":"Feature","id":"gebouw/Gebouw.13254724/0","properties":{"source":"Digitaal Vlaanderen Gebouwenregister","source_id":"gebouw/Gebouw.13254724/0","kind":"building","building":"official","height_m":8.1,"status":null},"geometry":{"type":"Polygon","coordinates":[[[3.93044129,50.93583049],[3.93040261,50.93581953],[3.93043432,50.93577393],[3.93048743,50.9357864],[3.93049687,50.93578861],[3.93046581,50.93583743],[3.93044129,50.93583049]]]}},{"type":"Feature","id":"gebouw/Gebouw.13270710/0","properties":{"source":"Digitaal Vlaanderen Gebouwenregister","source_id":"gebouw/Gebouw.13270710/0","kind":"building","building":"official","height_m":5.1,"status":null},"geometry":{"type":"Polygon","coordinates":[[[3.92747975,50.93810428],[3.9274908,50.93807726],[3.92755236,50.93808732],[3.92754131,50.93811434],[3.92747975,50.93810428]]]}},{"type":"Feature","id":"gebouw/Gebouw.13275445/0","properties":{"source":"Digitaal Vlaanderen Gebouwenregister","source_id":"gebouw/Gebouw.13275445/0","kind":"building","building":"official","height_m":5.85,"status":null},"geometry":{"type":"Polygon","coordinates":[[[3.93083869,50.93896528],[3.93076984,50.93893728],[3.93079413,50.93891277],[3.93086487,50.9389411],[3.93083869,50.93896528]]]}},{"type":"Feature","id":"gebouw/Gebouw.13276169/0","properties":{"source":"Digitaal Vlaanderen Gebouwenregister","source_id":"gebouw/Gebouw.13276169/0","kind":"building","building":"official","height_m":8.85,"status":null},"geometry":{"type":"Polygon","coordinates":[[[3.93104675,50.93500611],[3.93101551,50.93507845],[3.9310236,50.93507995],[3.93100852,50.93511375],[3.93082364,50.93508085],[3.93083859,50.93504947],[3.93087684,50.93505558],[3.93090515,50.93498648],[3.93090753,50.93498066],[3.93104675,50.93500611]]]}},{"type":"Feature","id":"gebouw/Gebouw.13288304/0","properties":{"source":"Digitaal Vlaanderen Gebouwenregister","source_id":"gebouw/Gebouw.13288304/0","kind":"building","building":"official","height_m":6.6,"status":null},"geometry":{"type":"Polygon","coordinates":[[[3.92863751,50.93735854],[3.92856331,50.93745023],[3.92841969,50.93740413],[3.92849395,50.93731124],[3.92863751,50.93735854]]]}},{"type":"Feature","id":"gebouw/Gebouw.13292960/0","properties":{"source":"Digitaal Vlaanderen Gebouwenregister","source_id":"gebouw/Gebouw.13292960/0","kind":"building","building":"official","height_m":6.6,"status":null},"geometry":{"type":"Polygon","coordinates":[[[3.92814162,50.93877581],[3.92810557,50.93876781],[3.92810727,50.93876483],[3.92808148,50.93875919],[3.92793287,50.93872672],[3.92789106,50.938826],[3.92789541,50.93882673],[3.92800817,50.93884517],[3.92802176,50.93880506],[3.92811649,50.93882455],[3.92814162,50.93877581]]]}},{"type":"Feature","id":"gebouw/Gebouw.13306298/0","properties":{"source":"Digitaal Vlaanderen Gebouwenregister","source_id":"gebouw/Gebouw.13306298/0","kind":"building","building":"official","height_m":6.6,"status":null},"geometry":{"type":"Polygon","coordinates":[[[3.92819855,50.93737114],[3.92824318,50.93732035],[3.92837153,50.93736206],[3.92833009,50.93741248],[3.92819855,50.93737114]]]}},{"type":"Feature","id":"gebouw/Gebouw.13308310/0","properties":{"source":"Digitaal Vlaanderen Gebouwenregister","source_id":"gebouw/Gebouw.13308310/0","kind":"building","building":"official","height_m":8.1,"status":null},"geometry":{"type":"Polygon","coordinates":[[[3.93024205,50.93474417],[3.93018529,50.93473005],[3.93019875,50.93470754],[3.9302548,50.93472136],[3.93024205,50.93474417]]]}},{"type":"Feature","id":"gebouw/Gebouw.13318524/0","properties":{"source":"Digitaal Vlaanderen Gebouwenregister","source_id":"gebouw/Gebouw.13318524/0","kind":"building","building":"official","height_m":5.1,"status":null},"geometry":{"type":"Polygon","coordinates":[[[3.92662052,50.93415196],[3.9265849,50.93413252],[3.92661748,50.93410868],[3.9266531,50.93412813],[3.92662052,50.93415196]]]}},{"type":"Feature","id":"gebouw/Gebouw.13321279/0","properties":{"source":"Digitaal Vlaanderen Gebouwenregister","source_id":"gebouw/Gebouw.13321279/0","kind":"building","building":"official","height_m":5.85,"status":null},"geometry":{"type":"Polygon","coordinates":[[[3.9285091,50.93520065],[3.92837648,50.93514837],[3.92852975,50.93498985],[3.92866701,50.93504365],[3.9285091,50.93520065]]]}},{"type":"Feature","id":"gebouw/Gebouw.13325770/0","properties":{"source":"Digitaal Vlaanderen Gebouwenregister","source_id":"gebouw/Gebouw.13325770/0","kind":"building","building":"official","height_m":8.1,"status":null},"geometry":{"type":"Polygon","coordinates":[[[3.93100916,50.93712286],[3.93107506,50.93716824],[3.93099075,50.93721611],[3.93092553,50.93717416],[3.93100916,50.93712286]]]}},{"type":"Feature","id":"gebouw/Gebouw.13336021/0","properties":{"source":"Digitaal Vlaanderen Gebouwenregister","source_id":"gebouw/Gebouw.13336021/0","kind":"building","building":"official","height_m":5.85,"status":null},"geometry":{"type":"Polygon","coordinates":[[[3.92745772,50.93562019],[3.92749963,50.9356347],[3.92747785,50.93566269],[3.92749394,50.93566939],[3.92742526,50.93575276],[3.92736538,50.93572959],[3.92745772,50.93562019]]]}},{"type":"Feature","id":"gebouw/Gebouw.13347860/0","properties":{"source":"Digitaal Vlaanderen Gebouwenregister","source_id":"gebouw/Gebouw.13347860/0","kind":"building","building":"official","height_m":6.6,"status":null},"geometry":{"type":"Polygon","coordinates":[[[3.92914461,50.93755298],[3.92911691,50.93758],[3.92903397,50.93754616],[3.92896252,50.93761705],[3.92905148,50.9376498],[3.92902463,50.93767517],[3.92889359,50.93762572],[3.928912,50.93760665],[3.92884101,50.93757683],[3.92895176,50.93747148],[3.92914461,50.93755298]]]}},{"type":"Feature","id":"gebouw/Gebouw.13348242/0","properties":{"source":"Digitaal Vlaanderen Gebouwenregister","source_id":"gebouw/Gebouw.13348242/0","kind":"building","building":"official","height_m":5.1,"status":null},"geometry":{"type":"Polygon","coordinates":[[[3.93035983,50.93474583],[3.93034162,50.93477128],[3.93026603,50.9347501],[3.93027734,50.93473029],[3.9302714,50.93472907],[3.93027936,50.93471105],[3.9302568,50.93470618],[3.93030539,50.93458351],[3.93041353,50.93459941],[3.93035983,50.93474583]]]}},{"type":"Feature","id":"gebouw/Gebouw.13348304/0","properties":{"source":"Digitaal Vlaanderen Gebouwenregister","source_id":"gebouw/Gebouw.13348304/0","kind":"building","building":"official","height_m":6.6,"status":null},"geometry":{"type":"Polygon","coordinates":[[[3.92931443,50.93588862],[3.92931481,50.93588817],[3.92936163,50.93583271],[3.92936301,50.93583108],[3.92931472,50.93581361],[3.92927616,50.93579966],[3.92931427,50.93575359],[3.9293294,50.9357353],[3.92918071,50.93568546],[3.92904869,50.93564121],[3.92904404,50.93564666],[3.92882466,50.93590348],[3.92891228,50.93593393],[3.92893697,50.93590264],[3.92899663,50.93592445],[3.92903288,50.93588165],[3.9289815,50.93586334],[3.92907214,50.93575634],[3.9292209,50.93580463],[3.9292115,50.93581405],[3.92929059,50.93584198],[3.92926426,50.9358716],[3.92931443,50.93588862]]]}},{"type":"Feature","id":"gebouw/Gebouw.13350581/0","properties":{"source":"Digitaal Vlaanderen Gebouwenregister","source_id":"gebouw/Gebouw.13350581/0","kind":"building","building":"official","height_m":8.85,"status":null},"geometry":{"type":"Polygon","coordinates":[[[3.92888252,50.93685907],[3.92879492,50.93682755],[3.92882659,50.93679203],[3.92891253,50.93682336],[3.92888252,50.93685907]]]}},{"type":"Feature","id":"gebouw/Gebouw.13354955/0","properties":{"source":"Digitaal Vlaanderen Gebouwenregister","source_id":"gebouw/Gebouw.13354955/0","kind":"building","building":"official","height_m":8.85,"status":null},"geometry":{"type":"Polygon","coordinates":[[[3.93041632,50.93618156],[3.93025314,50.93611893],[3.93019331,50.93618014],[3.93024062,50.93619861],[3.93021852,50.93622123],[3.93033608,50.93626564],[3.93041632,50.93618156]]]}},{"type":"Feature","id":"gebouw/Gebouw.13355681/0","properties":{"source":"Digitaal Vlaanderen Gebouwenregister","source_id":"gebouw/Gebouw.13355681/0","kind":"building","building":"official","height_m":8.85,"status":null},"geometry":{"type":"Polygon","coordinates":[[[3.92861043,50.9358848],[3.92858152,50.93592084],[3.92851562,50.93589973],[3.92850057,50.93592044],[3.92849677,50.93591919],[3.92847425,50.93591182],[3.9284633,50.93590823],[3.92845827,50.93590659],[3.9284725,50.93588657],[3.9284474,50.93587727],[3.92847524,50.93584149],[3.92861043,50.9358848]]]}},{"type":"Feature","id":"gebouw/Gebouw.13365643/0","properties":{"source":"Digitaal Vlaanderen Gebouwenregister","source_id":"gebouw/Gebouw.13365643/0","kind":"building","building":"official","height_m":5.85,"status":null},"geometry":{"type":"Polygon","coordinates":[[[3.93040254,50.93581964],[3.93038825,50.93584019],[3.93038253,50.93583873],[3.93020779,50.93579407],[3.93024548,50.93573537],[3.93025755,50.9357262],[3.93030825,50.93568764],[3.93035482,50.93571054],[3.93032956,50.93573433],[3.93031438,50.93574862],[3.93037898,50.93576501],[3.93038801,50.93574892],[3.930404,50.93572044],[3.93045364,50.93573184],[3.93042533,50.93577372],[3.93039593,50.93581797],[3.93040254,50.93581964]]]}},{"type":"Feature","id":"gebouw/Gebouw.13376532/0","properties":{"source":"Digitaal Vlaanderen Gebouwenregister","source_id":"gebouw/Gebouw.13376532/0","kind":"building","building":"official","height_m":5.1,"status":null},"geometry":{"type":"Polygon","coordinates":[[[3.93073778,50.93617668],[3.93067144,50.93613129],[3.93066185,50.93613648],[3.93061274,50.93610275],[3.9306283,50.93609367],[3.93062468,50.93609095],[3.9306406,50.93608187],[3.93064423,50.93608443],[3.930649,50.93608171],[3.93070527,50.93604927],[3.93082207,50.93612759],[3.93073778,50.93617668]]]}},{"type":"Feature","id":"gebouw/Gebouw.13376709/0","properties":{"source":"Digitaal Vlaanderen Gebouwenregister","source_id":"gebouw/Gebouw.13376709/0","kind":"building","building":"official","height_m":7.35,"status":null},"geometry":{"type":"Polygon","coordinates":[[[3.93048142,50.93932582],[3.93045227,50.93933457],[3.93042689,50.93929949],[3.9305619,50.93925936],[3.93057031,50.93926977],[3.93058943,50.93929338],[3.93053711,50.93930909],[3.93048142,50.93932582]]]}},{"type":"Feature","id":"gebouw/Gebouw.13381551/0","properties":{"source":"Digitaal Vlaanderen Gebouwenregister","source_id":"gebouw/Gebouw.13381551/0","kind":"building","building":"official","height_m":7.35,"status":null},"geometry":{"type":"Polygon","coordinates":[[[3.92933836,50.93720351],[3.92945282,50.9372564],[3.92939298,50.93730978],[3.92942155,50.93732272],[3.92938303,50.93735647],[3.92922583,50.93728507],[3.92927435,50.93724174],[3.92928805,50.93724786],[3.92930151,50.93723584],[3.92933836,50.93720351]]]}},{"type":"Feature","id":"gebouw/Gebouw.13381819/0","properties":{"source":"Digitaal Vlaanderen Gebouwenregister","source_id":"gebouw/Gebouw.13381819/0","kind":"building","building":"official","height_m":5.85,"status":null},"geometry":{"type":"Polygon","coordinates":[[[3.93076296,50.93681302],[3.93081081,50.93683853],[3.93081059,50.9368387],[3.93072483,50.93690398],[3.93064528,50.93686009],[3.93073341,50.93679726],[3.93076296,50.93681302]]]}},{"type":"Feature","id":"gebouw/Gebouw.13382022/0","properties":{"source":"Digitaal Vlaanderen Gebouwenregister","source_id":"gebouw/Gebouw.13382022/0","kind":"building","building":"official","height_m":5.1,"status":null},"geometry":{"type":"Polygon","coordinates":[[[3.92974669,50.93712927],[3.92981048,50.93716084],[3.9298381,50.93714037],[3.92977564,50.9371075],[3.92974669,50.93712927]]]}},{"type":"Feature","id":"gebouw/Gebouw.13387063/0","properties":{"source":"Digitaal Vlaanderen Gebouwenregister","source_id":"gebouw/Gebouw.13387063/0","kind":"building","building":"official","height_m":5.85,"status":null},"geometry":{"type":"Polygon","coordinates":[[[3.93053618,50.93560675],[3.93049385,50.93560543],[3.9304948,50.93556786],[3.93053547,50.93556917],[3.93053618,50.93560675]]]}},{"type":"Feature","id":"gebouw/Gebouw.13390378/0","properties":{"source":"Digitaal Vlaanderen Gebouwenregister","source_id":"gebouw/Gebouw.13390378/0","kind":"building","building":"official","height_m":8.1,"status":null},"geometry":{"type":"Polygon","coordinates":[[[3.93000323,50.93768066],[3.92992709,50.93764999],[3.92981466,50.93775501],[3.9298635,50.93777579],[3.92983506,50.93780493],[3.92981394,50.93779619],[3.92979258,50.93781954],[3.93008205,50.9379341],[3.93013008,50.93788674],[3.92989367,50.93778558],[3.93000323,50.93768066]]]}},{"type":"Feature","id":"gebouw/Gebouw.13393325/0","properties":{"source":"Digitaal Vlaanderen Gebouwenregister","source_id":"gebouw/Gebouw.13393325/0","kind":"building","building":"official","height_m":8.85,"status":null},"geometry":{"type":"Polygon","coordinates":[[[3.92826697,50.93876136],[3.92826487,50.93876494],[3.9283073,50.93877432],[3.92829039,50.93880484],[3.92826971,50.93880032],[3.92824599,50.93879514],[3.92816214,50.93877653],[3.92817996,50.93874132],[3.92826697,50.93876136]]]}},{"type":"Feature","id":"gebouw/Gebouw.13395529/0","properties":{"source":"Digitaal Vlaanderen Gebouwenregister","source_id":"gebouw/Gebouw.13395529/0","kind":"building","building":"official","height_m":5.85,"status":null},"geometry":{"type":"Polygon","coordinates":[[[3.930265,50.93430672],[3.93023032,50.93434593],[3.92990307,50.93423129],[3.92992846,50.9342031],[3.92999823,50.93422807],[3.93002794,50.93419463],[3.92995698,50.93416875],[3.92998548,50.93413876],[3.93005288,50.93416313],[3.93004761,50.93416853],[3.9301238,50.93419472],[3.93010208,50.93421816],[3.9300947,50.93422613],[3.9302067,50.93426757],[3.93019389,50.93428339],[3.930265,50.93430672]]]}},{"type":"Feature","id":"gebouw/Gebouw.13397159/0","properties":{"source":"Digitaal Vlaanderen Gebouwenregister","source_id":"gebouw/Gebouw.13397159/0","kind":"building","building":"official","height_m":8.85,"status":null},"geometry":{"type":"Polygon","coordinates":[[[3.92804884,50.93808083],[3.92801931,50.93814356],[3.92794152,50.93812925],[3.92789169,50.93812009],[3.92782528,50.93810787],[3.92781998,50.93811829],[3.92767368,50.93809143],[3.92769945,50.93804101],[3.92784288,50.93806796],[3.9278539,50.93804421],[3.92791912,50.93805627],[3.92792334,50.938044],[3.92800225,50.93805905],[3.9279964,50.93807069],[3.92804884,50.93808083]]]}},{"type":"Feature","id":"gebouw/Gebouw.13400633/0","properties":{"source":"Digitaal Vlaanderen Gebouwenregister","source_id":"gebouw/Gebouw.13400633/0","kind":"building","building":"official","height_m":8.85,"status":null},"geometry":{"type":"Polygon","coordinates":[[[3.9297161,50.93913734],[3.92964811,50.93913136],[3.92966221,50.93905366],[3.9297343,50.9390585],[3.9297161,50.93913734]]]}},{"type":"Feature","id":"gebouw/Gebouw.13401123/0","properties":{"source":"Digitaal Vlaanderen Gebouwenregister","source_id":"gebouw/Gebouw.13401123/0","kind":"building","building":"official","height_m":7.35,"status":null},"geometry":{"type":"Polygon","coordinates":[[[3.93085819,50.93902987],[3.93086142,50.93903002],[3.93086136,50.93903051],[3.93085914,50.93904985],[3.93085569,50.93904969],[3.93083342,50.93904867],[3.93082251,50.93904456],[3.93082397,50.9390319],[3.93083569,50.93902884],[3.93085819,50.93902987]]]}},{"type":"Feature","id":"gebouw/Gebouw.13401355/0","properties":{"source":"Digitaal Vlaanderen Gebouwenregister","source_id":"gebouw/Gebouw.13401355/0","kind":"building","building":"official","height_m":5.85,"status":null},"geometry":{"type":"Polygon","coordinates":[[[3.93082187,50.93476054],[3.93081074,50.93475927],[3.93082187,50.93472969],[3.93053464,50.93469529],[3.93051947,50.93474275],[3.93065161,50.93476022],[3.93064727,50.93477028],[3.93068459,50.93477458],[3.9306776,50.93479401],[3.9306836,50.9347949],[3.93081782,50.93481474],[3.930854,50.93482009],[3.93086804,50.93482217],[3.93087735,50.93479656],[3.93081177,50.93478663],[3.93082187,50.93476054]]]}},{"type":"Feature","id":"gebouw/Gebouw.13403313/0","properties":{"source":"Digitaal Vlaanderen Gebouwenregister","source_id":"gebouw/Gebouw.13403313/0","kind":"building","building":"official","height_m":7.35,"status":null},"geometry":{"type":"Polygon","coordinates":[[[3.92935918,50.93690523],[3.92934702,50.93692033],[3.92925454,50.93689025],[3.92923298,50.9369187],[3.92917726,50.93690033],[3.92907888,50.93686788],[3.92907575,50.93686685],[3.92910544,50.93683069],[3.92913552,50.93684122],[3.92914107,50.93683523],[3.92920359,50.93685719],[3.92920714,50.93685843],[3.92919651,50.93687055],[3.92923985,50.93688537],[3.92927518,50.93684061],[3.9292586,50.93683541],[3.92926075,50.93683289],[3.92929871,50.93678857],[3.92935933,50.93680994],[3.9293555,50.9368161],[3.92941545,50.93683532],[3.92938869,50.93686888],[3.92939433,50.93687063],[3.92936705,50.93690462],[3.9293605,50.93690304],[3.92935918,50.93690523]]]}},{"type":"Feature","id":"gebouw/Gebouw.13407723/0","properties":{"source":"Digitaal Vlaanderen Gebouwenregister","source_id":"gebouw/Gebouw.13407723/0","kind":"building","building":"official","height_m":7.35,"status":null},"geometry":{"type":"Polygon","coordinates":[[[3.92925765,50.93481435],[3.92916241,50.93476724],[3.92919339,50.93474471],[3.92928724,50.93478985],[3.92925765,50.93481435]]]}},{"type":"Feature","id":"gebouw/Gebouw.13410774/0","properties":{"source":"Digitaal Vlaanderen Gebouwenregister","source_id":"gebouw/Gebouw.13410774/0","kind":"building","building":"official","height_m":5.1,"status":null},"geometry":{"type":"Polygon","coordinates":[[[3.93018185,50.93581548],[3.93009135,50.93579349],[3.93006191,50.9357761],[3.93006313,50.93575757],[3.93006526,50.93575229],[3.93008565,50.93570175],[3.93008748,50.93569722],[3.93024548,50.93573537],[3.93020779,50.93579407],[3.93019724,50.9357915],[3.93018185,50.93581548]]]}},{"type":"Feature","id":"gebouw/Gebouw.13410784/0","properties":{"source":"Digitaal Vlaanderen Gebouwenregister","source_id":"gebouw/Gebouw.13410784/0","kind":"building","building":"official","height_m":8.1,"status":null},"geometry":{"type":"Polygon","coordinates":[[[3.93013158,50.93646116],[3.92999763,50.93640996],[3.930043,50.93636233],[3.93001072,50.93635043],[3.93007527,50.93628244],[3.93025414,50.93635058],[3.93020449,50.93640237],[3.93019238,50.93639773],[3.93013158,50.93646116]]]}},{"type":"Feature","id":"gebouw/Gebouw.13411277/0","properties":{"source":"Digitaal Vlaanderen Gebouwenregister","source_id":"gebouw/Gebouw.13411277/0","kind":"building","building":"official","height_m":8.85,"status":null},"geometry":{"type":"Polygon","coordinates":[[[3.92993458,50.93417218],[3.92989851,50.93415916],[3.92992652,50.93413022],[3.9299614,50.93414324],[3.92993458,50.93417218]]]}},{"type":"Feature","id":"gebouw/Gebouw.13415171/0","properties":{"source":"Digitaal Vlaanderen Gebouwenregister","source_id":"gebouw/Gebouw.13415171/0","kind":"building","building":"official","height_m":8.85,"status":null},"geometry":{"type":"Polygon","coordinates":[[[3.92881208,50.93581265],[3.92869109,50.93577747],[3.92834474,50.93567676],[3.92838139,50.93562179],[3.92853115,50.9354697],[3.92855758,50.93546042],[3.92855925,50.93545988],[3.92856095,50.93545952],[3.92856196,50.9354594],[3.92856372,50.93545952],[3.92856582,50.9354601],[3.92856629,50.93546031],[3.9285819,50.93546756],[3.92881808,50.93557716],[3.92876794,50.93562116],[3.92858016,50.93553718],[3.92850195,50.93562185],[3.92851688,50.93562614],[3.92850163,50.9356459],[3.92855308,50.9356591],[3.92855987,50.93564982],[3.92874605,50.93570434],[3.92875489,50.93570693],[3.92882257,50.93561443],[3.92893274,50.93564639],[3.92881208,50.93581265]]]}},{"type":"Feature","id":"gebouw/Gebouw.13417688/0","properties":{"source":"Digitaal Vlaanderen Gebouwenregister","source_id":"gebouw/Gebouw.13417688/0","kind":"building","building":"official","height_m":6.6,"status":null},"geometry":{"type":"Polygon","coordinates":[[[3.92886454,50.93858202],[3.92851021,50.93846265],[3.92852081,50.93844942],[3.92843,50.93842611],[3.9283893,50.93849437],[3.92845471,50.93851069],[3.92845908,50.9385046],[3.92883158,50.93862329],[3.92886454,50.93858202]]]}},{"type":"Feature","id":"gebouw/Gebouw.13417818/0","properties":{"source":"Digitaal Vlaanderen Gebouwenregister","source_id":"gebouw/Gebouw.13417818/0","kind":"building","building":"official","height_m":5.1,"status":null},"geometry":{"type":"Polygon","coordinates":[[[3.9274082,50.93836396],[3.92731551,50.93835239],[3.92731794,50.93834686],[3.92726819,50.93833995],[3.92728794,50.93828141],[3.92733962,50.93828791],[3.92734185,50.93828178],[3.92743445,50.93829501],[3.9274082,50.93836396]]]}},{"type":"Feature","id":"gebouw/Gebouw.13420158/0","properties":{"source":"Digitaal Vlaanderen Gebouwenregister","source_id":"gebouw/Gebouw.13420158/0","kind":"building","building":"official","height_m":5.1,"status":null},"geometry":{"type":"Polygon","coordinates":[[[3.92980902,50.93558693],[3.92980757,50.93558673],[3.92978561,50.93561962],[3.92947306,50.93553802],[3.92948157,50.93552521],[3.92946372,50.93552041],[3.92947137,50.93550829],[3.92945723,50.93548669],[3.92947083,50.93546449],[3.92950614,50.93545611],[3.92951827,50.93543783],[3.92953439,50.93544303],[3.9295402,50.9354351],[3.92985389,50.93551508],[3.92983253,50.93554785],[3.92983427,50.9355483],[3.92980902,50.93558693]]]}},{"type":"Feature","id":"gebouw/Gebouw.13424668/0","properties":{"source":"Digitaal Vlaanderen Gebouwenregister","source_id":"gebouw/Gebouw.13424668/0","kind":"building","building":"official","height_m":8.1,"status":null},"geometry":{"type":"Polygon","coordinates":[[[3.92716443,50.9391424],[3.92718711,50.93914679],[3.92720685,50.93911132],[3.92714065,50.93909502],[3.92711941,50.93913181],[3.92712505,50.93913344],[3.92711633,50.93915051],[3.9271173,50.93915073],[3.92715272,50.93915889],[3.92715534,50.9391595],[3.92716443,50.9391424]]]}},{"type":"Feature","id":"gebouw/Gebouw.13430642/0","properties":{"source":"Digitaal Vlaanderen Gebouwenregister","source_id":"gebouw/Gebouw.13430642/0","kind":"building","building":"official","height_m":6.6,"status":null},"geometry":{"type":"Polygon","coordinates":[[[3.92792566,50.93855393],[3.92781306,50.9387548],[3.92750003,50.93868558],[3.92760065,50.9385098],[3.92770266,50.93853016],[3.9276525,50.93862304],[3.92764328,50.93862134],[3.92763881,50.93862924],[3.92776501,50.93865719],[3.92782722,50.93853923],[3.92770831,50.93851791],[3.92773301,50.93845586],[3.92794237,50.93849066],[3.92791595,50.93855164],[3.92792566,50.93855393]]]}},{"type":"Feature","id":"gebouw/Gebouw.13434939/0","properties":{"source":"Digitaal Vlaanderen Gebouwenregister","source_id":"gebouw/Gebouw.13434939/0","kind":"building","building":"official","height_m":7.35,"status":null},"geometry":{"type":"Polygon","coordinates":[[[3.93015655,50.93442274],[3.93003295,50.93437914],[3.93004341,50.9343673],[3.9299925,50.93434934],[3.92998205,50.93436118],[3.93000135,50.93436799],[3.92992275,50.93445917],[3.92999984,50.93448809],[3.93002724,50.93445894],[3.9301019,50.93448507],[3.93015655,50.93442274]]]}},{"type":"Feature","id":"gebouw/Gebouw.13438667/0","properties":{"source":"Digitaal Vlaanderen Gebouwenregister","source_id":"gebouw/Gebouw.13438667/0","kind":"building","building":"official","height_m":8.85,"status":null},"geometry":{"type":"Polygon","coordinates":[[[3.93068316,50.93583235],[3.93068123,50.9358319],[3.93059138,50.93581243],[3.93055819,50.93585991],[3.93055127,50.9358698],[3.93054993,50.93587176],[3.93053448,50.93589432],[3.93061088,50.93592873],[3.93068316,50.93583235]]]}},{"type":"Feature","id":"gebouw/Gebouw.13443126/0","properties":{"source":"Digitaal Vlaanderen Gebouwenregister","source_id":"gebouw/Gebouw.13443126/0","kind":"building","building":"official","height_m":5.1,"status":null},"geometry":{"type":"Polygon","coordinates":[[[3.93075224,50.93553134],[3.93071406,50.93560267],[3.93072627,50.93560528],[3.93070963,50.93563634],[3.93058903,50.93561074],[3.93062106,50.93555135],[3.93064017,50.9355159],[3.93064439,50.93550807],[3.93075224,50.93553134]]]}},{"type":"Feature","id":"gebouw/Gebouw.13450632/0","properties":{"source":"Digitaal Vlaanderen Gebouwenregister","source_id":"gebouw/Gebouw.13450632/0","kind":"building","building":"official","height_m":5.1,"status":null},"geometry":{"type":"Polygon","coordinates":[[[3.93092856,50.93459126],[3.93090121,50.93465057],[3.93087022,50.93464484],[3.9307744,50.93462712],[3.93078889,50.93459948],[3.93076727,50.93459536],[3.93076438,50.93460107],[3.93070499,50.93458889],[3.93071123,50.93458064],[3.93064091,50.93456694],[3.9306703,50.93450555],[3.93079794,50.93452994],[3.93078149,50.93456684],[3.93092856,50.93459126]]]}},{"type":"Feature","id":"gebouw/Gebouw.13453384/0","properties":{"source":"Digitaal Vlaanderen Gebouwenregister","source_id":"gebouw/Gebouw.13453384/0","kind":"building","building":"official","height_m":8.1,"status":null},"geometry":{"type":"Polygon","coordinates":[[[3.93066553,50.93416686],[3.9306094,50.93429716],[3.93049644,50.93427854],[3.93051465,50.93423514],[3.93048757,50.93423026],[3.93052571,50.93414258],[3.93066553,50.93416686]]]}},{"type":"Feature","id":"gebouw/Gebouw.13458708/0","properties":{"source":"Digitaal Vlaanderen Gebouwenregister","source_id":"gebouw/Gebouw.13458708/0","kind":"building","building":"official","height_m":5.1,"status":null},"geometry":{"type":"Polygon","coordinates":[[[3.93074374,50.93737475],[3.93092655,50.93746774],[3.93104135,50.93738203],[3.93098263,50.93735132],[3.93097308,50.93735811],[3.93091413,50.93732695],[3.93093996,50.93730745],[3.9308776,50.93727448],[3.93085849,50.93728892],[3.93084276,50.9372806],[3.93080441,50.93730987],[3.93081885,50.93731743],[3.93074374,50.93737475]]]}},{"type":"Feature","id":"gebouw/Gebouw.13467228/0","properties":{"source":"Digitaal Vlaanderen Gebouwenregister","source_id":"gebouw/Gebouw.13467228/0","kind":"building","building":"official","height_m":5.1,"status":null},"geometry":{"type":"Polygon","coordinates":[[[3.92863095,50.93694382],[3.92871849,50.93697546],[3.92868711,50.93701008],[3.92860008,50.93697864],[3.92860075,50.93697789],[3.92862856,50.93694652],[3.92863095,50.93694382]]]}},{"type":"Feature","id":"gebouw/Gebouw.13468144/0","properties":{"source":"Digitaal Vlaanderen Gebouwenregister","source_id":"gebouw/Gebouw.13468144/0","kind":"building","building":"official","height_m":8.1,"status":null},"geometry":{"type":"Polygon","coordinates":[[[3.92989297,50.93621249],[3.92985388,50.93619641],[3.92987126,50.93617726],[3.9298644,50.93617437],[3.92990639,50.93612964],[3.92987398,50.93611549],[3.92986675,50.93612237],[3.92957958,50.93601637],[3.92978302,50.93578098],[3.92985029,50.9358036],[3.92980962,50.93585062],[3.92971208,50.9359634],[3.92993494,50.9360399],[3.92992939,50.93604588],[3.92997341,50.93606265],[3.93002224,50.93601404],[3.93002597,50.93601032],[3.93009603,50.93603774],[3.93005858,50.93608114],[3.93002095,50.93606606],[3.92989297,50.93621249]]]}},{"type":"Feature","id":"gebouw/Gebouw.13479229/0","properties":{"source":"Digitaal Vlaanderen Gebouwenregister","source_id":"gebouw/Gebouw.13479229/0","kind":"building","building":"official","height_m":5.85,"status":null},"geometry":{"type":"Polygon","coordinates":[[[3.92058199,50.93808671],[3.92058094,50.93802448],[3.92063309,50.93802413],[3.92063414,50.93808635],[3.92058199,50.93808671]]]}},{"type":"Feature","id":"gebouw/Gebouw.13479534/0","properties":{"source":"Digitaal Vlaanderen Gebouwenregister","source_id":"gebouw/Gebouw.13479534/0","kind":"building","building":"official","height_m":5.1,"status":null},"geometry":{"type":"Polygon","coordinates":[[[3.92847303,50.93756186],[3.92845755,50.93758112],[3.92842968,50.93761578],[3.92822804,50.93755656],[3.9282108,50.93758101],[3.92792948,50.93749651],[3.92792505,50.93749518],[3.92732285,50.9373143],[3.92707365,50.93723945],[3.92706834,50.93723785],[3.92715941,50.93711425],[3.92716896,50.93710127],[3.92720369,50.93705414],[3.92744192,50.9371313],[3.92747278,50.93714129],[3.92749778,50.93714936],[3.92768094,50.93720845],[3.92765032,50.9372472],[3.9280263,50.93736779],[3.92802587,50.93736836],[3.92801673,50.93737987],[3.92796346,50.93744713],[3.92796605,50.93744787],[3.92807607,50.93747962],[3.92808277,50.93746996],[3.92810137,50.93747487],[3.92811963,50.93744947],[3.92820408,50.93747715],[3.92823637,50.93743907],[3.92838802,50.93748685],[3.92839522,50.9374769],[3.92851139,50.93751413],[3.92847303,50.93756186]]]}},{"type":"Feature","id":"gebouw/Gebouw.13487273/0","properties":{"source":"Digitaal Vlaanderen Gebouwenregister","source_id":"gebouw/Gebouw.13487273/0","kind":"building","building":"official","height_m":8.85,"status":null},"geometry":{"type":"Polygon","coordinates":[[[3.92715497,50.93941874],[3.92715378,50.93942048],[3.92709839,50.93940547],[3.92704954,50.93939224],[3.9270693,50.93936135],[3.92706177,50.93935939],[3.92712873,50.93926047],[3.92715402,50.93922312],[3.92715637,50.93921963],[3.92730417,50.93925904],[3.9272689,50.93931057],[3.92726233,50.93930904],[3.92724772,50.93933012],[3.9272413,50.93933963],[3.92725293,50.93934276],[3.92721369,50.93940088],[3.92717439,50.93939028],[3.92715497,50.93941874]]]}},{"type":"Feature","id":"gebouw/Gebouw.13489590/0","properties":{"source":"Digitaal Vlaanderen Gebouwenregister","source_id":"gebouw/Gebouw.13489590/0","kind":"building","building":"official","height_m":5.1,"status":null},"geometry":{"type":"Polygon","coordinates":[[[3.92866319,50.93710758],[3.92853267,50.93706628],[3.92854429,50.93705385],[3.92845682,50.9370246],[3.92848955,50.93698699],[3.9285766,50.93701533],[3.92858651,50.93700377],[3.92871463,50.93704518],[3.92866319,50.93710758]]]}},{"type":"Feature","id":"gebouw/Gebouw.13489894/0","properties":{"source":"Digitaal Vlaanderen Gebouwenregister","source_id":"gebouw/Gebouw.13489894/0","kind":"building","building":"official","height_m":8.1,"status":null},"geometry":{"type":"Polygon","coordinates":[[[3.93091077,50.93423435],[3.93087141,50.93430703],[3.93082878,50.93429735],[3.93086988,50.93422506],[3.93091077,50.93423435]]]}},{"type":"Feature","id":"gebouw/Gebouw.13503487/0","properties":{"source":"Digitaal Vlaanderen Gebouwenregister","source_id":"gebouw/Gebouw.13503487/0","kind":"building","building":"official","height_m":5.85,"status":null},"geometry":{"type":"Polygon","coordinates":[[[3.9304753,50.93562911],[3.93047965,50.93562916],[3.93048412,50.93562921],[3.93048407,50.93563007],[3.93048324,50.93564256],[3.93047939,50.93570089],[3.93042706,50.93570091],[3.93042938,50.93567236],[3.9303987,50.93567108],[3.93040206,50.93562826],[3.9304753,50.93562911]]]}},{"type":"Feature","id":"gebouw/Gebouw.13512566/0","properties":{"source":"Digitaal Vlaanderen Gebouwenregister","source_id":"gebouw/Gebouw.13512566/0","kind":"building","building":"official","height_m":6.6,"status":null},"geometry":{"type":"Polygon","coordinates":[[[3.92850985,50.9390041],[3.9284634,50.93898985],[3.92848067,50.93896795],[3.92852908,50.93898088],[3.92850985,50.9390041]]]}},{"type":"Feature","id":"gebouw/Gebouw.13512582/0","properties":{"source":"Digitaal Vlaanderen Gebouwenregister","source_id":"gebouw/Gebouw.13512582/0","kind":"building","building":"official","height_m":5.1,"status":null},"geometry":{"type":"Polygon","coordinates":[[[3.93098672,50.93603777],[3.93090355,50.93610497],[3.93085492,50.93607877],[3.93093446,50.93601513],[3.93098672,50.93603777]]]}},{"type":"Feature","id":"gebouw/Gebouw.13512780/0","properties":{"source":"Digitaal Vlaanderen Gebouwenregister","source_id":"gebouw/Gebouw.13512780/0","kind":"building","building":"official","height_m":5.1,"status":null},"geometry":{"type":"Polygon","coordinates":[[[3.92832574,50.9379655],[3.92826322,50.93794732],[3.92828278,50.9379203],[3.92831474,50.93792914],[3.92834523,50.93793848],[3.92832574,50.9379655]]]}},{"type":"Feature","id":"gebouw/Gebouw.13522240/0","properties":{"source":"Digitaal Vlaanderen Gebouwenregister","source_id":"gebouw/Gebouw.13522240/0","kind":"building","building":"official","height_m":8.1,"status":null},"geometry":{"type":"Polygon","coordinates":[[[3.93109195,50.93424905],[3.93110728,50.93428265],[3.93110495,50.93435107],[3.93098543,50.93434902],[3.93098701,50.93430245],[3.93092857,50.9343011],[3.93093039,50.93422083],[3.93101744,50.93422225],[3.931017,50.93423267],[3.93101632,50.9342487],[3.93109195,50.93424905]]]}},{"type":"Feature","id":"gebouw/Gebouw.13522270/0","properties":{"source":"Digitaal Vlaanderen Gebouwenregister","source_id":"gebouw/Gebouw.13522270/0","kind":"building","building":"official","height_m":8.1,"status":null},"geometry":{"type":"Polygon","coordinates":[[[3.93082575,50.93471948],[3.93083603,50.93469244],[3.93073112,50.93467652],[3.93072733,50.93468619],[3.93066426,50.93467849],[3.93067206,50.93464935],[3.93055295,50.93463533],[3.93053464,50.93469529],[3.93082187,50.93472969],[3.93082575,50.93471948]]]}},{"type":"Feature","id":"gebouw/Gebouw.13522304/0","properties":{"source":"Digitaal Vlaanderen Gebouwenregister","source_id":"gebouw/Gebouw.13522304/0","kind":"building","building":"official","height_m":6.6,"status":null},"geometry":{"type":"Polygon","coordinates":[[[3.92886403,50.93532926],[3.92879294,50.93530131],[3.92878453,50.93530945],[3.9286471,50.93525514],[3.92872207,50.93518088],[3.92885388,50.93523344],[3.92886086,50.93522732],[3.92893491,50.93525838],[3.92886403,50.93532926]]]}},{"type":"Feature","id":"gebouw/Gebouw.13536149/0","properties":{"source":"Digitaal Vlaanderen Gebouwenregister","source_id":"gebouw/Gebouw.13536149/0","kind":"building","building":"official","height_m":8.85,"status":null},"geometry":{"type":"Polygon","coordinates":[[[3.92487836,50.93964588],[3.9248111,50.93963167],[3.92483752,50.93958247],[3.92490298,50.93959483],[3.92487836,50.93964588]]]}},{"type":"Feature","id":"gebouw/Gebouw.13551608/0","properties":{"source":"Digitaal Vlaanderen Gebouwenregister","source_id":"gebouw/Gebouw.13551608/0","kind":"building","building":"official","height_m":6.6,"status":null},"geometry":{"type":"Polygon","coordinates":[[[3.930854,50.93482009],[3.93081782,50.93481474],[3.9306836,50.9347949],[3.93067148,50.93482872],[3.93080382,50.93485175],[3.93080951,50.93483671],[3.93084566,50.93484217],[3.930854,50.93482009]]]}},{"type":"Feature","id":"gebouw/Gebouw.13551874/0","properties":{"source":"Digitaal Vlaanderen Gebouwenregister","source_id":"gebouw/Gebouw.13551874/0","kind":"building","building":"official","height_m":8.1,"status":null},"geometry":{"type":"Polygon","coordinates":[[[3.92803228,50.9385717],[3.92825226,50.93863035],[3.92832562,50.93852272],[3.92861086,50.93859859],[3.9284921,50.93877629],[3.92846935,50.93877021],[3.92839445,50.93875023],[3.92829912,50.93872479],[3.92830949,50.93870902],[3.92818893,50.9386761],[3.92799857,50.9386241],[3.92803228,50.9385717]]]}},{"type":"Feature","id":"gebouw/Gebouw.13551896/0","properties":{"source":"Digitaal Vlaanderen Gebouwenregister","source_id":"gebouw/Gebouw.13551896/0","kind":"building","building":"official","height_m":6.6,"status":null},"geometry":{"type":"Polygon","coordinates":[[[3.92896313,50.93680014],[3.92894608,50.93682431],[3.92894565,50.93682417],[3.92893123,50.93681948],[3.92886387,50.93679756],[3.9288815,50.93677312],[3.92896313,50.93680014]]]}},{"type":"Feature","id":"gebouw/Gebouw.13552409/0","properties":{"source":"Digitaal Vlaanderen Gebouwenregister","source_id":"gebouw/Gebouw.13552409/0","kind":"building","building":"official","height_m":8.85,"status":null},"geometry":{"type":"Polygon","coordinates":[[[3.92843834,50.93775512],[3.92837637,50.93784252],[3.92825617,50.93780942],[3.92828179,50.93777105],[3.92826154,50.93776581],[3.92826539,50.93776061],[3.92811987,50.93772337],[3.92806526,50.93780476],[3.92834621,50.93788507],[3.92831474,50.93792914],[3.92828278,50.9379203],[3.9278109,50.93778978],[3.92793482,50.9376135],[3.92793629,50.93761392],[3.92843834,50.93775512]]]}},{"type":"Feature","id":"gebouw/Gebouw.13552455/0","properties":{"source":"Digitaal Vlaanderen Gebouwenregister","source_id":"gebouw/Gebouw.13552455/0","kind":"building","building":"official","height_m":7.35,"status":null},"geometry":{"type":"Polygon","coordinates":[[[3.93090331,50.93579478],[3.93108195,50.93583266],[3.9310598,50.93587409],[3.93103582,50.93586817],[3.93099537,50.93594427],[3.93098801,50.93594245],[3.93097141,50.93597217],[3.93088495,50.93595301],[3.93090132,50.93592254],[3.93083101,50.93590628],[3.93086065,50.93585068],[3.93087206,50.93585304],[3.93087492,50.93584846],[3.93088004,50.9358395],[3.93086803,50.93583676],[3.93087308,50.93582794],[3.93088427,50.93583048],[3.93090331,50.93579478]]]}},{"type":"Feature","id":"gebouw/Gebouw.13552523/0","properties":{"source":"Digitaal Vlaanderen Gebouwenregister","source_id":"gebouw/Gebouw.13552523/0","kind":"building","building":"official","height_m":8.85,"status":null},"geometry":{"type":"Polygon","coordinates":[[[3.92993366,50.93706554],[3.92991778,50.93705641],[3.92994035,50.93703957],[3.92990247,50.93701926],[3.92992683,50.93699913],[3.92998251,50.93702844],[3.92993366,50.93706554]]]}},{"type":"Feature","id":"gebouw/Gebouw.13554153/0","properties":{"source":"Digitaal Vlaanderen Gebouwenregister","source_id":"gebouw/Gebouw.13554153/0","kind":"building","building":"official","height_m":7.35,"status":null},"geometry":{"type":"Polygon","coordinates":[[[3.92886558,50.93468531],[3.92881736,50.93466145],[3.92884115,50.93464414],[3.9288889,50.93466664],[3.92886558,50.93468531]]]}},{"type":"Feature","id":"gebouw/Gebouw.13554489/0","properties":{"source":"Digitaal Vlaanderen Gebouwenregister","source_id":"gebouw/Gebouw.13554489/0","kind":"building","building":"official","height_m":7.35,"status":null},"geometry":{"type":"Polygon","coordinates":[[[3.92958012,50.93704682],[3.92967083,50.93709172],[3.92981482,50.93700148],[3.92973385,50.93694893],[3.92958012,50.93704682]]]}},{"type":"Feature","id":"gebouw/Gebouw.13554950/0","properties":{"source":"Digitaal Vlaanderen Gebouwenregister","source_id":"gebouw/Gebouw.13554950/0","kind":"building","building":"official","height_m":6.6,"status":null},"geometry":{"type":"Polygon","coordinates":[[[3.93053718,50.93491573],[3.93054659,50.93492562],[3.93062096,50.93493963],[3.93059808,50.93498407],[3.93061328,50.93498756],[3.93058842,50.93504371],[3.93043326,50.93501822],[3.9304513,50.93497509],[3.93045569,50.93497582],[3.93046459,50.93495451],[3.93044715,50.93495143],[3.9304639,50.93491184],[3.93052294,50.93492155],[3.93053718,50.93491573]]]}},{"type":"Feature","id":"gebouw/Gebouw.13564347/0","properties":{"source":"Digitaal Vlaanderen Gebouwenregister","source_id":"gebouw/Gebouw.13564347/0","kind":"building","building":"official","height_m":7.35,"status":null},"geometry":{"type":"Polygon","coordinates":[[[3.92888695,50.93484897],[3.92882805,50.93482386],[3.92887886,50.93477738],[3.92893612,50.93480083],[3.92888695,50.93484897]]]}},{"type":"Feature","id":"gebouw/Gebouw.13574578/0","properties":{"source":"Digitaal Vlaanderen Gebouwenregister","source_id":"gebouw/Gebouw.13574578/0","kind":"building","building":"official","height_m":8.1,"status":null},"geometry":{"type":"Polygon","coordinates":[[[3.93102686,50.93686],[3.93095033,50.93691114],[3.93090169,50.93688366],[3.93103402,50.93678842],[3.93108566,50.93681697],[3.93102686,50.93686]]]}},{"type":"Feature","id":"gebouw/Gebouw.13574704/0","properties":{"source":"Digitaal Vlaanderen Gebouwenregister","source_id":"gebouw/Gebouw.13574704/0","kind":"building","building":"official","height_m":8.1,"status":null},"geometry":{"type":"Polygon","coordinates":[[[3.93052862,50.93600345],[3.93050441,50.93602543],[3.93047276,50.93600755],[3.93046984,50.9360059],[3.93041286,50.9359737],[3.93043303,50.93595488],[3.93050585,50.93588695],[3.93050984,50.93588323],[3.93053448,50.93589432],[3.93061088,50.93592873],[3.93052862,50.93600345]]]}},{"type":"Feature","id":"gebouw/Gebouw.13579813/0","properties":{"source":"Digitaal Vlaanderen Gebouwenregister","source_id":"gebouw/Gebouw.13579813/0","kind":"building","building":"official","height_m":5.85,"status":null},"geometry":{"type":"Polygon","coordinates":[[[3.92832866,50.93520208],[3.92823284,50.93514444],[3.92824971,50.93512815],[3.92835666,50.93517171],[3.92832866,50.93520208]]]}},{"type":"Feature","id":"gebouw/Gebouw.13584838/0","properties":{"source":"Digitaal Vlaanderen Gebouwenregister","source_id":"gebouw/Gebouw.13584838/0","kind":"building","building":"official","height_m":8.1,"status":null},"geometry":{"type":"Polygon","coordinates":[[[3.92826833,50.93874435],[3.92824198,50.93873717],[3.92823887,50.93874193],[3.92816068,50.93872222],[3.92816407,50.93871668],[3.92817877,50.93869268],[3.92818893,50.9386761],[3.92830949,50.93870902],[3.92829912,50.93872479],[3.92825759,50.93871371],[3.92825077,50.93872424],[3.92827692,50.93873066],[3.92826833,50.93874435]]]}},{"type":"Feature","id":"gebouw/Gebouw.13588727/0","properties":{"source":"Digitaal Vlaanderen Gebouwenregister","source_id":"gebouw/Gebouw.13588727/0","kind":"building","building":"official","height_m":8.85,"status":null},"geometry":{"type":"Polygon","coordinates":[[[3.9302513,50.93479081],[3.9301856,50.9349],[3.93004033,50.93486437],[3.93010667,50.93475512],[3.9302513,50.93479081]]]}},{"type":"Feature","id":"gebouw/Gebouw.13645652/0","properties":{"source":"Digitaal Vlaanderen Gebouwenregister","source_id":"gebouw/Gebouw.13645652/0","kind":"building","building":"official","height_m":6.6,"status":null},"geometry":{"type":"Polygon","coordinates":[[[3.92491029,50.93961424],[3.92500708,50.93963051],[3.92499661,50.93965537],[3.92489982,50.93963909],[3.92491029,50.93961424]]]}},{"type":"Feature","id":"gebouw/Gebouw.13649676/0","properties":{"source":"Digitaal Vlaanderen Gebouwenregister","source_id":"gebouw/Gebouw.13649676/0","kind":"building","building":"official","height_m":5.1,"status":null},"geometry":{"type":"Polygon","coordinates":[[[3.93078499,50.93856829],[3.93074608,50.93860117],[3.93088486,50.9386639],[3.93091922,50.93863387],[3.93078499,50.93856829]]]}},{"type":"Feature","id":"gebouw/Gebouw.13649975/0","properties":{"source":"Digitaal Vlaanderen Gebouwenregister","source_id":"gebouw/Gebouw.13649975/0","kind":"building","building":"official","height_m":8.85,"status":null},"geometry":{"type":"Polygon","coordinates":[[[3.93104018,50.93615935],[3.93092153,50.93611471],[3.93096583,50.93606718],[3.93108545,50.93610927],[3.93104018,50.93615935]]]}},{"type":"Feature","id":"gebouw/Gebouw.13650131/0","properties":{"source":"Digitaal Vlaanderen Gebouwenregister","source_id":"gebouw/Gebouw.13650131/0","kind":"building","building":"official","height_m":8.85,"status":null},"geometry":{"type":"Polygon","coordinates":[[[3.93007547,50.93589214],[3.9300406,50.93593209],[3.92988006,50.93587472],[3.92991971,50.93582727],[3.93002742,50.93586304],[3.93003219,50.93586462],[3.93008192,50.93588114],[3.93008406,50.93588185],[3.93007547,50.93589214]]]}},{"type":"Feature","id":"gebouw/Gebouw.13660414/0","properties":{"source":"Digitaal Vlaanderen Gebouwenregister","source_id":"gebouw/Gebouw.13660414/0","kind":"building","building":"official","height_m":8.1,"status":null},"geometry":{"type":"Polygon","coordinates":[[[3.92869382,50.93728943],[3.92855682,50.93724422],[3.92858553,50.9372082],[3.92860708,50.93721588],[3.9286911,50.93711903],[3.92879893,50.93715594],[3.92871621,50.93725407],[3.9287216,50.93725598],[3.92869382,50.93728943]]]}},{"type":"Feature","id":"gebouw/Gebouw.13660546/0","properties":{"source":"Digitaal Vlaanderen Gebouwenregister","source_id":"gebouw/Gebouw.13660546/0","kind":"building","building":"official","height_m":8.1,"status":null},"geometry":{"type":"Polygon","coordinates":[[[3.92848152,50.93722911],[3.9283871,50.93720032],[3.92842607,50.93715288],[3.92852044,50.93718273],[3.92848152,50.93722911]]]}},{"type":"Feature","id":"gebouw/Gebouw.13660713/0","properties":{"source":"Digitaal Vlaanderen Gebouwenregister","source_id":"gebouw/Gebouw.13660713/0","kind":"building","building":"official","height_m":7.35,"status":null},"geometry":{"type":"Polygon","coordinates":[[[3.92988742,50.93710343],[3.92985412,50.93708802],[3.92989443,50.93705576],[3.92992651,50.93707191],[3.92988742,50.93710343]]]}},{"type":"Feature","id":"gebouw/Gebouw.13759318/0","properties":{"source":"Digitaal Vlaanderen Gebouwenregister","source_id":"gebouw/Gebouw.13759318/0","kind":"building","building":"official","height_m":8.1,"status":null},"geometry":{"type":"Polygon","coordinates":[[[3.93066634,50.93509195],[3.93065309,50.93512606],[3.93061104,50.93511754],[3.93062019,50.93509968],[3.93044153,50.93506586],[3.93044824,50.93505367],[3.93066634,50.93509195]]]}},{"type":"Feature","id":"gebouw/Gebouw.13762751/0","properties":{"source":"Digitaal Vlaanderen Gebouwenregister","source_id":"gebouw/Gebouw.13762751/0","kind":"building","building":"official","height_m":8.85,"status":null},"geometry":{"type":"Polygon","coordinates":[[[3.93110169,50.93447385],[3.93104934,50.93454036],[3.9309209,50.93450222],[3.93097094,50.93443832],[3.93102733,50.93445581],[3.93105226,50.93446357],[3.93105546,50.93445946],[3.93110169,50.93447385]]]}},{"type":"Feature","id":"gebouw/Gebouw.13763087/0","properties":{"source":"Digitaal Vlaanderen Gebouwenregister","source_id":"gebouw/Gebouw.13763087/0","kind":"building","building":"official","height_m":8.85,"status":null},"geometry":{"type":"Polygon","coordinates":[[[3.93047625,50.93559503],[3.9304753,50.93562911],[3.93040206,50.93562826],[3.93038658,50.93562808],[3.93038606,50.93559772],[3.93047625,50.93559503]]]}},{"type":"Feature","id":"gebouw/Gebouw.13810843/0","properties":{"source":"Digitaal Vlaanderen Gebouwenregister","source_id":"gebouw/Gebouw.13810843/0","kind":"building","building":"official","height_m":5.85,"status":null},"geometry":{"type":"Polygon","coordinates":[[[3.9305111,50.93574637],[3.93048743,50.93578639],[3.93048652,50.93578799],[3.93043319,50.93577556],[3.93042533,50.93577372],[3.93045364,50.93573184],[3.9305111,50.93574637]]]}},{"type":"Feature","id":"gebouw/Gebouw.13839320/0","properties":{"source":"Digitaal Vlaanderen Gebouwenregister","source_id":"gebouw/Gebouw.13839320/0","kind":"building","building":"official","height_m":6.6,"status":null},"geometry":{"type":"Polygon","coordinates":[[[3.93030825,50.93568764],[3.93025755,50.9357262],[3.93021382,50.93570207],[3.93031516,50.93562552],[3.93035631,50.93565109],[3.93030825,50.93568764]]]}},{"type":"Feature","id":"gebouw/Gebouw.13839332/0","properties":{"source":"Digitaal Vlaanderen Gebouwenregister","source_id":"gebouw/Gebouw.13839332/0","kind":"building","building":"official","height_m":6.6,"status":null},"geometry":{"type":"Polygon","coordinates":[[[3.92787845,50.9390105],[3.92797627,50.93903816],[3.92797315,50.93904307],[3.9281098,50.93908245],[3.92810433,50.93909138],[3.92812147,50.93909656],[3.9280646,50.93918071],[3.92793385,50.93914392],[3.92794661,50.93912338],[3.92785723,50.93909846],[3.92787097,50.93907914],[3.92783659,50.93906938],[3.92787845,50.9390105]]]}},{"type":"Feature","id":"gebouw/Gebouw.13839729/0","properties":{"source":"Digitaal Vlaanderen Gebouwenregister","source_id":"gebouw/Gebouw.13839729/0","kind":"building","building":"official","height_m":7.35,"status":null},"geometry":{"type":"Polygon","coordinates":[[[3.93060753,50.93507224],[3.93068987,50.93508488],[3.93070179,50.93505389],[3.93061945,50.93504124],[3.93060753,50.93507224]]]}},{"type":"Feature","id":"gebouw/Gebouw.13852630/0","properties":{"source":"Digitaal Vlaanderen Gebouwenregister","source_id":"gebouw/Gebouw.13852630/0","kind":"building","building":"official","height_m":8.1,"status":null},"geometry":{"type":"Polygon","coordinates":[[[3.9303514,50.93506733],[3.93036193,50.93504062],[3.93043119,50.9350516],[3.93041984,50.93507742],[3.9303514,50.93506733]]]}},{"type":"Feature","id":"gebouw/Gebouw.14014358/0","properties":{"source":"Digitaal Vlaanderen Gebouwenregister","source_id":"gebouw/Gebouw.14014358/0","kind":"building","building":"official","height_m":6.6,"status":null},"geometry":{"type":"Polygon","coordinates":[[[3.9253416,50.93957317],[3.92534078,50.93957538],[3.92532125,50.93962794],[3.92532097,50.93962869],[3.92527917,50.93962152],[3.92525063,50.93961662],[3.92523711,50.9396143],[3.92526234,50.9395598],[3.9253416,50.93957317]]]}},{"type":"Feature","id":"gebouw/Gebouw.14029537/0","properties":{"source":"Digitaal Vlaanderen Gebouwenregister","source_id":"gebouw/Gebouw.14029537/0","kind":"building","building":"official","height_m":5.85,"status":null},"geometry":{"type":"Polygon","coordinates":[[[3.92483937,50.93958282],[3.92490298,50.93959483],[3.92488328,50.93963568],[3.92487836,50.93964588],[3.92487797,50.9396458],[3.92481262,50.93963199],[3.9248111,50.93963167],[3.92483752,50.93958247],[3.92483937,50.93958282]]]}},{"type":"Feature","id":"gebouw/Gebouw.16651117/0","properties":{"source":"Digitaal Vlaanderen Gebouwenregister","source_id":"gebouw/Gebouw.16651117/0","kind":"building","building":"official","height_m":5.85,"status":null},"geometry":{"type":"Polygon","coordinates":[[[3.93047608,50.93690921],[3.93049487,50.93691866],[3.93047186,50.93693694],[3.93051045,50.93695624],[3.93052605,50.93696403],[3.930663,50.9370325],[3.93049825,50.93715921],[3.93036292,50.93708926],[3.93034028,50.93707757],[3.93024997,50.93703089],[3.93041168,50.93690578],[3.93041473,50.93690709],[3.93043772,50.93688992],[3.93047608,50.93690921]]]}},{"type":"Feature","id":"gebouw/Gebouw.16651636/0","properties":{"source":"Digitaal Vlaanderen Gebouwenregister","source_id":"gebouw/Gebouw.16651636/0","kind":"building","building":"official","height_m":8.1,"status":null},"geometry":{"type":"Polygon","coordinates":[[[3.9303739,50.93445535],[3.93035249,50.93451281],[3.93044029,50.93452616],[3.93041353,50.93459941],[3.93030539,50.93458351],[3.93026887,50.93457814],[3.93031727,50.9344466],[3.93034478,50.93445084],[3.9303739,50.93445535]]]}},{"type":"Feature","id":"gebouw/Gebouw.16670983/0","properties":{"source":"Digitaal Vlaanderen Gebouwenregister","source_id":"gebouw/Gebouw.16670983/0","kind":"building","building":"official","height_m":5.85,"status":null},"geometry":{"type":"Polygon","coordinates":[[[3.92914994,50.93608345],[3.92909327,50.93615101],[3.92908835,50.93615687],[3.92903406,50.93613619],[3.92909549,50.9360609],[3.92915076,50.93608246],[3.92914994,50.93608345]]]}},{"type":"Feature","id":"gebouw/Gebouw.16694326/0","properties":{"source":"Digitaal Vlaanderen Gebouwenregister","source_id":"gebouw/Gebouw.16694326/0","kind":"building","building":"official","height_m":8.1,"status":null},"geometry":{"type":"Polygon","coordinates":[[[3.92834131,50.93833678],[3.92821357,50.93831528],[3.92818113,50.93840603],[3.92824595,50.93841657],[3.92825358,50.93841781],[3.92830865,50.93842677],[3.92834131,50.93833678]]]}},{"type":"Feature","id":"gebouw/Gebouw.16699748/0","properties":{"source":"Digitaal Vlaanderen Gebouwenregister","source_id":"gebouw/Gebouw.16699748/0","kind":"building","building":"official","height_m":6.6,"status":null},"geometry":{"type":"Polygon","coordinates":[[[3.93087022,50.93464484],[3.93085406,50.93467569],[3.93075664,50.93465922],[3.9307744,50.93462712],[3.93087022,50.93464484]]]}},{"type":"Feature","id":"gebouw/Gebouw.16715841/0","properties":{"source":"Digitaal Vlaanderen Gebouwenregister","source_id":"gebouw/Gebouw.16715841/0","kind":"building","building":"official","height_m":7.35,"status":null},"geometry":{"type":"Polygon","coordinates":[[[3.92755488,50.93442921],[3.927533,50.93440575],[3.9276194,50.93437358],[3.92764138,50.93439761],[3.92755488,50.93442921]]]}},{"type":"Feature","id":"gebouw/Gebouw.16740082/0","properties":{"source":"Digitaal Vlaanderen Gebouwenregister","source_id":"gebouw/Gebouw.16740082/0","kind":"building","building":"official","height_m":8.1,"status":null},"geometry":{"type":"Polygon","coordinates":[[[3.92872669,50.93879779],[3.92853057,50.93875385],[3.92856996,50.93868004],[3.92860103,50.9386864],[3.92860448,50.9386803],[3.92863006,50.93868547],[3.92863436,50.93867706],[3.92864546,50.93867814],[3.92867538,50.93863051],[3.92880505,50.93865597],[3.92872669,50.93879779]]]}},{"type":"Feature","id":"gebouw/Gebouw.16740105/0","properties":{"source":"Digitaal Vlaanderen Gebouwenregister","source_id":"gebouw/Gebouw.16740105/0","kind":"building","building":"official","height_m":7.35,"status":null},"geometry":{"type":"Polygon","coordinates":[[[3.93034451,50.93922547],[3.9303259,50.93923096],[3.93027817,50.93924267],[3.93025577,50.93924817],[3.93024183,50.93925279],[3.93022107,50.9392602],[3.93021913,50.93925799],[3.93018286,50.93921668],[3.93011577,50.93924417],[3.93008623,50.93921736],[3.93002037,50.93924381],[3.9300114,50.93923493],[3.92997755,50.93924739],[3.92995063,50.93922062],[3.92997363,50.93921162],[3.92983472,50.93908394],[3.93018289,50.93887636],[3.9302022,50.93886485],[3.93027658,50.93882051],[3.93027963,50.93881868],[3.93067452,50.9390521],[3.93058048,50.93911562],[3.93061602,50.939139],[3.93053447,50.93916564],[3.93040448,50.93920672],[3.93034451,50.93922547]],[[3.93007203,50.9390726],[3.93021278,50.93920007],[3.93048317,50.93910628],[3.93050474,50.93912906],[3.93055645,50.93911129],[3.93028357,50.93894478],[3.93007203,50.9390726]]]}},{"type":"Feature","id":"gebouw/Gebouw.18345689/0","properties":{"source":"Digitaal Vlaanderen Gebouwenregister","source_id":"gebouw/Gebouw.18345689/0","kind":"building","building":"official","height_m":8.85,"status":null},"geometry":{"type":"Polygon","coordinates":[[[3.92963966,50.93652424],[3.92968721,50.93649065],[3.92974111,50.93651949],[3.92974964,50.93651334],[3.9297547,50.93651652],[3.92977186,50.93650317],[3.92976744,50.9365005],[3.92978693,50.93648643],[3.92979166,50.93648938],[3.92980958,50.93647521],[3.9298057,50.93647289],[3.92982535,50.93645871],[3.92992509,50.93651343],[3.92984592,50.93657115],[3.92986063,50.93657974],[3.92987019,50.93657287],[3.92991838,50.93659969],[3.92985745,50.93664374],[3.92963966,50.93652424]]]}},{"type":"Feature","id":"gebouw/Gebouw.18500515/0","properties":{"source":"Digitaal Vlaanderen Gebouwenregister","source_id":"gebouw/Gebouw.18500515/0","kind":"building","building":"official","height_m":5.85,"status":null},"geometry":{"type":"Polygon","coordinates":[[[3.9295157,50.93709439],[3.92959588,50.93713515],[3.9295686,50.93715732],[3.9296124,50.93717884],[3.92963953,50.9371568],[3.92970976,50.93719131],[3.9296304,50.93725579],[3.92943386,50.93715923],[3.9295157,50.93709439]]]}},{"type":"Feature","id":"gebouw/Gebouw.18861810/0","properties":{"source":"Digitaal Vlaanderen Gebouwenregister","source_id":"gebouw/Gebouw.18861810/0","kind":"building","building":"official","height_m":5.1,"status":null},"geometry":{"type":"Polygon","coordinates":[[[3.9307456,50.9339419],[3.9307203,50.93400414],[3.93065843,50.93399241],[3.9306879,50.93393052],[3.9307456,50.9339419]]]}},{"type":"Feature","id":"gebouw/Gebouw.18861811/0","properties":{"source":"Digitaal Vlaanderen Gebouwenregister","source_id":"gebouw/Gebouw.18861811/0","kind":"building","building":"official","height_m":5.85,"status":null},"geometry":{"type":"Polygon","coordinates":[[[3.92694311,50.93589328],[3.92692109,50.93592894],[3.92682328,50.93590638],[3.92684639,50.93586937],[3.92694311,50.93589328]]]}},{"type":"Feature","id":"gebouw/Gebouw.18862312/0","properties":{"source":"Digitaal Vlaanderen Gebouwenregister","source_id":"gebouw/Gebouw.18862312/0","kind":"building","building":"official","height_m":8.1,"status":null},"geometry":{"type":"Polygon","coordinates":[[[3.92823491,50.93723683],[3.92820512,50.9372783],[3.92816507,50.93726727],[3.92819522,50.93722586],[3.92823491,50.93723683]]]}},{"type":"Feature","id":"gebouw/Gebouw.18862338/0","properties":{"source":"Digitaal Vlaanderen Gebouwenregister","source_id":"gebouw/Gebouw.18862338/0","kind":"building","building":"official","height_m":5.1,"status":null},"geometry":{"type":"Polygon","coordinates":[[[3.92899403,50.93662695],[3.92897671,50.93664688],[3.92892069,50.93662697],[3.92893716,50.93660765],[3.92899403,50.93662695]]]}},{"type":"Feature","id":"gebouw/Gebouw.19298536/0","properties":{"source":"Digitaal Vlaanderen Gebouwenregister","source_id":"gebouw/Gebouw.19298536/0","kind":"building","building":"official","height_m":8.1,"status":null},"geometry":{"type":"Polygon","coordinates":[[[3.93041958,50.93873022],[3.9303903,50.93877306],[3.93023857,50.93873015],[3.93027177,50.93868328],[3.93042253,50.93872591],[3.93041958,50.93873022]]]}},{"type":"Feature","id":"gebouw/Gebouw.19298577/0","properties":{"source":"Digitaal Vlaanderen Gebouwenregister","source_id":"gebouw/Gebouw.19298577/0","kind":"building","building":"official","height_m":7.35,"status":null},"geometry":{"type":"Polygon","coordinates":[[[3.92795525,50.935581],[3.92809917,50.93542704],[3.92820066,50.93546443],[3.92819365,50.93547203],[3.9282906,50.93550774],[3.92827905,50.93552025],[3.92832832,50.9355384],[3.92826206,50.93560929],[3.92819303,50.93558352],[3.92819957,50.93557652],[3.92812002,50.93554683],[3.92805372,50.93561775],[3.92795525,50.935581]]]}},{"type":"Feature","id":"gebouw/Gebouw.19692016/0","properties":{"source":"Digitaal Vlaanderen Gebouwenregister","source_id":"gebouw/Gebouw.19692016/0","kind":"building","building":"official","height_m":8.1,"status":null},"geometry":{"type":"Polygon","coordinates":[[[3.92864561,50.93830176],[3.92902711,50.93843113],[3.92889278,50.93859161],[3.92886454,50.93858202],[3.92851021,50.93846265],[3.92852081,50.93844942],[3.92855797,50.93840546],[3.9285642,50.93839808],[3.92859607,50.93836037],[3.92863858,50.93831008],[3.92864561,50.93830176]]]}},{"type":"Feature","id":"gebouw/Gebouw.19692017/0","properties":{"source":"Digitaal Vlaanderen Gebouwenregister","source_id":"gebouw/Gebouw.19692017/0","kind":"building","building":"official","height_m":8.85,"status":null},"geometry":{"type":"Polygon","coordinates":[[[3.92863858,50.93831008],[3.92859607,50.93836037],[3.92853816,50.93834048],[3.92852523,50.93835528],[3.9283447,50.93829379],[3.92839816,50.93823032],[3.92863858,50.93831008]]]}},{"type":"Feature","id":"gebouw/Gebouw.19692286/0","properties":{"source":"Digitaal Vlaanderen Gebouwenregister","source_id":"gebouw/Gebouw.19692286/0","kind":"building","building":"official","height_m":8.1,"status":null},"geometry":{"type":"Polygon","coordinates":[[[3.92828325,50.93872056],[3.92825759,50.93871371],[3.92817877,50.93869268],[3.92816407,50.93871668],[3.92816068,50.93872222],[3.92823887,50.93874193],[3.92824198,50.93873717],[3.92826833,50.93874435],[3.92828325,50.93872056]]]}},{"type":"Feature","id":"gebouw/Gebouw.19692287/0","properties":{"source":"Digitaal Vlaanderen Gebouwenregister","source_id":"gebouw/Gebouw.19692287/0","kind":"building","building":"official","height_m":8.85,"status":null},"geometry":{"type":"Polygon","coordinates":[[[3.92818893,50.9386761],[3.92817877,50.93869268],[3.92825759,50.93871371],[3.92828325,50.93872056],[3.92829912,50.93872479],[3.92830949,50.93870902],[3.92818893,50.9386761]]]}},{"type":"Feature","id":"gebouw/Gebouw.19695916/0","properties":{"source":"Digitaal Vlaanderen Gebouwenregister","source_id":"gebouw/Gebouw.19695916/0","kind":"building","building":"official","height_m":8.1,"status":null},"geometry":{"type":"Polygon","coordinates":[[[3.92942849,50.93624913],[3.92942475,50.93624768],[3.92933309,50.93621189],[3.92933294,50.93621183],[3.92937012,50.93617381],[3.92937951,50.93616421],[3.92934815,50.93615286],[3.92934439,50.9361515],[3.92934371,50.93615126],[3.92916064,50.93608503],[3.92910505,50.93615058],[3.92927457,50.93621236],[3.92927201,50.93621466],[3.929263,50.93622277],[3.92930824,50.93623914],[3.92930043,50.93624672],[3.92932577,50.93625656],[3.92938871,50.93628102],[3.92939398,50.93628306],[3.92939428,50.93628318],[3.92942624,50.93625137],[3.92942849,50.93624913]]]}},{"type":"Feature","id":"gebouw/Gebouw.19695917/0","properties":{"source":"Digitaal Vlaanderen Gebouwenregister","source_id":"gebouw/Gebouw.19695917/0","kind":"building","building":"official","height_m":8.85,"status":null},"geometry":{"type":"Polygon","coordinates":[[[3.92938871,50.93628102],[3.92936573,50.93631105],[3.92929884,50.93628389],[3.92932577,50.93625656],[3.92938871,50.93628102]]]}},{"type":"Feature","id":"gebouw/Gebouw.19720282/0","properties":{"source":"Digitaal Vlaanderen Gebouwenregister","source_id":"gebouw/Gebouw.19720282/0","kind":"building","building":"official","height_m":8.1,"status":null},"geometry":{"type":"Polygon","coordinates":[[[3.92796346,50.93744713],[3.92792533,50.93749526],[3.92732285,50.9373143],[3.92706834,50.93723785],[3.92715941,50.93711425],[3.92716896,50.93710127],[3.92720369,50.93705414],[3.92768094,50.93720845],[3.92765032,50.9372472],[3.9280263,50.93736779],[3.92796346,50.93744713]]]}},{"type":"Feature","id":"gebouw/Gebouw.19720283/0","properties":{"source":"Digitaal Vlaanderen Gebouwenregister","source_id":"gebouw/Gebouw.19720283/0","kind":"building","building":"official","height_m":8.85,"status":null},"geometry":{"type":"Polygon","coordinates":[[[3.92845755,50.93758112],[3.92842968,50.93761578],[3.92822804,50.93755656],[3.9282108,50.93758101],[3.92792533,50.93749526],[3.92796346,50.93744713],[3.92796605,50.93744787],[3.92807607,50.93747962],[3.92808277,50.93746996],[3.92810137,50.93747487],[3.92811963,50.93744947],[3.92820408,50.93747715],[3.92823637,50.93743907],[3.92838802,50.93748685],[3.92839522,50.9374769],[3.92851139,50.93751413],[3.92847303,50.93756186],[3.92845755,50.93758112]]]}},{"type":"Feature","id":"gebouw/Gebouw.19954744/0","properties":{"source":"Digitaal Vlaanderen Gebouwenregister","source_id":"gebouw/Gebouw.19954744/0","kind":"building","building":"official","height_m":8.1,"status":null},"geometry":{"type":"Polygon","coordinates":[[[3.93096712,50.9352975],[3.93094574,50.93533329],[3.93093677,50.93533132],[3.93091266,50.935326],[3.93093435,50.93528969],[3.93096712,50.9352975]]]}},{"type":"Feature","id":"gebouw/Gebouw.19955073/0","properties":{"source":"Digitaal Vlaanderen Gebouwenregister","source_id":"gebouw/Gebouw.19955073/0","kind":"building","building":"official","height_m":7.35,"status":null},"geometry":{"type":"Polygon","coordinates":[[[3.92982593,50.93404999],[3.92989989,50.93407676],[3.92988226,50.93409621],[3.92980804,50.93406936],[3.92982567,50.93405027],[3.92982593,50.93404999]]]}},{"type":"Feature","id":"gebouw/Gebouw.19955098/0","properties":{"source":"Digitaal Vlaanderen Gebouwenregister","source_id":"gebouw/Gebouw.19955098/0","kind":"building","building":"official","height_m":8.1,"status":null},"geometry":{"type":"Polygon","coordinates":[[[3.93079309,50.93597585],[3.93070743,50.93594426],[3.93067036,50.9359844],[3.93071588,50.93600119],[3.93072748,50.93598863],[3.93076378,50.93600202],[3.93079309,50.93597585]]]}},{"type":"Feature","id":"gebouw/Gebouw.20723857/0","properties":{"source":"Digitaal Vlaanderen Gebouwenregister","source_id":"gebouw/Gebouw.20723857/0","kind":"building","building":"official","height_m":5.85,"status":null},"geometry":{"type":"Polygon","coordinates":[[[3.9300113,50.93607709],[3.92989297,50.93621249],[3.92985388,50.93619641],[3.92987126,50.93617726],[3.9298644,50.93617437],[3.92990639,50.93612964],[3.92987398,50.93611549],[3.92986675,50.93612237],[3.92957958,50.93601637],[3.92978302,50.93578098],[3.92985029,50.9358036],[3.92985996,50.9358069],[3.92991971,50.93582727],[3.93002742,50.93586304],[3.93003219,50.93586462],[3.93008192,50.93588114],[3.93008406,50.93588185],[3.93007535,50.9358921],[3.93006981,50.93589847],[3.9300406,50.93593209],[3.92988006,50.93587472],[3.92980962,50.93585062],[3.92971208,50.9359634],[3.92993494,50.9360399],[3.92992939,50.93604588],[3.92997439,50.93606302],[3.9300113,50.93607709]]]}},{"type":"Feature","id":"gebouw/Gebouw.20802120/0","properties":{"source":"Digitaal Vlaanderen Gebouwenregister","source_id":"gebouw/Gebouw.20802120/0","kind":"building","building":"official","height_m":5.1,"status":null},"geometry":{"type":"Polygon","coordinates":[[[3.92771884,50.93578875],[3.92777573,50.93580769],[3.92773004,50.93586249],[3.92767315,50.93584355],[3.92771884,50.93578875]]]}},{"type":"Feature","id":"gebouw/Gebouw.20802121/0","properties":{"source":"Digitaal Vlaanderen Gebouwenregister","source_id":"gebouw/Gebouw.20802121/0","kind":"building","building":"official","height_m":5.85,"status":null},"geometry":{"type":"Polygon","coordinates":[[[3.92818579,50.93593643],[3.92813364,50.93591898],[3.9280828,50.93597963],[3.92813496,50.93599708],[3.92818579,50.93593643]]]}},{"type":"Feature","id":"gebouw/Gebouw.20802125/0","properties":{"source":"Digitaal Vlaanderen Gebouwenregister","source_id":"gebouw/Gebouw.20802125/0","kind":"building","building":"official","height_m":8.85,"status":null},"geometry":{"type":"Polygon","coordinates":[[[3.92942598,50.93614476],[3.929509,50.93605049],[3.92958578,50.93607749],[3.92956563,50.93610036],[3.92959974,50.93611236],[3.92955642,50.93616155],[3.92951809,50.93614808],[3.92949855,50.93617027],[3.92942598,50.93614476]]]}},{"type":"Feature","id":"gebouw/Gebouw.20802129/0","properties":{"source":"Digitaal Vlaanderen Gebouwenregister","source_id":"gebouw/Gebouw.20802129/0","kind":"building","building":"official","height_m":7.35,"status":null},"geometry":{"type":"Polygon","coordinates":[[[3.93066338,50.93531851],[3.93084511,50.93535826],[3.93079009,50.93546109],[3.93060718,50.93542108],[3.93066338,50.93531851]]]}},{"type":"Feature","id":"gebouw/Gebouw.20802132/0","properties":{"source":"Digitaal Vlaanderen Gebouwenregister","source_id":"gebouw/Gebouw.20802132/0","kind":"building","building":"official","height_m":5.1,"status":null},"geometry":{"type":"Polygon","coordinates":[[[3.93051419,50.93388373],[3.93051821,50.93388726],[3.93051291,50.93388967],[3.93045037,50.93391803],[3.93042561,50.93389622],[3.93049344,50.93386546],[3.93051419,50.93388373]]]}},{"type":"Feature","id":"gebouw/Gebouw.30839715/0","properties":{"source":"Digitaal Vlaanderen Gebouwenregister","source_id":"gebouw/Gebouw.30839715/0","kind":"building","building":"official","height_m":7.35,"status":null},"geometry":{"type":"Polygon","coordinates":[[[3.92899938,50.93692581],[3.92903564,50.93688387],[3.92919434,50.93693843],[3.92915816,50.93698024],[3.92900206,50.93692672],[3.92899938,50.93692581]]]}},{"type":"Feature","id":"gebouw/Gebouw.30839717/0","properties":{"source":"Digitaal Vlaanderen Gebouwenregister","source_id":"gebouw/Gebouw.30839717/0","kind":"building","building":"official","height_m":8.85,"status":null},"geometry":{"type":"Polygon","coordinates":[[[3.92913832,50.93702948],[3.92916325,50.93700081],[3.92914563,50.93699472],[3.92915703,50.93698154],[3.92915816,50.93698024],[3.92900206,50.93692672],[3.92899938,50.93692581],[3.92899825,50.93692711],[3.9289623,50.93696868],[3.92895912,50.93697235],[3.92896203,50.93697335],[3.92913545,50.93703279],[3.92913832,50.93702948]]]}},{"type":"Feature","id":"gebouw/Gebouw.30839719/0","properties":{"source":"Digitaal Vlaanderen Gebouwenregister","source_id":"gebouw/Gebouw.30839719/0","kind":"building","building":"official","height_m":5.85,"status":null},"geometry":{"type":"Polygon","coordinates":[[[3.92913545,50.93703279],[3.92896203,50.93697335],[3.92895912,50.93697235],[3.92895799,50.93697366],[3.9289242,50.93701272],[3.92908033,50.93706685],[3.92909382,50.93705131],[3.92911339,50.93705815],[3.92913431,50.9370341],[3.92913545,50.93703279]]]}},{"type":"Feature","id":"gebouw/Gebouw.30839721/0","properties":{"source":"Digitaal Vlaanderen Gebouwenregister","source_id":"gebouw/Gebouw.30839721/0","kind":"building","building":"official","height_m":7.35,"status":null},"geometry":{"type":"Polygon","coordinates":[[[3.92902213,50.9371062],[3.92886413,50.93705212],[3.92890019,50.93700911],[3.92890284,50.93700595],[3.9289242,50.93701272],[3.92908033,50.93706685],[3.92906828,50.93708073],[3.92905,50.93707448],[3.92904936,50.93707426],[3.92902213,50.9371062]]]}},{"type":"Feature","id":"gebouw/Gebouw.30883422/0","properties":{"source":"Digitaal Vlaanderen Gebouwenregister","source_id":"gebouw/Gebouw.30883422/0","kind":"building","building":"official","height_m":5.1,"status":null},"geometry":{"type":"Polygon","coordinates":[[[3.93051517,50.93540417],[3.93057275,50.93541608],[3.93055683,50.93544681],[3.93050083,50.93543523],[3.93049493,50.93543401],[3.93051085,50.93540328],[3.93051517,50.93540417]]]}},{"type":"Feature","id":"gebouw/Gebouw.31251523/0","properties":{"source":"Digitaal Vlaanderen Gebouwenregister","source_id":"gebouw/Gebouw.31251523/0","kind":"building","building":"official","height_m":5.85,"status":null},"geometry":{"type":"Polygon","coordinates":[[[3.93033515,50.93608914],[3.93029515,50.93605432],[3.9303397,50.93603401],[3.93037961,50.93606876],[3.93033515,50.93608914]]]}},{"type":"Feature","id":"gebouw/Gebouw.31326815/0","properties":{"source":"Digitaal Vlaanderen Gebouwenregister","source_id":"gebouw/Gebouw.31326815/0","kind":"building","building":"official","height_m":8.85,"status":null},"geometry":{"type":"Polygon","coordinates":[[[3.92874641,50.93596437],[3.92872324,50.93599337],[3.92870274,50.93601902],[3.92865503,50.9360038],[3.92867579,50.93597783],[3.9286987,50.93594915],[3.92874641,50.93596437]]]}},{"type":"Feature","id":"gebouw/Gebouw.31326816/0","properties":{"source":"Digitaal Vlaanderen Gebouwenregister","source_id":"gebouw/Gebouw.31326816/0","kind":"building","building":"official","height_m":5.1,"status":null},"geometry":{"type":"Polygon","coordinates":[[[3.93094313,50.93700775],[3.9309124,50.93702905],[3.93090705,50.93703275],[3.93085859,50.93700579],[3.93086641,50.93700018],[3.93089398,50.9369804],[3.93094313,50.93700775]]]}},{"type":"Feature","id":"gebouw/Gebouw.31326817/0","properties":{"source":"Digitaal Vlaanderen Gebouwenregister","source_id":"gebouw/Gebouw.31326817/0","kind":"building","building":"official","height_m":5.85,"status":null},"geometry":{"type":"Polygon","coordinates":[[[3.93094557,50.93700912],[3.93099157,50.93703471],[3.93095882,50.93705821],[3.93091036,50.93703438],[3.93090705,50.93703275],[3.9309124,50.93702905],[3.93094313,50.93700775],[3.93094557,50.93700912]]]}},{"type":"Feature","id":"gebouw/Gebouw.31326818/0","properties":{"source":"Digitaal Vlaanderen Gebouwenregister","source_id":"gebouw/Gebouw.31326818/0","kind":"building","building":"official","height_m":6.6,"status":null},"geometry":{"type":"Polygon","coordinates":[[[3.93106478,50.93708328],[3.93103277,50.93710464],[3.93102904,50.93710713],[3.93098063,50.93707816],[3.93098547,50.93707494],[3.93101638,50.93705431],[3.93106478,50.93708328]]]}},{"type":"Feature","id":"gebouw/Gebouw.31539911/0","properties":{"source":"Digitaal Vlaanderen Gebouwenregister","source_id":"gebouw/Gebouw.31539911/0","kind":"building","building":"official","height_m":8.85,"status":null},"geometry":{"type":"Polygon","coordinates":[[[3.93043218,50.93417698],[3.93041172,50.93417461],[3.93041124,50.93417626],[3.9304024,50.93420678],[3.93040382,50.93420695],[3.93043052,50.93421023],[3.93043174,50.93421038],[3.93044112,50.93417801],[3.93043218,50.93417698]]]}},{"type":"Feature","id":"gebouw/Gebouw.31543319/0","properties":{"source":"Digitaal Vlaanderen Gebouwenregister","source_id":"gebouw/Gebouw.31543319/0","kind":"building","building":"official","height_m":8.85,"status":null},"geometry":{"type":"Polygon","coordinates":[[[3.92849423,50.93763759],[3.92848054,50.9376548],[3.92850693,50.93766319],[3.92852085,50.93764605],[3.92849423,50.93763759]]]}},{"type":"Feature","id":"gebouw/Gebouw.31558927/0","properties":{"source":"Digitaal Vlaanderen Gebouwenregister","source_id":"gebouw/Gebouw.31558927/0","kind":"building","building":"official","height_m":5.85,"status":null},"geometry":{"type":"Polygon","coordinates":[[[3.92779753,50.93857526],[3.92765478,50.93854288],[3.92762159,50.93860298],[3.92774283,50.9386297],[3.92776031,50.93860096],[3.92778041,50.938606],[3.92779753,50.93857526]]]}},{"type":"Feature","id":"gebouw/Gebouw.31559842/0","properties":{"source":"Digitaal Vlaanderen Gebouwenregister","source_id":"gebouw/Gebouw.31559842/0","kind":"building","building":"official","height_m":8.1,"status":null},"geometry":{"type":"Polygon","coordinates":[[[3.92779757,50.93857519],[3.92783324,50.93851275],[3.92780526,50.93850637],[3.92781134,50.93849572],[3.92775112,50.93848198],[3.92774544,50.93849229],[3.92768947,50.93847997],[3.92765478,50.93854288],[3.92779753,50.93857526],[3.92779757,50.93857519]]]}},{"type":"Feature","id":"gebouw/Gebouw.31559847/0","properties":{"source":"Digitaal Vlaanderen Gebouwenregister","source_id":"gebouw/Gebouw.31559847/0","kind":"building","building":"official","height_m":7.35,"status":null},"geometry":{"type":"Polygon","coordinates":[[[3.92770212,50.93874439],[3.92773482,50.93868555],[3.92759196,50.93865299],[3.92755904,50.93871216],[3.927702,50.9387446],[3.92770212,50.93874439]]]}},{"type":"Feature","id":"gebouw/Gebouw.31559850/0","properties":{"source":"Digitaal Vlaanderen Gebouwenregister","source_id":"gebouw/Gebouw.31559850/0","kind":"building","building":"official","height_m":5.1,"status":null},"geometry":{"type":"Polygon","coordinates":[[[3.927702,50.9387446],[3.92755904,50.93871216],[3.92752552,50.93877239],[3.92766838,50.93880365],[3.927702,50.9387446]]]}},{"type":"Feature","id":"gebouw/Gebouw.31559851/0","properties":{"source":"Digitaal Vlaanderen Gebouwenregister","source_id":"gebouw/Gebouw.31559851/0","kind":"building","building":"official","height_m":5.85,"status":null},"geometry":{"type":"Polygon","coordinates":[[[3.927606,50.93891389],[3.9274628,50.93888141],[3.92742947,50.93894129],[3.92757192,50.93897292],[3.927606,50.93891389]]]}},{"type":"Feature","id":"gebouw/Gebouw.31559853/0","properties":{"source":"Digitaal Vlaanderen Gebouwenregister","source_id":"gebouw/Gebouw.31559853/0","kind":"building","building":"official","height_m":7.35,"status":null},"geometry":{"type":"Polygon","coordinates":[[[3.92760608,50.93891375],[3.92763934,50.9388549],[3.92749511,50.93882324],[3.9274628,50.93888141],[3.927606,50.93891389],[3.92760608,50.93891375]]]}},{"type":"Feature","id":"gebouw/Gebouw.31844505/0","properties":{"source":"Digitaal Vlaanderen Gebouwenregister","source_id":"gebouw/Gebouw.31844505/0","kind":"building","building":"official","height_m":7.35,"status":null},"geometry":{"type":"Polygon","coordinates":[[[3.92978329,50.93491059],[3.9297342,50.93488063],[3.92971048,50.93489615],[3.92975957,50.93492611],[3.92978329,50.93491059]]]}},{"type":"Feature","id":"gebouw/Gebouw.31844780/0","properties":{"source":"Digitaal Vlaanderen Gebouwenregister","source_id":"gebouw/Gebouw.31844780/0","kind":"building","building":"official","height_m":6.6,"status":null},"geometry":{"type":"Polygon","coordinates":[[[3.9293072,50.93637244],[3.92931935,50.93637928],[3.92931333,50.93638361],[3.92935202,50.93640506],[3.92935557,50.9364025],[3.92936511,50.93640779],[3.92939339,50.93638742],[3.9293854,50.93638299],[3.9294111,50.93636449],[3.92937223,50.93634294],[3.92936772,50.93634618],[3.92935358,50.93633834],[3.9293072,50.93637244]]]}},{"type":"Feature","id":"gebouw/Gebouw.31844838/0","properties":{"source":"Digitaal Vlaanderen Gebouwenregister","source_id":"gebouw/Gebouw.31844838/0","kind":"building","building":"official","height_m":5.1,"status":null},"geometry":{"type":"Polygon","coordinates":[[[3.92875601,50.93462701],[3.9287525,50.93462447],[3.92869011,50.93465894],[3.92870919,50.93467273],[3.92874733,50.93470029],[3.92880971,50.93466582],[3.92875601,50.93462701]]]}},{"type":"Feature","id":"gebouw/Gebouw.31844939/0","properties":{"source":"Digitaal Vlaanderen Gebouwenregister","source_id":"gebouw/Gebouw.31844939/0","kind":"building","building":"official","height_m":8.85,"status":null},"geometry":{"type":"Polygon","coordinates":[[[3.93062536,50.93509608],[3.9306112,50.93512986],[3.93068753,50.93514263],[3.93070169,50.93510886],[3.93062536,50.93509608]]]}},{"type":"Feature","id":"gebouw/Gebouw.31844974/0","properties":{"source":"Digitaal Vlaanderen Gebouwenregister","source_id":"gebouw/Gebouw.31844974/0","kind":"building","building":"official","height_m":8.1,"status":null},"geometry":{"type":"Polygon","coordinates":[[[3.92969804,50.93411391],[3.92966639,50.93414894],[3.92971527,50.93416601],[3.92974654,50.9341314],[3.92969804,50.93411391]]]}},{"type":"Feature","id":"gebouw/Gebouw.31844985/0","properties":{"source":"Digitaal Vlaanderen Gebouwenregister","source_id":"gebouw/Gebouw.31844985/0","kind":"building","building":"official","height_m":7.35,"status":null},"geometry":{"type":"Polygon","coordinates":[[[3.9297274,50.93446402],[3.92963833,50.93443307],[3.92960619,50.93447028],[3.92968049,50.93449833],[3.92969315,50.93448378],[3.92970625,50.93448833],[3.9297274,50.93446402]]]}},{"type":"Feature","id":"gebouw/Gebouw.31844997/0","properties":{"source":"Digitaal Vlaanderen Gebouwenregister","source_id":"gebouw/Gebouw.31844997/0","kind":"building","building":"official","height_m":7.35,"status":null},"geometry":{"type":"Polygon","coordinates":[[[3.93012882,50.93600101],[3.93006304,50.93597752],[3.93002817,50.93601653],[3.93005561,50.93602632],[3.93009394,50.93604001],[3.93009766,50.93603592],[3.93012882,50.93600101]]]}},{"type":"Feature","id":"gebouw/Gebouw.31845050/0","properties":{"source":"Digitaal Vlaanderen Gebouwenregister","source_id":"gebouw/Gebouw.31845050/0","kind":"building","building":"official","height_m":6.6,"status":null},"geometry":{"type":"Polygon","coordinates":[[[3.92698346,50.93594558],[3.92692994,50.93600742],[3.92698811,50.93602752],[3.92704162,50.93596568],[3.92698346,50.93594558]]]}},{"type":"Feature","id":"gebouw/Gebouw.31845156/0","properties":{"source":"Digitaal Vlaanderen Gebouwenregister","source_id":"gebouw/Gebouw.31845156/0","kind":"building","building":"official","height_m":5.1,"status":null},"geometry":{"type":"Polygon","coordinates":[[[3.92867434,50.93579977],[3.92864262,50.9357904],[3.92858723,50.93586531],[3.9286182,50.93587446],[3.92867434,50.93579977]]]}},{"type":"Feature","id":"gebouw/Gebouw.31845191/0","properties":{"source":"Digitaal Vlaanderen Gebouwenregister","source_id":"gebouw/Gebouw.31845191/0","kind":"building","building":"official","height_m":8.85,"status":null},"geometry":{"type":"Polygon","coordinates":[[[3.92824595,50.93841657],[3.92818113,50.93840603],[3.92816147,50.93845428],[3.92822629,50.93846482],[3.92824595,50.93841657]]]}},{"type":"Feature","id":"gebouw/Gebouw.31845270/0","properties":{"source":"Digitaal Vlaanderen Gebouwenregister","source_id":"gebouw/Gebouw.31845270/0","kind":"building","building":"official","height_m":5.1,"status":null},"geometry":{"type":"Polygon","coordinates":[[[3.92963169,50.93752683],[3.92959008,50.93750919],[3.92956036,50.93753717],[3.92960197,50.93755482],[3.92963169,50.93752683]]]}},{"type":"Feature","id":"gebouw/Gebouw.31845367/0","properties":{"source":"Digitaal Vlaanderen Gebouwenregister","source_id":"gebouw/Gebouw.31845367/0","kind":"building","building":"official","height_m":5.85,"status":null},"geometry":{"type":"Polygon","coordinates":[[[3.93077935,50.93524379],[3.93071545,50.93523422],[3.93069828,50.93527995],[3.93075047,50.93528777],[3.93074758,50.93529547],[3.93081087,50.93530496],[3.93081723,50.93528801],[3.93076565,50.93528028],[3.93077935,50.93524379]]]}},{"type":"Feature","id":"gebouw/Gebouw.31845375/0","properties":{"source":"Digitaal Vlaanderen Gebouwenregister","source_id":"gebouw/Gebouw.31845375/0","kind":"building","building":"official","height_m":7.35,"status":null},"geometry":{"type":"Polygon","coordinates":[[[3.92966697,50.93486073],[3.92971283,50.93488657],[3.92974042,50.93486702],[3.92969456,50.93484118],[3.92966697,50.93486073]]]}},{"type":"Feature","id":"gebouw/Gebouw.31845397/0","properties":{"source":"Digitaal Vlaanderen Gebouwenregister","source_id":"gebouw/Gebouw.31845397/0","kind":"building","building":"official","height_m":5.85,"status":null},"geometry":{"type":"Polygon","coordinates":[[[3.92654741,50.93843964],[3.92658242,50.9383744],[3.92653528,50.9383643],[3.92650027,50.93842955],[3.92654741,50.93843964]]]}},{"type":"Feature","id":"gebouw/Gebouw.32034771/0","properties":{"source":"Digitaal Vlaanderen Gebouwenregister","source_id":"gebouw/Gebouw.32034771/0","kind":"building","building":"official","height_m":7.35,"status":null},"geometry":{"type":"Polygon","coordinates":[[[3.92937012,50.93617381],[3.92933294,50.93621183],[3.92933309,50.93621189],[3.92942475,50.93624768],[3.92946166,50.93620694],[3.92937017,50.93617383],[3.92937012,50.93617381]]]}},{"type":"Feature","id":"way/198294261","properties":{"source":"OpenStreetMap","source_id":"way/198294261","kind":"vegetation","landuse":"forest","natural":null,"name":null},"geometry":{"type":"Polygon","coordinates":[[[3.9292447,50.9398517],[3.9290167,50.9399235],[3.9289332,50.9399045],[3.9288279,50.9399011],[3.9287159,50.9399249],[3.9286557,50.9399407],[3.9285982,50.9399527],[3.9285468,50.9399567],[3.9284877,50.939944],[3.928476,50.9399306],[3.9284745,50.9398718],[3.9284208,50.9397646],[3.9284738,50.9396713],[3.928627,50.9398224],[3.9287121,50.9398032],[3.9288073,50.939816],[3.9289531,50.93983],[3.9291516,50.9398594],[3.9292447,50.9398517]]]}},{"type":"Feature","id":"way/457961800","properties":{"source":"OpenStreetMap","source_id":"way/457961800","kind":"waterway","waterway":"drain","name":null},"geometry":{"type":"LineString","coordinates":[[3.9236175,50.9387688],[3.9240701,50.9389019],[3.9237544,50.9393291]]}},{"type":"Feature","id":"way/457961801","properties":{"source":"OpenStreetMap","source_id":"way/457961801","kind":"waterway","waterway":"stream","name":"Kokelaarsbeek"},"geometry":{"type":"LineString","coordinates":[[3.9283605,50.9402945],[3.928641,50.9403337]]}}]}