{"type":"FeatureCollection","features":[{"type":"Feature","id":"gebouw/Gebouw.12933837/0","properties":{"source":"Digitaal Vlaanderen Gebouwenregister","source_id":"gebouw/Gebouw.12933837/0","kind":"building","building":"official","height_m":7.35,"status":null},"geometry":{"type":"Polygon","coordinates":[[[3.92169395,50.87861158],[3.92180319,50.87863273],[3.92178677,50.87866669],[3.92167753,50.87864554],[3.92169395,50.87861158]]]}},{"type":"Feature","id":"gebouw/Gebouw.12933898/0","properties":{"source":"Digitaal Vlaanderen Gebouwenregister","source_id":"gebouw/Gebouw.12933898/0","kind":"building","building":"official","height_m":8.1,"status":null},"geometry":{"type":"Polygon","coordinates":[[[3.92959915,50.87931218],[3.92980061,50.87922133],[3.92984246,50.87925575],[3.92972564,50.87930873],[3.92977459,50.87934965],[3.92969638,50.87938953],[3.92959915,50.87931218]]]}},{"type":"Feature","id":"gebouw/Gebouw.13032585/0","properties":{"source":"Digitaal Vlaanderen Gebouwenregister","source_id":"gebouw/Gebouw.13032585/0","kind":"building","building":"official","height_m":7.35,"status":null},"geometry":{"type":"Polygon","coordinates":[[[3.92841224,50.87808967],[3.92838183,50.87803376],[3.92854504,50.87799823],[3.92857545,50.87805413],[3.92841224,50.87808967]]]}},{"type":"Feature","id":"gebouw/Gebouw.13055824/0","properties":{"source":"Digitaal Vlaanderen Gebouwenregister","source_id":"gebouw/Gebouw.13055824/0","kind":"building","building":"official","height_m":8.1,"status":null},"geometry":{"type":"Polygon","coordinates":[[[3.92959616,50.87911989],[3.92957092,50.87909422],[3.92960495,50.87908083],[3.92961053,50.87908651],[3.92966957,50.87906328],[3.92968557,50.87907955],[3.92962969,50.87910153],[3.92963335,50.87910526],[3.92959616,50.87911989]]]}},{"type":"Feature","id":"gebouw/Gebouw.13162722/0","properties":{"source":"Digitaal Vlaanderen Gebouwenregister","source_id":"gebouw/Gebouw.13162722/0","kind":"building","building":"official","height_m":5.1,"status":null},"geometry":{"type":"Polygon","coordinates":[[[3.92820498,50.87812766],[3.92830754,50.8781046],[3.92839662,50.87826808],[3.9282926,50.87829055],[3.92820498,50.87812766]]]}},{"type":"Feature","id":"gebouw/Gebouw.13218290/0","properties":{"source":"Digitaal Vlaanderen Gebouwenregister","source_id":"gebouw/Gebouw.13218290/0","kind":"building","building":"official","height_m":6.6,"status":null},"geometry":{"type":"Polygon","coordinates":[[[3.92895702,50.87861511],[3.92890146,50.87863223],[3.9288269,50.87853846],[3.92895709,50.87849682],[3.92898455,50.87853433],[3.92902222,50.87852215],[3.92906711,50.87858118],[3.92906017,50.87858332],[3.92895702,50.87861511]]]}},{"type":"Feature","id":"gebouw/Gebouw.13226334/0","properties":{"source":"Digitaal Vlaanderen Gebouwenregister","source_id":"gebouw/Gebouw.13226334/0","kind":"building","building":"official","height_m":5.1,"status":null},"geometry":{"type":"Polygon","coordinates":[[[3.92079188,50.87808877],[3.92095444,50.87811833],[3.92082968,50.87840651],[3.92066622,50.8783775],[3.92079188,50.87808877]]]}},{"type":"Feature","id":"gebouw/Gebouw.13238161/0","properties":{"source":"Digitaal Vlaanderen Gebouwenregister","source_id":"gebouw/Gebouw.13238161/0","kind":"building","building":"official","height_m":5.85,"status":null},"geometry":{"type":"Polygon","coordinates":[[[3.92995964,50.87896594],[3.92993249,50.87893988],[3.92997025,50.8789262],[3.92999741,50.87895189],[3.92995964,50.87896594]]]}},{"type":"Feature","id":"gebouw/Gebouw.13240632/0","properties":{"source":"Digitaal Vlaanderen Gebouwenregister","source_id":"gebouw/Gebouw.13240632/0","kind":"building","building":"official","height_m":5.1,"status":null},"geometry":{"type":"Polygon","coordinates":[[[3.92858556,50.87737506],[3.92843948,50.87739855],[3.92842347,50.87735871],[3.92856956,50.87733522],[3.92858556,50.87737506]]]}},{"type":"Feature","id":"gebouw/Gebouw.13248928/0","properties":{"source":"Digitaal Vlaanderen Gebouwenregister","source_id":"gebouw/Gebouw.13248928/0","kind":"building","building":"official","height_m":8.1,"status":null},"geometry":{"type":"Polygon","coordinates":[[[3.92941885,50.8788525],[3.92930878,50.87889492],[3.92927586,50.87886134],[3.92926347,50.8788487],[3.92924651,50.87885524],[3.92924184,50.87885039],[3.92920206,50.87880912],[3.92932792,50.87875915],[3.92941885,50.8788525]]]}},{"type":"Feature","id":"gebouw/Gebouw.13321404/0","properties":{"source":"Digitaal Vlaanderen Gebouwenregister","source_id":"gebouw/Gebouw.13321404/0","kind":"building","building":"official","height_m":5.1,"status":null},"geometry":{"type":"Polygon","coordinates":[[[3.92821269,50.87709222],[3.92816854,50.87701194],[3.92827791,50.87698787],[3.92827969,50.87699112],[3.9283017,50.87698627],[3.92831779,50.87701553],[3.92828854,50.87702197],[3.92831481,50.87706974],[3.92821269,50.87709222]]]}},{"type":"Feature","id":"gebouw/Gebouw.13433100/0","properties":{"source":"Digitaal Vlaanderen Gebouwenregister","source_id":"gebouw/Gebouw.13433100/0","kind":"building","building":"official","height_m":5.1,"status":null},"geometry":{"type":"Polygon","coordinates":[[[3.9298584,50.87938002],[3.92982109,50.87934845],[3.92991121,50.87930582],[3.92994853,50.87933739],[3.9298584,50.87938002]]]}},{"type":"Feature","id":"gebouw/Gebouw.13434993/0","properties":{"source":"Digitaal Vlaanderen Gebouwenregister","source_id":"gebouw/Gebouw.13434993/0","kind":"building","building":"official","height_m":7.35,"status":null},"geometry":{"type":"Polygon","coordinates":[[[3.9287198,50.87842145],[3.92880083,50.87839626],[3.9287827,50.87837099],[3.92885501,50.87834806],[3.92884979,50.87833989],[3.92893082,50.8783147],[3.92893306,50.87831738],[3.92894379,50.87831609],[3.92896126,50.87831663],[3.92897453,50.87832403],[3.92898659,50.87833759],[3.92898537,50.87834995],[3.9289738,50.8783619],[3.92900776,50.87841155],[3.92885442,50.87845966],[3.92885134,50.87845603],[3.92876789,50.8784823],[3.9287198,50.87842145]]]}},{"type":"Feature","id":"gebouw/Gebouw.13435790/0","properties":{"source":"Digitaal Vlaanderen Gebouwenregister","source_id":"gebouw/Gebouw.13435790/0","kind":"building","building":"official","height_m":6.6,"status":null},"geometry":{"type":"Polygon","coordinates":[[[3.92841209,50.87838306],[3.92837463,50.87839398],[3.92835512,50.87836747],[3.92835082,50.87836163],[3.92834725,50.87836268],[3.92830747,50.87830866],[3.92842543,50.87827427],[3.92843213,50.87828278],[3.92844003,50.878285],[3.92846102,50.87831544],[3.92845776,50.87832138],[3.92848521,50.87835945],[3.92848658,50.87836135],[3.9284366,50.87837592],[3.92841209,50.87838306]]]}},{"type":"Feature","id":"gebouw/Gebouw.13460254/0","properties":{"source":"Digitaal Vlaanderen Gebouwenregister","source_id":"gebouw/Gebouw.13460254/0","kind":"building","building":"official","height_m":8.1,"status":null},"geometry":{"type":"Polygon","coordinates":[[[3.92126844,50.87848357],[3.9210935,50.87845324],[3.92109859,50.87844148],[3.92106717,50.87843603],[3.92106233,50.8784472],[3.92088926,50.87841719],[3.92101442,50.87812828],[3.92118836,50.87815844],[3.92108389,50.87839958],[3.92111566,50.87840509],[3.92122061,50.87816283],[3.92139433,50.87819295],[3.92126844,50.87848357]]]}},{"type":"Feature","id":"gebouw/Gebouw.13489803/0","properties":{"source":"Digitaal Vlaanderen Gebouwenregister","source_id":"gebouw/Gebouw.13489803/0","kind":"building","building":"official","height_m":7.35,"status":null},"geometry":{"type":"Polygon","coordinates":[[[3.92970792,50.87878378],[3.92967314,50.87875026],[3.92973817,50.87872475],[3.9297702,50.87875991],[3.92970792,50.87878378]]]}},{"type":"Feature","id":"gebouw/Gebouw.13498059/0","properties":{"source":"Digitaal Vlaanderen Gebouwenregister","source_id":"gebouw/Gebouw.13498059/0","kind":"building","building":"official","height_m":7.35,"status":null},"geometry":{"type":"Polygon","coordinates":[[[3.92899702,50.87867755],[3.92908133,50.87864605],[3.92908585,50.87865065],[3.92917774,50.87861574],[3.92924946,50.87869278],[3.92912371,50.87874051],[3.92911528,50.87873009],[3.92906392,50.87874894],[3.92905668,50.87874123],[3.92901106,50.87869256],[3.92899702,50.87867755]]]}},{"type":"Feature","id":"gebouw/Gebouw.13511992/0","properties":{"source":"Digitaal Vlaanderen Gebouwenregister","source_id":"gebouw/Gebouw.13511992/0","kind":"building","building":"official","height_m":8.1,"status":null},"geometry":{"type":"Polygon","coordinates":[[[3.92760663,50.87778425],[3.92759933,50.87777243],[3.92758042,50.8777771],[3.92755379,50.87773396],[3.92760984,50.87772011],[3.92761349,50.87772601],[3.9276222,50.87772386],[3.92763179,50.87773941],[3.9276205,50.8777422],[3.92762807,50.87775447],[3.92763758,50.87775212],[3.9276507,50.87777336],[3.92760663,50.87778425]]]}},{"type":"Feature","id":"gebouw/Gebouw.13519243/0","properties":{"source":"Digitaal Vlaanderen Gebouwenregister","source_id":"gebouw/Gebouw.13519243/0","kind":"building","building":"official","height_m":5.85,"status":null},"geometry":{"type":"Polygon","coordinates":[[[3.92845011,50.87813552],[3.92843336,50.87810534],[3.92848401,50.87809409],[3.92850076,50.87812427],[3.92845011,50.87813552]]]}},{"type":"Feature","id":"gebouw/Gebouw.13522108/0","properties":{"source":"Digitaal Vlaanderen Gebouwenregister","source_id":"gebouw/Gebouw.13522108/0","kind":"building","building":"official","height_m":8.1,"status":null},"geometry":{"type":"Polygon","coordinates":[[[3.92963038,50.87901376],[3.9295032,50.87906634],[3.92946575,50.87903044],[3.92944783,50.87901327],[3.92940167,50.87896901],[3.92952744,50.87891509],[3.92963038,50.87901376]]]}},{"type":"Feature","id":"gebouw/Gebouw.13585588/0","properties":{"source":"Digitaal Vlaanderen Gebouwenregister","source_id":"gebouw/Gebouw.13585588/0","kind":"building","building":"official","height_m":8.1,"status":null},"geometry":{"type":"Polygon","coordinates":[[[3.92827309,50.87737018],[3.9282674,50.87733611],[3.92823058,50.87724429],[3.92837864,50.87721846],[3.9284274,50.87733822],[3.92827309,50.87737018]]]}},{"type":"Feature","id":"gebouw/Gebouw.13626795/0","properties":{"source":"Digitaal Vlaanderen Gebouwenregister","source_id":"gebouw/Gebouw.13626795/0","kind":"building","building":"official","height_m":7.35,"status":null},"geometry":{"type":"Polygon","coordinates":[[[3.92788024,50.87783189],[3.92793144,50.87793869],[3.92779764,50.87796554],[3.92775123,50.87785672],[3.92788024,50.87783189]]]}},{"type":"Feature","id":"gebouw/Gebouw.13758961/0","properties":{"source":"Digitaal Vlaanderen Gebouwenregister","source_id":"gebouw/Gebouw.13758961/0","kind":"building","building":"official","height_m":5.85,"status":null},"geometry":{"type":"Polygon","coordinates":[[[3.92950263,50.87914746],[3.92958474,50.87910607],[3.92962479,50.8791398],[3.92968739,50.87911006],[3.92972123,50.87913856],[3.92999956,50.87900847],[3.93000661,50.87901369],[3.93003091,50.87900217],[3.93007786,50.87904414],[3.92990907,50.87912305],[3.9299143,50.87912737],[3.92994263,50.87915295],[3.92987593,50.87918145],[3.92984831,50.87915883],[3.92976179,50.87920007],[3.92967314,50.87922801],[3.92955985,50.87928143],[3.92946795,50.87920614],[3.92953594,50.87917433],[3.92950263,50.87914746]]]}},{"type":"Feature","id":"gebouw/Gebouw.13839910/0","properties":{"source":"Digitaal Vlaanderen Gebouwenregister","source_id":"gebouw/Gebouw.13839910/0","kind":"building","building":"official","height_m":8.1,"status":null},"geometry":{"type":"Polygon","coordinates":[[[3.92951006,50.87827499],[3.9294891,50.87824449],[3.92954192,50.87822996],[3.92956288,50.87826046],[3.92951006,50.87827499]]]}},{"type":"Feature","id":"gebouw/Gebouw.16787569/0","properties":{"source":"Digitaal Vlaanderen Gebouwenregister","source_id":"gebouw/Gebouw.16787569/0","kind":"building","building":"official","height_m":5.85,"status":null},"geometry":{"type":"Polygon","coordinates":[[[3.92844058,50.8782593],[3.92842376,50.87823346],[3.92848446,50.87821764],[3.92850129,50.87824348],[3.92844058,50.8782593]]]}},{"type":"Feature","id":"gebouw/Gebouw.18861703/0","properties":{"source":"Digitaal Vlaanderen Gebouwenregister","source_id":"gebouw/Gebouw.18861703/0","kind":"building","building":"official","height_m":5.85,"status":null},"geometry":{"type":"Polygon","coordinates":[[[3.92841082,50.87714737],[3.92842443,50.87717914],[3.92828127,50.87720374],[3.92826855,50.87717434],[3.92841082,50.87714737]]]}},{"type":"Feature","id":"gebouw/Gebouw.19955463/0","properties":{"source":"Digitaal Vlaanderen Gebouwenregister","source_id":"gebouw/Gebouw.19955463/0","kind":"building","building":"official","height_m":7.35,"status":null},"geometry":{"type":"Polygon","coordinates":[[[3.92706084,50.87834724],[3.92710801,50.8783403],[3.92712576,50.87838864],[3.92707859,50.87839557],[3.92706084,50.87834724]]]}},{"type":"Feature","id":"gebouw/Gebouw.19955467/0","properties":{"source":"Digitaal Vlaanderen Gebouwenregister","source_id":"gebouw/Gebouw.19955467/0","kind":"building","building":"official","height_m":5.85,"status":null},"geometry":{"type":"Polygon","coordinates":[[[3.92845314,50.87746515],[3.92850242,50.87745423],[3.92853203,50.8775077],[3.92848275,50.87751862],[3.92845314,50.87746515]]]}},{"type":"Feature","id":"gebouw/Gebouw.19955468/0","properties":{"source":"Digitaal Vlaanderen Gebouwenregister","source_id":"gebouw/Gebouw.19955468/0","kind":"building","building":"official","height_m":6.6,"status":null},"geometry":{"type":"Polygon","coordinates":[[[3.92853721,50.87745017],[3.92858153,50.87744266],[3.92860323,50.87749391],[3.92855891,50.87750142],[3.92853721,50.87745017]]]}},{"type":"Feature","id":"gebouw/Gebouw.19955469/0","properties":{"source":"Digitaal Vlaanderen Gebouwenregister","source_id":"gebouw/Gebouw.19955469/0","kind":"building","building":"official","height_m":7.35,"status":null},"geometry":{"type":"Polygon","coordinates":[[[3.92943839,50.87844718],[3.92944243,50.8784176],[3.92949081,50.87842025],[3.92948676,50.87844983],[3.92943839,50.87844718]]]}},{"type":"Feature","id":"gebouw/Gebouw.19955470/0","properties":{"source":"Digitaal Vlaanderen Gebouwenregister","source_id":"gebouw/Gebouw.19955470/0","kind":"building","building":"official","height_m":8.1,"status":null},"geometry":{"type":"Polygon","coordinates":[[[3.92972464,50.87901094],[3.92968993,50.87897892],[3.92976387,50.87894683],[3.92979858,50.87897884],[3.92972464,50.87901094]]]}},{"type":"Feature","id":"gebouw/Gebouw.19955475/0","properties":{"source":"Digitaal Vlaanderen Gebouwenregister","source_id":"gebouw/Gebouw.19955475/0","kind":"building","building":"official","height_m":7.35,"status":null},"geometry":{"type":"Polygon","coordinates":[[[3.92903637,50.87984428],[3.92896486,50.87977256],[3.92900976,50.87975464],[3.92908127,50.87982636],[3.92903637,50.87984428]]]}},{"type":"Feature","id":"gebouw/Gebouw.19956258/0","properties":{"source":"Digitaal Vlaanderen Gebouwenregister","source_id":"gebouw/Gebouw.19956258/0","kind":"building","building":"official","height_m":5.1,"status":null},"geometry":{"type":"Polygon","coordinates":[[[3.92118836,50.87815844],[3.92106233,50.8784472],[3.92088926,50.87841719],[3.92101442,50.87812828],[3.92118836,50.87815844]]]}},{"type":"Feature","id":"gebouw/Gebouw.19956259/0","properties":{"source":"Digitaal Vlaanderen Gebouwenregister","source_id":"gebouw/Gebouw.19956259/0","kind":"building","building":"official","height_m":5.85,"status":null},"geometry":{"type":"Polygon","coordinates":[[[3.92122061,50.87816283],[3.92139433,50.87819295],[3.92126844,50.87848357],[3.9210935,50.87845324],[3.92122061,50.87816283]]]}},{"type":"Feature","id":"gebouw/Gebouw.20801996/0","properties":{"source":"Digitaal Vlaanderen Gebouwenregister","source_id":"gebouw/Gebouw.20801996/0","kind":"building","building":"official","height_m":6.6,"status":null},"geometry":{"type":"Polygon","coordinates":[[[3.92973626,50.87981673],[3.92945317,50.87995055],[3.9294485,50.87994649],[3.92938217,50.87988891],[3.92966774,50.87975725],[3.92973626,50.87981673]]]}},{"type":"Feature","id":"gebouw/Gebouw.30883400/0","properties":{"source":"Digitaal Vlaanderen Gebouwenregister","source_id":"gebouw/Gebouw.30883400/0","kind":"building","building":"official","height_m":6.6,"status":null},"geometry":{"type":"Polygon","coordinates":[[[3.92900486,50.87935783],[3.92894773,50.8793875],[3.92897542,50.87940887],[3.92903254,50.87937921],[3.92900486,50.87935783]]]}},{"type":"Feature","id":"gebouw/Gebouw.31326756/0","properties":{"source":"Digitaal Vlaanderen Gebouwenregister","source_id":"gebouw/Gebouw.31326756/0","kind":"building","building":"official","height_m":5.1,"status":null},"geometry":{"type":"Polygon","coordinates":[[[3.92758792,50.87788262],[3.92767267,50.87786343],[3.92766792,50.87785502],[3.92769566,50.87784874],[3.92768601,50.87783167],[3.92757351,50.87785713],[3.92758792,50.87788262]]]}},{"type":"Feature","id":"gebouw/Gebouw.31326757/0","properties":{"source":"Digitaal Vlaanderen Gebouwenregister","source_id":"gebouw/Gebouw.31326757/0","kind":"building","building":"official","height_m":5.85,"status":null},"geometry":{"type":"Polygon","coordinates":[[[3.92769035,50.87770382],[3.92760817,50.87772358],[3.92761443,50.87773399],[3.92760366,50.87773658],[3.92760089,50.87773196],[3.92755661,50.87774262],[3.92757701,50.87777657],[3.92762213,50.87776572],[3.92762046,50.87776294],[3.92763039,50.87776055],[3.92763179,50.87776288],[3.92771396,50.87774312],[3.92769035,50.87770382]]]}},{"type":"Feature","id":"gebouw/Gebouw.31844794/0","properties":{"source":"Digitaal Vlaanderen Gebouwenregister","source_id":"gebouw/Gebouw.31844794/0","kind":"building","building":"official","height_m":8.1,"status":null},"geometry":{"type":"Polygon","coordinates":[[[3.92863783,50.8795984],[3.92858663,50.87961357],[3.92862743,50.87966552],[3.92867674,50.87965097],[3.92863783,50.8795984]]]}},{"type":"Feature","id":"gebouw/Gebouw.31844893/0","properties":{"source":"Digitaal Vlaanderen Gebouwenregister","source_id":"gebouw/Gebouw.31844893/0","kind":"building","building":"official","height_m":5.85,"status":null},"geometry":{"type":"Polygon","coordinates":[[[3.927624,50.87788441],[3.92764554,50.87793613],[3.92770323,50.87792651],[3.92768168,50.87787479],[3.927624,50.87788441]]]}},{"type":"Feature","id":"way/163834884","properties":{"source":"OpenStreetMap","source_id":"way/163834884","kind":"vegetation","landuse":"forest","natural":null,"name":null},"geometry":{"type":"Polygon","coordinates":[[[3.9281766,50.8763135],[3.9278753,50.8758793],[3.9311538,50.8749363],[3.9319358,50.875704],[3.9300809,50.8756662],[3.9289945,50.8760353],[3.9281766,50.8763135]]]}},{"type":"Feature","id":"way/163834896","properties":{"source":"OpenStreetMap","source_id":"way/163834896","kind":"vegetation","landuse":"forest","natural":null,"name":null},"geometry":{"type":"Polygon","coordinates":[[[3.9285291,50.8770824],[3.9286387,50.877306],[3.9287522,50.8774937],[3.9266223,50.8779986],[3.9265119,50.8777691],[3.9265969,50.8776957],[3.9270217,50.8773303],[3.9270819,50.8773506],[3.9285291,50.8770824]]]}},{"type":"Feature","id":"way/163928905","properties":{"source":"OpenStreetMap","source_id":"way/163928905","kind":"vegetation","landuse":"forest","natural":null,"name":null},"geometry":{"type":"Polygon","coordinates":[[[3.9263851,50.8772935],[3.9262628,50.876961],[3.9265263,50.876901],[3.9266024,50.8769095],[3.9267545,50.8770055],[3.9267736,50.8771152],[3.9267029,50.8772009],[3.9265942,50.8772661],[3.9263851,50.8772935]]]}},{"type":"Feature","id":"way/458762915","properties":{"source":"OpenStreetMap","source_id":"way/458762915","kind":"waterway","waterway":"stream","name":"Holbeek"},"geometry":{"type":"LineString","coordinates":[[3.9265384,50.8778277],[3.9265626,50.8778545]]}},{"type":"Feature","id":"way/458762931","properties":{"source":"OpenStreetMap","source_id":"way/458762931","kind":"waterway","waterway":"stream","name":"Holbeek"},"geometry":{"type":"LineString","coordinates":[[3.9263274,50.8764706],[3.9263747,50.8765668],[3.9263744,50.8765973],[3.9263186,50.8766288],[3.9262889,50.8766479],[3.9263115,50.876709],[3.9262798,50.8767947],[3.9263023,50.8768342],[3.9263836,50.8768504],[3.9264037,50.8769057],[3.926401,50.8769523],[3.9263258,50.8769643],[3.9262794,50.8770342],[3.9262942,50.8770611],[3.9262821,50.8770938],[3.9263464,50.8771353],[3.9263621,50.8772568],[3.9263657,50.8773073],[3.926375,50.8773501],[3.9263968,50.8773775],[3.9264107,50.8774257],[3.9264084,50.8774627],[3.9264281,50.8775369],[3.926448,50.8775779],[3.9264478,50.8776078],[3.9264623,50.8776434],[3.9264606,50.8776787],[3.9264765,50.877711],[3.9264919,50.8777599],[3.9265081,50.8778176],[3.9265384,50.8778277]]}},{"type":"Feature","id":"way/458762932","properties":{"source":"OpenStreetMap","source_id":"way/458762932","kind":"waterway","waterway":"stream","name":"Holbeek"},"geometry":{"type":"LineString","coordinates":[[3.9271392,50.8790388],[3.9271754,50.8791408],[3.9271706,50.8791931],[3.9271726,50.8792237],[3.9271874,50.8792443],[3.9272335,50.8792416],[3.9272709,50.8792851],[3.9272682,50.8793302],[3.9272945,50.8794626],[3.9273167,50.8794945],[3.9273605,50.8795356],[3.9273648,50.8795705],[3.9273531,50.8796141],[3.9273572,50.8796432],[3.9274278,50.8797104],[3.9274691,50.8797221],[3.9275576,50.8797053],[3.9275714,50.8797297],[3.9275649,50.8797556],[3.9274819,50.8798225],[3.927484,50.8798473],[3.9275241,50.8798648],[3.9275672,50.8798872],[3.9275746,50.8799145],[3.9275184,50.8799376],[3.9275429,50.8799786],[3.9275825,50.8799874],[3.9276733,50.8800021],[3.9277006,50.8800313],[3.9276796,50.8800719],[3.9276426,50.8800907],[3.927608,50.8801037],[3.9275928,50.8801258],[3.9276478,50.8801759],[3.9276611,50.8801914]]}},{"type":"Feature","id":"way/1013876070","properties":{"source":"OpenStreetMap","source_id":"way/1013876070","kind":"waterway","waterway":"stream","name":"Holbeek"},"geometry":{"type":"LineString","coordinates":[[3.9265626,50.8778545],[3.9265738,50.8778865],[3.9265824,50.877952],[3.9266026,50.8779971],[3.9266478,50.8780758],[3.9267111,50.8781953],[3.9267517,50.878274],[3.9267661,50.8783294],[3.9267853,50.8783811],[3.9268005,50.878427],[3.9268368,50.8784911],[3.9268869,50.8785459],[3.9269787,50.8785846],[3.9270236,50.8786909],[3.9270344,50.8787288],[3.9270451,50.878816],[3.927083,50.87888],[3.9271344,50.879014]]}},{"type":"Feature","id":"way/1013876071","properties":{"source":"OpenStreetMap","source_id":"way/1013876071","kind":"waterway","waterway":"stream","name":"Holbeek"},"geometry":{"type":"LineString","coordinates":[[3.9271344,50.879014],[3.9271392,50.8790388]]}}]}