{"type":"FeatureCollection","features":[{"type":"Feature","id":"gebouw/Gebouw.12917911/0","properties":{"source":"Digitaal Vlaanderen Gebouwenregister","source_id":"gebouw/Gebouw.12917911/0","kind":"building","building":"official","height_m":5.85,"status":null},"geometry":{"type":"Polygon","coordinates":[[[3.94148103,50.94436097],[3.94136514,50.94431623],[3.94140618,50.94426597],[3.94152971,50.94430986],[3.94148103,50.94436097]]]}},{"type":"Feature","id":"gebouw/Gebouw.13044006/0","properties":{"source":"Digitaal Vlaanderen Gebouwenregister","source_id":"gebouw/Gebouw.13044006/0","kind":"building","building":"official","height_m":5.1,"status":null},"geometry":{"type":"Polygon","coordinates":[[[3.94153944,50.944972],[3.94158719,50.94493158],[3.94166394,50.94496712],[3.94161499,50.94500798],[3.94153944,50.944972]]]}},{"type":"Feature","id":"gebouw/Gebouw.13078153/0","properties":{"source":"Digitaal Vlaanderen Gebouwenregister","source_id":"gebouw/Gebouw.13078153/0","kind":"building","building":"official","height_m":5.85,"status":null},"geometry":{"type":"Polygon","coordinates":[[[3.94050826,50.9451314],[3.94061514,50.9451955],[3.94058836,50.94521397],[3.94066559,50.94526141],[3.94057886,50.9453205],[3.94039217,50.94521012],[3.94050826,50.9451314]]]}},{"type":"Feature","id":"gebouw/Gebouw.13285675/0","properties":{"source":"Digitaal Vlaanderen Gebouwenregister","source_id":"gebouw/Gebouw.13285675/0","kind":"building","building":"official","height_m":5.85,"status":null},"geometry":{"type":"Polygon","coordinates":[[[3.94095911,50.9448805],[3.94113284,50.94488431],[3.94112706,50.94502286],[3.94097982,50.9450185],[3.94098127,50.94497467],[3.94095557,50.94497282],[3.94095911,50.9448805]]]}},{"type":"Feature","id":"gebouw/Gebouw.13295693/0","properties":{"source":"Digitaal Vlaanderen Gebouwenregister","source_id":"gebouw/Gebouw.13295693/0","kind":"building","building":"official","height_m":8.85,"status":null},"geometry":{"type":"Polygon","coordinates":[[[3.93411013,50.94170848],[3.93413946,50.94167619],[3.93426573,50.94172077],[3.93423593,50.94175352],[3.93411013,50.94170848]]]}},{"type":"Feature","id":"gebouw/Gebouw.13450712/0","properties":{"source":"Digitaal Vlaanderen Gebouwenregister","source_id":"gebouw/Gebouw.13450712/0","kind":"building","building":"official","height_m":6.6,"status":null},"geometry":{"type":"Polygon","coordinates":[[[3.94135519,50.94465168],[3.94136972,50.94458015],[3.94141742,50.9445838],[3.94142119,50.94455643],[3.94155584,50.94456695],[3.94152693,50.94469827],[3.9414347,50.94469098],[3.94144119,50.94465824],[3.94141377,50.94465615],[3.94135519,50.94465168]]]}},{"type":"Feature","id":"gebouw/Gebouw.13459987/0","properties":{"source":"Digitaal Vlaanderen Gebouwenregister","source_id":"gebouw/Gebouw.13459987/0","kind":"building","building":"official","height_m":5.85,"status":null},"geometry":{"type":"Polygon","coordinates":[[[3.94051639,50.94536016],[3.94056764,50.94532513],[3.94062426,50.94535843],[3.94057294,50.94539557],[3.94051639,50.94536016]]]}},{"type":"Feature","id":"gebouw/Gebouw.13467358/0","properties":{"source":"Digitaal Vlaanderen Gebouwenregister","source_id":"gebouw/Gebouw.13467358/0","kind":"building","building":"official","height_m":8.1,"status":null},"geometry":{"type":"Polygon","coordinates":[[[3.93383832,50.94107449],[3.93377446,50.94105998],[3.93378958,50.94103157],[3.93385421,50.94104474],[3.93383832,50.94107449]]]}},{"type":"Feature","id":"gebouw/Gebouw.13472825/0","properties":{"source":"Digitaal Vlaanderen Gebouwenregister","source_id":"gebouw/Gebouw.13472825/0","kind":"building","building":"official","height_m":8.85,"status":null},"geometry":{"type":"Polygon","coordinates":[[[3.93969062,50.94442175],[3.9399013,50.94450534],[3.93986002,50.94454687],[3.93978105,50.94451554],[3.93963475,50.94466037],[3.9395053,50.94460817],[3.93969062,50.94442175]]]}},{"type":"Feature","id":"gebouw/Gebouw.13479230/0","properties":{"source":"Digitaal Vlaanderen Gebouwenregister","source_id":"gebouw/Gebouw.13479230/0","kind":"building","building":"official","height_m":6.6,"status":null},"geometry":{"type":"Polygon","coordinates":[[[3.94106048,50.94454276],[3.94121348,50.94454252],[3.94121429,50.94463339],[3.94115723,50.94463323],[3.94115736,50.94461554],[3.94100014,50.94461485],[3.9410018,50.94454285],[3.94102302,50.94454281],[3.94106048,50.94454276]]]}},{"type":"Feature","id":"gebouw/Gebouw.13487396/0","properties":{"source":"Digitaal Vlaanderen Gebouwenregister","source_id":"gebouw/Gebouw.13487396/0","kind":"building","building":"official","height_m":6.6,"status":null},"geometry":{"type":"Polygon","coordinates":[[[3.94009454,50.94492094],[3.94003849,50.94498322],[3.93979078,50.94489358],[3.93984565,50.94483084],[3.94009454,50.94492094]]]}},{"type":"Feature","id":"gebouw/Gebouw.13489495/0","properties":{"source":"Digitaal Vlaanderen Gebouwenregister","source_id":"gebouw/Gebouw.13489495/0","kind":"building","building":"official","height_m":5.85,"status":null},"geometry":{"type":"Polygon","coordinates":[[[3.94115246,50.94505911],[3.94115125,50.9451031],[3.9410707,50.94510082],[3.94107259,50.94505805],[3.94115246,50.94505911]]]}},{"type":"Feature","id":"gebouw/Gebouw.13705972/0","properties":{"source":"Digitaal Vlaanderen Gebouwenregister","source_id":"gebouw/Gebouw.13705972/0","kind":"building","building":"official","height_m":8.1,"status":null},"geometry":{"type":"Polygon","coordinates":[[[3.93486206,50.94241921],[3.93485576,50.94242316],[3.93481956,50.94244591],[3.93476014,50.94241084],[3.93479583,50.94238724],[3.93479757,50.9423861],[3.93486206,50.94241921]]]}},{"type":"Feature","id":"gebouw/Gebouw.13763318/0","properties":{"source":"Digitaal Vlaanderen Gebouwenregister","source_id":"gebouw/Gebouw.13763318/0","kind":"building","building":"official","height_m":6.6,"status":null},"geometry":{"type":"Polygon","coordinates":[[[3.94165321,50.94469397],[3.94166688,50.94458355],[3.94173435,50.94458885],[3.94174016,50.94456482],[3.94185388,50.94457356],[3.94182105,50.94471507],[3.94175665,50.94471048],[3.94175824,50.94470158],[3.94165321,50.94469397]]]}},{"type":"Feature","id":"gebouw/Gebouw.18862296/0","properties":{"source":"Digitaal Vlaanderen Gebouwenregister","source_id":"gebouw/Gebouw.18862296/0","kind":"building","building":"official","height_m":5.1,"status":null},"geometry":{"type":"Polygon","coordinates":[[[3.94174763,50.94539216],[3.94171064,50.94542252],[3.94170712,50.94542541],[3.94166878,50.94540727],[3.9417114,50.94537396],[3.94174763,50.94539216]]]}},{"type":"Feature","id":"gebouw/Gebouw.19716702/0","properties":{"source":"Digitaal Vlaanderen Gebouwenregister","source_id":"gebouw/Gebouw.19716702/0","kind":"building","building":"official","height_m":5.1,"status":null},"geometry":{"type":"Polygon","coordinates":[[[3.93938343,50.94494441],[3.93956066,50.94475161],[3.93971357,50.94480385],[3.93953314,50.94499822],[3.93938343,50.94494441]]]}},{"type":"Feature","id":"gebouw/Gebouw.20723788/0","properties":{"source":"Digitaal Vlaanderen Gebouwenregister","source_id":"gebouw/Gebouw.20723788/0","kind":"building","building":"official","height_m":8.1,"status":null},"geometry":{"type":"Polygon","coordinates":[[[3.94040188,50.94435389],[3.94039979,50.94435632],[3.94027355,50.94450316],[3.94020442,50.94447965],[3.94021996,50.94446141],[3.94020796,50.94445724],[3.94017387,50.94444539],[3.94017092,50.94444878],[3.94009812,50.9444239],[3.94017327,50.94433764],[3.94018849,50.94434293],[3.94023491,50.94435907],[3.94023101,50.94436354],[3.9402549,50.94437185],[3.94027508,50.94434869],[3.94029646,50.94435612],[3.94032246,50.94432628],[3.94035162,50.94433642],[3.94040188,50.94435389]]]}},{"type":"Feature","id":"gebouw/Gebouw.20723789/0","properties":{"source":"Digitaal Vlaanderen Gebouwenregister","source_id":"gebouw/Gebouw.20723789/0","kind":"building","building":"official","height_m":8.85,"status":null},"geometry":{"type":"Polygon","coordinates":[[[3.94075858,50.94455833],[3.94072418,50.94455572],[3.94065843,50.94455073],[3.94064061,50.94464444],[3.94070893,50.94464966],[3.94074062,50.94465208],[3.94075858,50.94455833]]]}},{"type":"Feature","id":"gebouw/Gebouw.20723790/0","properties":{"source":"Digitaal Vlaanderen Gebouwenregister","source_id":"gebouw/Gebouw.20723790/0","kind":"building","building":"official","height_m":5.1,"status":null},"geometry":{"type":"Polygon","coordinates":[[[3.9408511,50.9445995],[3.94086344,50.94453462],[3.94076465,50.94452712],[3.94075858,50.94455833],[3.94074062,50.94465208],[3.94074072,50.94465209],[3.94083966,50.94465965],[3.9408511,50.9445995]]]}},{"type":"Feature","id":"gebouw/Gebouw.20723835/0","properties":{"source":"Digitaal Vlaanderen Gebouwenregister","source_id":"gebouw/Gebouw.20723835/0","kind":"building","building":"official","height_m":7.35,"status":null},"geometry":{"type":"Polygon","coordinates":[[[3.94022616,50.945376],[3.94056209,50.94552067],[3.94015774,50.94589537],[3.93982182,50.9457507],[3.94022616,50.945376]]]}},{"type":"Feature","id":"gebouw/Gebouw.20802233/0","properties":{"source":"Digitaal Vlaanderen Gebouwenregister","source_id":"gebouw/Gebouw.20802233/0","kind":"building","building":"official","height_m":8.85,"status":null},"geometry":{"type":"Polygon","coordinates":[[[3.94014151,50.94160564],[3.94017046,50.94161653],[3.9401285,50.94166103],[3.94010104,50.9416507],[3.94008909,50.9416462],[3.94013004,50.94160277],[3.94013105,50.9416017],[3.94014151,50.94160564]]]}},{"type":"Feature","id":"gebouw/Gebouw.30832122/0","properties":{"source":"Digitaal Vlaanderen Gebouwenregister","source_id":"gebouw/Gebouw.30832122/0","kind":"building","building":"official","height_m":5.1,"status":null},"geometry":{"type":"Polygon","coordinates":[[[3.94003576,50.94458591],[3.94021493,50.94464932],[3.9400663,50.94481264],[3.93989033,50.94475033],[3.94003576,50.94458591]]]}},{"type":"Feature","id":"gebouw/Gebouw.31326819/0","properties":{"source":"Digitaal Vlaanderen Gebouwenregister","source_id":"gebouw/Gebouw.31326819/0","kind":"building","building":"official","height_m":7.35,"status":null},"geometry":{"type":"Polygon","coordinates":[[[3.93919518,50.94514504],[3.93922542,50.94511514],[3.93929641,50.9451438],[3.93926617,50.9451737],[3.93919518,50.94514504]]]}},{"type":"Feature","id":"gebouw/Gebouw.31844554/0","properties":{"source":"Digitaal Vlaanderen Gebouwenregister","source_id":"gebouw/Gebouw.31844554/0","kind":"building","building":"official","height_m":8.1,"status":null},"geometry":{"type":"Polygon","coordinates":[[[3.94050545,50.94445792],[3.94041722,50.94442622],[3.94038268,50.94446459],[3.9404728,50.94449697],[3.94050287,50.94450777],[3.94053741,50.9444694],[3.94050545,50.94445792]]]}},{"type":"Feature","id":"gebouw/Gebouw.31845522/0","properties":{"source":"Digitaal Vlaanderen Gebouwenregister","source_id":"gebouw/Gebouw.31845522/0","kind":"building","building":"official","height_m":5.1,"status":null},"geometry":{"type":"Polygon","coordinates":[[[3.94066667,50.94424559],[3.94066668,50.94430159],[3.94071479,50.94430158],[3.94071478,50.94424558],[3.94066667,50.94424559]]]}},{"type":"Feature","id":"way/198173729","properties":{"source":"OpenStreetMap","source_id":"way/198173729","kind":"vegetation","landuse":"forest","natural":null,"name":null},"geometry":{"type":"Polygon","coordinates":[[[3.9391378,50.9422064],[3.9383045,50.9430485],[3.9388615,50.9433153],[3.9392397,50.9429389],[3.9399617,50.9432375],[3.9396959,50.9435406],[3.9396294,50.9437009],[3.9396392,50.9438218],[3.9395802,50.9438993],[3.9394373,50.9441536],[3.9390216,50.9440468],[3.9392329,50.9438497],[3.9375977,50.9431565],[3.937895,50.942853],[3.9375143,50.9426692],[3.9374211,50.9426025],[3.938416,50.9423051],[3.9391378,50.9422064]]]}},{"type":"Feature","id":"way/198173742","properties":{"source":"OpenStreetMap","source_id":"way/198173742","kind":"vegetation","landuse":"forest","natural":null,"name":null},"geometry":{"type":"Polygon","coordinates":[[[3.9361799,50.9470467],[3.935341,50.9478584],[3.9349964,50.9477287],[3.9357629,50.9469058],[3.9361799,50.9470467]]]}},{"type":"Feature","id":"way/198173744","properties":{"source":"OpenStreetMap","source_id":"way/198173744","kind":"vegetation","landuse":"forest","natural":null,"name":null},"geometry":{"type":"Polygon","coordinates":[[[3.9373679,50.9436984],[3.9388736,50.9442317],[3.9385735,50.9446285],[3.9370825,50.9440363],[3.9373679,50.9436984]]]}},{"type":"Feature","id":"way/198173747","properties":{"source":"OpenStreetMap","source_id":"way/198173747","kind":"vegetation","landuse":"forest","natural":null,"name":null},"geometry":{"type":"Polygon","coordinates":[[[3.9355422,50.9433171],[3.9357278,50.9432267],[3.9366842,50.942853],[3.9360204,50.9435601],[3.9355422,50.9433171]]]}},{"type":"Feature","id":"way/198173750","properties":{"source":"OpenStreetMap","source_id":"way/198173750","kind":"vegetation","landuse":"forest","natural":null,"name":null},"geometry":{"type":"Polygon","coordinates":[[[3.9417063,50.9404962],[3.9419251,50.9407022],[3.9413554,50.9409476],[3.9413051,50.9409133],[3.9417063,50.9404962]]]}},{"type":"Feature","id":"way/198173767","properties":{"source":"OpenStreetMap","source_id":"way/198173767","kind":"vegetation","landuse":"forest","natural":null,"name":null},"geometry":{"type":"Polygon","coordinates":[[[3.9410703,50.9438597],[3.9416234,50.9441018],[3.9415385,50.9441924],[3.9409828,50.9442259],[3.9409389,50.9441674],[3.940795,50.9441215],[3.9410703,50.9438597]]]}},{"type":"Feature","id":"way/198294265","properties":{"source":"OpenStreetMap","source_id":"way/198294265","kind":"vegetation","landuse":"forest","natural":null,"name":null},"geometry":{"type":"Polygon","coordinates":[[[3.934549,50.9418308],[3.9335392,50.941411],[3.9332164,50.9413067],[3.9329391,50.941265],[3.9326535,50.941218],[3.9323969,50.9412076],[3.9323307,50.941278],[3.9323597,50.9413119],[3.9325584,50.9414084],[3.9327984,50.9414631],[3.9329805,50.9414814],[3.933175,50.9414997],[3.933266,50.9415492],[3.9333447,50.9416092],[3.9333985,50.9416483],[3.9335309,50.9416509],[3.9336261,50.941604],[3.933713,50.9415935],[3.93416,50.9417735],[3.9344,50.9418595],[3.9344704,50.9418726],[3.934549,50.9418308]]]}},{"type":"Feature","id":"way/198294286","properties":{"source":"OpenStreetMap","source_id":"way/198294286","kind":"vegetation","landuse":"forest","natural":null,"name":null},"geometry":{"type":"Polygon","coordinates":[[[3.9365378,50.9424684],[3.935386,50.9420276],[3.9353217,50.9420976],[3.9364245,50.9425028],[3.9365378,50.9424684]]]}},{"type":"Feature","id":"way/410843386","properties":{"source":"OpenStreetMap","source_id":"way/410843386","kind":"waterway","waterway":"stream","name":"Kokelaarsbeek"},"geometry":{"type":"LineString","coordinates":[[3.9318365,50.9410587],[3.9319195,50.941096],[3.9320683,50.9411262],[3.9321763,50.9411701],[3.9322556,50.9411928],[3.9323132,50.9412412],[3.9323612,50.9412669],[3.9324692,50.9412745],[3.932594,50.9413032],[3.9326613,50.9413093],[3.9327597,50.9413062],[3.9328053,50.9413335],[3.9328677,50.9413607],[3.9329133,50.9413667],[3.9329637,50.9413561],[3.9330142,50.9413561],[3.9331318,50.9413879],[3.9332854,50.9414015],[3.933331,50.9414091],[3.9333654,50.9414081],[3.9333839,50.9414076],[3.9334535,50.9414227],[3.9335351,50.9414499],[3.9336023,50.9414726],[3.9337055,50.9415407],[3.9337896,50.9415861],[3.9338736,50.9416148],[3.933972,50.9416617],[3.9340272,50.941692],[3.9341353,50.9417192],[3.9341665,50.9417419],[3.9342289,50.9417767],[3.9344329,50.9418463],[3.934515,50.9418689],[3.9345482,50.941878],[3.9345842,50.9419022],[3.934625,50.9419083],[3.9346538,50.9419022],[3.934769,50.9419279],[3.934817,50.9419355],[3.9349395,50.9419204],[3.9349875,50.9419173],[3.9350451,50.9419415],[3.9351339,50.9419824],[3.9352684,50.9420232],[3.9353764,50.942061],[3.9356525,50.9421609],[3.9357125,50.942173],[3.9358037,50.9422048],[3.9361782,50.942356],[3.9364567,50.942474],[3.9364999,50.9425058],[3.9366007,50.9426141],[3.938175,50.9421013],[3.9391689,50.9417779],[3.9420217,50.940846]]}},{"type":"Feature","id":"way/410853262","properties":{"source":"OpenStreetMap","source_id":"way/410853262","kind":"waterway","waterway":"drain","name":null},"geometry":{"type":"LineString","coordinates":[[3.9339797,50.9407736],[3.9337652,50.940995],[3.9334492,50.9413212],[3.9333654,50.9414081]]}},{"type":"Feature","id":"way/410853263","properties":{"source":"OpenStreetMap","source_id":"way/410853263","kind":"waterway","waterway":"drain","name":null},"geometry":{"type":"LineString","coordinates":[[3.9347853,50.9413118],[3.9341396,50.9411088],[3.9339167,50.9410408],[3.9337652,50.940995]]}},{"type":"Feature","id":"way/457961794","properties":{"source":"OpenStreetMap","source_id":"way/457961794","kind":"waterway","waterway":"drain","name":null},"geometry":{"type":"LineString","coordinates":[[3.9354323,50.9406467],[3.9351184,50.9410709],[3.9345766,50.9417892],[3.934515,50.9418689]]}},{"type":"Feature","id":"way/457961812","properties":{"source":"OpenStreetMap","source_id":"way/457961812","kind":"waterway","waterway":"stream","name":"Kokelaarbeek"},"geometry":{"type":"LineString","coordinates":[[3.9395467,50.9436857],[3.9400535,50.9438179],[3.9400579,50.9439105],[3.9402478,50.943983],[3.9404345,50.9440424],[3.9408674,50.9441739],[3.9410183,50.9441439],[3.9411149,50.9441214],[3.941421,50.9442367],[3.9417632,50.9443635],[3.9419215,50.944288],[3.9419805,50.9442864],[3.9420208,50.9442948],[3.9420677,50.9443227],[3.9420892,50.9443827],[3.9421183,50.9444029],[3.9425276,50.9445267],[3.9427526,50.9446178],[3.9430508,50.9446811]]}},{"type":"Feature","id":"way/457961832","properties":{"source":"OpenStreetMap","source_id":"way/457961832","kind":"waterway","waterway":"stream","name":"Molenbeek"},"geometry":{"type":"LineString","coordinates":[[3.938398,50.9431659],[3.9395467,50.9436857]]}}]}