{"type":"FeatureCollection","features":[{"type":"Feature","id":"gebouw/Gebouw.12866285/0","properties":{"source":"Digitaal Vlaanderen Gebouwenregister","source_id":"gebouw/Gebouw.12866285/0","kind":"building","building":"official","height_m":8.85,"status":null},"geometry":{"type":"Polygon","coordinates":[[[3.94047292,50.94870848],[3.94043438,50.94874609],[3.94037766,50.94872416],[3.94041786,50.94868475],[3.94047292,50.94870848]]]}},{"type":"Feature","id":"gebouw/Gebouw.12910458/0","properties":{"source":"Digitaal Vlaanderen Gebouwenregister","source_id":"gebouw/Gebouw.12910458/0","kind":"building","building":"official","height_m":5.1,"status":null},"geometry":{"type":"Polygon","coordinates":[[[3.93691736,50.94906865],[3.93650602,50.94914703],[3.93644299,50.94901368],[3.93634815,50.94903308],[3.93627862,50.94888901],[3.93627393,50.9488793],[3.93628896,50.9488765],[3.93632933,50.94886896],[3.93631831,50.94884682],[3.93635983,50.94883776],[3.93634088,50.94879768],[3.93628366,50.94867662],[3.93635013,50.94866408],[3.93638694,50.94874196],[3.93639656,50.94876232],[3.9366019,50.94872359],[3.93662999,50.94878301],[3.93676796,50.94875698],[3.93691736,50.94906865]]]}},{"type":"Feature","id":"gebouw/Gebouw.12915213/0","properties":{"source":"Digitaal Vlaanderen Gebouwenregister","source_id":"gebouw/Gebouw.12915213/0","kind":"building","building":"official","height_m":7.35,"status":null},"geometry":{"type":"Polygon","coordinates":[[[3.94019467,50.94927416],[3.94018101,50.9492894],[3.94009067,50.94925863],[3.94016783,50.94917053],[3.94018087,50.94917509],[3.94018708,50.949168],[3.94020975,50.94914198],[3.94028835,50.94916957],[3.94019467,50.94927416]]]}},{"type":"Feature","id":"gebouw/Gebouw.12917887/0","properties":{"source":"Digitaal Vlaanderen Gebouwenregister","source_id":"gebouw/Gebouw.12917887/0","kind":"building","building":"official","height_m":5.85,"status":null},"geometry":{"type":"Polygon","coordinates":[[[3.93939948,50.94858245],[3.93936305,50.94862326],[3.9393293,50.94861073],[3.93936633,50.94857053],[3.93939948,50.94858245]]]}},{"type":"Feature","id":"gebouw/Gebouw.12935801/0","properties":{"source":"Digitaal Vlaanderen Gebouwenregister","source_id":"gebouw/Gebouw.12935801/0","kind":"building","building":"official","height_m":8.85,"status":null},"geometry":{"type":"Polygon","coordinates":[[[3.93774524,50.94908106],[3.93775226,50.94907974],[3.93777922,50.94913702],[3.93787967,50.94912016],[3.93791471,50.94919386],[3.93770905,50.94923313],[3.93764044,50.94910083],[3.93764803,50.9490994],[3.93774524,50.94908106]]]}},{"type":"Feature","id":"gebouw/Gebouw.12955222/0","properties":{"source":"Digitaal Vlaanderen Gebouwenregister","source_id":"gebouw/Gebouw.12955222/0","kind":"building","building":"official","height_m":8.1,"status":null},"geometry":{"type":"Polygon","coordinates":[[[3.939938,50.94931609],[3.94001387,50.94934484],[3.93995307,50.94941159],[3.93987836,50.94938261],[3.939938,50.94931609]]]}},{"type":"Feature","id":"gebouw/Gebouw.12996873/0","properties":{"source":"Digitaal Vlaanderen Gebouwenregister","source_id":"gebouw/Gebouw.12996873/0","kind":"building","building":"official","height_m":7.35,"status":null},"geometry":{"type":"Polygon","coordinates":[[[3.93798945,50.94900668],[3.93792608,50.94898429],[3.93798534,50.94891581],[3.93804975,50.94893924],[3.93798945,50.94900668]]]}},{"type":"Feature","id":"gebouw/Gebouw.13218138/0","properties":{"source":"Digitaal Vlaanderen Gebouwenregister","source_id":"gebouw/Gebouw.13218138/0","kind":"building","building":"official","height_m":5.1,"status":null},"geometry":{"type":"Polygon","coordinates":[[[3.93715462,50.9490005],[3.93697086,50.94903542],[3.93684374,50.9487568],[3.9368384,50.9487451],[3.93680088,50.9487005],[3.93686594,50.94868044],[3.93690848,50.94872201],[3.9369337,50.94871714],[3.93696006,50.94877494],[3.93698186,50.94877277],[3.93700285,50.9488197],[3.93699046,50.94882173],[3.93698387,50.94882282],[3.93699864,50.94885457],[3.93701486,50.94885097],[3.93702965,50.94887759],[3.93699231,50.94888587],[3.93699866,50.9488973],[3.93703444,50.94888937],[3.93703199,50.94888496],[3.93706576,50.94887747],[3.93707584,50.94889562],[3.93710172,50.94888988],[3.93715462,50.9490005]]]}},{"type":"Feature","id":"gebouw/Gebouw.13237313/0","properties":{"source":"Digitaal Vlaanderen Gebouwenregister","source_id":"gebouw/Gebouw.13237313/0","kind":"building","building":"official","height_m":8.85,"status":null},"geometry":{"type":"Polygon","coordinates":[[[3.93741023,50.94922826],[3.93738874,50.94918271],[3.93748298,50.9491659],[3.93747756,50.94915405],[3.93745763,50.949157],[3.93744111,50.94912175],[3.93753537,50.94910465],[3.93759994,50.94925254],[3.93751841,50.94926711],[3.93751094,50.94925166],[3.93742832,50.94926658],[3.93742538,50.94926037],[3.93741023,50.94922826]]]}},{"type":"Feature","id":"gebouw/Gebouw.13240888/0","properties":{"source":"Digitaal Vlaanderen Gebouwenregister","source_id":"gebouw/Gebouw.13240888/0","kind":"building","building":"official","height_m":8.1,"status":null},"geometry":{"type":"Polygon","coordinates":[[[3.93969745,50.94889635],[3.93967381,50.94883795],[3.93972223,50.94882985],[3.93974529,50.94888868],[3.93969745,50.94889635]]]}},{"type":"Feature","id":"gebouw/Gebouw.13252061/0","properties":{"source":"Digitaal Vlaanderen Gebouwenregister","source_id":"gebouw/Gebouw.13252061/0","kind":"building","building":"official","height_m":8.85,"status":null},"geometry":{"type":"Polygon","coordinates":[[[3.93949888,50.94830084],[3.93940713,50.9482656],[3.93942726,50.948243],[3.93952092,50.94827829],[3.93949888,50.94830084]]]}},{"type":"Feature","id":"gebouw/Gebouw.13254283/0","properties":{"source":"Digitaal Vlaanderen Gebouwenregister","source_id":"gebouw/Gebouw.13254283/0","kind":"building","building":"official","height_m":5.85,"status":null},"geometry":{"type":"Polygon","coordinates":[[[3.93686839,50.94770963],[3.93694819,50.94763166],[3.93715394,50.94770398],[3.93713414,50.94772646],[3.93721934,50.9477564],[3.93716764,50.94781613],[3.93686839,50.94770963]]]}},{"type":"Feature","id":"gebouw/Gebouw.13266136/0","properties":{"source":"Digitaal Vlaanderen Gebouwenregister","source_id":"gebouw/Gebouw.13266136/0","kind":"building","building":"official","height_m":8.1,"status":null},"geometry":{"type":"Polygon","coordinates":[[[3.93937191,50.94888284],[3.93935145,50.94884409],[3.9393234,50.94885069],[3.93929422,50.94879743],[3.93935051,50.94878514],[3.93934513,50.94877477],[3.93950109,50.94874259],[3.93950691,50.94875343],[3.93951287,50.9487522],[3.93955516,50.948835],[3.93943113,50.94886107],[3.93943557,50.94886959],[3.93937191,50.94888284]]]}},{"type":"Feature","id":"gebouw/Gebouw.13267583/0","properties":{"source":"Digitaal Vlaanderen Gebouwenregister","source_id":"gebouw/Gebouw.13267583/0","kind":"building","building":"official","height_m":8.85,"status":null},"geometry":{"type":"Polygon","coordinates":[[[3.9374435,50.94911345],[3.93742763,50.94907988],[3.93751443,50.94906398],[3.93753047,50.94909922],[3.9374435,50.94911345]]]}},{"type":"Feature","id":"gebouw/Gebouw.13293042/0","properties":{"source":"Digitaal Vlaanderen Gebouwenregister","source_id":"gebouw/Gebouw.13293042/0","kind":"building","building":"official","height_m":5.1,"status":null},"geometry":{"type":"Polygon","coordinates":[[[3.94037374,50.9492761],[3.94027289,50.94938186],[3.94022954,50.94936573],[3.9402651,50.94932765],[3.94024452,50.9493204],[3.94026437,50.94926087],[3.94033191,50.94918494],[3.94042829,50.94921889],[3.94037728,50.94927239],[3.94037374,50.9492761]]]}},{"type":"Feature","id":"gebouw/Gebouw.13302742/0","properties":{"source":"Digitaal Vlaanderen Gebouwenregister","source_id":"gebouw/Gebouw.13302742/0","kind":"building","building":"official","height_m":8.1,"status":null},"geometry":{"type":"Polygon","coordinates":[[[3.93615722,50.94906675],[3.93617078,50.94902045],[3.93625341,50.94903131],[3.9362387,50.94907652],[3.93615722,50.94906675]]]}},{"type":"Feature","id":"gebouw/Gebouw.13326353/0","properties":{"source":"Digitaal Vlaanderen Gebouwenregister","source_id":"gebouw/Gebouw.13326353/0","kind":"building","building":"official","height_m":8.85,"status":null},"geometry":{"type":"Polygon","coordinates":[[[3.94019467,50.94927416],[3.94023905,50.94928962],[3.94018697,50.94934963],[3.94014136,50.94933368],[3.94018101,50.9492894],[3.94019467,50.94927416]]]}},{"type":"Feature","id":"gebouw/Gebouw.13336158/0","properties":{"source":"Digitaal Vlaanderen Gebouwenregister","source_id":"gebouw/Gebouw.13336158/0","kind":"building","building":"official","height_m":5.1,"status":null},"geometry":{"type":"Polygon","coordinates":[[[3.93946245,50.94866444],[3.93936156,50.94862492],[3.93936305,50.94862326],[3.93939948,50.94858245],[3.93954219,50.9484226],[3.93957747,50.94838309],[3.93960959,50.94834712],[3.93977947,50.9484162],[3.93965129,50.94855434],[3.93958302,50.94852827],[3.93946245,50.94866444]]]}},{"type":"Feature","id":"gebouw/Gebouw.13357038/0","properties":{"source":"Digitaal Vlaanderen Gebouwenregister","source_id":"gebouw/Gebouw.13357038/0","kind":"building","building":"official","height_m":5.1,"status":null},"geometry":{"type":"Polygon","coordinates":[[[3.94231526,50.94914841],[3.94229748,50.94916573],[3.94236813,50.94919466],[3.94235702,50.94920549],[3.94242418,50.949233],[3.94231024,50.94934401],[3.94169761,50.9490931],[3.94168646,50.94910272],[3.94168382,50.949105],[3.94159953,50.94906837],[3.94159321,50.94907461],[3.94158769,50.94907267],[3.94158,50.94906957],[3.94157267,50.94906614],[3.94156573,50.9490624],[3.94155923,50.94905836],[3.94155319,50.94905405],[3.94154763,50.94904948],[3.94154473,50.9490467],[3.9415426,50.94904467],[3.94153811,50.94903966],[3.94153418,50.94903446],[3.94153084,50.9490291],[3.9415281,50.9490236],[3.94152597,50.949018],[3.94152446,50.94901231],[3.94147391,50.94901421],[3.94148259,50.94897567],[3.94157297,50.94896705],[3.94158343,50.94895446],[3.94161332,50.94893547],[3.94165239,50.94892472],[3.94168387,50.9489236],[3.9416865,50.9489238],[3.9417266,50.94893552],[3.9417438,50.94891891],[3.94172162,50.94890975],[3.941725,50.94890648],[3.94174515,50.94891478],[3.94176822,50.94889555],[3.94183512,50.94892803],[3.941818,50.94894377],[3.94231526,50.94914841]]]}},{"type":"Feature","id":"gebouw/Gebouw.13385449/0","properties":{"source":"Digitaal Vlaanderen Gebouwenregister","source_id":"gebouw/Gebouw.13385449/0","kind":"building","building":"official","height_m":5.85,"status":null},"geometry":{"type":"Polygon","coordinates":[[[3.94030559,50.94938693],[3.94033879,50.94939884],[3.94030165,50.94943944],[3.94025718,50.94942427],[3.94026896,50.94941022],[3.94025231,50.94940345],[3.9402729,50.94938186],[3.94037728,50.94927239],[3.94042829,50.94921889],[3.9404646,50.94918081],[3.94042748,50.9491052],[3.94055592,50.94907974],[3.94057583,50.94911968],[3.94053074,50.949128],[3.94054991,50.94916445],[3.94050167,50.9491736],[3.94051094,50.94919521],[3.9404195,50.94928794],[3.94038941,50.94931845],[3.94037282,50.94931235],[3.94030559,50.94938693]]]}},{"type":"Feature","id":"gebouw/Gebouw.13394947/0","properties":{"source":"Digitaal Vlaanderen Gebouwenregister","source_id":"gebouw/Gebouw.13394947/0","kind":"building","building":"official","height_m":5.85,"status":null},"geometry":{"type":"Polygon","coordinates":[[[3.93767534,50.94900278],[3.9376161,50.94891073],[3.93776069,50.94887223],[3.93782206,50.94896448],[3.93767534,50.94900278]]]}},{"type":"Feature","id":"gebouw/Gebouw.13407289/0","properties":{"source":"Digitaal Vlaanderen Gebouwenregister","source_id":"gebouw/Gebouw.13407289/0","kind":"building","building":"official","height_m":5.85,"status":null},"geometry":{"type":"Polygon","coordinates":[[[3.93961676,50.94834999],[3.93965541,50.94830526],[3.9396958,50.94832079],[3.93965718,50.94836615],[3.93961676,50.94834999]]]}},{"type":"Feature","id":"gebouw/Gebouw.13413614/0","properties":{"source":"Digitaal Vlaanderen Gebouwenregister","source_id":"gebouw/Gebouw.13413614/0","kind":"building","building":"official","height_m":6.6,"status":null},"geometry":{"type":"Polygon","coordinates":[[[3.93683416,50.94865216],[3.93705358,50.9484231],[3.93701153,50.94840381],[3.93710089,50.94831625],[3.93737927,50.94842389],[3.93733455,50.94846857],[3.93729148,50.94845107],[3.93724911,50.94849127],[3.93730009,50.94851329],[3.93725371,50.94855778],[3.9372268,50.94854695],[3.93705119,50.94872101],[3.93696182,50.94868491],[3.93702688,50.94862703],[3.93699545,50.94861507],[3.93703319,50.94857846],[3.93705349,50.94858622],[3.93713241,50.94850897],[3.93708226,50.94848879],[3.93689837,50.94867802],[3.93683416,50.94865216]]]}},{"type":"Feature","id":"gebouw/Gebouw.13415750/0","properties":{"source":"Digitaal Vlaanderen Gebouwenregister","source_id":"gebouw/Gebouw.13415750/0","kind":"building","building":"official","height_m":6.6,"status":null},"geometry":{"type":"Polygon","coordinates":[[[3.93885855,50.94849488],[3.93862394,50.94875638],[3.93864021,50.9487622],[3.93858661,50.94882049],[3.93857133,50.94881503],[3.93850525,50.94888867],[3.93823129,50.94879407],[3.93832756,50.94868596],[3.9383555,50.94869617],[3.93848613,50.94855032],[3.93845739,50.94854017],[3.93858465,50.94839726],[3.93885855,50.94849488]]]}},{"type":"Feature","id":"gebouw/Gebouw.13417646/0","properties":{"source":"Digitaal Vlaanderen Gebouwenregister","source_id":"gebouw/Gebouw.13417646/0","kind":"building","building":"official","height_m":6.6,"status":null},"geometry":{"type":"Polygon","coordinates":[[[3.93632912,50.94912516],[3.93624734,50.94910921],[3.93624701,50.94910993],[3.93622912,50.94914818],[3.93623985,50.94915039],[3.93630919,50.94916455],[3.93631086,50.9491649],[3.93632234,50.94913992],[3.93632839,50.94912675],[3.93632912,50.94912516]]]}},{"type":"Feature","id":"gebouw/Gebouw.13438681/0","properties":{"source":"Digitaal Vlaanderen Gebouwenregister","source_id":"gebouw/Gebouw.13438681/0","kind":"building","building":"official","height_m":5.85,"status":null},"geometry":{"type":"Polygon","coordinates":[[[3.93757094,50.94893832],[3.93754647,50.94896258],[3.93749021,50.94894137],[3.93751564,50.94891554],[3.93757094,50.94893832]]]}},{"type":"Feature","id":"gebouw/Gebouw.13443785/0","properties":{"source":"Digitaal Vlaanderen Gebouwenregister","source_id":"gebouw/Gebouw.13443785/0","kind":"building","building":"official","height_m":8.85,"status":null},"geometry":{"type":"Polygon","coordinates":[[[3.93957747,50.94838309],[3.93954219,50.9484226],[3.93951345,50.94841169],[3.93955117,50.948373],[3.93957747,50.94838309]]]}},{"type":"Feature","id":"gebouw/Gebouw.13503267/0","properties":{"source":"Digitaal Vlaanderen Gebouwenregister","source_id":"gebouw/Gebouw.13503267/0","kind":"building","building":"official","height_m":7.35,"status":null},"geometry":{"type":"Polygon","coordinates":[[[3.93731631,50.94927574],[3.93723298,50.94929222],[3.93724528,50.94931799],[3.93715792,50.94933489],[3.93710535,50.94922921],[3.93719522,50.94921003],[3.93719737,50.94921487],[3.93727078,50.94920075],[3.93728005,50.94922337],[3.93729176,50.94922087],[3.93731631,50.94927574]]]}},{"type":"Feature","id":"gebouw/Gebouw.13546286/0","properties":{"source":"Digitaal Vlaanderen Gebouwenregister","source_id":"gebouw/Gebouw.13546286/0","kind":"building","building":"official","height_m":6.6,"status":null},"geometry":{"type":"Polygon","coordinates":[[[3.94130744,50.94912097],[3.94134429,50.94908433],[3.94136926,50.94909435],[3.9413847,50.94907899],[3.94141611,50.94904834],[3.94155586,50.94910529],[3.94154986,50.94911231],[3.94155453,50.94911407],[3.94155739,50.94912664],[3.94153439,50.94914933],[3.94151707,50.9491518],[3.94151101,50.9491494],[3.94148727,50.94917238],[3.94146114,50.94916199],[3.94144613,50.94917838],[3.94130744,50.94912097]]]}},{"type":"Feature","id":"gebouw/Gebouw.13571654/0","properties":{"source":"Digitaal Vlaanderen Gebouwenregister","source_id":"gebouw/Gebouw.13571654/0","kind":"building","building":"official","height_m":6.6,"status":null},"geometry":{"type":"Polygon","coordinates":[[[3.93960305,50.9483445],[3.93957,50.94832989],[3.93962853,50.94827395],[3.9396642,50.94828862],[3.93960305,50.9483445]]]}},{"type":"Feature","id":"gebouw/Gebouw.13665528/0","properties":{"source":"Digitaal Vlaanderen Gebouwenregister","source_id":"gebouw/Gebouw.13665528/0","kind":"building","building":"official","height_m":5.1,"status":null},"geometry":{"type":"Polygon","coordinates":[[[3.93540596,50.94917114],[3.93537788,50.94915595],[3.93532966,50.94911546],[3.93535273,50.9491045],[3.93540098,50.94914497],[3.93542192,50.94915371],[3.93540596,50.94917114]]]}},{"type":"Feature","id":"gebouw/Gebouw.13675899/0","properties":{"source":"Digitaal Vlaanderen Gebouwenregister","source_id":"gebouw/Gebouw.13675899/0","kind":"building","building":"official","height_m":7.35,"status":null},"geometry":{"type":"Polygon","coordinates":[[[3.93632927,50.94912693],[3.93631297,50.94915747],[3.93630912,50.9491647],[3.93622693,50.94914772],[3.93623032,50.94914118],[3.93624655,50.94910984],[3.93632927,50.94912693]]]}},{"type":"Feature","id":"gebouw/Gebouw.16653699/0","properties":{"source":"Digitaal Vlaanderen Gebouwenregister","source_id":"gebouw/Gebouw.16653699/0","kind":"building","building":"official","height_m":7.35,"status":null},"geometry":{"type":"Polygon","coordinates":[[[3.94105909,50.94915631],[3.94101645,50.94913409],[3.9410538,50.94910238],[3.94109661,50.94912581],[3.94105909,50.94915631]]]}},{"type":"Feature","id":"gebouw/Gebouw.16694802/0","properties":{"source":"Digitaal Vlaanderen Gebouwenregister","source_id":"gebouw/Gebouw.16694802/0","kind":"building","building":"official","height_m":5.1,"status":null},"geometry":{"type":"Polygon","coordinates":[[[3.9384562,50.94905488],[3.93839983,50.94893636],[3.93832516,50.94894751],[3.93834124,50.94898408],[3.93826327,50.94899909],[3.93825424,50.94898072],[3.93809472,50.94901022],[3.93814089,50.94911193],[3.93825272,50.9490917],[3.93830417,50.94908239],[3.93834947,50.94907419],[3.9384562,50.94905488]]]}},{"type":"Feature","id":"gebouw/Gebouw.16702556/0","properties":{"source":"Digitaal Vlaanderen Gebouwenregister","source_id":"gebouw/Gebouw.16702556/0","kind":"building","building":"official","height_m":6.6,"status":null},"geometry":{"type":"Polygon","coordinates":[[[3.93858162,50.9489861],[3.93853253,50.9489697],[3.93857626,50.94892048],[3.93862389,50.94893761],[3.93858162,50.9489861]]]}},{"type":"Feature","id":"gebouw/Gebouw.16739702/0","properties":{"source":"Digitaal Vlaanderen Gebouwenregister","source_id":"gebouw/Gebouw.16739702/0","kind":"building","building":"official","height_m":6.6,"status":null},"geometry":{"type":"Polygon","coordinates":[[[3.9400731,50.94860467],[3.94005458,50.94856958],[3.94009551,50.94855891],[3.94011687,50.94859436],[3.9400731,50.94860467]]]}},{"type":"Feature","id":"gebouw/Gebouw.19712903/0","properties":{"source":"Digitaal Vlaanderen Gebouwenregister","source_id":"gebouw/Gebouw.19712903/0","kind":"building","building":"official","height_m":8.85,"status":null},"geometry":{"type":"Polygon","coordinates":[[[3.94042748,50.9491052],[3.94055592,50.94907974],[3.94057583,50.94911968],[3.94053074,50.949128],[3.94054991,50.94916445],[3.94050167,50.94917361],[3.94051094,50.94919521],[3.9404155,50.94929199],[3.94037374,50.9492761],[3.94037728,50.94927239],[3.94042829,50.94921889],[3.9404646,50.94918081],[3.94042748,50.9491052]]]}},{"type":"Feature","id":"gebouw/Gebouw.19712904/0","properties":{"source":"Digitaal Vlaanderen Gebouwenregister","source_id":"gebouw/Gebouw.19712904/0","kind":"building","building":"official","height_m":5.1,"status":null},"geometry":{"type":"Polygon","coordinates":[[[3.9404155,50.94929199],[3.94038941,50.94931845],[3.94037282,50.94931235],[3.94030559,50.94938693],[3.94033879,50.94939884],[3.94030165,50.94943944],[3.94025718,50.94942427],[3.94026896,50.94941022],[3.94025231,50.94940345],[3.94027289,50.94938186],[3.94037374,50.9492761],[3.9404155,50.94929199]]]}},{"type":"Feature","id":"gebouw/Gebouw.19954990/0","properties":{"source":"Digitaal Vlaanderen Gebouwenregister","source_id":"gebouw/Gebouw.19954990/0","kind":"building","building":"official","height_m":8.1,"status":null},"geometry":{"type":"Polygon","coordinates":[[[3.93578388,50.94832904],[3.93574128,50.94831066],[3.93581182,50.94822905],[3.93585726,50.94824485],[3.93578388,50.94832904]]]}},{"type":"Feature","id":"gebouw/Gebouw.19954991/0","properties":{"source":"Digitaal Vlaanderen Gebouwenregister","source_id":"gebouw/Gebouw.19954991/0","kind":"building","building":"official","height_m":8.85,"status":null},"geometry":{"type":"Polygon","coordinates":[[[3.93599779,50.94841944],[3.93601736,50.94839572],[3.93605735,50.94840888],[3.93605485,50.94841191],[3.93605945,50.94841343],[3.93607668,50.94839255],[3.93611137,50.94840398],[3.93609359,50.94842553],[3.93608866,50.94842391],[3.93607214,50.94844392],[3.93599779,50.94841944]]]}},{"type":"Feature","id":"gebouw/Gebouw.19954992/0","properties":{"source":"Digitaal Vlaanderen Gebouwenregister","source_id":"gebouw/Gebouw.19954992/0","kind":"building","building":"official","height_m":5.1,"status":null},"geometry":{"type":"Polygon","coordinates":[[[3.93674889,50.94868033],[3.93677372,50.94865731],[3.93677706,50.94865875],[3.93679865,50.94863875],[3.93683116,50.94865275],[3.93681144,50.94867102],[3.93681618,50.94867306],[3.93678948,50.9486978],[3.93674889,50.94868033]]]}},{"type":"Feature","id":"gebouw/Gebouw.19954993/0","properties":{"source":"Digitaal Vlaanderen Gebouwenregister","source_id":"gebouw/Gebouw.19954993/0","kind":"building","building":"official","height_m":5.85,"status":null},"geometry":{"type":"Polygon","coordinates":[[[3.93723076,50.94834957],[3.93727137,50.94830215],[3.93729553,50.94831152],[3.93732579,50.94827789],[3.93736504,50.94829059],[3.93735577,50.94830191],[3.9374047,50.94831817],[3.93738925,50.94833684],[3.93740666,50.94834331],[3.93739424,50.94835985],[3.93739186,50.94835796],[3.9373559,50.94839955],[3.93723076,50.94834957]]]}},{"type":"Feature","id":"gebouw/Gebouw.19956315/0","properties":{"source":"Digitaal Vlaanderen Gebouwenregister","source_id":"gebouw/Gebouw.19956315/0","kind":"building","building":"official","height_m":7.35,"status":null},"geometry":{"type":"Polygon","coordinates":[[[3.93740827,50.9492241],[3.93738874,50.94918271],[3.93739209,50.94918217],[3.93737327,50.9491363],[3.93744589,50.94912441],[3.93742763,50.94907988],[3.93751443,50.94906398],[3.93759994,50.94925254],[3.93751841,50.94926711],[3.93751094,50.94925166],[3.93742832,50.94926658],[3.93742538,50.94926037],[3.93741023,50.94922826],[3.93740827,50.9492241]]]}},{"type":"Feature","id":"gebouw/Gebouw.19956318/0","properties":{"source":"Digitaal Vlaanderen Gebouwenregister","source_id":"gebouw/Gebouw.19956318/0","kind":"building","building":"official","height_m":5.1,"status":null},"geometry":{"type":"Polygon","coordinates":[[[3.94037374,50.9492761],[3.94027289,50.94938186],[3.94022954,50.94936573],[3.9402651,50.94932765],[3.9402197,50.94931192],[3.94018697,50.94934963],[3.94014136,50.94933368],[3.94018101,50.9492894],[3.94019467,50.94927416],[3.94023905,50.94928962],[3.94033191,50.94918494],[3.94042829,50.94921889],[3.94037728,50.94927239],[3.94037374,50.9492761]]]}},{"type":"Feature","id":"gebouw/Gebouw.20802231/0","properties":{"source":"Digitaal Vlaanderen Gebouwenregister","source_id":"gebouw/Gebouw.20802231/0","kind":"building","building":"official","height_m":7.35,"status":null},"geometry":{"type":"Polygon","coordinates":[[[3.94171867,50.94791744],[3.94166199,50.94789903],[3.94170196,50.94784994],[3.94175863,50.94786835],[3.94171867,50.94791744]]]}},{"type":"Feature","id":"gebouw/Gebouw.31844622/0","properties":{"source":"Digitaal Vlaanderen Gebouwenregister","source_id":"gebouw/Gebouw.31844622/0","kind":"building","building":"official","height_m":5.1,"status":null},"geometry":{"type":"Polygon","coordinates":[[[3.93984564,50.94950294],[3.93989985,50.94944388],[3.93985742,50.94942833],[3.93980321,50.9494874],[3.93984564,50.94950294]]]}},{"type":"Feature","id":"way/175459038","properties":{"source":"OpenStreetMap","source_id":"way/175459038","kind":"vegetation","landuse":"forest","natural":null,"name":"Natuurgebied Geelstervallei"},"geometry":{"type":"Polygon","coordinates":[[[3.9420679,50.9519397],[3.9424317,50.9515288],[3.9418758,50.9513436],[3.9411912,50.9510375],[3.9410208,50.9509401],[3.9398172,50.950448],[3.9397012,50.9504086],[3.9391926,50.950864],[3.9390052,50.9507825],[3.9394157,50.9503412],[3.9391257,50.9503412],[3.9389517,50.9502906],[3.9388312,50.9502456],[3.9386126,50.9504424],[3.9383672,50.9503468],[3.938559,50.9501472],[3.9382556,50.9500404],[3.9380871,50.9499406],[3.9411864,50.9493418],[3.9409828,50.949569],[3.9409232,50.9496355],[3.9406467,50.9499434],[3.9410441,50.9500962],[3.9407417,50.9503689],[3.9404703,50.9506077],[3.9412897,50.9508676],[3.9419707,50.9502251],[3.9428466,50.9505601],[3.9420017,50.9513582],[3.9424276,50.9514806],[3.9431311,50.9517549],[3.9428156,50.9519775],[3.9423361,50.9517986],[3.9421436,50.9519755],[3.9420679,50.9519397]]]}},{"type":"Feature","id":"way/198173755","properties":{"source":"OpenStreetMap","source_id":"way/198173755","kind":"vegetation","landuse":"forest","natural":null,"name":"Natuurgebied Geelstervallei"},"geometry":{"type":"Polygon","coordinates":[[[3.9292749,50.9491193],[3.9295393,50.9483784],[3.9300473,50.9484529],[3.9304022,50.9485231],[3.9304857,50.9486721],[3.9305553,50.9488475],[3.9306388,50.9490536],[3.930771,50.9491983],[3.9308406,50.9493386],[3.9308634,50.9495987],[3.9317799,50.9495313],[3.9313759,50.9502736],[3.9320933,50.9501935],[3.9322402,50.9499393],[3.9324236,50.9496173],[3.9331799,50.9497656],[3.9332758,50.9497187],[3.9333153,50.9497421],[3.9339949,50.9491716],[3.9336446,50.9490196],[3.9335387,50.9489045],[3.9338452,50.9484928],[3.9328868,50.9482497],[3.9332972,50.9476094],[3.9334032,50.9476381],[3.9336952,50.9472307],[3.9324617,50.9468033],[3.9324715,50.9467765],[3.9316243,50.9466768],[3.9311666,50.9478574],[3.9309667,50.9478374],[3.9311895,50.9470406],[3.9303037,50.94696],[3.9300797,50.9477133],[3.9304117,50.9477637],[3.9302187,50.9483536],[3.9295228,50.9482835],[3.9293279,50.9482571],[3.9291192,50.9481914],[3.9283641,50.9481366],[3.928211,50.9484829],[3.9286011,50.9485733],[3.928565,50.9486318],[3.9289554,50.9486775],[3.9288078,50.9490433],[3.9292749,50.9491193]]]}},{"type":"Feature","id":"way/457952608","properties":{"source":"OpenStreetMap","source_id":"way/457952608","kind":"waterway","waterway":"stream","name":"Zijpbeek"},"geometry":{"type":"LineString","coordinates":[[3.9380381,50.9499076],[3.9381586,50.949924]]}}]}