{"type":"FeatureCollection","features":[{"type":"Feature","id":"gebouw/Gebouw.12866533/0","properties":{"source":"Digitaal Vlaanderen Gebouwenregister","source_id":"gebouw/Gebouw.12866533/0","kind":"building","building":"official","height_m":5.85,"status":null},"geometry":{"type":"Polygon","coordinates":[[[3.94056497,50.90586625],[3.94055933,50.90586338],[3.94052971,50.90589005],[3.94049347,50.90587396],[3.94052242,50.9058479],[3.94047915,50.90582868],[3.94052853,50.90578422],[3.94052458,50.90578247],[3.94055079,50.90575888],[3.94055952,50.90576276],[3.94062525,50.90570358],[3.94057961,50.90568332],[3.9405765,50.90568611],[3.94049336,50.90564919],[3.94045214,50.9056863],[3.94045161,50.90568606],[3.940361,50.90576765],[3.94048122,50.90582102],[3.94038315,50.90590932],[3.94030694,50.90587548],[3.94029837,50.9058832],[3.94022759,50.90585177],[3.94026303,50.90581987],[3.94018166,50.9057844],[3.94042933,50.90553152],[3.9406451,50.90562912],[3.94067866,50.90564429],[3.94069807,50.90565307],[3.94076074,50.90568142],[3.94074028,50.90569896],[3.94070257,50.90573128],[3.94071417,50.9057369],[3.94056497,50.90586625]]]}},{"type":"Feature","id":"gebouw/Gebouw.12901025/0","properties":{"source":"Digitaal Vlaanderen Gebouwenregister","source_id":"gebouw/Gebouw.12901025/0","kind":"building","building":"official","height_m":8.85,"status":null},"geometry":{"type":"Polygon","coordinates":[[[3.9391321,50.90671589],[3.93908445,50.90670898],[3.93909109,50.90669069],[3.93912208,50.90669519],[3.93913002,50.90667331],[3.93909903,50.90666881],[3.93910417,50.90665463],[3.93837141,50.9065483],[3.93833528,50.90664784],[3.93911571,50.90676108],[3.9391321,50.90671589]]]}},{"type":"Feature","id":"gebouw/Gebouw.12901077/0","properties":{"source":"Digitaal Vlaanderen Gebouwenregister","source_id":"gebouw/Gebouw.12901077/0","kind":"building","building":"official","height_m":7.35,"status":null},"geometry":{"type":"Polygon","coordinates":[[[3.93841711,50.90481195],[3.93840812,50.9048223],[3.93830881,50.90478269],[3.93839558,50.90469497],[3.93841167,50.90470148],[3.93843477,50.90471081],[3.93847555,50.90472728],[3.93847488,50.90472808],[3.93847832,50.90474023],[3.93847971,50.90474096],[3.93844193,50.90477709],[3.93844717,50.90477924],[3.93841711,50.90481195]]]}},{"type":"Feature","id":"gebouw/Gebouw.12910753/0","properties":{"source":"Digitaal Vlaanderen Gebouwenregister","source_id":"gebouw/Gebouw.12910753/0","kind":"building","building":"official","height_m":5.85,"status":null},"geometry":{"type":"Polygon","coordinates":[[[3.93831475,50.90466164],[3.93822386,50.90474853],[3.93812625,50.90470927],[3.93809418,50.90469637],[3.9381367,50.90465379],[3.93817622,50.90467011],[3.93820761,50.90464001],[3.9382195,50.90464487],[3.93825348,50.90461229],[3.93833027,50.90464442],[3.938332,50.90464514],[3.93831475,50.90466164]]]}},{"type":"Feature","id":"gebouw/Gebouw.12933833/0","properties":{"source":"Digitaal Vlaanderen Gebouwenregister","source_id":"gebouw/Gebouw.12933833/0","kind":"building","building":"official","height_m":8.85,"status":null},"geometry":{"type":"Polygon","coordinates":[[[3.93781289,50.90061803],[3.9377203,50.90058527],[3.93774715,50.90055483],[3.93775151,50.90054987],[3.93774361,50.90054709],[3.93780845,50.90047335],[3.93789542,50.90050347],[3.93790386,50.90049375],[3.93797573,50.9005191],[3.93797241,50.90052302],[3.93800141,50.90053219],[3.93793472,50.90061433],[3.93791425,50.90060722],[3.93789341,50.90063289],[3.93784687,50.90061673],[3.93783857,50.90062695],[3.93781289,50.90061803]]]}},{"type":"Feature","id":"gebouw/Gebouw.12960772/0","properties":{"source":"Digitaal Vlaanderen Gebouwenregister","source_id":"gebouw/Gebouw.12960772/0","kind":"building","building":"official","height_m":8.1,"status":null},"geometry":{"type":"Polygon","coordinates":[[[3.93658844,50.90116964],[3.93659385,50.90116441],[3.93656724,50.90115413],[3.93658711,50.90113357],[3.93661488,50.90114648],[3.93662179,50.90113994],[3.93677072,50.90120344],[3.93673662,50.90123413],[3.9367193,50.90122659],[3.93664591,50.90119465],[3.93660385,50.90117635],[3.93658844,50.90116964]]]}},{"type":"Feature","id":"gebouw/Gebouw.12996962/0","properties":{"source":"Digitaal Vlaanderen Gebouwenregister","source_id":"gebouw/Gebouw.12996962/0","kind":"building","building":"official","height_m":6.6,"status":null},"geometry":{"type":"Polygon","coordinates":[[[3.93776181,50.90137322],[3.93767196,50.90133557],[3.93770922,50.90130269],[3.93779817,50.90134053],[3.93776181,50.90137322]]]}},{"type":"Feature","id":"gebouw/Gebouw.13000743/0","properties":{"source":"Digitaal Vlaanderen Gebouwenregister","source_id":"gebouw/Gebouw.13000743/0","kind":"building","building":"official","height_m":7.35,"status":null},"geometry":{"type":"Polygon","coordinates":[[[3.93742492,50.90024967],[3.93737382,50.90033451],[3.93742711,50.90034712],[3.93740233,50.90038842],[3.93734575,50.90037517],[3.93732699,50.90041008],[3.93716757,50.90037331],[3.93720682,50.90030005],[3.93724237,50.90030812],[3.93729489,50.90021839],[3.93742492,50.90024967]]]}},{"type":"Feature","id":"gebouw/Gebouw.13023832/0","properties":{"source":"Digitaal Vlaanderen Gebouwenregister","source_id":"gebouw/Gebouw.13023832/0","kind":"building","building":"official","height_m":8.1,"status":null},"geometry":{"type":"Polygon","coordinates":[[[3.93661042,50.90048722],[3.93653605,50.90046158],[3.93655788,50.90043626],[3.93661911,50.90045738],[3.93662433,50.90045132],[3.93663747,50.90045585],[3.93661042,50.90048722]]]}},{"type":"Feature","id":"gebouw/Gebouw.13048710/0","properties":{"source":"Digitaal Vlaanderen Gebouwenregister","source_id":"gebouw/Gebouw.13048710/0","kind":"building","building":"official","height_m":5.1,"status":null},"geometry":{"type":"Polygon","coordinates":[[[3.93804379,50.90449196],[3.9379137,50.90462929],[3.93785894,50.90460873],[3.93788149,50.90458433],[3.93785298,50.90457343],[3.93795991,50.90446048],[3.93804256,50.9044915],[3.93804379,50.90449196]]]}},{"type":"Feature","id":"gebouw/Gebouw.13073682/0","properties":{"source":"Digitaal Vlaanderen Gebouwenregister","source_id":"gebouw/Gebouw.13073682/0","kind":"building","building":"official","height_m":5.1,"status":null},"geometry":{"type":"Polygon","coordinates":[[[3.93782725,50.90443961],[3.93777554,50.90448357],[3.93775695,50.90447427],[3.93772524,50.90450268],[3.9376827,50.90448337],[3.9376736,50.90449189],[3.93761559,50.9044657],[3.93759925,50.90447971],[3.93749135,50.9044315],[3.9375258,50.90440021],[3.93748227,50.90438101],[3.93750104,50.90436208],[3.93746029,50.90434524],[3.93746318,50.90434268],[3.93753341,50.90428056],[3.93753459,50.90427951],[3.9375897,50.90430383],[3.9375722,50.90431969],[3.93763061,50.90434546],[3.93770624,50.90437956],[3.93773286,50.90435585],[3.93783774,50.90440385],[3.93780715,50.90443023],[3.93782725,50.90443961]]]}},{"type":"Feature","id":"gebouw/Gebouw.13092597/0","properties":{"source":"Digitaal Vlaanderen Gebouwenregister","source_id":"gebouw/Gebouw.13092597/0","kind":"building","building":"official","height_m":7.35,"status":null},"geometry":{"type":"Polygon","coordinates":[[[3.93910405,50.90033266],[3.93892286,50.90025162],[3.93902225,50.9001628],[3.93920376,50.90024401],[3.93910405,50.90033266]]]}},{"type":"Feature","id":"gebouw/Gebouw.13099470/0","properties":{"source":"Digitaal Vlaanderen Gebouwenregister","source_id":"gebouw/Gebouw.13099470/0","kind":"building","building":"official","height_m":5.1,"status":null},"geometry":{"type":"Polygon","coordinates":[[[3.9369477,50.90146479],[3.93690437,50.90152394],[3.93674571,50.90147786],[3.93676926,50.90144543],[3.93678413,50.90144975],[3.936803,50.90142377],[3.9369477,50.90146479]]]}},{"type":"Feature","id":"gebouw/Gebouw.13104748/0","properties":{"source":"Digitaal Vlaanderen Gebouwenregister","source_id":"gebouw/Gebouw.13104748/0","kind":"building","building":"official","height_m":8.1,"status":null},"geometry":{"type":"Polygon","coordinates":[[[3.94055555,50.90592968],[3.94051893,50.90591161],[3.94059281,50.90585173],[3.94062944,50.90586981],[3.94055555,50.90592968]]]}},{"type":"Feature","id":"gebouw/Gebouw.13130222/0","properties":{"source":"Digitaal Vlaanderen Gebouwenregister","source_id":"gebouw/Gebouw.13130222/0","kind":"building","building":"official","height_m":6.6,"status":null},"geometry":{"type":"Polygon","coordinates":[[[3.9382764,50.90062417],[3.93825287,50.90064879],[3.93818527,50.90062296],[3.9382088,50.90059834],[3.9382764,50.90062417]]]}},{"type":"Feature","id":"gebouw/Gebouw.13152259/0","properties":{"source":"Digitaal Vlaanderen Gebouwenregister","source_id":"gebouw/Gebouw.13152259/0","kind":"building","building":"official","height_m":5.85,"status":null},"geometry":{"type":"Polygon","coordinates":[[[3.93765401,50.90091281],[3.93755452,50.90097645],[3.93750408,50.90094707],[3.93754888,50.90091644],[3.93753071,50.9009045],[3.93758779,50.90087009],[3.93757383,50.90086363],[3.93760418,50.90083572],[3.93763637,50.9008511],[3.93760314,50.900881],[3.93765401,50.90091281]]]}},{"type":"Feature","id":"gebouw/Gebouw.13164720/0","properties":{"source":"Digitaal Vlaanderen Gebouwenregister","source_id":"gebouw/Gebouw.13164720/0","kind":"building","building":"official","height_m":5.1,"status":null},"geometry":{"type":"Polygon","coordinates":[[[3.93735169,50.90140025],[3.93755649,50.90149419],[3.93754927,50.90150092],[3.93757023,50.90151173],[3.93754832,50.9015291],[3.93756101,50.90153611],[3.93754242,50.90154992],[3.93752663,50.90155266],[3.93747908,50.90153044],[3.93740838,50.90158746],[3.93729328,50.90153011],[3.93737338,50.90146403],[3.93733743,50.90144663],[3.93733406,50.90144501],[3.93733223,50.90144652],[3.93730633,50.90143402],[3.93731251,50.90142908],[3.93731523,50.90143043],[3.93731842,50.90142787],[3.93735169,50.90140025]]]}},{"type":"Feature","id":"gebouw/Gebouw.13184325/0","properties":{"source":"Digitaal Vlaanderen Gebouwenregister","source_id":"gebouw/Gebouw.13184325/0","kind":"building","building":"official","height_m":7.35,"status":null},"geometry":{"type":"Polygon","coordinates":[[[3.93716497,50.90101214],[3.93713604,50.90104168],[3.93713491,50.90104123],[3.93711823,50.90105835],[3.93710853,50.90106832],[3.93712278,50.90107406],[3.93708954,50.90110826],[3.93690597,50.90103538],[3.9369396,50.90100255],[3.93692304,50.90099645],[3.93696219,50.90095494],[3.93699582,50.90094966],[3.93702895,50.90096148],[3.93703346,50.90095756],[3.93716497,50.90101214]]]}},{"type":"Feature","id":"gebouw/Gebouw.13196245/0","properties":{"source":"Digitaal Vlaanderen Gebouwenregister","source_id":"gebouw/Gebouw.13196245/0","kind":"building","building":"official","height_m":5.85,"status":null},"geometry":{"type":"Polygon","coordinates":[[[3.93692558,50.90159343],[3.93687034,50.90166187],[3.93668861,50.90160684],[3.93675373,50.90153301],[3.93685521,50.9015664],[3.93685221,50.90156864],[3.93692558,50.90159343]]]}},{"type":"Feature","id":"gebouw/Gebouw.13214297/0","properties":{"source":"Digitaal Vlaanderen Gebouwenregister","source_id":"gebouw/Gebouw.13214297/0","kind":"building","building":"official","height_m":8.85,"status":null},"geometry":{"type":"Polygon","coordinates":[[[3.94173818,50.90554023],[3.94171638,50.90555278],[3.94169053,50.90556767],[3.94166315,50.90555077],[3.94169167,50.90553412],[3.94171049,50.90552314],[3.94173818,50.90554023]]]}},{"type":"Feature","id":"gebouw/Gebouw.13226572/0","properties":{"source":"Digitaal Vlaanderen Gebouwenregister","source_id":"gebouw/Gebouw.13226572/0","kind":"building","building":"official","height_m":8.1,"status":null},"geometry":{"type":"Polygon","coordinates":[[[3.94127893,50.90577146],[3.941371,50.90582627],[3.94160315,50.90567037],[3.94134452,50.90547021],[3.94134202,50.90546837],[3.9413378,50.90546596],[3.94133306,50.90546398],[3.94132792,50.90546246],[3.94132257,50.90546124],[3.94131706,50.90546035],[3.94131144,50.9054598],[3.94130577,50.90545958],[3.94130009,50.9054597],[3.94129445,50.90546017],[3.94128891,50.90546098],[3.94128356,50.90546219],[3.94127832,50.90546358],[3.9412732,50.90546515],[3.94126822,50.90546688],[3.94126338,50.90546877],[3.94125871,50.90547082],[3.9412542,50.90547301],[3.94124988,50.90547535],[3.94119516,50.90550367],[3.941342,50.90561066],[3.94135548,50.90560373],[3.94140223,50.90563853],[3.94136225,50.90566327],[3.94139117,50.90568261],[3.94132829,50.90572333],[3.94134012,50.90573037],[3.94127893,50.90577146]]]}},{"type":"Feature","id":"gebouw/Gebouw.13229044/0","properties":{"source":"Digitaal Vlaanderen Gebouwenregister","source_id":"gebouw/Gebouw.13229044/0","kind":"building","building":"official","height_m":8.1,"status":null},"geometry":{"type":"Polygon","coordinates":[[[3.9376521,50.90073769],[3.93763271,50.90079619],[3.93753454,50.90078273],[3.93753848,50.90077163],[3.93755446,50.90072658],[3.93757579,50.90066644],[3.93766542,50.90069751],[3.9376521,50.90073769]]]}},{"type":"Feature","id":"gebouw/Gebouw.13240767/0","properties":{"source":"Digitaal Vlaanderen Gebouwenregister","source_id":"gebouw/Gebouw.13240767/0","kind":"building","building":"official","height_m":7.35,"status":null},"geometry":{"type":"Polygon","coordinates":[[[3.93797265,50.90495173],[3.93783115,50.90506431],[3.93775915,50.90502917],[3.9378144,50.90496666],[3.93784978,50.90492664],[3.93785941,50.90491575],[3.93797265,50.90495173]]]}},{"type":"Feature","id":"gebouw/Gebouw.13247088/0","properties":{"source":"Digitaal Vlaanderen Gebouwenregister","source_id":"gebouw/Gebouw.13247088/0","kind":"building","building":"official","height_m":5.1,"status":null},"geometry":{"type":"Polygon","coordinates":[[[3.93708604,50.90121944],[3.93700154,50.9013062],[3.93686354,50.90125425],[3.93694923,50.90116751],[3.93708604,50.90121944]]]}},{"type":"Feature","id":"gebouw/Gebouw.13252063/0","properties":{"source":"Digitaal Vlaanderen Gebouwenregister","source_id":"gebouw/Gebouw.13252063/0","kind":"building","building":"official","height_m":5.85,"status":null},"geometry":{"type":"Polygon","coordinates":[[[3.93830881,50.90478269],[3.93840812,50.9048223],[3.93841178,50.90482371],[3.93834614,50.90489189],[3.93826807,50.90486103],[3.93826784,50.90486094],[3.93824165,50.90485059],[3.93822506,50.90484403],[3.93822064,50.90484228],[3.93826547,50.90479454],[3.93828542,50.90477329],[3.93830881,50.90478269]]]}},{"type":"Feature","id":"gebouw/Gebouw.13273238/0","properties":{"source":"Digitaal Vlaanderen Gebouwenregister","source_id":"gebouw/Gebouw.13273238/0","kind":"building","building":"official","height_m":6.6,"status":null},"geometry":{"type":"Polygon","coordinates":[[[3.93694556,50.9013798],[3.93693789,50.90139036],[3.93699072,50.90140591],[3.9369477,50.90146479],[3.936803,50.90142377],[3.93671354,50.90139841],[3.93676408,50.90132909],[3.93681055,50.90134304],[3.93678813,50.90137787],[3.93685029,50.90139585],[3.93687777,50.90136048],[3.93694556,50.9013798]]]}},{"type":"Feature","id":"gebouw/Gebouw.13305875/0","properties":{"source":"Digitaal Vlaanderen Gebouwenregister","source_id":"gebouw/Gebouw.13305875/0","kind":"building","building":"official","height_m":8.85,"status":null},"geometry":{"type":"Polygon","coordinates":[[[3.93814223,50.90481129],[3.93811913,50.90483499],[3.93810135,50.90482843],[3.93806922,50.90486083],[3.93794953,50.90481379],[3.93796017,50.90480176],[3.93796343,50.90479806],[3.93800107,50.90475548],[3.93814223,50.90481129]]]}},{"type":"Feature","id":"gebouw/Gebouw.13306410/0","properties":{"source":"Digitaal Vlaanderen Gebouwenregister","source_id":"gebouw/Gebouw.13306410/0","kind":"building","building":"official","height_m":5.1,"status":null},"geometry":{"type":"Polygon","coordinates":[[[3.93739835,50.90407066],[3.9373204,50.90413152],[3.93725268,50.90409824],[3.93733527,50.90402945],[3.93739835,50.90407066]]]}},{"type":"Feature","id":"gebouw/Gebouw.13312446/0","properties":{"source":"Digitaal Vlaanderen Gebouwenregister","source_id":"gebouw/Gebouw.13312446/0","kind":"building","building":"official","height_m":5.1,"status":null},"geometry":{"type":"Polygon","coordinates":[[[3.93769693,50.90472254],[3.93766408,50.90471],[3.93770386,50.90466832],[3.93773703,50.90468097],[3.93778468,50.90463105],[3.93782483,50.90464637],[3.93776827,50.90470563],[3.9377278,50.90469019],[3.93769693,50.90472254]]]}},{"type":"Feature","id":"gebouw/Gebouw.13318482/0","properties":{"source":"Digitaal Vlaanderen Gebouwenregister","source_id":"gebouw/Gebouw.13318482/0","kind":"building","building":"official","height_m":5.1,"status":null},"geometry":{"type":"Polygon","coordinates":[[[3.93652802,50.90128302],[3.93657184,50.90129452],[3.93654159,50.9013372],[3.93649807,50.90132514],[3.93652802,50.90128302]]]}},{"type":"Feature","id":"gebouw/Gebouw.13318595/0","properties":{"source":"Digitaal Vlaanderen Gebouwenregister","source_id":"gebouw/Gebouw.13318595/0","kind":"building","building":"official","height_m":8.85,"status":null},"geometry":{"type":"Polygon","coordinates":[[[3.93645917,50.90023388],[3.93639436,50.90020839],[3.9364203,50.90018202],[3.93648511,50.90020751],[3.93645917,50.90023388]]]}},{"type":"Feature","id":"gebouw/Gebouw.13325683/0","properties":{"source":"Digitaal Vlaanderen Gebouwenregister","source_id":"gebouw/Gebouw.13325683/0","kind":"building","building":"official","height_m":5.85,"status":null},"geometry":{"type":"Polygon","coordinates":[[[3.93973485,50.90672578],[3.93975286,50.90670914],[3.93955988,50.90662566],[3.93954187,50.90664231],[3.93973485,50.90672578]]]}},{"type":"Feature","id":"gebouw/Gebouw.13342638/0","properties":{"source":"Digitaal Vlaanderen Gebouwenregister","source_id":"gebouw/Gebouw.13342638/0","kind":"building","building":"official","height_m":5.1,"status":null},"geometry":{"type":"Polygon","coordinates":[[[3.93736102,50.90045391],[3.93728905,50.90058486],[3.93706923,50.90053566],[3.93713574,50.9004137],[3.93721545,50.90043007],[3.93721971,50.90042183],[3.93728843,50.90043743],[3.93736102,50.90045391]]]}},{"type":"Feature","id":"gebouw/Gebouw.13350879/0","properties":{"source":"Digitaal Vlaanderen Gebouwenregister","source_id":"gebouw/Gebouw.13350879/0","kind":"building","building":"official","height_m":7.35,"status":null},"geometry":{"type":"Polygon","coordinates":[[[3.9367193,50.90122659],[3.93670179,50.90124291],[3.9367092,50.90124616],[3.93666744,50.90128419],[3.93663207,50.90126866],[3.93667383,50.90123063],[3.93662734,50.90121022],[3.93664591,50.90119465],[3.9367193,50.90122659]]]}},{"type":"Feature","id":"gebouw/Gebouw.13350945/0","properties":{"source":"Digitaal Vlaanderen Gebouwenregister","source_id":"gebouw/Gebouw.13350945/0","kind":"building","building":"official","height_m":7.35,"status":null},"geometry":{"type":"Polygon","coordinates":[[[3.93807273,50.90504436],[3.93802825,50.90507502],[3.93797431,50.90504927],[3.93801309,50.90501593],[3.93807273,50.90504436]]]}},{"type":"Feature","id":"gebouw/Gebouw.13370771/0","properties":{"source":"Digitaal Vlaanderen Gebouwenregister","source_id":"gebouw/Gebouw.13370771/0","kind":"building","building":"official","height_m":8.85,"status":null},"geometry":{"type":"Polygon","coordinates":[[[3.94133022,50.90513914],[3.94132455,50.90514267],[3.94132176,50.9051444],[3.94135632,50.9051675],[3.9412991,50.90520203],[3.94126103,50.9051768],[3.94129112,50.90515864],[3.94123035,50.90510823],[3.94126231,50.905094],[3.9412714,50.90508995],[3.94133022,50.90513914]]]}},{"type":"Feature","id":"gebouw/Gebouw.13379089/0","properties":{"source":"Digitaal Vlaanderen Gebouwenregister","source_id":"gebouw/Gebouw.13379089/0","kind":"building","building":"official","height_m":5.85,"status":null},"geometry":{"type":"Polygon","coordinates":[[[3.93755749,50.90176841],[3.93753035,50.90175325],[3.93752435,50.90175773],[3.9374237,50.90170555],[3.93738857,50.90173449],[3.9373378,50.90170831],[3.93733099,50.90170696],[3.93732449,50.90170392],[3.93725597,50.90176616],[3.93713445,50.90171043],[3.93715245,50.90169478],[3.93721382,50.90164194],[3.93716252,50.90161812],[3.93720366,50.90158269],[3.93738676,50.90166667],[3.9374144,50.90164444],[3.93746059,50.9016073],[3.93765505,50.90171255],[3.93761303,50.9017469],[3.93759814,50.90173922],[3.93755749,50.90176841]]]}},{"type":"Feature","id":"gebouw/Gebouw.13384584/0","properties":{"source":"Digitaal Vlaanderen Gebouwenregister","source_id":"gebouw/Gebouw.13384584/0","kind":"building","building":"official","height_m":5.1,"status":null},"geometry":{"type":"Polygon","coordinates":[[[3.93781289,50.90061803],[3.93778206,50.90065255],[3.93772263,50.90063027],[3.93771389,50.90064018],[3.93770116,50.90063617],[3.93767883,50.90066349],[3.93758625,50.9006309],[3.93764802,50.90056066],[3.93764867,50.90055993],[3.93768283,50.9005722],[3.9377203,50.90058527],[3.93781289,50.90061803]]]}},{"type":"Feature","id":"gebouw/Gebouw.13385178/0","properties":{"source":"Digitaal Vlaanderen Gebouwenregister","source_id":"gebouw/Gebouw.13385178/0","kind":"building","building":"official","height_m":5.1,"status":null},"geometry":{"type":"Polygon","coordinates":[[[3.93668203,50.90081291],[3.93671143,50.90077711],[3.93690845,50.90084183],[3.93687906,50.90087762],[3.93668203,50.90081291]]]}},{"type":"Feature","id":"gebouw/Gebouw.13392651/0","properties":{"source":"Digitaal Vlaanderen Gebouwenregister","source_id":"gebouw/Gebouw.13392651/0","kind":"building","building":"official","height_m":7.35,"status":null},"geometry":{"type":"Polygon","coordinates":[[[3.93800107,50.90475548],[3.93796343,50.90479806],[3.93789196,50.90477253],[3.93792058,50.9047384],[3.93794124,50.90474533],[3.93798163,50.90469994],[3.93797445,50.90469697],[3.93798966,50.90467957],[3.93789817,50.90464569],[3.9379137,50.90462929],[3.93804379,50.90449196],[3.93813563,50.9045266],[3.93810039,50.9045637],[3.93811268,50.9045684],[3.93805351,50.90463122],[3.9380976,50.90464627],[3.93806403,50.90468425],[3.93804915,50.90470108],[3.93800107,50.90475548]]]}},{"type":"Feature","id":"gebouw/Gebouw.13395102/0","properties":{"source":"Digitaal Vlaanderen Gebouwenregister","source_id":"gebouw/Gebouw.13395102/0","kind":"building","building":"official","height_m":5.1,"status":null},"geometry":{"type":"Polygon","coordinates":[[[3.93805638,50.90589677],[3.93802349,50.90596586],[3.93792739,50.90594612],[3.93793232,50.90593724],[3.93781654,50.90591322],[3.93778159,50.90590597],[3.9378064,50.90585633],[3.9378099,50.90584932],[3.93805638,50.90589677]]]}},{"type":"Feature","id":"gebouw/Gebouw.13395301/0","properties":{"source":"Digitaal Vlaanderen Gebouwenregister","source_id":"gebouw/Gebouw.13395301/0","kind":"building","building":"official","height_m":5.85,"status":null},"geometry":{"type":"Polygon","coordinates":[[[3.93676287,50.90168693],[3.93669784,50.90176219],[3.93660954,50.90173169],[3.93667457,50.90165642],[3.93676287,50.90168693]]]}},{"type":"Feature","id":"gebouw/Gebouw.13401303/0","properties":{"source":"Digitaal Vlaanderen Gebouwenregister","source_id":"gebouw/Gebouw.13401303/0","kind":"building","building":"official","height_m":7.35,"status":null},"geometry":{"type":"Polygon","coordinates":[[[3.93777757,50.90113798],[3.93777861,50.90113842],[3.93777227,50.90114684],[3.93786376,50.90118881],[3.93787028,50.90122013],[3.93786485,50.90122602],[3.93790212,50.90123974],[3.9379481,50.9011977],[3.9381452,50.9012823],[3.9380375,50.90138846],[3.93784611,50.9013056],[3.93782643,50.90132378],[3.93773164,50.90128274],[3.93776229,50.90125444],[3.93754588,50.9011603],[3.9375652,50.90114063],[3.93757894,50.90112758],[3.9375617,50.90112033],[3.9376043,50.90107985],[3.93766212,50.90110478],[3.93767281,50.9010943],[3.93767531,50.90109534],[3.93777757,50.90113798]]]}},{"type":"Feature","id":"gebouw/Gebouw.13403354/0","properties":{"source":"Digitaal Vlaanderen Gebouwenregister","source_id":"gebouw/Gebouw.13403354/0","kind":"building","building":"official","height_m":6.6,"status":null},"geometry":{"type":"Polygon","coordinates":[[[3.93752057,50.90188128],[3.93747279,50.90185361],[3.93749557,50.90183795],[3.93754425,50.90186506],[3.93752057,50.90188128]]]}},{"type":"Feature","id":"gebouw/Gebouw.13419555/0","properties":{"source":"Digitaal Vlaanderen Gebouwenregister","source_id":"gebouw/Gebouw.13419555/0","kind":"building","building":"official","height_m":7.35,"status":null},"geometry":{"type":"Polygon","coordinates":[[[3.93887664,50.90070199],[3.93884006,50.90068237],[3.93887998,50.9006526],[3.93891656,50.90067221],[3.93887664,50.90070199]]]}},{"type":"Feature","id":"gebouw/Gebouw.13435016/0","properties":{"source":"Digitaal Vlaanderen Gebouwenregister","source_id":"gebouw/Gebouw.13435016/0","kind":"building","building":"official","height_m":6.6,"status":null},"geometry":{"type":"Polygon","coordinates":[[[3.93670817,50.90149566],[3.93673327,50.90149957],[3.93673226,50.90150238],[3.93671663,50.90154608],[3.93665764,50.90153583],[3.93667722,50.90149084],[3.93670817,50.90149566]]]}},{"type":"Feature","id":"gebouw/Gebouw.13435814/0","properties":{"source":"Digitaal Vlaanderen Gebouwenregister","source_id":"gebouw/Gebouw.13435814/0","kind":"building","building":"official","height_m":6.6,"status":null},"geometry":{"type":"Polygon","coordinates":[[[3.94066247,50.90598492],[3.94057894,50.90593495],[3.94065527,50.90588395],[3.94073879,50.90593392],[3.94066247,50.90598492]]]}},{"type":"Feature","id":"gebouw/Gebouw.13438410/0","properties":{"source":"Digitaal Vlaanderen Gebouwenregister","source_id":"gebouw/Gebouw.13438410/0","kind":"building","building":"official","height_m":5.1,"status":null},"geometry":{"type":"Polygon","coordinates":[[[3.9378144,50.90496666],[3.93781025,50.90496537],[3.93776078,50.90502042],[3.93770573,50.90499583],[3.93773999,50.90496133],[3.93766876,50.90493576],[3.93772171,50.90487467],[3.93782711,50.90491336],[3.93782331,50.90491771],[3.93784978,50.90492664],[3.9378144,50.90496666]]]}},{"type":"Feature","id":"gebouw/Gebouw.13438591/0","properties":{"source":"Digitaal Vlaanderen Gebouwenregister","source_id":"gebouw/Gebouw.13438591/0","kind":"building","building":"official","height_m":5.85,"status":null},"geometry":{"type":"Polygon","coordinates":[[[3.93653004,50.90043699],[3.9364129,50.90039644],[3.93643246,50.90037389],[3.93654898,50.90041414],[3.93653004,50.90043699]]]}},{"type":"Feature","id":"gebouw/Gebouw.13440993/0","properties":{"source":"Digitaal Vlaanderen Gebouwenregister","source_id":"gebouw/Gebouw.13440993/0","kind":"building","building":"official","height_m":7.35,"status":null},"geometry":{"type":"Polygon","coordinates":[[[3.93748753,50.90426044],[3.93741889,50.90432045],[3.93735616,50.90428895],[3.93736437,50.90428062],[3.93718506,50.90419889],[3.93725147,50.90414318],[3.93725466,50.90414474],[3.93724964,50.90414904],[3.93725695,50.90415231],[3.93732338,50.90418194],[3.93740522,50.90421855],[3.9374059,50.90421802],[3.937425,50.90420082],[3.93741793,50.90419767],[3.93742029,50.90419554],[3.9374287,50.9041992],[3.9374431,50.90420565],[3.93751397,50.90423733],[3.93748753,50.90426044]]]}},{"type":"Feature","id":"gebouw/Gebouw.13443180/0","properties":{"source":"Digitaal Vlaanderen Gebouwenregister","source_id":"gebouw/Gebouw.13443180/0","kind":"building","building":"official","height_m":5.1,"status":null},"geometry":{"type":"Polygon","coordinates":[[[3.9382304,50.90503446],[3.9381944,50.90502268],[3.93814138,50.90500533],[3.93800594,50.9049623],[3.93804848,50.90490591],[3.9381914,50.90495247],[3.93824752,50.90488554],[3.93819907,50.90486814],[3.93822506,50.90484403],[3.93824165,50.90485059],[3.93826807,50.90486103],[3.93834614,50.90489189],[3.93828185,50.90497102],[3.93827919,50.90497434],[3.9382853,50.90497631],[3.93827047,50.90499478],[3.93826422,50.90499277],[3.93826252,50.90499488],[3.93824854,50.90501193],[3.93825487,50.90501397],[3.93823996,50.90503249],[3.93823362,50.90503045],[3.9382304,50.90503446]]]}},{"type":"Feature","id":"gebouw/Gebouw.13450051/0","properties":{"source":"Digitaal Vlaanderen Gebouwenregister","source_id":"gebouw/Gebouw.13450051/0","kind":"building","building":"official","height_m":5.85,"status":null},"geometry":{"type":"Polygon","coordinates":[[[3.9370292,50.90062852],[3.93701589,50.90064686],[3.93717326,50.90068926],[3.93735906,50.90073933],[3.93731784,50.90080217],[3.93712382,50.90074919],[3.93696315,50.90070532],[3.93699738,50.90065466],[3.93694676,50.90064031],[3.93696972,50.90060962],[3.9370292,50.90062852]]]}},{"type":"Feature","id":"gebouw/Gebouw.13453068/0","properties":{"source":"Digitaal Vlaanderen Gebouwenregister","source_id":"gebouw/Gebouw.13453068/0","kind":"building","building":"official","height_m":5.1,"status":null},"geometry":{"type":"Polygon","coordinates":[[[3.93645006,50.90169162],[3.93650189,50.90163439],[3.93658293,50.90166261],[3.93652782,50.90172374],[3.93645006,50.90169162]]]}},{"type":"Feature","id":"gebouw/Gebouw.13453252/0","properties":{"source":"Digitaal Vlaanderen Gebouwenregister","source_id":"gebouw/Gebouw.13453252/0","kind":"building","building":"official","height_m":8.1,"status":null},"geometry":{"type":"Polygon","coordinates":[[[3.93842841,50.90584739],[3.93841072,50.90587287],[3.93841461,50.90587416],[3.93836553,50.90595554],[3.93810097,50.90589277],[3.93817562,50.90577075],[3.93842841,50.90584739]]]}},{"type":"Feature","id":"gebouw/Gebouw.13455566/0","properties":{"source":"Digitaal Vlaanderen Gebouwenregister","source_id":"gebouw/Gebouw.13455566/0","kind":"building","building":"official","height_m":6.6,"status":null},"geometry":{"type":"Polygon","coordinates":[[[3.93644812,50.90053879],[3.93632372,50.90049223],[3.93634212,50.90047258],[3.93646652,50.90051914],[3.93644812,50.90053879]]]}},{"type":"Feature","id":"gebouw/Gebouw.13457788/0","properties":{"source":"Digitaal Vlaanderen Gebouwenregister","source_id":"gebouw/Gebouw.13457788/0","kind":"building","building":"official","height_m":8.1,"status":null},"geometry":{"type":"Polygon","coordinates":[[[3.93796564,50.9002735],[3.93812262,50.90033534],[3.93802848,50.90042546],[3.93787624,50.90036514],[3.93788065,50.90036064],[3.93790471,50.9003701],[3.93792582,50.90034861],[3.93792947,50.90034494],[3.93795152,50.90032137],[3.93792787,50.90031252],[3.93793205,50.90030806],[3.9379476,50.90031388],[3.93797301,50.90028673],[3.93797577,50.90028377],[3.93796134,50.90027811],[3.93796564,50.9002735]]]}},{"type":"Feature","id":"gebouw/Gebouw.13458090/0","properties":{"source":"Digitaal Vlaanderen Gebouwenregister","source_id":"gebouw/Gebouw.13458090/0","kind":"building","building":"official","height_m":5.1,"status":null},"geometry":{"type":"Polygon","coordinates":[[[3.93812625,50.90470927],[3.93810782,50.90472739],[3.93806713,50.90471221],[3.93807096,50.90470936],[3.93804915,50.90470108],[3.93806403,50.90468425],[3.93809418,50.90469637],[3.93812625,50.90470927]]]}},{"type":"Feature","id":"gebouw/Gebouw.13458443/0","properties":{"source":"Digitaal Vlaanderen Gebouwenregister","source_id":"gebouw/Gebouw.13458443/0","kind":"building","building":"official","height_m":8.85,"status":null},"geometry":{"type":"Polygon","coordinates":[[[3.93755663,50.90135142],[3.93754957,50.90135806],[3.93738367,50.90128539],[3.9374558,50.90121882],[3.93745752,50.90121711],[3.93745182,50.90121481],[3.93745479,50.90121188],[3.93762756,50.90128473],[3.93760782,50.90130329],[3.93755663,50.90135142]]]}},{"type":"Feature","id":"gebouw/Gebouw.13459923/0","properties":{"source":"Digitaal Vlaanderen Gebouwenregister","source_id":"gebouw/Gebouw.13459923/0","kind":"building","building":"official","height_m":7.35,"status":null},"geometry":{"type":"Polygon","coordinates":[[[3.93759972,50.90691426],[3.9375982,50.90691545],[3.9375641,50.90697068],[3.93729503,50.90690527],[3.93730483,50.90688926],[3.93727288,50.90688148],[3.93712685,50.90684591],[3.93708266,50.90691654],[3.93701161,50.9069004],[3.93716052,50.90665688],[3.93724133,50.90667542],[3.93733338,50.90669697],[3.93737123,50.90670633],[3.93739262,50.90671161],[3.93753813,50.90674786],[3.93752301,50.90677455],[3.93757654,50.90678626],[3.93758433,50.90682932],[3.9373344,50.90677192],[3.93729754,50.90683756],[3.93742404,50.90686754],[3.93744794,50.90682564],[3.93759003,50.90686077],[3.93759972,50.90691426]]]}},{"type":"Feature","id":"gebouw/Gebouw.13467754/0","properties":{"source":"Digitaal Vlaanderen Gebouwenregister","source_id":"gebouw/Gebouw.13467754/0","kind":"building","building":"official","height_m":8.1,"status":null},"geometry":{"type":"Polygon","coordinates":[[[3.93813287,50.90520605],[3.93809986,50.90518795],[3.93805929,50.90521582],[3.93793074,50.90514222],[3.93795565,50.90512505],[3.93802825,50.90507502],[3.93807273,50.90504436],[3.93811659,50.90501413],[3.93814138,50.90500533],[3.9381944,50.90502268],[3.93810513,50.9050821],[3.93809884,50.90507894],[3.93808288,50.9050884],[3.93819174,50.90514551],[3.93813287,50.90520605]]]}},{"type":"Feature","id":"gebouw/Gebouw.13487283/0","properties":{"source":"Digitaal Vlaanderen Gebouwenregister","source_id":"gebouw/Gebouw.13487283/0","kind":"building","building":"official","height_m":7.35,"status":null},"geometry":{"type":"Polygon","coordinates":[[[3.93741202,50.90466214],[3.93735869,50.9046403],[3.93739161,50.90460816],[3.93744495,50.90462999],[3.93741202,50.90466214]]]}},{"type":"Feature","id":"gebouw/Gebouw.13489901/0","properties":{"source":"Digitaal Vlaanderen Gebouwenregister","source_id":"gebouw/Gebouw.13489901/0","kind":"building","building":"official","height_m":8.85,"status":null},"geometry":{"type":"Polygon","coordinates":[[[3.93799132,50.90045799],[3.93807913,50.90049428],[3.93810451,50.90046972],[3.9380167,50.90043343],[3.93799132,50.90045799]]]}},{"type":"Feature","id":"gebouw/Gebouw.13490207/0","properties":{"source":"Digitaal Vlaanderen Gebouwenregister","source_id":"gebouw/Gebouw.13490207/0","kind":"building","building":"official","height_m":8.85,"status":null},"geometry":{"type":"Polygon","coordinates":[[[3.93897094,50.90508451],[3.93879884,50.90500096],[3.93866639,50.90510371],[3.9389238,50.90517401],[3.93898487,50.90510247],[3.93905266,50.90512594],[3.93899349,50.90519689],[3.93893324,50.90517764],[3.9388864,50.90524774],[3.93864005,50.90518601],[3.93864958,50.90516775],[3.93854562,50.90513977],[3.9385865,50.90507761],[3.93856291,50.90506572],[3.93859301,50.90504184],[3.93867789,50.90497545],[3.9387658,50.90490582],[3.93880498,50.904925],[3.93885065,50.90494807],[3.93894156,50.90499421],[3.93902466,50.90503584],[3.93897094,50.90508451]]]}},{"type":"Feature","id":"gebouw/Gebouw.13498658/0","properties":{"source":"Digitaal Vlaanderen Gebouwenregister","source_id":"gebouw/Gebouw.13498658/0","kind":"building","building":"official","height_m":6.6,"status":null},"geometry":{"type":"Polygon","coordinates":[[[3.93701388,50.90436813],[3.93697373,50.90434956],[3.93705222,50.90428531],[3.93709269,50.90430558],[3.93701388,50.90436813]]]}},{"type":"Feature","id":"gebouw/Gebouw.13502759/0","properties":{"source":"Digitaal Vlaanderen Gebouwenregister","source_id":"gebouw/Gebouw.13502759/0","kind":"building","building":"official","height_m":8.85,"status":null},"geometry":{"type":"Polygon","coordinates":[[[3.93673222,50.90100914],[3.93676932,50.90097096],[3.93687429,50.90101173],[3.93683719,50.90104992],[3.93673222,50.90100914]]]}},{"type":"Feature","id":"gebouw/Gebouw.13512049/0","properties":{"source":"Digitaal Vlaanderen Gebouwenregister","source_id":"gebouw/Gebouw.13512049/0","kind":"building","building":"official","height_m":5.85,"status":null},"geometry":{"type":"Polygon","coordinates":[[[3.94153019,50.90538564],[3.94154762,50.90537529],[3.94155024,50.90537371],[3.94154892,50.90537283],[3.94164739,50.90531409],[3.94186305,50.90546175],[3.94179202,50.90550342],[3.94176158,50.90548203],[3.94174599,50.90549136],[3.94163607,50.90541793],[3.94162549,50.90542478],[3.9415978,50.90540694],[3.94157809,50.90541818],[3.94153019,50.90538564]]]}},{"type":"Feature","id":"gebouw/Gebouw.13512837/0","properties":{"source":"Digitaal Vlaanderen Gebouwenregister","source_id":"gebouw/Gebouw.13512837/0","kind":"building","building":"official","height_m":7.35,"status":null},"geometry":{"type":"Polygon","coordinates":[[[3.93723892,50.90083984],[3.93715058,50.90093938],[3.93702427,50.90089647],[3.93706466,50.90085286],[3.93703301,50.90084237],[3.93708002,50.90078925],[3.93711198,50.90079918],[3.937115,50.90079544],[3.93723892,50.90083984]]]}},{"type":"Feature","id":"gebouw/Gebouw.13518886/0","properties":{"source":"Digitaal Vlaanderen Gebouwenregister","source_id":"gebouw/Gebouw.13518886/0","kind":"building","building":"official","height_m":8.1,"status":null},"geometry":{"type":"Polygon","coordinates":[[[3.93686892,50.90119154],[3.93676055,50.90116206],[3.93681029,50.90110501],[3.93691865,50.90113487],[3.93686892,50.90119154]]]}},{"type":"Feature","id":"gebouw/Gebouw.13527228/0","properties":{"source":"Digitaal Vlaanderen Gebouwenregister","source_id":"gebouw/Gebouw.13527228/0","kind":"building","building":"official","height_m":5.1,"status":null},"geometry":{"type":"Polygon","coordinates":[[[3.93647588,50.9036231],[3.93642322,50.90359438],[3.93633795,50.90365691],[3.93639061,50.90368563],[3.93647588,50.9036231]]]}},{"type":"Feature","id":"gebouw/Gebouw.13533029/0","properties":{"source":"Digitaal Vlaanderen Gebouwenregister","source_id":"gebouw/Gebouw.13533029/0","kind":"building","building":"official","height_m":8.85,"status":null},"geometry":{"type":"Polygon","coordinates":[[[3.93650405,50.90139262],[3.9364632,50.90138076],[3.93649405,50.90133808],[3.93653549,50.90134994],[3.93650405,50.90139262]]]}},{"type":"Feature","id":"gebouw/Gebouw.13546128/0","properties":{"source":"Digitaal Vlaanderen Gebouwenregister","source_id":"gebouw/Gebouw.13546128/0","kind":"building","building":"official","height_m":5.1,"status":null},"geometry":{"type":"Polygon","coordinates":[[[3.93992073,50.90654728],[3.93990617,50.90650197],[3.93996399,50.90649454],[3.93997855,50.90653985],[3.93992073,50.90654728]]]}},{"type":"Feature","id":"gebouw/Gebouw.13554843/0","properties":{"source":"Digitaal Vlaanderen Gebouwenregister","source_id":"gebouw/Gebouw.13554843/0","kind":"building","building":"official","height_m":7.35,"status":null},"geometry":{"type":"Polygon","coordinates":[[[3.93816523,50.90662316],[3.93817165,50.90661486],[3.93819405,50.90656054],[3.93820509,50.90656217],[3.93821973,50.90652629],[3.93831218,50.90629983],[3.93830263,50.90629801],[3.938313,50.90625486],[3.93822777,50.90624634],[3.93821634,50.90628863],[3.93773409,50.90623392],[3.93773214,50.90624206],[3.93770131,50.90637281],[3.93768849,50.9064252],[3.93765826,50.90648334],[3.93768076,50.90649026],[3.93780921,50.9065331],[3.93791649,50.90656589],[3.93803718,50.90660278],[3.93815352,50.90663834],[3.93816523,50.90662316]],[[3.93805058,50.90652723],[3.93778191,50.90644849],[3.93781778,50.90629927],[3.93812566,50.90633375],[3.93805058,50.90652723]]]}},{"type":"Feature","id":"gebouw/Gebouw.13589255/0","properties":{"source":"Digitaal Vlaanderen Gebouwenregister","source_id":"gebouw/Gebouw.13589255/0","kind":"building","building":"official","height_m":8.85,"status":null},"geometry":{"type":"Polygon","coordinates":[[[3.93785786,50.90475871],[3.93778132,50.90473052],[3.93779947,50.9047108],[3.93787602,50.90473899],[3.93785786,50.90475871]]]}},{"type":"Feature","id":"gebouw/Gebouw.13603583/0","properties":{"source":"Digitaal Vlaanderen Gebouwenregister","source_id":"gebouw/Gebouw.13603583/0","kind":"building","building":"official","height_m":8.85,"status":null},"geometry":{"type":"Polygon","coordinates":[[[3.93671106,50.90051472],[3.93664258,50.90049238],[3.93666062,50.90047028],[3.9367291,50.90049262],[3.93671106,50.90051472]]]}},{"type":"Feature","id":"gebouw/Gebouw.13634042/0","properties":{"source":"Digitaal Vlaanderen Gebouwenregister","source_id":"gebouw/Gebouw.13634042/0","kind":"building","building":"official","height_m":6.6,"status":null},"geometry":{"type":"Polygon","coordinates":[[[3.93698216,50.90667497],[3.93693588,50.90666414],[3.93695624,50.90663279],[3.93700284,50.90664531],[3.93698216,50.90667497]]]}},{"type":"Feature","id":"gebouw/Gebouw.13655564/0","properties":{"source":"Digitaal Vlaanderen Gebouwenregister","source_id":"gebouw/Gebouw.13655564/0","kind":"building","building":"official","height_m":6.6,"status":null},"geometry":{"type":"Polygon","coordinates":[[[3.93785921,50.90491451],[3.93777377,50.90488334],[3.93781,50.90484363],[3.93789544,50.9048748],[3.93785921,50.90491451]]]}},{"type":"Feature","id":"gebouw/Gebouw.13762728/0","properties":{"source":"Digitaal Vlaanderen Gebouwenregister","source_id":"gebouw/Gebouw.13762728/0","kind":"building","building":"official","height_m":5.1,"status":null},"geometry":{"type":"Polygon","coordinates":[[[3.93934622,50.9040593],[3.93928613,50.90402015],[3.93941059,50.90394603],[3.93946745,50.90398803],[3.93934622,50.9040593]]]}},{"type":"Feature","id":"gebouw/Gebouw.13804871/0","properties":{"source":"Digitaal Vlaanderen Gebouwenregister","source_id":"gebouw/Gebouw.13804871/0","kind":"building","building":"official","height_m":8.85,"status":null},"geometry":{"type":"Polygon","coordinates":[[[3.93841737,50.90524285],[3.938368,50.905229],[3.93838448,50.90520552],[3.93843385,50.90521937],[3.93841737,50.90524285]]]}},{"type":"Feature","id":"gebouw/Gebouw.13839465/0","properties":{"source":"Digitaal Vlaanderen Gebouwenregister","source_id":"gebouw/Gebouw.13839465/0","kind":"building","building":"official","height_m":7.35,"status":null},"geometry":{"type":"Polygon","coordinates":[[[3.9380774,50.90055312],[3.93803121,50.90053266],[3.93805411,50.90051198],[3.93810031,50.90053245],[3.9380774,50.90055312]]]}},{"type":"Feature","id":"gebouw/Gebouw.14945041/0","properties":{"source":"Digitaal Vlaanderen Gebouwenregister","source_id":"gebouw/Gebouw.14945041/0","kind":"building","building":"official","height_m":5.85,"status":null},"geometry":{"type":"Polygon","coordinates":[[[3.9369754,50.90184471],[3.93702485,50.90186049],[3.93716683,50.90191006],[3.93711529,50.90196785],[3.93706549,50.9019513],[3.9369798,50.90192283],[3.93698569,50.90191256],[3.93687723,50.90188217],[3.93691472,50.90182953],[3.93691602,50.90182989],[3.93697435,50.90174588],[3.93706981,50.9017745],[3.93704116,50.9018153],[3.93700333,50.90180536],[3.9369754,50.90184471]]]}},{"type":"Feature","id":"gebouw/Gebouw.16670973/0","properties":{"source":"Digitaal Vlaanderen Gebouwenregister","source_id":"gebouw/Gebouw.16670973/0","kind":"building","building":"official","height_m":7.35,"status":null},"geometry":{"type":"Polygon","coordinates":[[[3.93654018,50.90144878],[3.93656194,50.90141996],[3.93666052,50.9014477],[3.93664097,50.90147691],[3.93654018,50.90144878]]]}},{"type":"Feature","id":"gebouw/Gebouw.16671680/0","properties":{"source":"Digitaal Vlaanderen Gebouwenregister","source_id":"gebouw/Gebouw.16671680/0","kind":"building","building":"official","height_m":6.6,"status":null},"geometry":{"type":"Polygon","coordinates":[[[3.93865721,50.90590127],[3.93847456,50.90585333],[3.93847028,50.90586391],[3.9384263,50.90585023],[3.9384301,50.90584513],[3.93830223,50.90581051],[3.93817562,50.90577075],[3.93816053,50.90576659],[3.93814794,50.90578001],[3.93806634,50.90575547],[3.93806025,50.90576548],[3.93790909,50.90572537],[3.937945,50.90567268],[3.93792303,50.90566678],[3.93801064,50.905532],[3.93803402,50.90553802],[3.93809696,50.90555425],[3.93837823,50.90563848],[3.93843075,50.90568897],[3.93836055,50.90577066],[3.93849449,50.90581313],[3.93852329,50.90576875],[3.93853129,50.90577095],[3.93858023,50.90569988],[3.93846373,50.90566582],[3.93849087,50.90562972],[3.93860621,50.90566215],[3.93860493,50.90566401],[3.93875116,50.9057055],[3.93869491,50.90578466],[3.93872691,50.9057952],[3.93865721,50.90590127]],[[3.93820741,50.90571859],[3.93824097,50.90567418],[3.9381652,50.90564932],[3.93818125,50.90562783],[3.93811499,50.90560607],[3.9380899,50.90564008],[3.93805465,50.90563051],[3.93802958,50.90566565],[3.9381082,50.90568983],[3.93810994,50.90568681],[3.93820741,50.90571859]]]}},{"type":"Feature","id":"gebouw/Gebouw.16692941/0","properties":{"source":"Digitaal Vlaanderen Gebouwenregister","source_id":"gebouw/Gebouw.16692941/0","kind":"building","building":"official","height_m":8.85,"status":null},"geometry":{"type":"Polygon","coordinates":[[[3.93839558,50.90469497],[3.93830881,50.90478269],[3.93828542,50.90477329],[3.9382395,50.90475482],[3.93822386,50.90474853],[3.93831475,50.90466164],[3.93836463,50.90468264],[3.93839558,50.90469497]]]}},{"type":"Feature","id":"gebouw/Gebouw.16699980/0","properties":{"source":"Digitaal Vlaanderen Gebouwenregister","source_id":"gebouw/Gebouw.16699980/0","kind":"building","building":"official","height_m":5.1,"status":null},"geometry":{"type":"Polygon","coordinates":[[[3.93681055,50.90134304],[3.93676408,50.90132909],[3.93678888,50.90129503],[3.9368655,50.90132115],[3.93684105,50.90135128],[3.93681055,50.90134304]]]}},{"type":"Feature","id":"gebouw/Gebouw.16716271/0","properties":{"source":"Digitaal Vlaanderen Gebouwenregister","source_id":"gebouw/Gebouw.16716271/0","kind":"building","building":"official","height_m":5.85,"status":null},"geometry":{"type":"Polygon","coordinates":[[[3.94133619,50.90532978],[3.94119023,50.90541838],[3.94105416,50.90533067],[3.94110602,50.90529902],[3.94114952,50.90532804],[3.94124229,50.90527232],[3.94119592,50.90524395],[3.94125448,50.90520885],[3.94128875,50.9052317],[3.94133413,50.90526197],[3.94134007,50.90526593],[3.94128544,50.90529872],[3.94133619,50.90532978]]]}},{"type":"Feature","id":"gebouw/Gebouw.16728784/0","properties":{"source":"Digitaal Vlaanderen Gebouwenregister","source_id":"gebouw/Gebouw.16728784/0","kind":"building","building":"official","height_m":8.1,"status":null},"geometry":{"type":"Polygon","coordinates":[[[3.93651481,50.90143438],[3.93646566,50.90142135],[3.93648141,50.90139776],[3.93653203,50.90141211],[3.93651481,50.90143438]]]}},{"type":"Feature","id":"gebouw/Gebouw.16739988/0","properties":{"source":"Digitaal Vlaanderen Gebouwenregister","source_id":"gebouw/Gebouw.16739988/0","kind":"building","building":"official","height_m":5.1,"status":null},"geometry":{"type":"Polygon","coordinates":[[[3.93854143,50.90136227],[3.93849983,50.9013407],[3.93859228,50.90126941],[3.93863388,50.90129098],[3.93854143,50.90136227]]]}},{"type":"Feature","id":"gebouw/Gebouw.18500182/0","properties":{"source":"Digitaal Vlaanderen Gebouwenregister","source_id":"gebouw/Gebouw.18500182/0","kind":"building","building":"official","height_m":8.1,"status":null},"geometry":{"type":"Polygon","coordinates":[[[3.93659907,50.90149693],[3.93685806,50.90157288],[3.93683255,50.90160766],[3.93681264,50.90160182],[3.93678526,50.90163931],[3.93657403,50.90157742],[3.93660082,50.90154087],[3.93657287,50.90153268],[3.93659907,50.90149693]]]}},{"type":"Feature","id":"gebouw/Gebouw.18862059/0","properties":{"source":"Digitaal Vlaanderen Gebouwenregister","source_id":"gebouw/Gebouw.18862059/0","kind":"building","building":"official","height_m":7.35,"status":null},"geometry":{"type":"Polygon","coordinates":[[[3.93847606,50.90146864],[3.9384063,50.90151983],[3.93837444,50.90150222],[3.93844305,50.90145163],[3.93847606,50.90146864]]]}},{"type":"Feature","id":"gebouw/Gebouw.18862550/0","properties":{"source":"Digitaal Vlaanderen Gebouwenregister","source_id":"gebouw/Gebouw.18862550/0","kind":"building","building":"official","height_m":6.6,"status":null},"geometry":{"type":"Polygon","coordinates":[[[3.9386792,50.90134063],[3.93861409,50.90139095],[3.93857358,50.90137003],[3.93861408,50.90133666],[3.93862025,50.90134016],[3.93864178,50.90132198],[3.9386792,50.90134063]]]}},{"type":"Feature","id":"gebouw/Gebouw.18862551/0","properties":{"source":"Digitaal Vlaanderen Gebouwenregister","source_id":"gebouw/Gebouw.18862551/0","kind":"building","building":"official","height_m":7.35,"status":null},"geometry":{"type":"Polygon","coordinates":[[[3.93851291,50.90148935],[3.93844481,50.90154117],[3.93841255,50.90152503],[3.93848084,50.9014732],[3.93851291,50.90148935]]]}},{"type":"Feature","id":"gebouw/Gebouw.19693192/0","properties":{"source":"Digitaal Vlaanderen Gebouwenregister","source_id":"gebouw/Gebouw.19693192/0","kind":"building","building":"official","height_m":8.1,"status":null},"geometry":{"type":"Polygon","coordinates":[[[3.9382304,50.90503446],[3.9381944,50.90502268],[3.93814138,50.90500533],[3.93813315,50.90500271],[3.93800594,50.9049623],[3.93804848,50.90490591],[3.93818799,50.90495136],[3.9381914,50.90495247],[3.93824752,50.90488554],[3.93826784,50.90486094],[3.93826807,50.90486103],[3.93834614,50.90489189],[3.93828185,50.90497102],[3.93827919,50.90497434],[3.9382853,50.90497631],[3.93827047,50.90499478],[3.93826422,50.90499277],[3.93826252,50.90499488],[3.93824854,50.90501193],[3.93825487,50.90501397],[3.93823996,50.90503249],[3.93823362,50.90503045],[3.9382304,50.90503446]]]}},{"type":"Feature","id":"gebouw/Gebouw.19693193/0","properties":{"source":"Digitaal Vlaanderen Gebouwenregister","source_id":"gebouw/Gebouw.19693193/0","kind":"building","building":"official","height_m":8.85,"status":null},"geometry":{"type":"Polygon","coordinates":[[[3.93826784,50.90486094],[3.93824752,50.90488554],[3.93819907,50.90486814],[3.93822506,50.90484403],[3.93824165,50.90485059],[3.93826784,50.90486094]]]}},{"type":"Feature","id":"gebouw/Gebouw.19710554/0","properties":{"source":"Digitaal Vlaanderen Gebouwenregister","source_id":"gebouw/Gebouw.19710554/0","kind":"building","building":"official","height_m":6.6,"status":null},"geometry":{"type":"Polygon","coordinates":[[[3.93850168,50.90581542],[3.93847615,50.90585375],[3.93847166,50.90586051],[3.93842841,50.90584739],[3.93817562,50.90577075],[3.93816053,50.90576658],[3.93814794,50.90578001],[3.93806634,50.90575547],[3.93806025,50.90576548],[3.93790909,50.90572537],[3.937945,50.90567268],[3.93792303,50.90566678],[3.93801063,50.905532],[3.93803402,50.90553802],[3.93809696,50.90555425],[3.93837823,50.90563848],[3.93843075,50.90568897],[3.93838146,50.90574272],[3.93831423,50.9057234],[3.93829359,50.90574942],[3.93850168,50.90581542]],[[3.93820741,50.90571859],[3.93824097,50.90567418],[3.9381652,50.90564932],[3.93818125,50.90562783],[3.93811499,50.90560607],[3.9380899,50.90564008],[3.93805465,50.90563051],[3.93802958,50.90566565],[3.9381082,50.90568983],[3.93810994,50.90568681],[3.93820741,50.90571859]]]}},{"type":"Feature","id":"gebouw/Gebouw.19710555/0","properties":{"source":"Digitaal Vlaanderen Gebouwenregister","source_id":"gebouw/Gebouw.19710555/0","kind":"building","building":"official","height_m":7.35,"status":null},"geometry":{"type":"Polygon","coordinates":[[[3.93860493,50.90566401],[3.93875116,50.9057055],[3.93869491,50.90578466],[3.93872691,50.9057952],[3.93865721,50.90590127],[3.93847615,50.90585375],[3.93850168,50.90581542],[3.93853129,50.90577095],[3.93858023,50.90569988],[3.93860493,50.90566401]]]}},{"type":"Feature","id":"gebouw/Gebouw.19710556/0","properties":{"source":"Digitaal Vlaanderen Gebouwenregister","source_id":"gebouw/Gebouw.19710556/0","kind":"building","building":"official","height_m":8.1,"status":null},"geometry":{"type":"Polygon","coordinates":[[[3.93860493,50.90566401],[3.93858023,50.90569988],[3.93846373,50.90566582],[3.93849087,50.90562972],[3.93860493,50.90566401]]]}},{"type":"Feature","id":"gebouw/Gebouw.19718479/0","properties":{"source":"Digitaal Vlaanderen Gebouwenregister","source_id":"gebouw/Gebouw.19718479/0","kind":"building","building":"official","height_m":5.85,"status":null},"geometry":{"type":"Polygon","coordinates":[[[3.93716979,50.90068833],[3.93712754,50.90075021],[3.93696315,50.90070532],[3.93699738,50.90065466],[3.93694676,50.90064031],[3.93696972,50.90060962],[3.9370292,50.90062852],[3.93701589,50.90064686],[3.93716979,50.90068833]]]}},{"type":"Feature","id":"gebouw/Gebouw.19718480/0","properties":{"source":"Digitaal Vlaanderen Gebouwenregister","source_id":"gebouw/Gebouw.19718480/0","kind":"building","building":"official","height_m":6.6,"status":null},"geometry":{"type":"Polygon","coordinates":[[[3.93716979,50.90068833],[3.93735906,50.90073933],[3.93731784,50.90080217],[3.93712754,50.90075021],[3.93716979,50.90068833]]]}},{"type":"Feature","id":"gebouw/Gebouw.19719275/0","properties":{"source":"Digitaal Vlaanderen Gebouwenregister","source_id":"gebouw/Gebouw.19719275/0","kind":"building","building":"official","height_m":8.85,"status":null},"geometry":{"type":"Polygon","coordinates":[[[3.93723633,50.90687258],[3.93712685,50.90684591],[3.93708266,50.90691654],[3.93701161,50.9069004],[3.93716052,50.90665688],[3.93724133,50.90667542],[3.93733474,50.90669731],[3.93723633,50.90687258]]]}},{"type":"Feature","id":"gebouw/Gebouw.19719276/0","properties":{"source":"Digitaal Vlaanderen Gebouwenregister","source_id":"gebouw/Gebouw.19719276/0","kind":"building","building":"official","height_m":5.1,"status":null},"geometry":{"type":"Polygon","coordinates":[[[3.9375982,50.90691545],[3.9375641,50.90697068],[3.93729503,50.90690527],[3.93730483,50.90688926],[3.93723633,50.90687258],[3.93733474,50.90669731],[3.93753813,50.90674786],[3.93752301,50.90677455],[3.93757653,50.90678626],[3.93758433,50.90682932],[3.93755209,50.90682192],[3.93749993,50.90680994],[3.93744849,50.90679812],[3.93737692,50.90678169],[3.9373381,50.90684717],[3.93742404,50.90686754],[3.93744166,50.90683666],[3.93744794,50.90682564],[3.93748496,50.90683479],[3.93753628,50.90684748],[3.93759003,50.90686077],[3.93759972,50.90691426],[3.9375982,50.90691545]]]}},{"type":"Feature","id":"gebouw/Gebouw.19721362/0","properties":{"source":"Digitaal Vlaanderen Gebouwenregister","source_id":"gebouw/Gebouw.19721362/0","kind":"building","building":"official","height_m":8.1,"status":null},"geometry":{"type":"Polygon","coordinates":[[[3.94175281,50.90683259],[3.94160399,50.9069558],[3.94155155,50.90692982],[3.94158933,50.90689889],[3.94151188,50.90686037],[3.94151714,50.90685581],[3.94143619,50.90681682],[3.94152697,50.90674318],[3.94161122,50.90678433],[3.94162072,50.90678894],[3.94163042,50.90678098],[3.94169024,50.90681011],[3.94169586,50.90681282],[3.94170175,50.90680794],[3.94175281,50.90683259]]]}},{"type":"Feature","id":"gebouw/Gebouw.19954678/0","properties":{"source":"Digitaal Vlaanderen Gebouwenregister","source_id":"gebouw/Gebouw.19954678/0","kind":"building","building":"official","height_m":8.1,"status":null},"geometry":{"type":"Polygon","coordinates":[[[3.93743993,50.90444111],[3.93738994,50.90448388],[3.93735115,50.90446576],[3.93740115,50.90442298],[3.93743993,50.90444111]]]}},{"type":"Feature","id":"gebouw/Gebouw.19954679/0","properties":{"source":"Digitaal Vlaanderen Gebouwenregister","source_id":"gebouw/Gebouw.19954679/0","kind":"building","building":"official","height_m":8.85,"status":null},"geometry":{"type":"Polygon","coordinates":[[[3.93733699,50.90201009],[3.93730681,50.90204501],[3.93717393,50.9019991],[3.9372041,50.90196418],[3.93733699,50.90201009]]]}},{"type":"Feature","id":"gebouw/Gebouw.19955231/0","properties":{"source":"Digitaal Vlaanderen Gebouwenregister","source_id":"gebouw/Gebouw.19955231/0","kind":"building","building":"official","height_m":8.85,"status":null},"geometry":{"type":"Polygon","coordinates":[[[3.93712805,50.90665385],[3.93698626,50.90662205],[3.93700305,50.90659212],[3.93714484,50.90662392],[3.93712805,50.90665385]]]}},{"type":"Feature","id":"gebouw/Gebouw.19955435/0","properties":{"source":"Digitaal Vlaanderen Gebouwenregister","source_id":"gebouw/Gebouw.19955435/0","kind":"building","building":"official","height_m":8.85,"status":null},"geometry":{"type":"Polygon","coordinates":[[[3.93722182,50.90223263],[3.93715302,50.90218593],[3.93712611,50.90220178],[3.93707937,50.90217006],[3.93705581,50.90218393],[3.93710167,50.90221507],[3.93709826,50.90221708],[3.93718345,50.9022749],[3.93721585,50.90225582],[3.93720033,50.90224528],[3.93722182,50.90223263]]]}},{"type":"Feature","id":"gebouw/Gebouw.19955436/0","properties":{"source":"Digitaal Vlaanderen Gebouwenregister","source_id":"gebouw/Gebouw.19955436/0","kind":"building","building":"official","height_m":5.1,"status":null},"geometry":{"type":"Polygon","coordinates":[[[3.93616166,50.90149162],[3.93619645,50.90150686],[3.93616545,50.90153516],[3.93613066,50.90151992],[3.93616166,50.90149162]]]}},{"type":"Feature","id":"gebouw/Gebouw.19955437/0","properties":{"source":"Digitaal Vlaanderen Gebouwenregister","source_id":"gebouw/Gebouw.19955437/0","kind":"building","building":"official","height_m":5.85,"status":null},"geometry":{"type":"Polygon","coordinates":[[[3.93651361,50.90029351],[3.93654593,50.90026382],[3.93659429,50.90028487],[3.93656197,50.90031456],[3.93651361,50.90029351]]]}},{"type":"Feature","id":"gebouw/Gebouw.19955446/0","properties":{"source":"Digitaal Vlaanderen Gebouwenregister","source_id":"gebouw/Gebouw.19955446/0","kind":"building","building":"official","height_m":8.1,"status":null},"geometry":{"type":"Polygon","coordinates":[[[3.94018391,50.90545727],[3.94014786,50.90550819],[3.94006593,50.905485],[3.94010198,50.90543408],[3.94018391,50.90545727]]]}},{"type":"Feature","id":"gebouw/Gebouw.19956130/0","properties":{"source":"Digitaal Vlaanderen Gebouwenregister","source_id":"gebouw/Gebouw.19956130/0","kind":"building","building":"official","height_m":8.1,"status":null},"geometry":{"type":"Polygon","coordinates":[[[3.93644487,50.90015568],[3.93651038,50.90018267],[3.93646388,50.9002278],[3.93639837,50.90020082],[3.93644487,50.90015568]]]}},{"type":"Feature","id":"gebouw/Gebouw.30883272/0","properties":{"source":"Digitaal Vlaanderen Gebouwenregister","source_id":"gebouw/Gebouw.30883272/0","kind":"building","building":"official","height_m":5.1,"status":null},"geometry":{"type":"Polygon","coordinates":[[[3.9369699,50.90667372],[3.93687938,50.90664572],[3.93690713,50.90661007],[3.93699765,50.90663807],[3.9369699,50.90667372]]]}},{"type":"Feature","id":"gebouw/Gebouw.30883273/0","properties":{"source":"Digitaal Vlaanderen Gebouwenregister","source_id":"gebouw/Gebouw.30883273/0","kind":"building","building":"official","height_m":5.85,"status":null},"geometry":{"type":"Polygon","coordinates":[[[3.94010465,50.90543297],[3.9401893,50.90545939],[3.94014996,50.90550981],[3.94006531,50.9054834],[3.94010465,50.90543297]]]}},{"type":"Feature","id":"gebouw/Gebouw.30883276/0","properties":{"source":"Digitaal Vlaanderen Gebouwenregister","source_id":"gebouw/Gebouw.30883276/0","kind":"building","building":"official","height_m":8.1,"status":null},"geometry":{"type":"Polygon","coordinates":[[[3.94039895,50.9047781],[3.94036215,50.90477134],[3.94037961,50.90473367],[3.9404164,50.90474043],[3.94039895,50.9047781]]]}},{"type":"Feature","id":"gebouw/Gebouw.31326769/0","properties":{"source":"Digitaal Vlaanderen Gebouwenregister","source_id":"gebouw/Gebouw.31326769/0","kind":"building","building":"official","height_m":5.85,"status":null},"geometry":{"type":"Polygon","coordinates":[[[3.93654018,50.90144878],[3.9365108,50.9014889],[3.93641123,50.90145973],[3.93643978,50.90142077],[3.93654018,50.90144878]]]}},{"type":"Feature","id":"gebouw/Gebouw.31326770/0","properties":{"source":"Digitaal Vlaanderen Gebouwenregister","source_id":"gebouw/Gebouw.31326770/0","kind":"building","building":"official","height_m":6.6,"status":null},"geometry":{"type":"Polygon","coordinates":[[[3.93752298,50.90081975],[3.93759022,50.90082596],[3.93758404,50.90085276],[3.93751475,50.90084636],[3.93751531,50.90084455],[3.93752298,50.90081975]]]}},{"type":"Feature","id":"gebouw/Gebouw.31326791/0","properties":{"source":"Digitaal Vlaanderen Gebouwenregister","source_id":"gebouw/Gebouw.31326791/0","kind":"building","building":"official","height_m":8.85,"status":null},"geometry":{"type":"Polygon","coordinates":[[[3.93917146,50.90522612],[3.93912287,50.90521015],[3.93918043,50.90514012],[3.93922902,50.90515608],[3.93917146,50.90522612]]]}},{"type":"Feature","id":"gebouw/Gebouw.31844493/0","properties":{"source":"Digitaal Vlaanderen Gebouwenregister","source_id":"gebouw/Gebouw.31844493/0","kind":"building","building":"official","height_m":7.35,"status":null},"geometry":{"type":"Polygon","coordinates":[[[3.93856899,50.90137351],[3.93861432,50.90139702],[3.93864494,50.9013734],[3.93859961,50.9013499],[3.93856899,50.90137351]]]}},{"type":"Feature","id":"gebouw/Gebouw.31844532/0","properties":{"source":"Digitaal Vlaanderen Gebouwenregister","source_id":"gebouw/Gebouw.31844532/0","kind":"building","building":"official","height_m":5.1,"status":null},"geometry":{"type":"Polygon","coordinates":[[[3.94108852,50.90566373],[3.94098551,50.90573144],[3.94098838,50.90573318],[3.94099532,50.90572875],[3.94106336,50.90577134],[3.94105647,50.90577574],[3.94118452,50.90585608],[3.94129125,50.90578742],[3.94108852,50.90566373]]]}},{"type":"Feature","id":"gebouw/Gebouw.31844701/0","properties":{"source":"Digitaal Vlaanderen Gebouwenregister","source_id":"gebouw/Gebouw.31844701/0","kind":"building","building":"official","height_m":5.85,"status":null},"geometry":{"type":"Polygon","coordinates":[[[3.93640074,50.90208989],[3.93642939,50.90205898],[3.93638146,50.90204121],[3.9363795,50.90204333],[3.93635714,50.90203504],[3.93633045,50.90206382],[3.93640074,50.90208989]]]}},{"type":"Feature","id":"gebouw/Gebouw.31844905/0","properties":{"source":"Digitaal Vlaanderen Gebouwenregister","source_id":"gebouw/Gebouw.31844905/0","kind":"building","building":"official","height_m":5.85,"status":null},"geometry":{"type":"Polygon","coordinates":[[[3.94064339,50.90636212],[3.94073818,50.90629213],[3.94068775,50.90626483],[3.94059297,50.90633482],[3.94064339,50.90636212]]]}},{"type":"Feature","id":"gebouw/Gebouw.31844914/0","properties":{"source":"Digitaal Vlaanderen Gebouwenregister","source_id":"gebouw/Gebouw.31844914/0","kind":"building","building":"official","height_m":8.1,"status":null},"geometry":{"type":"Polygon","coordinates":[[[3.93859012,50.90127339],[3.93863169,50.90129494],[3.93866973,50.90126561],[3.93862817,50.90124405],[3.93859012,50.90127339]]]}},{"type":"Feature","id":"gebouw/Gebouw.31845021/0","properties":{"source":"Digitaal Vlaanderen Gebouwenregister","source_id":"gebouw/Gebouw.31845021/0","kind":"building","building":"official","height_m":7.35,"status":null},"geometry":{"type":"Polygon","coordinates":[[[3.93966903,50.90394703],[3.93972873,50.90401083],[3.93975924,50.90399941],[3.93969955,50.90393561],[3.93966903,50.90394703]]]}},{"type":"Feature","id":"gebouw/Gebouw.31845116/0","properties":{"source":"Digitaal Vlaanderen Gebouwenregister","source_id":"gebouw/Gebouw.31845116/0","kind":"building","building":"official","height_m":6.6,"status":null},"geometry":{"type":"Polygon","coordinates":[[[3.94155002,50.9057812],[3.94159903,50.9058103],[3.94163463,50.90578633],[3.94158562,50.90575723],[3.94155002,50.9057812]]]}},{"type":"Feature","id":"gebouw/Gebouw.31845120/0","properties":{"source":"Digitaal Vlaanderen Gebouwenregister","source_id":"gebouw/Gebouw.31845120/0","kind":"building","building":"official","height_m":5.1,"status":null},"geometry":{"type":"Polygon","coordinates":[[[3.93603973,50.90130806],[3.93599679,50.90129531],[3.93599317,50.90130018],[3.93597032,50.90133095],[3.93601326,50.9013437],[3.93603684,50.90131196],[3.93603973,50.90130806]]]}},{"type":"Feature","id":"gebouw/Gebouw.31845121/0","properties":{"source":"Digitaal Vlaanderen Gebouwenregister","source_id":"gebouw/Gebouw.31845121/0","kind":"building","building":"official","height_m":5.85,"status":null},"geometry":{"type":"Polygon","coordinates":[[[3.93952003,50.90397478],[3.93956185,50.90394838],[3.93948495,50.90389967],[3.93944313,50.90392607],[3.93952003,50.90397478]]]}},{"type":"Feature","id":"gebouw/Gebouw.31845327/0","properties":{"source":"Digitaal Vlaanderen Gebouwenregister","source_id":"gebouw/Gebouw.31845327/0","kind":"building","building":"official","height_m":7.35,"status":null},"geometry":{"type":"Polygon","coordinates":[[[3.93705208,50.90682098],[3.93699623,50.90680744],[3.93695252,50.90687955],[3.93700837,50.90689309],[3.93705208,50.90682098]]]}},{"type":"Feature","id":"way/163410547","properties":{"source":"OpenStreetMap","source_id":"way/163410547","kind":"vegetation","landuse":"forest","natural":null,"name":null},"geometry":{"type":"Polygon","coordinates":[[[3.9342518,50.9067973],[3.9354328,50.9069219],[3.9362447,50.9070699],[3.9366243,50.907163],[3.9366322,50.9071397],[3.936105,50.9069901],[3.9354539,50.9068105],[3.93493,50.9066691],[3.9343098,50.9065612],[3.9342518,50.9067973]]]}},{"type":"Feature","id":"way/163694888","properties":{"source":"OpenStreetMap","source_id":"way/163694888","kind":"vegetation","landuse":"forest","natural":null,"name":null},"geometry":{"type":"Polygon","coordinates":[[[3.9403512,50.9006473],[3.9400059,50.9009224],[3.9395663,50.901267],[3.9396461,50.9013095],[3.9398433,50.9011487],[3.9404356,50.9014134],[3.9410618,50.9009824],[3.9403512,50.9006473]]]}},{"type":"Feature","id":"way/163694901","properties":{"source":"OpenStreetMap","source_id":"way/163694901","kind":"vegetation","landuse":"forest","natural":null,"name":null},"geometry":{"type":"Polygon","coordinates":[[[3.9368803,50.9002845],[3.936894,50.900288],[3.9370289,50.9005898],[3.9370831,50.9006274],[3.9374854,50.9002841],[3.9377232,50.9003916],[3.9374922,50.9006042],[3.9373283,50.9007511],[3.9377885,50.9008965],[3.9374833,50.9013575],[3.9372417,50.901253],[3.9370141,50.901152],[3.9370484,50.9010997],[3.9371245,50.9009139],[3.9370376,50.9008118],[3.9369044,50.9007114],[3.9366051,50.9005838],[3.9368803,50.9002845]]]}},{"type":"Feature","id":"way/190933407","properties":{"source":"OpenStreetMap","source_id":"way/190933407","kind":"vegetation","landuse":"forest","natural":null,"name":null},"geometry":{"type":"Polygon","coordinates":[[[3.9392848,50.9009145],[3.939172,50.900863],[3.9385994,50.9012296],[3.9392792,50.9014948],[3.9393649,50.9015353],[3.9396461,50.9013095],[3.9395663,50.901267],[3.9400059,50.9009224],[3.9398264,50.9008263],[3.9395471,50.9010363],[3.9392848,50.9009145]]]}},{"type":"Feature","id":"way/457976733","properties":{"source":"OpenStreetMap","source_id":"way/457976733","kind":"waterway","waterway":"stream","name":null},"geometry":{"type":"LineString","coordinates":[[3.9385399,50.9012007],[3.9390602,50.9014215],[3.9395977,50.9016464]]}},{"type":"Feature","id":"way/457976735","properties":{"source":"OpenStreetMap","source_id":"way/457976735","kind":"waterway","waterway":"stream","name":null},"geometry":{"type":"LineString","coordinates":[[3.9395977,50.9016464],[3.9398843,50.9017845],[3.9400432,50.9016742],[3.9402424,50.9017697],[3.9399834,50.9019841],[3.9400293,50.9020049],[3.9403898,50.9021684],[3.9405944,50.902283],[3.9408566,50.9024746],[3.9412674,50.9028197],[3.9416281,50.9030872],[3.942123,50.9034263],[3.9427073,50.9038327],[3.9431927,50.9041636]]}},{"type":"Feature","id":"way/458941567","properties":{"source":"OpenStreetMap","source_id":"way/458941567","kind":"vegetation","landuse":"orchard","natural":null,"name":null},"geometry":{"type":"Polygon","coordinates":[[[3.9408373,50.9042163],[3.9415079,50.9049156],[3.9407797,50.9053902],[3.9399254,50.9045132],[3.9406777,50.9040464],[3.9408373,50.9042163]]]}},{"type":"Feature","id":"way/793429570","properties":{"source":"OpenStreetMap","source_id":"way/793429570","kind":"waterway","waterway":"ditch","name":null},"geometry":{"type":"LineString","coordinates":[[3.9394087,50.9054093],[3.9391103,50.9057383]]}},{"type":"Feature","id":"way/793429571","properties":{"source":"OpenStreetMap","source_id":"way/793429571","kind":"waterway","waterway":"ditch","name":null},"geometry":{"type":"LineString","coordinates":[[3.9396702,50.9051324],[3.9394469,50.9053687]]}},{"type":"Feature","id":"way/793429572","properties":{"source":"OpenStreetMap","source_id":"way/793429572","kind":"waterway","waterway":"ditch","name":null},"geometry":{"type":"LineString","coordinates":[[3.9378034,50.9067376],[3.9381071,50.9068329]]}},{"type":"Feature","id":"way/793429573","properties":{"source":"OpenStreetMap","source_id":"way/793429573","kind":"waterway","waterway":"ditch","name":null},"geometry":{"type":"LineString","coordinates":[[3.9385926,50.9065628],[3.9385644,50.9067206],[3.9385584,50.9068123]]}},{"type":"Feature","id":"way/793429574","properties":{"source":"OpenStreetMap","source_id":"way/793429574","kind":"waterway","waterway":"ditch","name":null},"geometry":{"type":"LineString","coordinates":[[3.9387857,50.9063379],[3.9387502,50.9064597]]}},{"type":"Feature","id":"way/793429575","properties":{"source":"OpenStreetMap","source_id":"way/793429575","kind":"waterway","waterway":"ditch","name":null},"geometry":{"type":"LineString","coordinates":[[3.9390948,50.905559],[3.9390332,50.9056186],[3.9389721,50.9056901],[3.9388709,50.9058203],[3.93884,50.9058656],[3.9387897,50.905951],[3.9387193,50.9060808],[3.9386556,50.9062622],[3.9386134,50.9064263],[3.9386013,50.906513]]}},{"type":"Feature","id":"way/794453756","properties":{"source":"OpenStreetMap","source_id":"way/794453756","kind":"waterway","waterway":"stream","name":null},"geometry":{"type":"LineString","coordinates":[[3.9385356,50.9027165],[3.9392437,50.9020752],[3.9393258,50.9020331],[3.9400293,50.9020049]]}}]}