{"type":"FeatureCollection","features":[{"type":"Feature","id":"gebouw/Gebouw.12952170/0","properties":{"source":"Digitaal Vlaanderen Gebouwenregister","source_id":"gebouw/Gebouw.12952170/0","kind":"building","building":"official","height_m":5.1,"status":null},"geometry":{"type":"Polygon","coordinates":[[[3.93291616,50.8775602],[3.93286824,50.87752169],[3.93291392,50.87749894],[3.93296184,50.87753745],[3.93291616,50.8775602]]]}},{"type":"Feature","id":"gebouw/Gebouw.13048624/0","properties":{"source":"Digitaal Vlaanderen Gebouwenregister","source_id":"gebouw/Gebouw.13048624/0","kind":"building","building":"official","height_m":8.1,"status":null},"geometry":{"type":"Polygon","coordinates":[[[3.93440685,50.87559485],[3.93436966,50.87564398],[3.93436598,50.87564885],[3.93435956,50.87564404],[3.93428639,50.87558929],[3.93425533,50.87560515],[3.93410411,50.8754893],[3.93401948,50.87542446],[3.93407856,50.87539377],[3.9340226,50.87534811],[3.93405708,50.8753299],[3.93402829,50.87530376],[3.93402401,50.87530552],[3.93393934,50.87523693],[3.93400882,50.87520595],[3.93414177,50.87531098],[3.93421725,50.87527473],[3.93421867,50.87527571],[3.93429971,50.87523652],[3.93441172,50.87518237],[3.93449992,50.87525576],[3.93450577,50.87525272],[3.93454062,50.87528147],[3.93456332,50.87526905],[3.93460312,50.87529924],[3.93456651,50.87533782],[3.93451845,50.87537729],[3.9344502,50.87533337],[3.93440392,50.87535915],[3.93440768,50.87536057],[3.93434966,50.87539317],[3.93439062,50.87541945],[3.93440296,50.87541265],[3.93443347,50.87543095],[3.93445241,50.87541989],[3.93450926,50.87545674],[3.9344897,50.87548535],[3.93445708,50.87552762],[3.93445477,50.87553061],[3.93440685,50.87559485]],[[3.93422856,50.87545548],[3.93434563,50.87554524],[3.93437943,50.87550222],[3.93427672,50.8754307],[3.93422856,50.87545548]]]}},{"type":"Feature","id":"gebouw/Gebouw.13073783/0","properties":{"source":"Digitaal Vlaanderen Gebouwenregister","source_id":"gebouw/Gebouw.13073783/0","kind":"building","building":"official","height_m":8.85,"status":null},"geometry":{"type":"Polygon","coordinates":[[[3.93280998,50.8779944],[3.93276301,50.87795955],[3.93278889,50.87794559],[3.93283586,50.87798044],[3.93280998,50.8779944]]]}},{"type":"Feature","id":"gebouw/Gebouw.13099670/0","properties":{"source":"Digitaal Vlaanderen Gebouwenregister","source_id":"gebouw/Gebouw.13099670/0","kind":"building","building":"official","height_m":6.6,"status":null},"geometry":{"type":"Polygon","coordinates":[[[3.93330296,50.876233],[3.93322254,50.87617166],[3.93328071,50.87614113],[3.93336265,50.87620195],[3.93330296,50.876233]]]}},{"type":"Feature","id":"gebouw/Gebouw.13102089/0","properties":{"source":"Digitaal Vlaanderen Gebouwenregister","source_id":"gebouw/Gebouw.13102089/0","kind":"building","building":"official","height_m":7.35,"status":null},"geometry":{"type":"Polygon","coordinates":[[[3.93282004,50.87919745],[3.93280164,50.87918869],[3.93272153,50.87925355],[3.93266055,50.87922484],[3.93264453,50.87923774],[3.93262493,50.87922819],[3.93265934,50.87919925],[3.93267414,50.8791868],[3.93272225,50.87914634],[3.93279813,50.87908253],[3.93289744,50.87913004],[3.93288888,50.87913722],[3.93289,50.87913776],[3.93282004,50.87919745]]]}},{"type":"Feature","id":"gebouw/Gebouw.13111363/0","properties":{"source":"Digitaal Vlaanderen Gebouwenregister","source_id":"gebouw/Gebouw.13111363/0","kind":"building","building":"official","height_m":5.85,"status":null},"geometry":{"type":"Polygon","coordinates":[[[3.93387388,50.87556538],[3.93382276,50.8755834],[3.93378204,50.87553715],[3.93383203,50.87551786],[3.93387388,50.87556538]]]}},{"type":"Feature","id":"gebouw/Gebouw.13119752/0","properties":{"source":"Digitaal Vlaanderen Gebouwenregister","source_id":"gebouw/Gebouw.13119752/0","kind":"building","building":"official","height_m":6.6,"status":null},"geometry":{"type":"Polygon","coordinates":[[[3.93739605,50.87847148],[3.93737775,50.87849569],[3.9373123,50.87847588],[3.93733059,50.87845167],[3.93739605,50.87847148]]]}},{"type":"Feature","id":"gebouw/Gebouw.13184401/0","properties":{"source":"Digitaal Vlaanderen Gebouwenregister","source_id":"gebouw/Gebouw.13184401/0","kind":"building","building":"official","height_m":5.85,"status":null},"geometry":{"type":"Polygon","coordinates":[[[3.93266941,50.87788994],[3.93269258,50.87787804],[3.93278065,50.87794665],[3.93275749,50.87795855],[3.93266941,50.87788994]]]}},{"type":"Feature","id":"gebouw/Gebouw.13209115/0","properties":{"source":"Digitaal Vlaanderen Gebouwenregister","source_id":"gebouw/Gebouw.13209115/0","kind":"building","building":"official","height_m":5.85,"status":null},"geometry":{"type":"Polygon","coordinates":[[[3.93286105,50.87893554],[3.93280684,50.87897313],[3.93274734,50.87893997],[3.93257735,50.87884416],[3.93256524,50.878835],[3.93253986,50.8788158],[3.93253945,50.87881226],[3.93254898,50.87880484],[3.9326087,50.8787584],[3.93259226,50.87875373],[3.93258274,50.87875102],[3.93258341,50.87875008],[3.93263159,50.87868222],[3.93265363,50.87868849],[3.93266604,50.87867102],[3.93269784,50.87867921],[3.93268619,50.87869604],[3.93278097,50.87873393],[3.93284385,50.8787608],[3.93291228,50.87879778],[3.93280389,50.8788769],[3.93291529,50.87894115],[3.93289322,50.87895576],[3.93286105,50.87893554]],[[3.93273436,50.87883666],[3.93280652,50.87878398],[3.93266383,50.87872601],[3.93262774,50.87877648],[3.93273436,50.87883666]]]}},{"type":"Feature","id":"gebouw/Gebouw.13226649/0","properties":{"source":"Digitaal Vlaanderen Gebouwenregister","source_id":"gebouw/Gebouw.13226649/0","kind":"building","building":"official","height_m":7.35,"status":null},"geometry":{"type":"Polygon","coordinates":[[[3.93348116,50.87874486],[3.93365898,50.87881247],[3.93356724,50.87890904],[3.93344449,50.87886237],[3.93331521,50.87898955],[3.93325769,50.87896676],[3.93348116,50.87874486]]]}},{"type":"Feature","id":"gebouw/Gebouw.13226743/0","properties":{"source":"Digitaal Vlaanderen Gebouwenregister","source_id":"gebouw/Gebouw.13226743/0","kind":"building","building":"official","height_m":5.85,"status":null},"geometry":{"type":"Polygon","coordinates":[[[3.9341657,50.87632346],[3.9340969,50.87629122],[3.93412323,50.87626872],[3.93419204,50.87630096],[3.9341657,50.87632346]]]}},{"type":"Feature","id":"gebouw/Gebouw.13228663/0","properties":{"source":"Digitaal Vlaanderen Gebouwenregister","source_id":"gebouw/Gebouw.13228663/0","kind":"building","building":"official","height_m":5.85,"status":null},"geometry":{"type":"Polygon","coordinates":[[[3.93320123,50.87953803],[3.93324011,50.87954116],[3.93323382,50.87958499],[3.93321728,50.87958379],[3.9332131,50.87960602],[3.93317146,50.87960282],[3.93317552,50.87957933],[3.93316402,50.87957853],[3.93317212,50.87954034],[3.93317309,50.87953577],[3.93320123,50.87953803]]]}},{"type":"Feature","id":"gebouw/Gebouw.13231187/0","properties":{"source":"Digitaal Vlaanderen Gebouwenregister","source_id":"gebouw/Gebouw.13231187/0","kind":"building","building":"official","height_m":8.85,"status":null},"geometry":{"type":"Polygon","coordinates":[[[3.93306345,50.87835235],[3.9331898,50.87840612],[3.93323383,50.87840037],[3.93330083,50.87842774],[3.93328675,50.87844275],[3.93333785,50.87846386],[3.93328754,50.87851355],[3.93301545,50.87839853],[3.93306345,50.87835235]]]}},{"type":"Feature","id":"gebouw/Gebouw.13263899/0","properties":{"source":"Digitaal Vlaanderen Gebouwenregister","source_id":"gebouw/Gebouw.13263899/0","kind":"building","building":"official","height_m":8.85,"status":null},"geometry":{"type":"Polygon","coordinates":[[[3.93232727,50.87867898],[3.93228188,50.87863944],[3.93233573,50.8786151],[3.93238182,50.87865316],[3.93233956,50.87867317],[3.93232727,50.87867898]]]}},{"type":"Feature","id":"gebouw/Gebouw.13270134/0","properties":{"source":"Digitaal Vlaanderen Gebouwenregister","source_id":"gebouw/Gebouw.13270134/0","kind":"building","building":"official","height_m":5.1,"status":null},"geometry":{"type":"Polygon","coordinates":[[[3.93354034,50.87726857],[3.93344522,50.87732739],[3.93319707,50.87717128],[3.93337754,50.8770622],[3.93344622,50.87710792],[3.93344412,50.87710917],[3.93343614,50.87710376],[3.93341725,50.8771149],[3.9333286,50.87716966],[3.9334695,50.87725885],[3.93352086,50.87722737],[3.93352445,50.87722647],[3.93354034,50.87726857]]]}},{"type":"Feature","id":"gebouw/Gebouw.13272788/0","properties":{"source":"Digitaal Vlaanderen Gebouwenregister","source_id":"gebouw/Gebouw.13272788/0","kind":"building","building":"official","height_m":6.6,"status":null},"geometry":{"type":"Polygon","coordinates":[[[3.93417131,50.87701443],[3.93424484,50.87695279],[3.93432855,50.87699226],[3.93425695,50.87705402],[3.93417131,50.87701443]]]}},{"type":"Feature","id":"gebouw/Gebouw.13294997/0","properties":{"source":"Digitaal Vlaanderen Gebouwenregister","source_id":"gebouw/Gebouw.13294997/0","kind":"building","building":"official","height_m":8.85,"status":null},"geometry":{"type":"Polygon","coordinates":[[[3.93269307,50.87847216],[3.93261981,50.87851282],[3.93261963,50.87851292],[3.93255824,50.878547],[3.93255599,50.87854812],[3.93241639,50.8784491],[3.93228036,50.87834117],[3.93240432,50.8782775],[3.93242007,50.87829033],[3.9324543,50.87827586],[3.9323853,50.87822121],[3.93248318,50.87817354],[3.93258881,50.87826105],[3.93269997,50.87835312],[3.93275356,50.87839752],[3.93277252,50.87841322],[3.93277135,50.87841409],[3.93269307,50.87847216]],[[3.93268255,50.8784142],[3.93255642,50.87831349],[3.93254099,50.87832208],[3.93251439,50.87830295],[3.9324148,50.87834888],[3.93254602,50.87844879],[3.93261646,50.87841259],[3.93264915,50.87843827],[3.93268255,50.8784142]]]}},{"type":"Feature","id":"gebouw/Gebouw.13308671/0","properties":{"source":"Digitaal Vlaanderen Gebouwenregister","source_id":"gebouw/Gebouw.13308671/0","kind":"building","building":"official","height_m":8.85,"status":null},"geometry":{"type":"Polygon","coordinates":[[[3.93395053,50.87566512],[3.93391284,50.87562532],[3.93387595,50.87563821],[3.93391135,50.87567899],[3.93390665,50.87568196],[3.9339498,50.87572388],[3.93395428,50.87572197],[3.93398771,50.87570764],[3.9339356,50.87567091],[3.93395053,50.87566512]]]}},{"type":"Feature","id":"gebouw/Gebouw.13316844/0","properties":{"source":"Digitaal Vlaanderen Gebouwenregister","source_id":"gebouw/Gebouw.13316844/0","kind":"building","building":"official","height_m":5.1,"status":null},"geometry":{"type":"Polygon","coordinates":[[[3.93369631,50.87636438],[3.93356173,50.87628334],[3.93341965,50.87638043],[3.93363585,50.87651146],[3.9337244,50.87645241],[3.93364095,50.87640074],[3.93369631,50.87636438]],[[3.93358064,50.87643285],[3.93351653,50.876394],[3.93356308,50.87636326],[3.93362719,50.87640211],[3.93358064,50.87643285]]]}},{"type":"Feature","id":"gebouw/Gebouw.13318468/0","properties":{"source":"Digitaal Vlaanderen Gebouwenregister","source_id":"gebouw/Gebouw.13318468/0","kind":"building","building":"official","height_m":8.1,"status":null},"geometry":{"type":"Polygon","coordinates":[[[3.93310425,50.87778001],[3.93305738,50.87780534],[3.93316095,50.8778799],[3.93306509,50.87793138],[3.93306939,50.87793455],[3.93298766,50.87797853],[3.93289891,50.87791301],[3.93299258,50.8778626],[3.93295623,50.87783401],[3.9330339,50.8777918],[3.9329619,50.87773781],[3.9330142,50.87771061],[3.93310425,50.87778001]]]}},{"type":"Feature","id":"gebouw/Gebouw.13318540/0","properties":{"source":"Digitaal Vlaanderen Gebouwenregister","source_id":"gebouw/Gebouw.13318540/0","kind":"building","building":"official","height_m":8.1,"status":null},"geometry":{"type":"Polygon","coordinates":[[[3.93261887,50.87930492],[3.93257269,50.87928563],[3.93259308,50.87926516],[3.93263924,50.87928482],[3.93261887,50.87930492]]]}},{"type":"Feature","id":"gebouw/Gebouw.13319273/0","properties":{"source":"Digitaal Vlaanderen Gebouwenregister","source_id":"gebouw/Gebouw.13319273/0","kind":"building","building":"official","height_m":8.85,"status":null},"geometry":{"type":"Polygon","coordinates":[[[3.9322872,50.87818548],[3.93201418,50.87796658],[3.93210648,50.87791877],[3.93237943,50.87813879],[3.9322872,50.87818548]]]}},{"type":"Feature","id":"gebouw/Gebouw.13321513/0","properties":{"source":"Digitaal Vlaanderen Gebouwenregister","source_id":"gebouw/Gebouw.13321513/0","kind":"building","building":"official","height_m":5.85,"status":null},"geometry":{"type":"Polygon","coordinates":[[[3.93292174,50.87849199],[3.93308936,50.87857186],[3.932912,50.87871699],[3.93274884,50.87863705],[3.93280741,50.87858717],[3.93292174,50.87849199]]]}},{"type":"Feature","id":"gebouw/Gebouw.13350654/0","properties":{"source":"Digitaal Vlaanderen Gebouwenregister","source_id":"gebouw/Gebouw.13350654/0","kind":"building","building":"official","height_m":5.1,"status":null},"geometry":{"type":"Polygon","coordinates":[[[3.93240907,50.87768859],[3.93234793,50.87764739],[3.93236888,50.87763485],[3.93243025,50.87767593],[3.93240907,50.87768859]]]}},{"type":"Feature","id":"gebouw/Gebouw.13355296/0","properties":{"source":"Digitaal Vlaanderen Gebouwenregister","source_id":"gebouw/Gebouw.13355296/0","kind":"building","building":"official","height_m":8.1,"status":null},"geometry":{"type":"Polygon","coordinates":[[[3.93477648,50.87567713],[3.93467389,50.87563916],[3.93469129,50.87562034],[3.93479389,50.87565831],[3.93477648,50.87567713]]]}},{"type":"Feature","id":"gebouw/Gebouw.13372412/0","properties":{"source":"Digitaal Vlaanderen Gebouwenregister","source_id":"gebouw/Gebouw.13372412/0","kind":"building","building":"official","height_m":6.6,"status":null},"geometry":{"type":"Polygon","coordinates":[[[3.9327629,50.87838878],[3.93276548,50.878391],[3.93276092,50.87839328],[3.93270754,50.87834963],[3.93259526,50.87825783],[3.93256466,50.87823281],[3.93263005,50.87820098],[3.93261043,50.87818392],[3.93266197,50.8781594],[3.93271115,50.87819999],[3.93267581,50.87821763],[3.93278656,50.87831322],[3.93285647,50.87828101],[3.93290374,50.87832342],[3.93289915,50.87832559],[3.93289647,50.87832342],[3.9327629,50.87838878]]]}},{"type":"Feature","id":"gebouw/Gebouw.13381813/0","properties":{"source":"Digitaal Vlaanderen Gebouwenregister","source_id":"gebouw/Gebouw.13381813/0","kind":"building","building":"official","height_m":5.85,"status":null},"geometry":{"type":"Polygon","coordinates":[[[3.93476698,50.87582847],[3.93467336,50.87594184],[3.93455421,50.8759001],[3.93449742,50.87596822],[3.93428286,50.87589326],[3.93439636,50.87575376],[3.9345108,50.87561309],[3.93472747,50.87569617],[3.93467495,50.87575978],[3.93476493,50.87578952],[3.93474011,50.87581959],[3.93476698,50.87582847]],[[3.93442408,50.87584622],[3.93455125,50.87589231],[3.93466387,50.8757596],[3.93459787,50.87573489],[3.93457705,50.87575742],[3.9345124,50.87573482],[3.93442408,50.87584622]]]}},{"type":"Feature","id":"gebouw/Gebouw.13403993/0","properties":{"source":"Digitaal Vlaanderen Gebouwenregister","source_id":"gebouw/Gebouw.13403993/0","kind":"building","building":"official","height_m":8.85,"status":null},"geometry":{"type":"Polygon","coordinates":[[[3.93236981,50.87908093],[3.93229964,50.87904654],[3.93233769,50.87901404],[3.93237087,50.87903057],[3.9323893,50.87901507],[3.93242664,50.87903361],[3.93236981,50.87908093]]]}},{"type":"Feature","id":"gebouw/Gebouw.13408072/0","properties":{"source":"Digitaal Vlaanderen Gebouwenregister","source_id":"gebouw/Gebouw.13408072/0","kind":"building","building":"official","height_m":8.1,"status":null},"geometry":{"type":"Polygon","coordinates":[[[3.93445697,50.87688298],[3.9344411,50.87687531],[3.93437579,50.87692944],[3.93426728,50.87687767],[3.93433149,50.87682348],[3.93429876,50.87680719],[3.93435347,50.8767621],[3.93443071,50.87679771],[3.93441191,50.87681492],[3.93449153,50.87685433],[3.93445697,50.87688298]]]}},{"type":"Feature","id":"gebouw/Gebouw.13449797/0","properties":{"source":"Digitaal Vlaanderen Gebouwenregister","source_id":"gebouw/Gebouw.13449797/0","kind":"building","building":"official","height_m":8.85,"status":null},"geometry":{"type":"Polygon","coordinates":[[[3.93423429,50.87645463],[3.93425617,50.87646462],[3.93426457,50.87647588],[3.93430487,50.87649425],[3.93415459,50.8766265],[3.93403491,50.87657066],[3.9340817,50.87652991],[3.9341035,50.87653993],[3.93412088,50.87652481],[3.93413844,50.87650944],[3.93414454,50.87650407],[3.93415413,50.87649578],[3.93416013,50.87649052],[3.9341383,50.87648052],[3.93418492,50.87643976],[3.93422072,50.87645607],[3.93423429,50.87645463]]]}},{"type":"Feature","id":"gebouw/Gebouw.13452651/0","properties":{"source":"Digitaal Vlaanderen Gebouwenregister","source_id":"gebouw/Gebouw.13452651/0","kind":"building","building":"official","height_m":7.35,"status":null},"geometry":{"type":"Polygon","coordinates":[[[3.93389854,50.87629717],[3.93383458,50.876381],[3.93377791,50.87636312],[3.93383948,50.8762796],[3.93389854,50.87629717]]]}},{"type":"Feature","id":"gebouw/Gebouw.13457916/0","properties":{"source":"Digitaal Vlaanderen Gebouwenregister","source_id":"gebouw/Gebouw.13457916/0","kind":"building","building":"official","height_m":5.1,"status":null},"geometry":{"type":"Polygon","coordinates":[[[3.93206165,50.8788107],[3.93209905,50.87884552],[3.93202102,50.87887899],[3.93198413,50.87884531],[3.93206165,50.8788107]]]}},{"type":"Feature","id":"gebouw/Gebouw.13497996/0","properties":{"source":"Digitaal Vlaanderen Gebouwenregister","source_id":"gebouw/Gebouw.13497996/0","kind":"building","building":"official","height_m":5.1,"status":null},"geometry":{"type":"Polygon","coordinates":[[[3.9318228,50.87859267],[3.9317916,50.87856327],[3.93178957,50.87856135],[3.93170491,50.87859784],[3.93171443,50.87860636],[3.93169209,50.87861608],[3.93181687,50.87873234],[3.93182142,50.87873038],[3.93181661,50.87872593],[3.93181832,50.87872519],[3.93183566,50.87871789],[3.93184994,50.87873116],[3.93193238,50.87869595],[3.9318228,50.87859267]]]}},{"type":"Feature","id":"gebouw/Gebouw.13527250/0","properties":{"source":"Digitaal Vlaanderen Gebouwenregister","source_id":"gebouw/Gebouw.13527250/0","kind":"building","building":"official","height_m":8.1,"status":null},"geometry":{"type":"Polygon","coordinates":[[[3.93368617,50.87919998],[3.93354196,50.87936938],[3.93360957,50.87939207],[3.93355036,50.87946389],[3.93320296,50.87934042],[3.93314054,50.87931824],[3.93313538,50.87931641],[3.93316377,50.87922817],[3.93316414,50.87922702],[3.9331387,50.87921812],[3.9331278,50.87921863],[3.93312687,50.87921077],[3.93312817,50.87921071],[3.93312485,50.87917002],[3.93312192,50.87916884],[3.93324707,50.87904398],[3.93332599,50.87904895],[3.93352874,50.87911851],[3.93351094,50.87914038],[3.93368617,50.87919998]],[[3.93341473,50.8793073],[3.93350308,50.87919985],[3.93328349,50.87912889],[3.9332465,50.87916657],[3.93323866,50.87916391],[3.93321094,50.87919189],[3.93320867,50.8792339],[3.93341473,50.8793073]]]}},{"type":"Feature","id":"gebouw/Gebouw.13538564/0","properties":{"source":"Digitaal Vlaanderen Gebouwenregister","source_id":"gebouw/Gebouw.13538564/0","kind":"building","building":"official","height_m":6.6,"status":null},"geometry":{"type":"Polygon","coordinates":[[[3.93349232,50.876588],[3.93341548,50.87663885],[3.93333043,50.87658884],[3.93337485,50.87655981],[3.93335413,50.87654591],[3.93336212,50.87654052],[3.93341137,50.87650728],[3.93343276,50.87652007],[3.93349103,50.87648211],[3.93359087,50.87654154],[3.93353724,50.87657752],[3.93352184,50.87656847],[3.93349232,50.876588]]]}},{"type":"Feature","id":"gebouw/Gebouw.13608410/0","properties":{"source":"Digitaal Vlaanderen Gebouwenregister","source_id":"gebouw/Gebouw.13608410/0","kind":"building","building":"official","height_m":6.6,"status":null},"geometry":{"type":"Polygon","coordinates":[[[3.93237947,50.87808763],[3.93242373,50.87806788],[3.93248824,50.87812601],[3.93244759,50.87814406],[3.93237947,50.87808763]]]}},{"type":"Feature","id":"gebouw/Gebouw.13655461/0","properties":{"source":"Digitaal Vlaanderen Gebouwenregister","source_id":"gebouw/Gebouw.13655461/0","kind":"building","building":"official","height_m":5.85,"status":null},"geometry":{"type":"Polygon","coordinates":[[[3.93258428,50.87906786],[3.93248383,50.87915231],[3.93246648,50.87916689],[3.9324388,50.87915341],[3.93245595,50.87913697],[3.93243907,50.87912768],[3.93248154,50.87908828],[3.93246454,50.87908049],[3.93250816,50.87904149],[3.93248432,50.87902977],[3.93251177,50.87900591],[3.9325358,50.87901803],[3.93258238,50.8789791],[3.93265056,50.87901213],[3.93258428,50.87906786]]]}},{"type":"Feature","id":"gebouw/Gebouw.13655832/0","properties":{"source":"Digitaal Vlaanderen Gebouwenregister","source_id":"gebouw/Gebouw.13655832/0","kind":"building","building":"official","height_m":5.1,"status":null},"geometry":{"type":"Polygon","coordinates":[[[3.93224103,50.87865841],[3.93200362,50.87844937],[3.93193885,50.87847445],[3.93190887,50.87844837],[3.93185156,50.87847603],[3.93188427,50.87850315],[3.93182847,50.87853007],[3.93184041,50.87854017],[3.9317916,50.87856327],[3.9318228,50.87859267],[3.9318739,50.87856849],[3.93189134,50.87858324],[3.93200179,50.87853498],[3.93212807,50.87864209],[3.93212656,50.87864693],[3.93194638,50.87871226],[3.93198673,50.87875185],[3.93200786,50.87874409],[3.93206211,50.87872415],[3.93224103,50.87865841]]]}},{"type":"Feature","id":"gebouw/Gebouw.13706088/0","properties":{"source":"Digitaal Vlaanderen Gebouwenregister","source_id":"gebouw/Gebouw.13706088/0","kind":"building","building":"official","height_m":5.1,"status":null},"geometry":{"type":"Polygon","coordinates":[[[3.93323405,50.87775308],[3.93307818,50.8776401],[3.93314298,50.87760393],[3.93314723,50.87760686],[3.93321818,50.87757127],[3.93333497,50.87766084],[3.93325253,50.87770375],[3.93328345,50.87772742],[3.93323405,50.87775308]]]}},{"type":"Feature","id":"gebouw/Gebouw.13852029/0","properties":{"source":"Digitaal Vlaanderen Gebouwenregister","source_id":"gebouw/Gebouw.13852029/0","kind":"building","building":"official","height_m":7.35,"status":null},"geometry":{"type":"Polygon","coordinates":[[[3.93250419,50.87890196],[3.93239968,50.87897603],[3.93239195,50.87897152],[3.9322662,50.87889816],[3.93212574,50.87881621],[3.93218956,50.87877173],[3.93240069,50.87889112],[3.93243777,50.8788644],[3.93250419,50.87890196]]]}},{"type":"Feature","id":"gebouw/Gebouw.16650877/0","properties":{"source":"Digitaal Vlaanderen Gebouwenregister","source_id":"gebouw/Gebouw.16650877/0","kind":"building","building":"official","height_m":5.85,"status":null},"geometry":{"type":"Polygon","coordinates":[[[3.93221816,50.87858568],[3.93217936,50.87855383],[3.9322378,50.87852819],[3.93227332,50.87856014],[3.93221816,50.87858568]]]}},{"type":"Feature","id":"gebouw/Gebouw.16662854/0","properties":{"source":"Digitaal Vlaanderen Gebouwenregister","source_id":"gebouw/Gebouw.16662854/0","kind":"building","building":"official","height_m":6.6,"status":null},"geometry":{"type":"Polygon","coordinates":[[[3.93426938,50.87624672],[3.93420488,50.87622618],[3.93421127,50.87621823],[3.93415764,50.87620175],[3.93420018,50.87614648],[3.9341292,50.87612475],[3.93416413,50.87606784],[3.93417556,50.87604922],[3.93418709,50.87603044],[3.93435471,50.8760797],[3.93433824,50.87610109],[3.9343714,50.87611167],[3.9343475,50.87614331],[3.93437768,50.87615295],[3.93430559,50.87624348],[3.93427838,50.87623481],[3.93426938,50.87624672]]]}},{"type":"Feature","id":"gebouw/Gebouw.16665536/0","properties":{"source":"Digitaal Vlaanderen Gebouwenregister","source_id":"gebouw/Gebouw.16665536/0","kind":"building","building":"official","height_m":6.6,"status":null},"geometry":{"type":"Polygon","coordinates":[[[3.93319493,50.87650745],[3.93306706,50.87642902],[3.93305867,50.87643449],[3.93289465,50.87633388],[3.93306382,50.87622348],[3.93322831,50.87632438],[3.93321719,50.87633163],[3.9333446,50.87640978],[3.93319493,50.87650745]]]}},{"type":"Feature","id":"gebouw/Gebouw.16702243/0","properties":{"source":"Digitaal Vlaanderen Gebouwenregister","source_id":"gebouw/Gebouw.16702243/0","kind":"building","building":"official","height_m":5.85,"status":null},"geometry":{"type":"Polygon","coordinates":[[[3.93254427,50.87857378],[3.93245799,50.87850382],[3.93245341,50.87850614],[3.93245187,50.87850692],[3.93238049,50.8784504],[3.93226057,50.87850663],[3.93230965,50.87854642],[3.93234147,50.87853071],[3.93245225,50.87862054],[3.93245316,50.87862127],[3.93254484,50.87857602],[3.93254526,50.87857581],[3.9325462,50.87857535],[3.93254427,50.87857378]]]}},{"type":"Feature","id":"gebouw/Gebouw.16702261/0","properties":{"source":"Digitaal Vlaanderen Gebouwenregister","source_id":"gebouw/Gebouw.16702261/0","kind":"building","building":"official","height_m":5.85,"status":null},"geometry":{"type":"Polygon","coordinates":[[[3.93370899,50.87722991],[3.93374291,50.87724623],[3.93374577,50.87724349],[3.93383703,50.87729386],[3.93386399,50.87727281],[3.93385772,50.87726889],[3.93392534,50.87722171],[3.9339305,50.87722448],[3.93395954,50.87720259],[3.93401502,50.87723328],[3.93392332,50.87730171],[3.93389912,50.87731767],[3.93388906,50.87732495],[3.9338941,50.87732766],[3.93382225,50.87737903],[3.9336732,50.87729721],[3.93368427,50.87728914],[3.93366845,50.87728046],[3.93365658,50.87727398],[3.93365437,50.87727079],[3.93365592,50.87726827],[3.93370899,50.87722991]]]}},{"type":"Feature","id":"gebouw/Gebouw.16728239/0","properties":{"source":"Digitaal Vlaanderen Gebouwenregister","source_id":"gebouw/Gebouw.16728239/0","kind":"building","building":"official","height_m":8.85,"status":null},"geometry":{"type":"Polygon","coordinates":[[[3.93267414,50.8791868],[3.93265934,50.87919925],[3.93262471,50.8791816],[3.93266647,50.87914367],[3.93262913,50.87912538],[3.93265686,50.87910172],[3.93258428,50.87906786],[3.93265056,50.87901213],[3.93279813,50.87908253],[3.93272225,50.87914634],[3.93267414,50.8791868]]]}},{"type":"Feature","id":"gebouw/Gebouw.16763616/0","properties":{"source":"Digitaal Vlaanderen Gebouwenregister","source_id":"gebouw/Gebouw.16763616/0","kind":"building","building":"official","height_m":5.1,"status":null},"geometry":{"type":"Polygon","coordinates":[[[3.93275074,50.87784764],[3.93270716,50.87781329],[3.93270289,50.87781547],[3.93265973,50.87778148],[3.93268975,50.87776622],[3.93277625,50.87783437],[3.93275074,50.87784764]]]}},{"type":"Feature","id":"gebouw/Gebouw.16763867/0","properties":{"source":"Digitaal Vlaanderen Gebouwenregister","source_id":"gebouw/Gebouw.16763867/0","kind":"building","building":"official","height_m":8.85,"status":null},"geometry":{"type":"Polygon","coordinates":[[[3.93286087,50.87803683],[3.93281665,50.87800255],[3.93284579,50.8779875],[3.93289001,50.87802179],[3.93286087,50.87803683]]]}},{"type":"Feature","id":"gebouw/Gebouw.18862344/0","properties":{"source":"Digitaal Vlaanderen Gebouwenregister","source_id":"gebouw/Gebouw.18862344/0","kind":"building","building":"official","height_m":5.1,"status":null},"geometry":{"type":"Polygon","coordinates":[[[3.93383252,50.87531988],[3.93365581,50.87540813],[3.93372526,50.87546366],[3.93390038,50.87537749],[3.93383252,50.87531988]]]}},{"type":"Feature","id":"gebouw/Gebouw.18862345/0","properties":{"source":"Digitaal Vlaanderen Gebouwenregister","source_id":"gebouw/Gebouw.18862345/0","kind":"building","building":"official","height_m":5.85,"status":null},"geometry":{"type":"Polygon","coordinates":[[[3.93467723,50.87653135],[3.93473255,50.87648151],[3.93469416,50.87646416],[3.9347131,50.87644523],[3.93478035,50.87647524],[3.93470496,50.87654392],[3.93467723,50.87653135]]]}},{"type":"Feature","id":"gebouw/Gebouw.18862346/0","properties":{"source":"Digitaal Vlaanderen Gebouwenregister","source_id":"gebouw/Gebouw.18862346/0","kind":"building","building":"official","height_m":6.6,"status":null},"geometry":{"type":"Polygon","coordinates":[[[3.93499164,50.87817464],[3.93496099,50.87820053],[3.93492463,50.87823127],[3.93488035,50.87821037],[3.93491733,50.87817888],[3.93494721,50.87815343],[3.93499164,50.87817464]]]}},{"type":"Feature","id":"gebouw/Gebouw.18862347/0","properties":{"source":"Digitaal Vlaanderen Gebouwenregister","source_id":"gebouw/Gebouw.18862347/0","kind":"building","building":"official","height_m":7.35,"status":null},"geometry":{"type":"Polygon","coordinates":[[[3.93291311,50.87814825],[3.93295631,50.87812262],[3.93300853,50.87815978],[3.93296663,50.87818479],[3.93291311,50.87814825]]]}},{"type":"Feature","id":"gebouw/Gebouw.18862348/0","properties":{"source":"Digitaal Vlaanderen Gebouwenregister","source_id":"gebouw/Gebouw.18862348/0","kind":"building","building":"official","height_m":8.1,"status":null},"geometry":{"type":"Polygon","coordinates":[[[3.93384129,50.87933714],[3.93380124,50.87938513],[3.93374083,50.87936487],[3.93378029,50.87931732],[3.93384129,50.87933714]]]}},{"type":"Feature","id":"gebouw/Gebouw.19698106/0","properties":{"source":"Digitaal Vlaanderen Gebouwenregister","source_id":"gebouw/Gebouw.19698106/0","kind":"building","building":"official","height_m":8.1,"status":null},"geometry":{"type":"Polygon","coordinates":[[[3.93258428,50.87906786],[3.93248383,50.87915231],[3.93245595,50.87913697],[3.93243907,50.87912768],[3.93248154,50.87908828],[3.93250015,50.87909681],[3.93254444,50.87905812],[3.93250816,50.8790415],[3.93248432,50.87902976],[3.93251177,50.87900591],[3.9325358,50.87901803],[3.93258238,50.8789791],[3.93265056,50.87901213],[3.93258428,50.87906786]]]}},{"type":"Feature","id":"gebouw/Gebouw.19698107/0","properties":{"source":"Digitaal Vlaanderen Gebouwenregister","source_id":"gebouw/Gebouw.19698107/0","kind":"building","building":"official","height_m":8.85,"status":null},"geometry":{"type":"Polygon","coordinates":[[[3.93250816,50.8790415],[3.93254444,50.87905812],[3.93250015,50.87909681],[3.93248154,50.87908828],[3.93246454,50.87908049],[3.93250816,50.8790415]]]}},{"type":"Feature","id":"gebouw/Gebouw.19698108/0","properties":{"source":"Digitaal Vlaanderen Gebouwenregister","source_id":"gebouw/Gebouw.19698108/0","kind":"building","building":"official","height_m":5.1,"status":null},"geometry":{"type":"Polygon","coordinates":[[[3.93245595,50.87913697],[3.93248383,50.87915231],[3.93246648,50.87916689],[3.9324388,50.87915341],[3.93245595,50.87913697]]]}},{"type":"Feature","id":"gebouw/Gebouw.19699181/0","properties":{"source":"Digitaal Vlaanderen Gebouwenregister","source_id":"gebouw/Gebouw.19699181/0","kind":"building","building":"official","height_m":8.85,"status":null},"geometry":{"type":"Polygon","coordinates":[[[3.93410488,50.87548989],[3.93420516,50.87543754],[3.93422856,50.87545548],[3.93427672,50.8754307],[3.93434966,50.87539317],[3.93440768,50.87536057],[3.93440392,50.87535915],[3.9344502,50.87533337],[3.9344571,50.87533781],[3.9344627,50.87534142],[3.93451845,50.87537729],[3.93456651,50.87533782],[3.93460312,50.87529924],[3.93456332,50.87526905],[3.93454062,50.87528147],[3.93450577,50.87525272],[3.93449992,50.87525576],[3.93441172,50.87518237],[3.93429971,50.87523652],[3.93421867,50.87527571],[3.93421725,50.87527473],[3.93414177,50.87531098],[3.93400882,50.87520595],[3.93393934,50.87523693],[3.93398746,50.87527383],[3.93394184,50.87529764],[3.93401554,50.87535415],[3.93396337,50.87538139],[3.93410488,50.87548989]]]}},{"type":"Feature","id":"gebouw/Gebouw.19699183/0","properties":{"source":"Digitaal Vlaanderen Gebouwenregister","source_id":"gebouw/Gebouw.19699183/0","kind":"building","building":"official","height_m":5.85,"status":null},"geometry":{"type":"Polygon","coordinates":[[[3.93436961,50.87564397],[3.93445515,50.87552929],[3.93450896,50.87545713],[3.93450926,50.87545674],[3.93445241,50.87541989],[3.93441865,50.87544325],[3.93434966,50.87539317],[3.93427672,50.8754307],[3.93437943,50.87550222],[3.93434563,50.87554524],[3.93422856,50.87545548],[3.93420516,50.87543754],[3.93410488,50.87548989],[3.93425533,50.87560515],[3.93428639,50.87558929],[3.93435956,50.87564404],[3.93436513,50.87564821],[3.93436598,50.87564885],[3.93436961,50.87564397]]]}},{"type":"Feature","id":"gebouw/Gebouw.19710450/0","properties":{"source":"Digitaal Vlaanderen Gebouwenregister","source_id":"gebouw/Gebouw.19710450/0","kind":"building","building":"official","height_m":5.1,"status":null},"geometry":{"type":"Polygon","coordinates":[[[3.93427838,50.87623481],[3.93426938,50.87624672],[3.93420488,50.87622618],[3.93421127,50.87621823],[3.93415764,50.87620175],[3.93420018,50.87614648],[3.9341292,50.87612475],[3.93416413,50.87606784],[3.93417443,50.87605105],[3.93433824,50.87610109],[3.9343714,50.87611167],[3.9343475,50.87614331],[3.93427838,50.87623481]]]}},{"type":"Feature","id":"gebouw/Gebouw.19710451/0","properties":{"source":"Digitaal Vlaanderen Gebouwenregister","source_id":"gebouw/Gebouw.19710451/0","kind":"building","building":"official","height_m":5.85,"status":null},"geometry":{"type":"Polygon","coordinates":[[[3.93418709,50.87603044],[3.93435471,50.8760797],[3.93433824,50.87610109],[3.93417443,50.87605105],[3.93417556,50.87604922],[3.93418709,50.87603044]]]}},{"type":"Feature","id":"gebouw/Gebouw.19710452/0","properties":{"source":"Digitaal Vlaanderen Gebouwenregister","source_id":"gebouw/Gebouw.19710452/0","kind":"building","building":"official","height_m":6.6,"status":null},"geometry":{"type":"Polygon","coordinates":[[[3.9343475,50.87614331],[3.93437768,50.87615295],[3.93430559,50.87624348],[3.93427838,50.87623481],[3.9343475,50.87614331]]]}},{"type":"Feature","id":"gebouw/Gebouw.19954659/0","properties":{"source":"Digitaal Vlaanderen Gebouwenregister","source_id":"gebouw/Gebouw.19954659/0","kind":"building","building":"official","height_m":7.35,"status":null},"geometry":{"type":"Polygon","coordinates":[[[3.93444972,50.87646472],[3.93441295,50.87649857],[3.93431974,50.87645804],[3.93435652,50.87642419],[3.93444972,50.87646472]]]}},{"type":"Feature","id":"gebouw/Gebouw.19955471/0","properties":{"source":"Digitaal Vlaanderen Gebouwenregister","source_id":"gebouw/Gebouw.19955471/0","kind":"building","building":"official","height_m":8.85,"status":null},"geometry":{"type":"Polygon","coordinates":[[[3.9320353,50.87778923],[3.93207156,50.87777245],[3.93210094,50.87779785],[3.93206469,50.87781464],[3.9320353,50.87778923]]]}},{"type":"Feature","id":"gebouw/Gebouw.19955472/0","properties":{"source":"Digitaal Vlaanderen Gebouwenregister","source_id":"gebouw/Gebouw.19955472/0","kind":"building","building":"official","height_m":5.1,"status":null},"geometry":{"type":"Polygon","coordinates":[[[3.93280789,50.87742477],[3.93284526,50.87745108],[3.93281079,50.87747068],[3.93277342,50.87744437],[3.93280789,50.87742477]]]}},{"type":"Feature","id":"gebouw/Gebouw.19955473/0","properties":{"source":"Digitaal Vlaanderen Gebouwenregister","source_id":"gebouw/Gebouw.19955473/0","kind":"building","building":"official","height_m":5.85,"status":null},"geometry":{"type":"Polygon","coordinates":[[[3.93220872,50.87923803],[3.93223132,50.87921699],[3.93227457,50.87923559],[3.93225197,50.87925662],[3.93220872,50.87923803]]]}},{"type":"Feature","id":"gebouw/Gebouw.19955474/0","properties":{"source":"Digitaal Vlaanderen Gebouwenregister","source_id":"gebouw/Gebouw.19955474/0","kind":"building","building":"official","height_m":6.6,"status":null},"geometry":{"type":"Polygon","coordinates":[[[3.93247731,50.87937675],[3.93256023,50.87941642],[3.93256543,50.87941197],[3.93259439,50.87942551],[3.93261397,50.87940876],[3.93250143,50.87935611],[3.93247731,50.87937675]]]}},{"type":"Feature","id":"gebouw/Gebouw.19955476/0","properties":{"source":"Digitaal Vlaanderen Gebouwenregister","source_id":"gebouw/Gebouw.19955476/0","kind":"building","building":"official","height_m":8.1,"status":null},"geometry":{"type":"Polygon","coordinates":[[[3.93384581,50.87699032],[3.93386653,50.87696579],[3.93390871,50.87698005],[3.93388799,50.87700458],[3.93384581,50.87699032]]]}},{"type":"Feature","id":"gebouw/Gebouw.19955558/0","properties":{"source":"Digitaal Vlaanderen Gebouwenregister","source_id":"gebouw/Gebouw.19955558/0","kind":"building","building":"official","height_m":6.6,"status":null},"geometry":{"type":"Polygon","coordinates":[[[3.93447059,50.87606432],[3.93451542,50.87608774],[3.93447346,50.8761199],[3.93442862,50.87609649],[3.93447059,50.87606432]]]}},{"type":"Feature","id":"gebouw/Gebouw.19955559/0","properties":{"source":"Digitaal Vlaanderen Gebouwenregister","source_id":"gebouw/Gebouw.19955559/0","kind":"building","building":"official","height_m":7.35,"status":null},"geometry":{"type":"Polygon","coordinates":[[[3.93465389,50.87557918],[3.9346365,50.87560064],[3.93458753,50.87558476],[3.93460492,50.87556329],[3.93465389,50.87557918]]]}},{"type":"Feature","id":"gebouw/Gebouw.19955560/0","properties":{"source":"Digitaal Vlaanderen Gebouwenregister","source_id":"gebouw/Gebouw.19955560/0","kind":"building","building":"official","height_m":8.1,"status":null},"geometry":{"type":"Polygon","coordinates":[[[3.93483579,50.8755147],[3.93480225,50.87555688],[3.93466179,50.87551218],[3.93469532,50.87547],[3.93483579,50.8755147]]]}},{"type":"Feature","id":"gebouw/Gebouw.19955561/0","properties":{"source":"Digitaal Vlaanderen Gebouwenregister","source_id":"gebouw/Gebouw.19955561/0","kind":"building","building":"official","height_m":8.85,"status":null},"geometry":{"type":"Polygon","coordinates":[[[3.93403852,50.87591181],[3.93397065,50.87584228],[3.93403582,50.87581681],[3.93410368,50.87588635],[3.93403852,50.87591181]]]}},{"type":"Feature","id":"gebouw/Gebouw.19955562/0","properties":{"source":"Digitaal Vlaanderen Gebouwenregister","source_id":"gebouw/Gebouw.19955562/0","kind":"building","building":"official","height_m":5.1,"status":null},"geometry":{"type":"Polygon","coordinates":[[[3.93377473,50.8751968],[3.93382393,50.87523916],[3.93373279,50.87528153],[3.93368359,50.87523917],[3.93377473,50.8751968]]]}},{"type":"Feature","id":"gebouw/Gebouw.19956412/0","properties":{"source":"Digitaal Vlaanderen Gebouwenregister","source_id":"gebouw/Gebouw.19956412/0","kind":"building","building":"official","height_m":8.1,"status":null},"geometry":{"type":"Polygon","coordinates":[[[3.93248383,50.87915231],[3.93246648,50.87916689],[3.93242329,50.879148],[3.93244308,50.87912989],[3.93244342,50.87912959],[3.93243907,50.87912768],[3.93248154,50.87908828],[3.93250015,50.87909681],[3.93254444,50.87905812],[3.93250816,50.8790415],[3.93248432,50.87902976],[3.93251142,50.87900622],[3.93250467,50.87900295],[3.9325493,50.8789655],[3.93258055,50.87898063],[3.93258238,50.8789791],[3.93265056,50.87901213],[3.93258428,50.87906786],[3.93248383,50.87915231]]]}},{"type":"Feature","id":"gebouw/Gebouw.20519095/0","properties":{"source":"Digitaal Vlaanderen Gebouwenregister","source_id":"gebouw/Gebouw.20519095/0","kind":"building","building":"official","height_m":5.85,"status":null},"geometry":{"type":"Polygon","coordinates":[[[3.93427838,50.87623481],[3.9343475,50.87614331],[3.9343714,50.87611167],[3.93433824,50.87610109],[3.93435471,50.8760797],[3.93418709,50.87603044],[3.93417556,50.87604922],[3.93417444,50.87605105],[3.93416413,50.87606784],[3.9341292,50.87612475],[3.93420018,50.87614648],[3.93415764,50.87620175],[3.93421127,50.87621823],[3.93420488,50.87622618],[3.93426938,50.87624672],[3.93427838,50.87623481]],[[3.93420357,50.876143],[3.93422565,50.87611292],[3.93427278,50.87612677],[3.9342507,50.87615685],[3.93420357,50.876143]]]}},{"type":"Feature","id":"gebouw/Gebouw.20802003/0","properties":{"source":"Digitaal Vlaanderen Gebouwenregister","source_id":"gebouw/Gebouw.20802003/0","kind":"building","building":"official","height_m":7.35,"status":null},"geometry":{"type":"Polygon","coordinates":[[[3.93450633,50.87659647],[3.93457701,50.87653182],[3.93466187,50.87656896],[3.93459119,50.8766336],[3.93450633,50.87659647]]]}},{"type":"Feature","id":"gebouw/Gebouw.20802005/0","properties":{"source":"Digitaal Vlaanderen Gebouwenregister","source_id":"gebouw/Gebouw.20802005/0","kind":"building","building":"official","height_m":8.85,"status":null},"geometry":{"type":"Polygon","coordinates":[[[3.93301079,50.87815795],[3.93296633,50.87818494],[3.93290951,50.87814746],[3.93295397,50.87812048],[3.93301079,50.87815795]]]}},{"type":"Feature","id":"gebouw/Gebouw.20802306/0","properties":{"source":"Digitaal Vlaanderen Gebouwenregister","source_id":"gebouw/Gebouw.20802306/0","kind":"building","building":"official","height_m":5.1,"status":null},"geometry":{"type":"Polygon","coordinates":[[[3.93200031,50.87887377],[3.93203003,50.8788962],[3.93199544,50.87891453],[3.93196571,50.8788921],[3.93200031,50.87887377]]]}},{"type":"Feature","id":"gebouw/Gebouw.31269385/0","properties":{"source":"Digitaal Vlaanderen Gebouwenregister","source_id":"gebouw/Gebouw.31269385/0","kind":"building","building":"official","height_m":5.85,"status":null},"geometry":{"type":"Polygon","coordinates":[[[3.9323533,50.87909182],[3.93228769,50.87906004],[3.93232087,50.87903263],[3.93235412,50.87904874],[3.93233676,50.87906308],[3.93236984,50.87907815],[3.9323533,50.87909182]]]}},{"type":"Feature","id":"gebouw/Gebouw.31531792/0","properties":{"source":"Digitaal Vlaanderen Gebouwenregister","source_id":"gebouw/Gebouw.31531792/0","kind":"building","building":"official","height_m":8.1,"status":null},"geometry":{"type":"Polygon","coordinates":[[[3.93199978,50.87887363],[3.93198169,50.87885975],[3.93194278,50.87888005],[3.93196087,50.87889393],[3.93199978,50.87887363]]]}},{"type":"Feature","id":"gebouw/Gebouw.31844527/0","properties":{"source":"Digitaal Vlaanderen Gebouwenregister","source_id":"gebouw/Gebouw.31844527/0","kind":"building","building":"official","height_m":5.85,"status":null},"geometry":{"type":"Polygon","coordinates":[[[3.93434909,50.87641526],[3.93430798,50.87644979],[3.93441121,50.87649896],[3.93445265,50.87646414],[3.93434909,50.87641526]]]}},{"type":"Feature","id":"gebouw/Gebouw.31844674/0","properties":{"source":"Digitaal Vlaanderen Gebouwenregister","source_id":"gebouw/Gebouw.31844674/0","kind":"building","building":"official","height_m":8.1,"status":null},"geometry":{"type":"Polygon","coordinates":[[[3.93397177,50.87584125],[3.93403895,50.87590867],[3.93410238,50.87588337],[3.9340352,50.87581595],[3.93397177,50.87584125]]]}},{"type":"Feature","id":"gebouw/Gebouw.31844687/0","properties":{"source":"Digitaal Vlaanderen Gebouwenregister","source_id":"gebouw/Gebouw.31844687/0","kind":"building","building":"official","height_m":8.85,"status":null},"geometry":{"type":"Polygon","coordinates":[[[3.93295622,50.87818948],[3.9330141,50.87816129],[3.9329813,50.87813434],[3.93292342,50.87816253],[3.93295622,50.87818948]]]}},{"type":"Feature","id":"gebouw/Gebouw.31844856/0","properties":{"source":"Digitaal Vlaanderen Gebouwenregister","source_id":"gebouw/Gebouw.31844856/0","kind":"building","building":"official","height_m":5.1,"status":null},"geometry":{"type":"Polygon","coordinates":[[[3.93381616,50.87696224],[3.93379555,50.87697961],[3.93385428,50.87700752],[3.93387489,50.87699015],[3.93381616,50.87696224]]]}},{"type":"Feature","id":"gebouw/Gebouw.31845149/0","properties":{"source":"Digitaal Vlaanderen Gebouwenregister","source_id":"gebouw/Gebouw.31845149/0","kind":"building","building":"official","height_m":8.85,"status":null},"geometry":{"type":"Polygon","coordinates":[[[3.93652371,50.87839876],[3.93647819,50.87837697],[3.9364354,50.87840959],[3.93647948,50.87843263],[3.93652371,50.87839876]]]}},{"type":"Feature","id":"gebouw/Gebouw.31845212/0","properties":{"source":"Digitaal Vlaanderen Gebouwenregister","source_id":"gebouw/Gebouw.31845212/0","kind":"building","building":"official","height_m":6.6,"status":null},"geometry":{"type":"Polygon","coordinates":[[[3.93378727,50.87698055],[3.93373146,50.87702485],[3.93380118,50.87706001],[3.9338369,50.87703165],[3.93387148,50.87704909],[3.93390611,50.8770216],[3.93386725,50.87700201],[3.9338527,50.87701355],[3.93378727,50.87698055]]]}},{"type":"Feature","id":"gebouw/Gebouw.31845540/0","properties":{"source":"Digitaal Vlaanderen Gebouwenregister","source_id":"gebouw/Gebouw.31845540/0","kind":"building","building":"official","height_m":5.1,"status":null},"geometry":{"type":"Polygon","coordinates":[[[3.9369872,50.87671987],[3.93692762,50.87677214],[3.9369583,50.87678613],[3.93701788,50.87673386],[3.9369872,50.87671987]]]}},{"type":"Feature","id":"way/163834870","properties":{"source":"OpenStreetMap","source_id":"way/163834870","kind":"vegetation","landuse":"forest","natural":null,"name":null},"geometry":{"type":"Polygon","coordinates":[[[3.9314969,50.8781145],[3.9319024,50.8778638],[3.9321017,50.8780026],[3.9322709,50.8781616],[3.9323793,50.8784666],[3.9324085,50.8786478],[3.9323926,50.8787384],[3.9323713,50.8787804],[3.9324218,50.8788307],[3.9323463,50.87886],[3.9314969,50.8781145]]]}},{"type":"Feature","id":"way/163834872","properties":{"source":"OpenStreetMap","source_id":"way/163834872","kind":"vegetation","landuse":"orchard","natural":null,"name":null},"geometry":{"type":"Polygon","coordinates":[[[3.9338824,50.8777855],[3.9343487,50.8775553],[3.9340356,50.8772465],[3.9338028,50.8770172],[3.9335547,50.8768208],[3.9334247,50.8766854],[3.9332846,50.8765594],[3.9331703,50.8765854],[3.9326531,50.8766815],[3.9335052,50.8774928],[3.9338824,50.8777855]]]}},{"type":"Feature","id":"way/163834878","properties":{"source":"OpenStreetMap","source_id":"way/163834878","kind":"vegetation","landuse":"forest","natural":null,"name":null},"geometry":{"type":"Polygon","coordinates":[[[3.9327223,50.8778744],[3.9325601,50.8779818],[3.9328647,50.8782746],[3.9330045,50.878194],[3.9332277,50.8785143],[3.9332912,50.8786016],[3.9331073,50.878689],[3.9329882,50.8786126],[3.9329632,50.8786066],[3.9328148,50.8785624],[3.9327212,50.8785067],[3.932592,50.8781462],[3.9324756,50.8779776],[3.9326904,50.8778442],[3.9327223,50.8778744]]]}}]}