{"type":"FeatureCollection","features":[{"type":"Feature","id":"gebouw/Gebouw.9475820/0","properties":{"source":"Digitaal Vlaanderen Gebouwenregister","source_id":"gebouw/Gebouw.9475820/0","kind":"building","building":"official","height_m":6.6,"status":null},"geometry":{"type":"Polygon","coordinates":[[[3.98377513,50.95558699],[3.98385535,50.9556025],[3.98384489,50.95562654],[3.98376407,50.95561103],[3.98377513,50.95558699]]]}},{"type":"Feature","id":"gebouw/Gebouw.9563363/0","properties":{"source":"Digitaal Vlaanderen Gebouwenregister","source_id":"gebouw/Gebouw.9563363/0","kind":"building","building":"official","height_m":8.85,"status":null},"geometry":{"type":"Polygon","coordinates":[[[3.98361921,50.9555635],[3.98370398,50.95557551],[3.98369446,50.95559788],[3.98361175,50.95558608],[3.98361921,50.9555635]]]}}]}