{"type":"FeatureCollection","features":[{"type":"Feature","id":"gebouw/Gebouw.12873611/0","properties":{"source":"Digitaal Vlaanderen Gebouwenregister","source_id":"gebouw/Gebouw.12873611/0","kind":"building","building":"official","height_m":8.85,"status":null},"geometry":{"type":"Polygon","coordinates":[[[3.97443447,50.90804738],[3.9743951,50.90802827],[3.97441753,50.90800764],[3.97442693,50.90801155],[3.97444982,50.90799152],[3.97448172,50.908006],[3.97443447,50.90804738]]]}},{"type":"Feature","id":"gebouw/Gebouw.12960941/0","properties":{"source":"Digitaal Vlaanderen Gebouwenregister","source_id":"gebouw/Gebouw.12960941/0","kind":"building","building":"official","height_m":8.85,"status":null},"geometry":{"type":"Polygon","coordinates":[[[3.97474293,50.90792185],[3.97469992,50.90790451],[3.97473177,50.90787391],[3.97477188,50.90789227],[3.97474293,50.90792185]]]}},{"type":"Feature","id":"gebouw/Gebouw.12971007/0","properties":{"source":"Digitaal Vlaanderen Gebouwenregister","source_id":"gebouw/Gebouw.12971007/0","kind":"building","building":"official","height_m":7.35,"status":null},"geometry":{"type":"Polygon","coordinates":[[[3.98008232,50.9028832],[3.97996737,50.902938],[3.9798704,50.90285319],[3.97998541,50.90280016],[3.97998959,50.90280379],[3.98000651,50.90279599],[3.98004964,50.90283301],[3.98003277,50.90284086],[3.98008232,50.9028832]]]}},{"type":"Feature","id":"gebouw/Gebouw.12977295/0","properties":{"source":"Digitaal Vlaanderen Gebouwenregister","source_id":"gebouw/Gebouw.12977295/0","kind":"building","building":"official","height_m":7.35,"status":null},"geometry":{"type":"Polygon","coordinates":[[[3.97480506,50.90815374],[3.97473842,50.90822316],[3.97462397,50.90817971],[3.97465897,50.90814102],[3.97462178,50.90812768],[3.97465375,50.90809529],[3.97466015,50.90809776],[3.97480506,50.90815374]]]}},{"type":"Feature","id":"gebouw/Gebouw.13000898/0","properties":{"source":"Digitaal Vlaanderen Gebouwenregister","source_id":"gebouw/Gebouw.13000898/0","kind":"building","building":"official","height_m":6.6,"status":null},"geometry":{"type":"Polygon","coordinates":[[[3.9809967,50.90603246],[3.98097503,50.90602398],[3.98097854,50.90602039],[3.98093413,50.90600303],[3.9809625,50.90597402],[3.98102943,50.90599717],[3.9809967,50.90603246]]]}},{"type":"Feature","id":"gebouw/Gebouw.13012141/0","properties":{"source":"Digitaal Vlaanderen Gebouwenregister","source_id":"gebouw/Gebouw.13012141/0","kind":"building","building":"official","height_m":5.85,"status":null},"geometry":{"type":"Polygon","coordinates":[[[3.98125188,50.90412193],[3.98125066,50.90412361],[3.98122612,50.90415736],[3.98115195,50.90413503],[3.98114322,50.9041324],[3.98114551,50.90412886],[3.98114621,50.9041278],[3.98116558,50.90409838],[3.98125188,50.90412193]]]}},{"type":"Feature","id":"gebouw/Gebouw.13012143/0","properties":{"source":"Digitaal Vlaanderen Gebouwenregister","source_id":"gebouw/Gebouw.13012143/0","kind":"building","building":"official","height_m":7.35,"status":null},"geometry":{"type":"Polygon","coordinates":[[[3.98260399,50.9050171],[3.98255887,50.90507007],[3.98252251,50.90505842],[3.98254281,50.90503168],[3.98255962,50.90503674],[3.98258357,50.90501019],[3.98260399,50.9050171]]]}},{"type":"Feature","id":"gebouw/Gebouw.13012550/0","properties":{"source":"Digitaal Vlaanderen Gebouwenregister","source_id":"gebouw/Gebouw.13012550/0","kind":"building","building":"official","height_m":6.6,"status":null},"geometry":{"type":"Polygon","coordinates":[[[3.98214711,50.90572006],[3.9820778,50.90570382],[3.98218959,50.90551399],[3.98217193,50.90551017],[3.98214086,50.90549916],[3.98213802,50.90550128],[3.98209653,50.90548863],[3.98208172,50.90548411],[3.98211091,50.90544372],[3.98207141,50.90543303],[3.98214156,50.9053333],[3.9821907,50.90534686],[3.98221409,50.90531604],[3.98222081,50.90531763],[3.98225329,50.9053253],[3.98225976,50.90532683],[3.98221982,50.90537011],[3.98218916,50.90536117],[3.98216483,50.90539464],[3.98231679,50.90543639],[3.98227919,50.90549951],[3.98214711,50.90572006]]]}},{"type":"Feature","id":"gebouw/Gebouw.13012551/0","properties":{"source":"Digitaal Vlaanderen Gebouwenregister","source_id":"gebouw/Gebouw.13012551/0","kind":"building","building":"official","height_m":7.35,"status":null},"geometry":{"type":"Polygon","coordinates":[[[3.98146902,50.90525588],[3.98132131,50.90521904],[3.98133191,50.90520327],[3.98129321,50.90519324],[3.98134579,50.90510444],[3.98143375,50.90512562],[3.98142737,50.90513621],[3.98149651,50.9051529],[3.98152815,50.90516054],[3.98146902,50.90525588]]]}},{"type":"Feature","id":"gebouw/Gebouw.13012552/0","properties":{"source":"Digitaal Vlaanderen Gebouwenregister","source_id":"gebouw/Gebouw.13012552/0","kind":"building","building":"official","height_m":8.1,"status":null},"geometry":{"type":"Polygon","coordinates":[[[3.98150209,50.90495952],[3.98150174,50.90496209],[3.98149241,50.905031],[3.98133474,50.90502299],[3.9813324,50.90503655],[3.98128592,50.90502606],[3.98129563,50.90494829],[3.98150209,50.90495952]]]}},{"type":"Feature","id":"gebouw/Gebouw.13012621/0","properties":{"source":"Digitaal Vlaanderen Gebouwenregister","source_id":"gebouw/Gebouw.13012621/0","kind":"building","building":"official","height_m":5.85,"status":null},"geometry":{"type":"Polygon","coordinates":[[[3.98250375,50.90513479],[3.98240161,50.90525471],[3.98232268,50.90522855],[3.98243436,50.90510096],[3.98247345,50.90511302],[3.98247108,50.9051161],[3.98248889,50.9051216],[3.98248355,50.90512851],[3.98250375,50.90513479]]]}},{"type":"Feature","id":"gebouw/Gebouw.13014641/0","properties":{"source":"Digitaal Vlaanderen Gebouwenregister","source_id":"gebouw/Gebouw.13014641/0","kind":"building","building":"official","height_m":8.85,"status":null},"geometry":{"type":"Polygon","coordinates":[[[3.97990402,50.90271062],[3.97981657,50.90275281],[3.97984697,50.9027804],[3.97976064,50.90282257],[3.97975401,50.90281749],[3.97973374,50.90282717],[3.97970225,50.90280066],[3.97972167,50.90279081],[3.97966973,50.90274705],[3.97984661,50.90266283],[3.97990402,50.90271062]]]}},{"type":"Feature","id":"gebouw/Gebouw.13014642/0","properties":{"source":"Digitaal Vlaanderen Gebouwenregister","source_id":"gebouw/Gebouw.13014642/0","kind":"building","building":"official","height_m":5.1,"status":null},"geometry":{"type":"Polygon","coordinates":[[[3.98042198,50.90319384],[3.9804914,50.90325158],[3.98051068,50.90324246],[3.98054429,50.90327035],[3.98036918,50.9033539],[3.98032563,50.9033194],[3.98029397,50.90333346],[3.9802361,50.90328516],[3.98042198,50.90319384]]]}},{"type":"Feature","id":"gebouw/Gebouw.13034725/0","properties":{"source":"Digitaal Vlaanderen Gebouwenregister","source_id":"gebouw/Gebouw.13034725/0","kind":"building","building":"official","height_m":5.85,"status":null},"geometry":{"type":"Polygon","coordinates":[[[3.98237201,50.90535356],[3.98233797,50.90541057],[3.98227913,50.90539427],[3.98229492,50.90536857],[3.98228822,50.90536498],[3.98230379,50.90533723],[3.98237201,50.90535356]]]}},{"type":"Feature","id":"gebouw/Gebouw.13051829/0","properties":{"source":"Digitaal Vlaanderen Gebouwenregister","source_id":"gebouw/Gebouw.13051829/0","kind":"building","building":"official","height_m":8.85,"status":null},"geometry":{"type":"Polygon","coordinates":[[[3.98184514,50.90485121],[3.98185472,50.90483945],[3.9818271,50.90483693],[3.98183131,50.90481158],[3.98183253,50.90480422],[3.98179192,50.90480177],[3.98179113,50.90483465],[3.98177828,50.90486524],[3.98164813,50.90486262],[3.98164327,50.9049252],[3.98164707,50.90492529],[3.98165447,50.90492545],[3.98178234,50.90492829],[3.98184514,50.90485121]]]}},{"type":"Feature","id":"gebouw/Gebouw.13051834/0","properties":{"source":"Digitaal Vlaanderen Gebouwenregister","source_id":"gebouw/Gebouw.13051834/0","kind":"building","building":"official","height_m":8.1,"status":null},"geometry":{"type":"Polygon","coordinates":[[[3.98199959,50.90581882],[3.98192671,50.90579631],[3.98195257,50.9057527],[3.98198842,50.90576355],[3.98199273,50.90575629],[3.9820345,50.90576628],[3.98199959,50.90581882]]]}},{"type":"Feature","id":"gebouw/Gebouw.13051835/0","properties":{"source":"Digitaal Vlaanderen Gebouwenregister","source_id":"gebouw/Gebouw.13051835/0","kind":"building","building":"official","height_m":8.85,"status":null},"geometry":{"type":"Polygon","coordinates":[[[3.98152998,50.90705417],[3.98143479,50.90697747],[3.98148936,50.9069504],[3.98158455,50.9070271],[3.98152998,50.90705417]]]}},{"type":"Feature","id":"gebouw/Gebouw.13051837/0","properties":{"source":"Digitaal Vlaanderen Gebouwenregister","source_id":"gebouw/Gebouw.13051837/0","kind":"building","building":"official","height_m":5.85,"status":null},"geometry":{"type":"Polygon","coordinates":[[[3.98209529,50.90484788],[3.98213144,50.90480397],[3.98207386,50.90478544],[3.98202796,50.90484379],[3.98208377,50.90486187],[3.98209529,50.90484788]]]}},{"type":"Feature","id":"gebouw/Gebouw.13052073/0","properties":{"source":"Digitaal Vlaanderen Gebouwenregister","source_id":"gebouw/Gebouw.13052073/0","kind":"building","building":"official","height_m":7.35,"status":null},"geometry":{"type":"Polygon","coordinates":[[[3.9791744,50.90830577],[3.97912778,50.90829635],[3.97914603,50.90826025],[3.97919265,50.90826967],[3.9791744,50.90830577]]]}},{"type":"Feature","id":"gebouw/Gebouw.13064407/0","properties":{"source":"Digitaal Vlaanderen Gebouwenregister","source_id":"gebouw/Gebouw.13064407/0","kind":"building","building":"official","height_m":5.85,"status":null},"geometry":{"type":"Polygon","coordinates":[[[3.98201102,50.9046476],[3.98197936,50.90468647],[3.98187603,50.90466628],[3.98188162,50.90465557],[3.98182526,50.90464373],[3.98183678,50.9046221],[3.98172437,50.90461762],[3.9817204,50.90459826],[3.98172386,50.90456309],[3.98184974,50.90456977],[3.98184365,50.90461218],[3.98201102,50.9046476]]]}},{"type":"Feature","id":"gebouw/Gebouw.13070106/0","properties":{"source":"Digitaal Vlaanderen Gebouwenregister","source_id":"gebouw/Gebouw.13070106/0","kind":"building","building":"official","height_m":5.1,"status":null},"geometry":{"type":"Polygon","coordinates":[[[3.98154869,50.90539205],[3.98148798,50.9053784],[3.98145777,50.90543211],[3.98151849,50.90544576],[3.98154869,50.90539205]]]}},{"type":"Feature","id":"gebouw/Gebouw.13070107/0","properties":{"source":"Digitaal Vlaanderen Gebouwenregister","source_id":"gebouw/Gebouw.13070107/0","kind":"building","building":"official","height_m":5.85,"status":null},"geometry":{"type":"Polygon","coordinates":[[[3.9809472,50.90430546],[3.98094251,50.9043136],[3.98094945,50.90431521],[3.98098368,50.9043231],[3.98097305,50.90434154],[3.98093897,50.90433368],[3.98093187,50.90433205],[3.98089782,50.9043242],[3.98091315,50.90429761],[3.9809472,50.90430546]]]}},{"type":"Feature","id":"gebouw/Gebouw.13070143/0","properties":{"source":"Digitaal Vlaanderen Gebouwenregister","source_id":"gebouw/Gebouw.13070143/0","kind":"building","building":"official","height_m":5.85,"status":null},"geometry":{"type":"Polygon","coordinates":[[[3.98154736,50.90461535],[3.98154538,50.90461525],[3.98152284,50.90461409],[3.98152296,50.90461319],[3.98150652,50.90461234],[3.98150641,50.90461324],[3.98148757,50.90461226],[3.98148833,50.90460635],[3.98142821,50.90460249],[3.98143538,50.90456946],[3.98129879,50.90454298],[3.98127752,50.9045795],[3.98134538,50.90459371],[3.98131523,50.90464316],[3.98133787,50.90464869],[3.9813546,50.90465278],[3.98140963,50.9046657],[3.9815385,50.90467091],[3.98154017,50.90467098],[3.98154736,50.90461535]]]}},{"type":"Feature","id":"gebouw/Gebouw.13070144/0","properties":{"source":"Digitaal Vlaanderen Gebouwenregister","source_id":"gebouw/Gebouw.13070144/0","kind":"building","building":"official","height_m":6.6,"status":null},"geometry":{"type":"Polygon","coordinates":[[[3.98197891,50.90422617],[3.98192151,50.90429732],[3.98184724,50.90427338],[3.98170716,50.90422821],[3.98174679,50.90417906],[3.98187702,50.90421973],[3.98189449,50.90419889],[3.98197891,50.90422617]]]}},{"type":"Feature","id":"gebouw/Gebouw.13070145/0","properties":{"source":"Digitaal Vlaanderen Gebouwenregister","source_id":"gebouw/Gebouw.13070145/0","kind":"building","building":"official","height_m":7.35,"status":null},"geometry":{"type":"Polygon","coordinates":[[[3.98188601,50.90541298],[3.98193648,50.90542737],[3.98191621,50.90545127],[3.98186689,50.90543822],[3.98188601,50.90541298]]]}},{"type":"Feature","id":"gebouw/Gebouw.13073673/0","properties":{"source":"Digitaal Vlaanderen Gebouwenregister","source_id":"gebouw/Gebouw.13073673/0","kind":"building","building":"official","height_m":7.35,"status":null},"geometry":{"type":"Polygon","coordinates":[[[3.97567287,50.90794476],[3.97566975,50.9079434],[3.9755636,50.90789704],[3.97555223,50.90789208],[3.97544094,50.90784347],[3.97535145,50.90793263],[3.97538414,50.90794531],[3.97535609,50.90797626],[3.97516377,50.90791201],[3.97511321,50.90796797],[3.97511831,50.90796987],[3.97518221,50.90799365],[3.97524313,50.90801632],[3.97530402,50.90803898],[3.9753118,50.90802809],[3.97541547,50.90806486],[3.97552368,50.90794226],[3.97562912,50.907988],[3.97567287,50.90794476]]]}},{"type":"Feature","id":"gebouw/Gebouw.13078433/0","properties":{"source":"Digitaal Vlaanderen Gebouwenregister","source_id":"gebouw/Gebouw.13078433/0","kind":"building","building":"official","height_m":8.85,"status":null},"geometry":{"type":"Polygon","coordinates":[[[3.9814004,50.9041238],[3.9814446,50.90405908],[3.98134008,50.90402926],[3.98134229,50.90401689],[3.98126153,50.90399355],[3.98130336,50.9039319],[3.98124509,50.90391625],[3.98123979,50.90392412],[3.98122717,50.90392074],[3.98118604,50.90398649],[3.98118547,50.9039874],[3.98124999,50.90400565],[3.98124812,50.90400835],[3.98124369,50.90401475],[3.98124139,50.90401806],[3.98124547,50.90401918],[3.98121072,50.90406932],[3.98119033,50.90406367],[3.98116558,50.90409838],[3.98125188,50.90412193],[3.98127403,50.9040892],[3.9814004,50.9041238]]]}},{"type":"Feature","id":"gebouw/Gebouw.13082663/0","properties":{"source":"Digitaal Vlaanderen Gebouwenregister","source_id":"gebouw/Gebouw.13082663/0","kind":"building","building":"official","height_m":8.85,"status":null},"geometry":{"type":"Polygon","coordinates":[[[3.98202168,50.90408631],[3.98198504,50.90414172],[3.98191078,50.90411826],[3.98170285,50.90405259],[3.98173185,50.90400581],[3.98202168,50.90408631]]]}},{"type":"Feature","id":"gebouw/Gebouw.13083060/0","properties":{"source":"Digitaal Vlaanderen Gebouwenregister","source_id":"gebouw/Gebouw.13083060/0","kind":"building","building":"official","height_m":5.1,"status":null},"geometry":{"type":"Polygon","coordinates":[[[3.97913673,50.90253021],[3.97911828,50.90256233],[3.97909328,50.90255659],[3.97909012,50.9025621],[3.9789687,50.9025342],[3.97901513,50.90245339],[3.97906733,50.90246539],[3.97904252,50.90250857],[3.97913673,50.90253021]]]}},{"type":"Feature","id":"gebouw/Gebouw.13088594/0","properties":{"source":"Digitaal Vlaanderen Gebouwenregister","source_id":"gebouw/Gebouw.13088594/0","kind":"building","building":"official","height_m":6.6,"status":null},"geometry":{"type":"Polygon","coordinates":[[[3.97971175,50.90481859],[3.97965962,50.90479898],[3.97969007,50.90476681],[3.97973782,50.90478493],[3.97972964,50.904793],[3.97973414,50.90479438],[3.97972068,50.90480707],[3.97972304,50.90480814],[3.97971175,50.90481859]]]}},{"type":"Feature","id":"gebouw/Gebouw.13095967/0","properties":{"source":"Digitaal Vlaanderen Gebouwenregister","source_id":"gebouw/Gebouw.13095967/0","kind":"building","building":"official","height_m":5.85,"status":null},"geometry":{"type":"Polygon","coordinates":[[[3.97962683,50.90287929],[3.97960067,50.90285669],[3.97965268,50.90283261],[3.97967884,50.90285521],[3.97962683,50.90287929]]]}},{"type":"Feature","id":"gebouw/Gebouw.13107049/0","properties":{"source":"Digitaal Vlaanderen Gebouwenregister","source_id":"gebouw/Gebouw.13107049/0","kind":"building","building":"official","height_m":5.85,"status":null},"geometry":{"type":"Polygon","coordinates":[[[3.98087769,50.90361138],[3.98093595,50.90356385],[3.98095514,50.90357869],[3.98096281,50.90358497],[3.98105731,50.90353781],[3.98105083,50.90353263],[3.98100959,50.90349969],[3.98091396,50.90354649],[3.980906,50.90353982],[3.98084306,50.90359086],[3.98087401,50.90361438],[3.98087769,50.90361138]]]}},{"type":"Feature","id":"gebouw/Gebouw.13113027/0","properties":{"source":"Digitaal Vlaanderen Gebouwenregister","source_id":"gebouw/Gebouw.13113027/0","kind":"building","building":"official","height_m":7.35,"status":null},"geometry":{"type":"Polygon","coordinates":[[[3.98083853,50.90357914],[3.98083384,50.90358428],[3.98080157,50.9035571],[3.9808059,50.90355227],[3.98089939,50.90344826],[3.98093659,50.9034779],[3.9809651,50.90346364],[3.98100623,50.90349697],[3.98100959,50.90349969],[3.98091396,50.90354649],[3.980906,50.90353982],[3.98088744,50.90352553],[3.98083853,50.90357914]]]}},{"type":"Feature","id":"gebouw/Gebouw.13119823/0","properties":{"source":"Digitaal Vlaanderen Gebouwenregister","source_id":"gebouw/Gebouw.13119823/0","kind":"building","building":"official","height_m":5.85,"status":null},"geometry":{"type":"Polygon","coordinates":[[[3.98153098,50.90475349],[3.98152044,50.90482845],[3.98151966,50.90483399],[3.9814935,50.90483216],[3.98138967,50.90482489],[3.98137794,50.90482407],[3.98131128,50.90480726],[3.98117982,50.90477411],[3.98120076,50.90474168],[3.98120553,50.90474295],[3.98122748,50.90470505],[3.98136165,50.90473744],[3.98139973,50.90474599],[3.98152832,50.90475334],[3.98153098,50.90475349]]]}},{"type":"Feature","id":"gebouw/Gebouw.13133770/0","properties":{"source":"Digitaal Vlaanderen Gebouwenregister","source_id":"gebouw/Gebouw.13133770/0","kind":"building","building":"official","height_m":8.1,"status":null},"geometry":{"type":"Polygon","coordinates":[[[3.98182036,50.90533115],[3.98183099,50.90531738],[3.98190213,50.90522526],[3.98179829,50.9051934],[3.9817427,50.90526793],[3.98168753,50.9053419],[3.98166002,50.90537879],[3.98164955,50.90539283],[3.98168261,50.90540224],[3.9817289,50.90534381],[3.98173871,50.90534652],[3.98176357,50.90531483],[3.98182036,50.90533115]]]}},{"type":"Feature","id":"gebouw/Gebouw.13135789/0","properties":{"source":"Digitaal Vlaanderen Gebouwenregister","source_id":"gebouw/Gebouw.13135789/0","kind":"building","building":"official","height_m":5.85,"status":null},"geometry":{"type":"Polygon","coordinates":[[[3.97508721,50.90791297],[3.97502901,50.90797013],[3.97500569,50.90799097],[3.97496937,50.90803343],[3.97495286,50.90802807],[3.97495245,50.90802794],[3.97492702,50.90801968],[3.97493126,50.90801504],[3.97486263,50.90798469],[3.97487739,50.90797178],[3.97486306,50.90796585],[3.97489469,50.90793465],[3.97478529,50.90788711],[3.97482443,50.90784978],[3.97489715,50.9078188],[3.97493311,50.90783307],[3.97498004,50.90786925],[3.97508721,50.90791297]]]}},{"type":"Feature","id":"gebouw/Gebouw.13137948/0","properties":{"source":"Digitaal Vlaanderen Gebouwenregister","source_id":"gebouw/Gebouw.13137948/0","kind":"building","building":"official","height_m":5.1,"status":null},"geometry":{"type":"Polygon","coordinates":[[[3.97552367,50.90810465],[3.97557795,50.90804016],[3.97556748,50.90803652],[3.97558381,50.90801741],[3.97553758,50.90800162],[3.97546595,50.90808544],[3.97552367,50.90810465]]]}},{"type":"Feature","id":"gebouw/Gebouw.13146178/0","properties":{"source":"Digitaal Vlaanderen Gebouwenregister","source_id":"gebouw/Gebouw.13146178/0","kind":"building","building":"official","height_m":8.1,"status":null},"geometry":{"type":"Polygon","coordinates":[[[3.98034379,50.90300198],[3.98039735,50.90304761],[3.98039538,50.90304853],[3.98029209,50.9030969],[3.98022422,50.90303912],[3.98032933,50.90299002],[3.98032961,50.90298989],[3.98034379,50.90300198]]]}},{"type":"Feature","id":"gebouw/Gebouw.13146179/0","properties":{"source":"Digitaal Vlaanderen Gebouwenregister","source_id":"gebouw/Gebouw.13146179/0","kind":"building","building":"official","height_m":8.85,"status":null},"geometry":{"type":"Polygon","coordinates":[[[3.98132747,50.90325398],[3.9813898,50.90317306],[3.98156987,50.90322891],[3.98155182,50.90325548],[3.98165068,50.90328603],[3.98161237,50.90333561],[3.98151437,50.90330382],[3.98150893,50.90331144],[3.98132747,50.90325398]]]}},{"type":"Feature","id":"gebouw/Gebouw.13156350/0","properties":{"source":"Digitaal Vlaanderen Gebouwenregister","source_id":"gebouw/Gebouw.13156350/0","kind":"building","building":"official","height_m":5.1,"status":null},"geometry":{"type":"Polygon","coordinates":[[[3.97868171,50.90255639],[3.97861736,50.90254188],[3.97863916,50.9025032],[3.97870352,50.9025177],[3.97868171,50.90255639]]]}},{"type":"Feature","id":"gebouw/Gebouw.13156648/0","properties":{"source":"Digitaal Vlaanderen Gebouwenregister","source_id":"gebouw/Gebouw.13156648/0","kind":"building","building":"official","height_m":8.1,"status":null},"geometry":{"type":"Polygon","coordinates":[[[3.98149453,50.90398277],[3.98149645,50.90398329],[3.9814952,50.90398511],[3.98144506,50.90405841],[3.9814446,50.90405908],[3.98134008,50.90402926],[3.98134229,50.90401689],[3.98138611,50.90395329],[3.98149453,50.90398277]]]}},{"type":"Feature","id":"gebouw/Gebouw.13158926/0","properties":{"source":"Digitaal Vlaanderen Gebouwenregister","source_id":"gebouw/Gebouw.13158926/0","kind":"building","building":"official","height_m":6.6,"status":null},"geometry":{"type":"Polygon","coordinates":[[[3.98107639,50.90370601],[3.98111909,50.90373957],[3.98113249,50.90373275],[3.98119217,50.90377966],[3.9810501,50.90385254],[3.98094704,50.90377344],[3.98107639,50.90370601]]]}},{"type":"Feature","id":"gebouw/Gebouw.13158927/0","properties":{"source":"Digitaal Vlaanderen Gebouwenregister","source_id":"gebouw/Gebouw.13158927/0","kind":"building","building":"official","height_m":7.35,"status":null},"geometry":{"type":"Polygon","coordinates":[[[3.98141731,50.90420389],[3.98135724,50.90430876],[3.9811442,50.90425754],[3.98119016,50.90418098],[3.98126753,50.90419915],[3.98128331,50.90417263],[3.98141731,50.90420389]]]}},{"type":"Feature","id":"gebouw/Gebouw.13160825/0","properties":{"source":"Digitaal Vlaanderen Gebouwenregister","source_id":"gebouw/Gebouw.13160825/0","kind":"building","building":"official","height_m":8.85,"status":null},"geometry":{"type":"Polygon","coordinates":[[[3.98200014,50.90449013],[3.98210104,50.90452823],[3.9820908,50.90453907],[3.98198991,50.90450097],[3.98200014,50.90449013]]]}},{"type":"Feature","id":"gebouw/Gebouw.13172377/0","properties":{"source":"Digitaal Vlaanderen Gebouwenregister","source_id":"gebouw/Gebouw.13172377/0","kind":"building","building":"official","height_m":5.85,"status":null},"geometry":{"type":"Polygon","coordinates":[[[3.98186689,50.90543822],[3.98183977,50.90547399],[3.98180609,50.90546375],[3.98185074,50.9054014],[3.98183926,50.90539761],[3.98188561,50.90533491],[3.98183099,50.90531738],[3.98190213,50.90522526],[3.9820042,50.90525705],[3.98188601,50.90541298],[3.98186689,50.90543822]]]}},{"type":"Feature","id":"gebouw/Gebouw.13196017/0","properties":{"source":"Digitaal Vlaanderen Gebouwenregister","source_id":"gebouw/Gebouw.13196017/0","kind":"building","building":"official","height_m":5.85,"status":null},"geometry":{"type":"Polygon","coordinates":[[[3.98055581,50.90339935],[3.98069816,50.90352122],[3.98057569,50.90357873],[3.98043586,50.90345705],[3.98055581,50.90339935]]]}},{"type":"Feature","id":"gebouw/Gebouw.13203768/0","properties":{"source":"Digitaal Vlaanderen Gebouwenregister","source_id":"gebouw/Gebouw.13203768/0","kind":"building","building":"official","height_m":5.1,"status":null},"geometry":{"type":"Polygon","coordinates":[[[3.98193435,50.90445475],[3.98192749,50.90453621],[3.98192043,50.90453884],[3.98185646,50.90450539],[3.9817297,50.90450101],[3.98173507,50.90444688],[3.98193435,50.90445475]]]}},{"type":"Feature","id":"gebouw/Gebouw.13205390/0","properties":{"source":"Digitaal Vlaanderen Gebouwenregister","source_id":"gebouw/Gebouw.13205390/0","kind":"building","building":"official","height_m":6.6,"status":null},"geometry":{"type":"Polygon","coordinates":[[[3.98014304,50.90315442],[3.98009807,50.9031148],[3.98013098,50.90309987],[3.98017594,50.9031395],[3.98014304,50.90315442]]]}},{"type":"Feature","id":"gebouw/Gebouw.13205650/0","properties":{"source":"Digitaal Vlaanderen Gebouwenregister","source_id":"gebouw/Gebouw.13205650/0","kind":"building","building":"official","height_m":8.1,"status":null},"geometry":{"type":"Polygon","coordinates":[[[3.98041793,50.90363654],[3.98037237,50.90362429],[3.9803896,50.90359868],[3.98043515,50.90361093],[3.98041793,50.90363654]]]}},{"type":"Feature","id":"gebouw/Gebouw.13228502/0","properties":{"source":"Digitaal Vlaanderen Gebouwenregister","source_id":"gebouw/Gebouw.13228502/0","kind":"building","building":"official","height_m":6.6,"status":null},"geometry":{"type":"Polygon","coordinates":[[[3.97961087,50.90269155],[3.9795652,50.9026522],[3.97961594,50.90262797],[3.97959369,50.90260934],[3.97963335,50.9025904],[3.97961619,50.90257603],[3.9796547,50.90255764],[3.9796476,50.90255169],[3.97968802,50.90253238],[3.9797835,50.90261974],[3.97961087,50.90269155]]]}},{"type":"Feature","id":"gebouw/Gebouw.13231670/0","properties":{"source":"Digitaal Vlaanderen Gebouwenregister","source_id":"gebouw/Gebouw.13231670/0","kind":"building","building":"official","height_m":6.6,"status":null},"geometry":{"type":"Polygon","coordinates":[[[3.97992012,50.90322913],[3.97989384,50.90320347],[3.9799497,50.90318017],[3.9799741,50.90320447],[3.97992012,50.90322913]]]}},{"type":"Feature","id":"gebouw/Gebouw.13235486/0","properties":{"source":"Digitaal Vlaanderen Gebouwenregister","source_id":"gebouw/Gebouw.13235486/0","kind":"building","building":"official","height_m":6.6,"status":null},"geometry":{"type":"Polygon","coordinates":[[[3.97553255,50.90753185],[3.97559469,50.90755762],[3.97568284,50.90759418],[3.97567858,50.90760025],[3.97558209,50.90768803],[3.97549458,50.90764843],[3.97541422,50.90761206],[3.97545316,50.90757792],[3.97548038,50.90755912],[3.97552465,50.90752857],[3.97553255,50.90753185]]]}},{"type":"Feature","id":"gebouw/Gebouw.13316188/0","properties":{"source":"Digitaal Vlaanderen Gebouwenregister","source_id":"gebouw/Gebouw.13316188/0","kind":"building","building":"official","height_m":8.1,"status":null},"geometry":{"type":"Polygon","coordinates":[[[3.98101389,50.90559989],[3.98093335,50.90558207],[3.98095254,50.90554748],[3.98103238,50.90556409],[3.98101389,50.90559989]]]}},{"type":"Feature","id":"gebouw/Gebouw.13329478/0","properties":{"source":"Digitaal Vlaanderen Gebouwenregister","source_id":"gebouw/Gebouw.13329478/0","kind":"building","building":"official","height_m":8.1,"status":null},"geometry":{"type":"Polygon","coordinates":[[[3.97444812,50.90821723],[3.97439118,50.90826639],[3.97434274,50.90824507],[3.97438959,50.90819949],[3.97443792,50.90815247],[3.97436376,50.90812196],[3.9743571,50.90811922],[3.97435067,50.90812495],[3.97430756,50.90816338],[3.97425785,50.9082077],[3.9742024,50.90818329],[3.97416468,50.90816669],[3.97427162,50.90806796],[3.97436231,50.90810696],[3.97440178,50.90807003],[3.97449576,50.90810727],[3.97454813,50.90813087],[3.97444812,50.90821723]]]}},{"type":"Feature","id":"gebouw/Gebouw.13339535/0","properties":{"source":"Digitaal Vlaanderen Gebouwenregister","source_id":"gebouw/Gebouw.13339535/0","kind":"building","building":"official","height_m":8.85,"status":null},"geometry":{"type":"Polygon","coordinates":[[[3.98157439,50.904431],[3.98156592,50.90444896],[3.98154688,50.90448936],[3.98126448,50.90443263],[3.98127988,50.90439823],[3.98132307,50.90440734],[3.98133777,50.90437879],[3.98131534,50.9043737],[3.9813188,50.90436696],[3.98128546,50.90435737],[3.98130074,50.90432811],[3.98145462,50.90436534],[3.98144074,50.90439549],[3.98152095,50.90441155],[3.98151689,50.90442016],[3.98156828,50.90442985],[3.98157439,50.904431]]]}},{"type":"Feature","id":"gebouw/Gebouw.13339537/0","properties":{"source":"Digitaal Vlaanderen Gebouwenregister","source_id":"gebouw/Gebouw.13339537/0","kind":"building","building":"official","height_m":5.85,"status":null},"geometry":{"type":"Polygon","coordinates":[[[3.98204438,50.90490971],[3.98192335,50.90505672],[3.98188633,50.90504525],[3.98188244,50.90505025],[3.98185873,50.90504286],[3.98186245,50.90503787],[3.9818595,50.90503697],[3.98191806,50.9049642],[3.98192983,50.90496853],[3.98196511,50.90492368],[3.98199015,50.90489185],[3.98204438,50.90490971]]]}},{"type":"Feature","id":"gebouw/Gebouw.13339538/0","properties":{"source":"Digitaal Vlaanderen Gebouwenregister","source_id":"gebouw/Gebouw.13339538/0","kind":"building","building":"official","height_m":6.6,"status":null},"geometry":{"type":"Polygon","coordinates":[[[3.98212189,50.90496858],[3.98212394,50.90496609],[3.98212401,50.904966],[3.98215016,50.90493408],[3.98211239,50.90492171],[3.982088,50.90495148],[3.98206418,50.90494513],[3.98210988,50.90488785],[3.98209568,50.90488332],[3.98211814,50.90485517],[3.98209529,50.90484788],[3.98208377,50.90486187],[3.98207815,50.9048687],[3.98206462,50.90488514],[3.98204438,50.90490971],[3.98192335,50.90505672],[3.98198922,50.90507833],[3.98201561,50.90504688],[3.98202402,50.90504971],[3.98205797,50.90501095],[3.98203754,50.90500355],[3.9820407,50.90499806],[3.98204547,50.90499933],[3.98206287,50.90497968],[3.98208957,50.90495848],[3.98212189,50.90496858]]]}},{"type":"Feature","id":"gebouw/Gebouw.13339615/0","properties":{"source":"Digitaal Vlaanderen Gebouwenregister","source_id":"gebouw/Gebouw.13339615/0","kind":"building","building":"official","height_m":5.85,"status":null},"geometry":{"type":"Polygon","coordinates":[[[3.98170774,50.90470352],[3.98171074,50.90468161],[3.98185814,50.90468945],[3.98184752,50.90476043],[3.98170083,50.904754],[3.98170514,50.90472252],[3.98170774,50.90470352]]]}},{"type":"Feature","id":"gebouw/Gebouw.13339616/0","properties":{"source":"Digitaal Vlaanderen Gebouwenregister","source_id":"gebouw/Gebouw.13339616/0","kind":"building","building":"official","height_m":6.6,"status":null},"geometry":{"type":"Polygon","coordinates":[[[3.98243436,50.90510096],[3.98232268,50.90522855],[3.98225412,50.90520572],[3.98231531,50.90513211],[3.9823497,50.90509075],[3.98241005,50.90501817],[3.98248673,50.90504111],[3.98243436,50.90510096]]]}},{"type":"Feature","id":"gebouw/Gebouw.13339621/0","properties":{"source":"Digitaal Vlaanderen Gebouwenregister","source_id":"gebouw/Gebouw.13339621/0","kind":"building","building":"official","height_m":5.85,"status":null},"geometry":{"type":"Polygon","coordinates":[[[3.98152355,50.90645523],[3.98149532,50.90644704],[3.98150457,50.90643428],[3.98146494,50.90642279],[3.98147976,50.90640235],[3.9814403,50.90639091],[3.98144366,50.90638628],[3.98145928,50.90636475],[3.9814992,50.90637633],[3.98149632,50.9063803],[3.98158811,50.90640691],[3.98157478,50.90642528],[3.98155676,50.90645013],[3.98153238,50.90644306],[3.98152355,50.90645523]]]}},{"type":"Feature","id":"gebouw/Gebouw.13339822/0","properties":{"source":"Digitaal Vlaanderen Gebouwenregister","source_id":"gebouw/Gebouw.13339822/0","kind":"building","building":"official","height_m":8.1,"status":null},"geometry":{"type":"Polygon","coordinates":[[[3.98097571,50.90717766],[3.98087719,50.90714993],[3.98093611,50.90706625],[3.98103463,50.90709398],[3.98097571,50.90717766]]]}},{"type":"Feature","id":"gebouw/Gebouw.13339905/0","properties":{"source":"Digitaal Vlaanderen Gebouwenregister","source_id":"gebouw/Gebouw.13339905/0","kind":"building","building":"official","height_m":7.35,"status":null},"geometry":{"type":"Polygon","coordinates":[[[3.98208695,50.90580956],[3.9820676,50.90580436],[3.98204637,50.90583594],[3.98199703,50.90582269],[3.98199959,50.90581882],[3.9820345,50.90576628],[3.98204375,50.90575234],[3.98211289,50.90577097],[3.98208695,50.90580956]]]}},{"type":"Feature","id":"gebouw/Gebouw.13387148/0","properties":{"source":"Digitaal Vlaanderen Gebouwenregister","source_id":"gebouw/Gebouw.13387148/0","kind":"building","building":"official","height_m":6.6,"status":null},"geometry":{"type":"Polygon","coordinates":[[[3.98097408,50.90363159],[3.98101514,50.90366435],[3.98102301,50.90367062],[3.98096159,50.90370248],[3.98095722,50.90369879],[3.98091374,50.90366206],[3.98092618,50.90365679],[3.98092508,50.90365592],[3.98088248,50.90362226],[3.98088732,50.90361932],[3.98092038,50.90359951],[3.98095514,50.90357869],[3.98096281,50.90358497],[3.98105731,50.90353781],[3.98109581,50.90356902],[3.98109745,50.90357035],[3.98107582,50.90358109],[3.98097408,50.90363159]]]}},{"type":"Feature","id":"gebouw/Gebouw.13415429/0","properties":{"source":"Digitaal Vlaanderen Gebouwenregister","source_id":"gebouw/Gebouw.13415429/0","kind":"building","building":"official","height_m":8.85,"status":null},"geometry":{"type":"Polygon","coordinates":[[[3.97503716,50.90769163],[3.97503197,50.90769343],[3.9750313,50.90769265],[3.97489827,50.90773926],[3.97489631,50.90773996],[3.97489704,50.90774077],[3.97487329,50.90774935],[3.97480733,50.90767671],[3.97491884,50.90763896],[3.97503716,50.90769163]]]}},{"type":"Feature","id":"gebouw/Gebouw.13422619/0","properties":{"source":"Digitaal Vlaanderen Gebouwenregister","source_id":"gebouw/Gebouw.13422619/0","kind":"building","building":"official","height_m":5.85,"status":null},"geometry":{"type":"Polygon","coordinates":[[[3.98171533,50.90576779],[3.98169278,50.90581216],[3.98164316,50.9058],[3.98165405,50.90578039],[3.98165036,50.90577957],[3.98162398,50.90577371],[3.98163453,50.9057547],[3.98166126,50.90576063],[3.9816646,50.90576137],[3.98166607,50.9057617],[3.98166912,50.90575683],[3.98171533,50.90576779]]]}},{"type":"Feature","id":"gebouw/Gebouw.13422620/0","properties":{"source":"Digitaal Vlaanderen Gebouwenregister","source_id":"gebouw/Gebouw.13422620/0","kind":"building","building":"official","height_m":6.6,"status":null},"geometry":{"type":"Polygon","coordinates":[[[3.98221635,50.90419417],[3.98211463,50.90416752],[3.98213551,50.904139],[3.98223496,50.90416778],[3.98221635,50.90419417]]]}},{"type":"Feature","id":"gebouw/Gebouw.13422940/0","properties":{"source":"Digitaal Vlaanderen Gebouwenregister","source_id":"gebouw/Gebouw.13422940/0","kind":"building","building":"official","height_m":8.1,"status":null},"geometry":{"type":"Polygon","coordinates":[[[3.98154688,50.90448936],[3.98154248,50.90449889],[3.98151898,50.90454984],[3.98123261,50.90449451],[3.98126273,50.90443601],[3.98126448,50.90443263],[3.98154688,50.90448936]]]}},{"type":"Feature","id":"gebouw/Gebouw.13422941/0","properties":{"source":"Digitaal Vlaanderen Gebouwenregister","source_id":"gebouw/Gebouw.13422941/0","kind":"building","building":"official","height_m":8.85,"status":null},"geometry":{"type":"Polygon","coordinates":[[[3.98184974,50.90456977],[3.98172386,50.90456309],[3.9817297,50.90450101],[3.98185646,50.90450539],[3.98192043,50.90453884],[3.98191779,50.90454754],[3.98185229,50.90454596],[3.98184974,50.90456977]]]}},{"type":"Feature","id":"gebouw/Gebouw.13422957/0","properties":{"source":"Digitaal Vlaanderen Gebouwenregister","source_id":"gebouw/Gebouw.13422957/0","kind":"building","building":"official","height_m":7.35,"status":null},"geometry":{"type":"Polygon","coordinates":[[[3.98191806,50.9049642],[3.9818595,50.90503697],[3.98180198,50.90501936],[3.98191321,50.90487336],[3.98199613,50.90476452],[3.98207386,50.90478544],[3.98202796,50.90484379],[3.98200957,50.90486717],[3.98195664,50.90484956],[3.98191316,50.90490765],[3.98196511,50.90492368],[3.98192983,50.90496853],[3.98191806,50.9049642]]]}},{"type":"Feature","id":"gebouw/Gebouw.13435706/0","properties":{"source":"Digitaal Vlaanderen Gebouwenregister","source_id":"gebouw/Gebouw.13435706/0","kind":"building","building":"official","height_m":6.6,"status":null},"geometry":{"type":"Polygon","coordinates":[[[3.97735232,50.90832512],[3.97737834,50.90827294],[3.97746459,50.90828974],[3.97743949,50.90834074],[3.97735232,50.90832512]]]}},{"type":"Feature","id":"gebouw/Gebouw.13448125/0","properties":{"source":"Digitaal Vlaanderen Gebouwenregister","source_id":"gebouw/Gebouw.13448125/0","kind":"building","building":"official","height_m":5.85,"status":null},"geometry":{"type":"Polygon","coordinates":[[[3.97473876,50.9075588],[3.97476794,50.90753586],[3.97485347,50.90757085],[3.97484881,50.90757455],[3.97490351,50.90759839],[3.97493231,50.90757288],[3.97509292,50.90764858],[3.97508963,50.90765151],[3.97508846,50.90765098],[3.97508761,50.90765174],[3.9750555,50.90768051],[3.97505669,50.90768112],[3.97504255,50.90769392],[3.97503716,50.90769163],[3.97491884,50.90763896],[3.97473876,50.9075588]]]}},{"type":"Feature","id":"gebouw/Gebouw.13455443/0","properties":{"source":"Digitaal Vlaanderen Gebouwenregister","source_id":"gebouw/Gebouw.13455443/0","kind":"building","building":"official","height_m":8.85,"status":null},"geometry":{"type":"Polygon","coordinates":[[[3.98154273,50.90467318],[3.9815399,50.90467302],[3.98154017,50.90467098],[3.9815385,50.90467091],[3.98140963,50.9046657],[3.98140328,50.9047082],[3.98136649,50.90470499],[3.98136165,50.90473744],[3.98139973,50.90474599],[3.98152832,50.90475334],[3.98153098,50.90475349],[3.98153134,50.90475105],[3.98154273,50.90467318]]]}},{"type":"Feature","id":"gebouw/Gebouw.13455444/0","properties":{"source":"Digitaal Vlaanderen Gebouwenregister","source_id":"gebouw/Gebouw.13455444/0","kind":"building","building":"official","height_m":5.1,"status":null},"geometry":{"type":"Polygon","coordinates":[[[3.98101825,50.90456733],[3.98100783,50.90456492],[3.98102127,50.90454162],[3.9810317,50.90454403],[3.98103241,50.90454279],[3.98110568,50.90455969],[3.9810901,50.9045867],[3.98101683,50.9045698],[3.98101825,50.90456733]]]}},{"type":"Feature","id":"gebouw/Gebouw.13456088/0","properties":{"source":"Digitaal Vlaanderen Gebouwenregister","source_id":"gebouw/Gebouw.13456088/0","kind":"building","building":"official","height_m":6.6,"status":null},"geometry":{"type":"Polygon","coordinates":[[[3.9817427,50.90526793],[3.98179829,50.9051934],[3.98167196,50.90515394],[3.98163964,50.90519663],[3.98161948,50.90519012],[3.98158459,50.90523652],[3.98156955,50.90526659],[3.98164073,50.90528631],[3.98161705,50.90532048],[3.98168753,50.9053419],[3.9817427,50.90526793]]]}},{"type":"Feature","id":"gebouw/Gebouw.13456089/0","properties":{"source":"Digitaal Vlaanderen Gebouwenregister","source_id":"gebouw/Gebouw.13456089/0","kind":"building","building":"official","height_m":7.35,"status":null},"geometry":{"type":"Polygon","coordinates":[[[3.98137794,50.90482407],[3.98138967,50.90482489],[3.9814935,50.90483216],[3.98151966,50.90483399],[3.98151336,50.904879],[3.98150209,50.90495952],[3.98129563,50.90494829],[3.9812894,50.90494795],[3.98131077,50.90481054],[3.98131128,50.90480726],[3.98137794,50.90482407]]]}},{"type":"Feature","id":"gebouw/Gebouw.13456090/0","properties":{"source":"Digitaal Vlaanderen Gebouwenregister","source_id":"gebouw/Gebouw.13456090/0","kind":"building","building":"official","height_m":8.1,"status":null},"geometry":{"type":"Polygon","coordinates":[[[3.9819036,50.90398281],[3.98187993,50.90401482],[3.98160272,50.90393768],[3.98158806,50.9039336],[3.98158279,50.90393213],[3.98161076,50.90388986],[3.98161432,50.90388477],[3.98158952,50.90387785],[3.98162736,50.90382367],[3.98164365,50.90382805],[3.98169172,50.90384099],[3.98169276,50.90384127],[3.98173917,50.90385376],[3.981707,50.90390585],[3.98180279,50.90393125],[3.98180905,50.90392276],[3.98186769,50.90393849],[3.98184934,50.90396685],[3.9819036,50.90398281]]]}},{"type":"Feature","id":"gebouw/Gebouw.13456091/0","properties":{"source":"Digitaal Vlaanderen Gebouwenregister","source_id":"gebouw/Gebouw.13456091/0","kind":"building","building":"official","height_m":8.85,"status":null},"geometry":{"type":"Polygon","coordinates":[[[3.98191078,50.90411826],[3.98170285,50.90405259],[3.98170123,50.90405522],[3.98170252,50.90405558],[3.98169949,50.90405985],[3.98167904,50.90408861],[3.98167772,50.90408828],[3.98167548,50.90409178],[3.98178897,50.9041224],[3.98178299,50.90413065],[3.98188805,50.90415981],[3.98186224,50.90418847],[3.98189449,50.90419889],[3.98197891,50.90422617],[3.98200809,50.90418946],[3.98194641,50.9041697],[3.98195043,50.90416261],[3.98192747,50.90415538],[3.9819415,50.90413572],[3.98190338,50.90412628],[3.9819081,50.90412116],[3.98191078,50.90411826]]]}},{"type":"Feature","id":"gebouw/Gebouw.13456096/0","properties":{"source":"Digitaal Vlaanderen Gebouwenregister","source_id":"gebouw/Gebouw.13456096/0","kind":"building","building":"official","height_m":8.1,"status":null},"geometry":{"type":"Polygon","coordinates":[[[3.9809452,50.90423583],[3.98092945,50.90420352],[3.98100115,50.90418955],[3.9810169,50.90422185],[3.9809452,50.90423583]]]}},{"type":"Feature","id":"gebouw/Gebouw.13456247/0","properties":{"source":"Digitaal Vlaanderen Gebouwenregister","source_id":"gebouw/Gebouw.13456247/0","kind":"building","building":"official","height_m":8.85,"status":null},"geometry":{"type":"Polygon","coordinates":[[[3.98058951,50.90376513],[3.98058682,50.90379996],[3.98056965,50.90380112],[3.98056422,50.90381383],[3.98053469,50.90380876],[3.9805351,50.90380574],[3.9805409,50.90376257],[3.98058951,50.90376513]]]}},{"type":"Feature","id":"gebouw/Gebouw.13456249/0","properties":{"source":"Digitaal Vlaanderen Gebouwenregister","source_id":"gebouw/Gebouw.13456249/0","kind":"building","building":"official","height_m":5.85,"status":null},"geometry":{"type":"Polygon","coordinates":[[[3.9821718,50.90465175],[3.98212356,50.90472226],[3.98207859,50.90471008],[3.98212938,50.90463741],[3.9821718,50.90465175]]]}},{"type":"Feature","id":"gebouw/Gebouw.13456281/0","properties":{"source":"Digitaal Vlaanderen Gebouwenregister","source_id":"gebouw/Gebouw.13456281/0","kind":"building","building":"official","height_m":7.35,"status":null},"geometry":{"type":"Polygon","coordinates":[[[3.98054826,50.90366462],[3.98053866,50.90367734],[3.98046041,50.9036567],[3.98046236,50.90365412],[3.98047182,50.90364157],[3.98054826,50.90366462]]]}},{"type":"Feature","id":"gebouw/Gebouw.13477627/0","properties":{"source":"Digitaal Vlaanderen Gebouwenregister","source_id":"gebouw/Gebouw.13477627/0","kind":"building","building":"official","height_m":5.85,"status":null},"geometry":{"type":"Polygon","coordinates":[[[3.97531112,50.90774716],[3.97537207,50.90769241],[3.97560177,50.90779226],[3.97551853,50.90787323],[3.97540583,50.90782474],[3.97543293,50.9078001],[3.97531112,50.90774716]]]}},{"type":"Feature","id":"gebouw/Gebouw.13500632/0","properties":{"source":"Digitaal Vlaanderen Gebouwenregister","source_id":"gebouw/Gebouw.13500632/0","kind":"building","building":"official","height_m":6.6,"status":null},"geometry":{"type":"Polygon","coordinates":[[[3.97900872,50.90708879],[3.97897474,50.90712594],[3.97888864,50.90709626],[3.97892318,50.9070589],[3.97900872,50.90708879]]]}},{"type":"Feature","id":"gebouw/Gebouw.13505589/0","properties":{"source":"Digitaal Vlaanderen Gebouwenregister","source_id":"gebouw/Gebouw.13505589/0","kind":"building","building":"official","height_m":7.35,"status":null},"geometry":{"type":"Polygon","coordinates":[[[3.98188343,50.90437819],[3.98187532,50.90441157],[3.98191859,50.90441428],[3.98191828,50.90441659],[3.98195001,50.90441977],[3.98194491,50.90444552],[3.98193519,50.90444473],[3.98173846,50.90442865],[3.98174771,50.90438019],[3.9817712,50.90438187],[3.98178379,50.90435655],[3.98178832,50.90434746],[3.98188343,50.90437819]]]}},{"type":"Feature","id":"gebouw/Gebouw.13512143/0","properties":{"source":"Digitaal Vlaanderen Gebouwenregister","source_id":"gebouw/Gebouw.13512143/0","kind":"building","building":"official","height_m":8.85,"status":null},"geometry":{"type":"Polygon","coordinates":[[[3.9807252,50.90484957],[3.98083712,50.90487828],[3.98081864,50.90490708],[3.98070672,50.90487837],[3.9807252,50.90484957]]]}},{"type":"Feature","id":"gebouw/Gebouw.13522189/0","properties":{"source":"Digitaal Vlaanderen Gebouwenregister","source_id":"gebouw/Gebouw.13522189/0","kind":"building","building":"official","height_m":5.85,"status":null},"geometry":{"type":"Polygon","coordinates":[[[3.98231173,50.90501321],[3.98217443,50.90517924],[3.98209423,50.90515254],[3.98214622,50.90508957],[3.98218181,50.90504648],[3.9822174,50.90500336],[3.98222977,50.90498839],[3.98231173,50.90501321]]]}},{"type":"Feature","id":"gebouw/Gebouw.13532953/0","properties":{"source":"Digitaal Vlaanderen Gebouwenregister","source_id":"gebouw/Gebouw.13532953/0","kind":"building","building":"official","height_m":5.85,"status":null},"geometry":{"type":"Polygon","coordinates":[[[3.9822174,50.90500336],[3.98209423,50.90515254],[3.98199759,50.90512032],[3.98212189,50.90496858],[3.98212394,50.90496609],[3.9822174,50.90500336]]]}},{"type":"Feature","id":"gebouw/Gebouw.13533275/0","properties":{"source":"Digitaal Vlaanderen Gebouwenregister","source_id":"gebouw/Gebouw.13533275/0","kind":"building","building":"official","height_m":8.85,"status":null},"geometry":{"type":"Polygon","coordinates":[[[3.9824784,50.90555856],[3.98243635,50.90554622],[3.98254505,50.90539806],[3.98267998,50.90544476],[3.98263515,50.90548604],[3.98260855,50.90551055],[3.98253947,50.90549029],[3.98252668,50.90550771],[3.98251765,50.90550506],[3.9824784,50.90555856]]]}},{"type":"Feature","id":"gebouw/Gebouw.13551654/0","properties":{"source":"Digitaal Vlaanderen Gebouwenregister","source_id":"gebouw/Gebouw.13551654/0","kind":"building","building":"official","height_m":5.1,"status":null},"geometry":{"type":"Polygon","coordinates":[[[3.9823497,50.90509075],[3.98231531,50.90513211],[3.98225412,50.90520572],[3.98217443,50.90517924],[3.98231173,50.90501321],[3.9823508,50.90502485],[3.98230885,50.90507782],[3.9823497,50.90509075]]]}},{"type":"Feature","id":"gebouw/Gebouw.13551655/0","properties":{"source":"Digitaal Vlaanderen Gebouwenregister","source_id":"gebouw/Gebouw.13551655/0","kind":"building","building":"official","height_m":5.85,"status":null},"geometry":{"type":"Polygon","coordinates":[[[3.98257115,50.90518115],[3.98248438,50.9052824],[3.98240161,50.90525471],[3.98250375,50.90513479],[3.98255887,50.90507007],[3.98260399,50.9050171],[3.982625,50.90499244],[3.9826575,50.90506781],[3.98261437,50.9050763],[3.98262726,50.90510179],[3.98258385,50.90511081],[3.98259758,50.90513684],[3.98252291,50.90514944],[3.98251375,50.90516219],[3.98257115,50.90518115]]]}},{"type":"Feature","id":"gebouw/Gebouw.13551666/0","properties":{"source":"Digitaal Vlaanderen Gebouwenregister","source_id":"gebouw/Gebouw.13551666/0","kind":"building","building":"official","height_m":5.1,"status":null},"geometry":{"type":"Polygon","coordinates":[[[3.98222031,50.90456239],[3.98224561,50.90452927],[3.98229192,50.90454344],[3.98226596,50.90457737],[3.98222031,50.90456239]]]}},{"type":"Feature","id":"gebouw/Gebouw.13551674/0","properties":{"source":"Digitaal Vlaanderen Gebouwenregister","source_id":"gebouw/Gebouw.13551674/0","kind":"building","building":"official","height_m":6.6,"status":null},"geometry":{"type":"Polygon","coordinates":[[[3.9785349,50.90265399],[3.97844777,50.90263353],[3.97846993,50.9025958],[3.97855707,50.90261626],[3.9785349,50.90265399]]]}},{"type":"Feature","id":"gebouw/Gebouw.13551675/0","properties":{"source":"Digitaal Vlaanderen Gebouwenregister","source_id":"gebouw/Gebouw.13551675/0","kind":"building","building":"official","height_m":7.35,"status":null},"geometry":{"type":"Polygon","coordinates":[[[3.97873746,50.90257071],[3.97869188,50.90256003],[3.97871342,50.90252328],[3.97875901,50.90253397],[3.97873746,50.90257071]]]}},{"type":"Feature","id":"gebouw/Gebouw.13552239/0","properties":{"source":"Digitaal Vlaanderen Gebouwenregister","source_id":"gebouw/Gebouw.13552239/0","kind":"building","building":"official","height_m":7.35,"status":null},"geometry":{"type":"Polygon","coordinates":[[[3.98251956,50.90463741],[3.9825334,50.90464186],[3.98255093,50.90462005],[3.98257641,50.90462823],[3.98255888,50.90465004],[3.98258288,50.90465775],[3.98255639,50.90469068],[3.98251544,50.90467751],[3.98250674,50.90468833],[3.98248367,50.90468089],[3.9825045,50.90465565],[3.98251956,50.90463741]]]}},{"type":"Feature","id":"gebouw/Gebouw.13571854/0","properties":{"source":"Digitaal Vlaanderen Gebouwenregister","source_id":"gebouw/Gebouw.13571854/0","kind":"building","building":"official","height_m":8.1,"status":null},"geometry":{"type":"Polygon","coordinates":[[[3.97576489,50.90751693],[3.97570615,50.90749183],[3.97576216,50.90743943],[3.9758209,50.90746453],[3.97576489,50.90751693]]]}},{"type":"Feature","id":"gebouw/Gebouw.13576806/0","properties":{"source":"Digitaal Vlaanderen Gebouwenregister","source_id":"gebouw/Gebouw.13576806/0","kind":"building","building":"official","height_m":5.1,"status":null},"geometry":{"type":"Polygon","coordinates":[[[3.97941519,50.90256613],[3.9793976,50.9025932],[3.97939694,50.90259421],[3.97932935,50.90257549],[3.97932993,50.90257466],[3.97934862,50.90254769],[3.97941519,50.90256613]]]}},{"type":"Feature","id":"gebouw/Gebouw.13626707/0","properties":{"source":"Digitaal Vlaanderen Gebouwenregister","source_id":"gebouw/Gebouw.13626707/0","kind":"building","building":"official","height_m":8.85,"status":null},"geometry":{"type":"Polygon","coordinates":[[[3.97487149,50.90808482],[3.97480506,50.90815374],[3.97466015,50.90809776],[3.97469076,50.90806632],[3.97472051,50.9080779],[3.97475995,50.9080374],[3.97487149,50.90808482]]]}},{"type":"Feature","id":"gebouw/Gebouw.13649498/0","properties":{"source":"Digitaal Vlaanderen Gebouwenregister","source_id":"gebouw/Gebouw.13649498/0","kind":"building","building":"official","height_m":6.6,"status":null},"geometry":{"type":"Polygon","coordinates":[[[3.98158712,50.90649057],[3.98148461,50.90645676],[3.98150143,50.90643638],[3.98145945,50.90642253],[3.98148036,50.90639719],[3.98149596,50.90637829],[3.98164193,50.90642361],[3.98165208,50.90641184],[3.98160395,50.9063963],[3.98160685,50.90639308],[3.98158766,50.9063876],[3.98162176,50.90633987],[3.98169443,50.90636063],[3.98168557,50.90637303],[3.98172946,50.90638557],[3.98170369,50.9064217],[3.98170565,50.9064226],[3.98169185,50.9064391],[3.98167777,50.90645592],[3.98165026,50.90648881],[3.98160125,50.90647345],[3.98158712,50.90649057]]]}},{"type":"Feature","id":"gebouw/Gebouw.13655992/0","properties":{"source":"Digitaal Vlaanderen Gebouwenregister","source_id":"gebouw/Gebouw.13655992/0","kind":"building","building":"official","height_m":8.1,"status":null},"geometry":{"type":"Polygon","coordinates":[[[3.97485673,50.90829423],[3.97489267,50.90825541],[3.9749295,50.90826872],[3.97495468,50.90824157],[3.97495116,50.90823305],[3.97496319,50.90822009],[3.97497678,50.90821765],[3.97498341,50.90821063],[3.97520336,50.90828818],[3.97512378,50.90837341],[3.97498964,50.90832447],[3.97497647,50.90833935],[3.97485673,50.90829423]]]}},{"type":"Feature","id":"gebouw/Gebouw.13759412/0","properties":{"source":"Digitaal Vlaanderen Gebouwenregister","source_id":"gebouw/Gebouw.13759412/0","kind":"building","building":"official","height_m":6.6,"status":null},"geometry":{"type":"Polygon","coordinates":[[[3.9820337,50.90461976],[3.98207733,50.90463508],[3.98202677,50.90469722],[3.98197936,50.90468647],[3.98201102,50.9046476],[3.9820337,50.90461976]]]}},{"type":"Feature","id":"gebouw/Gebouw.13762705/0","properties":{"source":"Digitaal Vlaanderen Gebouwenregister","source_id":"gebouw/Gebouw.13762705/0","kind":"building","building":"official","height_m":5.85,"status":null},"geometry":{"type":"Polygon","coordinates":[[[3.98191321,50.90487336],[3.98180198,50.90501936],[3.98172925,50.90499708],[3.98178234,50.90492829],[3.98184514,50.90485121],[3.98191321,50.90487336]]]}},{"type":"Feature","id":"gebouw/Gebouw.13763007/0","properties":{"source":"Digitaal Vlaanderen Gebouwenregister","source_id":"gebouw/Gebouw.13763007/0","kind":"building","building":"official","height_m":7.35,"status":null},"geometry":{"type":"Polygon","coordinates":[[[3.98146082,50.90377301],[3.98150517,50.903709],[3.9815613,50.90372454],[3.98156679,50.90371659],[3.98161888,50.90373103],[3.9815667,50.90380735],[3.9814574,50.90377794],[3.98146082,50.90377301]]]}},{"type":"Feature","id":"gebouw/Gebouw.13772673/0","properties":{"source":"Digitaal Vlaanderen Gebouwenregister","source_id":"gebouw/Gebouw.13772673/0","kind":"building","building":"official","height_m":7.35,"status":null},"geometry":{"type":"Polygon","coordinates":[[[3.97584776,50.90769543],[3.97577701,50.90776044],[3.97572302,50.90773575],[3.97571088,50.90773019],[3.97568483,50.90771828],[3.97567225,50.90772884],[3.97558209,50.90768803],[3.97567858,50.90760025],[3.9757286,50.90762093],[3.97570816,50.90763917],[3.97571869,50.90764475],[3.97572313,50.90764059],[3.97575869,50.90765624],[3.97584776,50.90769543]]]}},{"type":"Feature","id":"gebouw/Gebouw.13804992/0","properties":{"source":"Digitaal Vlaanderen Gebouwenregister","source_id":"gebouw/Gebouw.13804992/0","kind":"building","building":"official","height_m":5.1,"status":null},"geometry":{"type":"Polygon","coordinates":[[[3.97920011,50.90234262],[3.97918155,50.90237797],[3.97920456,50.9023828],[3.9791848,50.90242044],[3.97913964,50.90241041],[3.97911755,50.90240551],[3.97915548,50.90233325],[3.97920011,50.90234262]]]}},{"type":"Feature","id":"gebouw/Gebouw.13839654/0","properties":{"source":"Digitaal Vlaanderen Gebouwenregister","source_id":"gebouw/Gebouw.13839654/0","kind":"building","building":"official","height_m":5.1,"status":null},"geometry":{"type":"Polygon","coordinates":[[[3.97455852,50.90825277],[3.97448881,50.90822193],[3.97451741,50.90819566],[3.97458758,50.90822666],[3.97455852,50.90825277]]]}},{"type":"Feature","id":"gebouw/Gebouw.14949828/0","properties":{"source":"Digitaal Vlaanderen Gebouwenregister","source_id":"gebouw/Gebouw.14949828/0","kind":"building","building":"official","height_m":5.1,"status":null},"geometry":{"type":"Polygon","coordinates":[[[3.98169642,50.90375139],[3.98164365,50.90382805],[3.98162736,50.90382367],[3.9815667,50.90380735],[3.9814574,50.90377794],[3.98146082,50.90377301],[3.98150517,50.903709],[3.9815613,50.90372454],[3.98156679,50.90371659],[3.98169642,50.90375139]]]}},{"type":"Feature","id":"gebouw/Gebouw.16710867/0","properties":{"source":"Digitaal Vlaanderen Gebouwenregister","source_id":"gebouw/Gebouw.16710867/0","kind":"building","building":"official","height_m":7.35,"status":null},"geometry":{"type":"Polygon","coordinates":[[[3.97490859,50.90756204],[3.97484689,50.90753403],[3.97487073,50.90751417],[3.97493172,50.90754187],[3.97490859,50.90756204]]]}},{"type":"Feature","id":"gebouw/Gebouw.16720805/0","properties":{"source":"Digitaal Vlaanderen Gebouwenregister","source_id":"gebouw/Gebouw.16720805/0","kind":"building","building":"official","height_m":8.85,"status":null},"geometry":{"type":"Polygon","coordinates":[[[3.98203976,50.90433545],[3.98197326,50.90431401],[3.9819642,50.90431109],[3.98192151,50.90429732],[3.98184724,50.90427338],[3.98178832,50.90434746],[3.98188343,50.90437819],[3.98197845,50.90440889],[3.98203976,50.90433545]]]}},{"type":"Feature","id":"gebouw/Gebouw.16720811/0","properties":{"source":"Digitaal Vlaanderen Gebouwenregister","source_id":"gebouw/Gebouw.16720811/0","kind":"building","building":"official","height_m":8.85,"status":null},"geometry":{"type":"Polygon","coordinates":[[[3.98254505,50.90539806],[3.98250733,50.90538614],[3.98237201,50.90535356],[3.98233797,50.90541057],[3.98232173,50.90543775],[3.98229021,50.90549054],[3.98234084,50.90551547],[3.98239869,50.90543256],[3.98244912,50.90544704],[3.9823893,50.90552976],[3.98243635,50.90554622],[3.98254505,50.90539806]]]}},{"type":"Feature","id":"gebouw/Gebouw.17518607/0","properties":{"source":"Digitaal Vlaanderen Gebouwenregister","source_id":"gebouw/Gebouw.17518607/0","kind":"building","building":"official","height_m":8.85,"status":null},"geometry":{"type":"Polygon","coordinates":[[[3.98148612,50.90367387],[3.98146853,50.90370004],[3.98137763,50.9036727],[3.98139549,50.90364765],[3.98148612,50.90367387]]]}},{"type":"Feature","id":"gebouw/Gebouw.18294785/0","properties":{"source":"Digitaal Vlaanderen Gebouwenregister","source_id":"gebouw/Gebouw.18294785/0","kind":"building","building":"official","height_m":8.85,"status":null},"geometry":{"type":"Polygon","coordinates":[[[3.98166504,50.90543024],[3.98164049,50.9054666],[3.98160634,50.90545714],[3.98163183,50.90542232],[3.98166504,50.90543024]]]}},{"type":"Feature","id":"gebouw/Gebouw.18294786/0","properties":{"source":"Digitaal Vlaanderen Gebouwenregister","source_id":"gebouw/Gebouw.18294786/0","kind":"building","building":"official","height_m":5.1,"status":null},"geometry":{"type":"Polygon","coordinates":[[[3.98083994,50.90276252],[3.98081097,50.90280194],[3.98073363,50.90277888],[3.98076338,50.90273783],[3.98083994,50.90276252]]]}},{"type":"Feature","id":"gebouw/Gebouw.18428930/0","properties":{"source":"Digitaal Vlaanderen Gebouwenregister","source_id":"gebouw/Gebouw.18428930/0","kind":"building","building":"official","height_m":6.6,"status":null},"geometry":{"type":"Polygon","coordinates":[[[3.97369438,50.90832387],[3.97357376,50.90826954],[3.97360003,50.90824467],[3.97364989,50.90826642],[3.97367911,50.90824131],[3.97375277,50.90827393],[3.97369438,50.90832387]]]}},{"type":"Feature","id":"gebouw/Gebouw.18785620/0","properties":{"source":"Digitaal Vlaanderen Gebouwenregister","source_id":"gebouw/Gebouw.18785620/0","kind":"building","building":"official","height_m":8.1,"status":null},"geometry":{"type":"Polygon","coordinates":[[[3.9815846,50.90702698],[3.9815152,50.9070588],[3.98143074,50.90698515],[3.98142701,50.9069819],[3.98143419,50.90697861],[3.98149079,50.90695266],[3.98151822,50.90697657],[3.98152384,50.906974],[3.9815846,50.90702698]]]}},{"type":"Feature","id":"gebouw/Gebouw.18862323/0","properties":{"source":"Digitaal Vlaanderen Gebouwenregister","source_id":"gebouw/Gebouw.18862323/0","kind":"building","building":"official","height_m":7.35,"status":null},"geometry":{"type":"Polygon","coordinates":[[[3.98056747,50.90475455],[3.98053557,50.90480482],[3.98047667,50.90478995],[3.9805047,50.9047409],[3.98056747,50.90475455]]]}},{"type":"Feature","id":"gebouw/Gebouw.18862324/0","properties":{"source":"Digitaal Vlaanderen Gebouwenregister","source_id":"gebouw/Gebouw.18862324/0","kind":"building","building":"official","height_m":8.1,"status":null},"geometry":{"type":"Polygon","coordinates":[[[3.97783185,50.90483605],[3.97788356,50.90485058],[3.97785059,50.90489515],[3.9777977,50.90487906],[3.97783185,50.90483605]]]}},{"type":"Feature","id":"gebouw/Gebouw.18864037/0","properties":{"source":"Digitaal Vlaanderen Gebouwenregister","source_id":"gebouw/Gebouw.18864037/0","kind":"building","building":"official","height_m":5.85,"status":null},"geometry":{"type":"Polygon","coordinates":[[[3.982318,50.90475812],[3.98234793,50.90472135],[3.98241072,50.90474179],[3.98238078,50.90477855],[3.982318,50.90475812]]]}},{"type":"Feature","id":"gebouw/Gebouw.18864220/0","properties":{"source":"Digitaal Vlaanderen Gebouwenregister","source_id":"gebouw/Gebouw.18864220/0","kind":"building","building":"official","height_m":8.1,"status":null},"geometry":{"type":"Polygon","coordinates":[[[3.98136477,50.90549541],[3.98141237,50.90541933],[3.98144079,50.90542572],[3.98139694,50.90550224],[3.98136477,50.90549541]]]}},{"type":"Feature","id":"gebouw/Gebouw.18864643/0","properties":{"source":"Digitaal Vlaanderen Gebouwenregister","source_id":"gebouw/Gebouw.18864643/0","kind":"building","building":"official","height_m":5.85,"status":null},"geometry":{"type":"Polygon","coordinates":[[[3.97903366,50.908304],[3.9790177,50.90833664],[3.97892576,50.90831867],[3.97894172,50.90828603],[3.97903366,50.908304]]]}},{"type":"Feature","id":"gebouw/Gebouw.19700126/0","properties":{"source":"Digitaal Vlaanderen Gebouwenregister","source_id":"gebouw/Gebouw.19700126/0","kind":"building","building":"official","height_m":6.6,"status":null},"geometry":{"type":"Polygon","coordinates":[[[3.98228409,50.90550078],[3.98229021,50.90549054],[3.98232173,50.90543775],[3.98216483,50.90539464],[3.98218916,50.90536117],[3.98221982,50.90537011],[3.98225976,50.90532683],[3.98225329,50.9053253],[3.98222081,50.90531763],[3.98221409,50.90531604],[3.98219069,50.90534686],[3.98211091,50.90544372],[3.98208172,50.90548411],[3.98208559,50.90548529],[3.98209653,50.90548863],[3.98213802,50.90550128],[3.98214086,50.90549916],[3.98217037,50.90551017],[3.98219802,50.90547212],[3.98223638,50.905482],[3.98222802,50.90549367],[3.98220839,50.90548911],[3.9820778,50.90570382],[3.98212221,50.9057153],[3.98213843,50.905689],[3.98215554,50.9056947],[3.98228409,50.90550078]]]}},{"type":"Feature","id":"gebouw/Gebouw.19700127/0","properties":{"source":"Digitaal Vlaanderen Gebouwenregister","source_id":"gebouw/Gebouw.19700127/0","kind":"building","building":"official","height_m":7.35,"status":null},"geometry":{"type":"Polygon","coordinates":[[[3.98219069,50.90534686],[3.98211091,50.90544372],[3.98207141,50.90543303],[3.98214156,50.9053333],[3.98219069,50.90534686]]]}},{"type":"Feature","id":"gebouw/Gebouw.19714774/0","properties":{"source":"Digitaal Vlaanderen Gebouwenregister","source_id":"gebouw/Gebouw.19714774/0","kind":"building","building":"official","height_m":8.1,"status":null},"geometry":{"type":"Polygon","coordinates":[[[3.98214622,50.90508957],[3.98209423,50.90515254],[3.98202407,50.90512915],[3.98199985,50.90512107],[3.98199759,50.90512032],[3.98212189,50.90496858],[3.98212394,50.90496609],[3.98215666,50.90497742],[3.98213132,50.90501422],[3.98213701,50.90503516],[3.98211114,50.90506738],[3.98213442,50.9050749],[3.98212796,50.90508325],[3.98214622,50.90508957]]]}},{"type":"Feature","id":"gebouw/Gebouw.19714775/0","properties":{"source":"Digitaal Vlaanderen Gebouwenregister","source_id":"gebouw/Gebouw.19714775/0","kind":"building","building":"official","height_m":8.85,"status":null},"geometry":{"type":"Polygon","coordinates":[[[3.9822174,50.90500336],[3.98218181,50.90504648],[3.98214503,50.90503532],[3.98218098,50.90499133],[3.9822174,50.90500336]]]}},{"type":"Feature","id":"gebouw/Gebouw.19954693/0","properties":{"source":"Digitaal Vlaanderen Gebouwenregister","source_id":"gebouw/Gebouw.19954693/0","kind":"building","building":"official","height_m":5.85,"status":null},"geometry":{"type":"Polygon","coordinates":[[[3.9800495,50.90461654],[3.98000715,50.90467081],[3.97991066,50.90464071],[3.979953,50.90458644],[3.9800495,50.90461654]]]}},{"type":"Feature","id":"gebouw/Gebouw.19954694/0","properties":{"source":"Digitaal Vlaanderen Gebouwenregister","source_id":"gebouw/Gebouw.19954694/0","kind":"building","building":"official","height_m":6.6,"status":null},"geometry":{"type":"Polygon","coordinates":[[[3.9737227,50.90602373],[3.97370241,50.90605647],[3.97358799,50.90602812],[3.97360828,50.90599538],[3.9737227,50.90602373]]]}},{"type":"Feature","id":"gebouw/Gebouw.19955354/0","properties":{"source":"Digitaal Vlaanderen Gebouwenregister","source_id":"gebouw/Gebouw.19955354/0","kind":"building","building":"official","height_m":6.6,"status":null},"geometry":{"type":"Polygon","coordinates":[[[3.97614604,50.90779155],[3.97611172,50.90777698],[3.97614316,50.9077474],[3.97617747,50.90776197],[3.97614604,50.90779155]]]}},{"type":"Feature","id":"gebouw/Gebouw.19955355/0","properties":{"source":"Digitaal Vlaanderen Gebouwenregister","source_id":"gebouw/Gebouw.19955355/0","kind":"building","building":"official","height_m":7.35,"status":null},"geometry":{"type":"Polygon","coordinates":[[[3.97569083,50.90746279],[3.97565557,50.90744807],[3.97571057,50.90740903],[3.97573718,50.90741851],[3.97569083,50.90746279]]]}},{"type":"Feature","id":"gebouw/Gebouw.19955356/0","properties":{"source":"Digitaal Vlaanderen Gebouwenregister","source_id":"gebouw/Gebouw.19955356/0","kind":"building","building":"official","height_m":8.1,"status":null},"geometry":{"type":"Polygon","coordinates":[[[3.97582026,50.90745565],[3.97579554,50.90744522],[3.97587326,50.90737158],[3.97589798,50.90738202],[3.97582026,50.90745565]]]}},{"type":"Feature","id":"gebouw/Gebouw.19955357/0","properties":{"source":"Digitaal Vlaanderen Gebouwenregister","source_id":"gebouw/Gebouw.19955357/0","kind":"building","building":"official","height_m":8.85,"status":null},"geometry":{"type":"Polygon","coordinates":[[[3.97692747,50.90736995],[3.97696564,50.90738157],[3.97693862,50.90741706],[3.97690045,50.90740544],[3.97692747,50.90736995]]]}},{"type":"Feature","id":"gebouw/Gebouw.19955358/0","properties":{"source":"Digitaal Vlaanderen Gebouwenregister","source_id":"gebouw/Gebouw.19955358/0","kind":"building","building":"official","height_m":5.1,"status":null},"geometry":{"type":"Polygon","coordinates":[[[3.97521292,50.90758739],[3.97520014,50.90753703],[3.97528816,50.90752811],[3.97530093,50.90757846],[3.97521292,50.90758739]]]}},{"type":"Feature","id":"gebouw/Gebouw.19955362/0","properties":{"source":"Digitaal Vlaanderen Gebouwenregister","source_id":"gebouw/Gebouw.19955362/0","kind":"building","building":"official","height_m":8.1,"status":null},"geometry":{"type":"Polygon","coordinates":[[[3.97876342,50.9079754],[3.9787265,50.90795338],[3.97877516,50.90791871],[3.97881482,50.90794097],[3.97876342,50.9079754]]]}},{"type":"Feature","id":"gebouw/Gebouw.19955363/0","properties":{"source":"Digitaal Vlaanderen Gebouwenregister","source_id":"gebouw/Gebouw.19955363/0","kind":"building","building":"official","height_m":8.85,"status":null},"geometry":{"type":"Polygon","coordinates":[[[3.97942194,50.90727245],[3.97935189,50.90724581],[3.97938846,50.90720737],[3.97945851,50.90723401],[3.97942194,50.90727245]]]}},{"type":"Feature","id":"gebouw/Gebouw.19956132/0","properties":{"source":"Digitaal Vlaanderen Gebouwenregister","source_id":"gebouw/Gebouw.19956132/0","kind":"building","building":"official","height_m":5.1,"status":null},"geometry":{"type":"Polygon","coordinates":[[[3.97974784,50.90478022],[3.97970753,50.90482559],[3.97962059,50.90479469],[3.9796585,50.90475204],[3.97964195,50.90474616],[3.97966568,50.90471946],[3.97969533,50.90473],[3.97967183,50.90475645],[3.97970204,50.90476719],[3.97970423,50.90476473],[3.97974784,50.90478022]]]}},{"type":"Feature","id":"gebouw/Gebouw.19956201/0","properties":{"source":"Digitaal Vlaanderen Gebouwenregister","source_id":"gebouw/Gebouw.19956201/0","kind":"building","building":"official","height_m":7.35,"status":null},"geometry":{"type":"Polygon","coordinates":[[[3.97558642,50.90787119],[3.97569625,50.90791915],[3.97567317,50.90794027],[3.97566975,50.9079434],[3.9755636,50.90789704],[3.97555223,50.90789208],[3.97555547,50.90788912],[3.97557873,50.90786783],[3.97558642,50.90787119]]]}},{"type":"Feature","id":"gebouw/Gebouw.19956339/0","properties":{"source":"Digitaal Vlaanderen Gebouwenregister","source_id":"gebouw/Gebouw.19956339/0","kind":"building","building":"official","height_m":7.35,"status":null},"geometry":{"type":"Polygon","coordinates":[[[3.97444812,50.90821723],[3.97450681,50.90824035],[3.97444999,50.90829088],[3.97439118,50.90826639],[3.97444812,50.90821723]]]}},{"type":"Feature","id":"gebouw/Gebouw.20220244/0","properties":{"source":"Digitaal Vlaanderen Gebouwenregister","source_id":"gebouw/Gebouw.20220244/0","kind":"building","building":"official","height_m":8.1,"status":null},"geometry":{"type":"Polygon","coordinates":[[[3.9814363,50.90569967],[3.98138987,50.90568802],[3.98142139,50.90563782],[3.98146782,50.90564948],[3.9814363,50.90569967]]]}},{"type":"Feature","id":"gebouw/Gebouw.20220245/0","properties":{"source":"Digitaal Vlaanderen Gebouwenregister","source_id":"gebouw/Gebouw.20220245/0","kind":"building","building":"official","height_m":8.85,"status":null},"geometry":{"type":"Polygon","coordinates":[[[3.98260268,50.9047059],[3.98264013,50.90471897],[3.98261289,50.90475017],[3.98257544,50.90473709],[3.98260268,50.9047059]]]}},{"type":"Feature","id":"gebouw/Gebouw.20220246/0","properties":{"source":"Digitaal Vlaanderen Gebouwenregister","source_id":"gebouw/Gebouw.20220246/0","kind":"building","building":"official","height_m":5.1,"status":null},"geometry":{"type":"Polygon","coordinates":[[[3.98216063,50.90413729],[3.98220719,50.90414894],[3.98220166,50.90415777],[3.98223249,50.90416548],[3.98221499,50.90419346],[3.9821831,50.90418549],[3.98217655,50.90419597],[3.98213105,50.90418459],[3.98216063,50.90413729]]]}},{"type":"Feature","id":"gebouw/Gebouw.20220254/0","properties":{"source":"Digitaal Vlaanderen Gebouwenregister","source_id":"gebouw/Gebouw.20220254/0","kind":"building","building":"official","height_m":6.6,"status":null},"geometry":{"type":"Polygon","coordinates":[[[3.98113164,50.90502257],[3.98111706,50.90504776],[3.98103646,50.90502911],[3.98105104,50.90500392],[3.98113164,50.90502257]]]}},{"type":"Feature","id":"gebouw/Gebouw.20703901/0","properties":{"source":"Digitaal Vlaanderen Gebouwenregister","source_id":"gebouw/Gebouw.20703901/0","kind":"building","building":"official","height_m":5.85,"status":null},"geometry":{"type":"Polygon","coordinates":[[[3.98053754,50.90269766],[3.98056405,50.90266226],[3.9805658,50.90265992],[3.9803989,50.90260975],[3.98039773,50.90261132],[3.98034708,50.90267895],[3.98041027,50.90269787],[3.98039497,50.90271825],[3.98049882,50.90274935],[3.98053754,50.90269766]]]}},{"type":"Feature","id":"gebouw/Gebouw.20802071/0","properties":{"source":"Digitaal Vlaanderen Gebouwenregister","source_id":"gebouw/Gebouw.20802071/0","kind":"building","building":"official","height_m":8.85,"status":null},"geometry":{"type":"Polygon","coordinates":[[[3.97692491,50.90529541],[3.97700989,50.90531513],[3.97698728,50.9053541],[3.9769023,50.90533438],[3.97692491,50.90529541]]]}},{"type":"Feature","id":"gebouw/Gebouw.30599226/0","properties":{"source":"Digitaal Vlaanderen Gebouwenregister","source_id":"gebouw/Gebouw.30599226/0","kind":"building","building":"official","height_m":5.1,"status":null},"geometry":{"type":"Polygon","coordinates":[[[3.98181002,50.90386658],[3.98182495,50.90384503],[3.98194166,50.90387733],[3.98192674,50.90389889],[3.98181002,50.90386658]]]}},{"type":"Feature","id":"gebouw/Gebouw.30599310/0","properties":{"source":"Digitaal Vlaanderen Gebouwenregister","source_id":"gebouw/Gebouw.30599310/0","kind":"building","building":"official","height_m":5.1,"status":null},"geometry":{"type":"Polygon","coordinates":[[[3.9819282,50.90480337],[3.98196339,50.90475497],[3.98199241,50.90476341],[3.98195722,50.90481181],[3.9819282,50.90480337]]]}},{"type":"Feature","id":"gebouw/Gebouw.30599414/0","properties":{"source":"Digitaal Vlaanderen Gebouwenregister","source_id":"gebouw/Gebouw.30599414/0","kind":"building","building":"official","height_m":6.6,"status":null},"geometry":{"type":"Polygon","coordinates":[[[3.98253796,50.90508165],[3.98249748,50.90506713],[3.98247187,50.90509569],[3.9824488,50.90508741],[3.98247658,50.90505644],[3.98249267,50.90506221],[3.98252086,50.90503077],[3.98256833,50.90504779],[3.98253796,50.90508165]]]}},{"type":"Feature","id":"gebouw/Gebouw.30883281/0","properties":{"source":"Digitaal Vlaanderen Gebouwenregister","source_id":"gebouw/Gebouw.30883281/0","kind":"building","building":"official","height_m":7.35,"status":null},"geometry":{"type":"Polygon","coordinates":[[[3.97714665,50.90539005],[3.97706177,50.90536388],[3.97708004,50.90534034],[3.97716492,50.90536651],[3.97714665,50.90539005]]]}},{"type":"Feature","id":"gebouw/Gebouw.30883282/0","properties":{"source":"Digitaal Vlaanderen Gebouwenregister","source_id":"gebouw/Gebouw.30883282/0","kind":"building","building":"official","height_m":8.1,"status":null},"geometry":{"type":"Polygon","coordinates":[[[3.97355162,50.90826618],[3.97351632,50.90830497],[3.97358347,50.90832928],[3.9736415,50.90826549],[3.97357435,50.90824119],[3.97355162,50.90826618]]]}},{"type":"Feature","id":"gebouw/Gebouw.30883283/0","properties":{"source":"Digitaal Vlaanderen Gebouwenregister","source_id":"gebouw/Gebouw.30883283/0","kind":"building","building":"official","height_m":8.85,"status":null},"geometry":{"type":"Polygon","coordinates":[[[3.97471933,50.90792482],[3.97477136,50.90795253],[3.9747386,50.9079771],[3.97468658,50.90794938],[3.97471933,50.90792482]]]}},{"type":"Feature","id":"gebouw/Gebouw.30884056/0","properties":{"source":"Digitaal Vlaanderen Gebouwenregister","source_id":"gebouw/Gebouw.30884056/0","kind":"building","building":"official","height_m":8.1,"status":null},"geometry":{"type":"Polygon","coordinates":[[[3.97552095,50.90771777],[3.97562973,50.90776506],[3.97551853,50.90787323],[3.97540583,50.90782474],[3.97552095,50.90771777]]]}},{"type":"Feature","id":"gebouw/Gebouw.31006125/0","properties":{"source":"Digitaal Vlaanderen Gebouwenregister","source_id":"gebouw/Gebouw.31006125/0","kind":"building","building":"official","height_m":7.35,"status":null},"geometry":{"type":"Polygon","coordinates":[[[3.98007723,50.9031078],[3.98011643,50.90314095],[3.98002781,50.90318285],[3.9799694,50.90316594],[3.97995937,50.90316304],[3.97996464,50.90316057],[3.98007723,50.9031078]]]}},{"type":"Feature","id":"gebouw/Gebouw.31697195/0","properties":{"source":"Digitaal Vlaanderen Gebouwenregister","source_id":"gebouw/Gebouw.31697195/0","kind":"building","building":"official","height_m":8.85,"status":null},"geometry":{"type":"Polygon","coordinates":[[[3.98045473,50.90309692],[3.98041375,50.90306161],[3.98040532,50.90305442],[3.98039767,50.90304788],[3.98039735,50.90304761],[3.98039538,50.90304853],[3.98029209,50.9030969],[3.98026759,50.90310838],[3.98032526,50.90315762],[3.98045473,50.90309692]]]}},{"type":"Feature","id":"gebouw/Gebouw.31844864/0","properties":{"source":"Digitaal Vlaanderen Gebouwenregister","source_id":"gebouw/Gebouw.31844864/0","kind":"building","building":"official","height_m":6.6,"status":null},"geometry":{"type":"Polygon","coordinates":[[[3.97369568,50.90735225],[3.97365392,50.90733618],[3.97365956,50.90733032],[3.97355804,50.90729126],[3.97351436,50.90733664],[3.97365764,50.90739177],[3.97369568,50.90735225]]]}},{"type":"Feature","id":"gebouw/Gebouw.31845129/0","properties":{"source":"Digitaal Vlaanderen Gebouwenregister","source_id":"gebouw/Gebouw.31845129/0","kind":"building","building":"official","height_m":7.35,"status":null},"geometry":{"type":"Polygon","coordinates":[[[3.97885678,50.90402113],[3.97879869,50.9040066],[3.97878198,50.90403332],[3.97884006,50.90404785],[3.97885678,50.90402113]]]}},{"type":"Feature","id":"gebouw/Gebouw.31845147/0","properties":{"source":"Digitaal Vlaanderen Gebouwenregister","source_id":"gebouw/Gebouw.31845147/0","kind":"building","building":"official","height_m":7.35,"status":null},"geometry":{"type":"Polygon","coordinates":[[[3.98012453,50.90456773],[3.98009263,50.90461251],[3.98014378,50.90462708],[3.98017568,50.9045823],[3.98012453,50.90456773]]]}},{"type":"Feature","id":"gebouw/Gebouw.31845237/0","properties":{"source":"Digitaal Vlaanderen Gebouwenregister","source_id":"gebouw/Gebouw.31845237/0","kind":"building","building":"official","height_m":7.35,"status":null},"geometry":{"type":"Polygon","coordinates":[[[3.98029735,50.90418844],[3.9803281,50.90413662],[3.98016415,50.90409346],[3.98012384,50.90414952],[3.98029735,50.90418844]]]}},{"type":"Feature","id":"gebouw/Gebouw.31848486/0","properties":{"source":"Digitaal Vlaanderen Gebouwenregister","source_id":"gebouw/Gebouw.31848486/0","kind":"building","building":"official","height_m":5.1,"status":null},"geometry":{"type":"Polygon","coordinates":[[[3.98060747,50.9069889],[3.98069815,50.9070157],[3.98071354,50.90699489],[3.98055566,50.90694823],[3.98053871,50.90697117],[3.9806059,50.90699102],[3.98060747,50.9069889]]]}},{"type":"Feature","id":"gebouw/Gebouw.31848661/0","properties":{"source":"Digitaal Vlaanderen Gebouwenregister","source_id":"gebouw/Gebouw.31848661/0","kind":"building","building":"official","height_m":5.85,"status":null},"geometry":{"type":"Polygon","coordinates":[[[3.97957786,50.90823519],[3.97969248,50.9082558],[3.9797046,50.90822885],[3.97958998,50.90820825],[3.97957786,50.90823519]]]}},{"type":"Feature","id":"gebouw/Gebouw.31848818/0","properties":{"source":"Digitaal Vlaanderen Gebouwenregister","source_id":"gebouw/Gebouw.31848818/0","kind":"building","building":"official","height_m":6.6,"status":null},"geometry":{"type":"Polygon","coordinates":[[[3.98069972,50.90277393],[3.98073967,50.90272244],[3.98069124,50.90270742],[3.98065128,50.90275891],[3.98069972,50.90277393]]]}},{"type":"Feature","id":"gebouw/Gebouw.32031994/0","properties":{"source":"Digitaal Vlaanderen Gebouwenregister","source_id":"gebouw/Gebouw.32031994/0","kind":"building","building":"official","height_m":8.1,"status":null},"geometry":{"type":"Polygon","coordinates":[[[3.98143907,50.90528419],[3.98140032,50.90527518],[3.98137946,50.90531106],[3.98141821,50.90532007],[3.98143907,50.90528419]]]}},{"type":"Feature","id":"gebouw/Gebouw.32032037/0","properties":{"source":"Digitaal Vlaanderen Gebouwenregister","source_id":"gebouw/Gebouw.32032037/0","kind":"building","building":"official","height_m":8.85,"status":null},"geometry":{"type":"Polygon","coordinates":[[[3.98050037,50.90390638],[3.98056041,50.90382919],[3.98047437,50.90380243],[3.98041434,50.90387962],[3.98050037,50.90390638]]]}},{"type":"Feature","id":"gebouw/Gebouw.32032242/0","properties":{"source":"Digitaal Vlaanderen Gebouwenregister","source_id":"gebouw/Gebouw.32032242/0","kind":"building","building":"official","height_m":5.1,"status":null},"geometry":{"type":"Polygon","coordinates":[[[3.97745929,50.90820337],[3.97740403,50.90824933],[3.97742926,50.90826146],[3.97748452,50.9082155],[3.97745929,50.90820337]]]}},{"type":"Feature","id":"way/163104833","properties":{"source":"OpenStreetMap","source_id":"way/163104833","kind":"vegetation","landuse":"forest","natural":null,"name":null},"geometry":{"type":"Polygon","coordinates":[[[3.9814195,50.9045739],[3.9813827,50.9046337],[3.9811321,50.9045746],[3.9809248,50.9048149],[3.9808423,50.9049113],[3.9807879,50.9048975],[3.9807203,50.9049869],[3.9806277,50.9049658],[3.9809899,50.9045764],[3.9810654,50.904495],[3.9814195,50.9045739]]]}},{"type":"Feature","id":"way/163104897","properties":{"source":"OpenStreetMap","source_id":"way/163104897","kind":"vegetation","landuse":"forest","natural":null,"name":null},"geometry":{"type":"Polygon","coordinates":[[[3.9771758,50.905551],[3.9769629,50.9057969],[3.9768083,50.9057765],[3.9766975,50.9060922],[3.9762697,50.905988],[3.9760123,50.9060094],[3.9757256,50.905981],[3.9755811,50.9059595],[3.9754399,50.9061575],[3.9767239,50.9063851],[3.9766016,50.906887],[3.9772062,50.9073184],[3.9772444,50.9072857],[3.9772703,50.9072618],[3.9773587,50.9071598],[3.9775428,50.9068296],[3.9776107,50.9067042],[3.97795,50.9063225],[3.9779412,50.9057939],[3.9779698,50.9057209],[3.9780175,50.9056736],[3.9774505,50.9055927],[3.9771758,50.905551]]]}},{"type":"Feature","id":"way/163111232","properties":{"source":"OpenStreetMap","source_id":"way/163111232","kind":"vegetation","landuse":"forest","natural":null,"name":null},"geometry":{"type":"Polygon","coordinates":[[[3.9743291,50.9085017],[3.9742942,50.9085421],[3.9741087,50.9084742],[3.9738982,50.908393],[3.9737772,50.9083445],[3.9743916,50.9079922],[3.9745566,50.9078499],[3.9747529,50.9076909],[3.9748094,50.9077149],[3.9744855,50.9080009],[3.9739675,50.908371],[3.9743291,50.9085017]]]}},{"type":"Feature","id":"way/585098332","properties":{"source":"OpenStreetMap","source_id":"way/585098332","kind":"vegetation","landuse":"forest","natural":null,"name":null},"geometry":{"type":"Polygon","coordinates":[[[3.9747398,50.9072445],[3.9755317,50.9074948],[3.9756258,50.9074242],[3.9764447,50.9069471],[3.9751264,50.9065971],[3.975017,50.9067505],[3.9750867,50.9067763],[3.9747398,50.9072445]]]}}]}