{"type":"FeatureCollection","features":[{"type":"Feature","id":"gebouw/Gebouw.9048489/0","properties":{"source":"Digitaal Vlaanderen Gebouwenregister","source_id":"gebouw/Gebouw.9048489/0","kind":"building","building":"official","height_m":7.35,"status":null},"geometry":{"type":"Polygon","coordinates":[[[3.98412292,50.95448056],[3.98433659,50.9545451],[3.98428439,50.95461705],[3.98427969,50.9546155],[3.9842748,50.95462077],[3.98417491,50.95459106],[3.9840938,50.95456695],[3.98402952,50.95454783],[3.98402689,50.95454705],[3.98405661,50.95450718],[3.98406436,50.95450941],[3.9840755,50.95449455],[3.98409418,50.95449991],[3.9841117,50.95449538],[3.98412292,50.95448056]]]}},{"type":"Feature","id":"gebouw/Gebouw.9069741/0","properties":{"source":"Digitaal Vlaanderen Gebouwenregister","source_id":"gebouw/Gebouw.9069741/0","kind":"building","building":"official","height_m":7.35,"status":null},"geometry":{"type":"Polygon","coordinates":[[[3.98536294,50.95349045],[3.98534248,50.95351417],[3.98534032,50.95351668],[3.98527401,50.95349387],[3.98526352,50.95349026],[3.98528615,50.95346402],[3.98536294,50.95349045]]]}},{"type":"Feature","id":"gebouw/Gebouw.9155185/0","properties":{"source":"Digitaal Vlaanderen Gebouwenregister","source_id":"gebouw/Gebouw.9155185/0","kind":"building","building":"official","height_m":5.85,"status":null},"geometry":{"type":"Polygon","coordinates":[[[3.9848338,50.95396292],[3.98476235,50.95408355],[3.98443686,50.95398691],[3.98448094,50.95392795],[3.98459544,50.95396434],[3.98472052,50.95400409],[3.98472221,50.95400463],[3.98475469,50.9539476],[3.98475638,50.95394463],[3.9848338,50.95396292]]]}},{"type":"Feature","id":"gebouw/Gebouw.9155187/0","properties":{"source":"Digitaal Vlaanderen Gebouwenregister","source_id":"gebouw/Gebouw.9155187/0","kind":"building","building":"official","height_m":7.35,"status":null},"geometry":{"type":"Polygon","coordinates":[[[3.98598663,50.95349277],[3.98597679,50.95351816],[3.98603401,50.95352683],[3.98600331,50.9536059],[3.98594626,50.95359696],[3.98588518,50.95358884],[3.98592641,50.9534831],[3.98598663,50.95349277]]]}},{"type":"Feature","id":"gebouw/Gebouw.9155512/0","properties":{"source":"Digitaal Vlaanderen Gebouwenregister","source_id":"gebouw/Gebouw.9155512/0","kind":"building","building":"official","height_m":8.1,"status":null},"geometry":{"type":"Polygon","coordinates":[[[3.98556105,50.95364176],[3.98562063,50.95366359],[3.98547722,50.9538286],[3.98546481,50.95384289],[3.9854089,50.95383216],[3.98540758,50.95383486],[3.98524416,50.95380524],[3.98527424,50.95373541],[3.98530641,50.9537436],[3.9853221,50.95371306],[3.98539025,50.95372562],[3.98538839,50.9537286],[3.98539161,50.95372995],[3.98539419,50.95373316],[3.98539494,50.95373785],[3.98539426,50.95374122],[3.98540162,50.95374298],[3.98541411,50.95371035],[3.98549237,50.95372153],[3.98556105,50.95364176]]]}},{"type":"Feature","id":"gebouw/Gebouw.9192789/0","properties":{"source":"Digitaal Vlaanderen Gebouwenregister","source_id":"gebouw/Gebouw.9192789/0","kind":"building","building":"official","height_m":7.35,"status":null},"geometry":{"type":"Polygon","coordinates":[[[3.98522606,50.95364648],[3.98515952,50.95362151],[3.98512562,50.95366031],[3.98508165,50.95376324],[3.98507844,50.95377075],[3.98507615,50.95377614],[3.98514499,50.95378787],[3.98517532,50.95379304],[3.98521537,50.95370287],[3.98519115,50.95369849],[3.98518996,50.95369827],[3.98523052,50.95364816],[3.98522606,50.95364648]]]}},{"type":"Feature","id":"gebouw/Gebouw.9462507/0","properties":{"source":"Digitaal Vlaanderen Gebouwenregister","source_id":"gebouw/Gebouw.9462507/0","kind":"building","building":"official","height_m":7.35,"status":null},"geometry":{"type":"Polygon","coordinates":[[[3.98524749,50.9535851],[3.98520817,50.95362788],[3.98516718,50.95361242],[3.98520544,50.95356996],[3.98524749,50.9535851]]]}},{"type":"Feature","id":"gebouw/Gebouw.9475936/0","properties":{"source":"Digitaal Vlaanderen Gebouwenregister","source_id":"gebouw/Gebouw.9475936/0","kind":"building","building":"official","height_m":8.1,"status":null},"geometry":{"type":"Polygon","coordinates":[[[3.98485817,50.95359171],[3.98489848,50.95355058],[3.98491812,50.95355848],[3.98494168,50.95353271],[3.98498948,50.95355179],[3.98502126,50.95351843],[3.98507615,50.95353835],[3.98498697,50.95363025],[3.98497081,50.95362501],[3.98494252,50.95362937],[3.98491372,50.95366201],[3.98483421,50.95363171],[3.98486785,50.95359575],[3.98485817,50.95359171]]]}},{"type":"Feature","id":"gebouw/Gebouw.9475937/0","properties":{"source":"Digitaal Vlaanderen Gebouwenregister","source_id":"gebouw/Gebouw.9475937/0","kind":"building","building":"official","height_m":8.85,"status":null},"geometry":{"type":"Polygon","coordinates":[[[3.98512188,50.95328375],[3.98518659,50.953306],[3.98515824,50.95333889],[3.98512941,50.95332898],[3.98513165,50.95332638],[3.98509582,50.95331399],[3.98512188,50.95328375]]]}},{"type":"Feature","id":"gebouw/Gebouw.9563654/0","properties":{"source":"Digitaal Vlaanderen Gebouwenregister","source_id":"gebouw/Gebouw.9563654/0","kind":"building","building":"official","height_m":6.6,"status":null},"geometry":{"type":"Polygon","coordinates":[[[3.9850726,50.95333845],[3.98513511,50.95336144],[3.98511367,50.95338555],[3.98504999,50.9533618],[3.9850726,50.95333845]]]}},{"type":"Feature","id":"gebouw/Gebouw.9563989/0","properties":{"source":"Digitaal Vlaanderen Gebouwenregister","source_id":"gebouw/Gebouw.9563989/0","kind":"building","building":"official","height_m":5.85,"status":null},"geometry":{"type":"Polygon","coordinates":[[[3.98510091,50.95440674],[3.98493247,50.95469123],[3.98477846,50.95454089],[3.9848455,50.95443255],[3.98477884,50.95441759],[3.98498702,50.95408822],[3.98510237,50.95411741],[3.98514745,50.954045],[3.98508553,50.9540298],[3.98509467,50.95401609],[3.98503726,50.95400154],[3.98507852,50.95393684],[3.98527649,50.95398678],[3.98518089,50.95413728],[3.98519782,50.95414157],[3.9850559,50.95436279],[3.98503889,50.95438929],[3.98510091,50.95440674]]]}},{"type":"Feature","id":"gebouw/Gebouw.9746004/0","properties":{"source":"Digitaal Vlaanderen Gebouwenregister","source_id":"gebouw/Gebouw.9746004/0","kind":"building","building":"official","height_m":5.1,"status":null},"geometry":{"type":"Polygon","coordinates":[[[3.98527424,50.95373541],[3.98529909,50.95367778],[3.98530402,50.9536723],[3.98532643,50.95364706],[3.98528314,50.95363301],[3.98525612,50.95366568],[3.98525686,50.95367112],[3.98524071,50.95370746],[3.98521537,50.95370287],[3.98517532,50.95379304],[3.98524416,50.95380524],[3.98524852,50.95379511],[3.98525284,50.95378508],[3.98527022,50.95374476],[3.98527424,50.95373541]]]}},{"type":"Feature","id":"gebouw/Gebouw.9746180/0","properties":{"source":"Digitaal Vlaanderen Gebouwenregister","source_id":"gebouw/Gebouw.9746180/0","kind":"building","building":"official","height_m":6.6,"status":null},"geometry":{"type":"Polygon","coordinates":[[[3.98507185,50.95362783],[3.98509237,50.95360465],[3.98515149,50.95362198],[3.98512942,50.95364758],[3.98507185,50.95362783]]]}},{"type":"Feature","id":"gebouw/Gebouw.9746680/0","properties":{"source":"Digitaal Vlaanderen Gebouwenregister","source_id":"gebouw/Gebouw.9746680/0","kind":"building","building":"official","height_m":8.1,"status":null},"geometry":{"type":"Polygon","coordinates":[[[3.98573975,50.95375109],[3.98567034,50.95374114],[3.98569305,50.95368239],[3.98570485,50.9536844],[3.9857255,50.95362506],[3.98587137,50.95364731],[3.98583207,50.95374745],[3.98574581,50.95373599],[3.98573975,50.95375109]]]}},{"type":"Feature","id":"gebouw/Gebouw.9840941/0","properties":{"source":"Digitaal Vlaanderen Gebouwenregister","source_id":"gebouw/Gebouw.9840941/0","kind":"building","building":"official","height_m":8.85,"status":null},"geometry":{"type":"Polygon","coordinates":[[[3.98547522,50.953499],[3.98555313,50.95352292],[3.985527,50.95355578],[3.98545056,50.95353207],[3.98547522,50.953499]]]}},{"type":"Feature","id":"gebouw/Gebouw.12866013/0","properties":{"source":"Digitaal Vlaanderen Gebouwenregister","source_id":"gebouw/Gebouw.12866013/0","kind":"building","building":"official","height_m":7.35,"status":null},"geometry":{"type":"Polygon","coordinates":[[[3.99025749,50.95343827],[3.99044006,50.95354931],[3.99032654,50.95362033],[3.99015558,50.95350088],[3.99025749,50.95343827]]]}},{"type":"Feature","id":"gebouw/Gebouw.12933972/0","properties":{"source":"Digitaal Vlaanderen Gebouwenregister","source_id":"gebouw/Gebouw.12933972/0","kind":"building","building":"official","height_m":5.1,"status":null},"geometry":{"type":"Polygon","coordinates":[[[3.9900469,50.95366249],[3.99004087,50.95366622],[3.98989323,50.95356256],[3.9899951,50.95350037],[3.99014573,50.95360116],[3.9900469,50.95366249]]]}},{"type":"Feature","id":"gebouw/Gebouw.12960887/0","properties":{"source":"Digitaal Vlaanderen Gebouwenregister","source_id":"gebouw/Gebouw.12960887/0","kind":"building","building":"official","height_m":8.85,"status":null},"geometry":{"type":"Polygon","coordinates":[[[3.98409475,50.95270883],[3.98404716,50.95268739],[3.98407845,50.9526626],[3.98412414,50.95268418],[3.98409475,50.95270883]]]}},{"type":"Feature","id":"gebouw/Gebouw.13029704/0","properties":{"source":"Digitaal Vlaanderen Gebouwenregister","source_id":"gebouw/Gebouw.13029704/0","kind":"building","building":"official","height_m":6.6,"status":null},"geometry":{"type":"Polygon","coordinates":[[[3.99329494,50.95205413],[3.99320776,50.95199484],[3.99317645,50.95201385],[3.99314254,50.95199198],[3.99309382,50.95202213],[3.99304701,50.9520511],[3.99308092,50.95207162],[3.99299946,50.95212096],[3.99308958,50.95217874],[3.99329494,50.95205413]]]}},{"type":"Feature","id":"gebouw/Gebouw.13090350/0","properties":{"source":"Digitaal Vlaanderen Gebouwenregister","source_id":"gebouw/Gebouw.13090350/0","kind":"building","building":"official","height_m":5.1,"status":null},"geometry":{"type":"Polygon","coordinates":[[[3.98955278,50.9533865],[3.9894939,50.95328536],[3.98955939,50.9532705],[3.98957327,50.95329481],[3.98966603,50.95327176],[3.98971,50.95334906],[3.98955278,50.9533865]]]}},{"type":"Feature","id":"gebouw/Gebouw.13130952/0","properties":{"source":"Digitaal Vlaanderen Gebouwenregister","source_id":"gebouw/Gebouw.13130952/0","kind":"building","building":"official","height_m":5.1,"status":null},"geometry":{"type":"Polygon","coordinates":[[[3.99268248,50.95190597],[3.99278759,50.95185799],[3.99293614,50.95198262],[3.99282984,50.95203105],[3.99268248,50.95190597]]]}},{"type":"Feature","id":"gebouw/Gebouw.13237408/0","properties":{"source":"Digitaal Vlaanderen Gebouwenregister","source_id":"gebouw/Gebouw.13237408/0","kind":"building","building":"official","height_m":8.1,"status":null},"geometry":{"type":"Polygon","coordinates":[[[3.98861055,50.95285826],[3.98863237,50.95286977],[3.98860598,50.95288975],[3.98851208,50.95284025],[3.98853764,50.9528209],[3.98855068,50.95282777],[3.98862728,50.95276805],[3.98868786,50.95279975],[3.98861055,50.95285826]]]}},{"type":"Feature","id":"gebouw/Gebouw.13259068/0","properties":{"source":"Digitaal Vlaanderen Gebouwenregister","source_id":"gebouw/Gebouw.13259068/0","kind":"building","building":"official","height_m":8.1,"status":null},"geometry":{"type":"Polygon","coordinates":[[[3.99472114,50.95303857],[3.99467791,50.95300899],[3.99471828,50.95298863],[3.99475697,50.95301744],[3.99472114,50.95303857]]]}},{"type":"Feature","id":"gebouw/Gebouw.13266158/0","properties":{"source":"Digitaal Vlaanderen Gebouwenregister","source_id":"gebouw/Gebouw.13266158/0","kind":"building","building":"official","height_m":6.6,"status":null},"geometry":{"type":"Polygon","coordinates":[[[3.98876608,50.95340733],[3.98850366,50.95327956],[3.98858651,50.95321413],[3.98891179,50.95337646],[3.98884995,50.95342473],[3.98878483,50.95339259],[3.98876608,50.95340733]]]}},{"type":"Feature","id":"gebouw/Gebouw.13295750/0","properties":{"source":"Digitaal Vlaanderen Gebouwenregister","source_id":"gebouw/Gebouw.13295750/0","kind":"building","building":"official","height_m":6.6,"status":null},"geometry":{"type":"Polygon","coordinates":[[[3.99129691,50.95330499],[3.99136004,50.95334873],[3.99132972,50.95336576],[3.99117694,50.9532657],[3.99122287,50.95323927],[3.99117637,50.95318627],[3.99128354,50.95314721],[3.99135022,50.95321396],[3.99132129,50.95322409],[3.99122751,50.95325691],[3.99125191,50.95327382],[3.99129691,50.95330499]]]}},{"type":"Feature","id":"gebouw/Gebouw.13305866/0","properties":{"source":"Digitaal Vlaanderen Gebouwenregister","source_id":"gebouw/Gebouw.13305866/0","kind":"building","building":"official","height_m":6.6,"status":null},"geometry":{"type":"Polygon","coordinates":[[[3.99091568,50.95337861],[3.99101591,50.95331346],[3.99106663,50.95334459],[3.99111191,50.95331516],[3.99121006,50.95337401],[3.99112706,50.95342733],[3.99114991,50.95344311],[3.99113021,50.95345427],[3.99122661,50.95351624],[3.9911234,50.95358267],[3.99111194,50.9535756],[3.99099728,50.95350487],[3.99099055,50.95350072],[3.99104143,50.95346694],[3.99091568,50.95337861]]]}},{"type":"Feature","id":"gebouw/Gebouw.13321135/0","properties":{"source":"Digitaal Vlaanderen Gebouwenregister","source_id":"gebouw/Gebouw.13321135/0","kind":"building","building":"official","height_m":5.85,"status":null},"geometry":{"type":"Polygon","coordinates":[[[3.99030692,50.95365494],[3.9903522,50.95362634],[3.99042497,50.95367637],[3.99037997,50.95370231],[3.99030692,50.95365494]]]}},{"type":"Feature","id":"gebouw/Gebouw.13326511/0","properties":{"source":"Digitaal Vlaanderen Gebouwenregister","source_id":"gebouw/Gebouw.13326511/0","kind":"building","building":"official","height_m":5.85,"status":null},"geometry":{"type":"Polygon","coordinates":[[[3.98894724,50.953283],[3.9889239,50.95324916],[3.98884069,50.95327134],[3.98880441,50.95321561],[3.98876257,50.95322663],[3.98875032,50.95320714],[3.98874004,50.95320967],[3.98869245,50.95313733],[3.98876418,50.95311858],[3.98878041,50.95314606],[3.98894851,50.95310141],[3.98895605,50.95311289],[3.98913754,50.95306375],[3.98920235,50.95316057],[3.98921096,50.95315803],[3.98924135,50.9532044],[3.98894724,50.953283]]]}},{"type":"Feature","id":"gebouw/Gebouw.13339519/0","properties":{"source":"Digitaal Vlaanderen Gebouwenregister","source_id":"gebouw/Gebouw.13339519/0","kind":"building","building":"official","height_m":5.85,"status":null},"geometry":{"type":"Polygon","coordinates":[[[3.98969981,50.95349445],[3.98977387,50.9535467],[3.98977989,50.95354208],[3.98993381,50.95364127],[3.98986985,50.95368087],[3.98981394,50.95364483],[3.98975912,50.95367877],[3.98978346,50.95369446],[3.98970528,50.95374285],[3.9896091,50.95368086],[3.98965553,50.95365123],[3.98963808,50.95364074],[3.98960774,50.95366191],[3.98948684,50.95358278],[3.98949079,50.95358019],[3.98956596,50.95353093],[3.98969053,50.9536086],[3.98966913,50.95362155],[3.98970098,50.9536404],[3.98977157,50.95358866],[3.98965596,50.95350656],[3.98968286,50.95349913],[3.98969981,50.95349445]]]}},{"type":"Feature","id":"gebouw/Gebouw.13342361/0","properties":{"source":"Digitaal Vlaanderen Gebouwenregister","source_id":"gebouw/Gebouw.13342361/0","kind":"building","building":"official","height_m":8.85,"status":null},"geometry":{"type":"Polygon","coordinates":[[[3.99379576,50.95328191],[3.99354138,50.95318654],[3.99391078,50.95279165],[3.99416546,50.9528867],[3.99379576,50.95328191]]]}},{"type":"Feature","id":"gebouw/Gebouw.13365990/0","properties":{"source":"Digitaal Vlaanderen Gebouwenregister","source_id":"gebouw/Gebouw.13365990/0","kind":"building","building":"official","height_m":5.1,"status":null},"geometry":{"type":"Polygon","coordinates":[[[3.99072624,50.95338744],[3.99090765,50.95349294],[3.9908006,50.95356115],[3.99076288,50.95353744],[3.99077179,50.95353164],[3.99063961,50.95344372],[3.99072624,50.95338744]]]}},{"type":"Feature","id":"gebouw/Gebouw.13382115/0","properties":{"source":"Digitaal Vlaanderen Gebouwenregister","source_id":"gebouw/Gebouw.13382115/0","kind":"building","building":"official","height_m":7.35,"status":null},"geometry":{"type":"Polygon","coordinates":[[[3.99053089,50.9534899],[3.99050635,50.95347308],[3.99054076,50.95345471],[3.99054477,50.95345257],[3.99042525,50.95336849],[3.99033913,50.95341742],[3.99045661,50.95349962],[3.99047948,50.95351562],[3.99046048,50.95352708],[3.99052497,50.95357457],[3.99059443,50.95353343],[3.99053089,50.9534899]]]}},{"type":"Feature","id":"gebouw/Gebouw.13382330/0","properties":{"source":"Digitaal Vlaanderen Gebouwenregister","source_id":"gebouw/Gebouw.13382330/0","kind":"building","building":"official","height_m":6.6,"status":null},"geometry":{"type":"Polygon","coordinates":[[[3.9843043,50.95200132],[3.9842495,50.95197152],[3.98421917,50.95199331],[3.9842768,50.95202452],[3.9843043,50.95200132]]]}},{"type":"Feature","id":"gebouw/Gebouw.13385053/0","properties":{"source":"Digitaal Vlaanderen Gebouwenregister","source_id":"gebouw/Gebouw.13385053/0","kind":"building","building":"official","height_m":5.85,"status":null},"geometry":{"type":"Polygon","coordinates":[[[3.99423113,50.95281205],[3.99420193,50.95284214],[3.9940725,50.95279315],[3.99409937,50.95276175],[3.99423113,50.95281205]]]}},{"type":"Feature","id":"gebouw/Gebouw.13390375/0","properties":{"source":"Digitaal Vlaanderen Gebouwenregister","source_id":"gebouw/Gebouw.13390375/0","kind":"building","building":"official","height_m":5.85,"status":null},"geometry":{"type":"Polygon","coordinates":[[[3.99316504,50.95129875],[3.99314426,50.95128533],[3.99313256,50.95126647],[3.99317293,50.95124565],[3.99320899,50.95126933],[3.99316504,50.95129875]]]}},{"type":"Feature","id":"gebouw/Gebouw.13443064/0","properties":{"source":"Digitaal Vlaanderen Gebouwenregister","source_id":"gebouw/Gebouw.13443064/0","kind":"building","building":"official","height_m":8.1,"status":null},"geometry":{"type":"Polygon","coordinates":[[[3.98897415,50.95205187],[3.98884917,50.95199102],[3.9889402,50.95191748],[3.98906496,50.95197682],[3.98897415,50.95205187]]]}},{"type":"Feature","id":"gebouw/Gebouw.13453067/0","properties":{"source":"Digitaal Vlaanderen Gebouwenregister","source_id":"gebouw/Gebouw.13453067/0","kind":"building","building":"official","height_m":8.85,"status":null},"geometry":{"type":"Polygon","coordinates":[[[3.98682943,50.94880621],[3.98678298,50.94876943],[3.98687283,50.94872301],[3.98692025,50.94875859],[3.98682943,50.94880621]]]}},{"type":"Feature","id":"gebouw/Gebouw.13455537/0","properties":{"source":"Digitaal Vlaanderen Gebouwenregister","source_id":"gebouw/Gebouw.13455537/0","kind":"building","building":"official","height_m":7.35,"status":null},"geometry":{"type":"Polygon","coordinates":[[[3.99042747,50.95373311],[3.99036343,50.9537732],[3.99034905,50.9537636],[3.99030823,50.953788],[3.99020829,50.95372129],[3.99024911,50.95369689],[3.99024492,50.95369409],[3.99030692,50.95365494],[3.99037997,50.95370231],[3.99042747,50.95373311]]]}},{"type":"Feature","id":"gebouw/Gebouw.13466347/0","properties":{"source":"Digitaal Vlaanderen Gebouwenregister","source_id":"gebouw/Gebouw.13466347/0","kind":"building","building":"official","height_m":5.85,"status":null},"geometry":{"type":"Polygon","coordinates":[[[3.98424556,50.95295045],[3.9842113,50.95293355],[3.98426171,50.95289252],[3.98429597,50.95291002],[3.98424556,50.95295045]]]}},{"type":"Feature","id":"gebouw/Gebouw.13467792/0","properties":{"source":"Digitaal Vlaanderen Gebouwenregister","source_id":"gebouw/Gebouw.13467792/0","kind":"building","building":"official","height_m":5.1,"status":null},"geometry":{"type":"Polygon","coordinates":[[[3.98854816,50.95313097],[3.98836237,50.95303692],[3.9884195,50.95299401],[3.9886034,50.95308655],[3.98854816,50.95313097]]]}},{"type":"Feature","id":"gebouw/Gebouw.13503472/0","properties":{"source":"Digitaal Vlaanderen Gebouwenregister","source_id":"gebouw/Gebouw.13503472/0","kind":"building","building":"official","height_m":8.1,"status":null},"geometry":{"type":"Polygon","coordinates":[[[3.99111194,50.9535756],[3.9911234,50.95358267],[3.99116138,50.95360689],[3.9911295,50.95362683],[3.99108025,50.95359542],[3.99106739,50.95360347],[3.990954,50.95353206],[3.99099728,50.95350487],[3.99111194,50.9535756]]]}},{"type":"Feature","id":"gebouw/Gebouw.13518693/0","properties":{"source":"Digitaal Vlaanderen Gebouwenregister","source_id":"gebouw/Gebouw.13518693/0","kind":"building","building":"official","height_m":7.35,"status":null},"geometry":{"type":"Polygon","coordinates":[[[3.9942555,50.95095151],[3.99419937,50.95094049],[3.99421155,50.9509159],[3.99426792,50.95092737],[3.9942555,50.95095151]]]}},{"type":"Feature","id":"gebouw/Gebouw.13538765/0","properties":{"source":"Digitaal Vlaanderen Gebouwenregister","source_id":"gebouw/Gebouw.13538765/0","kind":"building","building":"official","height_m":8.85,"status":null},"geometry":{"type":"Polygon","coordinates":[[[3.98403429,50.94936842],[3.98444534,50.94944133],[3.9844067,50.94953159],[3.98399303,50.94945838],[3.98403429,50.94936842]]]}},{"type":"Feature","id":"gebouw/Gebouw.13546480/0","properties":{"source":"Digitaal Vlaanderen Gebouwenregister","source_id":"gebouw/Gebouw.13546480/0","kind":"building","building":"official","height_m":8.1,"status":null},"geometry":{"type":"Polygon","coordinates":[[[3.98471984,50.94933016],[3.98472334,50.9493239],[3.98449701,50.94927339],[3.9845033,50.94925826],[3.98438092,50.94923075],[3.9843966,50.94920301],[3.98432029,50.94918634],[3.98427122,50.94927972],[3.98463459,50.94935889],[3.98463889,50.94935159],[3.98470021,50.94936527],[3.98471984,50.94933016]]]}},{"type":"Feature","id":"gebouw/Gebouw.13588869/0","properties":{"source":"Digitaal Vlaanderen Gebouwenregister","source_id":"gebouw/Gebouw.13588869/0","kind":"building","building":"official","height_m":7.35,"status":null},"geometry":{"type":"Polygon","coordinates":[[[3.99257233,50.95177033],[3.99254921,50.95178118],[3.99248759,50.95172898],[3.99255686,50.95169413],[3.99262278,50.95174664],[3.9926035,50.95175569],[3.99257233,50.95177033]]]}},{"type":"Feature","id":"gebouw/Gebouw.13649777/0","properties":{"source":"Digitaal Vlaanderen Gebouwenregister","source_id":"gebouw/Gebouw.13649777/0","kind":"building","building":"official","height_m":8.85,"status":null},"geometry":{"type":"Polygon","coordinates":[[[3.98417729,50.94967089],[3.98413138,50.9496448],[3.98418009,50.94961099],[3.98422553,50.94963588],[3.98417729,50.94967089]]]}},{"type":"Feature","id":"gebouw/Gebouw.13655224/0","properties":{"source":"Digitaal Vlaanderen Gebouwenregister","source_id":"gebouw/Gebouw.13655224/0","kind":"building","building":"official","height_m":8.1,"status":null},"geometry":{"type":"Polygon","coordinates":[[[3.99484853,50.95099971],[3.99482465,50.95104697],[3.99470927,50.95102415],[3.99469088,50.95105281],[3.99467082,50.95104829],[3.99466628,50.95105674],[3.99464072,50.951051],[3.99464454,50.95104376],[3.99460919,50.95103561],[3.99450841,50.95101238],[3.99452369,50.9509828],[3.99463547,50.95100574],[3.99465577,50.95096636],[3.99472361,50.9509819],[3.99472767,50.95097466],[3.99484853,50.95099971]]]}},{"type":"Feature","id":"gebouw/Gebouw.16654136/0","properties":{"source":"Digitaal Vlaanderen Gebouwenregister","source_id":"gebouw/Gebouw.16654136/0","kind":"building","building":"official","height_m":6.6,"status":null},"geometry":{"type":"Polygon","coordinates":[[[3.99028972,50.95378806],[3.99039699,50.95386013],[3.99033567,50.95389731],[3.99022872,50.95382517],[3.99028972,50.95378806]]]}},{"type":"Feature","id":"gebouw/Gebouw.18734671/0","properties":{"source":"Digitaal Vlaanderen Gebouwenregister","source_id":"gebouw/Gebouw.18734671/0","kind":"building","building":"official","height_m":5.85,"status":null},"geometry":{"type":"Polygon","coordinates":[[[3.98445291,50.95454535],[3.98442885,50.95457627],[3.98438226,50.9545618],[3.98438852,50.95455376],[3.98435729,50.95454407],[3.9843751,50.95452119],[3.98445291,50.95454535]]]}},{"type":"Feature","id":"gebouw/Gebouw.18861760/0","properties":{"source":"Digitaal Vlaanderen Gebouwenregister","source_id":"gebouw/Gebouw.18861760/0","kind":"building","building":"official","height_m":8.1,"status":null},"geometry":{"type":"Polygon","coordinates":[[[3.98472898,50.94936736],[3.98471421,50.94936413],[3.98473143,50.9493327],[3.98471984,50.94933016],[3.98470021,50.94936527],[3.98463889,50.94935159],[3.98463459,50.94935889],[3.9846199,50.94938704],[3.98470506,50.94940564],[3.98471348,50.94940749],[3.98473476,50.94936862],[3.98472898,50.94936736]]]}},{"type":"Feature","id":"gebouw/Gebouw.18861761/0","properties":{"source":"Digitaal Vlaanderen Gebouwenregister","source_id":"gebouw/Gebouw.18861761/0","kind":"building","building":"official","height_m":8.85,"status":null},"geometry":{"type":"Polygon","coordinates":[[[3.98512433,50.94945606],[3.98509736,50.9494978],[3.98505885,50.94948827],[3.98508454,50.94944599],[3.98512433,50.94945606]]]}},{"type":"Feature","id":"gebouw/Gebouw.18861914/0","properties":{"source":"Digitaal Vlaanderen Gebouwenregister","source_id":"gebouw/Gebouw.18861914/0","kind":"building","building":"official","height_m":6.6,"status":null},"geometry":{"type":"Polygon","coordinates":[[[3.99151272,50.9534357],[3.99147226,50.9534591],[3.99146671,50.95346231],[3.99142613,50.9534339],[3.99143027,50.9534316],[3.99147217,50.95340828],[3.99151272,50.9534357]]]}},{"type":"Feature","id":"gebouw/Gebouw.18861915/0","properties":{"source":"Digitaal Vlaanderen Gebouwenregister","source_id":"gebouw/Gebouw.18861915/0","kind":"building","building":"official","height_m":7.35,"status":null},"geometry":{"type":"Polygon","coordinates":[[[3.99181548,50.95331257],[3.99181912,50.9533152],[3.99182288,50.95331791],[3.99187704,50.95335702],[3.99169793,50.95345093],[3.99164375,50.95340932],[3.99163587,50.95340327],[3.99165392,50.95339368],[3.99175973,50.95333746],[3.99181171,50.95330984],[3.99181548,50.95331257]]]}},{"type":"Feature","id":"gebouw/Gebouw.18861916/0","properties":{"source":"Digitaal Vlaanderen Gebouwenregister","source_id":"gebouw/Gebouw.18861916/0","kind":"building","building":"official","height_m":8.1,"status":null},"geometry":{"type":"Polygon","coordinates":[[[3.99077623,50.95227938],[3.99075326,50.95230837],[3.99067513,50.95228285],[3.99069615,50.95225178],[3.99077623,50.95227938]]]}},{"type":"Feature","id":"gebouw/Gebouw.18861917/0","properties":{"source":"Digitaal Vlaanderen Gebouwenregister","source_id":"gebouw/Gebouw.18861917/0","kind":"building","building":"official","height_m":8.85,"status":null},"geometry":{"type":"Polygon","coordinates":[[[3.99378811,50.95272172],[3.99377116,50.95274473],[3.99371541,50.95272781],[3.99373171,50.9527052],[3.99378811,50.95272172]]]}},{"type":"Feature","id":"gebouw/Gebouw.19232742/0","properties":{"source":"Digitaal Vlaanderen Gebouwenregister","source_id":"gebouw/Gebouw.19232742/0","kind":"building","building":"official","height_m":5.1,"status":null},"geometry":{"type":"Polygon","coordinates":[[[3.98467536,50.94905747],[3.98479505,50.94908354],[3.98472965,50.94920297],[3.9846097,50.94917682],[3.98463689,50.94912739],[3.98467536,50.94905747]]]}},{"type":"Feature","id":"gebouw/Gebouw.19525420/0","properties":{"source":"Digitaal Vlaanderen Gebouwenregister","source_id":"gebouw/Gebouw.19525420/0","kind":"building","building":"official","height_m":8.1,"status":null},"geometry":{"type":"Polygon","coordinates":[[[3.9859768,50.95351816],[3.98598664,50.95349277],[3.98592641,50.9534831],[3.98588518,50.95358884],[3.98594627,50.95359697],[3.9859768,50.95351816]]]}},{"type":"Feature","id":"gebouw/Gebouw.19525421/0","properties":{"source":"Digitaal Vlaanderen Gebouwenregister","source_id":"gebouw/Gebouw.19525421/0","kind":"building","building":"official","height_m":8.85,"status":null},"geometry":{"type":"Polygon","coordinates":[[[3.9859768,50.95351816],[3.98594627,50.95359697],[3.98600331,50.9536059],[3.98603401,50.95352683],[3.9859768,50.95351816]]]}},{"type":"Feature","id":"gebouw/Gebouw.19954877/0","properties":{"source":"Digitaal Vlaanderen Gebouwenregister","source_id":"gebouw/Gebouw.19954877/0","kind":"building","building":"official","height_m":8.85,"status":null},"geometry":{"type":"Polygon","coordinates":[[[3.99407353,50.95121772],[3.9940964,50.95119121],[3.99417736,50.95121909],[3.99415449,50.9512456],[3.99407353,50.95121772]]]}},{"type":"Feature","id":"gebouw/Gebouw.19954913/0","properties":{"source":"Digitaal Vlaanderen Gebouwenregister","source_id":"gebouw/Gebouw.19954913/0","kind":"building","building":"official","height_m":8.85,"status":null},"geometry":{"type":"Polygon","coordinates":[[[3.98870464,50.95281145],[3.98873188,50.95278722],[3.98878038,50.95280918],[3.98875314,50.95283341],[3.98870464,50.95281145]]]}},{"type":"Feature","id":"gebouw/Gebouw.19954914/0","properties":{"source":"Digitaal Vlaanderen Gebouwenregister","source_id":"gebouw/Gebouw.19954914/0","kind":"building","building":"official","height_m":5.1,"status":null},"geometry":{"type":"Polygon","coordinates":[[[3.99276116,50.95177881],[3.99272416,50.95175332],[3.99278389,50.95171872],[3.99282089,50.9517442],[3.99276116,50.95177881]]]}},{"type":"Feature","id":"gebouw/Gebouw.19954915/0","properties":{"source":"Digitaal Vlaanderen Gebouwenregister","source_id":"gebouw/Gebouw.19954915/0","kind":"building","building":"official","height_m":5.85,"status":null},"geometry":{"type":"Polygon","coordinates":[[[3.99302,50.95349485],[3.99304408,50.95349747],[3.99304285,50.95350197],[3.99303033,50.95354783],[3.99295905,50.95354006],[3.9929728,50.95348971],[3.99302,50.95349485]]]}},{"type":"Feature","id":"gebouw/Gebouw.19954921/0","properties":{"source":"Digitaal Vlaanderen Gebouwenregister","source_id":"gebouw/Gebouw.19954921/0","kind":"building","building":"official","height_m":5.85,"status":null},"geometry":{"type":"Polygon","coordinates":[[[3.98413958,50.94993112],[3.98410523,50.94997575],[3.98402452,50.94994998],[3.98395062,50.94992639],[3.9839838,50.94988328],[3.98413958,50.94993112]]]}},{"type":"Feature","id":"gebouw/Gebouw.19956346/0","properties":{"source":"Digitaal Vlaanderen Gebouwenregister","source_id":"gebouw/Gebouw.19956346/0","kind":"building","building":"official","height_m":8.1,"status":null},"geometry":{"type":"Polygon","coordinates":[[[3.99257233,50.95177033],[3.9926035,50.95175569],[3.99264083,50.95178742],[3.99260967,50.95180205],[3.99257233,50.95177033]]]}},{"type":"Feature","id":"gebouw/Gebouw.20802282/0","properties":{"source":"Digitaal Vlaanderen Gebouwenregister","source_id":"gebouw/Gebouw.20802282/0","kind":"building","building":"official","height_m":5.1,"status":null},"geometry":{"type":"Polygon","coordinates":[[[3.98956702,50.95317976],[3.98960057,50.95319734],[3.98959451,50.95320195],[3.98961118,50.95321069],[3.98960692,50.95321393],[3.98964187,50.95323225],[3.9896272,50.95324342],[3.98957729,50.95321726],[3.98956708,50.95322504],[3.98953182,50.95320656],[3.98956702,50.95317976]]]}},{"type":"Feature","id":"gebouw/Gebouw.31009554/0","properties":{"source":"Digitaal Vlaanderen Gebouwenregister","source_id":"gebouw/Gebouw.31009554/0","kind":"building","building":"official","height_m":5.1,"status":null},"geometry":{"type":"Polygon","coordinates":[[[3.98502495,50.95373813],[3.98505348,50.95370326],[3.98508504,50.95371192],[3.98506552,50.95374968],[3.98502495,50.95373813]]]}},{"type":"Feature","id":"gebouw/Gebouw.31326860/0","properties":{"source":"Digitaal Vlaanderen Gebouwenregister","source_id":"gebouw/Gebouw.31326860/0","kind":"building","building":"official","height_m":6.6,"status":null},"geometry":{"type":"Polygon","coordinates":[[[3.99262948,50.95186238],[3.99269299,50.95183094],[3.99274005,50.95186887],[3.99267654,50.95190031],[3.99262948,50.95186238]]]}},{"type":"Feature","id":"gebouw/Gebouw.31549300/0","properties":{"source":"Digitaal Vlaanderen Gebouwenregister","source_id":"gebouw/Gebouw.31549300/0","kind":"building","building":"official","height_m":8.1,"status":null},"geometry":{"type":"Polygon","coordinates":[[[3.98556105,50.95364176],[3.98549237,50.95372153],[3.98541411,50.95371035],[3.98540162,50.95374298],[3.98539426,50.95374122],[3.98539494,50.95373785],[3.98539419,50.95373316],[3.98539161,50.95372995],[3.98538839,50.9537286],[3.98539025,50.95372562],[3.9853221,50.95371306],[3.98530641,50.9537436],[3.98527424,50.95373541],[3.98524416,50.95380524],[3.98540758,50.95383486],[3.9854089,50.95383216],[3.98546481,50.95384289],[3.98547722,50.9538286],[3.98562063,50.95366359],[3.98556105,50.95364176]]]}},{"type":"Feature","id":"gebouw/Gebouw.31761986/0","properties":{"source":"Digitaal Vlaanderen Gebouwenregister","source_id":"gebouw/Gebouw.31761986/0","kind":"building","building":"official","height_m":6.6,"status":null},"geometry":{"type":"Polygon","coordinates":[[[3.98555696,50.95368163],[3.98562216,50.95360589],[3.98552202,50.95357032],[3.98550216,50.95359263],[3.98545032,50.95357421],[3.98534978,50.95368856],[3.98534672,50.95369203],[3.98550455,50.95374252],[3.98555696,50.95368163]]]}},{"type":"Feature","id":"gebouw/Gebouw.31762522/0","properties":{"source":"Digitaal Vlaanderen Gebouwenregister","source_id":"gebouw/Gebouw.31762522/0","kind":"building","building":"official","height_m":8.1,"status":null},"geometry":{"type":"Polygon","coordinates":[[[3.98533756,50.95376801],[3.98527022,50.95374476],[3.98525284,50.95378508],[3.98530652,50.95380386],[3.98533756,50.95376801]]]}},{"type":"Feature","id":"gebouw/Gebouw.31844977/0","properties":{"source":"Digitaal Vlaanderen Gebouwenregister","source_id":"gebouw/Gebouw.31844977/0","kind":"building","building":"official","height_m":5.85,"status":null},"geometry":{"type":"Polygon","coordinates":[[[3.99119516,50.952434],[3.99124183,50.95241072],[3.99125402,50.95242047],[3.99129753,50.95239876],[3.99129165,50.95239405],[3.99131705,50.95238138],[3.99126702,50.95234136],[3.99115143,50.95239903],[3.99119516,50.952434]]]}},{"type":"Feature","id":"gebouw/Gebouw.32004375/0","properties":{"source":"Digitaal Vlaanderen Gebouwenregister","source_id":"gebouw/Gebouw.32004375/0","kind":"building","building":"official","height_m":7.35,"status":null},"geometry":{"type":"Polygon","coordinates":[[[3.9842902,50.95384972],[3.98427096,50.95382191],[3.98426273,50.95382415],[3.98423677,50.95383124],[3.98425604,50.95385906],[3.98426754,50.95385591],[3.9842902,50.95384972]]]}},{"type":"Feature","id":"way/153199478","properties":{"source":"OpenStreetMap","source_id":"way/153199478","kind":"vegetation","landuse":"forest","natural":null,"name":null},"geometry":{"type":"Polygon","coordinates":[[[3.9940346,50.95356],[3.9941367,50.9535787],[3.9948019,50.953737],[3.9946314,50.9539116],[3.9941238,50.9537502],[3.9940975,50.9538031],[3.9939743,50.9537905],[3.9940346,50.95356]]]}},{"type":"Feature","id":"way/153216133","properties":{"source":"OpenStreetMap","source_id":"way/153216133","kind":"vegetation","landuse":"forest","natural":null,"name":"Honegem"},"geometry":{"type":"Polygon","coordinates":[[[3.9918936,50.9521892],[3.9920909,50.9523042],[3.9922075,50.9523515],[3.9921968,50.9523946],[3.9919688,50.9525889],[3.991891,50.9526007],[3.9916817,50.9525483],[3.9903612,50.9520975],[3.9902721,50.952125],[3.9904169,50.9522721],[3.9908904,50.9525822],[3.9914028,50.9527655],[3.9917971,50.9528559],[3.9921144,50.9526683],[3.9924745,50.9524554],[3.9927172,50.9523295],[3.9923175,50.9520836],[3.9926287,50.951727],[3.9934245,50.9519938],[3.9936746,50.951813],[3.9927685,50.9513901],[3.9924306,50.9516757],[3.9914125,50.9514331],[3.9924879,50.9507376],[3.9930341,50.9495607],[3.9923514,50.9489709],[3.9922535,50.9489226],[3.9919758,50.9489353],[3.9915641,50.9489421],[3.9922093,50.9477961],[3.9917576,50.9479197],[3.9904055,50.9482853],[3.9903161,50.9483314],[3.9894157,50.9488228],[3.9883885,50.9494002],[3.9883163,50.9494566],[3.9881699,50.9495333],[3.9880074,50.949584],[3.9879117,50.9495829],[3.9878018,50.949563],[3.9874331,50.9494796],[3.9872477,50.9500461],[3.988012,50.9501555],[3.9883379,50.9502632],[3.98758,50.9510522],[3.9879576,50.9512318],[3.988281,50.9513864],[3.9886406,50.9510575],[3.9891705,50.9513627],[3.9897954,50.9516829],[3.9905217,50.9518742],[3.9906862,50.9517737],[3.9908191,50.9517607],[3.9917225,50.9520324],[3.9918936,50.9521892]]]}},{"type":"Feature","id":"way/153216197","properties":{"source":"OpenStreetMap","source_id":"way/153216197","kind":"water","name":null},"geometry":{"type":"Polygon","coordinates":[[[3.9919688,50.9513569],[3.9919858,50.951382],[3.9919801,50.9514357],[3.9919574,50.951456],[3.9919213,50.951462],[3.9916671,50.9514047],[3.9917108,50.9513126],[3.9917335,50.9512983],[3.9917601,50.9513007],[3.9918265,50.9513114],[3.9919688,50.9513569]]]}},{"type":"Feature","id":"way/153216199","properties":{"source":"OpenStreetMap","source_id":"way/153216199","kind":"water","name":null},"geometry":{"type":"Polygon","coordinates":[[[3.9921717,50.9515289],[3.9921091,50.9515253],[3.992075,50.9515122],[3.9920598,50.9514907],[3.9920351,50.9513616],[3.9919972,50.9513079],[3.9919384,50.9512804],[3.9918891,50.9512505],[3.991872,50.9512278],[3.9918929,50.9511896],[3.991946,50.9511597],[3.9919915,50.9511513],[3.9920351,50.9511501],[3.9920902,50.9511692],[3.9921546,50.9512027],[3.9922172,50.951272],[3.9922514,50.951382],[3.9922514,50.9514548],[3.9922286,50.9514955],[3.9922134,50.9515122],[3.9921717,50.9515289]]]}},{"type":"Feature","id":"way/153269685","properties":{"source":"OpenStreetMap","source_id":"way/153269685","kind":"vegetation","landuse":"forest","natural":null,"name":null},"geometry":{"type":"Polygon","coordinates":[[[3.9851037,50.9545109],[3.984936,50.954627],[3.9839554,50.9542612],[3.9840603,50.9541307],[3.9851037,50.9545109]]]}},{"type":"Feature","id":"way/457916298","properties":{"source":"OpenStreetMap","source_id":"way/457916298","kind":"waterway","waterway":"stream","name":"Torensbeek"},"geometry":{"type":"LineString","coordinates":[[3.9943802,50.9525833],[3.9944819,50.9526711]]}},{"type":"Feature","id":"way/457916299","properties":{"source":"OpenStreetMap","source_id":"way/457916299","kind":"waterway","waterway":"stream","name":"Torensbeek"},"geometry":{"type":"LineString","coordinates":[[3.9941073,50.9516049],[3.9943399,50.9517063],[3.9950764,50.9521215],[3.9949792,50.9522239],[3.9943802,50.9525833]]}},{"type":"Feature","id":"way/457916300","properties":{"source":"OpenStreetMap","source_id":"way/457916300","kind":"waterway","waterway":"stream","name":"Torensbeek"},"geometry":{"type":"LineString","coordinates":[[3.9940195,50.9514858],[3.9940346,50.9515102],[3.9940479,50.9515662],[3.9941073,50.9516049]]}},{"type":"Feature","id":"way/457916301","properties":{"source":"OpenStreetMap","source_id":"way/457916301","kind":"waterway","waterway":"stream","name":"Torensbeek"},"geometry":{"type":"LineString","coordinates":[[3.992493,50.9507172],[3.9925015,50.950736],[3.9925557,50.9507585],[3.9926485,50.9507635],[3.9927023,50.9507913],[3.9927563,50.9508361],[3.9928112,50.9508474],[3.9931768,50.9509554],[3.9934524,50.951135],[3.9936076,50.9511931],[3.9940195,50.9514858]]}},{"type":"Feature","id":"way/457916302","properties":{"source":"OpenStreetMap","source_id":"way/457916302","kind":"waterway","waterway":"stream","name":"De Doornbeek"},"geometry":{"type":"LineString","coordinates":[[3.9894186,50.948764],[3.989483,50.9488231]]}},{"type":"Feature","id":"way/457916304","properties":{"source":"OpenStreetMap","source_id":"way/457916304","kind":"waterway","waterway":"stream","name":"Torensbeek"},"geometry":{"type":"LineString","coordinates":[[3.9851977,50.948811],[3.9853152,50.9488592]]}},{"type":"Feature","id":"way/457916312","properties":{"source":"OpenStreetMap","source_id":"way/457916312","kind":"waterway","waterway":"stream","name":"De Doornbeek"},"geometry":{"type":"LineString","coordinates":[[3.989483,50.9488231],[3.9895562,50.948896],[3.9898942,50.9490041],[3.990224,50.9489576],[3.9906949,50.9489234],[3.9909588,50.9488767],[3.9911092,50.9489069],[3.991344,50.94894],[3.991439,50.948914],[3.9915381,50.9489078]]}},{"type":"Feature","id":"way/457916315","properties":{"source":"OpenStreetMap","source_id":"way/457916315","kind":"waterway","waterway":"stream","name":"Torensbeek"},"geometry":{"type":"LineString","coordinates":[[3.9853152,50.9488592],[3.9861154,50.9492514],[3.9862775,50.9493128],[3.9864164,50.949333],[3.9865561,50.9493483],[3.9867321,50.9493595],[3.9870822,50.9494091],[3.9873997,50.9494589],[3.9877074,50.9495291],[3.9879105,50.9495754],[3.9880055,50.9495767],[3.9881227,50.9495394],[3.9883129,50.949445],[3.9898434,50.9498949],[3.9905391,50.9500968]]}},{"type":"Feature","id":"way/754643768","properties":{"source":"OpenStreetMap","source_id":"way/754643768","kind":"vegetation","landuse":"forest","natural":null,"name":null},"geometry":{"type":"Polygon","coordinates":[[[3.9938917,50.9516584],[3.9940835,50.9515595],[3.9939661,50.9514622],[3.9936604,50.9512653],[3.9932191,50.951009],[3.9929541,50.9512317],[3.9938917,50.9516584]]]}},{"type":"Feature","id":"way/755185300","properties":{"source":"OpenStreetMap","source_id":"way/755185300","kind":"waterway","waterway":"ditch","name":null},"geometry":{"type":"LineString","coordinates":[[3.985202,50.9488371],[3.9852835,50.9487667]]}},{"type":"Feature","id":"way/755185301","properties":{"source":"OpenStreetMap","source_id":"way/755185301","kind":"waterway","waterway":"ditch","name":null},"geometry":{"type":"LineString","coordinates":[[3.9847876,50.9492215],[3.985202,50.9488371]]}},{"type":"Feature","id":"way/1288916463","properties":{"source":"OpenStreetMap","source_id":"way/1288916463","kind":"water","name":null},"geometry":{"type":"Polygon","coordinates":[[[3.9927144,50.9515971],[3.9927087,50.9516232],[3.992737,50.9516529],[3.9928823,50.9516624],[3.9929785,50.9516803],[3.9933783,50.9518537],[3.9934311,50.9518597],[3.9934481,50.9518526],[3.9934896,50.9518169],[3.9934896,50.951792],[3.9928276,50.9515009],[3.9927861,50.9515115],[3.9927144,50.9515971]]]}},{"type":"Feature","id":"way/1288916966","properties":{"source":"OpenStreetMap","source_id":"way/1288916966","kind":"water","name":"Rootput"},"geometry":{"type":"Polygon","coordinates":[[[3.9938252,50.9536453],[3.9938555,50.9536606],[3.9938699,50.9536568],[3.9939169,50.9536319],[3.9939138,50.9536171],[3.9939002,50.9536052],[3.9938828,50.9536014],[3.9938608,50.9536038],[3.9938328,50.9536086],[3.9938153,50.9536234],[3.9938252,50.9536453]]]}},{"type":"Feature","id":"way/1288918426","properties":{"source":"OpenStreetMap","source_id":"way/1288918426","kind":"waterway","waterway":"ditch","name":null},"geometry":{"type":"LineString","coordinates":[[3.9925962,50.95367],[3.9928686,50.9535193],[3.9938458,50.9538371],[3.9939265,50.9536646]]}},{"type":"Feature","id":"way/1311348469","properties":{"source":"OpenStreetMap","source_id":"way/1311348469","kind":"waterway","waterway":"stream","name":"Torensbeek"},"geometry":{"type":"LineString","coordinates":[[3.9905391,50.9500968],[3.9906297,50.9501244]]}},{"type":"Feature","id":"way/1311348470","properties":{"source":"OpenStreetMap","source_id":"way/1311348470","kind":"waterway","waterway":"stream","name":"Torensbeek"},"geometry":{"type":"LineString","coordinates":[[3.9906297,50.9501244],[3.9924508,50.9506373],[3.992493,50.9507172]]}},{"type":"Feature","id":"way/1311348471","properties":{"source":"OpenStreetMap","source_id":"way/1311348471","kind":"waterway","waterway":"stream","name":"De Doornbeek"},"geometry":{"type":"LineString","coordinates":[[3.9915381,50.9489078],[3.9915862,50.9489196]]}},{"type":"Feature","id":"way/1311348472","properties":{"source":"OpenStreetMap","source_id":"way/1311348472","kind":"waterway","waterway":"stream","name":"De Doornbeek"},"geometry":{"type":"LineString","coordinates":[[3.9915862,50.9489196],[3.9916039,50.9489251],[3.9916677,50.9489264],[3.9917497,50.9489071],[3.9922952,50.9489107],[3.9928377,50.9493346],[3.9930437,50.949478],[3.9927558,50.9501608],[3.9925456,50.9505585],[3.992493,50.9507172]]}}]}