{"type":"FeatureCollection","features":[{"type":"Feature","id":"gebouw/Gebouw.12854353/0","properties":{"source":"Digitaal Vlaanderen Gebouwenregister","source_id":"gebouw/Gebouw.12854353/0","kind":"building","building":"official","height_m":5.85,"status":null},"geometry":{"type":"Polygon","coordinates":[[[3.95987224,50.91272201],[3.95996284,50.91274287],[3.95991892,50.91282272],[3.95989252,50.91281675],[3.95985473,50.91288397],[3.95979326,50.91287042],[3.95981366,50.9128321],[3.95986391,50.91273767],[3.95987224,50.91272201]]]}},{"type":"Feature","id":"gebouw/Gebouw.12910183/0","properties":{"source":"Digitaal Vlaanderen Gebouwenregister","source_id":"gebouw/Gebouw.12910183/0","kind":"building","building":"official","height_m":5.85,"status":null},"geometry":{"type":"Polygon","coordinates":[[[3.96078976,50.91352831],[3.960755,50.91359692],[3.96057498,50.91356073],[3.96048131,50.9135419],[3.96048372,50.91353703],[3.96041215,50.9135224],[3.96045511,50.91344208],[3.96052748,50.91345635],[3.96050072,50.91350869],[3.96065621,50.91354277],[3.96067716,50.91350551],[3.96078976,50.91352831]]]}},{"type":"Feature","id":"gebouw/Gebouw.12971244/0","properties":{"source":"Digitaal Vlaanderen Gebouwenregister","source_id":"gebouw/Gebouw.12971244/0","kind":"building","building":"official","height_m":5.1,"status":null},"geometry":{"type":"Polygon","coordinates":[[[3.96212067,50.91321237],[3.96195871,50.91314593],[3.96199503,50.9131109],[3.96194748,50.91309119],[3.96205205,50.91299038],[3.9620996,50.9130101],[3.9621571,50.91295466],[3.96231699,50.91301979],[3.96212067,50.91321237]]]}},{"type":"Feature","id":"gebouw/Gebouw.13090356/0","properties":{"source":"Digitaal Vlaanderen Gebouwenregister","source_id":"gebouw/Gebouw.13090356/0","kind":"building","building":"official","height_m":5.1,"status":null},"geometry":{"type":"Polygon","coordinates":[[[3.95785745,50.91125946],[3.95778965,50.9113468],[3.9576713,50.91131111],[3.95767556,50.911306],[3.95764296,50.91129613],[3.95766804,50.91126439],[3.95769945,50.91127516],[3.95772183,50.91124691],[3.95764518,50.91122264],[3.95761642,50.91121354],[3.95763566,50.91118924],[3.95774045,50.91122242],[3.95780451,50.9112427],[3.95785745,50.91125946]]]}},{"type":"Feature","id":"gebouw/Gebouw.13096216/0","properties":{"source":"Digitaal Vlaanderen Gebouwenregister","source_id":"gebouw/Gebouw.13096216/0","kind":"building","building":"official","height_m":8.1,"status":null},"geometry":{"type":"Polygon","coordinates":[[[3.9596707,50.91329916],[3.95965735,50.91332773],[3.95965602,50.91333054],[3.95966401,50.91333207],[3.95961933,50.91342581],[3.95949456,50.91340265],[3.95951678,50.91335279],[3.95949657,50.913349],[3.95953469,50.91327339],[3.9596707,50.91329916]]]}},{"type":"Feature","id":"gebouw/Gebouw.13104351/0","properties":{"source":"Digitaal Vlaanderen Gebouwenregister","source_id":"gebouw/Gebouw.13104351/0","kind":"building","building":"official","height_m":7.35,"status":null},"geometry":{"type":"Polygon","coordinates":[[[3.96077256,50.91360063],[3.9607538,50.91363473],[3.96048458,50.91357723],[3.960496,50.9135546],[3.96056995,50.91357095],[3.96057498,50.91356073],[3.960755,50.91359692],[3.96077256,50.91360063]]]}},{"type":"Feature","id":"gebouw/Gebouw.13111319/0","properties":{"source":"Digitaal Vlaanderen Gebouwenregister","source_id":"gebouw/Gebouw.13111319/0","kind":"building","building":"official","height_m":8.85,"status":null},"geometry":{"type":"Polygon","coordinates":[[[3.96035808,50.91260975],[3.96032798,50.91267556],[3.96055371,50.91271797],[3.96058178,50.91265848],[3.96058309,50.91265873],[3.96058404,50.91265676],[3.96047844,50.91263479],[3.96049273,50.91260633],[3.96041367,50.91259047],[3.96039964,50.9126184],[3.96035808,50.91260975]]]}},{"type":"Feature","id":"gebouw/Gebouw.13145724/0","properties":{"source":"Digitaal Vlaanderen Gebouwenregister","source_id":"gebouw/Gebouw.13145724/0","kind":"building","building":"official","height_m":5.1,"status":null},"geometry":{"type":"Polygon","coordinates":[[[3.96306763,50.90693741],[3.96306834,50.90687616],[3.96312165,50.9068757],[3.96312141,50.90693694],[3.96306763,50.90693741]]]}},{"type":"Feature","id":"gebouw/Gebouw.13148350/0","properties":{"source":"Digitaal Vlaanderen Gebouwenregister","source_id":"gebouw/Gebouw.13148350/0","kind":"building","building":"official","height_m":8.1,"status":null},"geometry":{"type":"Polygon","coordinates":[[[3.95955032,50.91243336],[3.95952885,50.91247867],[3.95949543,50.91247204],[3.95951677,50.91242701],[3.95955032,50.91243336]]]}},{"type":"Feature","id":"gebouw/Gebouw.13150030/0","properties":{"source":"Digitaal Vlaanderen Gebouwenregister","source_id":"gebouw/Gebouw.13150030/0","kind":"building","building":"official","height_m":8.1,"status":null},"geometry":{"type":"Polygon","coordinates":[[[3.96136,50.91318896],[3.96133189,50.91323032],[3.96140817,50.91324097],[3.96139695,50.91327124],[3.96137313,50.91333551],[3.96137054,50.91333512],[3.9612426,50.91331554],[3.9612476,50.91330263],[3.96124612,50.91330238],[3.96126891,50.91324741],[3.96122424,50.91323872],[3.96126955,50.91316542],[3.96128799,50.91313559],[3.96133843,50.91307267],[3.96137276,50.91302985],[3.96137446,50.91302784],[3.96143202,50.91304497],[3.96141318,50.91307125],[3.96145675,50.91308464],[3.96140917,50.91313815],[3.96144457,50.91315018],[3.96139965,50.91319928],[3.96139906,50.91319907],[3.9613918,50.91319648],[3.96139649,50.91319059],[3.96136617,50.9131799],[3.96136,50.91318896]]]}},{"type":"Feature","id":"gebouw/Gebouw.13150090/0","properties":{"source":"Digitaal Vlaanderen Gebouwenregister","source_id":"gebouw/Gebouw.13150090/0","kind":"building","building":"official","height_m":8.1,"status":null},"geometry":{"type":"Polygon","coordinates":[[[3.95958267,50.91297915],[3.9595263,50.91308452],[3.95945064,50.9130654],[3.9594575,50.91305502],[3.9593369,50.9130277],[3.95937964,50.9129501],[3.95952148,50.91298077],[3.95952915,50.91296727],[3.95958267,50.91297915]]]}},{"type":"Feature","id":"gebouw/Gebouw.13164274/0","properties":{"source":"Digitaal Vlaanderen Gebouwenregister","source_id":"gebouw/Gebouw.13164274/0","kind":"building","building":"official","height_m":8.1,"status":null},"geometry":{"type":"Polygon","coordinates":[[[3.95909499,50.91292721],[3.95910978,50.9129534],[3.95910057,50.9129557],[3.95912945,50.91300487],[3.95901116,50.91303354],[3.95901072,50.91303364],[3.95896944,50.91296362],[3.95894756,50.9129265],[3.95900849,50.91291182],[3.95899967,50.9128969],[3.95906999,50.91288025],[3.95911156,50.9128704],[3.9591245,50.91289171],[3.95912559,50.91289349],[3.95913892,50.91291543],[3.95909499,50.91292721]]]}},{"type":"Feature","id":"gebouw/Gebouw.13173132/0","properties":{"source":"Digitaal Vlaanderen Gebouwenregister","source_id":"gebouw/Gebouw.13173132/0","kind":"building","building":"official","height_m":5.1,"status":null},"geometry":{"type":"Polygon","coordinates":[[[3.95862231,50.91339486],[3.95861727,50.91344806],[3.95862416,50.91344835],[3.95861929,50.91348051],[3.95856937,50.91347923],[3.95856935,50.91347367],[3.9584619,50.91346917],[3.95846485,50.91344157],[3.95847017,50.91339148],[3.95862231,50.91339486]]]}},{"type":"Feature","id":"gebouw/Gebouw.13184892/0","properties":{"source":"Digitaal Vlaanderen Gebouwenregister","source_id":"gebouw/Gebouw.13184892/0","kind":"building","building":"official","height_m":5.1,"status":null},"geometry":{"type":"Polygon","coordinates":[[[3.95920293,50.9127049],[3.95919901,50.91270523],[3.95918107,50.91270674],[3.95918815,50.91276052],[3.95905899,50.91276681],[3.95898401,50.91277046],[3.95886151,50.91277619],[3.95885507,50.91272161],[3.95885474,50.91271877],[3.95885892,50.91264549],[3.95886123,50.91258901],[3.95886257,50.91256224],[3.95894323,50.91256288],[3.95894302,50.91257054],[3.95896584,50.91257156],[3.9589662,50.9126302],[3.95903556,50.91262911],[3.95903881,50.91267208],[3.95909175,50.9126692],[3.9590925,50.912674],[3.95919804,50.91266915],[3.95920293,50.9127049]]]}},{"type":"Feature","id":"gebouw/Gebouw.13192600/0","properties":{"source":"Digitaal Vlaanderen Gebouwenregister","source_id":"gebouw/Gebouw.13192600/0","kind":"building","building":"official","height_m":8.1,"status":null},"geometry":{"type":"Polygon","coordinates":[[[3.95905151,50.91308507],[3.9590343,50.91305865],[3.95912668,50.91303598],[3.95914223,50.91306435],[3.95905151,50.91308507]]]}},{"type":"Feature","id":"gebouw/Gebouw.13193748/0","properties":{"source":"Digitaal Vlaanderen Gebouwenregister","source_id":"gebouw/Gebouw.13193748/0","kind":"building","building":"official","height_m":5.1,"status":null},"geometry":{"type":"Polygon","coordinates":[[[3.96021263,50.91265389],[3.96019065,50.91269142],[3.96017445,50.91268773],[3.96019445,50.91264982],[3.96012927,50.91263458],[3.96017014,50.9125639],[3.96019868,50.91257062],[3.96020859,50.91255077],[3.96026675,50.91256142],[3.96025074,50.91258877],[3.96021263,50.91265389]]]}},{"type":"Feature","id":"gebouw/Gebouw.13199608/0","properties":{"source":"Digitaal Vlaanderen Gebouwenregister","source_id":"gebouw/Gebouw.13199608/0","kind":"building","building":"official","height_m":8.1,"status":null},"geometry":{"type":"Polygon","coordinates":[[[3.95694601,50.91160251],[3.95691166,50.91164715],[3.95717717,50.91171806],[3.95704209,50.9118936],[3.95689649,50.91184731],[3.95678494,50.91181184],[3.95669016,50.91178171],[3.95686199,50.91157756],[3.95694601,50.91160251]]]}},{"type":"Feature","id":"gebouw/Gebouw.13226804/0","properties":{"source":"Digitaal Vlaanderen Gebouwenregister","source_id":"gebouw/Gebouw.13226804/0","kind":"building","building":"official","height_m":6.6,"status":null},"geometry":{"type":"Polygon","coordinates":[[[3.95830312,50.91333296],[3.95821724,50.91331114],[3.95813639,50.91329059],[3.95810848,50.9132835],[3.95817059,50.91319649],[3.9582447,50.9131225],[3.95822089,50.91311021],[3.9582817,50.91306132],[3.95830534,50.91306924],[3.95834711,50.91308324],[3.95834931,50.91308398],[3.95839509,50.91309478],[3.95844237,50.91310594],[3.95844292,50.913105],[3.95847928,50.91311359],[3.9584788,50.9131144],[3.95848269,50.91311531],[3.95852997,50.91312628],[3.95853052,50.91312554],[3.95853776,50.91312698],[3.95853691,50.91312869],[3.95854781,50.91313086],[3.95864489,50.91315001],[3.95863078,50.91317932],[3.95863902,50.9131809],[3.95867246,50.91318734],[3.95879911,50.91321141],[3.95874937,50.91331239],[3.95869399,50.9133025],[3.95870958,50.91327347],[3.95847696,50.91322843],[3.95846633,50.91324618],[3.95836333,50.91322468],[3.95830312,50.91333296]]]}},{"type":"Feature","id":"gebouw/Gebouw.13229131/0","properties":{"source":"Digitaal Vlaanderen Gebouwenregister","source_id":"gebouw/Gebouw.13229131/0","kind":"building","building":"official","height_m":5.85,"status":null},"geometry":{"type":"Polygon","coordinates":[[[3.96006215,50.91264273],[3.96005158,50.91266213],[3.96001639,50.91272677],[3.95997419,50.91271627],[3.96002127,50.91263344],[3.96006215,50.91264273]]]}},{"type":"Feature","id":"gebouw/Gebouw.13270098/0","properties":{"source":"Digitaal Vlaanderen Gebouwenregister","source_id":"gebouw/Gebouw.13270098/0","kind":"building","building":"official","height_m":5.1,"status":null},"geometry":{"type":"Polygon","coordinates":[[[3.95614945,50.91177421],[3.95606925,50.91174638],[3.95608607,50.91172982],[3.95616626,50.91175601],[3.95614945,50.91177421]]]}},{"type":"Feature","id":"gebouw/Gebouw.13288431/0","properties":{"source":"Digitaal Vlaanderen Gebouwenregister","source_id":"gebouw/Gebouw.13288431/0","kind":"building","building":"official","height_m":7.35,"status":null},"geometry":{"type":"Polygon","coordinates":[[[3.95939233,50.91326367],[3.95940863,50.91326686],[3.95940612,50.91327132],[3.95943775,50.91327702],[3.9594204,50.91331292],[3.95938952,50.91330639],[3.95934969,50.91338532],[3.95932114,50.91337974],[3.95933812,50.91334508],[3.95927703,50.9133324],[3.95929435,50.91329657],[3.95917015,50.91327291],[3.95921258,50.91318428],[3.95922689,50.91315651],[3.95924796,50.91316089],[3.95924184,50.91317173],[3.95935167,50.91319187],[3.95934405,50.91320537],[3.95937212,50.91321002],[3.95936756,50.91322026],[3.95935176,50.91325571],[3.95939233,50.91326367]]]}},{"type":"Feature","id":"gebouw/Gebouw.13301414/0","properties":{"source":"Digitaal Vlaanderen Gebouwenregister","source_id":"gebouw/Gebouw.13301414/0","kind":"building","building":"official","height_m":6.6,"status":null},"geometry":{"type":"Polygon","coordinates":[[[3.96037108,50.91257914],[3.96035808,50.91260975],[3.96032798,50.91267556],[3.96028624,50.91266772],[3.96031682,50.91260085],[3.96025074,50.91258877],[3.96026675,50.91256142],[3.96037108,50.91257914]]]}},{"type":"Feature","id":"gebouw/Gebouw.13302993/0","properties":{"source":"Digitaal Vlaanderen Gebouwenregister","source_id":"gebouw/Gebouw.13302993/0","kind":"building","building":"official","height_m":7.35,"status":null},"geometry":{"type":"Polygon","coordinates":[[[3.95358644,50.90876879],[3.9535587,50.90874134],[3.95362504,50.90871454],[3.9536448,50.9087341],[3.95363983,50.9087361],[3.95364782,50.908744],[3.95358644,50.90876879]]]}},{"type":"Feature","id":"gebouw/Gebouw.13303178/0","properties":{"source":"Digitaal Vlaanderen Gebouwenregister","source_id":"gebouw/Gebouw.13303178/0","kind":"building","building":"official","height_m":6.6,"status":null},"geometry":{"type":"Polygon","coordinates":[[[3.96026034,50.91287158],[3.96021158,50.91295137],[3.96005953,50.91291537],[3.96007551,50.91288808],[3.96013297,50.91278994],[3.96013824,50.91278093],[3.96014248,50.91278193],[3.96016249,50.91274783],[3.9602535,50.91276656],[3.96024467,50.91278555],[3.96018639,50.91277472],[3.96017208,50.91279911],[3.9601983,50.91280526],[3.96018695,50.91282298],[3.96016545,50.91285654],[3.96021802,50.91286939],[3.96022346,50.91286232],[3.96023378,50.91286491],[3.96026034,50.91287158]]]}},{"type":"Feature","id":"gebouw/Gebouw.13303391/0","properties":{"source":"Digitaal Vlaanderen Gebouwenregister","source_id":"gebouw/Gebouw.13303391/0","kind":"building","building":"official","height_m":8.85,"status":null},"geometry":{"type":"Polygon","coordinates":[[[3.95908669,50.912637],[3.95905128,50.91263841],[3.95904008,50.91262821],[3.95903301,50.9126131],[3.95903114,50.91258975],[3.95907916,50.91258908],[3.95908669,50.912637]]]}},{"type":"Feature","id":"gebouw/Gebouw.13303526/0","properties":{"source":"Digitaal Vlaanderen Gebouwenregister","source_id":"gebouw/Gebouw.13303526/0","kind":"building","building":"official","height_m":6.6,"status":null},"geometry":{"type":"Polygon","coordinates":[[[3.95851887,50.91297133],[3.95847299,50.9129964],[3.95844128,50.9129732],[3.95848716,50.91294815],[3.95851887,50.91297133]]]}},{"type":"Feature","id":"gebouw/Gebouw.13306073/0","properties":{"source":"Digitaal Vlaanderen Gebouwenregister","source_id":"gebouw/Gebouw.13306073/0","kind":"building","building":"official","height_m":8.85,"status":null},"geometry":{"type":"Polygon","coordinates":[[[3.95687989,50.91186633],[3.95684777,50.91185526],[3.95684351,50.91186007],[3.95676663,50.91183564],[3.95658462,50.9117778],[3.9566026,50.91175448],[3.95669016,50.91178171],[3.95678494,50.91181184],[3.95689649,50.91184731],[3.95687989,50.91186633]]]}},{"type":"Feature","id":"gebouw/Gebouw.13324380/0","properties":{"source":"Digitaal Vlaanderen Gebouwenregister","source_id":"gebouw/Gebouw.13324380/0","kind":"building","building":"official","height_m":5.1,"status":null},"geometry":{"type":"Polygon","coordinates":[[[3.96150626,50.91359077],[3.96147335,50.91358512],[3.96148989,50.9135398],[3.96139734,50.91352482],[3.96140721,50.9134933],[3.96139168,50.9134913],[3.96136264,50.91356068],[3.96122078,50.91353035],[3.96126756,50.91342382],[3.96126892,50.9134207],[3.96127247,50.91341261],[3.96127828,50.91341363],[3.961278,50.91341427],[3.96128739,50.91341592],[3.96134625,50.91342561],[3.96134664,50.91342466],[3.96137059,50.91342865],[3.96137021,50.91342955],[3.96137357,50.91343011],[3.96140854,50.91343567],[3.96140892,50.91343471],[3.96141497,50.91343568],[3.96157022,50.91345508],[3.96156323,50.91347677],[3.96155563,50.91350037],[3.96154071,50.91354665],[3.9615311,50.91354528],[3.96152171,50.91354395],[3.96150626,50.91359077]]]}},{"type":"Feature","id":"gebouw/Gebouw.13326433/0","properties":{"source":"Digitaal Vlaanderen Gebouwenregister","source_id":"gebouw/Gebouw.13326433/0","kind":"building","building":"official","height_m":5.85,"status":null},"geometry":{"type":"Polygon","coordinates":[[[3.96175074,50.9133136],[3.96177559,50.91323597],[3.9618517,50.91324551],[3.96184752,50.91325562],[3.96205343,50.91328442],[3.96202216,50.9133769],[3.9618131,50.91334941],[3.96182154,50.91332303],[3.96175074,50.9133136]]]}},{"type":"Feature","id":"gebouw/Gebouw.13342321/0","properties":{"source":"Digitaal Vlaanderen Gebouwenregister","source_id":"gebouw/Gebouw.13342321/0","kind":"building","building":"official","height_m":5.85,"status":null},"geometry":{"type":"Polygon","coordinates":[[[3.96105019,50.91320008],[3.96103649,50.91319488],[3.9609785,50.91326108],[3.96094735,50.91325045],[3.96092213,50.91324183],[3.96100538,50.91314546],[3.96107738,50.91316792],[3.96106932,50.91317746],[3.96105019,50.91320008]]]}},{"type":"Feature","id":"gebouw/Gebouw.13350885/0","properties":{"source":"Digitaal Vlaanderen Gebouwenregister","source_id":"gebouw/Gebouw.13350885/0","kind":"building","building":"official","height_m":7.35,"status":null},"geometry":{"type":"Polygon","coordinates":[[[3.96065602,50.91303647],[3.9605792,50.9131203],[3.96050962,50.91309469],[3.96048733,50.91308648],[3.96048819,50.91308555],[3.96048684,50.91308505],[3.96049538,50.91307716],[3.96058705,50.91299249],[3.96067129,50.91301979],[3.96065602,50.91303647]]]}},{"type":"Feature","id":"gebouw/Gebouw.13351229/0","properties":{"source":"Digitaal Vlaanderen Gebouwenregister","source_id":"gebouw/Gebouw.13351229/0","kind":"building","building":"official","height_m":8.85,"status":null},"geometry":{"type":"Polygon","coordinates":[[[3.95748048,50.91176753],[3.95750903,50.91177605],[3.95755052,50.91181325],[3.95754652,50.91181669],[3.95744298,50.91178904],[3.95733883,50.91176123],[3.95728285,50.91174628],[3.95717717,50.91171806],[3.95691166,50.91164715],[3.95694601,50.91160251],[3.95696987,50.91157149],[3.9569494,50.91156385],[3.95693063,50.91149911],[3.95698415,50.91142115],[3.95706615,50.91144636],[3.95732629,50.91152634],[3.95769116,50.91163851],[3.95768972,50.91164033],[3.95768885,50.91164006],[3.95768727,50.91164983],[3.95772012,50.91165184],[3.95773964,50.91165283],[3.95773535,50.91168279],[3.9577279,50.91173482],[3.95772165,50.91177734],[3.95771711,50.91180821],[3.95758946,50.91180103],[3.95760476,50.91169507],[3.95754363,50.91168043],[3.95748048,50.91176753]]]}},{"type":"Feature","id":"gebouw/Gebouw.13394948/0","properties":{"source":"Digitaal Vlaanderen Gebouwenregister","source_id":"gebouw/Gebouw.13394948/0","kind":"building","building":"official","height_m":6.6,"status":null},"geometry":{"type":"Polygon","coordinates":[[[3.95746759,50.91184302],[3.95744314,50.91197103],[3.95729777,50.91195993],[3.95732222,50.91183192],[3.95746759,50.91184302]]]}},{"type":"Feature","id":"gebouw/Gebouw.13395296/0","properties":{"source":"Digitaal Vlaanderen Gebouwenregister","source_id":"gebouw/Gebouw.13395296/0","kind":"building","building":"official","height_m":6.6,"status":null},"geometry":{"type":"Polygon","coordinates":[[[3.95430593,50.90849807],[3.95414629,50.90856903],[3.95407852,50.90850695],[3.95412885,50.90848473],[3.95398738,50.90835762],[3.95410204,50.90830702],[3.95430593,50.90849807]]]}},{"type":"Feature","id":"gebouw/Gebouw.13400671/0","properties":{"source":"Digitaal Vlaanderen Gebouwenregister","source_id":"gebouw/Gebouw.13400671/0","kind":"building","building":"official","height_m":5.85,"status":null},"geometry":{"type":"Polygon","coordinates":[[[3.96039002,50.91342008],[3.9603208,50.913405],[3.96033001,50.91338666],[3.96040017,50.91340053],[3.96039002,50.91342008]]]}},{"type":"Feature","id":"gebouw/Gebouw.13413619/0","properties":{"source":"Digitaal Vlaanderen Gebouwenregister","source_id":"gebouw/Gebouw.13413619/0","kind":"building","building":"official","height_m":5.85,"status":null},"geometry":{"type":"Polygon","coordinates":[[[3.9598281,50.91297169],[3.95972544,50.91313386],[3.95962261,50.91310283],[3.95963954,50.91307559],[3.9596512,50.91305682],[3.95968999,50.91306773],[3.95974188,50.91298382],[3.9597604,50.91295388],[3.95976515,50.9129551],[3.95976471,50.91295579],[3.95977122,50.91295748],[3.95980544,50.91296609],[3.95980768,50.91296667],[3.95980822,50.91296583],[3.95982845,50.91297104],[3.9598281,50.91297169]]]}},{"type":"Feature","id":"gebouw/Gebouw.13415075/0","properties":{"source":"Digitaal Vlaanderen Gebouwenregister","source_id":"gebouw/Gebouw.13415075/0","kind":"building","building":"official","height_m":8.85,"status":null},"geometry":{"type":"Polygon","coordinates":[[[3.9624034,50.91327561],[3.96256357,50.91312022],[3.96274889,50.91319656],[3.96258873,50.91335195],[3.9624034,50.91327561]]]}},{"type":"Feature","id":"gebouw/Gebouw.13415365/0","properties":{"source":"Digitaal Vlaanderen Gebouwenregister","source_id":"gebouw/Gebouw.13415365/0","kind":"building","building":"official","height_m":5.85,"status":null},"geometry":{"type":"Polygon","coordinates":[[[3.96041521,50.91343351],[3.96037029,50.91351945],[3.9602869,50.91350205],[3.96033178,50.91341716],[3.96041521,50.91343351]]]}},{"type":"Feature","id":"gebouw/Gebouw.13415630/0","properties":{"source":"Digitaal Vlaanderen Gebouwenregister","source_id":"gebouw/Gebouw.13415630/0","kind":"building","building":"official","height_m":6.6,"status":null},"geometry":{"type":"Polygon","coordinates":[[[3.96156829,50.9127063],[3.9617138,50.91274683],[3.96161553,50.91289774],[3.96164789,50.91290687],[3.96162637,50.91293732],[3.96148285,50.91289679],[3.9615002,50.91287224],[3.96147849,50.9128661],[3.96155201,50.91276096],[3.96152769,50.91275566],[3.96156829,50.9127063]]]}},{"type":"Feature","id":"gebouw/Gebouw.13424573/0","properties":{"source":"Digitaal Vlaanderen Gebouwenregister","source_id":"gebouw/Gebouw.13424573/0","kind":"building","building":"official","height_m":8.85,"status":null},"geometry":{"type":"Polygon","coordinates":[[[3.95966333,50.91352261],[3.95955822,50.91350395],[3.95957357,50.91347088],[3.95967701,50.91349059],[3.95966333,50.91352261]]]}},{"type":"Feature","id":"gebouw/Gebouw.13433316/0","properties":{"source":"Digitaal Vlaanderen Gebouwenregister","source_id":"gebouw/Gebouw.13433316/0","kind":"building","building":"official","height_m":5.1,"status":null},"geometry":{"type":"Polygon","coordinates":[[[3.95759419,50.91132334],[3.95754208,50.91130553],[3.95756574,50.91127604],[3.95761856,50.91129235],[3.95759419,50.91132334]]]}},{"type":"Feature","id":"gebouw/Gebouw.13435760/0","properties":{"source":"Digitaal Vlaanderen Gebouwenregister","source_id":"gebouw/Gebouw.13435760/0","kind":"building","building":"official","height_m":6.6,"status":null},"geometry":{"type":"Polygon","coordinates":[[[3.9594341,50.91260225],[3.95938581,50.91259105],[3.95940683,50.9125533],[3.95945655,50.9125636],[3.9594341,50.91260225]]]}},{"type":"Feature","id":"gebouw/Gebouw.13438741/0","properties":{"source":"Digitaal Vlaanderen Gebouwenregister","source_id":"gebouw/Gebouw.13438741/0","kind":"building","building":"official","height_m":5.85,"status":null},"geometry":{"type":"Polygon","coordinates":[[[3.9608231,50.91320434],[3.96081961,50.91320802],[3.96075751,50.91318526],[3.96084182,50.91309444],[3.96088664,50.91310842],[3.96086,50.91313854],[3.96087928,50.91314512],[3.9608231,50.91320434]]]}},{"type":"Feature","id":"gebouw/Gebouw.13438864/0","properties":{"source":"Digitaal Vlaanderen Gebouwenregister","source_id":"gebouw/Gebouw.13438864/0","kind":"building","building":"official","height_m":8.1,"status":null},"geometry":{"type":"Polygon","coordinates":[[[3.96117284,50.91363248],[3.96116739,50.91363171],[3.96109077,50.91362098],[3.961085,50.91363052],[3.96094472,50.91360052],[3.96097586,50.9135408],[3.96118939,50.91358293],[3.96117284,50.91363248]]]}},{"type":"Feature","id":"gebouw/Gebouw.13440871/0","properties":{"source":"Digitaal Vlaanderen Gebouwenregister","source_id":"gebouw/Gebouw.13440871/0","kind":"building","building":"official","height_m":5.85,"status":null},"geometry":{"type":"Polygon","coordinates":[[[3.96213599,50.91245109],[3.96206178,50.91251211],[3.96202089,50.91249315],[3.96209537,50.91243237],[3.96213599,50.91245109]]]}},{"type":"Feature","id":"gebouw/Gebouw.13440987/0","properties":{"source":"Digitaal Vlaanderen Gebouwenregister","source_id":"gebouw/Gebouw.13440987/0","kind":"building","building":"official","height_m":7.35,"status":null},"geometry":{"type":"Polygon","coordinates":[[[3.96058705,50.91299249],[3.96049538,50.91307716],[3.96038078,50.91302914],[3.96037945,50.91302932],[3.9603727,50.91300907],[3.96037399,50.91300881],[3.96038661,50.91299699],[3.96040736,50.91297756],[3.96048652,50.91301062],[3.96059218,50.91291123],[3.96055775,50.91289651],[3.96056501,50.91289303],[3.96060133,50.91287563],[3.96064908,50.91285276],[3.96065089,50.91285424],[3.96067363,50.91286191],[3.96071253,50.91287661],[3.96069825,50.9128898],[3.96058705,50.91299249]]]}},{"type":"Feature","id":"gebouw/Gebouw.13447986/0","properties":{"source":"Digitaal Vlaanderen Gebouwenregister","source_id":"gebouw/Gebouw.13447986/0","kind":"building","building":"official","height_m":5.1,"status":null},"geometry":{"type":"Polygon","coordinates":[[[3.95571297,50.90911274],[3.95567448,50.90909387],[3.9557085,50.90906803],[3.9557464,50.90908616],[3.95571297,50.90911274]]]}},{"type":"Feature","id":"gebouw/Gebouw.13452429/0","properties":{"source":"Digitaal Vlaanderen Gebouwenregister","source_id":"gebouw/Gebouw.13452429/0","kind":"building","building":"official","height_m":7.35,"status":null},"geometry":{"type":"Polygon","coordinates":[[[3.96078344,50.91287672],[3.96077774,50.91288378],[3.96075732,50.91290913],[3.96069825,50.9128898],[3.96071253,50.91287661],[3.96067363,50.91286191],[3.9606932,50.91283969],[3.96073426,50.91285654],[3.96078344,50.91287672]]]}},{"type":"Feature","id":"gebouw/Gebouw.13459967/0","properties":{"source":"Digitaal Vlaanderen Gebouwenregister","source_id":"gebouw/Gebouw.13459967/0","kind":"building","building":"official","height_m":8.85,"status":null},"geometry":{"type":"Polygon","coordinates":[[[3.95948432,50.91321895],[3.95944054,50.913207],[3.95946442,50.91317075],[3.95951057,50.91318285],[3.95948432,50.91321895]]]}},{"type":"Feature","id":"gebouw/Gebouw.13461828/0","properties":{"source":"Digitaal Vlaanderen Gebouwenregister","source_id":"gebouw/Gebouw.13461828/0","kind":"building","building":"official","height_m":5.1,"status":null},"geometry":{"type":"Polygon","coordinates":[[[3.95955862,50.91323691],[3.95954506,50.91325538],[3.95949879,50.91324159],[3.95948388,50.91323715],[3.95949657,50.91321937],[3.95955795,50.91323671],[3.95955862,50.91323691]]]}},{"type":"Feature","id":"gebouw/Gebouw.13465466/0","properties":{"source":"Digitaal Vlaanderen Gebouwenregister","source_id":"gebouw/Gebouw.13465466/0","kind":"building","building":"official","height_m":6.6,"status":null},"geometry":{"type":"Polygon","coordinates":[[[3.95928362,50.9125309],[3.95925955,50.91257801],[3.95925436,50.91263109],[3.95925416,50.91263312],[3.95930802,50.91263444],[3.95931231,50.91256415],[3.95928873,50.91256358],[3.95930314,50.91253401],[3.95928362,50.9125309]]]}},{"type":"Feature","id":"gebouw/Gebouw.13474690/0","properties":{"source":"Digitaal Vlaanderen Gebouwenregister","source_id":"gebouw/Gebouw.13474690/0","kind":"building","building":"official","height_m":8.1,"status":null},"geometry":{"type":"Polygon","coordinates":[[[3.96055371,50.91271797],[3.96052331,50.9127838],[3.96029795,50.91274192],[3.96032798,50.91267556],[3.96055371,50.91271797]]]}},{"type":"Feature","id":"gebouw/Gebouw.13489864/0","properties":{"source":"Digitaal Vlaanderen Gebouwenregister","source_id":"gebouw/Gebouw.13489864/0","kind":"building","building":"official","height_m":8.1,"status":null},"geometry":{"type":"Polygon","coordinates":[[[3.95889251,50.91076326],[3.95889067,50.91077566],[3.95892761,50.91077784],[3.9589233,50.91080698],[3.9588135,50.91080048],[3.95881882,50.91075961],[3.95889251,50.91076326]]]}},{"type":"Feature","id":"gebouw/Gebouw.13489896/0","properties":{"source":"Digitaal Vlaanderen Gebouwenregister","source_id":"gebouw/Gebouw.13489896/0","kind":"building","building":"official","height_m":5.1,"status":null},"geometry":{"type":"Polygon","coordinates":[[[3.96100538,50.91314546],[3.96092213,50.91324183],[3.96086437,50.91322165],[3.96092379,50.91315523],[3.96094497,50.91316346],[3.9609724,50.91313517],[3.96100538,50.91314546]]]}},{"type":"Feature","id":"gebouw/Gebouw.13490351/0","properties":{"source":"Digitaal Vlaanderen Gebouwenregister","source_id":"gebouw/Gebouw.13490351/0","kind":"building","building":"official","height_m":8.85,"status":null},"geometry":{"type":"Polygon","coordinates":[[[3.96175876,50.91252491],[3.96167466,50.91251895],[3.96165412,50.9125175],[3.96164992,50.9125354],[3.96166898,50.91253719],[3.96166466,50.91255856],[3.96166136,50.91257494],[3.96172488,50.9125807],[3.96183422,50.91258997],[3.96185283,50.91253157],[3.96175876,50.91252491]]]}},{"type":"Feature","id":"gebouw/Gebouw.13500806/0","properties":{"source":"Digitaal Vlaanderen Gebouwenregister","source_id":"gebouw/Gebouw.13500806/0","kind":"building","building":"official","height_m":6.6,"status":null},"geometry":{"type":"Polygon","coordinates":[[[3.96195395,50.91291919],[3.96206534,50.9128094],[3.96190529,50.91274287],[3.96181213,50.91283239],[3.96180295,50.91282858],[3.96170206,50.91292551],[3.96177373,50.91295489],[3.96191229,50.91282465],[3.9619669,50.91284778],[3.96191061,50.91290015],[3.96195395,50.91291919]]]}},{"type":"Feature","id":"gebouw/Gebouw.13512722/0","properties":{"source":"Digitaal Vlaanderen Gebouwenregister","source_id":"gebouw/Gebouw.13512722/0","kind":"building","building":"official","height_m":6.6,"status":null},"geometry":{"type":"Polygon","coordinates":[[[3.95671498,50.91204409],[3.95672905,50.91202327],[3.95680923,50.91204524],[3.95679474,50.9120669],[3.95671498,50.91204409]]]}},{"type":"Feature","id":"gebouw/Gebouw.13527042/0","properties":{"source":"Digitaal Vlaanderen Gebouwenregister","source_id":"gebouw/Gebouw.13527042/0","kind":"building","building":"official","height_m":5.1,"status":null},"geometry":{"type":"Polygon","coordinates":[[[3.95744298,50.91178904],[3.95742717,50.91180753],[3.95742325,50.91183879],[3.95737142,50.91183541],[3.95738243,50.91179002],[3.95733464,50.91178422],[3.95733883,50.91176123],[3.95744298,50.91178904]]]}},{"type":"Feature","id":"gebouw/Gebouw.13536607/0","properties":{"source":"Digitaal Vlaanderen Gebouwenregister","source_id":"gebouw/Gebouw.13536607/0","kind":"building","building":"official","height_m":5.85,"status":null},"geometry":{"type":"Polygon","coordinates":[[[3.96156877,50.91328156],[3.96157616,50.91328273],[3.96155497,50.91334614],[3.96154968,50.91336195],[3.96137277,50.91333645],[3.96137313,50.91333551],[3.96139695,50.91327124],[3.96140165,50.913272],[3.96143168,50.91327682],[3.96143604,50.91326297],[3.9614894,50.9132735],[3.96150823,50.91323679],[3.9614209,50.91320662],[3.96139965,50.91319928],[3.96144457,50.91315018],[3.96140917,50.91313815],[3.96145675,50.91308464],[3.96146349,50.91307706],[3.96162445,50.91313409],[3.96158125,50.91318451],[3.96163451,50.91320427],[3.96156877,50.91328156]]]}},{"type":"Feature","id":"gebouw/Gebouw.13538447/0","properties":{"source":"Digitaal Vlaanderen Gebouwenregister","source_id":"gebouw/Gebouw.13538447/0","kind":"building","building":"official","height_m":8.85,"status":null},"geometry":{"type":"Polygon","coordinates":[[[3.95291127,50.90867874],[3.95308713,50.90884881],[3.9531491,50.90890874],[3.95304395,50.9089522],[3.95295226,50.90886352],[3.95279798,50.90871432],[3.95286418,50.90868696],[3.95290313,50.90867086],[3.95291127,50.90867874]]]}},{"type":"Feature","id":"gebouw/Gebouw.13546260/0","properties":{"source":"Digitaal Vlaanderen Gebouwenregister","source_id":"gebouw/Gebouw.13546260/0","kind":"building","building":"official","height_m":5.1,"status":null},"geometry":{"type":"Polygon","coordinates":[[[3.9607115,50.91308995],[3.96066047,50.91314996],[3.9605792,50.9131203],[3.96065602,50.91303647],[3.96071229,50.91305402],[3.96070484,50.9130632],[3.9606858,50.91305706],[3.96066947,50.91307482],[3.9607115,50.91308995]]]}},{"type":"Feature","id":"gebouw/Gebouw.13552327/0","properties":{"source":"Digitaal Vlaanderen Gebouwenregister","source_id":"gebouw/Gebouw.13552327/0","kind":"building","building":"official","height_m":5.85,"status":null},"geometry":{"type":"Polygon","coordinates":[[[3.9611715,50.91347403],[3.96117439,50.91347008],[3.96119756,50.91343843],[3.96121651,50.91341253],[3.96116107,50.91340028],[3.96115213,50.9133983],[3.96114533,50.91340521],[3.96106211,50.91337622],[3.96106049,50.91337797],[3.96104592,50.91338008],[3.96104354,50.91337925],[3.96102142,50.91340505],[3.96102037,50.91340628],[3.96100288,50.91342623],[3.9609418,50.91349587],[3.96094904,50.91349776],[3.96105187,50.91352462],[3.96111398,50.91345849],[3.96112483,50.91346167],[3.96109394,50.91350451],[3.96114022,50.91351678],[3.9611715,50.91347403]]]}},{"type":"Feature","id":"gebouw/Gebouw.13552515/0","properties":{"source":"Digitaal Vlaanderen Gebouwenregister","source_id":"gebouw/Gebouw.13552515/0","kind":"building","building":"official","height_m":7.35,"status":null},"geometry":{"type":"Polygon","coordinates":[[[3.96016249,50.91274783],[3.96018209,50.91271505],[3.96028746,50.91273398],[3.96027094,50.91276691],[3.96016249,50.91274783]]]}},{"type":"Feature","id":"gebouw/Gebouw.13575190/0","properties":{"source":"Digitaal Vlaanderen Gebouwenregister","source_id":"gebouw/Gebouw.13575190/0","kind":"building","building":"official","height_m":8.1,"status":null},"geometry":{"type":"Polygon","coordinates":[[[3.9624034,50.91327561],[3.96236519,50.91331269],[3.96212067,50.91321237],[3.96231699,50.91301979],[3.96256357,50.91312022],[3.9624034,50.91327561]]]}},{"type":"Feature","id":"gebouw/Gebouw.13589020/0","properties":{"source":"Digitaal Vlaanderen Gebouwenregister","source_id":"gebouw/Gebouw.13589020/0","kind":"building","building":"official","height_m":8.1,"status":null},"geometry":{"type":"Polygon","coordinates":[[[3.96009043,50.91360766],[3.96015389,50.913475],[3.96027278,50.91349804],[3.96020567,50.91365251],[3.96018136,50.91364728],[3.96019112,50.91362658],[3.9601556,50.91361991],[3.96009867,50.91360921],[3.96009043,50.91360766]]]}},{"type":"Feature","id":"gebouw/Gebouw.13608706/0","properties":{"source":"Digitaal Vlaanderen Gebouwenregister","source_id":"gebouw/Gebouw.13608706/0","kind":"building","building":"official","height_m":8.1,"status":null},"geometry":{"type":"Polygon","coordinates":[[[3.95924631,50.91271349],[3.95924145,50.91276311],[3.95920256,50.91276127],[3.95919849,50.91271149],[3.95924631,50.91271349]]]}},{"type":"Feature","id":"gebouw/Gebouw.13659962/0","properties":{"source":"Digitaal Vlaanderen Gebouwenregister","source_id":"gebouw/Gebouw.13659962/0","kind":"building","building":"official","height_m":6.6,"status":null},"geometry":{"type":"Polygon","coordinates":[[[3.95990435,50.9131328],[3.95980184,50.91310709],[3.95977727,50.9131495],[3.95972544,50.91313386],[3.9598281,50.91297169],[3.95993281,50.91299733],[3.95998241,50.91300948],[3.9599616,50.91304577],[3.95994721,50.91307085],[3.95992796,50.91309868],[3.95992676,50.9131004],[3.95990435,50.9131328]]]}},{"type":"Feature","id":"gebouw/Gebouw.13660230/0","properties":{"source":"Digitaal Vlaanderen Gebouwenregister","source_id":"gebouw/Gebouw.13660230/0","kind":"building","building":"official","height_m":5.1,"status":null},"geometry":{"type":"Polygon","coordinates":[[[3.96080263,50.91347048],[3.96078268,50.91350552],[3.96058774,50.91346268],[3.96058963,50.91345982],[3.96052969,50.91344834],[3.9605363,50.91343496],[3.96059695,50.91344779],[3.96061113,50.91342418],[3.96064966,50.91343209],[3.96065203,50.91342908],[3.96080309,50.91346612],[3.96081933,50.91342087],[3.96062355,50.91336428],[3.96062664,50.91335997],[3.96065998,50.91331013],[3.96067055,50.91329442],[3.96087428,50.91334921],[3.9609507,50.91336977],[3.96092425,50.91340522],[3.96087134,50.91347614],[3.96080263,50.91347048]]]}},{"type":"Feature","id":"gebouw/Gebouw.13705865/0","properties":{"source":"Digitaal Vlaanderen Gebouwenregister","source_id":"gebouw/Gebouw.13705865/0","kind":"building","building":"official","height_m":8.85,"status":null},"geometry":{"type":"Polygon","coordinates":[[[3.95876372,50.91072268],[3.95875862,50.91075875],[3.95875329,50.91079843],[3.95861613,50.91079082],[3.95861893,50.91077789],[3.95852956,50.91077516],[3.95853546,50.91071635],[3.95859238,50.91071811],[3.95859332,50.91070929],[3.95866291,50.91071231],[3.95866239,50.91071687],[3.95876372,50.91072268]]]}},{"type":"Feature","id":"gebouw/Gebouw.13762913/0","properties":{"source":"Digitaal Vlaanderen Gebouwenregister","source_id":"gebouw/Gebouw.13762913/0","kind":"building","building":"official","height_m":8.85,"status":null},"geometry":{"type":"Polygon","coordinates":[[[3.95549006,50.90994341],[3.9554498,50.90992122],[3.95547368,50.90990145],[3.95551442,50.90992364],[3.95549006,50.90994341]]]}},{"type":"Feature","id":"gebouw/Gebouw.13763143/0","properties":{"source":"Digitaal Vlaanderen Gebouwenregister","source_id":"gebouw/Gebouw.13763143/0","kind":"building","building":"official","height_m":5.85,"status":null},"geometry":{"type":"Polygon","coordinates":[[[3.95402763,50.90852739],[3.95395815,50.90855666],[3.95396852,50.90856655],[3.95344491,50.90878719],[3.95335643,50.90882447],[3.95325685,50.90886643],[3.95322268,50.90883402],[3.95307927,50.90869797],[3.95318079,50.90865519],[3.95327586,50.90861513],[3.95379157,50.90839783],[3.95389333,50.90849486],[3.95391327,50.90848646],[3.95391571,50.90848877],[3.95396502,50.908468],[3.95402763,50.90852739]]]}},{"type":"Feature","id":"gebouw/Gebouw.16650911/0","properties":{"source":"Digitaal Vlaanderen Gebouwenregister","source_id":"gebouw/Gebouw.16650911/0","kind":"building","building":"official","height_m":8.85,"status":null},"geometry":{"type":"Polygon","coordinates":[[[3.95664448,50.91199438],[3.95667429,50.9120029],[3.95665493,50.91202941],[3.9566248,50.91201996],[3.95656464,50.91200109],[3.95656755,50.91199674],[3.95653448,50.91198627],[3.95654772,50.91196672],[3.95664448,50.91199438]]]}},{"type":"Feature","id":"gebouw/Gebouw.16663588/0","properties":{"source":"Digitaal Vlaanderen Gebouwenregister","source_id":"gebouw/Gebouw.16663588/0","kind":"building","building":"official","height_m":8.1,"status":null},"geometry":{"type":"Polygon","coordinates":[[[3.96084182,50.91309444],[3.96075751,50.91318526],[3.96075166,50.91318326],[3.96075321,50.91318145],[3.9607086,50.91316506],[3.96070696,50.91316685],[3.96069894,50.91316389],[3.96066047,50.91314996],[3.9607115,50.91308995],[3.9607358,50.91306136],[3.96075338,50.91306684],[3.96073433,50.91308866],[3.96075955,50.91309688],[3.96075553,50.91310065],[3.96076026,50.91310267],[3.96078399,50.9130764],[3.96084182,50.91309444]]]}},{"type":"Feature","id":"gebouw/Gebouw.16671584/0","properties":{"source":"Digitaal Vlaanderen Gebouwenregister","source_id":"gebouw/Gebouw.16671584/0","kind":"building","building":"official","height_m":6.6,"status":null},"geometry":{"type":"Polygon","coordinates":[[[3.95978697,50.91260535],[3.95973321,50.9125934],[3.95974905,50.91256784],[3.95980185,50.91258023],[3.95978697,50.91260535]]]}},{"type":"Feature","id":"gebouw/Gebouw.16685942/0","properties":{"source":"Digitaal Vlaanderen Gebouwenregister","source_id":"gebouw/Gebouw.16685942/0","kind":"building","building":"official","height_m":6.6,"status":null},"geometry":{"type":"Polygon","coordinates":[[[3.96013297,50.91278994],[3.96007551,50.91288808],[3.96005083,50.91288205],[3.95998898,50.91286691],[3.96005342,50.9127607],[3.96013824,50.91278093],[3.96013297,50.91278994]]]}},{"type":"Feature","id":"gebouw/Gebouw.16686494/0","properties":{"source":"Digitaal Vlaanderen Gebouwenregister","source_id":"gebouw/Gebouw.16686494/0","kind":"building","building":"official","height_m":6.6,"status":null},"geometry":{"type":"Polygon","coordinates":[[[3.95953357,50.91277552],[3.95930501,50.9127255],[3.9593595,50.91261995],[3.95953673,50.91266222],[3.95949963,50.91272298],[3.95955576,50.91273371],[3.95953357,50.91277552]]]}},{"type":"Feature","id":"gebouw/Gebouw.16694850/0","properties":{"source":"Digitaal Vlaanderen Gebouwenregister","source_id":"gebouw/Gebouw.16694850/0","kind":"building","building":"official","height_m":5.1,"status":null},"geometry":{"type":"Polygon","coordinates":[[[3.96137554,50.91361941],[3.96125949,50.91360073],[3.9612727,50.91356676],[3.96138921,50.91358709],[3.96137554,50.91361941]]]}},{"type":"Feature","id":"gebouw/Gebouw.16699453/0","properties":{"source":"Digitaal Vlaanderen Gebouwenregister","source_id":"gebouw/Gebouw.16699453/0","kind":"building","building":"official","height_m":5.85,"status":null},"geometry":{"type":"Polygon","coordinates":[[[3.96138564,50.91358492],[3.96139533,50.91356557],[3.96147244,50.91357893],[3.96146374,50.91359903],[3.96138564,50.91358492]]]}},{"type":"Feature","id":"gebouw/Gebouw.16711183/0","properties":{"source":"Digitaal Vlaanderen Gebouwenregister","source_id":"gebouw/Gebouw.16711183/0","kind":"building","building":"official","height_m":5.85,"status":null},"geometry":{"type":"Polygon","coordinates":[[[3.9607538,50.91363473],[3.96073469,50.9136695],[3.9605537,50.91363162],[3.96053854,50.91362844],[3.96054429,50.91361747],[3.9604606,50.91359915],[3.96047293,50.91357474],[3.96048458,50.91357723],[3.9607538,50.91363473]]]}},{"type":"Feature","id":"gebouw/Gebouw.16728351/0","properties":{"source":"Digitaal Vlaanderen Gebouwenregister","source_id":"gebouw/Gebouw.16728351/0","kind":"building","building":"official","height_m":7.35,"status":null},"geometry":{"type":"Polygon","coordinates":[[[3.95954636,50.91363966],[3.95941167,50.91363667],[3.9594123,50.91362384],[3.95941333,50.91360506],[3.95938487,50.91360443],[3.959391,50.91349326],[3.95952626,50.91349627],[3.95952361,50.9135434],[3.95952016,50.91360492],[3.95954803,50.91360551],[3.95954636,50.91363966]]]}},{"type":"Feature","id":"gebouw/Gebouw.16728390/0","properties":{"source":"Digitaal Vlaanderen Gebouwenregister","source_id":"gebouw/Gebouw.16728390/0","kind":"building","building":"official","height_m":5.1,"status":null},"geometry":{"type":"Polygon","coordinates":[[[3.95986391,50.91273767],[3.95981366,50.9128321],[3.9597372,50.91281536],[3.95971669,50.91281086],[3.95971438,50.91281508],[3.95964994,50.91280093],[3.95970162,50.91270219],[3.95986391,50.91273767]]]}},{"type":"Feature","id":"gebouw/Gebouw.16740057/0","properties":{"source":"Digitaal Vlaanderen Gebouwenregister","source_id":"gebouw/Gebouw.16740057/0","kind":"building","building":"official","height_m":7.35,"status":null},"geometry":{"type":"Polygon","coordinates":[[[3.95643518,50.91173212],[3.95636837,50.91171005],[3.95638351,50.91169209],[3.95629888,50.91166722],[3.95632284,50.91163814],[3.95625528,50.91161767],[3.95627639,50.91159261],[3.95641035,50.91163329],[3.95639236,50.9116557],[3.95640948,50.91166127],[3.95642544,50.91166647],[3.95661548,50.91143766],[3.95665926,50.91145112],[3.95661407,50.91150768],[3.95664095,50.91151606],[3.95658606,50.9115851],[3.95657773,50.91158151],[3.95643518,50.91173212]]]}},{"type":"Feature","id":"gebouw/Gebouw.16740117/0","properties":{"source":"Digitaal Vlaanderen Gebouwenregister","source_id":"gebouw/Gebouw.16740117/0","kind":"building","building":"official","height_m":7.35,"status":null},"geometry":{"type":"Polygon","coordinates":[[[3.95770846,50.9122347],[3.95767155,50.91229789],[3.9572797,50.9121865],[3.9573659,50.91206372],[3.95738361,50.91206875],[3.95738369,50.91206877],[3.95765095,50.91214469],[3.95765232,50.91214508],[3.95774538,50.91217151],[3.95770846,50.9122347]]]}},{"type":"Feature","id":"gebouw/Gebouw.18485835/0","properties":{"source":"Digitaal Vlaanderen Gebouwenregister","source_id":"gebouw/Gebouw.18485835/0","kind":"building","building":"official","height_m":7.35,"status":null},"geometry":{"type":"Polygon","coordinates":[[[3.96115458,50.91281974],[3.96112684,50.91284885],[3.96114564,50.91285571],[3.96111983,50.91288396],[3.96095301,50.91282554],[3.96095354,50.91282496],[3.9610098,50.9127646],[3.96115458,50.91281974]]]}},{"type":"Feature","id":"gebouw/Gebouw.18862375/0","properties":{"source":"Digitaal Vlaanderen Gebouwenregister","source_id":"gebouw/Gebouw.18862375/0","kind":"building","building":"official","height_m":5.85,"status":null},"geometry":{"type":"Polygon","coordinates":[[[3.96223636,50.91345067],[3.96217344,50.9134285],[3.96221287,50.91337298],[3.96227833,50.91339156],[3.96223636,50.91345067]]]}},{"type":"Feature","id":"gebouw/Gebouw.18862376/0","properties":{"source":"Digitaal Vlaanderen Gebouwenregister","source_id":"gebouw/Gebouw.18862376/0","kind":"building","building":"official","height_m":6.6,"status":null},"geometry":{"type":"Polygon","coordinates":[[[3.95986861,50.91254909],[3.95988954,50.91251131],[3.95996582,50.91252747],[3.95994629,50.9125643],[3.95986861,50.91254909]]]}},{"type":"Feature","id":"gebouw/Gebouw.18862377/0","properties":{"source":"Digitaal Vlaanderen Gebouwenregister","source_id":"gebouw/Gebouw.18862377/0","kind":"building","building":"official","height_m":7.35,"status":null},"geometry":{"type":"Polygon","coordinates":[[[3.96048106,50.91335138],[3.96047884,50.91335548],[3.96046036,50.91338937],[3.96039941,50.91337771],[3.96042037,50.91333908],[3.96048106,50.91335138]]]}},{"type":"Feature","id":"gebouw/Gebouw.19699893/0","properties":{"source":"Digitaal Vlaanderen Gebouwenregister","source_id":"gebouw/Gebouw.19699893/0","kind":"building","building":"official","height_m":7.35,"status":null},"geometry":{"type":"Polygon","coordinates":[[[3.95909649,50.91270868],[3.95898705,50.91271371],[3.95897713,50.91263003],[3.95903556,50.91262911],[3.95903881,50.91267208],[3.95909175,50.9126692],[3.9590925,50.912674],[3.95909649,50.91270868]]]}},{"type":"Feature","id":"gebouw/Gebouw.19699894/0","properties":{"source":"Digitaal Vlaanderen Gebouwenregister","source_id":"gebouw/Gebouw.19699894/0","kind":"building","building":"official","height_m":8.1,"status":null},"geometry":{"type":"Polygon","coordinates":[[[3.95918815,50.91276052],[3.95910671,50.91276443],[3.95905898,50.91276671],[3.95899371,50.91276985],[3.95886151,50.91277619],[3.95885507,50.91272161],[3.95885474,50.91271877],[3.95886175,50.91258782],[3.95894615,50.91259031],[3.95896595,50.91259026],[3.9589662,50.9126302],[3.95897713,50.91263003],[3.95898705,50.91271371],[3.95909649,50.91270868],[3.9590925,50.912674],[3.95919804,50.91266915],[3.95920293,50.9127049],[3.95919901,50.91270523],[3.95918107,50.91270674],[3.95918815,50.91276052]]]}},{"type":"Feature","id":"gebouw/Gebouw.19707216/0","properties":{"source":"Digitaal Vlaanderen Gebouwenregister","source_id":"gebouw/Gebouw.19707216/0","kind":"building","building":"official","height_m":5.1,"status":null},"geometry":{"type":"Polygon","coordinates":[[[3.95771711,50.91180821],[3.95758946,50.91180103],[3.95760476,50.91169507],[3.95754363,50.91168043],[3.95748048,50.91176753],[3.95750903,50.91177605],[3.95755052,50.91181325],[3.95754652,50.91181669],[3.95748998,50.9118016],[3.95744298,50.91178904],[3.95733883,50.91176123],[3.95728285,50.91174628],[3.95717717,50.91171806],[3.95691166,50.91164715],[3.95694601,50.91160251],[3.95696987,50.91157149],[3.95706614,50.91144636],[3.9573263,50.91152634],[3.95769116,50.91163851],[3.95768972,50.91164033],[3.95768885,50.91164006],[3.95768727,50.91164983],[3.95773964,50.91165283],[3.95773535,50.91168279],[3.95772165,50.91177734],[3.95771711,50.91180821]]]}},{"type":"Feature","id":"gebouw/Gebouw.19707217/0","properties":{"source":"Digitaal Vlaanderen Gebouwenregister","source_id":"gebouw/Gebouw.19707217/0","kind":"building","building":"official","height_m":5.85,"status":null},"geometry":{"type":"Polygon","coordinates":[[[3.95706614,50.91144636],[3.95696987,50.91157149],[3.9569494,50.91156385],[3.95693063,50.91149911],[3.95698415,50.91142115],[3.95706614,50.91144636]]]}},{"type":"Feature","id":"gebouw/Gebouw.19709220/0","properties":{"source":"Digitaal Vlaanderen Gebouwenregister","source_id":"gebouw/Gebouw.19709220/0","kind":"building","building":"official","height_m":5.1,"status":null},"geometry":{"type":"Polygon","coordinates":[[[3.95876613,50.91327836],[3.95874937,50.91331239],[3.95869399,50.9133025],[3.95870958,50.91327347],[3.95847696,50.91322843],[3.95846633,50.91324618],[3.95836333,50.91322468],[3.95838744,50.91317849],[3.9583048,50.91315887],[3.95834449,50.91308284],[3.95834931,50.91308398],[3.95839509,50.91309478],[3.95844237,50.91310594],[3.95844292,50.913105],[3.95847928,50.91311359],[3.9584788,50.9131144],[3.95848269,50.91311531],[3.95852997,50.91312628],[3.95853052,50.91312554],[3.95853776,50.91312698],[3.95853691,50.91312869],[3.95854781,50.91313086],[3.95864489,50.91315001],[3.95863078,50.91317932],[3.95863902,50.9131809],[3.95867246,50.91318734],[3.95879911,50.91321141],[3.95879787,50.91321392],[3.95876613,50.91327836]]]}},{"type":"Feature","id":"gebouw/Gebouw.19709221/0","properties":{"source":"Digitaal Vlaanderen Gebouwenregister","source_id":"gebouw/Gebouw.19709221/0","kind":"building","building":"official","height_m":5.85,"status":null},"geometry":{"type":"Polygon","coordinates":[[[3.95836333,50.91322468],[3.95830312,50.91333296],[3.95821724,50.91331114],[3.95813638,50.91329059],[3.95810849,50.9132835],[3.95817059,50.91319649],[3.9582447,50.9131225],[3.95822089,50.91311021],[3.9582817,50.91306132],[3.95830534,50.91306924],[3.95834449,50.91308284],[3.9583048,50.91315887],[3.95838744,50.91317849],[3.95836333,50.91322468]]]}},{"type":"Feature","id":"gebouw/Gebouw.19709562/0","properties":{"source":"Digitaal Vlaanderen Gebouwenregister","source_id":"gebouw/Gebouw.19709562/0","kind":"building","building":"official","height_m":5.1,"status":null},"geometry":{"type":"Polygon","coordinates":[[[3.96139168,50.9134913],[3.96136264,50.91356068],[3.96122078,50.91353035],[3.96126756,50.91342382],[3.96126892,50.9134207],[3.96127247,50.91341261],[3.96127828,50.91341363],[3.961278,50.91341427],[3.96128739,50.91341592],[3.96134625,50.91342561],[3.96134664,50.91342466],[3.96137059,50.91342865],[3.96137021,50.91342955],[3.96137357,50.91343011],[3.96140854,50.91343567],[3.96139168,50.9134913]]]}},{"type":"Feature","id":"gebouw/Gebouw.19709563/0","properties":{"source":"Digitaal Vlaanderen Gebouwenregister","source_id":"gebouw/Gebouw.19709563/0","kind":"building","building":"official","height_m":5.85,"status":null},"geometry":{"type":"Polygon","coordinates":[[[3.96150626,50.91359077],[3.96147335,50.91358512],[3.96148989,50.9135398],[3.96139734,50.91352482],[3.96140721,50.9134933],[3.96139168,50.9134913],[3.96140854,50.91343567],[3.96140892,50.91343471],[3.96141497,50.91343568],[3.96157022,50.91345508],[3.96156323,50.91347677],[3.96155563,50.91350037],[3.96155191,50.9135119],[3.96154071,50.91354665],[3.9615311,50.91354528],[3.96152171,50.91354395],[3.96150626,50.91359077]]]}},{"type":"Feature","id":"gebouw/Gebouw.19712128/0","properties":{"source":"Digitaal Vlaanderen Gebouwenregister","source_id":"gebouw/Gebouw.19712128/0","kind":"building","building":"official","height_m":8.1,"status":null},"geometry":{"type":"Polygon","coordinates":[[[3.95817984,50.91344536],[3.9582801,50.91346027],[3.95826328,50.91350852],[3.95816291,50.91349528],[3.95801231,50.91347542],[3.95802929,50.91342296],[3.95817984,50.91344536]]]}},{"type":"Feature","id":"gebouw/Gebouw.19721022/0","properties":{"source":"Digitaal Vlaanderen Gebouwenregister","source_id":"gebouw/Gebouw.19721022/0","kind":"building","building":"official","height_m":5.1,"status":null},"geometry":{"type":"Polygon","coordinates":[[[3.95344491,50.90878719],[3.95335643,50.90882447],[3.95325684,50.90886643],[3.95322268,50.90883402],[3.95307927,50.90869797],[3.95318079,50.90865519],[3.95327586,50.90861513],[3.9533161,50.90859818],[3.95379157,50.90839783],[3.95389333,50.90849486],[3.95395815,50.90855666],[3.95396852,50.90856655],[3.95344491,50.90878719]]]}},{"type":"Feature","id":"gebouw/Gebouw.19721023/0","properties":{"source":"Digitaal Vlaanderen Gebouwenregister","source_id":"gebouw/Gebouw.19721023/0","kind":"building","building":"official","height_m":5.85,"status":null},"geometry":{"type":"Polygon","coordinates":[[[3.95389333,50.90849486],[3.95391327,50.90848646],[3.95391571,50.90848877],[3.95396502,50.908468],[3.95402763,50.90852739],[3.95395815,50.90855666],[3.95389333,50.90849486]]]}},{"type":"Feature","id":"gebouw/Gebouw.19955274/0","properties":{"source":"Digitaal Vlaanderen Gebouwenregister","source_id":"gebouw/Gebouw.19955274/0","kind":"building","building":"official","height_m":5.1,"status":null},"geometry":{"type":"Polygon","coordinates":[[[3.95795772,50.91177018],[3.95791104,50.9117742],[3.9579066,50.91177458],[3.95789401,50.91170378],[3.95794253,50.91169961],[3.95795772,50.91177018]]]}},{"type":"Feature","id":"gebouw/Gebouw.19955275/0","properties":{"source":"Digitaal Vlaanderen Gebouwenregister","source_id":"gebouw/Gebouw.19955275/0","kind":"building","building":"official","height_m":5.85,"status":null},"geometry":{"type":"Polygon","coordinates":[[[3.96083058,50.91167441],[3.96082865,50.91167938],[3.96086686,50.91168529],[3.96086508,50.91168988],[3.9608531,50.91172087],[3.96072095,50.91170045],[3.96071721,50.91171012],[3.96068099,50.91170452],[3.96068386,50.9116971],[3.96064651,50.91169132],[3.96065291,50.91167477],[3.96063338,50.91167175],[3.96064006,50.91165446],[3.96059967,50.91164822],[3.96060187,50.91164252],[3.96060313,50.91163926],[3.96083058,50.91167441]]]}},{"type":"Feature","id":"gebouw/Gebouw.19955276/0","properties":{"source":"Digitaal Vlaanderen Gebouwenregister","source_id":"gebouw/Gebouw.19955276/0","kind":"building","building":"official","height_m":6.6,"status":null},"geometry":{"type":"Polygon","coordinates":[[[3.95991329,50.91263233],[3.95988763,50.91268153],[3.95985676,50.9126751],[3.95988225,50.91262622],[3.95991329,50.91263233]]]}},{"type":"Feature","id":"gebouw/Gebouw.19955277/0","properties":{"source":"Digitaal Vlaanderen Gebouwenregister","source_id":"gebouw/Gebouw.19955277/0","kind":"building","building":"official","height_m":7.35,"status":null},"geometry":{"type":"Polygon","coordinates":[[[3.95918799,50.91317083],[3.95922389,50.91310123],[3.95928427,50.91311367],[3.95927383,50.91313392],[3.95924814,50.91312863],[3.9592383,50.91314771],[3.9592189,50.91314371],[3.95920329,50.91317398],[3.95918799,50.91317083]]]}},{"type":"Feature","id":"gebouw/Gebouw.19955312/0","properties":{"source":"Digitaal Vlaanderen Gebouwenregister","source_id":"gebouw/Gebouw.19955312/0","kind":"building","building":"official","height_m":6.6,"status":null},"geometry":{"type":"Polygon","coordinates":[[[3.96113861,50.91352418],[3.9611287,50.9135385],[3.96112626,50.91354202],[3.96112394,50.91354537],[3.96108926,50.91353577],[3.96107298,50.91353127],[3.96107472,50.91352875],[3.96108764,50.91351008],[3.96113861,50.91352418]]]}},{"type":"Feature","id":"gebouw/Gebouw.19956125/0","properties":{"source":"Digitaal Vlaanderen Gebouwenregister","source_id":"gebouw/Gebouw.19956125/0","kind":"building","building":"official","height_m":8.85,"status":null},"geometry":{"type":"Polygon","coordinates":[[[3.95956945,50.91349894],[3.95957907,50.9134786],[3.95963388,50.91348896],[3.95964156,50.91347273],[3.95968285,50.91348054],[3.95966555,50.91351711],[3.95956945,50.91349894]]]}},{"type":"Feature","id":"gebouw/Gebouw.19956197/0","properties":{"source":"Digitaal Vlaanderen Gebouwenregister","source_id":"gebouw/Gebouw.19956197/0","kind":"building","building":"official","height_m":8.85,"status":null},"geometry":{"type":"Polygon","coordinates":[[[3.96078976,50.91352831],[3.96067716,50.91350551],[3.96065621,50.91354277],[3.96053041,50.9135152],[3.96052823,50.91351918],[3.96051235,50.91354814],[3.96057498,50.91356073],[3.960755,50.91359692],[3.96078976,50.91352831]]]}},{"type":"Feature","id":"gebouw/Gebouw.19956198/0","properties":{"source":"Digitaal Vlaanderen Gebouwenregister","source_id":"gebouw/Gebouw.19956198/0","kind":"building","building":"official","height_m":5.1,"status":null},"geometry":{"type":"Polygon","coordinates":[[[3.96051235,50.91354814],[3.96052823,50.91351918],[3.96049686,50.91351247],[3.96052511,50.91345965],[3.96045386,50.91344442],[3.96041215,50.9135224],[3.96048372,50.91353703],[3.96048113,50.91354187],[3.96047856,50.91354668],[3.96050952,50.9135533],[3.96051235,50.91354814]]]}},{"type":"Feature","id":"gebouw/Gebouw.19956331/0","properties":{"source":"Digitaal Vlaanderen Gebouwenregister","source_id":"gebouw/Gebouw.19956331/0","kind":"building","building":"official","height_m":5.85,"status":null},"geometry":{"type":"Polygon","coordinates":[[[3.96055371,50.91271797],[3.96052331,50.9127838],[3.96035544,50.9127526],[3.96034213,50.91278122],[3.9602535,50.91276656],[3.96016249,50.91274783],[3.96018209,50.91271505],[3.96028746,50.91273398],[3.96028489,50.91273949],[3.96029795,50.91274192],[3.96032798,50.91267556],[3.96055371,50.91271797]]]}},{"type":"Feature","id":"gebouw/Gebouw.20802059/0","properties":{"source":"Digitaal Vlaanderen Gebouwenregister","source_id":"gebouw/Gebouw.20802059/0","kind":"building","building":"official","height_m":8.85,"status":null},"geometry":{"type":"Polygon","coordinates":[[[3.95738369,50.91206877],[3.95739156,50.91200201],[3.95749491,50.91200457],[3.95751159,50.91201626],[3.95764959,50.912018],[3.95765085,50.91198233],[3.95777448,50.91198495],[3.95777363,50.91210366],[3.95765261,50.91210196],[3.95765232,50.91214508],[3.95765095,50.91214469],[3.95738369,50.91206877]]]}},{"type":"Feature","id":"gebouw/Gebouw.20802149/0","properties":{"source":"Digitaal Vlaanderen Gebouwenregister","source_id":"gebouw/Gebouw.20802149/0","kind":"building","building":"official","height_m":8.85,"status":null},"geometry":{"type":"Polygon","coordinates":[[[3.96165515,50.9116515],[3.96167218,50.91160705],[3.96174121,50.91161763],[3.96172418,50.91166208],[3.96165515,50.9116515]]]}},{"type":"Feature","id":"gebouw/Gebouw.20802150/0","properties":{"source":"Digitaal Vlaanderen Gebouwenregister","source_id":"gebouw/Gebouw.20802150/0","kind":"building","building":"official","height_m":5.1,"status":null},"geometry":{"type":"Polygon","coordinates":[[[3.96142893,50.91290576],[3.96144317,50.91291077],[3.96140377,50.9129555],[3.96139872,50.91295373],[3.96136881,50.9129432],[3.96140821,50.91289846],[3.96142893,50.91290576]]]}},{"type":"Feature","id":"gebouw/Gebouw.20802151/0","properties":{"source":"Digitaal Vlaanderen Gebouwenregister","source_id":"gebouw/Gebouw.20802151/0","kind":"building","building":"official","height_m":5.85,"status":null},"geometry":{"type":"Polygon","coordinates":[[[3.96131499,50.91282743],[3.96134392,50.91279529],[3.96129019,50.91277596],[3.96126125,50.9128081],[3.96131499,50.91282743]]]}},{"type":"Feature","id":"gebouw/Gebouw.20802152/0","properties":{"source":"Digitaal Vlaanderen Gebouwenregister","source_id":"gebouw/Gebouw.20802152/0","kind":"building","building":"official","height_m":6.6,"status":null},"geometry":{"type":"Polygon","coordinates":[[[3.95873092,50.91253817],[3.95872277,50.91247659],[3.95882961,50.91247094],[3.95883775,50.91253253],[3.95873092,50.91253817]]]}},{"type":"Feature","id":"gebouw/Gebouw.20802153/0","properties":{"source":"Digitaal Vlaanderen Gebouwenregister","source_id":"gebouw/Gebouw.20802153/0","kind":"building","building":"official","height_m":7.35,"status":null},"geometry":{"type":"Polygon","coordinates":[[[3.95817167,50.91273921],[3.95811557,50.91275672],[3.95808103,50.91271252],[3.95813713,50.912695],[3.95817167,50.91273921]]]}},{"type":"Feature","id":"gebouw/Gebouw.20802156/0","properties":{"source":"Digitaal Vlaanderen Gebouwenregister","source_id":"gebouw/Gebouw.20802156/0","kind":"building","building":"official","height_m":5.1,"status":null},"geometry":{"type":"Polygon","coordinates":[[[3.95802929,50.91342296],[3.95806097,50.91333784],[3.95821152,50.91336024],[3.95817984,50.91344536],[3.95802929,50.91342296]]]}},{"type":"Feature","id":"gebouw/Gebouw.30731094/0","properties":{"source":"Digitaal Vlaanderen Gebouwenregister","source_id":"gebouw/Gebouw.30731094/0","kind":"building","building":"official","height_m":5.1,"status":null},"geometry":{"type":"Polygon","coordinates":[[[3.95757978,50.91190401],[3.95774586,50.91191414],[3.95774015,50.9119516],[3.9577045,50.91194938],[3.95769318,50.91202216],[3.95768178,50.91202145],[3.95767582,50.91206056],[3.95755707,50.91205282],[3.95757978,50.91190401]]]}},{"type":"Feature","id":"gebouw/Gebouw.30731132/0","properties":{"source":"Digitaal Vlaanderen Gebouwenregister","source_id":"gebouw/Gebouw.30731132/0","kind":"building","building":"official","height_m":6.6,"status":null},"geometry":{"type":"Polygon","coordinates":[[[3.95754773,50.91181994],[3.95761508,50.91183529],[3.95761151,50.9118734],[3.95754293,50.91187147],[3.95754773,50.91181994]]]}},{"type":"Feature","id":"gebouw/Gebouw.30883274/0","properties":{"source":"Digitaal Vlaanderen Gebouwenregister","source_id":"gebouw/Gebouw.30883274/0","kind":"building","building":"official","height_m":6.6,"status":null},"geometry":{"type":"Polygon","coordinates":[[[3.95308454,50.90884909],[3.95314605,50.90890824],[3.95303881,50.90895285],[3.95294657,50.90886415],[3.95279535,50.90871872],[3.9529026,50.90867411],[3.95308454,50.90884909]]]}},{"type":"Feature","id":"gebouw/Gebouw.31089965/0","properties":{"source":"Digitaal Vlaanderen Gebouwenregister","source_id":"gebouw/Gebouw.31089965/0","kind":"building","building":"official","height_m":8.85,"status":null},"geometry":{"type":"Polygon","coordinates":[[[3.96146349,50.91307706],[3.96148627,50.91305145],[3.9614355,50.91303995],[3.96144587,50.91302724],[3.96138936,50.91300881],[3.96138182,50.91301825],[3.96137276,50.91302985],[3.96133913,50.91307292],[3.96128799,50.91313559],[3.96126955,50.91316542],[3.96136,50.91318896],[3.96136617,50.9131799],[3.96139649,50.91319059],[3.9613918,50.91319648],[3.96139906,50.91319907],[3.96139965,50.91319928],[3.96144457,50.91315018],[3.96140917,50.91313815],[3.96145675,50.91308464],[3.96146349,50.91307706]]]}},{"type":"Feature","id":"gebouw/Gebouw.31089966/0","properties":{"source":"Digitaal Vlaanderen Gebouwenregister","source_id":"gebouw/Gebouw.31089966/0","kind":"building","building":"official","height_m":5.1,"status":null},"geometry":{"type":"Polygon","coordinates":[[[3.96139695,50.91327124],[3.96140817,50.91324097],[3.96127792,50.91322181],[3.96125275,50.91328943],[3.96125157,50.91328925],[3.96125123,50.91328919],[3.96124612,50.91330238],[3.9612476,50.91330263],[3.9612426,50.91331554],[3.96137054,50.91333512],[3.96137313,50.91333551],[3.96139695,50.91327124]]]}},{"type":"Feature","id":"gebouw/Gebouw.31527114/0","properties":{"source":"Digitaal Vlaanderen Gebouwenregister","source_id":"gebouw/Gebouw.31527114/0","kind":"building","building":"official","height_m":5.1,"status":null},"geometry":{"type":"Polygon","coordinates":[[[3.95845629,50.91297317],[3.9584807,50.91299092],[3.9585169,50.91297101],[3.95849249,50.91295326],[3.95845629,50.91297317]]]}},{"type":"Feature","id":"gebouw/Gebouw.31844510/0","properties":{"source":"Digitaal Vlaanderen Gebouwenregister","source_id":"gebouw/Gebouw.31844510/0","kind":"building","building":"official","height_m":6.6,"status":null},"geometry":{"type":"Polygon","coordinates":[[[3.95813033,50.91250945],[3.95812935,50.91256583],[3.95817362,50.91256613],[3.9581746,50.91250976],[3.95813033,50.91250945]]]}},{"type":"Feature","id":"gebouw/Gebouw.31844848/0","properties":{"source":"Digitaal Vlaanderen Gebouwenregister","source_id":"gebouw/Gebouw.31844848/0","kind":"building","building":"official","height_m":8.1,"status":null},"geometry":{"type":"Polygon","coordinates":[[[3.96046154,50.91354026],[3.96038732,50.91352439],[3.96037248,50.91355329],[3.96037041,50.91355733],[3.960444,50.91357306],[3.96044616,50.91356903],[3.96046154,50.91354026]]]}},{"type":"Feature","id":"gebouw/Gebouw.31845216/0","properties":{"source":"Digitaal Vlaanderen Gebouwenregister","source_id":"gebouw/Gebouw.31845216/0","kind":"building","building":"official","height_m":5.1,"status":null},"geometry":{"type":"Polygon","coordinates":[[[3.95872051,50.91297733],[3.95870015,50.91302118],[3.95878418,50.91303678],[3.95880454,50.91299292],[3.95872051,50.91297733]]]}},{"type":"Feature","id":"way/150595256","properties":{"source":"OpenStreetMap","source_id":"way/150595256","kind":"waterway","waterway":"stream","name":"Ter Erpenbeek"},"geometry":{"type":"LineString","coordinates":[[3.9605664,50.9095183],[3.9599651,50.9095328],[3.9598588,50.9095699]]}},{"type":"Feature","id":"way/159339246","properties":{"source":"OpenStreetMap","source_id":"way/159339246","kind":"water","name":null},"geometry":{"type":"Polygon","coordinates":[[[3.96038,50.9120386],[3.9615383,50.9121779],[3.9616193,50.9121718],[3.9616898,50.9119546],[3.9616558,50.9119259],[3.9614859,50.9118887],[3.9604405,50.9118395],[3.96038,50.9120386]]]}},{"type":"Feature","id":"way/159339249","properties":{"source":"OpenStreetMap","source_id":"way/159339249","kind":"water","name":null},"geometry":{"type":"Polygon","coordinates":[[[3.9627763,50.9127294],[3.9630046,50.9127507],[3.9630268,50.9127293],[3.9631866,50.9125754],[3.9631912,50.9125173],[3.9632593,50.9117481],[3.9632302,50.9117121],[3.9631274,50.9117096],[3.9630334,50.9117137],[3.9629692,50.9117263],[3.9629181,50.9117894],[3.9627527,50.9126966],[3.9627763,50.9127294]]]}},{"type":"Feature","id":"way/163111220","properties":{"source":"OpenStreetMap","source_id":"way/163111220","kind":"vegetation","landuse":"forest","natural":null,"name":null},"geometry":{"type":"Polygon","coordinates":[[[3.9590486,50.9127553],[3.9595437,50.9127705],[3.9595559,50.9127847],[3.9596366,50.9128503],[3.9595611,50.9129952],[3.9594924,50.9131865],[3.9594766,50.9132261],[3.9594575,50.9132497],[3.9593867,50.9132173],[3.9592824,50.9131222],[3.9590958,50.9130156],[3.9590424,50.9129072],[3.9590486,50.9127553]]]}},{"type":"Feature","id":"way/163111302","properties":{"source":"OpenStreetMap","source_id":"way/163111302","kind":"vegetation","landuse":"forest","natural":null,"name":"Blauwbos (Den Dotter)"},"geometry":{"type":"Polygon","coordinates":[[[3.9636117,50.9127746],[3.9632151,50.9128211],[3.9631326,50.9127843],[3.9632337,50.9127024],[3.963187,50.9126775],[3.9632649,50.9125973],[3.9633669,50.9117317],[3.9633039,50.9116503],[3.9629128,50.911691],[3.9628828,50.9118],[3.9623942,50.91186],[3.9623149,50.911956],[3.9622631,50.9119922],[3.96218,50.9120501],[3.9622084,50.9122544],[3.9622246,50.9122879],[3.9616117,50.9122171],[3.9616201,50.9121844],[3.9618548,50.9121883],[3.9618534,50.9120202],[3.9619599,50.9120139],[3.9619488,50.9119383],[3.9619134,50.9119327],[3.9616483,50.9118921],[3.9614361,50.9118571],[3.9604081,50.9118123],[3.9603281,50.9120697],[3.9602399,50.9123496],[3.9597372,50.9127555],[3.9596839,50.9126254],[3.9598633,50.9123566],[3.9599268,50.9122598],[3.9600214,50.9121622],[3.9600663,50.9119896],[3.9601731,50.911749],[3.9601851,50.9116069],[3.9599653,50.9115942],[3.9595163,50.9115765],[3.9595391,50.9113184],[3.9603153,50.9114515],[3.9603606,50.9113031],[3.9603785,50.9112466],[3.9603616,50.9111334],[3.9603485,50.9110995],[3.9601164,50.9109524],[3.9599743,50.9107856],[3.959883,50.9105899],[3.9598623,50.9105861],[3.9596025,50.9108084],[3.959713,50.910123],[3.9598054,50.910112],[3.9600256,50.9105154],[3.9601705,50.9105268],[3.9604602,50.9108731],[3.9607137,50.910835],[3.9610547,50.9108198],[3.9614741,50.9108274],[3.9615164,50.9105268],[3.9609249,50.9104906],[3.9606865,50.9104431],[3.9605481,50.9104094],[3.9605585,50.9103232],[3.9605682,50.9101677],[3.9605545,50.9100679],[3.9605866,50.9099271],[3.9622346,50.909981],[3.9629326,50.9100038],[3.9630941,50.91001],[3.9633473,50.9100157],[3.963286,50.9105681],[3.9632944,50.9106975],[3.9633061,50.9108153],[3.9633682,50.9110127],[3.9634079,50.911182],[3.9633798,50.9116416],[3.9638825,50.9116539],[3.9637884,50.9127209],[3.9637309,50.9127477],[3.9636117,50.9127746]]]}},{"type":"Feature","id":"way/163370936","properties":{"source":"OpenStreetMap","source_id":"way/163370936","kind":"vegetation","landuse":"forest","natural":null,"name":null},"geometry":{"type":"Polygon","coordinates":[[[3.9581962,50.9107215],[3.9586361,50.910917],[3.9582188,50.9113554],[3.9583073,50.9113879],[3.9584173,50.911365],[3.9583878,50.9113135],[3.9587122,50.9109345],[3.9589646,50.9110625],[3.9586764,50.9114407],[3.9587858,50.9114749],[3.9589032,50.9115123],[3.9590135,50.9114258],[3.9591814,50.9111889],[3.9591943,50.9111531],[3.9591558,50.9111282],[3.958545,50.9108038],[3.9582459,50.9106732],[3.9581962,50.9107215]]]}},{"type":"Feature","id":"way/163370961","properties":{"source":"OpenStreetMap","source_id":"way/163370961","kind":"vegetation","landuse":"forest","natural":null,"name":null},"geometry":{"type":"Polygon","coordinates":[[[3.9538942,50.909579],[3.9553548,50.9096112],[3.9553467,50.9097013],[3.953912,50.9096933],[3.9538942,50.909579]]]}},{"type":"Feature","id":"way/163370964","properties":{"source":"OpenStreetMap","source_id":"way/163370964","kind":"vegetation","landuse":"forest","natural":null,"name":null},"geometry":{"type":"Polygon","coordinates":[[[3.9570982,50.9098721],[3.9564879,50.9102951],[3.9562924,50.9101718],[3.9569553,50.9097474],[3.9570394,50.9098215],[3.9570982,50.9098721]]]}},{"type":"Feature","id":"way/163370971","properties":{"source":"OpenStreetMap","source_id":"way/163370971","kind":"vegetation","landuse":"forest","natural":null,"name":null},"geometry":{"type":"Polygon","coordinates":[[[3.95394,50.9118618],[3.9539503,50.911799],[3.9539203,50.9117304],[3.9544416,50.9116121],[3.9546051,50.9116819],[3.9546422,50.9117828],[3.95394,50.9118618]]]}},{"type":"Feature","id":"way/163370990","properties":{"source":"OpenStreetMap","source_id":"way/163370990","kind":"vegetation","landuse":"forest","natural":null,"name":null},"geometry":{"type":"Polygon","coordinates":[[[3.9574839,50.9121445],[3.9580567,50.9123123],[3.9580092,50.9123666],[3.9583456,50.9124555],[3.9582594,50.9125656],[3.9578374,50.912444],[3.9579199,50.9123421],[3.957758,50.9122992],[3.9576997,50.9122823],[3.9574381,50.9122066],[3.9574839,50.9121445]]]}},{"type":"Feature","id":"way/163601403","properties":{"source":"OpenStreetMap","source_id":"way/163601403","kind":"vegetation","landuse":"forest","natural":null,"name":null},"geometry":{"type":"Polygon","coordinates":[[[3.9539417,50.9088023],[3.9534919,50.9088753],[3.9534194,50.9089308],[3.9532623,50.9091556],[3.9532823,50.9093873],[3.9538889,50.9093996],[3.953811,50.9091377],[3.9539444,50.9090824],[3.9538077,50.9089481],[3.9540101,50.9089121],[3.9539417,50.9088023]]]}},{"type":"Feature","id":"way/302794053","properties":{"source":"OpenStreetMap","source_id":"way/302794053","kind":"waterway","waterway":"stream","name":"Ter Erpenbeek"},"geometry":{"type":"LineString","coordinates":[[3.9598588,50.9095699],[3.9597832,50.9096367],[3.9597555,50.9097002],[3.9597436,50.9101316]]}},{"type":"Feature","id":"way/457976738","properties":{"source":"OpenStreetMap","source_id":"way/457976738","kind":"waterway","waterway":"stream","name":null},"geometry":{"type":"LineString","coordinates":[[3.9538582,50.9119142],[3.9539053,50.9119265]]}},{"type":"Feature","id":"way/457976739","properties":{"source":"OpenStreetMap","source_id":"way/457976739","kind":"waterway","waterway":"stream","name":"'t Sijp"},"geometry":{"type":"LineString","coordinates":[[3.953403,50.9130559],[3.9546292,50.9134809]]}},{"type":"Feature","id":"way/457976740","properties":{"source":"OpenStreetMap","source_id":"way/457976740","kind":"waterway","waterway":"stream","name":"'t Sijp"},"geometry":{"type":"LineString","coordinates":[[3.9533153,50.9130424],[3.953403,50.9130559]]}},{"type":"Feature","id":"way/457976741","properties":{"source":"OpenStreetMap","source_id":"way/457976741","kind":"waterway","waterway":"stream","name":null},"geometry":{"type":"LineString","coordinates":[[3.9530848,50.9132823],[3.9531838,50.9133198]]}},{"type":"Feature","id":"way/457976742","properties":{"source":"OpenStreetMap","source_id":"way/457976742","kind":"waterway","waterway":"stream","name":null},"geometry":{"type":"LineString","coordinates":[[3.9531838,50.9133198],[3.9536306,50.9134863],[3.9538162,50.9133446],[3.9541761,50.9135486],[3.9544957,50.9136792],[3.9546133,50.9135085]]}},{"type":"Feature","id":"way/457976743","properties":{"source":"OpenStreetMap","source_id":"way/457976743","kind":"waterway","waterway":"stream","name":null},"geometry":{"type":"LineString","coordinates":[[3.9546292,50.9134809],[3.9546139,50.9135077]]}},{"type":"Feature","id":"way/457976748","properties":{"source":"OpenStreetMap","source_id":"way/457976748","kind":"waterway","waterway":"stream","name":null},"geometry":{"type":"LineString","coordinates":[[3.9539053,50.9119265],[3.9539204,50.911931],[3.9539919,50.9119452],[3.954231,50.912134],[3.9545395,50.9121351],[3.9545347,50.9122587],[3.95456,50.9123706],[3.9550631,50.9129242],[3.9551556,50.9130981],[3.9547887,50.913318],[3.9546752,50.9133937],[3.9546292,50.9134809]]}},{"type":"Feature","id":"way/457979814","properties":{"source":"OpenStreetMap","source_id":"way/457979814","kind":"waterway","waterway":"stream","name":null},"geometry":{"type":"LineString","coordinates":[[3.963175,50.9095148],[3.9631353,50.9095499],[3.9629918,50.9096482],[3.962971,50.9096599],[3.9629521,50.9096648],[3.9629324,50.9096648],[3.9629095,50.9096558],[3.9628545,50.9096193],[3.9628046,50.90958],[3.9626257,50.9094652],[3.9625252,50.9093935],[3.9624407,50.909342],[3.9623321,50.9091969],[3.9621988,50.9090673],[3.962096,50.9089424],[3.9620458,50.9089079],[3.9620181,50.9088702],[3.9619889,50.9088404],[3.9619554,50.908822],[3.9618891,50.9088147],[3.9618148,50.9088073],[3.9616385,50.9087761],[3.9612803,50.9086902]]}}]}