{"type":"FeatureCollection","features":[{"type":"Feature","id":"gebouw/Gebouw.13030363/0","properties":{"source":"Digitaal Vlaanderen Gebouwenregister","source_id":"gebouw/Gebouw.13030363/0","kind":"building","building":"official","height_m":5.85,"status":null},"geometry":{"type":"Polygon","coordinates":[[[3.97018006,50.90668514],[3.97016041,50.90668091],[3.97008371,50.90672721],[3.97008587,50.90672865],[3.97004389,50.90676417],[3.97003035,50.9067609],[3.97002917,50.9067607],[3.97002353,50.90676053],[3.97001814,50.90676163],[3.97001373,50.90676386],[3.96996684,50.90681313],[3.96995441,50.90682619],[3.9700322,50.90684873],[3.97013746,50.90674745],[3.97024436,50.90677005],[3.97016929,50.9069119],[3.97016782,50.90691467],[3.97021102,50.90692385],[3.97019338,50.90695238],[3.97025642,50.9069662],[3.97027339,50.90693748],[3.97029244,50.90694119],[3.97034914,50.90682843],[3.97037198,50.90683273],[3.97042148,50.90673709],[3.97018006,50.90668514]]]}},{"type":"Feature","id":"gebouw/Gebouw.13081535/0","properties":{"source":"Digitaal Vlaanderen Gebouwenregister","source_id":"gebouw/Gebouw.13081535/0","kind":"building","building":"official","height_m":8.85,"status":null},"geometry":{"type":"Polygon","coordinates":[[[3.96623993,50.90266875],[3.96631972,50.90272581],[3.96632176,50.90272727],[3.96639139,50.90277706],[3.96629885,50.90282716],[3.96623301,50.90277858],[3.96623042,50.90277667],[3.96615334,50.9027198],[3.96619471,50.90269596],[3.96616341,50.90267213],[3.96620593,50.90264935],[3.96620966,50.90264727],[3.96623993,50.90266875]]]}},{"type":"Feature","id":"gebouw/Gebouw.13082666/0","properties":{"source":"Digitaal Vlaanderen Gebouwenregister","source_id":"gebouw/Gebouw.13082666/0","kind":"building","building":"official","height_m":6.6,"status":null},"geometry":{"type":"Polygon","coordinates":[[[3.96340125,50.90265874],[3.96332154,50.90282431],[3.96314254,50.90278975],[3.96314442,50.90278584],[3.96322216,50.90262436],[3.96327356,50.90263423],[3.96339521,50.90265758],[3.96340125,50.90265874]]]}},{"type":"Feature","id":"gebouw/Gebouw.13104779/0","properties":{"source":"Digitaal Vlaanderen Gebouwenregister","source_id":"gebouw/Gebouw.13104779/0","kind":"building","building":"official","height_m":8.85,"status":null},"geometry":{"type":"Polygon","coordinates":[[[3.96909824,50.90602358],[3.9691033,50.90600195],[3.96917523,50.90600586],[3.96917147,50.90602858],[3.96909824,50.90602358]]]}},{"type":"Feature","id":"gebouw/Gebouw.13121135/0","properties":{"source":"Digitaal Vlaanderen Gebouwenregister","source_id":"gebouw/Gebouw.13121135/0","kind":"building","building":"official","height_m":8.85,"status":null},"geometry":{"type":"Polygon","coordinates":[[[3.96644708,50.9026819],[3.96661245,50.90270131],[3.96662063,50.90267409],[3.96658203,50.90266945],[3.96660081,50.90260702],[3.96647394,50.90259176],[3.96644708,50.9026819]]]}},{"type":"Feature","id":"gebouw/Gebouw.13130884/0","properties":{"source":"Digitaal Vlaanderen Gebouwenregister","source_id":"gebouw/Gebouw.13130884/0","kind":"building","building":"official","height_m":8.1,"status":null},"geometry":{"type":"Polygon","coordinates":[[[3.96912041,50.90641],[3.96897189,50.90638722],[3.96898344,50.90635712],[3.96913137,50.90637981],[3.96912041,50.90641]]]}},{"type":"Feature","id":"gebouw/Gebouw.13138008/0","properties":{"source":"Digitaal Vlaanderen Gebouwenregister","source_id":"gebouw/Gebouw.13138008/0","kind":"building","building":"official","height_m":5.1,"status":null},"geometry":{"type":"Polygon","coordinates":[[[3.97130869,50.90643131],[3.97123901,50.90641343],[3.97126119,50.90637968],[3.97126593,50.90638065],[3.97127551,50.90636602],[3.97135143,50.90638308],[3.97133886,50.90640099],[3.97132943,50.90639814],[3.97130869,50.90643131]]]}},{"type":"Feature","id":"gebouw/Gebouw.13156347/0","properties":{"source":"Digitaal Vlaanderen Gebouwenregister","source_id":"gebouw/Gebouw.13156347/0","kind":"building","building":"official","height_m":7.35,"status":null},"geometry":{"type":"Polygon","coordinates":[[[3.9656786,50.9030783],[3.96563442,50.90307237],[3.96564344,50.90304212],[3.96568701,50.90304662],[3.9656786,50.9030783]]]}},{"type":"Feature","id":"gebouw/Gebouw.13196592/0","properties":{"source":"Digitaal Vlaanderen Gebouwenregister","source_id":"gebouw/Gebouw.13196592/0","kind":"building","building":"official","height_m":5.1,"status":null},"geometry":{"type":"Polygon","coordinates":[[[3.96732705,50.90325911],[3.96751359,50.90326509],[3.96751102,50.90330897],[3.96757355,50.90331001],[3.96757042,50.90334617],[3.96732135,50.9033395],[3.96732705,50.90325911]]]}},{"type":"Feature","id":"gebouw/Gebouw.13220480/0","properties":{"source":"Digitaal Vlaanderen Gebouwenregister","source_id":"gebouw/Gebouw.13220480/0","kind":"building","building":"official","height_m":6.6,"status":null},"geometry":{"type":"Polygon","coordinates":[[[3.96312348,50.90264988],[3.96302333,50.90262819],[3.96318496,50.902342],[3.96324615,50.90234829],[3.96320917,50.90244153],[3.96333604,50.90246264],[3.96333678,50.90246067],[3.96334254,50.90246158],[3.9633422,50.90246246],[3.96339375,50.90247135],[3.96339426,50.90247056],[3.96341687,50.90247444],[3.96341648,50.90247537],[3.96341801,50.90247563],[3.96346538,50.9024837],[3.96346596,50.90248287],[3.96349276,50.90248773],[3.96354536,50.90249785],[3.96354563,50.9024979],[3.96347773,50.90263175],[3.96347278,50.90263101],[3.96339783,50.90261981],[3.96342984,50.90255415],[3.96331081,50.90253515],[3.96329922,50.90256454],[3.96322665,50.90255251],[3.96322424,50.902557],[3.96316132,50.902547],[3.96312348,50.90264988]]]}},{"type":"Feature","id":"gebouw/Gebouw.13270048/0","properties":{"source":"Digitaal Vlaanderen Gebouwenregister","source_id":"gebouw/Gebouw.13270048/0","kind":"building","building":"official","height_m":8.1,"status":null},"geometry":{"type":"Polygon","coordinates":[[[3.96981908,50.90643785],[3.96973059,50.90645073],[3.96972193,50.90642227],[3.96969437,50.90642615],[3.96968474,50.9064275],[3.96965613,50.90634192],[3.96966864,50.9063403],[3.96969592,50.90633675],[3.96982986,50.90631936],[3.96985778,50.90640285],[3.96980927,50.90640958],[3.96981908,50.90643785]]]}},{"type":"Feature","id":"gebouw/Gebouw.13286113/0","properties":{"source":"Digitaal Vlaanderen Gebouwenregister","source_id":"gebouw/Gebouw.13286113/0","kind":"building","building":"official","height_m":5.85,"status":null},"geometry":{"type":"Polygon","coordinates":[[[3.96666108,50.90306571],[3.96659467,50.903062],[3.96659917,50.90304161],[3.9666642,50.90304623],[3.96666108,50.90306571]]]}},{"type":"Feature","id":"gebouw/Gebouw.13301180/0","properties":{"source":"Digitaal Vlaanderen Gebouwenregister","source_id":"gebouw/Gebouw.13301180/0","kind":"building","building":"official","height_m":6.6,"status":null},"geometry":{"type":"Polygon","coordinates":[[[3.96512029,50.9031637],[3.96492885,50.90313829],[3.96493066,50.90313236],[3.96494331,50.90309103],[3.96519661,50.90311804],[3.96518277,50.90316779],[3.96530505,50.90318296],[3.96529657,50.90320955],[3.96534754,50.90321605],[3.965356,50.90318955],[3.9653753,50.90319205],[3.96540545,50.90309305],[3.96542171,50.90303968],[3.96522961,50.90301588],[3.96521961,50.90305143],[3.9651765,50.90304256],[3.96501228,50.90302546],[3.96500873,50.90303954],[3.96500653,50.90303933],[3.9648899,50.90302844],[3.96485865,50.90313358],[3.96491934,50.9031408],[3.96491782,50.90314591],[3.96489209,50.90314202],[3.96487426,50.90314519],[3.96486229,50.9031538],[3.96485643,50.90316543],[3.96486219,50.90317768],[3.96487725,50.90318505],[3.96490546,50.90318753],[3.96489594,50.90321955],[3.96509504,50.90324297],[3.96510586,50.90321288],[3.96512341,50.90316411],[3.96512029,50.9031637]]]}},{"type":"Feature","id":"gebouw/Gebouw.13321335/0","properties":{"source":"Digitaal Vlaanderen Gebouwenregister","source_id":"gebouw/Gebouw.13321335/0","kind":"building","building":"official","height_m":7.35,"status":null},"geometry":{"type":"Polygon","coordinates":[[[3.96895336,50.90641126],[3.9689128,50.90645805],[3.96885401,50.90643747],[3.96889336,50.90639194],[3.96895336,50.90641126]]]}},{"type":"Feature","id":"gebouw/Gebouw.13324004/0","properties":{"source":"Digitaal Vlaanderen Gebouwenregister","source_id":"gebouw/Gebouw.13324004/0","kind":"building","building":"official","height_m":6.6,"status":null},"geometry":{"type":"Polygon","coordinates":[[[3.96444536,50.90690911],[3.96455308,50.90690945],[3.96455375,50.90682497],[3.96458958,50.90682464],[3.96458949,50.9068433],[3.96469015,50.90684269],[3.9646903,50.90683215],[3.9647348,50.90683141],[3.96473375,50.90691131],[3.96467998,50.90691208],[3.96468028,50.90691991],[3.96454296,50.90692033],[3.96454429,50.9069786],[3.964759,50.90697561],[3.96476049,50.90698253],[3.96483735,50.90698229],[3.96483401,50.90695055],[3.96491301,50.9069485],[3.96491332,50.90668308],[3.9647096,50.90668281],[3.96470937,50.9067539],[3.96477251,50.90675399],[3.96477244,50.906775],[3.96443997,50.90677688],[3.96444536,50.90690911]]]}},{"type":"Feature","id":"gebouw/Gebouw.13331646/0","properties":{"source":"Digitaal Vlaanderen Gebouwenregister","source_id":"gebouw/Gebouw.13331646/0","kind":"building","building":"official","height_m":5.1,"status":null},"geometry":{"type":"Polygon","coordinates":[[[3.96933293,50.90600378],[3.96933136,50.90601066],[3.96926897,50.90600672],[3.96927631,50.90597],[3.96934019,50.905972],[3.96933987,50.90597342],[3.96933293,50.90600378]]]}},{"type":"Feature","id":"gebouw/Gebouw.13345992/0","properties":{"source":"Digitaal Vlaanderen Gebouwenregister","source_id":"gebouw/Gebouw.13345992/0","kind":"building","building":"official","height_m":5.1,"status":null},"geometry":{"type":"Polygon","coordinates":[[[3.9691952,50.90625675],[3.96907256,50.90624649],[3.96907233,50.90624747],[3.96906965,50.90625879],[3.96906509,50.90627811],[3.96906424,50.9062817],[3.96906318,50.90628621],[3.96918496,50.90629679],[3.96939692,50.9063152],[3.96940766,50.90627454],[3.9691952,50.90625675]]]}},{"type":"Feature","id":"gebouw/Gebouw.13365483/0","properties":{"source":"Digitaal Vlaanderen Gebouwenregister","source_id":"gebouw/Gebouw.13365483/0","kind":"building","building":"official","height_m":7.35,"status":null},"geometry":{"type":"Polygon","coordinates":[[[3.96970196,50.90644759],[3.96969101,50.90647763],[3.96948517,50.9064448],[3.9694787,50.90646111],[3.96934045,50.90643983],[3.96937534,50.90636283],[3.96950906,50.90638214],[3.9694956,50.90641622],[3.96970196,50.90644759]]]}},{"type":"Feature","id":"gebouw/Gebouw.13382437/0","properties":{"source":"Digitaal Vlaanderen Gebouwenregister","source_id":"gebouw/Gebouw.13382437/0","kind":"building","building":"official","height_m":5.85,"status":null},"geometry":{"type":"Polygon","coordinates":[[[3.96826315,50.90652445],[3.96820962,50.90650403],[3.96823995,50.90647242],[3.96829134,50.90649252],[3.96826315,50.90652445]]]}},{"type":"Feature","id":"gebouw/Gebouw.13403519/0","properties":{"source":"Digitaal Vlaanderen Gebouwenregister","source_id":"gebouw/Gebouw.13403519/0","kind":"building","building":"official","height_m":8.85,"status":null},"geometry":{"type":"Polygon","coordinates":[[[3.96880268,50.90645357],[3.96887856,50.90646915],[3.96885541,50.90649821],[3.96877619,50.90648086],[3.96880268,50.90645357]]]}},{"type":"Feature","id":"gebouw/Gebouw.13406407/0","properties":{"source":"Digitaal Vlaanderen Gebouwenregister","source_id":"gebouw/Gebouw.13406407/0","kind":"building","building":"official","height_m":5.85,"status":null},"geometry":{"type":"Polygon","coordinates":[[[3.96415676,50.90269291],[3.96398265,50.90266532],[3.96400597,50.90260648],[3.96418008,50.90263408],[3.96415676,50.90269291]]]}},{"type":"Feature","id":"gebouw/Gebouw.13415734/0","properties":{"source":"Digitaal Vlaanderen Gebouwenregister","source_id":"gebouw/Gebouw.13415734/0","kind":"building","building":"official","height_m":8.1,"status":null},"geometry":{"type":"Polygon","coordinates":[[[3.96963656,50.90685841],[3.96970938,50.90672664],[3.96950691,50.90667751],[3.96950427,50.90668236],[3.96945362,50.90667136],[3.96940194,50.90676646],[3.96945259,50.90677747],[3.9694315,50.90681627],[3.96963656,50.90685841]]]}},{"type":"Feature","id":"gebouw/Gebouw.13424536/0","properties":{"source":"Digitaal Vlaanderen Gebouwenregister","source_id":"gebouw/Gebouw.13424536/0","kind":"building","building":"official","height_m":8.1,"status":null},"geometry":{"type":"Polygon","coordinates":[[[3.97013553,50.90657408],[3.970105,50.90656601],[3.9701293,50.9065289],[3.97015864,50.90653665],[3.97013553,50.90657408]]]}},{"type":"Feature","id":"gebouw/Gebouw.13455470/0","properties":{"source":"Digitaal Vlaanderen Gebouwenregister","source_id":"gebouw/Gebouw.13455470/0","kind":"building","building":"official","height_m":6.6,"status":null},"geometry":{"type":"Polygon","coordinates":[[[3.964929,50.90345396],[3.96477621,50.90343855],[3.96482553,50.9032562],[3.96497316,50.90326881],[3.964929,50.90345396]]]}},{"type":"Feature","id":"gebouw/Gebouw.13462091/0","properties":{"source":"Digitaal Vlaanderen Gebouwenregister","source_id":"gebouw/Gebouw.13462091/0","kind":"building","building":"official","height_m":8.85,"status":null},"geometry":{"type":"Polygon","coordinates":[[[3.96926857,50.90603493],[3.96927258,50.90601355],[3.96920637,50.9060086],[3.96920236,50.90602997],[3.96926857,50.90603493]]]}},{"type":"Feature","id":"gebouw/Gebouw.13467914/0","properties":{"source":"Digitaal Vlaanderen Gebouwenregister","source_id":"gebouw/Gebouw.13467914/0","kind":"building","building":"official","height_m":6.6,"status":null},"geometry":{"type":"Polygon","coordinates":[[[3.96979143,50.90662428],[3.96981251,50.90662897],[3.96979001,50.90666951],[3.96958503,50.90662883],[3.96961359,50.90657744],[3.96966314,50.90658741],[3.96969419,50.90653258],[3.96980699,50.90655721],[3.96977406,50.90661651],[3.96977213,50.90662],[3.96979143,50.90662428]]]}},{"type":"Feature","id":"gebouw/Gebouw.13473044/0","properties":{"source":"Digitaal Vlaanderen Gebouwenregister","source_id":"gebouw/Gebouw.13473044/0","kind":"building","building":"official","height_m":6.6,"status":null},"geometry":{"type":"Polygon","coordinates":[[[3.96596946,50.90302444],[3.96595358,50.90302141],[3.96595115,50.90302518],[3.96590632,50.90301641],[3.96586576,50.90300884],[3.96584222,50.90300429],[3.96586067,50.90295841],[3.96590292,50.90296596],[3.96592735,50.90286167],[3.96596016,50.90286451],[3.96597741,50.90280598],[3.96586229,50.90279377],[3.96587032,50.90276706],[3.96590411,50.9027718],[3.96593045,50.90269415],[3.96606623,50.90271163],[3.96603968,50.90278968],[3.96603219,50.90281121],[3.96601407,50.90287588],[3.96600313,50.90290898],[3.96600173,50.9029088],[3.96598861,50.9029617],[3.96596946,50.90302444]]]}},{"type":"Feature","id":"gebouw/Gebouw.13477775/0","properties":{"source":"Digitaal Vlaanderen Gebouwenregister","source_id":"gebouw/Gebouw.13477775/0","kind":"building","building":"official","height_m":8.85,"status":null},"geometry":{"type":"Polygon","coordinates":[[[3.96594123,50.90283645],[3.96585376,50.9028262],[3.96586227,50.90279773],[3.96594693,50.90280838],[3.96594123,50.90283645]]]}},{"type":"Feature","id":"gebouw/Gebouw.13512422/0","properties":{"source":"Digitaal Vlaanderen Gebouwenregister","source_id":"gebouw/Gebouw.13512422/0","kind":"building","building":"official","height_m":6.6,"status":null},"geometry":{"type":"Polygon","coordinates":[[[3.96932763,50.90643189],[3.96925066,50.9064196],[3.96925156,50.90641388],[3.96919454,50.90640579],[3.96920963,50.90636584],[3.96926709,50.90637425],[3.96927664,50.90635114],[3.96935525,50.90636267],[3.96932763,50.90643189]]]}},{"type":"Feature","id":"gebouw/Gebouw.13551671/0","properties":{"source":"Digitaal Vlaanderen Gebouwenregister","source_id":"gebouw/Gebouw.13551671/0","kind":"building","building":"official","height_m":8.85,"status":null},"geometry":{"type":"Polygon","coordinates":[[[3.96571969,50.90291441],[3.96566252,50.90290828],[3.9656964,50.90277891],[3.96575242,50.90278434],[3.96571969,50.90291441]]]}},{"type":"Feature","id":"gebouw/Gebouw.13575287/0","properties":{"source":"Digitaal Vlaanderen Gebouwenregister","source_id":"gebouw/Gebouw.13575287/0","kind":"building","building":"official","height_m":8.85,"status":null},"geometry":{"type":"Polygon","coordinates":[[[3.96961921,50.90622394],[3.96956846,50.90622078],[3.96956937,50.90621563],[3.96951838,50.90621442],[3.9694467,50.90620531],[3.96926745,50.90618255],[3.96927318,50.90616504],[3.9694047,50.90617859],[3.96941086,50.90616449],[3.96953197,50.90617519],[3.96952821,50.90618872],[3.96956966,50.90619074],[3.9695722,50.90615517],[3.96957603,50.90615477],[3.9695794,50.9061234],[3.96962716,50.90612176],[3.96975601,50.90612894],[3.9697458,50.90621912],[3.9696205,50.90621324],[3.96961921,50.90622394]]]}},{"type":"Feature","id":"gebouw/Gebouw.13577167/0","properties":{"source":"Digitaal Vlaanderen Gebouwenregister","source_id":"gebouw/Gebouw.13577167/0","kind":"building","building":"official","height_m":5.85,"status":null},"geometry":{"type":"Polygon","coordinates":[[[3.96969492,50.90603761],[3.96954393,50.90602801],[3.9695394,50.9060537],[3.96938436,50.90604312],[3.96939166,50.9060142],[3.96945046,50.90601855],[3.96945518,50.9059892],[3.9695205,50.90599382],[3.9695766,50.90599779],[3.96957815,50.90598239],[3.96958108,50.90595335],[3.96970767,50.90596412],[3.96969492,50.90603761]]]}},{"type":"Feature","id":"gebouw/Gebouw.13607267/0","properties":{"source":"Digitaal Vlaanderen Gebouwenregister","source_id":"gebouw/Gebouw.13607267/0","kind":"building","building":"official","height_m":8.85,"status":null},"geometry":{"type":"Polygon","coordinates":[[[3.96925555,50.90599328],[3.96918842,50.90598837],[3.96919066,50.90597015],[3.96925925,50.90597401],[3.96925555,50.90599328]]]}},{"type":"Feature","id":"gebouw/Gebouw.13759415/0","properties":{"source":"Digitaal Vlaanderen Gebouwenregister","source_id":"gebouw/Gebouw.13759415/0","kind":"building","building":"official","height_m":8.85,"status":null},"geometry":{"type":"Polygon","coordinates":[[[3.96603124,50.90299013],[3.96602712,50.90294414],[3.96607674,50.90294251],[3.96608283,50.90298865],[3.96603124,50.90299013]]]}},{"type":"Feature","id":"gebouw/Gebouw.13759416/0","properties":{"source":"Digitaal Vlaanderen Gebouwenregister","source_id":"gebouw/Gebouw.13759416/0","kind":"building","building":"official","height_m":5.1,"status":null},"geometry":{"type":"Polygon","coordinates":[[[3.96690223,50.90273144],[3.96684064,50.90272526],[3.9668477,50.90269712],[3.96690929,50.9027033],[3.96690223,50.90273144]]]}},{"type":"Feature","id":"gebouw/Gebouw.16748726/0","properties":{"source":"Digitaal Vlaanderen Gebouwenregister","source_id":"gebouw/Gebouw.16748726/0","kind":"building","building":"official","height_m":6.6,"status":null},"geometry":{"type":"Polygon","coordinates":[[[3.96615546,50.9027246],[3.96611912,50.90283573],[3.96611738,50.90284104],[3.96604828,50.90283183],[3.96604985,50.90282709],[3.96608693,50.90271573],[3.96615546,50.9027246]]]}},{"type":"Feature","id":"gebouw/Gebouw.18295581/0","properties":{"source":"Digitaal Vlaanderen Gebouwenregister","source_id":"gebouw/Gebouw.18295581/0","kind":"building","building":"official","height_m":7.35,"status":null},"geometry":{"type":"Polygon","coordinates":[[[3.96546945,50.90339551],[3.96546262,50.9034498],[3.96542254,50.9034478],[3.96543118,50.90339319],[3.96546945,50.90339551]]]}},{"type":"Feature","id":"gebouw/Gebouw.18295643/0","properties":{"source":"Digitaal Vlaanderen Gebouwenregister","source_id":"gebouw/Gebouw.18295643/0","kind":"building","building":"official","height_m":8.85,"status":null},"geometry":{"type":"Polygon","coordinates":[[[3.96585037,50.9031404],[3.9658285,50.90321102],[3.9657874,50.90320494],[3.96580874,50.90313481],[3.96585037,50.9031404]]]}},{"type":"Feature","id":"gebouw/Gebouw.18295644/0","properties":{"source":"Digitaal Vlaanderen Gebouwenregister","source_id":"gebouw/Gebouw.18295644/0","kind":"building","building":"official","height_m":5.1,"status":null},"geometry":{"type":"Polygon","coordinates":[[[3.9660838,50.90331261],[3.96607651,50.90333828],[3.96601316,50.90333299],[3.96602019,50.90330749],[3.9660838,50.90331261]]]}},{"type":"Feature","id":"gebouw/Gebouw.18861982/0","properties":{"source":"Digitaal Vlaanderen Gebouwenregister","source_id":"gebouw/Gebouw.18861982/0","kind":"building","building":"official","height_m":8.1,"status":null},"geometry":{"type":"Polygon","coordinates":[[[3.97052734,50.90622927],[3.97049969,50.9062786],[3.97049689,50.90628359],[3.97038706,50.90625898],[3.97038286,50.90625804],[3.97037566,50.90625643],[3.97024583,50.90622734],[3.97026434,50.90619455],[3.97039242,50.90622325],[3.97040224,50.90622545],[3.97040545,50.90622617],[3.97041576,50.90620775],[3.97041765,50.90620439],[3.97042565,50.90619011],[3.97047108,50.90620028],[3.97053549,50.90621472],[3.97052734,50.90622927]]]}},{"type":"Feature","id":"gebouw/Gebouw.18861983/0","properties":{"source":"Digitaal Vlaanderen Gebouwenregister","source_id":"gebouw/Gebouw.18861983/0","kind":"building","building":"official","height_m":8.85,"status":null},"geometry":{"type":"Polygon","coordinates":[[[3.96998238,50.90526487],[3.97009586,50.90528637],[3.97007564,50.90533049],[3.96996816,50.90530925],[3.96995163,50.90530598],[3.9699718,50.90526286],[3.96998238,50.90526487]]]}},{"type":"Feature","id":"gebouw/Gebouw.18861984/0","properties":{"source":"Digitaal Vlaanderen Gebouwenregister","source_id":"gebouw/Gebouw.18861984/0","kind":"building","building":"official","height_m":5.1,"status":null},"geometry":{"type":"Polygon","coordinates":[[[3.9644252,50.90473462],[3.96443432,50.90470517],[3.96458253,50.90472429],[3.96457315,50.90475534],[3.96443984,50.90473667],[3.9644252,50.90473462]]]}},{"type":"Feature","id":"gebouw/Gebouw.18862554/0","properties":{"source":"Digitaal Vlaanderen Gebouwenregister","source_id":"gebouw/Gebouw.18862554/0","kind":"building","building":"official","height_m":5.1,"status":null},"geometry":{"type":"Polygon","coordinates":[[[3.96928374,50.90681908],[3.96925159,50.90686728],[3.96923991,50.90686417],[3.969228,50.90688203],[3.96915387,50.90686227],[3.96916366,50.90684759],[3.96915758,50.90684597],[3.96919425,50.90679522],[3.96928374,50.90681908]]]}},{"type":"Feature","id":"gebouw/Gebouw.19716963/0","properties":{"source":"Digitaal Vlaanderen Gebouwenregister","source_id":"gebouw/Gebouw.19716963/0","kind":"building","building":"official","height_m":7.35,"status":null},"geometry":{"type":"Polygon","coordinates":[[[3.96962716,50.90612176],[3.96975601,50.90612894],[3.9697458,50.90621912],[3.9696205,50.90621324],[3.96962716,50.90612176]]]}},{"type":"Feature","id":"gebouw/Gebouw.19716964/0","properties":{"source":"Digitaal Vlaanderen Gebouwenregister","source_id":"gebouw/Gebouw.19716964/0","kind":"building","building":"official","height_m":8.1,"status":null},"geometry":{"type":"Polygon","coordinates":[[[3.9696205,50.90621324],[3.96961921,50.90622394],[3.96956846,50.90622078],[3.96956937,50.90621563],[3.96951838,50.90621442],[3.9694467,50.90620531],[3.96926745,50.90618255],[3.96927318,50.90616504],[3.96933804,50.90617077],[3.96933658,50.90617737],[3.96936987,50.90618031],[3.96937409,50.90616124],[3.96953197,50.90617519],[3.96952821,50.90618872],[3.96956966,50.90619074],[3.9695722,50.90615517],[3.96957603,50.90615477],[3.9695794,50.9061234],[3.96962716,50.90612176],[3.9696205,50.90621324]]]}},{"type":"Feature","id":"gebouw/Gebouw.19954694/0","properties":{"source":"Digitaal Vlaanderen Gebouwenregister","source_id":"gebouw/Gebouw.19954694/0","kind":"building","building":"official","height_m":6.6,"status":null},"geometry":{"type":"Polygon","coordinates":[[[3.9737227,50.90602373],[3.97370241,50.90605647],[3.97358799,50.90602812],[3.97360828,50.90599538],[3.9737227,50.90602373]]]}},{"type":"Feature","id":"gebouw/Gebouw.20220240/0","properties":{"source":"Digitaal Vlaanderen Gebouwenregister","source_id":"gebouw/Gebouw.20220240/0","kind":"building","building":"official","height_m":5.1,"status":null},"geometry":{"type":"Polygon","coordinates":[[[3.96585102,50.90314066],[3.96582811,50.90321216],[3.96578851,50.90320709],[3.96581141,50.90313558],[3.96585102,50.90314066]]]}},{"type":"Feature","id":"gebouw/Gebouw.20802148/0","properties":{"source":"Digitaal Vlaanderen Gebouwenregister","source_id":"gebouw/Gebouw.20802148/0","kind":"building","building":"official","height_m":8.1,"status":null},"geometry":{"type":"Polygon","coordinates":[[[3.96928364,50.90663005],[3.96930297,50.9065983],[3.96936006,50.9066122],[3.96935223,50.90662506],[3.9693106,50.90663552],[3.96928364,50.90663005]]]}},{"type":"Feature","id":"gebouw/Gebouw.30883277/0","properties":{"source":"Digitaal Vlaanderen Gebouwenregister","source_id":"gebouw/Gebouw.30883277/0","kind":"building","building":"official","height_m":8.85,"status":null},"geometry":{"type":"Polygon","coordinates":[[[3.96458189,50.90475656],[3.96456974,50.90479128],[3.96442768,50.90477139],[3.96443984,50.90473667],[3.96457315,50.90475534],[3.96458189,50.90475656]]]}},{"type":"Feature","id":"gebouw/Gebouw.30884450/0","properties":{"source":"Digitaal Vlaanderen Gebouwenregister","source_id":"gebouw/Gebouw.30884450/0","kind":"building","building":"official","height_m":6.6,"status":null},"geometry":{"type":"Polygon","coordinates":[[[3.96935059,50.90600491],[3.96933293,50.90600378],[3.96933987,50.90597342],[3.9694133,50.90597812],[3.96940842,50.90600861],[3.96937876,50.90600671],[3.96937602,50.9060091],[3.96937022,50.90601207],[3.96936477,50.90601289],[3.96936019,50.9060128],[3.96935528,50.90601141],[3.96935206,50.90600927],[3.96935051,50.90600633],[3.96935059,50.90600491]]]}},{"type":"Feature","id":"gebouw/Gebouw.30884454/0","properties":{"source":"Digitaal Vlaanderen Gebouwenregister","source_id":"gebouw/Gebouw.30884454/0","kind":"building","building":"official","height_m":5.1,"status":null},"geometry":{"type":"Polygon","coordinates":[[[3.96907233,50.90624747],[3.96888157,50.90622956],[3.96887436,50.90626006],[3.96906509,50.90627811],[3.96906965,50.90625879],[3.96907233,50.90624747]]]}},{"type":"Feature","id":"gebouw/Gebouw.31844511/0","properties":{"source":"Digitaal Vlaanderen Gebouwenregister","source_id":"gebouw/Gebouw.31844511/0","kind":"building","building":"official","height_m":7.35,"status":null},"geometry":{"type":"Polygon","coordinates":[[[3.96949608,50.90612429],[3.96950447,50.9060734],[3.96942967,50.90606847],[3.96942128,50.90611936],[3.96949608,50.90612429]]]}},{"type":"Feature","id":"gebouw/Gebouw.31844755/0","properties":{"source":"Digitaal Vlaanderen Gebouwenregister","source_id":"gebouw/Gebouw.31844755/0","kind":"building","building":"official","height_m":5.85,"status":null},"geometry":{"type":"Polygon","coordinates":[[[3.97053758,50.9049497],[3.97051798,50.90502102],[3.9705841,50.90502829],[3.9706037,50.90495697],[3.97053758,50.9049497]]]}},{"type":"Feature","id":"gebouw/Gebouw.31844826/0","properties":{"source":"Digitaal Vlaanderen Gebouwenregister","source_id":"gebouw/Gebouw.31844826/0","kind":"building","building":"official","height_m":5.1,"status":null},"geometry":{"type":"Polygon","coordinates":[[[3.97189955,50.90658294],[3.97187949,50.90661865],[3.97193508,50.90663113],[3.97195514,50.90659543],[3.97189955,50.90658294]]]}},{"type":"Feature","id":"gebouw/Gebouw.31845318/0","properties":{"source":"Digitaal Vlaanderen Gebouwenregister","source_id":"gebouw/Gebouw.31845318/0","kind":"building","building":"official","height_m":5.1,"status":null},"geometry":{"type":"Polygon","coordinates":[[[3.97290315,50.90656184],[3.97283796,50.90654257],[3.97281092,50.90657915],[3.97287612,50.90659842],[3.97290315,50.90656184]]]}},{"type":"Feature","id":"gebouw/Gebouw.31848150/0","properties":{"source":"Digitaal Vlaanderen Gebouwenregister","source_id":"gebouw/Gebouw.31848150/0","kind":"building","building":"official","height_m":5.1,"status":null},"geometry":{"type":"Polygon","coordinates":[[[3.96531455,50.90338435],[3.96530808,50.90342309],[3.96536356,50.9034268],[3.96537003,50.90338806],[3.96531455,50.90338435]]]}},{"type":"Feature","id":"gebouw/Gebouw.32021937/0","properties":{"source":"Digitaal Vlaanderen Gebouwenregister","source_id":"gebouw/Gebouw.32021937/0","kind":"building","building":"official","height_m":7.35,"status":null},"geometry":{"type":"Polygon","coordinates":[[[3.96674411,50.90270935],[3.96673844,50.90272999],[3.96690917,50.90274873],[3.96691484,50.90272809],[3.96674411,50.90270935]]]}},{"type":"Feature","id":"way/163605980","properties":{"source":"OpenStreetMap","source_id":"way/163605980","kind":"vegetation","landuse":"orchard","natural":null,"name":null},"geometry":{"type":"Polygon","coordinates":[[[3.9654168,50.9027931],[3.9656946,50.9027931],[3.9658301,50.902794],[3.9661591,50.9027279],[3.9663282,50.9026983],[3.9664443,50.9026741],[3.966409,50.9028193],[3.9663921,50.9028888],[3.9663859,50.902912],[3.9664376,50.9030052],[3.9663624,50.9032769],[3.9662752,50.9032668],[3.9662657,50.9033026],[3.9660569,50.9032759],[3.9660533,50.9032915],[3.9659354,50.9032806],[3.9659047,50.9033812],[3.9658913,50.9033801],[3.9658636,50.9034646],[3.965859,50.9034785],[3.965282,50.9034264],[3.9653309,50.9031711],[3.9654168,50.9027931]]]}},{"type":"Feature","id":"way/501466935","properties":{"source":"OpenStreetMap","source_id":"way/501466935","kind":"vegetation","landuse":"orchard","natural":null,"name":null},"geometry":{"type":"Polygon","coordinates":[[[3.9714092,50.9068469],[3.9714682,50.9068172],[3.9715587,50.9067588],[3.9716798,50.9066296],[3.9716958,50.9066144],[3.9717402,50.9065564],[3.9717972,50.9064929],[3.9723195,50.9066185],[3.9723963,50.9066361],[3.9726857,50.9067024],[3.9728544,50.9064387],[3.9738655,50.9066722],[3.9734258,50.9073552],[3.9727338,50.9071844],[3.9717038,50.9069248],[3.9714092,50.9068469]]]}}]}