{"type":"FeatureCollection","features":[{"type":"Feature","id":"way/152746217","properties":{"source":"OpenStreetMap","source_id":"way/152746217","kind":"vegetation","landuse":"forest","natural":null,"name":null},"geometry":{"type":"Polygon","coordinates":[[[4.0086387,50.9565155],[4.0086965,50.956415],[4.0078373,50.9562346],[4.0076102,50.9561212],[4.0073299,50.9560246],[4.0071847,50.9560052],[4.006841,50.9560426],[4.0066998,50.9560117],[4.0064421,50.9559369],[4.0060554,50.9558467],[4.0057138,50.955781],[4.0054274,50.955656],[4.0052862,50.9555671],[4.0052514,50.9555181],[4.0053149,50.9554344],[4.0054028,50.9553802],[4.0052617,50.9553261],[4.0051307,50.955415],[4.0050366,50.9554073],[4.0049834,50.9554305],[4.0048423,50.9555594],[4.0038818,50.9553141],[4.0038355,50.9554526],[4.0046909,50.9556096],[4.0058174,50.9558837],[4.0061086,50.9559292],[4.0063909,50.9559898],[4.0065026,50.9560365],[4.006746,50.9560945],[4.006922,50.9560983],[4.007145,50.956088],[4.0072554,50.9560855],[4.0075868,50.9562105],[4.0078385,50.9563342],[4.0083294,50.9564566],[4.0086387,50.9565155]]]}}]}