{"type":"FeatureCollection","features":[{"type":"Feature","id":"gebouw/Gebouw.13117948/0","properties":{"source":"Digitaal Vlaanderen Gebouwenregister","source_id":"gebouw/Gebouw.13117948/0","kind":"building","building":"official","height_m":8.1,"status":null},"geometry":{"type":"Polygon","coordinates":[[[3.98515447,50.91620895],[3.98507802,50.9163407],[3.98500546,50.91632456],[3.98502086,50.91626818],[3.98502651,50.91625847],[3.98506127,50.91619882],[3.98506717,50.91618869],[3.98515447,50.91620895]]]}},{"type":"Feature","id":"gebouw/Gebouw.16749117/0","properties":{"source":"Digitaal Vlaanderen Gebouwenregister","source_id":"gebouw/Gebouw.16749117/0","kind":"building","building":"official","height_m":7.35,"status":null},"geometry":{"type":"Polygon","coordinates":[[[3.98520692,50.91632361],[3.98518382,50.91636129],[3.98517137,50.91640127],[3.98512561,50.916395],[3.98513549,50.91635344],[3.98507802,50.9163407],[3.98515447,50.91620895],[3.98523464,50.91622779],[3.98519021,50.91630387],[3.98521515,50.9163102],[3.98520772,50.91632231],[3.98520692,50.91632361]]]}},{"type":"Feature","id":"gebouw/Gebouw.16752359/0","properties":{"source":"Digitaal Vlaanderen Gebouwenregister","source_id":"gebouw/Gebouw.16752359/0","kind":"building","building":"official","height_m":8.85,"status":null},"geometry":{"type":"Polygon","coordinates":[[[3.98574111,50.91644789],[3.9857214,50.91644342],[3.98572285,50.91644088],[3.98574262,50.91644537],[3.98574764,50.91643693],[3.98583214,50.9164567],[3.98583779,50.91646512],[3.98585223,50.91646875],[3.98586608,50.91646464],[3.98588768,50.91646993],[3.98584493,50.91653965],[3.98584187,50.91653862],[3.98579821,50.91661147],[3.98564124,50.91657512],[3.98568796,50.91649694],[3.98570857,50.91650226],[3.98574111,50.91644789]]]}},{"type":"Feature","id":"gebouw/Gebouw.16772889/0","properties":{"source":"Digitaal Vlaanderen Gebouwenregister","source_id":"gebouw/Gebouw.16772889/0","kind":"building","building":"official","height_m":7.35,"status":null},"geometry":{"type":"Polygon","coordinates":[[[3.98527313,50.91641339],[3.98526283,50.91643019],[3.98521611,50.91641934],[3.98522783,50.91640161],[3.98521169,50.9163971],[3.98520707,50.916407],[3.98517137,50.91640127],[3.98518382,50.91636129],[3.98520692,50.91632361],[3.98523629,50.91633263],[3.98528297,50.9162577],[3.98535725,50.91627619],[3.98527313,50.91641339]]]}},{"type":"Feature","id":"gebouw/Gebouw.16773426/0","properties":{"source":"Digitaal Vlaanderen Gebouwenregister","source_id":"gebouw/Gebouw.16773426/0","kind":"building","building":"official","height_m":5.1,"status":null},"geometry":{"type":"Polygon","coordinates":[[[3.98541378,50.91640377],[3.98539781,50.91644596],[3.98537917,50.91649524],[3.98535587,50.91649134],[3.98536928,50.91645976],[3.98533204,50.91645056],[3.98534377,50.91643173],[3.98531696,50.9164248],[3.98530652,50.91644034],[3.98526283,50.91643019],[3.98527313,50.91641339],[3.98535725,50.91627619],[3.98543125,50.91629472],[3.98536789,50.91639579],[3.98541378,50.91640377]]]}},{"type":"Feature","id":"gebouw/Gebouw.16781980/0","properties":{"source":"Digitaal Vlaanderen Gebouwenregister","source_id":"gebouw/Gebouw.16781980/0","kind":"building","building":"official","height_m":8.1,"status":null},"geometry":{"type":"Polygon","coordinates":[[[3.98579844,50.91673062],[3.98579765,50.91673195],[3.98573833,50.91671754],[3.98578785,50.91663494],[3.98584684,50.916649],[3.9858219,50.91669106],[3.98579844,50.91673062]]]}},{"type":"Feature","id":"gebouw/Gebouw.16801102/0","properties":{"source":"Digitaal Vlaanderen Gebouwenregister","source_id":"gebouw/Gebouw.16801102/0","kind":"building","building":"official","height_m":8.1,"status":null},"geometry":{"type":"Polygon","coordinates":[[[3.98601504,50.91649981],[3.98601448,50.91650078],[3.98598979,50.91654321],[3.98598459,50.91655215],[3.98598329,50.91655437],[3.98598715,50.91655549],[3.98597867,50.91656928],[3.98595676,50.91656147],[3.98590362,50.91663458],[3.98591162,50.91663701],[3.98588929,50.91666634],[3.98596823,50.91669035],[3.98599055,50.91666103],[3.98601393,50.91666814],[3.98603329,50.91664032],[3.98606321,50.91664851],[3.98610245,50.91659448],[3.98606835,50.91658535],[3.98610584,50.91652093],[3.98601504,50.91649981]]]}},{"type":"Feature","id":"gebouw/Gebouw.16801653/0","properties":{"source":"Digitaal Vlaanderen Gebouwenregister","source_id":"gebouw/Gebouw.16801653/0","kind":"building","building":"official","height_m":7.35,"status":null},"geometry":{"type":"Polygon","coordinates":[[[3.9858219,50.91669106],[3.98586703,50.91670071],[3.98584691,50.91674013],[3.98579844,50.91673062],[3.9858219,50.91669106]]]}},{"type":"Feature","id":"gebouw/Gebouw.16813483/0","properties":{"source":"Digitaal Vlaanderen Gebouwenregister","source_id":"gebouw/Gebouw.16813483/0","kind":"building","building":"official","height_m":5.85,"status":null},"geometry":{"type":"Polygon","coordinates":[[[3.98563978,50.91640245],[3.98557307,50.91651777],[3.9854217,50.91648288],[3.9854892,50.91636731],[3.98555091,50.91638171],[3.98554587,50.9163902],[3.98557372,50.91639647],[3.98557856,50.91638829],[3.98563978,50.91640245]]]}},{"type":"Feature","id":"gebouw/Gebouw.18500240/0","properties":{"source":"Digitaal Vlaanderen Gebouwenregister","source_id":"gebouw/Gebouw.18500240/0","kind":"building","building":"official","height_m":6.6,"status":null},"geometry":{"type":"Polygon","coordinates":[[[3.98478718,50.9161825],[3.98492433,50.91620787],[3.98485648,50.91634102],[3.98478168,50.91632609],[3.98479471,50.91630001],[3.98473481,50.91628805],[3.98478718,50.9161825]]]}},{"type":"Feature","id":"gebouw/Gebouw.18743988/0","properties":{"source":"Digitaal Vlaanderen Gebouwenregister","source_id":"gebouw/Gebouw.18743988/0","kind":"building","building":"official","height_m":5.1,"status":null},"geometry":{"type":"Polygon","coordinates":[[[3.98478718,50.9161825],[3.98473481,50.91628805],[3.98472955,50.916287],[3.98460207,50.91626155],[3.98465172,50.91615684],[3.98478526,50.91618214],[3.98478718,50.9161825]]]}},{"type":"Feature","id":"gebouw/Gebouw.30642737/0","properties":{"source":"Digitaal Vlaanderen Gebouwenregister","source_id":"gebouw/Gebouw.30642737/0","kind":"building","building":"official","height_m":8.85,"status":null},"geometry":{"type":"Polygon","coordinates":[[[3.98495073,50.91659394],[3.9849971,50.91659633],[3.98499115,50.91664239],[3.98494479,50.91664],[3.98495073,50.91659394]]]}},{"type":"Feature","id":"gebouw/Gebouw.30642844/0","properties":{"source":"Digitaal Vlaanderen Gebouwenregister","source_id":"gebouw/Gebouw.30642844/0","kind":"building","building":"official","height_m":8.1,"status":null},"geometry":{"type":"Polygon","coordinates":[[[3.98527313,50.91641339],[3.98526283,50.91643019],[3.98521535,50.91641856],[3.98522564,50.91640177],[3.98520955,50.91639783],[3.98520273,50.91640896],[3.98517137,50.91640127],[3.98518382,50.91636129],[3.98520692,50.91632361],[3.98520772,50.91632231],[3.98520944,50.91632273],[3.98523928,50.91633004],[3.98528339,50.91625809],[3.98535725,50.91627619],[3.98527313,50.91641339]]]}},{"type":"Feature","id":"gebouw/Gebouw.32032197/0","properties":{"source":"Digitaal Vlaanderen Gebouwenregister","source_id":"gebouw/Gebouw.32032197/0","kind":"building","building":"official","height_m":7.35,"status":null},"geometry":{"type":"Polygon","coordinates":[[[3.98510205,50.91669307],[3.98511251,50.91663154],[3.98506828,50.91662854],[3.98505783,50.91669006],[3.98510205,50.91669307]]]}}]}