{"type":"FeatureCollection","features":[{"type":"Feature","id":"gebouw/Gebouw.13003108/0","properties":{"source":"Digitaal Vlaanderen Gebouwenregister","source_id":"gebouw/Gebouw.13003108/0","kind":"building","building":"official","height_m":8.1,"status":null},"geometry":{"type":"Polygon","coordinates":[[[3.98498879,50.92563107],[3.98494067,50.92568801],[3.98471438,50.92561126],[3.98476368,50.92555261],[3.98498879,50.92563107]]]}},{"type":"Feature","id":"gebouw/Gebouw.13104786/0","properties":{"source":"Digitaal Vlaanderen Gebouwenregister","source_id":"gebouw/Gebouw.13104786/0","kind":"building","building":"official","height_m":5.1,"status":null},"geometry":{"type":"Polygon","coordinates":[[[3.9845835,50.92528607],[3.98460193,50.92526204],[3.98466395,50.9252809],[3.98470389,50.92522821],[3.98448797,50.92516317],[3.98445331,50.92515273],[3.98444126,50.92514921],[3.98437978,50.92522453],[3.98458318,50.92528649],[3.9845835,50.92528607]]]}},{"type":"Feature","id":"gebouw/Gebouw.13213690/0","properties":{"source":"Digitaal Vlaanderen Gebouwenregister","source_id":"gebouw/Gebouw.13213690/0","kind":"building","building":"official","height_m":8.1,"status":null},"geometry":{"type":"Polygon","coordinates":[[[3.98507981,50.92545541],[3.98490165,50.92539331],[3.98485374,50.92544824],[3.98503246,50.92551009],[3.98503493,50.92550724],[3.98508183,50.92552346],[3.98512662,50.92547173],[3.98507981,50.92545541]]]}},{"type":"Feature","id":"gebouw/Gebouw.13248734/0","properties":{"source":"Digitaal Vlaanderen Gebouwenregister","source_id":"gebouw/Gebouw.13248734/0","kind":"building","building":"official","height_m":6.6,"status":null},"geometry":{"type":"Polygon","coordinates":[[[3.98465739,50.92303648],[3.98467736,50.92300392],[3.98458008,50.92298071],[3.98457128,50.92299564],[3.98455044,50.92303101],[3.98457305,50.92303634],[3.98455705,50.92306348],[3.98453444,50.92305816],[3.98449167,50.92313072],[3.98450567,50.92313394],[3.98452012,50.92310938],[3.98453678,50.92311341],[3.98452181,50.9231379],[3.98452007,50.92314073],[3.98458396,50.92315621],[3.98458398,50.92315617],[3.98465739,50.92303648]]]}},{"type":"Feature","id":"gebouw/Gebouw.13341736/0","properties":{"source":"Digitaal Vlaanderen Gebouwenregister","source_id":"gebouw/Gebouw.13341736/0","kind":"building","building":"official","height_m":8.1,"status":null},"geometry":{"type":"Polygon","coordinates":[[[3.98453444,50.92305816],[3.98455044,50.92303101],[3.98457128,50.92299564],[3.98446438,50.92296937],[3.98443114,50.92302658],[3.98438555,50.92310506],[3.98449167,50.92313072],[3.98453444,50.92305816]]]}},{"type":"Feature","id":"gebouw/Gebouw.13400697/0","properties":{"source":"Digitaal Vlaanderen Gebouwenregister","source_id":"gebouw/Gebouw.13400697/0","kind":"building","building":"official","height_m":7.35,"status":null},"geometry":{"type":"Polygon","coordinates":[[[3.9850846,50.92542792],[3.98510182,50.92543356],[3.98507981,50.92545541],[3.98490165,50.92539331],[3.98494497,50.92534412],[3.98499935,50.9253629],[3.98500549,50.92535612],[3.98508223,50.92538253],[3.98508044,50.92538463],[3.98505246,50.92541739],[3.9850846,50.92542792]]]}},{"type":"Feature","id":"gebouw/Gebouw.13410674/0","properties":{"source":"Digitaal Vlaanderen Gebouwenregister","source_id":"gebouw/Gebouw.13410674/0","kind":"building","building":"official","height_m":6.6,"status":null},"geometry":{"type":"Polygon","coordinates":[[[3.98475366,50.92268621],[3.98476935,50.92265959],[3.98465831,50.92263555],[3.98464264,50.92266251],[3.98466075,50.92266677],[3.98463973,50.92271033],[3.98470888,50.92272366],[3.98472923,50.9226815],[3.98475366,50.92268621]]]}},{"type":"Feature","id":"gebouw/Gebouw.13424534/0","properties":{"source":"Digitaal Vlaanderen Gebouwenregister","source_id":"gebouw/Gebouw.13424534/0","kind":"building","building":"official","height_m":6.6,"status":null},"geometry":{"type":"Polygon","coordinates":[[[3.98506131,50.92589906],[3.98506138,50.92589908],[3.98494695,50.92604174],[3.98485085,50.92601188],[3.98496468,50.925872],[3.98496694,50.92586922],[3.98506131,50.92589906]]]}},{"type":"Feature","id":"gebouw/Gebouw.13479352/0","properties":{"source":"Digitaal Vlaanderen Gebouwenregister","source_id":"gebouw/Gebouw.13479352/0","kind":"building","building":"official","height_m":8.1,"status":null},"geometry":{"type":"Polygon","coordinates":[[[3.98497431,50.92568583],[3.98506148,50.92571483],[3.98503631,50.92574583],[3.98494734,50.92571698],[3.98497431,50.92568583]]]}},{"type":"Feature","id":"gebouw/Gebouw.13505101/0","properties":{"source":"Digitaal Vlaanderen Gebouwenregister","source_id":"gebouw/Gebouw.13505101/0","kind":"building","building":"official","height_m":5.85,"status":null},"geometry":{"type":"Polygon","coordinates":[[[3.98470062,50.92566812],[3.98484207,50.92570733],[3.98483155,50.92572077],[3.98493745,50.92575344],[3.98487994,50.92582883],[3.98471164,50.9257767],[3.9846423,50.92575522],[3.9846356,50.92575315],[3.9846366,50.92575146],[3.98461787,50.92574559],[3.9846436,50.92571142],[3.98466349,50.9257174],[3.98470062,50.92566812]]]}},{"type":"Feature","id":"gebouw/Gebouw.13518885/0","properties":{"source":"Digitaal Vlaanderen Gebouwenregister","source_id":"gebouw/Gebouw.13518885/0","kind":"building","building":"official","height_m":7.35,"status":null},"geometry":{"type":"Polygon","coordinates":[[[3.98464032,50.92592082],[3.98464062,50.92592041],[3.98465319,50.92590345],[3.98465918,50.92590597],[3.98468595,50.92587146],[3.98468655,50.92587069],[3.98471157,50.92583843],[3.98458714,50.92580081],[3.98453939,50.92586227],[3.9845538,50.92586675],[3.98453378,50.92589252],[3.98463707,50.9259252],[3.98464032,50.92592082]]]}},{"type":"Feature","id":"gebouw/Gebouw.13551875/0","properties":{"source":"Digitaal Vlaanderen Gebouwenregister","source_id":"gebouw/Gebouw.13551875/0","kind":"building","building":"official","height_m":8.85,"status":null},"geometry":{"type":"Polygon","coordinates":[[[3.98476368,50.92555261],[3.98481134,50.92549617],[3.98503787,50.925573],[3.98498879,50.92563107],[3.98476368,50.92555261]]]}},{"type":"Feature","id":"gebouw/Gebouw.13656127/0","properties":{"source":"Digitaal Vlaanderen Gebouwenregister","source_id":"gebouw/Gebouw.13656127/0","kind":"building","building":"official","height_m":5.85,"status":null},"geometry":{"type":"Polygon","coordinates":[[[3.98474343,50.92517569],[3.98470389,50.92522821],[3.98448797,50.92516317],[3.98445331,50.92515273],[3.98447683,50.92512131],[3.98449522,50.9251268],[3.98460445,50.92515946],[3.98461595,50.92514404],[3.98461971,50.92513901],[3.98462584,50.92513079],[3.98466297,50.92514013],[3.98465585,50.92514883],[3.98474343,50.92517569]]]}},{"type":"Feature","id":"gebouw/Gebouw.13659844/0","properties":{"source":"Digitaal Vlaanderen Gebouwenregister","source_id":"gebouw/Gebouw.13659844/0","kind":"building","building":"official","height_m":8.1,"status":null},"geometry":{"type":"Polygon","coordinates":[[[3.98518914,50.92559646],[3.98524841,50.92561995],[3.98522251,50.92564991],[3.9850767,50.92559632],[3.98510356,50.92556663],[3.98518914,50.92559646]]]}},{"type":"Feature","id":"gebouw/Gebouw.13773483/0","properties":{"source":"Digitaal Vlaanderen Gebouwenregister","source_id":"gebouw/Gebouw.13773483/0","kind":"building","building":"official","height_m":7.35,"status":null},"geometry":{"type":"Polygon","coordinates":[[[3.98523614,50.92554224],[3.9851512,50.92551227],[3.9851278,50.92553985],[3.98510356,50.92556663],[3.98518914,50.92559646],[3.98519429,50.9255907],[3.98524637,50.92560927],[3.98527305,50.92557937],[3.9852206,50.92556068],[3.98523614,50.92554224]]]}},{"type":"Feature","id":"gebouw/Gebouw.16715651/0","properties":{"source":"Digitaal Vlaanderen Gebouwenregister","source_id":"gebouw/Gebouw.16715651/0","kind":"building","building":"official","height_m":8.85,"status":null},"geometry":{"type":"Polygon","coordinates":[[[3.98460462,50.92604666],[3.9846196,50.92614016],[3.98444635,50.92614826],[3.9844321,50.92605915],[3.98455438,50.92605075],[3.98460462,50.92604666]]]}},{"type":"Feature","id":"gebouw/Gebouw.16737394/0","properties":{"source":"Digitaal Vlaanderen Gebouwenregister","source_id":"gebouw/Gebouw.16737394/0","kind":"building","building":"official","height_m":8.1,"status":null},"geometry":{"type":"Polygon","coordinates":[[[3.98570141,50.92329915],[3.98566307,50.92328884],[3.98560174,50.92337619],[3.98556219,50.9233662],[3.98564573,50.92324319],[3.98565304,50.92323242],[3.98573449,50.92325562],[3.98570141,50.92329915]]]}},{"type":"Feature","id":"gebouw/Gebouw.16746000/0","properties":{"source":"Digitaal Vlaanderen Gebouwenregister","source_id":"gebouw/Gebouw.16746000/0","kind":"building","building":"official","height_m":5.1,"status":null},"geometry":{"type":"Polygon","coordinates":[[[3.98540077,50.92543256],[3.98564622,50.92552068],[3.98563039,50.92554169],[3.98555314,50.92551481],[3.98554859,50.92552025],[3.98537959,50.92545671],[3.98540077,50.92543256]]]}},{"type":"Feature","id":"gebouw/Gebouw.16746010/0","properties":{"source":"Digitaal Vlaanderen Gebouwenregister","source_id":"gebouw/Gebouw.16746010/0","kind":"building","building":"official","height_m":8.1,"status":null},"geometry":{"type":"Polygon","coordinates":[[[3.98471972,50.92149786],[3.98464253,50.92148065],[3.98463962,50.92148273],[3.98460278,50.92146435],[3.98457427,50.92145014],[3.98460678,50.92142413],[3.98460942,50.92142555],[3.98467197,50.92137577],[3.98477116,50.92142761],[3.98480174,50.92140537],[3.98481703,50.92139425],[3.98487374,50.92135299],[3.98489574,50.92136446],[3.98484212,50.9214051],[3.98482786,50.9214159],[3.98471972,50.92149786]]]}},{"type":"Feature","id":"gebouw/Gebouw.16746541/0","properties":{"source":"Digitaal Vlaanderen Gebouwenregister","source_id":"gebouw/Gebouw.16746541/0","kind":"building","building":"official","height_m":5.85,"status":null},"geometry":{"type":"Polygon","coordinates":[[[3.98495666,50.92431293],[3.98491838,50.92429615],[3.98491185,50.9243018],[3.98477872,50.92424033],[3.98472648,50.92428956],[3.98472064,50.92428704],[3.98471182,50.92429536],[3.98463734,50.92426216],[3.98464538,50.92425458],[3.98471068,50.92419304],[3.98461049,50.92414895],[3.98472624,50.92403985],[3.9846883,50.92402316],[3.98471958,50.92399475],[3.98477447,50.9240189],[3.98474283,50.92404762],[3.98478163,50.92406498],[3.98489867,50.92411733],[3.98490171,50.92411456],[3.9849386,50.92413079],[3.98493579,50.92413334],[3.98489189,50.9241732],[3.98499085,50.92421675],[3.98499326,50.92421456],[3.98505519,50.92424181],[3.98499352,50.9242978],[3.98498075,50.92429213],[3.98495666,50.92431293]]]}},{"type":"Feature","id":"gebouw/Gebouw.16754319/0","properties":{"source":"Digitaal Vlaanderen Gebouwenregister","source_id":"gebouw/Gebouw.16754319/0","kind":"building","building":"official","height_m":7.35,"status":null},"geometry":{"type":"Polygon","coordinates":[[[3.98513238,50.92331769],[3.9850156,50.92329455],[3.98497578,50.9232819],[3.98484897,50.92325013],[3.98487403,50.92320833],[3.98494599,50.92308833],[3.98497015,50.92304805],[3.98500475,50.92298081],[3.9850098,50.92298192],[3.9850777,50.92299682],[3.98503772,50.92306963],[3.98501713,50.92310713],[3.98500051,50.92313739],[3.98498504,50.92313375],[3.98497848,50.92314487],[3.98499212,50.92314809],[3.98495936,50.92320357],[3.9850155,50.92321799],[3.9850001,50.92324195],[3.98507897,50.92325919],[3.98515863,50.92314454],[3.98521893,50.92316048],[3.98526175,50.92309392],[3.98529884,50.92310346],[3.9852821,50.92312852],[3.98525448,50.92316988],[3.98523764,50.92316542],[3.98513238,50.92331769]]]}},{"type":"Feature","id":"gebouw/Gebouw.16754812/0","properties":{"source":"Digitaal Vlaanderen Gebouwenregister","source_id":"gebouw/Gebouw.16754812/0","kind":"building","building":"official","height_m":8.1,"status":null},"geometry":{"type":"Polygon","coordinates":[[[3.98546603,50.92538702],[3.98544459,50.92541172],[3.98539535,50.92539461],[3.98541582,50.92537015],[3.98546603,50.92538702]]]}},{"type":"Feature","id":"gebouw/Gebouw.16758761/0","properties":{"source":"Digitaal Vlaanderen Gebouwenregister","source_id":"gebouw/Gebouw.16758761/0","kind":"building","building":"official","height_m":8.85,"status":null},"geometry":{"type":"Polygon","coordinates":[[[3.98525195,50.92326629],[3.985207,50.92333269],[3.98515532,50.92331833],[3.98521608,50.92322735],[3.98523741,50.92323325],[3.98524956,50.9232158],[3.98528036,50.92322435],[3.98525195,50.92326629]]]}},{"type":"Feature","id":"gebouw/Gebouw.16759083/0","properties":{"source":"Digitaal Vlaanderen Gebouwenregister","source_id":"gebouw/Gebouw.16759083/0","kind":"building","building":"official","height_m":7.35,"status":null},"geometry":{"type":"Polygon","coordinates":[[[3.98497379,50.92352126],[3.98489603,50.9235039],[3.9849103,50.9234809],[3.98490615,50.92347988],[3.98493569,50.92343231],[3.9849234,50.92342922],[3.98491929,50.92343533],[3.98488565,50.92342876],[3.98489684,50.9234091],[3.98493181,50.92341672],[3.984965,50.92336736],[3.9850207,50.92338266],[3.98503463,50.92336313],[3.98507418,50.92337329],[3.98503189,50.92343907],[3.98508435,50.92345393],[3.98504341,50.92351658],[3.98498677,50.92350035],[3.98497379,50.92352126]]]}},{"type":"Feature","id":"gebouw/Gebouw.16762026/0","properties":{"source":"Digitaal Vlaanderen Gebouwenregister","source_id":"gebouw/Gebouw.16762026/0","kind":"building","building":"official","height_m":5.1,"status":null},"geometry":{"type":"Polygon","coordinates":[[[3.98459382,50.9244524],[3.98453856,50.9245073],[3.98442807,50.92445997],[3.98444648,50.92444173],[3.98441977,50.92442956],[3.98445743,50.92439471],[3.98446373,50.92439681],[3.98448787,50.92440712],[3.98459382,50.9244524]]]}},{"type":"Feature","id":"gebouw/Gebouw.16773362/0","properties":{"source":"Digitaal Vlaanderen Gebouwenregister","source_id":"gebouw/Gebouw.16773362/0","kind":"building","building":"official","height_m":6.6,"status":null},"geometry":{"type":"Polygon","coordinates":[[[3.98464364,50.92353482],[3.98467677,50.92348193],[3.9847186,50.9234924],[3.98468547,50.92354529],[3.98464364,50.92353482]]]}},{"type":"Feature","id":"gebouw/Gebouw.16773428/0","properties":{"source":"Digitaal Vlaanderen Gebouwenregister","source_id":"gebouw/Gebouw.16773428/0","kind":"building","building":"official","height_m":6.6,"status":null},"geometry":{"type":"Polygon","coordinates":[[[3.98473044,50.9247389],[3.98467924,50.92478738],[3.98455403,50.92473377],[3.98457719,50.92471101],[3.98455027,50.92470077],[3.9845757,50.92467476],[3.98473044,50.9247389]]]}},{"type":"Feature","id":"gebouw/Gebouw.16781793/0","properties":{"source":"Digitaal Vlaanderen Gebouwenregister","source_id":"gebouw/Gebouw.16781793/0","kind":"building","building":"official","height_m":7.35,"status":null},"geometry":{"type":"Polygon","coordinates":[[[3.98496605,50.9214461],[3.98498648,50.92145601],[3.98513848,50.92152968],[3.98510835,50.9215507],[3.9850664,50.92157998],[3.98505543,50.92158437],[3.98502057,50.92156775],[3.98493342,50.92152619],[3.98491642,50.92151808],[3.98489225,50.92150656],[3.98488179,50.92150156],[3.98495447,50.92144049],[3.98496605,50.9214461]]]}},{"type":"Feature","id":"gebouw/Gebouw.16782356/0","properties":{"source":"Digitaal Vlaanderen Gebouwenregister","source_id":"gebouw/Gebouw.16782356/0","kind":"building","building":"official","height_m":6.6,"status":null},"geometry":{"type":"Polygon","coordinates":[[[3.98484355,50.92446439],[3.98480038,50.92450512],[3.98480208,50.92450573],[3.98479979,50.92450791],[3.98468978,50.92446161],[3.98469494,50.92445671],[3.98466437,50.92444377],[3.98470551,50.92440495],[3.98484355,50.92446439]]]}},{"type":"Feature","id":"gebouw/Gebouw.16783721/0","properties":{"source":"Digitaal Vlaanderen Gebouwenregister","source_id":"gebouw/Gebouw.16783721/0","kind":"building","building":"official","height_m":8.85,"status":null},"geometry":{"type":"Polygon","coordinates":[[[3.98494599,50.92308833],[3.98487403,50.92320833],[3.98466858,50.92315848],[3.98470733,50.92309469],[3.98487589,50.92313631],[3.9849054,50.92308856],[3.98478232,50.92306209],[3.9847804,50.92306565],[3.98465844,50.92303673],[3.98465739,50.92303648],[3.98467736,50.92300392],[3.98469623,50.92297316],[3.98469756,50.9229735],[3.98481853,50.92300448],[3.98481261,50.92301413],[3.98497015,50.92304805],[3.98494599,50.92308833]]]}},{"type":"Feature","id":"gebouw/Gebouw.16784148/0","properties":{"source":"Digitaal Vlaanderen Gebouwenregister","source_id":"gebouw/Gebouw.16784148/0","kind":"building","building":"official","height_m":5.1,"status":null},"geometry":{"type":"Polygon","coordinates":[[[3.98467924,50.92478738],[3.98462804,50.92483585],[3.98450353,50.92478332],[3.98455403,50.92473377],[3.98467924,50.92478738]]]}},{"type":"Feature","id":"gebouw/Gebouw.16784189/0","properties":{"source":"Digitaal Vlaanderen Gebouwenregister","source_id":"gebouw/Gebouw.16784189/0","kind":"building","building":"official","height_m":8.85,"status":null},"geometry":{"type":"Polygon","coordinates":[[[3.98461508,50.92455949],[3.98466271,50.92451355],[3.98480478,50.92457549],[3.98475828,50.92462034],[3.98461508,50.92455949]]]}},{"type":"Feature","id":"gebouw/Gebouw.16785218/0","properties":{"source":"Digitaal Vlaanderen Gebouwenregister","source_id":"gebouw/Gebouw.16785218/0","kind":"building","building":"official","height_m":6.6,"status":null},"geometry":{"type":"Polygon","coordinates":[[[3.98454332,50.9232214],[3.98461423,50.92324125],[3.98459991,50.92326139],[3.98449056,50.92322959],[3.98450432,50.9232107],[3.98450445,50.92321052],[3.98454332,50.9232214]]]}},{"type":"Feature","id":"gebouw/Gebouw.16785504/0","properties":{"source":"Digitaal Vlaanderen Gebouwenregister","source_id":"gebouw/Gebouw.16785504/0","kind":"building","building":"official","height_m":5.1,"status":null},"geometry":{"type":"Polygon","coordinates":[[[3.98526752,50.92521675],[3.98520656,50.9252848],[3.98504715,50.92522795],[3.98510781,50.92515979],[3.98526752,50.92521675]]]}},{"type":"Feature","id":"gebouw/Gebouw.16785927/0","properties":{"source":"Digitaal Vlaanderen Gebouwenregister","source_id":"gebouw/Gebouw.16785927/0","kind":"building","building":"official","height_m":7.35,"status":null},"geometry":{"type":"Polygon","coordinates":[[[3.98475828,50.92462034],[3.98471153,50.92466544],[3.98455687,50.9246014],[3.98457905,50.92458],[3.98456353,50.92457357],[3.98458943,50.9245486],[3.98461508,50.92455949],[3.98475828,50.92462034]]]}},{"type":"Feature","id":"gebouw/Gebouw.16786122/0","properties":{"source":"Digitaal Vlaanderen Gebouwenregister","source_id":"gebouw/Gebouw.16786122/0","kind":"building","building":"official","height_m":5.1,"status":null},"geometry":{"type":"Polygon","coordinates":[[[3.98512242,50.92352326],[3.98512579,50.9235241],[3.98515744,50.92347314],[3.98516649,50.92345855],[3.98513064,50.92344833],[3.98514096,50.92343386],[3.98515571,50.92343807],[3.98518284,50.92340003],[3.98512951,50.92338484],[3.98512736,50.92338814],[3.98508435,50.92345393],[3.98504341,50.92351658],[3.98507126,50.92352452],[3.98507882,50.92351245],[3.98512242,50.92352326]]]}},{"type":"Feature","id":"gebouw/Gebouw.16794927/0","properties":{"source":"Digitaal Vlaanderen Gebouwenregister","source_id":"gebouw/Gebouw.16794927/0","kind":"building","building":"official","height_m":7.35,"status":null},"geometry":{"type":"Polygon","coordinates":[[[3.98461922,50.92346557],[3.98458284,50.92352509],[3.98454806,50.9235166],[3.98458444,50.92345708],[3.98461922,50.92346557]]]}},{"type":"Feature","id":"gebouw/Gebouw.16794963/0","properties":{"source":"Digitaal Vlaanderen Gebouwenregister","source_id":"gebouw/Gebouw.16794963/0","kind":"building","building":"official","height_m":7.35,"status":null},"geometry":{"type":"Polygon","coordinates":[[[3.98524376,50.92529807],[3.98519449,50.92535305],[3.98499799,50.92528318],[3.98504715,50.92522795],[3.98520656,50.9252848],[3.98524376,50.92529807]]]}},{"type":"Feature","id":"gebouw/Gebouw.16801345/0","properties":{"source":"Digitaal Vlaanderen Gebouwenregister","source_id":"gebouw/Gebouw.16801345/0","kind":"building","building":"official","height_m":5.85,"status":null},"geometry":{"type":"Polygon","coordinates":[[[3.98454375,50.92503398],[3.98454559,50.92503439],[3.98453194,50.92505898],[3.98446212,50.9250435],[3.98447447,50.92502126],[3.98447577,50.92501891],[3.98454375,50.92503398]]]}},{"type":"Feature","id":"gebouw/Gebouw.16801551/0","properties":{"source":"Digitaal Vlaanderen Gebouwenregister","source_id":"gebouw/Gebouw.16801551/0","kind":"building","building":"official","height_m":7.35,"status":null},"geometry":{"type":"Polygon","coordinates":[[[3.98475398,50.92435132],[3.98476147,50.92434426],[3.98482488,50.92437111],[3.98481253,50.92438277],[3.98489366,50.92441713],[3.98484355,50.92446439],[3.98470551,50.92440495],[3.98463469,50.92437446],[3.98468859,50.92432363],[3.98475398,50.92435132]]]}},{"type":"Feature","id":"gebouw/Gebouw.16813596/0","properties":{"source":"Digitaal Vlaanderen Gebouwenregister","source_id":"gebouw/Gebouw.16813596/0","kind":"building","building":"official","height_m":5.1,"status":null},"geometry":{"type":"Polygon","coordinates":[[[3.98471182,50.92429536],[3.9846833,50.92432224],[3.98456424,50.92427178],[3.98459396,50.92424377],[3.98471182,50.92429536]]]}},{"type":"Feature","id":"gebouw/Gebouw.16814033/0","properties":{"source":"Digitaal Vlaanderen Gebouwenregister","source_id":"gebouw/Gebouw.16814033/0","kind":"building","building":"official","height_m":8.85,"status":null},"geometry":{"type":"Polygon","coordinates":[[[3.98532977,50.92336413],[3.98532971,50.92336411],[3.985207,50.92333269],[3.98525195,50.92326629],[3.98533366,50.92328726],[3.9853495,50.92326263],[3.98533842,50.92325979],[3.98535837,50.92322876],[3.98537074,50.92323194],[3.98539842,50.9231889],[3.98534569,50.92317536],[3.98535988,50.92315329],[3.98536738,50.92314163],[3.98534908,50.92313693],[3.98536756,50.9231082],[3.98541996,50.92312166],[3.98539395,50.9231621],[3.985454,50.92317752],[3.98543653,50.92320374],[3.98543112,50.92321186],[3.98532977,50.92336413]]]}},{"type":"Feature","id":"gebouw/Gebouw.16814038/0","properties":{"source":"Digitaal Vlaanderen Gebouwenregister","source_id":"gebouw/Gebouw.16814038/0","kind":"building","building":"official","height_m":8.1,"status":null},"geometry":{"type":"Polygon","coordinates":[[[3.98450596,50.92339726],[3.98442179,50.9233784],[3.98443719,50.92335094],[3.98452809,50.92337131],[3.98452368,50.92337917],[3.98454618,50.92338422],[3.98457323,50.92333598],[3.98461857,50.92334614],[3.98461593,50.92335085],[3.98467037,50.92336316],[3.98471864,50.92328801],[3.98492602,50.92334122],[3.98489562,50.92338855],[3.98484108,50.92337455],[3.98482498,50.92339963],[3.98475071,50.92338057],[3.98472462,50.92337388],[3.98470074,50.92341879],[3.98484965,50.92345215],[3.98483821,50.92347256],[3.98468736,50.92343876],[3.98464,50.92342815],[3.98462341,50.92345774],[3.98448894,50.92342761],[3.98450596,50.92339726]]]}},{"type":"Feature","id":"gebouw/Gebouw.16814303/0","properties":{"source":"Digitaal Vlaanderen Gebouwenregister","source_id":"gebouw/Gebouw.16814303/0","kind":"building","building":"official","height_m":8.85,"status":null},"geometry":{"type":"Polygon","coordinates":[[[3.98527072,50.92583196],[3.98526523,50.9258783],[3.98522025,50.92587617],[3.98522574,50.92582983],[3.98527072,50.92583196]]]}},{"type":"Feature","id":"gebouw/Gebouw.16821256/0","properties":{"source":"Digitaal Vlaanderen Gebouwenregister","source_id":"gebouw/Gebouw.16821256/0","kind":"building","building":"official","height_m":8.1,"status":null},"geometry":{"type":"Polygon","coordinates":[[[3.98466301,50.92508545],[3.98465869,50.92509129],[3.98453102,50.9250536],[3.98454917,50.92502976],[3.98455356,50.92503102],[3.98460056,50.92504451],[3.98460342,50.92504075],[3.98463074,50.9250479],[3.98465719,50.92505481],[3.98468104,50.92506105],[3.98466301,50.92508545]]]}},{"type":"Feature","id":"gebouw/Gebouw.16821342/0","properties":{"source":"Digitaal Vlaanderen Gebouwenregister","source_id":"gebouw/Gebouw.16821342/0","kind":"building","building":"official","height_m":5.1,"status":null},"geometry":{"type":"Polygon","coordinates":[[[3.98539824,50.92338263],[3.98546128,50.92328953],[3.98550709,50.92322189],[3.98543653,50.92320374],[3.98543112,50.92321186],[3.98532977,50.92336413],[3.9853283,50.92336637],[3.98539736,50.92338394],[3.98539824,50.92338263]]]}},{"type":"Feature","id":"gebouw/Gebouw.16828502/0","properties":{"source":"Digitaal Vlaanderen Gebouwenregister","source_id":"gebouw/Gebouw.16828502/0","kind":"building","building":"official","height_m":6.6,"status":null},"geometry":{"type":"Polygon","coordinates":[[[3.98461886,50.92442848],[3.98459382,50.9244524],[3.98448787,50.92440712],[3.98446373,50.92439681],[3.98448793,50.9243737],[3.98461886,50.92442848]]]}},{"type":"Feature","id":"gebouw/Gebouw.16847473/0","properties":{"source":"Digitaal Vlaanderen Gebouwenregister","source_id":"gebouw/Gebouw.16847473/0","kind":"building","building":"official","height_m":5.85,"status":null},"geometry":{"type":"Polygon","coordinates":[[[3.98499814,50.92379561],[3.98499968,50.92376102],[3.9850476,50.92376226],[3.98504531,50.9237976],[3.98499814,50.92379561]]]}},{"type":"Feature","id":"gebouw/Gebouw.17058669/0","properties":{"source":"Digitaal Vlaanderen Gebouwenregister","source_id":"gebouw/Gebouw.17058669/0","kind":"building","building":"official","height_m":7.35,"status":null},"geometry":{"type":"Polygon","coordinates":[[[3.98558112,50.9230099],[3.98560098,50.92297803],[3.98564823,50.92298979],[3.98562838,50.92302166],[3.98558112,50.9230099]]]}},{"type":"Feature","id":"gebouw/Gebouw.17120423/0","properties":{"source":"Digitaal Vlaanderen Gebouwenregister","source_id":"gebouw/Gebouw.17120423/0","kind":"building","building":"official","height_m":8.85,"status":null},"geometry":{"type":"Polygon","coordinates":[[[3.98556219,50.9233662],[3.9855121,50.92335355],[3.98548073,50.92340256],[3.98539824,50.92338263],[3.98546128,50.92328953],[3.98550709,50.92322189],[3.98551534,50.9232097],[3.98564573,50.92324319],[3.98556219,50.9233662]],[[3.98552042,50.92332857],[3.98553629,50.92330359],[3.98550442,50.9232955],[3.98548855,50.92332048],[3.98552042,50.92332857]]]}},{"type":"Feature","id":"gebouw/Gebouw.17146410/0","properties":{"source":"Digitaal Vlaanderen Gebouwenregister","source_id":"gebouw/Gebouw.17146410/0","kind":"building","building":"official","height_m":5.1,"status":null},"geometry":{"type":"Polygon","coordinates":[[[3.98510835,50.9215507],[3.98513698,50.9215693],[3.98509566,50.92159593],[3.9850664,50.92157998],[3.98510835,50.9215507]]]}},{"type":"Feature","id":"gebouw/Gebouw.18729690/0","properties":{"source":"Digitaal Vlaanderen Gebouwenregister","source_id":"gebouw/Gebouw.18729690/0","kind":"building","building":"official","height_m":5.1,"status":null},"geometry":{"type":"Polygon","coordinates":[[[3.98545959,50.92549817],[3.98540752,50.92555467],[3.98536034,50.92553949],[3.98541264,50.92548164],[3.98545959,50.92549817]]]}},{"type":"Feature","id":"gebouw/Gebouw.18862592/0","properties":{"source":"Digitaal Vlaanderen Gebouwenregister","source_id":"gebouw/Gebouw.18862592/0","kind":"building","building":"official","height_m":6.6,"status":null},"geometry":{"type":"Polygon","coordinates":[[[3.98472266,50.92601114],[3.98469836,50.92604564],[3.98463901,50.92603008],[3.98466406,50.92599572],[3.98472266,50.92601114]]]}},{"type":"Feature","id":"gebouw/Gebouw.19879688/0","properties":{"source":"Digitaal Vlaanderen Gebouwenregister","source_id":"gebouw/Gebouw.19879688/0","kind":"building","building":"official","height_m":6.6,"status":null},"geometry":{"type":"Polygon","coordinates":[[[3.98498054,50.9243361],[3.9849527,50.92436227],[3.98477646,50.92428688],[3.98489798,50.9241734],[3.98507367,50.92424855],[3.9850458,50.92427474],[3.98498054,50.9243361]]]}},{"type":"Feature","id":"gebouw/Gebouw.19879741/0","properties":{"source":"Digitaal Vlaanderen Gebouwenregister","source_id":"gebouw/Gebouw.19879741/0","kind":"building","building":"official","height_m":5.85,"status":null},"geometry":{"type":"Polygon","coordinates":[[[3.98513238,50.92331769],[3.9850156,50.92329455],[3.98497578,50.9232819],[3.98484897,50.92325013],[3.98487403,50.92320833],[3.98494599,50.92308833],[3.98497015,50.92304805],[3.9850098,50.92298192],[3.9850777,50.92299682],[3.98503772,50.92306963],[3.98501713,50.92310713],[3.98500051,50.92313739],[3.98498504,50.92313375],[3.98497848,50.92314487],[3.98499212,50.92314809],[3.98495936,50.92320357],[3.9850155,50.92321799],[3.9850001,50.92324195],[3.98507897,50.92325919],[3.98515863,50.92314454],[3.98521893,50.92316048],[3.98523764,50.92316542],[3.98513238,50.92331769]]]}},{"type":"Feature","id":"gebouw/Gebouw.19879742/0","properties":{"source":"Digitaal Vlaanderen Gebouwenregister","source_id":"gebouw/Gebouw.19879742/0","kind":"building","building":"official","height_m":6.6,"status":null},"geometry":{"type":"Polygon","coordinates":[[[3.9852821,50.92312852],[3.98525448,50.92316988],[3.98523764,50.92316542],[3.98521893,50.92316048],[3.98526175,50.92309392],[3.98529884,50.92310346],[3.9852821,50.92312852]]]}},{"type":"Feature","id":"gebouw/Gebouw.19880881/0","properties":{"source":"Digitaal Vlaanderen Gebouwenregister","source_id":"gebouw/Gebouw.19880881/0","kind":"building","building":"official","height_m":5.85,"status":null},"geometry":{"type":"Polygon","coordinates":[[[3.98504341,50.92351658],[3.98498677,50.92350035],[3.98497379,50.92352126],[3.98489603,50.9235039],[3.9849103,50.9234809],[3.98490615,50.92347988],[3.98493569,50.92343231],[3.9849234,50.92342922],[3.98493181,50.92341672],[3.984965,50.92336736],[3.9850207,50.92338266],[3.98503463,50.92336313],[3.98507418,50.92337329],[3.98503189,50.92343907],[3.98508435,50.92345393],[3.98504341,50.92351658]]]}},{"type":"Feature","id":"gebouw/Gebouw.19880882/0","properties":{"source":"Digitaal Vlaanderen Gebouwenregister","source_id":"gebouw/Gebouw.19880882/0","kind":"building","building":"official","height_m":6.6,"status":null},"geometry":{"type":"Polygon","coordinates":[[[3.9849234,50.92342922],[3.98491929,50.92343533],[3.98488565,50.92342876],[3.98489684,50.9234091],[3.98493181,50.92341672],[3.9849234,50.92342922]]]}},{"type":"Feature","id":"gebouw/Gebouw.20146910/0","properties":{"source":"Digitaal Vlaanderen Gebouwenregister","source_id":"gebouw/Gebouw.20146910/0","kind":"building","building":"official","height_m":6.6,"status":null},"geometry":{"type":"Polygon","coordinates":[[[3.98537918,50.9254204],[3.98542464,50.92536897],[3.9854666,50.92538378],[3.98542115,50.92543521],[3.98537918,50.9254204]]]}},{"type":"Feature","id":"gebouw/Gebouw.20802206/0","properties":{"source":"Digitaal Vlaanderen Gebouwenregister","source_id":"gebouw/Gebouw.20802206/0","kind":"building","building":"official","height_m":6.6,"status":null},"geometry":{"type":"Polygon","coordinates":[[[3.98452364,50.92599013],[3.98454192,50.92596324],[3.98458494,50.92597492],[3.98456666,50.92600181],[3.98452364,50.92599013]]]}},{"type":"Feature","id":"gebouw/Gebouw.20802207/0","properties":{"source":"Digitaal Vlaanderen Gebouwenregister","source_id":"gebouw/Gebouw.20802207/0","kind":"building","building":"official","height_m":7.35,"status":null},"geometry":{"type":"Polygon","coordinates":[[[3.98493344,50.92603964],[3.98485589,50.92601787],[3.98484852,50.92603072],[3.98493079,50.92605158],[3.98492436,50.92605813],[3.9849002,50.92608275],[3.98491074,50.92608768],[3.98499678,50.92605743],[3.98493344,50.92603964]]]}},{"type":"Feature","id":"gebouw/Gebouw.30642522/0","properties":{"source":"Digitaal Vlaanderen Gebouwenregister","source_id":"gebouw/Gebouw.30642522/0","kind":"building","building":"official","height_m":5.1,"status":null},"geometry":{"type":"Polygon","coordinates":[[[3.98460496,50.92401403],[3.98467429,50.92404389],[3.98455583,50.92415378],[3.9844865,50.92412392],[3.98460496,50.92401403]]]}},{"type":"Feature","id":"gebouw/Gebouw.30642526/0","properties":{"source":"Digitaal Vlaanderen Gebouwenregister","source_id":"gebouw/Gebouw.30642526/0","kind":"building","building":"official","height_m":8.1,"status":null},"geometry":{"type":"Polygon","coordinates":[[[3.98530361,50.92165145],[3.9853542,50.92168179],[3.98532289,50.92170264],[3.98527231,50.9216723],[3.98530361,50.92165145]]]}},{"type":"Feature","id":"gebouw/Gebouw.30644376/0","properties":{"source":"Digitaal Vlaanderen Gebouwenregister","source_id":"gebouw/Gebouw.30644376/0","kind":"building","building":"official","height_m":5.1,"status":null},"geometry":{"type":"Polygon","coordinates":[[[3.98473721,50.92427143],[3.98472064,50.92428704],[3.98471182,50.92429536],[3.98459396,50.92424377],[3.98460224,50.92423596],[3.98461815,50.92422097],[3.98473721,50.92427143]]]}},{"type":"Feature","id":"gebouw/Gebouw.30883329/0","properties":{"source":"Digitaal Vlaanderen Gebouwenregister","source_id":"gebouw/Gebouw.30883329/0","kind":"building","building":"official","height_m":7.35,"status":null},"geometry":{"type":"Polygon","coordinates":[[[3.98461644,50.92596512],[3.98464404,50.92592896],[3.98475168,50.92596177],[3.98472408,50.92599794],[3.98461644,50.92596512]]]}},{"type":"Feature","id":"gebouw/Gebouw.30884662/0","properties":{"source":"Digitaal Vlaanderen Gebouwenregister","source_id":"gebouw/Gebouw.30884662/0","kind":"building","building":"official","height_m":8.1,"status":null},"geometry":{"type":"Polygon","coordinates":[[[3.98485589,50.92601787],[3.98489296,50.92596514],[3.98497051,50.92598691],[3.98493344,50.92603964],[3.98485589,50.92601787]]]}},{"type":"Feature","id":"gebouw/Gebouw.32032013/0","properties":{"source":"Digitaal Vlaanderen Gebouwenregister","source_id":"gebouw/Gebouw.32032013/0","kind":"building","building":"official","height_m":8.85,"status":null},"geometry":{"type":"Polygon","coordinates":[[[3.98546094,50.92174909],[3.98542544,50.92172396],[3.98539734,50.92173983],[3.98543254,50.92176473],[3.98543756,50.92176829],[3.98546566,50.92175242],[3.98546094,50.92174909]]]}},{"type":"Feature","id":"gebouw/Gebouw.32032202/0","properties":{"source":"Digitaal Vlaanderen Gebouwenregister","source_id":"gebouw/Gebouw.32032202/0","kind":"building","building":"official","height_m":6.6,"status":null},"geometry":{"type":"Polygon","coordinates":[[[3.98525731,50.92253253],[3.9853148,50.92254413],[3.98532926,50.92251549],[3.98527177,50.92250389],[3.98525731,50.92253253]]]}},{"type":"Feature","id":"way/163221336","properties":{"source":"OpenStreetMap","source_id":"way/163221336","kind":"vegetation","landuse":"forest","natural":null,"name":null},"geometry":{"type":"Polygon","coordinates":[[[3.9848474,50.9249294],[3.9849335,50.9249406],[3.9849538,50.9250173],[3.9851852,50.9250976],[3.9851593,50.9251357],[3.9852711,50.9251811],[3.9852451,50.9252185],[3.9851413,50.9251993],[3.985007,50.9253638],[3.9849639,50.9254261],[3.9849639,50.9256065],[3.9849563,50.9257071],[3.9848955,50.9257167],[3.9848702,50.9256832],[3.9848803,50.9253494],[3.9848474,50.9249294]]]}}]}