{"type":"FeatureCollection","features":[{"type":"Feature","id":"gebouw/Gebouw.9563989/0","properties":{"source":"Digitaal Vlaanderen Gebouwenregister","source_id":"gebouw/Gebouw.9563989/0","kind":"building","building":"official","height_m":5.85,"status":null},"geometry":{"type":"Polygon","coordinates":[[[3.98510091,50.95440674],[3.98493247,50.95469123],[3.98477846,50.95454089],[3.9848455,50.95443255],[3.98477884,50.95441759],[3.98498702,50.95408822],[3.98510237,50.95411741],[3.98514745,50.954045],[3.98508553,50.9540298],[3.98509467,50.95401609],[3.98503726,50.95400154],[3.98507852,50.95393684],[3.98527649,50.95398678],[3.98518089,50.95413728],[3.98519782,50.95414157],[3.9850559,50.95436279],[3.98503889,50.95438929],[3.98510091,50.95440674]]]}},{"type":"Feature","id":"way/153269685","properties":{"source":"OpenStreetMap","source_id":"way/153269685","kind":"vegetation","landuse":"forest","natural":null,"name":null},"geometry":{"type":"Polygon","coordinates":[[[3.9851037,50.9545109],[3.984936,50.954627],[3.9839554,50.9542612],[3.9840603,50.9541307],[3.9851037,50.9545109]]]}}]}