{"type":"FeatureCollection","features":[{"type":"Feature","id":"gebouw/Gebouw.13055949/0","properties":{"source":"Digitaal Vlaanderen Gebouwenregister","source_id":"gebouw/Gebouw.13055949/0","kind":"building","building":"official","height_m":7.35,"status":null},"geometry":{"type":"Polygon","coordinates":[[[3.99599167,50.93963209],[3.99592812,50.93967807],[3.99596664,50.93969797],[3.9959252,50.93972725],[3.99572325,50.93961748],[3.99582605,50.93954298],[3.99599167,50.93963209]]]}},{"type":"Feature","id":"gebouw/Gebouw.13078151/0","properties":{"source":"Digitaal Vlaanderen Gebouwenregister","source_id":"gebouw/Gebouw.13078151/0","kind":"building","building":"official","height_m":8.85,"status":null},"geometry":{"type":"Polygon","coordinates":[[[3.99712603,50.93975645],[3.99709544,50.9397373],[3.99711764,50.93972265],[3.99711214,50.93971964],[3.99716703,50.93968188],[3.99720742,50.93970495],[3.99715182,50.93974301],[3.99714823,50.9397409],[3.99712603,50.93975645]]]}},{"type":"Feature","id":"gebouw/Gebouw.13249443/0","properties":{"source":"Digitaal Vlaanderen Gebouwenregister","source_id":"gebouw/Gebouw.13249443/0","kind":"building","building":"official","height_m":7.35,"status":null},"geometry":{"type":"Polygon","coordinates":[[[3.99540331,50.93933918],[3.99543963,50.9393615],[3.9953678,50.93941224],[3.99533208,50.93939123],[3.99540331,50.93933918]]]}},{"type":"Feature","id":"gebouw/Gebouw.13263895/0","properties":{"source":"Digitaal Vlaanderen Gebouwenregister","source_id":"gebouw/Gebouw.13263895/0","kind":"building","building":"official","height_m":5.85,"status":null},"geometry":{"type":"Polygon","coordinates":[[[3.99579005,50.94048251],[3.99584213,50.9405242],[3.99580368,50.94054323],[3.9957075,50.94059082],[3.99557548,50.94048485],[3.99564495,50.94045051],[3.99565813,50.94046122],[3.99572325,50.94042904],[3.99579005,50.94048251]]]}},{"type":"Feature","id":"gebouw/Gebouw.13290898/0","properties":{"source":"Digitaal Vlaanderen Gebouwenregister","source_id":"gebouw/Gebouw.13290898/0","kind":"building","building":"official","height_m":8.1,"status":null},"geometry":{"type":"Polygon","coordinates":[[[3.99579744,50.93920436],[3.9957365,50.93917481],[3.99575965,50.93915715],[3.99578642,50.93916951],[3.99580527,50.93915456],[3.99583944,50.9391719],[3.99579744,50.93920436]]]}},{"type":"Feature","id":"gebouw/Gebouw.13348111/0","properties":{"source":"Digitaal Vlaanderen Gebouwenregister","source_id":"gebouw/Gebouw.13348111/0","kind":"building","building":"official","height_m":5.85,"status":null},"geometry":{"type":"Polygon","coordinates":[[[3.99605813,50.94011114],[3.99607816,50.94012191],[3.99601039,50.94017144],[3.99582439,50.94007002],[3.9959044,50.94001196],[3.99595876,50.94004157],[3.99597194,50.94003244],[3.99604172,50.94006832],[3.99603486,50.94007328],[3.99601476,50.9400878],[3.99605813,50.94011114]]]}},{"type":"Feature","id":"gebouw/Gebouw.13355680/0","properties":{"source":"Digitaal Vlaanderen Gebouwenregister","source_id":"gebouw/Gebouw.13355680/0","kind":"building","building":"official","height_m":8.1,"status":null},"geometry":{"type":"Polygon","coordinates":[[[3.99565388,50.93956785],[3.99561588,50.93954734],[3.99569057,50.93949147],[3.99572857,50.93951258],[3.99565388,50.93956785]]]}},{"type":"Feature","id":"gebouw/Gebouw.13395292/0","properties":{"source":"Digitaal Vlaanderen Gebouwenregister","source_id":"gebouw/Gebouw.13395292/0","kind":"building","building":"official","height_m":8.1,"status":null},"geometry":{"type":"Polygon","coordinates":[[[3.99568047,50.93963193],[3.99567466,50.93963727],[3.99582164,50.93971673],[3.99579468,50.93973863],[3.99585992,50.93977452],[3.99576663,50.93984255],[3.99558183,50.93974377],[3.99568114,50.93966896],[3.99565175,50.93965373],[3.9956243,50.93967397],[3.9955599,50.93963853],[3.99561576,50.93959704],[3.99568047,50.93963193]]]}},{"type":"Feature","id":"gebouw/Gebouw.13407707/0","properties":{"source":"Digitaal Vlaanderen Gebouwenregister","source_id":"gebouw/Gebouw.13407707/0","kind":"building","building":"official","height_m":8.85,"status":null},"geometry":{"type":"Polygon","coordinates":[[[3.99563855,50.93923548],[3.99559625,50.93921121],[3.99562011,50.93919263],[3.99566289,50.93921631],[3.99563855,50.93923548]]]}},{"type":"Feature","id":"gebouw/Gebouw.13428064/0","properties":{"source":"Digitaal Vlaanderen Gebouwenregister","source_id":"gebouw/Gebouw.13428064/0","kind":"building","building":"official","height_m":8.1,"status":null},"geometry":{"type":"Polygon","coordinates":[[[3.99537275,50.93960922],[3.99547967,50.93952904],[3.99558065,50.93958326],[3.99547326,50.93966284],[3.99537275,50.93960922]]]}},{"type":"Feature","id":"gebouw/Gebouw.13441142/0","properties":{"source":"Digitaal Vlaanderen Gebouwenregister","source_id":"gebouw/Gebouw.13441142/0","kind":"building","building":"official","height_m":6.6,"status":null},"geometry":{"type":"Polygon","coordinates":[[[3.99571795,50.93923851],[3.99563406,50.93919146],[3.99566293,50.93917002],[3.99574754,50.93921586],[3.99571795,50.93923851]]]}},{"type":"Feature","id":"gebouw/Gebouw.13441483/0","properties":{"source":"Digitaal Vlaanderen Gebouwenregister","source_id":"gebouw/Gebouw.13441483/0","kind":"building","building":"official","height_m":5.85,"status":null},"geometry":{"type":"Polygon","coordinates":[[[3.99626998,50.93924731],[3.99617418,50.93931918],[3.99619463,50.9393301],[3.99615984,50.93935614],[3.99596267,50.93925422],[3.99604444,50.93919037],[3.9960877,50.93921313],[3.99610106,50.93920332],[3.99611707,50.93921206],[3.99615191,50.93918428],[3.99626998,50.93924731]]]}},{"type":"Feature","id":"gebouw/Gebouw.13479696/0","properties":{"source":"Digitaal Vlaanderen Gebouwenregister","source_id":"gebouw/Gebouw.13479696/0","kind":"building","building":"official","height_m":5.1,"status":null},"geometry":{"type":"Polygon","coordinates":[[[3.99611299,50.94014163],[3.99609122,50.94011584],[3.99613969,50.9400977],[3.99616169,50.94012425],[3.99611299,50.94014163]]]}},{"type":"Feature","id":"gebouw/Gebouw.13486840/0","properties":{"source":"Digitaal Vlaanderen Gebouwenregister","source_id":"gebouw/Gebouw.13486840/0","kind":"building","building":"official","height_m":8.1,"status":null},"geometry":{"type":"Polygon","coordinates":[[[3.99613775,50.93984098],[3.99623183,50.93977211],[3.99636256,50.93984192],[3.99635229,50.93984842],[3.99638145,50.93986334],[3.99631368,50.93991574],[3.99628452,50.93990051],[3.99626991,50.93991109],[3.99613775,50.93984098]]]}},{"type":"Feature","id":"gebouw/Gebouw.13500265/0","properties":{"source":"Digitaal Vlaanderen Gebouwenregister","source_id":"gebouw/Gebouw.13500265/0","kind":"building","building":"official","height_m":5.85,"status":null},"geometry":{"type":"Polygon","coordinates":[[[3.99550816,50.94051838],[3.99560662,50.94059785],[3.99547174,50.94066401],[3.9953742,50.94058513],[3.99550816,50.94051838]]]}},{"type":"Feature","id":"gebouw/Gebouw.13505103/0","properties":{"source":"Digitaal Vlaanderen Gebouwenregister","source_id":"gebouw/Gebouw.13505103/0","kind":"building","building":"official","height_m":7.35,"status":null},"geometry":{"type":"Polygon","coordinates":[[[3.9961441,50.93947546],[3.99606786,50.93953165],[3.99608435,50.93954056],[3.99603809,50.93957515],[3.99583734,50.93946976],[3.99588728,50.93943167],[3.99591357,50.93944539],[3.99600211,50.9393791],[3.99607883,50.93941981],[3.99606355,50.93943189],[3.9961441,50.93947546]]]}},{"type":"Feature","id":"gebouw/Gebouw.13660658/0","properties":{"source":"Digitaal Vlaanderen Gebouwenregister","source_id":"gebouw/Gebouw.13660658/0","kind":"building","building":"official","height_m":6.6,"status":null},"geometry":{"type":"Polygon","coordinates":[[[3.99536805,50.9398648],[3.99545899,50.93991412],[3.99529156,50.94003818],[3.99520201,50.93999102],[3.99532539,50.93989846],[3.99529623,50.93988247],[3.9953337,50.93985408],[3.99536357,50.93986871],[3.99536805,50.9398648]]]}},{"type":"Feature","id":"gebouw/Gebouw.15673754/0","properties":{"source":"Digitaal Vlaanderen Gebouwenregister","source_id":"gebouw/Gebouw.15673754/0","kind":"building","building":"official","height_m":6.6,"status":null},"geometry":{"type":"Polygon","coordinates":[[[3.99640578,50.94004068],[3.99643091,50.94006684],[3.9963662,50.94009164],[3.99636097,50.94008605],[3.99634183,50.94006562],[3.99634052,50.94006421],[3.99640549,50.94004037],[3.99640578,50.94004068]]]}},{"type":"Feature","id":"gebouw/Gebouw.15720981/0","properties":{"source":"Digitaal Vlaanderen Gebouwenregister","source_id":"gebouw/Gebouw.15720981/0","kind":"building","building":"official","height_m":7.35,"status":null},"geometry":{"type":"Polygon","coordinates":[[[3.99767563,50.93906129],[3.99764325,50.93908354],[3.9976017,50.93911211],[3.99759882,50.93911408],[3.99758504,50.93912356],[3.99752075,50.93916774],[3.99739585,50.93909519],[3.9974529,50.93905598],[3.99746956,50.93904453],[3.99748105,50.93905116],[3.99748537,50.93905365],[3.99748623,50.93905305],[3.99751963,50.93903],[3.99753059,50.93902243],[3.99756608,50.93899793],[3.99767563,50.93906129]]]}},{"type":"Feature","id":"gebouw/Gebouw.15800380/0","properties":{"source":"Digitaal Vlaanderen Gebouwenregister","source_id":"gebouw/Gebouw.15800380/0","kind":"building","building":"official","height_m":8.1,"status":null},"geometry":{"type":"Polygon","coordinates":[[[3.9966041,50.94043855],[3.99661462,50.94045531],[3.9965609,50.94046861],[3.99655071,50.94045218],[3.99655897,50.94045007],[3.99653726,50.94041423],[3.99641986,50.94044319],[3.99637516,50.94037083],[3.99649585,50.94034095],[3.99649731,50.94034323],[3.99653798,50.94033316],[3.9966041,50.94043855]]]}},{"type":"Feature","id":"gebouw/Gebouw.15836891/0","properties":{"source":"Digitaal Vlaanderen Gebouwenregister","source_id":"gebouw/Gebouw.15836891/0","kind":"building","building":"official","height_m":8.85,"status":null},"geometry":{"type":"Polygon","coordinates":[[[3.99655864,50.94006612],[3.9965657,50.94003989],[3.99670631,50.94005499],[3.99668335,50.94014003],[3.99654294,50.9401249],[3.99654422,50.94012036],[3.9964323,50.94010834],[3.99644688,50.94005412],[3.99655864,50.94006612]]]}},{"type":"Feature","id":"gebouw/Gebouw.15851513/0","properties":{"source":"Digitaal Vlaanderen Gebouwenregister","source_id":"gebouw/Gebouw.15851513/0","kind":"building","building":"official","height_m":8.85,"status":null},"geometry":{"type":"Polygon","coordinates":[[[3.99592954,50.94050067],[3.99578698,50.94038719],[3.99578654,50.94038673],[3.99578627,50.94038621],[3.99578612,50.94038569],[3.99578598,50.940385],[3.99578595,50.94038412],[3.99578598,50.94038354],[3.99578611,50.94038297],[3.99578634,50.94038242],[3.99578667,50.94038188],[3.9957872,50.94038125],[3.99578787,50.94038068],[3.99578864,50.94038017],[3.99578949,50.94037971],[3.99583786,50.94035578],[3.99583893,50.94035545],[3.99584011,50.94035544],[3.99584124,50.94035559],[3.99584236,50.94035578],[3.99584321,50.94035594],[3.99584405,50.94035614],[3.99584484,50.94035642],[3.99584548,50.94035681],[3.99586594,50.94037297],[3.99589943,50.94035625],[3.99589601,50.94035343],[3.99589531,50.94035249],[3.99589465,50.94035137],[3.99589446,50.94035071],[3.99589441,50.94035004],[3.99589448,50.94034938],[3.99589468,50.94034872],[3.99589511,50.94034793],[3.99589572,50.94034718],[3.99589652,50.94034651],[3.99589749,50.94034593],[3.99594935,50.94031992],[3.99595053,50.94031951],[3.99595186,50.94031935],[3.99595319,50.94031937],[3.99595451,50.94031948],[3.99595532,50.9403196],[3.9959561,50.94031977],[3.99595686,50.94031998],[3.99595758,50.94032024],[3.99595919,50.94032095],[3.99596046,50.94032177],[3.99606185,50.94040291],[3.99606291,50.94040429],[3.99606332,50.94040621],[3.99606277,50.94040777],[3.99606163,50.94040918],[3.99606003,50.94041019],[3.99597738,50.94045402],[3.99599485,50.94046793],[3.99592954,50.94050067]]]}},{"type":"Feature","id":"gebouw/Gebouw.15945359/0","properties":{"source":"Digitaal Vlaanderen Gebouwenregister","source_id":"gebouw/Gebouw.15945359/0","kind":"building","building":"official","height_m":8.85,"status":null},"geometry":{"type":"Polygon","coordinates":[[[3.9969336,50.94045981],[3.99695046,50.9404864],[3.99701285,50.94058479],[3.99710272,50.94056249],[3.99708766,50.94053828],[3.99709337,50.94053687],[3.99703047,50.94043575],[3.9969336,50.94045981]]]}},{"type":"Feature","id":"gebouw/Gebouw.15998625/0","properties":{"source":"Digitaal Vlaanderen Gebouwenregister","source_id":"gebouw/Gebouw.15998625/0","kind":"building","building":"official","height_m":7.35,"status":null},"geometry":{"type":"Polygon","coordinates":[[[3.99701285,50.94058479],[3.99695046,50.9404864],[3.9969336,50.94045981],[3.99686545,50.94047672],[3.99681628,50.94048893],[3.99687872,50.94059039],[3.99692559,50.94057875],[3.99694053,50.94060277],[3.99701285,50.94058479]]]}},{"type":"Feature","id":"gebouw/Gebouw.16003904/0","properties":{"source":"Digitaal Vlaanderen Gebouwenregister","source_id":"gebouw/Gebouw.16003904/0","kind":"building","building":"official","height_m":6.6,"status":null},"geometry":{"type":"Polygon","coordinates":[[[3.99679016,50.94013435],[3.99680521,50.94008043],[3.99681718,50.94008176],[3.99683159,50.94003013],[3.99688744,50.94003636],[3.99689474,50.9400102],[3.99696515,50.94001804],[3.99696226,50.94002839],[3.99696771,50.94002953],[3.99697093,50.94003253],[3.99697147,50.94003701],[3.99696922,50.94003999],[3.99696639,50.94004175],[3.99696224,50.94004304],[3.9969587,50.94004318],[3.99692895,50.9401498],[3.99679016,50.94013435]]]}},{"type":"Feature","id":"gebouw/Gebouw.16022190/0","properties":{"source":"Digitaal Vlaanderen Gebouwenregister","source_id":"gebouw/Gebouw.16022190/0","kind":"building","building":"official","height_m":5.1,"status":null},"geometry":{"type":"Polygon","coordinates":[[[3.99804597,50.93790609],[3.99797419,50.93786889],[3.99802428,50.9378303],[3.99804623,50.9378134],[3.99802176,50.93780113],[3.99799667,50.93778854],[3.99806376,50.93773514],[3.99809051,50.93774856],[3.99811467,50.93776068],[3.99811747,50.93775852],[3.99819494,50.93779951],[3.99819136,50.93780206],[3.99822713,50.93782022],[3.99819697,50.93784465],[3.99816147,50.9378257],[3.99809954,50.93787257],[3.99809353,50.93786946],[3.99804597,50.93790609]]]}},{"type":"Feature","id":"gebouw/Gebouw.16025018/0","properties":{"source":"Digitaal Vlaanderen Gebouwenregister","source_id":"gebouw/Gebouw.16025018/0","kind":"building","building":"official","height_m":6.6,"status":null},"geometry":{"type":"Polygon","coordinates":[[[3.99878395,50.93906162],[3.99883911,50.93908803],[3.99881892,50.93910487],[3.99896837,50.93917643],[3.99894807,50.93919336],[3.99903114,50.93923313],[3.99913336,50.93914791],[3.99893498,50.93905228],[3.99895189,50.93903721],[3.99886366,50.93899504],[3.99878395,50.93906162]]]}},{"type":"Feature","id":"gebouw/Gebouw.16040349/0","properties":{"source":"Digitaal Vlaanderen Gebouwenregister","source_id":"gebouw/Gebouw.16040349/0","kind":"building","building":"official","height_m":7.35,"status":null},"geometry":{"type":"Polygon","coordinates":[[[3.99889131,50.93951787],[3.99895393,50.93958666],[3.99891565,50.93960057],[3.99885304,50.93953177],[3.99889131,50.93951787]]]}},{"type":"Feature","id":"gebouw/Gebouw.16093639/0","properties":{"source":"Digitaal Vlaanderen Gebouwenregister","source_id":"gebouw/Gebouw.16093639/0","kind":"building","building":"official","height_m":5.85,"status":null},"geometry":{"type":"Polygon","coordinates":[[[3.99758943,50.94013528],[3.99757746,50.94017606],[3.99755826,50.94017382],[3.99750788,50.94016791],[3.99752268,50.94012628],[3.99758943,50.94013528]]]}},{"type":"Feature","id":"gebouw/Gebouw.16132990/0","properties":{"source":"Digitaal Vlaanderen Gebouwenregister","source_id":"gebouw/Gebouw.16132990/0","kind":"building","building":"official","height_m":8.1,"status":null},"geometry":{"type":"Polygon","coordinates":[[[3.99794576,50.93993067],[3.99796998,50.93995877],[3.99789683,50.93998393],[3.99787215,50.93995529],[3.99787491,50.93995434],[3.99783901,50.93991267],[3.99789302,50.93989409],[3.99792939,50.9399363],[3.99794576,50.93993067]]]}},{"type":"Feature","id":"gebouw/Gebouw.16145940/0","properties":{"source":"Digitaal Vlaanderen Gebouwenregister","source_id":"gebouw/Gebouw.16145940/0","kind":"building","building":"official","height_m":5.1,"status":null},"geometry":{"type":"Polygon","coordinates":[[[3.99860949,50.93983826],[3.99863886,50.93987045],[3.99859777,50.93988542],[3.99856839,50.93985324],[3.99860949,50.93983826]]]}},{"type":"Feature","id":"gebouw/Gebouw.16169988/0","properties":{"source":"Digitaal Vlaanderen Gebouwenregister","source_id":"gebouw/Gebouw.16169988/0","kind":"building","building":"official","height_m":5.1,"status":null},"geometry":{"type":"Polygon","coordinates":[[[3.99897538,50.93961113],[3.99900744,50.93964742],[3.99897375,50.9396593],[3.99894169,50.93962301],[3.99897538,50.93961113]]]}},{"type":"Feature","id":"gebouw/Gebouw.16179074/0","properties":{"source":"Digitaal Vlaanderen Gebouwenregister","source_id":"gebouw/Gebouw.16179074/0","kind":"building","building":"official","height_m":6.6,"status":null},"geometry":{"type":"Polygon","coordinates":[[[3.99646977,50.94001679],[3.99642371,50.94003369],[3.99642269,50.94003406],[3.99642067,50.94003481],[3.99634455,50.93999377],[3.99633931,50.93999095],[3.99637419,50.93996481],[3.99646863,50.94001617],[3.99646977,50.94001679]]]}},{"type":"Feature","id":"gebouw/Gebouw.16265781/0","properties":{"source":"Digitaal Vlaanderen Gebouwenregister","source_id":"gebouw/Gebouw.16265781/0","kind":"building","building":"official","height_m":7.35,"status":null},"geometry":{"type":"Polygon","coordinates":[[[3.99792228,50.93816014],[3.99787575,50.93819656],[3.99786474,50.93819098],[3.99783376,50.93821533],[3.99787507,50.93823592],[3.99783711,50.93826545],[3.99759638,50.93814189],[3.9976278,50.93811746],[3.99772341,50.93816653],[3.99780882,50.9381001],[3.99789993,50.93814687],[3.99789846,50.93814794],[3.99792228,50.93816014]]]}},{"type":"Feature","id":"gebouw/Gebouw.16315135/0","properties":{"source":"Digitaal Vlaanderen Gebouwenregister","source_id":"gebouw/Gebouw.16315135/0","kind":"building","building":"official","height_m":5.85,"status":null},"geometry":{"type":"Polygon","coordinates":[[[3.99640549,50.94004037],[3.99634052,50.94006421],[3.99628451,50.94003458],[3.9962825,50.94003352],[3.99628699,50.94003016],[3.99633922,50.93999102],[3.99633931,50.93999095],[3.99634455,50.93999377],[3.99642067,50.94003481],[3.99640549,50.94004037]]]}},{"type":"Feature","id":"gebouw/Gebouw.16374022/0","properties":{"source":"Digitaal Vlaanderen Gebouwenregister","source_id":"gebouw/Gebouw.16374022/0","kind":"building","building":"official","height_m":8.1,"status":null},"geometry":{"type":"Polygon","coordinates":[[[3.99857123,50.93979659],[3.99860677,50.93983562],[3.9985685,50.93984953],[3.99853296,50.9398105],[3.99857123,50.93979659]]]}},{"type":"Feature","id":"gebouw/Gebouw.16419225/0","properties":{"source":"Digitaal Vlaanderen Gebouwenregister","source_id":"gebouw/Gebouw.16419225/0","kind":"building","building":"official","height_m":7.35,"status":null},"geometry":{"type":"Polygon","coordinates":[[[3.99728713,50.9399598],[3.99731166,50.93986295],[3.99721152,50.93985192],[3.9971821,50.93995847],[3.99728224,50.9399695],[3.99728713,50.9399598]]]}},{"type":"Feature","id":"gebouw/Gebouw.16421913/0","properties":{"source":"Digitaal Vlaanderen Gebouwenregister","source_id":"gebouw/Gebouw.16421913/0","kind":"building","building":"official","height_m":7.35,"status":null},"geometry":{"type":"Polygon","coordinates":[[[3.99703938,50.94016288],[3.99708194,50.94001119],[3.99721083,50.94002563],[3.99716827,50.94017732],[3.99703938,50.94016288]]]}},{"type":"Feature","id":"gebouw/Gebouw.16457307/0","properties":{"source":"Digitaal Vlaanderen Gebouwenregister","source_id":"gebouw/Gebouw.16457307/0","kind":"building","building":"official","height_m":7.35,"status":null},"geometry":{"type":"Polygon","coordinates":[[[3.99944314,50.93971847],[3.99948894,50.93976569],[3.99943107,50.9397887],[3.9993833,50.93974271],[3.99944314,50.93971847]]]}},{"type":"Feature","id":"gebouw/Gebouw.16476570/0","properties":{"source":"Digitaal Vlaanderen Gebouwenregister","source_id":"gebouw/Gebouw.16476570/0","kind":"building","building":"official","height_m":5.1,"status":null},"geometry":{"type":"Polygon","coordinates":[[[3.99873062,50.93904078],[3.99867245,50.93909358],[3.99874083,50.93912498],[3.99880067,50.93907295],[3.99873062,50.93904078]]]}},{"type":"Feature","id":"gebouw/Gebouw.16505303/0","properties":{"source":"Digitaal Vlaanderen Gebouwenregister","source_id":"gebouw/Gebouw.16505303/0","kind":"building","building":"official","height_m":8.85,"status":null},"geometry":{"type":"Polygon","coordinates":[[[3.99799859,50.93890787],[3.99800545,50.93891184],[3.99852953,50.93921489],[3.99813255,50.93948895],[3.99760848,50.9391859],[3.9978903,50.93899134],[3.99776319,50.93891784],[3.9977663,50.93891569],[3.99787834,50.93883834],[3.99799859,50.93890787]]]}},{"type":"Feature","id":"gebouw/Gebouw.16677142/0","properties":{"source":"Digitaal Vlaanderen Gebouwenregister","source_id":"gebouw/Gebouw.16677142/0","kind":"building","building":"official","height_m":8.1,"status":null},"geometry":{"type":"Polygon","coordinates":[[[3.99530755,50.9395744],[3.99521082,50.9395227],[3.99533277,50.9394315],[3.99538152,50.93945653],[3.99536171,50.93947163],[3.99541232,50.93949784],[3.99530755,50.9395744]]]}},{"type":"Feature","id":"gebouw/Gebouw.16702023/0","properties":{"source":"Digitaal Vlaanderen Gebouwenregister","source_id":"gebouw/Gebouw.16702023/0","kind":"building","building":"official","height_m":7.35,"status":null},"geometry":{"type":"Polygon","coordinates":[[[3.99596452,50.93996756],[3.99606293,50.93989651],[3.9961559,50.93994703],[3.99614373,50.93995563],[3.99622953,50.94000208],[3.99614401,50.94006557],[3.99596452,50.93996756]]]}},{"type":"Feature","id":"gebouw/Gebouw.18778827/0","properties":{"source":"Digitaal Vlaanderen Gebouwenregister","source_id":"gebouw/Gebouw.18778827/0","kind":"building","building":"official","height_m":7.35,"status":null},"geometry":{"type":"Polygon","coordinates":[[[3.99537637,50.94027544],[3.99537861,50.94027433],[3.99545659,50.9403373],[3.99537915,50.94037537],[3.99538002,50.94037616],[3.99532293,50.94040443],[3.99531924,50.94040146],[3.99532171,50.94040024],[3.99527107,50.94035941],[3.99523187,50.94037882],[3.99517722,50.94033476],[3.99526577,50.94029091],[3.99529588,50.94031523],[3.99537637,50.94027544]]]}},{"type":"Feature","id":"gebouw/Gebouw.18862543/0","properties":{"source":"Digitaal Vlaanderen Gebouwenregister","source_id":"gebouw/Gebouw.18862543/0","kind":"building","building":"official","height_m":5.85,"status":null},"geometry":{"type":"Polygon","coordinates":[[[3.99537004,50.93900724],[3.99531472,50.93904759],[3.99527758,50.939028],[3.99533331,50.93898786],[3.99537004,50.93900724]]]}},{"type":"Feature","id":"gebouw/Gebouw.18975646/0","properties":{"source":"Digitaal Vlaanderen Gebouwenregister","source_id":"gebouw/Gebouw.18975646/0","kind":"building","building":"official","height_m":8.1,"status":null},"geometry":{"type":"Polygon","coordinates":[[[3.99879811,50.93941207],[3.99887718,50.93949794],[3.99883079,50.93951498],[3.99875014,50.93942904],[3.99874855,50.93942734],[3.99879811,50.93941207]]]}},{"type":"Feature","id":"gebouw/Gebouw.19006688/0","properties":{"source":"Digitaal Vlaanderen Gebouwenregister","source_id":"gebouw/Gebouw.19006688/0","kind":"building","building":"official","height_m":6.6,"status":null},"geometry":{"type":"Polygon","coordinates":[[[3.99748534,50.94009144],[3.99739267,50.94008101],[3.99739063,50.94008828],[3.99731532,50.9400798],[3.99728402,50.94019082],[3.99758396,50.94022458],[3.9975991,50.94017087],[3.99749969,50.94015968],[3.99750061,50.94015795],[3.99746763,50.94015424],[3.99748534,50.94009144]]]}},{"type":"Feature","id":"gebouw/Gebouw.19851702/0","properties":{"source":"Digitaal Vlaanderen Gebouwenregister","source_id":"gebouw/Gebouw.19851702/0","kind":"building","building":"official","height_m":5.1,"status":null},"geometry":{"type":"Polygon","coordinates":[[[3.99653798,50.94033316],[3.99658148,50.94040333],[3.99641986,50.94044319],[3.99637516,50.94037083],[3.99649585,50.94034095],[3.99649731,50.94034323],[3.99653798,50.94033316]]]}},{"type":"Feature","id":"gebouw/Gebouw.19851703/0","properties":{"source":"Digitaal Vlaanderen Gebouwenregister","source_id":"gebouw/Gebouw.19851703/0","kind":"building","building":"official","height_m":5.85,"status":null},"geometry":{"type":"Polygon","coordinates":[[[3.99661462,50.94045531],[3.9965609,50.94046861],[3.99655071,50.94045218],[3.99655897,50.94045007],[3.9966041,50.94043855],[3.99661462,50.94045531]]]}},{"type":"Feature","id":"gebouw/Gebouw.19956096/0","properties":{"source":"Digitaal Vlaanderen Gebouwenregister","source_id":"gebouw/Gebouw.19956096/0","kind":"building","building":"official","height_m":5.1,"status":null},"geometry":{"type":"Polygon","coordinates":[[[3.99565016,50.93924117],[3.99561091,50.93922327],[3.99563654,50.939202],[3.99567579,50.9392199],[3.99565016,50.93924117]]]}},{"type":"Feature","id":"gebouw/Gebouw.20146503/0","properties":{"source":"Digitaal Vlaanderen Gebouwenregister","source_id":"gebouw/Gebouw.20146503/0","kind":"building","building":"official","height_m":7.35,"status":null},"geometry":{"type":"Polygon","coordinates":[[[3.99889491,50.93891222],[3.99894609,50.93886889],[3.99902101,50.93890421],[3.99896983,50.93894754],[3.99889491,50.93891222]]]}},{"type":"Feature","id":"gebouw/Gebouw.31035086/0","properties":{"source":"Digitaal Vlaanderen Gebouwenregister","source_id":"gebouw/Gebouw.31035086/0","kind":"building","building":"official","height_m":6.6,"status":null},"geometry":{"type":"Polygon","coordinates":[[[3.99906586,50.93891176],[3.99908856,50.93892192],[3.99908697,50.93892307],[3.9990503,50.93894963],[3.99900492,50.93892917],[3.99903726,50.93890202],[3.99901621,50.93889242],[3.99901765,50.93889114],[3.99901836,50.9388905],[3.99906586,50.93891176]]]}},{"type":"Feature","id":"gebouw/Gebouw.31806438/0","properties":{"source":"Digitaal Vlaanderen Gebouwenregister","source_id":"gebouw/Gebouw.31806438/0","kind":"building","building":"official","height_m":5.1,"status":null},"geometry":{"type":"Polygon","coordinates":[[[3.999266,50.93922585],[3.99922309,50.93918466],[3.99910235,50.93923487],[3.99914368,50.93927455],[3.999266,50.93922585]]]}},{"type":"Feature","id":"gebouw/Gebouw.31806549/0","properties":{"source":"Digitaal Vlaanderen Gebouwenregister","source_id":"gebouw/Gebouw.31806549/0","kind":"building","building":"official","height_m":7.35,"status":null},"geometry":{"type":"Polygon","coordinates":[[[3.99702071,50.93758303],[3.99711782,50.93760538],[3.99713481,50.93757592],[3.99703771,50.93755356],[3.99702071,50.93758303]]]}},{"type":"Feature","id":"gebouw/Gebouw.32033734/0","properties":{"source":"Digitaal Vlaanderen Gebouwenregister","source_id":"gebouw/Gebouw.32033734/0","kind":"building","building":"official","height_m":8.1,"status":null},"geometry":{"type":"Polygon","coordinates":[[[3.99731166,50.93986295],[3.99728713,50.9399598],[3.99731668,50.939963],[3.99732931,50.93991681],[3.99738518,50.93992265],[3.99739747,50.93987011],[3.99731166,50.93986295]]]}},{"type":"Feature","id":"way/161458924","properties":{"source":"OpenStreetMap","source_id":"way/161458924","kind":"vegetation","landuse":"forest","natural":null,"name":null},"geometry":{"type":"Polygon","coordinates":[[[3.9975868,50.9376766],[3.998819,50.9379724],[3.9985586,50.9381772],[3.9987637,50.9382745],[3.9985943,50.9383995],[3.9981587,50.9381865],[3.9973628,50.93792],[3.9975868,50.9376766]]]}}]}