{"type":"FeatureCollection","features":[{"type":"Feature","id":"gebouw/Gebouw.12866904/0","properties":{"source":"Digitaal Vlaanderen Gebouwenregister","source_id":"gebouw/Gebouw.12866904/0","kind":"building","building":"official","height_m":5.1,"status":null},"geometry":{"type":"Polygon","coordinates":[[[3.99994973,50.94819943],[3.99993207,50.94821591],[3.99980679,50.94818414],[3.99981522,50.94817139],[3.99984214,50.94813065],[3.99993008,50.94815404],[3.9999633,50.94810403],[3.99999861,50.94811394],[4.00000283,50.94811634],[4.00000551,50.94812045],[4.00000565,50.94812191],[4.0000048,50.94812624],[3.99996673,50.94818001],[3.99996098,50.94818814],[3.99995932,50.94819048],[3.99995161,50.94819768],[3.99994973,50.94819943]]]}},{"type":"Feature","id":"gebouw/Gebouw.12893011/0","properties":{"source":"Digitaal Vlaanderen Gebouwenregister","source_id":"gebouw/Gebouw.12893011/0","kind":"building","building":"official","height_m":5.85,"status":null},"geometry":{"type":"Polygon","coordinates":[[[4.00575571,50.95402908],[4.00563985,50.95396017],[4.00572506,50.95390602],[4.00583642,50.95397249],[4.00575571,50.95402908]]]}},{"type":"Feature","id":"gebouw/Gebouw.12901009/0","properties":{"source":"Digitaal Vlaanderen Gebouwenregister","source_id":"gebouw/Gebouw.12901009/0","kind":"building","building":"official","height_m":5.85,"status":null},"geometry":{"type":"Polygon","coordinates":[[[4.00031428,50.94967764],[4.00028562,50.94971808],[4.0003276,50.94972962],[4.00034074,50.94971055],[4.00034645,50.94971212],[4.00036275,50.94969111],[4.00031428,50.94967764]]]}},{"type":"Feature","id":"gebouw/Gebouw.12910142/0","properties":{"source":"Digitaal Vlaanderen Gebouwenregister","source_id":"gebouw/Gebouw.12910142/0","kind":"building","building":"official","height_m":6.6,"status":null},"geometry":{"type":"Polygon","coordinates":[[[4.00031233,50.94921071],[4.00030471,50.94921957],[4.00027311,50.94920733],[4.00028054,50.94919948],[4.00027648,50.94919797],[4.00031637,50.94915768],[4.00034752,50.94916977],[4.00031233,50.94921071]]]}},{"type":"Feature","id":"gebouw/Gebouw.12910515/0","properties":{"source":"Digitaal Vlaanderen Gebouwenregister","source_id":"gebouw/Gebouw.12910515/0","kind":"building","building":"official","height_m":7.35,"status":null},"geometry":{"type":"Polygon","coordinates":[[[4.00041033,50.94777953],[4.00034572,50.94774972],[4.00037242,50.94772916],[4.00043443,50.94775861],[4.00041033,50.94777953]]]}},{"type":"Feature","id":"gebouw/Gebouw.12960959/0","properties":{"source":"Digitaal Vlaanderen Gebouwenregister","source_id":"gebouw/Gebouw.12960959/0","kind":"building","building":"official","height_m":8.85,"status":null},"geometry":{"type":"Polygon","coordinates":[[[3.99990549,50.94909594],[3.99993286,50.94905656],[3.99998253,50.9490693],[3.99995548,50.94910871],[3.99990549,50.94909594]]]}},{"type":"Feature","id":"gebouw/Gebouw.12970939/0","properties":{"source":"Digitaal Vlaanderen Gebouwenregister","source_id":"gebouw/Gebouw.12970939/0","kind":"building","building":"official","height_m":5.85,"status":null},"geometry":{"type":"Polygon","coordinates":[[[3.99949626,50.94797772],[3.99948202,50.94800143],[3.99941453,50.94798388],[3.99939252,50.94801748],[3.99928073,50.94798879],[3.99931671,50.94793037],[3.99949626,50.94797772]]]}},{"type":"Feature","id":"gebouw/Gebouw.13003007/0","properties":{"source":"Digitaal Vlaanderen Gebouwenregister","source_id":"gebouw/Gebouw.13003007/0","kind":"building","building":"official","height_m":8.85,"status":null},"geometry":{"type":"Polygon","coordinates":[[[4.00103987,50.94898865],[4.00098232,50.94904063],[4.00091856,50.94902576],[4.00089341,50.9490498],[4.00071743,50.94897502],[4.00076987,50.94892878],[4.0009029,50.94898619],[4.00093093,50.94895996],[4.00094764,50.94896783],[4.00095906,50.94895664],[4.00096395,50.94895857],[4.00103987,50.94898865]]]}},{"type":"Feature","id":"gebouw/Gebouw.13044275/0","properties":{"source":"Digitaal Vlaanderen Gebouwenregister","source_id":"gebouw/Gebouw.13044275/0","kind":"building","building":"official","height_m":8.85,"status":null},"geometry":{"type":"Polygon","coordinates":[[[4.00013514,50.94935193],[4.00012654,50.94934921],[4.00008817,50.94939384],[4.00001369,50.94936628],[4.00003336,50.94934306],[4.00006511,50.94935321],[4.00011381,50.94929228],[4.0001508,50.9493038],[4.00012512,50.94933332],[4.00014509,50.94933984],[4.00013514,50.94935193]]]}},{"type":"Feature","id":"gebouw/Gebouw.13048429/0","properties":{"source":"Digitaal Vlaanderen Gebouwenregister","source_id":"gebouw/Gebouw.13048429/0","kind":"building","building":"official","height_m":5.85,"status":null},"geometry":{"type":"Polygon","coordinates":[[[3.99843032,50.94950467],[3.9984755,50.94944391],[3.9984683,50.94944197],[3.99848279,50.94942057],[3.99851304,50.94937587],[3.99851434,50.94937623],[3.99851466,50.94937577],[3.99854381,50.94933404],[3.99861412,50.94923342],[3.99821565,50.94910841],[3.99806225,50.94926357],[3.99815343,50.949299],[3.99810048,50.94934528],[3.9982086,50.94939296],[3.99819829,50.94940109],[3.99839999,50.94949253],[3.99838286,50.9495076],[3.99840625,50.94951785],[3.99842275,50.94950284],[3.99843032,50.94950467]],[[3.99843709,50.94942571],[3.99815929,50.94929964],[3.99823479,50.94922561],[3.9982398,50.94922773],[3.99825945,50.94920873],[3.99843087,50.94926388],[3.99843663,50.94925664],[3.99848963,50.9492718],[3.99843085,50.94935189],[3.99847001,50.94936235],[3.99844169,50.94940308],[3.9984479,50.94940565],[3.99843709,50.94942571]]]}},{"type":"Feature","id":"gebouw/Gebouw.13072750/0","properties":{"source":"Digitaal Vlaanderen Gebouwenregister","source_id":"gebouw/Gebouw.13072750/0","kind":"building","building":"official","height_m":8.1,"status":null},"geometry":{"type":"Polygon","coordinates":[[[3.99848462,50.94861182],[3.99841411,50.94873906],[3.99835208,50.94872614],[3.998365,50.94870416],[3.99832036,50.94869342],[3.99834074,50.94865884],[3.99832816,50.94865522],[3.99836091,50.94859276],[3.99841847,50.94860564],[3.9984227,50.94859802],[3.99848462,50.94861182]]]}},{"type":"Feature","id":"gebouw/Gebouw.13078150/0","properties":{"source":"Digitaal Vlaanderen Gebouwenregister","source_id":"gebouw/Gebouw.13078150/0","kind":"building","building":"official","height_m":8.1,"status":null},"geometry":{"type":"Polygon","coordinates":[[[4.00099332,50.94878502],[4.00099442,50.94878537],[4.00117789,50.94884281],[4.00113449,50.94889969],[4.001044,50.94887196],[4.00104736,50.94886819],[4.00095028,50.94883843],[4.00099332,50.94878502]]]}},{"type":"Feature","id":"gebouw/Gebouw.13088399/0","properties":{"source":"Digitaal Vlaanderen Gebouwenregister","source_id":"gebouw/Gebouw.13088399/0","kind":"building","building":"official","height_m":8.85,"status":null},"geometry":{"type":"Polygon","coordinates":[[[3.99826654,50.9483413],[3.99822265,50.94831514],[3.99827656,50.94827749],[3.99832075,50.94830261],[3.99826654,50.9483413]]]}},{"type":"Feature","id":"gebouw/Gebouw.13088842/0","properties":{"source":"Digitaal Vlaanderen Gebouwenregister","source_id":"gebouw/Gebouw.13088842/0","kind":"building","building":"official","height_m":8.1,"status":null},"geometry":{"type":"Polygon","coordinates":[[[4.0000558,50.94913432],[4.0000332,50.94917035],[3.99997479,50.94915422],[3.99999535,50.94911889],[4.00001946,50.94907744],[4.00004525,50.94908365],[4.00008007,50.94902437],[4.00001129,50.94900995],[4.00000265,50.94902398],[3.99997901,50.94901746],[3.99996725,50.94903601],[3.99995913,50.94903374],[3.99995048,50.94904762],[3.99992207,50.94904064],[3.99993027,50.94902735],[3.99987514,50.94901529],[3.99989244,50.94898572],[3.99983537,50.94897071],[3.99988074,50.94889755],[3.99999388,50.94892425],[3.99999337,50.94892509],[4.00016224,50.94896469],[4.00014423,50.94899339],[4.0000558,50.94913432]]]}},{"type":"Feature","id":"gebouw/Gebouw.13101404/0","properties":{"source":"Digitaal Vlaanderen Gebouwenregister","source_id":"gebouw/Gebouw.13101404/0","kind":"building","building":"official","height_m":6.6,"status":null},"geometry":{"type":"Polygon","coordinates":[[[3.99918822,50.94735916],[3.99908491,50.94743681],[3.9990219,50.9474022],[3.99904649,50.94738434],[3.99910977,50.94733998],[3.99911621,50.94734359],[3.9991948,50.94728557],[3.99924792,50.94731428],[3.99918822,50.94735916]]]}},{"type":"Feature","id":"gebouw/Gebouw.13102268/0","properties":{"source":"Digitaal Vlaanderen Gebouwenregister","source_id":"gebouw/Gebouw.13102268/0","kind":"building","building":"official","height_m":6.6,"status":null},"geometry":{"type":"Polygon","coordinates":[[[3.99836011,50.94765752],[3.99831549,50.94768486],[3.99835081,50.94770787],[3.99836682,50.94769806],[3.99837814,50.94770543],[3.99840305,50.94769017],[3.99839463,50.94768468],[3.99839833,50.94768241],[3.99836011,50.94765752]]]}},{"type":"Feature","id":"gebouw/Gebouw.13104166/0","properties":{"source":"Digitaal Vlaanderen Gebouwenregister","source_id":"gebouw/Gebouw.13104166/0","kind":"building","building":"official","height_m":8.1,"status":null},"geometry":{"type":"Polygon","coordinates":[[[4.00056688,50.94950975],[4.00055141,50.94953203],[4.00047967,50.94951249],[4.00043912,50.94950145],[4.00053557,50.94936533],[4.00064584,50.94939662],[4.00060266,50.94946788],[4.00058492,50.94949717],[4.00058219,50.94950166],[4.00057407,50.94949939],[4.00056688,50.94950975]]]}},{"type":"Feature","id":"gebouw/Gebouw.13125855/0","properties":{"source":"Digitaal Vlaanderen Gebouwenregister","source_id":"gebouw/Gebouw.13125855/0","kind":"building","building":"official","height_m":7.35,"status":null},"geometry":{"type":"Polygon","coordinates":[[[3.99983961,50.9482539],[3.99967115,50.94839975],[3.99954898,50.94834306],[3.99956956,50.94832521],[3.99950239,50.94829585],[3.99956877,50.94823776],[3.99959639,50.94824999],[3.99966326,50.94818971],[3.99970401,50.94820794],[3.99971565,50.94819786],[3.99983961,50.9482539]]]}},{"type":"Feature","id":"gebouw/Gebouw.13135870/0","properties":{"source":"Digitaal Vlaanderen Gebouwenregister","source_id":"gebouw/Gebouw.13135870/0","kind":"building","building":"official","height_m":8.1,"status":null},"geometry":{"type":"Polygon","coordinates":[[[3.99977562,50.94967095],[3.99973217,50.94965581],[3.99976359,50.94961765],[3.99980656,50.94963295],[3.99977562,50.94967095]]]}},{"type":"Feature","id":"gebouw/Gebouw.13139592/0","properties":{"source":"Digitaal Vlaanderen Gebouwenregister","source_id":"gebouw/Gebouw.13139592/0","kind":"building","building":"official","height_m":5.1,"status":null},"geometry":{"type":"Polygon","coordinates":[[[3.99948177,50.9487952],[3.99953999,50.94880916],[3.99955131,50.94881187],[3.9994295,50.94903907],[3.99940253,50.94903315],[3.99941421,50.94901072],[3.99936236,50.94899945],[3.99944473,50.94885855],[3.99933105,50.94883593],[3.99937091,50.94876864],[3.99948177,50.9487952]]]}},{"type":"Feature","id":"gebouw/Gebouw.13140208/0","properties":{"source":"Digitaal Vlaanderen Gebouwenregister","source_id":"gebouw/Gebouw.13140208/0","kind":"building","building":"official","height_m":8.1,"status":null},"geometry":{"type":"Polygon","coordinates":[[[3.99870112,50.94779549],[3.99859977,50.94776735],[3.99860276,50.94776296],[3.99856033,50.94775325],[3.99859259,50.94770231],[3.99873963,50.94774093],[3.99870112,50.94779549]]]}},{"type":"Feature","id":"gebouw/Gebouw.13144143/0","properties":{"source":"Digitaal Vlaanderen Gebouwenregister","source_id":"gebouw/Gebouw.13144143/0","kind":"building","building":"official","height_m":7.35,"status":null},"geometry":{"type":"Polygon","coordinates":[[[3.999197,50.94872112],[3.999159,50.94879383],[3.99903478,50.94876979],[3.99906549,50.94871153],[3.9990743,50.94869481],[3.999197,50.94872112]]]}},{"type":"Feature","id":"gebouw/Gebouw.13145842/0","properties":{"source":"Digitaal Vlaanderen Gebouwenregister","source_id":"gebouw/Gebouw.13145842/0","kind":"building","building":"official","height_m":8.1,"status":null},"geometry":{"type":"Polygon","coordinates":[[[3.99601988,50.95082372],[3.99593126,50.95082492],[3.99593031,50.95079173],[3.99601032,50.95078962],[3.99601988,50.95082372]]]}},{"type":"Feature","id":"gebouw/Gebouw.13184945/0","properties":{"source":"Digitaal Vlaanderen Gebouwenregister","source_id":"gebouw/Gebouw.13184945/0","kind":"building","building":"official","height_m":8.85,"status":null},"geometry":{"type":"Polygon","coordinates":[[[3.99918966,50.94886958],[3.99916663,50.94886161],[3.99913017,50.948849],[3.99908554,50.94883356],[3.9990642,50.94885815],[3.99917609,50.94889653],[3.99918966,50.94886958]]]}},{"type":"Feature","id":"gebouw/Gebouw.13193929/0","properties":{"source":"Digitaal Vlaanderen Gebouwenregister","source_id":"gebouw/Gebouw.13193929/0","kind":"building","building":"official","height_m":5.85,"status":null},"geometry":{"type":"Polygon","coordinates":[[[3.99910094,50.94914892],[3.99910873,50.94913607],[3.99908413,50.94913061],[3.99911201,50.94908121],[3.99911368,50.94907826],[3.99909081,50.94907418],[3.99905994,50.94906868],[3.99906234,50.9490647],[3.99904676,50.94906058],[3.999027,50.94905536],[3.99902811,50.94905329],[3.99903325,50.94904375],[3.9989746,50.94902926],[3.99897029,50.94903729],[3.99896719,50.94904307],[3.99894711,50.94908052],[3.99900432,50.94909276],[3.998984,50.94913064],[3.99905616,50.94914709],[3.99906091,50.94913925],[3.99910094,50.94914892]]]}},{"type":"Feature","id":"gebouw/Gebouw.13201461/0","properties":{"source":"Digitaal Vlaanderen Gebouwenregister","source_id":"gebouw/Gebouw.13201461/0","kind":"building","building":"official","height_m":7.35,"status":null},"geometry":{"type":"Polygon","coordinates":[[[3.99554982,50.95057099],[3.9955343,50.95053569],[3.99559688,50.95052437],[3.9956136,50.95056028],[3.99554982,50.95057099]]]}},{"type":"Feature","id":"gebouw/Gebouw.13205738/0","properties":{"source":"Digitaal Vlaanderen Gebouwenregister","source_id":"gebouw/Gebouw.13205738/0","kind":"building","building":"official","height_m":6.6,"status":null},"geometry":{"type":"Polygon","coordinates":[[[3.99899173,50.94828694],[3.99899575,50.94834052],[3.99899501,50.94834251],[3.99882081,50.94831803],[3.99884156,50.94826405],[3.99894906,50.94828044],[3.99899173,50.94828694]]]}},{"type":"Feature","id":"gebouw/Gebouw.13214065/0","properties":{"source":"Digitaal Vlaanderen Gebouwenregister","source_id":"gebouw/Gebouw.13214065/0","kind":"building","building":"official","height_m":5.85,"status":null},"geometry":{"type":"Polygon","coordinates":[[[3.99930389,50.94747563],[3.99939778,50.9474048],[3.99954762,50.94748552],[3.99945366,50.94755603],[3.99939316,50.94752353],[3.99939847,50.94751959],[3.99935943,50.94749863],[3.99935402,50.94750248],[3.99930389,50.94747563]]]}},{"type":"Feature","id":"gebouw/Gebouw.13225900/0","properties":{"source":"Digitaal Vlaanderen Gebouwenregister","source_id":"gebouw/Gebouw.13225900/0","kind":"building","building":"official","height_m":8.1,"status":null},"geometry":{"type":"Polygon","coordinates":[[[3.99543161,50.94963838],[3.99534109,50.94963778],[3.99534491,50.94958165],[3.99542063,50.94958196],[3.99541848,50.94960338],[3.99543424,50.94960338],[3.99543161,50.94963838]]]}},{"type":"Feature","id":"gebouw/Gebouw.13226826/0","properties":{"source":"Digitaal Vlaanderen Gebouwenregister","source_id":"gebouw/Gebouw.13226826/0","kind":"building","building":"official","height_m":5.1,"status":null},"geometry":{"type":"Polygon","coordinates":[[[4.00010261,50.94862765],[4.00013546,50.94861453],[4.00020272,50.94858768],[4.00027156,50.94854886],[4.00020045,50.94850071],[4.00013126,50.94853701],[4.00011895,50.94852899],[4.00004586,50.94857304],[4.00003376,50.94858034],[4.00005604,50.94859551],[3.99999378,50.94866184],[4.00005213,50.94868181],[4.00010261,50.94862765]]]}},{"type":"Feature","id":"gebouw/Gebouw.13228864/0","properties":{"source":"Digitaal Vlaanderen Gebouwenregister","source_id":"gebouw/Gebouw.13228864/0","kind":"building","building":"official","height_m":8.1,"status":null},"geometry":{"type":"Polygon","coordinates":[[[4.00122185,50.94826321],[4.00145537,50.94814979],[4.00162371,50.94828561],[4.00138871,50.94840188],[4.00122185,50.94826321]]]}},{"type":"Feature","id":"gebouw/Gebouw.13234803/0","properties":{"source":"Digitaal Vlaanderen Gebouwenregister","source_id":"gebouw/Gebouw.13234803/0","kind":"building","building":"official","height_m":7.35,"status":null},"geometry":{"type":"Polygon","coordinates":[[[3.99905793,50.94768268],[3.99896158,50.94763937],[3.99892724,50.94762393],[3.99891759,50.94761853],[3.99888492,50.9476456],[3.99878572,50.94761858],[3.99876145,50.94765423],[3.99874036,50.94764876],[3.99870707,50.94769577],[3.99893329,50.94775351],[3.99896222,50.94771028],[3.9990279,50.94772775],[3.99905793,50.94768268]]]}},{"type":"Feature","id":"gebouw/Gebouw.13240574/0","properties":{"source":"Digitaal Vlaanderen Gebouwenregister","source_id":"gebouw/Gebouw.13240574/0","kind":"building","building":"official","height_m":6.6,"status":null},"geometry":{"type":"Polygon","coordinates":[[[3.99540179,50.95076527],[3.99532823,50.9507265],[3.99512616,50.95073826],[3.99511613,50.9506583],[3.9952358,50.95065106],[3.99525132,50.95063853],[3.99531079,50.95063476],[3.99532584,50.95064366],[3.99537648,50.95060368],[3.99537266,50.95060082],[3.99540395,50.95057834],[3.99544694,50.95057547],[3.99545315,50.95060248],[3.99544002,50.95061379],[3.99545124,50.95062058],[3.99543858,50.95062994],[3.99544694,50.95063492],[3.99539105,50.95067399],[3.99540609,50.95068229],[3.99541179,50.95067871],[3.99540021,50.95067282],[3.99545158,50.95063738],[3.99549996,50.95066265],[3.99545414,50.95069616],[3.99545721,50.95069813],[3.99545458,50.95070643],[3.9954713,50.95071247],[3.99547727,50.95075984],[3.99540179,50.95076527]]]}},{"type":"Feature","id":"gebouw/Gebouw.13254119/0","properties":{"source":"Digitaal Vlaanderen Gebouwenregister","source_id":"gebouw/Gebouw.13254119/0","kind":"building","building":"official","height_m":8.85,"status":null},"geometry":{"type":"Polygon","coordinates":[[[3.99958676,50.94771747],[3.99962304,50.94767881],[3.99967884,50.94762945],[3.99968191,50.94763077],[3.99972038,50.94759695],[3.99978825,50.94762789],[3.99975202,50.94766055],[3.9997606,50.94766421],[3.99966862,50.94775342],[3.99958676,50.94771747]]]}},{"type":"Feature","id":"gebouw/Gebouw.13260961/0","properties":{"source":"Digitaal Vlaanderen Gebouwenregister","source_id":"gebouw/Gebouw.13260961/0","kind":"building","building":"official","height_m":5.85,"status":null},"geometry":{"type":"Polygon","coordinates":[[[3.9986154,50.94819542],[3.99857966,50.9481881],[3.99859283,50.94815519],[3.99862934,50.94816147],[3.9986154,50.94819542]]]}},{"type":"Feature","id":"gebouw/Gebouw.13261097/0","properties":{"source":"Digitaal Vlaanderen Gebouwenregister","source_id":"gebouw/Gebouw.13261097/0","kind":"building","building":"official","height_m":8.85,"status":null},"geometry":{"type":"Polygon","coordinates":[[[4.00059173,50.94872547],[4.000442,50.94887433],[4.00037202,50.94884625],[4.00041019,50.94880831],[4.0003397,50.94877911],[4.00037144,50.94874909],[4.00047551,50.94879117],[4.0005515,50.94870989],[4.00059173,50.94872547]]]}},{"type":"Feature","id":"gebouw/Gebouw.13266156/0","properties":{"source":"Digitaal Vlaanderen Gebouwenregister","source_id":"gebouw/Gebouw.13266156/0","kind":"building","building":"official","height_m":5.1,"status":null},"geometry":{"type":"Polygon","coordinates":[[[3.99895002,50.9479284],[3.9988397,50.94789978],[3.99882206,50.94792416],[3.99875748,50.94790562],[3.99877344,50.94788165],[3.99876062,50.94787713],[3.99880756,50.94780895],[3.99883098,50.94781523],[3.99883974,50.94780416],[3.99896518,50.94783949],[3.99895638,50.94785272],[3.99899439,50.94786289],[3.99895002,50.9479284]]]}},{"type":"Feature","id":"gebouw/Gebouw.13272744/0","properties":{"source":"Digitaal Vlaanderen Gebouwenregister","source_id":"gebouw/Gebouw.13272744/0","kind":"building","building":"official","height_m":5.1,"status":null},"geometry":{"type":"Polygon","coordinates":[[[3.99905922,50.94768161],[3.99910034,50.94764748],[3.99913008,50.94762279],[3.99910129,50.94760898],[3.99911072,50.94760449],[3.99906252,50.94756408],[3.99906324,50.9475634],[3.99906056,50.94756228],[3.99901581,50.94759713],[3.99897099,50.94763204],[3.99896158,50.94763937],[3.99905793,50.94768268],[3.99905922,50.94768161]]]}},{"type":"Feature","id":"gebouw/Gebouw.13275254/0","properties":{"source":"Digitaal Vlaanderen Gebouwenregister","source_id":"gebouw/Gebouw.13275254/0","kind":"building","building":"official","height_m":6.6,"status":null},"geometry":{"type":"Polygon","coordinates":[[[4.0008337,50.94911291],[4.00080212,50.94914119],[4.00072551,50.94910774],[4.00070915,50.94912177],[4.00070443,50.94912583],[4.00060228,50.94907786],[4.00065112,50.94903376],[4.0008005,50.94909852],[4.0008337,50.94911291]]]}},{"type":"Feature","id":"gebouw/Gebouw.13275297/0","properties":{"source":"Digitaal Vlaanderen Gebouwenregister","source_id":"gebouw/Gebouw.13275297/0","kind":"building","building":"official","height_m":7.35,"status":null},"geometry":{"type":"Polygon","coordinates":[[[4.00033468,50.94947979],[4.00034113,50.94948191],[4.00031402,50.94951842],[4.00028895,50.94951023],[4.00036813,50.94940384],[4.00037877,50.94938954],[4.00042275,50.94933352],[4.00053557,50.94936533],[4.00043912,50.94950145],[4.00037458,50.94948165],[4.00039283,50.94945586],[4.00035987,50.94944691],[4.00033468,50.94947979]]]}},{"type":"Feature","id":"gebouw/Gebouw.13276078/0","properties":{"source":"Digitaal Vlaanderen Gebouwenregister","source_id":"gebouw/Gebouw.13276078/0","kind":"building","building":"official","height_m":8.1,"status":null},"geometry":{"type":"Polygon","coordinates":[[[4.00024961,50.94928367],[4.00018958,50.94935438],[4.00014509,50.94933984],[4.00012512,50.94933332],[4.0001508,50.9493038],[4.00018626,50.94926304],[4.00024961,50.94928367]]]}},{"type":"Feature","id":"gebouw/Gebouw.13285689/0","properties":{"source":"Digitaal Vlaanderen Gebouwenregister","source_id":"gebouw/Gebouw.13285689/0","kind":"building","building":"official","height_m":7.35,"status":null},"geometry":{"type":"Polygon","coordinates":[[[3.99964552,50.94812075],[3.99962068,50.94814548],[3.99943547,50.94809879],[3.99945151,50.94807145],[3.99953667,50.94809309],[3.99964552,50.94812075]]]}},{"type":"Feature","id":"gebouw/Gebouw.13286001/0","properties":{"source":"Digitaal Vlaanderen Gebouwenregister","source_id":"gebouw/Gebouw.13286001/0","kind":"building","building":"official","height_m":7.35,"status":null},"geometry":{"type":"Polygon","coordinates":[[[3.99881298,50.94738842],[3.99880261,50.94739398],[3.99874192,50.9474265],[3.998711,50.94742193],[3.99869946,50.94742022],[3.99872842,50.94740167],[3.99872503,50.94739859],[3.99878891,50.94736915],[3.99881298,50.94738842]]]}},{"type":"Feature","id":"gebouw/Gebouw.13290416/0","properties":{"source":"Digitaal Vlaanderen Gebouwenregister","source_id":"gebouw/Gebouw.13290416/0","kind":"building","building":"official","height_m":6.6,"status":null},"geometry":{"type":"Polygon","coordinates":[[[3.99916578,50.948917],[3.99905084,50.94888562],[3.99905948,50.94887401],[3.99900967,50.94885977],[3.99897319,50.94891166],[3.99913809,50.94895729],[3.99916578,50.948917]]]}},{"type":"Feature","id":"gebouw/Gebouw.13290636/0","properties":{"source":"Digitaal Vlaanderen Gebouwenregister","source_id":"gebouw/Gebouw.13290636/0","kind":"building","building":"official","height_m":5.1,"status":null},"geometry":{"type":"Polygon","coordinates":[[[4.00123586,50.9489076],[4.00131154,50.9489396],[4.00131739,50.94893408],[4.00135965,50.94895194],[4.00135247,50.94895887],[4.00127497,50.94903375],[4.00127205,50.94903656],[4.00121524,50.94901401],[4.00122291,50.94900647],[4.00115679,50.94897892],[4.00123586,50.9489076]]]}},{"type":"Feature","id":"gebouw/Gebouw.13293406/0","properties":{"source":"Digitaal Vlaanderen Gebouwenregister","source_id":"gebouw/Gebouw.13293406/0","kind":"building","building":"official","height_m":8.1,"status":null},"geometry":{"type":"Polygon","coordinates":[[[4.00095028,50.94883843],[4.0009302,50.94886336],[4.00092962,50.94886408],[4.00088983,50.94885129],[4.00089057,50.94885032],[4.00092449,50.94880621],[4.00093009,50.94880792],[4.00093841,50.94879846],[4.00090741,50.94878865],[4.00096357,50.94871803],[4.00101319,50.94873348],[4.0010305,50.94873887],[4.00099332,50.94878502],[4.00095028,50.94883843]]]}},{"type":"Feature","id":"gebouw/Gebouw.13298497/0","properties":{"source":"Digitaal Vlaanderen Gebouwenregister","source_id":"gebouw/Gebouw.13298497/0","kind":"building","building":"official","height_m":5.85,"status":null},"geometry":{"type":"Polygon","coordinates":[[[4.00177097,50.94834858],[4.00159765,50.94820527],[4.00174748,50.94813102],[4.00170127,50.94809335],[4.00188567,50.94800424],[4.00214793,50.94822129],[4.00196622,50.94831066],[4.00192177,50.94827317],[4.00177097,50.94834858]]]}},{"type":"Feature","id":"gebouw/Gebouw.13308486/0","properties":{"source":"Digitaal Vlaanderen Gebouwenregister","source_id":"gebouw/Gebouw.13308486/0","kind":"building","building":"official","height_m":5.1,"status":null},"geometry":{"type":"Polygon","coordinates":[[[4.00000212,50.94985297],[3.99978352,50.94977977],[3.99973067,50.94976208],[3.9997815,50.94970372],[3.99983289,50.9497197],[4.00000021,50.94977175],[4.00002491,50.94974038],[4.00008173,50.94975932],[4.00000212,50.94985297]]]}},{"type":"Feature","id":"gebouw/Gebouw.13316840/0","properties":{"source":"Digitaal Vlaanderen Gebouwenregister","source_id":"gebouw/Gebouw.13316840/0","kind":"building","building":"official","height_m":6.6,"status":null},"geometry":{"type":"Polygon","coordinates":[[[4.00028183,50.94910053],[4.00027337,50.94910934],[4.00019672,50.94908752],[4.00019025,50.94909536],[4.00015252,50.94908354],[4.00011103,50.94914865],[4.0000558,50.94913432],[4.00014423,50.94899339],[4.00024017,50.94902942],[4.00024629,50.94903171],[4.00031643,50.94905805],[4.00031714,50.94905886],[4.00031761,50.94905975],[4.00031782,50.94906066],[4.00031777,50.94906159],[4.00031757,50.94906228],[4.00031719,50.94906295],[4.00031669,50.94906358],[4.00031606,50.94906416],[4.00031226,50.9490682],[4.00028183,50.94910053]]]}},{"type":"Feature","id":"gebouw/Gebouw.13321438/0","properties":{"source":"Digitaal Vlaanderen Gebouwenregister","source_id":"gebouw/Gebouw.13321438/0","kind":"building","building":"official","height_m":8.1,"status":null},"geometry":{"type":"Polygon","coordinates":[[[3.99886539,50.94803273],[3.9988821,50.94803769],[3.99885842,50.94807294],[3.99871303,50.94803607],[3.99871634,50.94803114],[3.99868062,50.94802087],[3.99872172,50.94795886],[3.99874071,50.94796367],[3.99875044,50.94794812],[3.99876874,50.94795308],[3.99877132,50.94794922],[3.99891612,50.94798712],[3.9989136,50.94799104],[3.99889528,50.94798634],[3.99886539,50.94803273]]]}},{"type":"Feature","id":"gebouw/Gebouw.13324350/0","properties":{"source":"Digitaal Vlaanderen Gebouwenregister","source_id":"gebouw/Gebouw.13324350/0","kind":"building","building":"official","height_m":5.1,"status":null},"geometry":{"type":"Polygon","coordinates":[[[3.99927117,50.95384351],[3.99921273,50.95381324],[3.99915948,50.95385432],[3.9992194,50.95388531],[3.99927117,50.95384351]]]}},{"type":"Feature","id":"gebouw/Gebouw.13326187/0","properties":{"source":"Digitaal Vlaanderen Gebouwenregister","source_id":"gebouw/Gebouw.13326187/0","kind":"building","building":"official","height_m":5.85,"status":null},"geometry":{"type":"Polygon","coordinates":[[[4.00059816,50.94849614],[4.00055467,50.94853794],[4.00053003,50.94852738],[4.00057373,50.94848487],[4.00057442,50.9484842],[4.00059545,50.94849435],[4.00059783,50.94849549],[4.00059849,50.94849581],[4.00059816,50.94849614]]]}},{"type":"Feature","id":"gebouw/Gebouw.13326192/0","properties":{"source":"Digitaal Vlaanderen Gebouwenregister","source_id":"gebouw/Gebouw.13326192/0","kind":"building","building":"official","height_m":5.1,"status":null},"geometry":{"type":"Polygon","coordinates":[[[3.99923685,50.9483701],[3.99922906,50.94837177],[3.99918361,50.94829122],[3.9992719,50.94826876],[3.99928942,50.94829399],[3.99936709,50.94827676],[3.99937929,50.94826522],[3.9994418,50.94828077],[3.99950239,50.94829585],[3.99943991,50.94835051],[3.99940313,50.94833445],[3.99939023,50.94833722],[3.99923685,50.9483701]]]}},{"type":"Feature","id":"gebouw/Gebouw.13326658/0","properties":{"source":"Digitaal Vlaanderen Gebouwenregister","source_id":"gebouw/Gebouw.13326658/0","kind":"building","building":"official","height_m":8.1,"status":null},"geometry":{"type":"Polygon","coordinates":[[[4.00054728,50.94991368],[4.00051051,50.94990397],[4.00054075,50.94985963],[4.00057538,50.94986842],[4.00054728,50.94991368]]]}},{"type":"Feature","id":"gebouw/Gebouw.13332147/0","properties":{"source":"Digitaal Vlaanderen Gebouwenregister","source_id":"gebouw/Gebouw.13332147/0","kind":"building","building":"official","height_m":7.35,"status":null},"geometry":{"type":"Polygon","coordinates":[[[4.00091255,50.94959651],[4.00087028,50.94958613],[4.0008237,50.9496608],[4.00077299,50.94964878],[4.00077638,50.94964337],[4.0007941,50.94961506],[4.00080509,50.9495975],[4.00081116,50.94958781],[4.00081942,50.94957462],[4.00082038,50.94957308],[4.00089214,50.94945844],[4.00098424,50.9494814],[4.00093083,50.94956717],[4.00091255,50.94959651]]]}},{"type":"Feature","id":"gebouw/Gebouw.13335578/0","properties":{"source":"Digitaal Vlaanderen Gebouwenregister","source_id":"gebouw/Gebouw.13335578/0","kind":"building","building":"official","height_m":6.6,"status":null},"geometry":{"type":"Polygon","coordinates":[[[3.99605982,50.95073568],[3.99600316,50.95074949],[3.99596399,50.95068582],[3.99606842,50.95066261],[3.99608215,50.95068667],[3.99610402,50.95072501],[3.99605982,50.95073568]]]}},{"type":"Feature","id":"gebouw/Gebouw.13339985/0","properties":{"source":"Digitaal Vlaanderen Gebouwenregister","source_id":"gebouw/Gebouw.13339985/0","kind":"building","building":"official","height_m":8.85,"status":null},"geometry":{"type":"Polygon","coordinates":[[[4.00076547,50.94920843],[4.00069417,50.94917682],[4.00072165,50.94915184],[4.00079302,50.94918371],[4.00076547,50.94920843]]]}},{"type":"Feature","id":"gebouw/Gebouw.13341768/0","properties":{"source":"Digitaal Vlaanderen Gebouwenregister","source_id":"gebouw/Gebouw.13341768/0","kind":"building","building":"official","height_m":5.1,"status":null},"geometry":{"type":"Polygon","coordinates":[[[4.00012104,50.94915125],[4.00013566,50.94913017],[4.00019536,50.94914624],[4.00018192,50.94916705],[4.00012104,50.94915125]]]}},{"type":"Feature","id":"gebouw/Gebouw.13342277/0","properties":{"source":"Digitaal Vlaanderen Gebouwenregister","source_id":"gebouw/Gebouw.13342277/0","kind":"building","building":"official","height_m":8.85,"status":null},"geometry":{"type":"Polygon","coordinates":[[[3.99937458,50.94817953],[3.99938632,50.94816048],[3.99920415,50.94811518],[3.99916789,50.94817376],[3.99929241,50.94820471],[3.99931137,50.94817434],[3.99936959,50.94818762],[3.99937458,50.94817953]]]}},{"type":"Feature","id":"gebouw/Gebouw.13348258/0","properties":{"source":"Digitaal Vlaanderen Gebouwenregister","source_id":"gebouw/Gebouw.13348258/0","kind":"building","building":"official","height_m":8.1,"status":null},"geometry":{"type":"Polygon","coordinates":[[[4.00000238,50.94851465],[4.00004439,50.94853499],[4.00000203,50.94856269],[3.99996377,50.9485456],[4.00000238,50.94851465]]]}},{"type":"Feature","id":"gebouw/Gebouw.13348517/0","properties":{"source":"Digitaal Vlaanderen Gebouwenregister","source_id":"gebouw/Gebouw.13348517/0","kind":"building","building":"official","height_m":8.85,"status":null},"geometry":{"type":"Polygon","coordinates":[[[4.00039093,50.94862346],[4.00035872,50.94860886],[4.00033009,50.94861707],[4.00027777,50.94863207],[4.00024832,50.94864051],[4.00025425,50.94864845],[4.00027019,50.94865635],[4.00039093,50.94862346]]]}},{"type":"Feature","id":"gebouw/Gebouw.13355106/0","properties":{"source":"Digitaal Vlaanderen Gebouwenregister","source_id":"gebouw/Gebouw.13355106/0","kind":"building","building":"official","height_m":5.1,"status":null},"geometry":{"type":"Polygon","coordinates":[[[3.99961918,50.94781935],[3.99966621,50.94777797],[3.9998126,50.94784023],[3.9999579,50.9477075],[4.00012806,50.9477827],[4.00007243,50.94783257],[4.00011843,50.94784897],[4.00009219,50.94787732],[4.00003966,50.94786462],[4.00002676,50.94787633],[4.00001762,50.94787401],[3.99993525,50.94788632],[3.99992497,50.94787916],[3.9999114,50.94789116],[3.99990492,50.94788815],[3.99986033,50.94792917],[3.99981396,50.94790867],[3.9997856,50.94793309],[3.99958882,50.94784539],[3.99961918,50.94781935]]]}},{"type":"Feature","id":"gebouw/Gebouw.13359052/0","properties":{"source":"Digitaal Vlaanderen Gebouwenregister","source_id":"gebouw/Gebouw.13359052/0","kind":"building","building":"official","height_m":8.1,"status":null},"geometry":{"type":"Polygon","coordinates":[[[3.99967283,50.9480885],[3.99964552,50.94812075],[3.99953667,50.94809309],[3.99945151,50.94807145],[3.99947154,50.94803726],[3.99947898,50.94803915],[3.99967283,50.9480885]]]}},{"type":"Feature","id":"gebouw/Gebouw.13369553/0","properties":{"source":"Digitaal Vlaanderen Gebouwenregister","source_id":"gebouw/Gebouw.13369553/0","kind":"building","building":"official","height_m":8.85,"status":null},"geometry":{"type":"Polygon","coordinates":[[[3.99874966,50.94817832],[3.99858792,50.94815701],[3.99858016,50.94818054],[3.99862903,50.94818698],[3.99862373,50.94820302],[3.99873726,50.94821831],[3.99874966,50.94817832]]]}},{"type":"Feature","id":"gebouw/Gebouw.13376613/0","properties":{"source":"Digitaal Vlaanderen Gebouwenregister","source_id":"gebouw/Gebouw.13376613/0","kind":"building","building":"official","height_m":7.35,"status":null},"geometry":{"type":"Polygon","coordinates":[[[4.00027359,50.94748256],[4.00032771,50.94750828],[4.00030559,50.94752549],[4.00028597,50.94751526],[4.00026129,50.94753415],[4.00023106,50.9475184],[4.00023844,50.94751299],[4.00018583,50.94748557],[4.00022456,50.94745477],[4.00027685,50.94747978],[4.00027359,50.94748256]]]}},{"type":"Feature","id":"gebouw/Gebouw.13387912/0","properties":{"source":"Digitaal Vlaanderen Gebouwenregister","source_id":"gebouw/Gebouw.13387912/0","kind":"building","building":"official","height_m":8.1,"status":null},"geometry":{"type":"Polygon","coordinates":[[[4.00034752,50.94916977],[4.00034849,50.94916877],[4.00037579,50.94917937],[4.00034485,50.94921324],[4.00034007,50.94921128],[4.0003324,50.94921866],[4.00031233,50.94921071],[4.00034752,50.94916977]]]}},{"type":"Feature","id":"gebouw/Gebouw.13389537/0","properties":{"source":"Digitaal Vlaanderen Gebouwenregister","source_id":"gebouw/Gebouw.13389537/0","kind":"building","building":"official","height_m":7.35,"status":null},"geometry":{"type":"Polygon","coordinates":[[[4.00089341,50.9490498],[4.00086488,50.94907657],[4.00083911,50.94906492],[4.0008005,50.94909852],[4.00065112,50.94903376],[4.00071743,50.94897502],[4.00089341,50.9490498]]]}},{"type":"Feature","id":"gebouw/Gebouw.13390300/0","properties":{"source":"Digitaal Vlaanderen Gebouwenregister","source_id":"gebouw/Gebouw.13390300/0","kind":"building","building":"official","height_m":8.1,"status":null},"geometry":{"type":"Polygon","coordinates":[[[4.00042317,50.94987006],[4.00037541,50.94985718],[4.00039725,50.9498255],[4.00044477,50.94983778],[4.00042317,50.94987006]]]}},{"type":"Feature","id":"gebouw/Gebouw.13390332/0","properties":{"source":"Digitaal Vlaanderen Gebouwenregister","source_id":"gebouw/Gebouw.13390332/0","kind":"building","building":"official","height_m":5.1,"status":null},"geometry":{"type":"Polygon","coordinates":[[[3.99930444,50.94741988],[3.9991983,50.94749881],[3.99908491,50.94743681],[3.99918822,50.94735916],[3.99930444,50.94741988]]]}},{"type":"Feature","id":"gebouw/Gebouw.13407578/0","properties":{"source":"Digitaal Vlaanderen Gebouwenregister","source_id":"gebouw/Gebouw.13407578/0","kind":"building","building":"official","height_m":6.6,"status":null},"geometry":{"type":"Polygon","coordinates":[[[3.99613707,50.95090428],[3.99603461,50.95090795],[3.99603557,50.95091863],[3.99586772,50.95092465],[3.99586072,50.95084905],[3.99588531,50.95084811],[3.99602648,50.95084272],[3.9960233,50.95083228],[3.99612919,50.95082643],[3.99613707,50.95090428]]]}},{"type":"Feature","id":"gebouw/Gebouw.13407887/0","properties":{"source":"Digitaal Vlaanderen Gebouwenregister","source_id":"gebouw/Gebouw.13407887/0","kind":"building","building":"official","height_m":8.85,"status":null},"geometry":{"type":"Polygon","coordinates":[[[3.99942266,50.94820631],[3.99948055,50.94822123],[3.9994418,50.94828077],[3.99937929,50.94826522],[3.99934842,50.94825754],[3.99936648,50.94823037],[3.9994012,50.94823872],[3.99942266,50.94820631]]]}},{"type":"Feature","id":"gebouw/Gebouw.13407894/0","properties":{"source":"Digitaal Vlaanderen Gebouwenregister","source_id":"gebouw/Gebouw.13407894/0","kind":"building","building":"official","height_m":5.1,"status":null},"geometry":{"type":"Polygon","coordinates":[[[3.9987855,50.94833795],[3.99878294,50.94834468],[3.9987722,50.94837295],[3.99878878,50.94837566],[3.99877741,50.94840481],[3.99876152,50.94840233],[3.99874049,50.94845625],[3.99862111,50.94843987],[3.99863074,50.94841439],[3.99857509,50.94840569],[3.99857925,50.94839587],[3.99853391,50.94838997],[3.99856322,50.94830795],[3.99856459,50.94830412],[3.9987855,50.94833795]]]}},{"type":"Feature","id":"gebouw/Gebouw.13417648/0","properties":{"source":"Digitaal Vlaanderen Gebouwenregister","source_id":"gebouw/Gebouw.13417648/0","kind":"building","building":"official","height_m":8.1,"status":null},"geometry":{"type":"Polygon","coordinates":[[[4.00106105,50.94975667],[4.00099704,50.94974497],[4.00103482,50.9496561],[4.00109954,50.9496678],[4.00106105,50.94975667]]]}},{"type":"Feature","id":"gebouw/Gebouw.13432642/0","properties":{"source":"Digitaal Vlaanderen Gebouwenregister","source_id":"gebouw/Gebouw.13432642/0","kind":"building","building":"official","height_m":8.1,"status":null},"geometry":{"type":"Polygon","coordinates":[[[3.99987435,50.94744878],[3.99992324,50.94740567],[3.99992564,50.94740356],[4.00005314,50.94745969],[4.00010769,50.94741529],[4.0001726,50.94744797],[4.00006501,50.94753935],[3.99987435,50.94744878]]]}},{"type":"Feature","id":"gebouw/Gebouw.13435043/0","properties":{"source":"Digitaal Vlaanderen Gebouwenregister","source_id":"gebouw/Gebouw.13435043/0","kind":"building","building":"official","height_m":8.85,"status":null},"geometry":{"type":"Polygon","coordinates":[[[4.00072775,50.94941698],[4.00065434,50.9495316],[4.00065423,50.94953177],[4.00064846,50.94954077],[4.00063803,50.94955707],[4.00058417,50.94964013],[4.00057564,50.94965329],[4.00054709,50.949646],[4.00055582,50.94963237],[4.0005506,50.94963103],[4.00059045,50.94956798],[4.00058162,50.94956555],[4.0005941,50.94954644],[4.00060586,50.94952845],[4.00058437,50.94952223],[4.00058877,50.94951522],[4.000589,50.94951485],[4.00059781,50.94950081],[4.00058491,50.94949717],[4.00059812,50.94947537],[4.00060266,50.94946788],[4.00064585,50.94939662],[4.00072775,50.94941698]]]}},{"type":"Feature","id":"gebouw/Gebouw.13443822/0","properties":{"source":"Digitaal Vlaanderen Gebouwenregister","source_id":"gebouw/Gebouw.13443822/0","kind":"building","building":"official","height_m":5.1,"status":null},"geometry":{"type":"Polygon","coordinates":[[[3.99963237,50.94882573],[3.99955131,50.94881187],[3.9994295,50.94903907],[3.99947964,50.94905045],[3.99954691,50.9489266],[3.99957581,50.94893236],[3.99963237,50.94882573]]]}},{"type":"Feature","id":"gebouw/Gebouw.13453074/0","properties":{"source":"Digitaal Vlaanderen Gebouwenregister","source_id":"gebouw/Gebouw.13453074/0","kind":"building","building":"official","height_m":5.1,"status":null},"geometry":{"type":"Polygon","coordinates":[[[4.00028801,50.94869135],[4.00035858,50.94871608],[4.00030734,50.94876883],[4.00023411,50.94874314],[4.00014068,50.94871177],[4.00013623,50.94871027],[4.00018258,50.94865576],[4.00018837,50.9486577],[4.00020982,50.94866492],[4.00022585,50.94867032],[4.00028023,50.94868862],[4.00028801,50.94869135]]]}},{"type":"Feature","id":"gebouw/Gebouw.13477639/0","properties":{"source":"Digitaal Vlaanderen Gebouwenregister","source_id":"gebouw/Gebouw.13477639/0","kind":"building","building":"official","height_m":5.85,"status":null},"geometry":{"type":"Polygon","coordinates":[[[3.99877519,50.94735781],[3.99867533,50.94740814],[3.99867057,50.94741664],[3.99853764,50.94739633],[3.99855506,50.94738809],[3.9987188,50.94731056],[3.99877519,50.94735781]]]}},{"type":"Feature","id":"gebouw/Gebouw.13503570/0","properties":{"source":"Digitaal Vlaanderen Gebouwenregister","source_id":"gebouw/Gebouw.13503570/0","kind":"building","building":"official","height_m":5.1,"status":null},"geometry":{"type":"Polygon","coordinates":[[[3.99960524,50.9479809],[3.99959096,50.94800269],[3.99951926,50.94798378],[3.99949626,50.94797772],[3.99931671,50.94793037],[3.9993504,50.94787542],[3.99940533,50.94788886],[3.99941047,50.94788047],[3.99947113,50.94789632],[3.99945465,50.94792324],[3.99953506,50.94794386],[3.99955274,50.94791502],[3.99963463,50.94793607],[3.99960524,50.9479809]]]}},{"type":"Feature","id":"gebouw/Gebouw.13510957/0","properties":{"source":"Digitaal Vlaanderen Gebouwenregister","source_id":"gebouw/Gebouw.13510957/0","kind":"building","building":"official","height_m":5.85,"status":null},"geometry":{"type":"Polygon","coordinates":[[[4.00027918,50.94952335],[4.00026994,50.94952048],[4.00025062,50.94954522],[4.00020503,50.94953102],[4.00025618,50.94946551],[4.00020508,50.94944855],[4.00027704,50.94935715],[4.00031464,50.94936816],[4.00032722,50.94935102],[4.00035626,50.94935954],[4.00034211,50.94937769],[4.00037878,50.94938954],[4.00036813,50.94940384],[4.00036567,50.94940714],[4.00033707,50.94944557],[4.00028895,50.94951023],[4.00027918,50.94952335]]]}},{"type":"Feature","id":"gebouw/Gebouw.13512731/0","properties":{"source":"Digitaal Vlaanderen Gebouwenregister","source_id":"gebouw/Gebouw.13512731/0","kind":"building","building":"official","height_m":8.85,"status":null},"geometry":{"type":"Polygon","coordinates":[[[4.00066103,50.95105561],[4.00062211,50.95104304],[4.00064659,50.95100669],[4.00068885,50.95101987],[4.00066103,50.95105561]]]}},{"type":"Feature","id":"gebouw/Gebouw.13512737/0","properties":{"source":"Digitaal Vlaanderen Gebouwenregister","source_id":"gebouw/Gebouw.13512737/0","kind":"building","building":"official","height_m":8.85,"status":null},"geometry":{"type":"Polygon","coordinates":[[[3.99827017,50.94860513],[3.99826986,50.9486076],[3.99824548,50.94860536],[3.99823198,50.94870336],[3.99812032,50.94869617],[3.99814087,50.94856797],[3.99814675,50.94856827],[3.99827143,50.94857468],[3.99827392,50.9485748],[3.99827017,50.94860513]]]}},{"type":"Feature","id":"gebouw/Gebouw.13532824/0","properties":{"source":"Digitaal Vlaanderen Gebouwenregister","source_id":"gebouw/Gebouw.13532824/0","kind":"building","building":"official","height_m":8.1,"status":null},"geometry":{"type":"Polygon","coordinates":[[[3.99918385,50.95098749],[3.99906548,50.9509315],[3.99906883,50.95092848],[3.99904545,50.95091728],[3.99907085,50.95089271],[3.99909615,50.95090406],[3.99912179,50.95088099],[3.99917657,50.95090721],[3.99919663,50.95089048],[3.99923164,50.95090724],[3.99922565,50.95091266],[3.9992562,50.95092598],[3.99918385,50.95098749]]]}},{"type":"Feature","id":"gebouw/Gebouw.13536549/0","properties":{"source":"Digitaal Vlaanderen Gebouwenregister","source_id":"gebouw/Gebouw.13536549/0","kind":"building","building":"official","height_m":7.35,"status":null},"geometry":{"type":"Polygon","coordinates":[[[3.99896864,50.94751618],[3.99885103,50.94757195],[3.99878895,50.9475226],[3.99874832,50.94754471],[3.99873185,50.94754391],[3.99869563,50.94751494],[3.99886687,50.94743205],[3.99888836,50.94744991],[3.99889902,50.94745877],[3.99889609,50.94746055],[3.99892851,50.9474875],[3.99893208,50.94748578],[3.99896864,50.94751618]]]}},{"type":"Feature","id":"gebouw/Gebouw.13574649/0","properties":{"source":"Digitaal Vlaanderen Gebouwenregister","source_id":"gebouw/Gebouw.13574649/0","kind":"building","building":"official","height_m":7.35,"status":null},"geometry":{"type":"Polygon","coordinates":[[[4.00080924,50.94943769],[4.00073508,50.94955177],[4.00073454,50.9495526],[4.0007274,50.94956359],[4.00071892,50.94957664],[4.0006922,50.94961832],[4.00069216,50.94961839],[4.00067611,50.94961387],[4.00070297,50.94957279],[4.00070323,50.94957239],[4.00063803,50.94955707],[4.00064846,50.94954077],[4.00065423,50.94953177],[4.00065434,50.9495316],[4.00072775,50.94941698],[4.00080924,50.94943769]]]}},{"type":"Feature","id":"gebouw/Gebouw.13574766/0","properties":{"source":"Digitaal Vlaanderen Gebouwenregister","source_id":"gebouw/Gebouw.13574766/0","kind":"building","building":"official","height_m":5.1,"status":null},"geometry":{"type":"Polygon","coordinates":[[[3.99891936,50.94919525],[3.99900219,50.94921396],[3.99896274,50.94928314],[3.99888078,50.94926444],[3.99873395,50.94923094],[3.99877432,50.94916251],[3.99891936,50.94919525]]]}},{"type":"Feature","id":"gebouw/Gebouw.13585047/0","properties":{"source":"Digitaal Vlaanderen Gebouwenregister","source_id":"gebouw/Gebouw.13585047/0","kind":"building","building":"official","height_m":7.35,"status":null},"geometry":{"type":"Polygon","coordinates":[[[4.0008764,50.94892389],[4.00087131,50.94892891],[4.00080497,50.94889788],[4.00082912,50.94887674],[4.00084046,50.94886683],[4.00090617,50.94889458],[4.0008764,50.94892389]]]}},{"type":"Feature","id":"gebouw/Gebouw.13604468/0","properties":{"source":"Digitaal Vlaanderen Gebouwenregister","source_id":"gebouw/Gebouw.13604468/0","kind":"building","building":"official","height_m":6.6,"status":null},"geometry":{"type":"Polygon","coordinates":[[[3.99970838,50.94752253],[3.9997093,50.94752298],[3.99964216,50.94757934],[3.99957169,50.94754509],[3.99964017,50.94748811],[3.99964479,50.94749044],[3.99970658,50.94752167],[3.99970838,50.94752253]]]}},{"type":"Feature","id":"gebouw/Gebouw.13626401/0","properties":{"source":"Digitaal Vlaanderen Gebouwenregister","source_id":"gebouw/Gebouw.13626401/0","kind":"building","building":"official","height_m":8.85,"status":null},"geometry":{"type":"Polygon","coordinates":[[[4.00033009,50.94861707],[4.00030631,50.94858138],[4.00025338,50.94859544],[4.00027777,50.94863207],[4.00033009,50.94861707]]]}},{"type":"Feature","id":"gebouw/Gebouw.13660153/0","properties":{"source":"Digitaal Vlaanderen Gebouwenregister","source_id":"gebouw/Gebouw.13660153/0","kind":"building","building":"official","height_m":5.85,"status":null},"geometry":{"type":"Polygon","coordinates":[[[4.0005554,50.94847627],[4.0005553,50.94847636],[4.00047244,50.94855114],[4.00052012,50.94857202],[4.00046068,50.94862318],[4.00044909,50.94861794],[4.00043629,50.94862906],[4.00040129,50.94861334],[4.00039093,50.94862346],[4.00035872,50.94860886],[4.00052083,50.94846103],[4.00054904,50.94847347],[4.0005554,50.94847627]]]}},{"type":"Feature","id":"gebouw/Gebouw.13705774/0","properties":{"source":"Digitaal Vlaanderen Gebouwenregister","source_id":"gebouw/Gebouw.13705774/0","kind":"building","building":"official","height_m":8.1,"status":null},"geometry":{"type":"Polygon","coordinates":[[[3.99860623,50.94900276],[3.99867332,50.94901824],[3.99864264,50.94907128],[3.99857519,50.94905656],[3.99856631,50.94907104],[3.9985059,50.94905572],[3.9985035,50.94905874],[3.99844404,50.94904312],[3.99845316,50.94902924],[3.99843119,50.94902333],[3.99848546,50.94893252],[3.99856928,50.94895345],[3.99856697,50.94895744],[3.9985584,50.94897225],[3.99859768,50.94898132],[3.99858774,50.94899849],[3.99860623,50.94900276]]]}},{"type":"Feature","id":"gebouw/Gebouw.13758651/0","properties":{"source":"Digitaal Vlaanderen Gebouwenregister","source_id":"gebouw/Gebouw.13758651/0","kind":"building","building":"official","height_m":7.35,"status":null},"geometry":{"type":"Polygon","coordinates":[[[3.99913809,50.94895729],[3.99911553,50.94899227],[3.99907279,50.9489812],[3.99906199,50.94899704],[3.9990744,50.94900113],[3.99906121,50.94901893],[3.99907768,50.94902408],[3.9990676,50.94903765],[3.99891527,50.94899309],[3.99897319,50.94891166],[3.99913809,50.94895729]]]}},{"type":"Feature","id":"gebouw/Gebouw.13762726/0","properties":{"source":"Digitaal Vlaanderen Gebouwenregister","source_id":"gebouw/Gebouw.13762726/0","kind":"building","building":"official","height_m":8.1,"status":null},"geometry":{"type":"Polygon","coordinates":[[[4.00098424,50.9494814],[4.0010844,50.9495064],[4.00103709,50.94959459],[4.00093083,50.94956717],[4.00098424,50.9494814]]]}},{"type":"Feature","id":"gebouw/Gebouw.13773015/0","properties":{"source":"Digitaal Vlaanderen Gebouwenregister","source_id":"gebouw/Gebouw.13773015/0","kind":"building","building":"official","height_m":7.35,"status":null},"geometry":{"type":"Polygon","coordinates":[[[3.99980679,50.94818414],[3.99980306,50.94818979],[3.99965552,50.94815055],[3.99965823,50.94814647],[3.99970599,50.94807448],[3.99971379,50.94807654],[3.9997675,50.94809072],[3.99977477,50.94809264],[3.99976387,50.94810911],[3.99979941,50.9481185],[3.99984086,50.94812956],[3.99984043,50.9481302],[3.99984214,50.94813065],[3.99981522,50.94817139],[3.99980679,50.94818414]]]}},{"type":"Feature","id":"gebouw/Gebouw.13773408/0","properties":{"source":"Digitaal Vlaanderen Gebouwenregister","source_id":"gebouw/Gebouw.13773408/0","kind":"building","building":"official","height_m":5.1,"status":null},"geometry":{"type":"Polygon","coordinates":[[[3.99935076,50.9487541],[3.999197,50.94872112],[3.999159,50.94879383],[3.99925357,50.94881087],[3.99922081,50.94887757],[3.99927384,50.94889117],[3.99935076,50.9487541]]]}},{"type":"Feature","id":"gebouw/Gebouw.13839371/0","properties":{"source":"Digitaal Vlaanderen Gebouwenregister","source_id":"gebouw/Gebouw.13839371/0","kind":"building","building":"official","height_m":8.85,"status":null},"geometry":{"type":"Polygon","coordinates":[[[4.00071111,50.94965737],[4.00067361,50.94964718],[4.00069216,50.94961839],[4.0006922,50.94961832],[4.00073529,50.94955182],[4.00080924,50.94943769],[4.00089214,50.94945844],[4.00082038,50.94957308],[4.00077638,50.94964337],[4.00073938,50.94963355],[4.0007329,50.9496429],[4.00072192,50.94963987],[4.00071111,50.94965737]]]}},{"type":"Feature","id":"gebouw/Gebouw.13839907/0","properties":{"source":"Digitaal Vlaanderen Gebouwenregister","source_id":"gebouw/Gebouw.13839907/0","kind":"building","building":"official","height_m":5.85,"status":null},"geometry":{"type":"Polygon","coordinates":[[[4.00065755,50.94996075],[4.00059615,50.9499554],[4.00060411,50.94993125],[4.00066145,50.94993705],[4.00065755,50.94996075]]]}},{"type":"Feature","id":"gebouw/Gebouw.16650888/0","properties":{"source":"Digitaal Vlaanderen Gebouwenregister","source_id":"gebouw/Gebouw.16650888/0","kind":"building","building":"official","height_m":5.1,"status":null},"geometry":{"type":"Polygon","coordinates":[[[4.00126166,50.95027707],[4.00120342,50.95025587],[4.0012643,50.95019087],[4.00131992,50.95021192],[4.00126166,50.95027707]]]}},{"type":"Feature","id":"gebouw/Gebouw.16650908/0","properties":{"source":"Digitaal Vlaanderen Gebouwenregister","source_id":"gebouw/Gebouw.16650908/0","kind":"building","building":"official","height_m":6.6,"status":null},"geometry":{"type":"Polygon","coordinates":[[[3.996378,50.94878482],[3.99617021,50.94876022],[3.99619171,50.94869067],[3.9963983,50.94871783],[3.996378,50.94878482]]]}},{"type":"Feature","id":"gebouw/Gebouw.16663275/0","properties":{"source":"Digitaal Vlaanderen Gebouwenregister","source_id":"gebouw/Gebouw.16663275/0","kind":"building","building":"official","height_m":7.35,"status":null},"geometry":{"type":"Polygon","coordinates":[[[4.00030192,50.94930219],[4.00023852,50.94937134],[4.00018958,50.94935438],[4.00024961,50.94928367],[4.00025368,50.94928511],[4.00026349,50.94927931],[4.00028096,50.94928547],[4.00027895,50.94929393],[4.00030192,50.94930219]]]}},{"type":"Feature","id":"gebouw/Gebouw.16663367/0","properties":{"source":"Digitaal Vlaanderen Gebouwenregister","source_id":"gebouw/Gebouw.16663367/0","kind":"building","building":"official","height_m":8.85,"status":null},"geometry":{"type":"Polygon","coordinates":[[[3.9989788,50.94868723],[3.99896966,50.94870103],[3.99894728,50.94873481],[3.99892171,50.9487734],[3.99889948,50.94880696],[3.99883708,50.94890115],[3.99858455,50.9488438],[3.99862538,50.9487738],[3.99880497,50.94881401],[3.99882177,50.94878731],[3.99881342,50.94878519],[3.99883238,50.94875427],[3.998814,50.94875017],[3.99886774,50.94867581],[3.99888518,50.9486787],[3.99888975,50.9486695],[3.99878679,50.94865443],[3.99878463,50.9486582],[3.99869291,50.94864451],[3.99866816,50.94868947],[3.99867915,50.94869099],[3.99864914,50.94873896],[3.99863409,50.94873652],[3.99858824,50.94880923],[3.99847768,50.94878087],[3.99856098,50.94865085],[3.9985156,50.94864128],[3.99851898,50.94863193],[3.99855825,50.94860465],[3.9985663,50.94860644],[3.99862207,50.94861883],[3.99863154,50.9486023],[3.99880379,50.94862389],[3.99885749,50.94863061],[3.99892876,50.94864366],[3.99899914,50.94865653],[3.9989788,50.94868723]]]}},{"type":"Feature","id":"gebouw/Gebouw.16670813/0","properties":{"source":"Digitaal Vlaanderen Gebouwenregister","source_id":"gebouw/Gebouw.16670813/0","kind":"building","building":"official","height_m":8.85,"status":null},"geometry":{"type":"Polygon","coordinates":[[[3.99920415,50.94811518],[3.99938632,50.94816048],[3.99942653,50.94817049],[3.9994731,50.94818207],[3.99949248,50.94815262],[3.99943813,50.94813823],[3.99943259,50.94814727],[3.99937093,50.94813181],[3.99937708,50.94812444],[3.99934057,50.94811424],[3.99935934,50.94808312],[3.99934383,50.94807974],[3.99934783,50.94807262],[3.99930234,50.94806131],[3.99929635,50.94806988],[3.99928923,50.94806807],[3.99929034,50.94806622],[3.9992728,50.948062],[3.99927167,50.94806385],[3.99923977,50.94805616],[3.99920415,50.94811518]]]}},{"type":"Feature","id":"gebouw/Gebouw.16671372/0","properties":{"source":"Digitaal Vlaanderen Gebouwenregister","source_id":"gebouw/Gebouw.16671372/0","kind":"building","building":"official","height_m":5.1,"status":null},"geometry":{"type":"Polygon","coordinates":[[[3.99884129,50.95095696],[3.99886457,50.95092765],[3.99889585,50.95093689],[3.99889225,50.95094172],[3.99896723,50.95096068],[3.99897348,50.95095012],[3.9990573,50.95097135],[3.99919616,50.9510494],[3.99915221,50.95108103],[3.99901395,50.95100451],[3.99889407,50.95097418],[3.99884129,50.95095696]]]}},{"type":"Feature","id":"gebouw/Gebouw.16676950/0","properties":{"source":"Digitaal Vlaanderen Gebouwenregister","source_id":"gebouw/Gebouw.16676950/0","kind":"building","building":"official","height_m":8.1,"status":null},"geometry":{"type":"Polygon","coordinates":[[[4.00148139,50.94912881],[4.00148883,50.94913437],[4.00142453,50.94916976],[4.00143693,50.94917839],[4.00139408,50.94920445],[4.00137347,50.94922858],[4.0012679,50.94920989],[4.001284,50.94917776],[4.00133088,50.94916302],[4.00137181,50.94913996],[4.00132269,50.94910126],[4.00143637,50.94904252],[4.00150323,50.94909239],[4.00146209,50.9491144],[4.00145632,50.94911749],[4.00147563,50.9491319],[4.00148139,50.94912881]]]}},{"type":"Feature","id":"gebouw/Gebouw.16686084/0","properties":{"source":"Digitaal Vlaanderen Gebouwenregister","source_id":"gebouw/Gebouw.16686084/0","kind":"building","building":"official","height_m":5.1,"status":null},"geometry":{"type":"Polygon","coordinates":[[[3.99659656,50.94912989],[3.99654065,50.94911889],[3.99655086,50.94909818],[3.99640033,50.94906857],[3.99639389,50.94908933],[3.9963399,50.94907952],[3.99635448,50.94904723],[3.99634014,50.94904452],[3.99635734,50.94900951],[3.99642135,50.94902098],[3.99645641,50.9489416],[3.99635566,50.94892384],[3.99636127,50.94891113],[3.99636875,50.94891245],[3.99640218,50.94883678],[3.99649546,50.94885322],[3.99651665,50.94880523],[3.99678154,50.9488526],[3.99666617,50.94912086],[3.99660677,50.94910917],[3.99659656,50.94912989]]]}},{"type":"Feature","id":"gebouw/Gebouw.16702093/0","properties":{"source":"Digitaal Vlaanderen Gebouwenregister","source_id":"gebouw/Gebouw.16702093/0","kind":"building","building":"official","height_m":5.85,"status":null},"geometry":{"type":"Polygon","coordinates":[[[4.00017411,50.9481113],[4.00010149,50.94810009],[4.00011463,50.94807154],[4.00018605,50.94808303],[4.00017411,50.9481113]]]}},{"type":"Feature","id":"gebouw/Gebouw.16728251/0","properties":{"source":"Digitaal Vlaanderen Gebouwenregister","source_id":"gebouw/Gebouw.16728251/0","kind":"building","building":"official","height_m":8.85,"status":null},"geometry":{"type":"Polygon","coordinates":[[[4.00091102,50.9488898],[4.00090617,50.94889458],[4.00087941,50.94892093],[4.0008764,50.94892389],[4.00095906,50.94895664],[4.00096395,50.94895857],[4.00100354,50.94891766],[4.00091761,50.9488833],[4.00091102,50.9488898]]]}},{"type":"Feature","id":"gebouw/Gebouw.16728856/0","properties":{"source":"Digitaal Vlaanderen Gebouwenregister","source_id":"gebouw/Gebouw.16728856/0","kind":"building","building":"official","height_m":8.1,"status":null},"geometry":{"type":"Polygon","coordinates":[[[3.99882081,50.94831803],[3.99884156,50.94826405],[3.99884205,50.94826231],[3.99869483,50.94823898],[3.99869306,50.94824342],[3.99868046,50.94827516],[3.99862403,50.9482658],[3.99862325,50.94826568],[3.99858084,50.94825864],[3.99857196,50.94828348],[3.99848446,50.94827007],[3.99847657,50.94829063],[3.99856459,50.94830412],[3.9987855,50.94833795],[3.99879524,50.94831444],[3.99882081,50.94831803]]]}},{"type":"Feature","id":"gebouw/Gebouw.18211146/0","properties":{"source":"Digitaal Vlaanderen Gebouwenregister","source_id":"gebouw/Gebouw.18211146/0","kind":"building","building":"official","height_m":5.1,"status":null},"geometry":{"type":"Polygon","coordinates":[[[4.00094111,50.94843338],[4.00108223,50.94849739],[4.00100669,50.94856436],[4.00086541,50.94850108],[4.00094111,50.94843338]]]}},{"type":"Feature","id":"gebouw/Gebouw.18282160/0","properties":{"source":"Digitaal Vlaanderen Gebouwenregister","source_id":"gebouw/Gebouw.18282160/0","kind":"building","building":"official","height_m":8.1,"status":null},"geometry":{"type":"Polygon","coordinates":[[[3.99991534,50.948537],[3.9998033,50.94862999],[3.99971383,50.94858704],[3.99971299,50.94858663],[3.99982533,50.94849379],[3.99991534,50.948537]]]}},{"type":"Feature","id":"gebouw/Gebouw.18341940/0","properties":{"source":"Digitaal Vlaanderen Gebouwenregister","source_id":"gebouw/Gebouw.18341940/0","kind":"building","building":"official","height_m":5.1,"status":null},"geometry":{"type":"Polygon","coordinates":[[[3.99982533,50.94849379],[3.99971299,50.94858663],[3.99968014,50.94857082],[3.99961075,50.94853741],[3.99967412,50.94848482],[3.99969953,50.94849704],[3.99976384,50.94844367],[3.99984101,50.94848078],[3.99982533,50.94849379]]]}},{"type":"Feature","id":"gebouw/Gebouw.18496971/0","properties":{"source":"Digitaal Vlaanderen Gebouwenregister","source_id":"gebouw/Gebouw.18496971/0","kind":"building","building":"official","height_m":7.35,"status":null},"geometry":{"type":"Polygon","coordinates":[[[3.99992119,50.9490433],[3.99994414,50.94900848],[3.99999435,50.94902169],[4.00004561,50.94893613],[3.9998798,50.9488971],[3.99987974,50.94889708],[3.99987846,50.94889678],[3.99983605,50.94897089],[3.99983611,50.9489709],[3.99987588,50.94898136],[3.99984778,50.949024],[3.99992119,50.9490433]]]}},{"type":"Feature","id":"gebouw/Gebouw.18496972/0","properties":{"source":"Digitaal Vlaanderen Gebouwenregister","source_id":"gebouw/Gebouw.18496972/0","kind":"building","building":"official","height_m":8.1,"status":null},"geometry":{"type":"Polygon","coordinates":[[[4.00014423,50.94899339],[4.00016205,50.94896458],[4.00004561,50.94893613],[3.99999435,50.94902169],[4.00000265,50.94902398],[4.00001129,50.94900995],[4.00002727,50.9490133],[3.9999919,50.94908063],[4.00003072,50.94908965],[4.00001036,50.9491248],[4.0000558,50.94913432],[4.00014423,50.94899339]]]}},{"type":"Feature","id":"gebouw/Gebouw.18696215/0","properties":{"source":"Digitaal Vlaanderen Gebouwenregister","source_id":"gebouw/Gebouw.18696215/0","kind":"building","building":"official","height_m":8.85,"status":null},"geometry":{"type":"Polygon","coordinates":[[[3.99990616,50.94861114],[3.99993973,50.94858457],[3.99997564,50.94860185],[3.99994207,50.94862842],[3.99990616,50.94861114]]]}},{"type":"Feature","id":"gebouw/Gebouw.18696222/0","properties":{"source":"Digitaal Vlaanderen Gebouwenregister","source_id":"gebouw/Gebouw.18696222/0","kind":"building","building":"official","height_m":5.1,"status":null},"geometry":{"type":"Polygon","coordinates":[[[4.00184416,50.94904032],[4.00186376,50.94905367],[4.00188375,50.9490673],[4.00184032,50.94909315],[4.00184306,50.94909494],[4.00175916,50.94914499],[4.00173922,50.94913157],[4.00171762,50.94914583],[4.0016876,50.94912597],[4.00170899,50.94911185],[4.00171574,50.94911569],[4.00174637,50.94909771],[4.00182954,50.9490489],[4.00184416,50.94904032]]]}},{"type":"Feature","id":"gebouw/Gebouw.18861918/0","properties":{"source":"Digitaal Vlaanderen Gebouwenregister","source_id":"gebouw/Gebouw.18861918/0","kind":"building","building":"official","height_m":5.1,"status":null},"geometry":{"type":"Polygon","coordinates":[[[3.99542051,50.95211703],[3.99547377,50.9521437],[3.99543408,50.95217618],[3.9953817,50.95214829],[3.99542051,50.95211703]]]}},{"type":"Feature","id":"gebouw/Gebouw.18862202/0","properties":{"source":"Digitaal Vlaanderen Gebouwenregister","source_id":"gebouw/Gebouw.18862202/0","kind":"building","building":"official","height_m":6.6,"status":null},"geometry":{"type":"Polygon","coordinates":[[[4.00108593,50.94914557],[4.00103188,50.94919312],[4.00100284,50.94918224],[4.00106069,50.94913295],[4.00108593,50.94914557]]]}},{"type":"Feature","id":"gebouw/Gebouw.18862203/0","properties":{"source":"Digitaal Vlaanderen Gebouwenregister","source_id":"gebouw/Gebouw.18862203/0","kind":"building","building":"official","height_m":7.35,"status":null},"geometry":{"type":"Polygon","coordinates":[[[4.00137962,50.94845415],[4.00130413,50.94848269],[4.00128256,50.94845976],[4.00135483,50.94843122],[4.00137962,50.94845415]]]}},{"type":"Feature","id":"gebouw/Gebouw.18862204/0","properties":{"source":"Digitaal Vlaanderen Gebouwenregister","source_id":"gebouw/Gebouw.18862204/0","kind":"building","building":"official","height_m":8.1,"status":null},"geometry":{"type":"Polygon","coordinates":[[[3.99819815,50.9482443],[3.99821668,50.94819164],[3.99828619,50.94820209],[3.99826622,50.94825405],[3.99819815,50.9482443]]]}},{"type":"Feature","id":"gebouw/Gebouw.18862205/0","properties":{"source":"Digitaal Vlaanderen Gebouwenregister","source_id":"gebouw/Gebouw.18862205/0","kind":"building","building":"official","height_m":8.85,"status":null},"geometry":{"type":"Polygon","coordinates":[[[3.99825448,50.94835261],[3.99823891,50.94839276],[3.99816929,50.94838176],[3.99818668,50.94834242],[3.99825448,50.94835261]]]}},{"type":"Feature","id":"gebouw/Gebouw.18862206/0","properties":{"source":"Digitaal Vlaanderen Gebouwenregister","source_id":"gebouw/Gebouw.18862206/0","kind":"building","building":"official","height_m":5.1,"status":null},"geometry":{"type":"Polygon","coordinates":[[[3.99838809,50.94777129],[3.99853766,50.94781053],[3.99851736,50.94784131],[3.99836723,50.94779909],[3.99838809,50.94777129]]]}},{"type":"Feature","id":"gebouw/Gebouw.18862207/0","properties":{"source":"Digitaal Vlaanderen Gebouwenregister","source_id":"gebouw/Gebouw.18862207/0","kind":"building","building":"official","height_m":5.85,"status":null},"geometry":{"type":"Polygon","coordinates":[[[3.99814925,50.94772534],[3.99816115,50.94770421],[3.99823112,50.94772236],[3.99823939,50.94770963],[3.99835284,50.94773906],[3.99834533,50.94775061],[3.99838527,50.94776097],[3.99837103,50.94778287],[3.99834381,50.94777581],[3.99833068,50.94779601],[3.99820871,50.94776437],[3.99821144,50.94776016],[3.99820078,50.9477574],[3.99821117,50.94774141],[3.99814925,50.94772534]]]}},{"type":"Feature","id":"gebouw/Gebouw.19692620/0","properties":{"source":"Digitaal Vlaanderen Gebouwenregister","source_id":"gebouw/Gebouw.19692620/0","kind":"building","building":"official","height_m":6.6,"status":null},"geometry":{"type":"Polygon","coordinates":[[[4.00089214,50.94945844],[4.00082038,50.94957308],[4.00081942,50.94957462],[4.00081116,50.94958781],[4.00080509,50.9495975],[4.0007941,50.94961506],[4.00075498,50.94960491],[4.00076596,50.94958803],[4.00071903,50.94957667],[4.00071892,50.94957664],[4.0007274,50.94956359],[4.00073454,50.9495526],[4.00073508,50.94955177],[4.00080924,50.94943769],[4.00089214,50.94945844]]]}},{"type":"Feature","id":"gebouw/Gebouw.19692621/0","properties":{"source":"Digitaal Vlaanderen Gebouwenregister","source_id":"gebouw/Gebouw.19692621/0","kind":"building","building":"official","height_m":7.35,"status":null},"geometry":{"type":"Polygon","coordinates":[[[4.00077638,50.94964337],[4.00073938,50.94963355],[4.0007329,50.9496429],[4.00072192,50.94963987],[4.00071111,50.94965737],[4.0006736,50.94964718],[4.00069216,50.94961839],[4.0006922,50.94961832],[4.00073454,50.9495526],[4.00081942,50.94957462],[4.00077638,50.94964337]]]}},{"type":"Feature","id":"gebouw/Gebouw.19692622/0","properties":{"source":"Digitaal Vlaanderen Gebouwenregister","source_id":"gebouw/Gebouw.19692622/0","kind":"building","building":"official","height_m":8.1,"status":null},"geometry":{"type":"Polygon","coordinates":[[[4.00059812,50.94947537],[4.00052377,50.94945435],[4.0004821,50.94951316],[4.00043912,50.94950145],[4.00053557,50.94936533],[4.00064585,50.94939662],[4.00060266,50.94946788],[4.00059812,50.94947537]]]}},{"type":"Feature","id":"gebouw/Gebouw.19692623/0","properties":{"source":"Digitaal Vlaanderen Gebouwenregister","source_id":"gebouw/Gebouw.19692623/0","kind":"building","building":"official","height_m":8.85,"status":null},"geometry":{"type":"Polygon","coordinates":[[[4.00056725,50.94950921],[4.00056688,50.94950975],[4.00056258,50.94951593],[4.00055141,50.94953203],[4.0004821,50.94951316],[4.00052377,50.94945435],[4.00059812,50.94947537],[4.00058491,50.94949717],[4.00058219,50.94950166],[4.00057407,50.94949939],[4.00056725,50.94950921]]]}},{"type":"Feature","id":"gebouw/Gebouw.19692624/0","properties":{"source":"Digitaal Vlaanderen Gebouwenregister","source_id":"gebouw/Gebouw.19692624/0","kind":"building","building":"official","height_m":5.1,"status":null},"geometry":{"type":"Polygon","coordinates":[[[4.00053557,50.94936533],[4.00043912,50.94950145],[4.00038929,50.94948616],[4.00040448,50.94946406],[4.00043124,50.94942512],[4.00036567,50.94940714],[4.00036813,50.94940384],[4.00037878,50.94938954],[4.00042275,50.94933352],[4.00053557,50.94936533]]]}},{"type":"Feature","id":"gebouw/Gebouw.19692625/0","properties":{"source":"Digitaal Vlaanderen Gebouwenregister","source_id":"gebouw/Gebouw.19692625/0","kind":"building","building":"official","height_m":5.85,"status":null},"geometry":{"type":"Polygon","coordinates":[[[4.00043124,50.94942512],[4.00040448,50.94946406],[4.00038987,50.94946005],[4.00033707,50.94944557],[4.00036567,50.94940714],[4.00043124,50.94942512]]]}},{"type":"Feature","id":"gebouw/Gebouw.19704367/0","properties":{"source":"Digitaal Vlaanderen Gebouwenregister","source_id":"gebouw/Gebouw.19704367/0","kind":"building","building":"official","height_m":5.85,"status":null},"geometry":{"type":"Polygon","coordinates":[[[3.99955132,50.94881187],[3.99953999,50.94880916],[3.99948177,50.94879521],[3.99944474,50.94885855],[3.99936236,50.94899945],[3.99941421,50.94901072],[3.99940253,50.94903315],[3.9994295,50.94903908],[3.99955132,50.94881187]]]}},{"type":"Feature","id":"gebouw/Gebouw.19704368/0","properties":{"source":"Digitaal Vlaanderen Gebouwenregister","source_id":"gebouw/Gebouw.19704368/0","kind":"building","building":"official","height_m":6.6,"status":null},"geometry":{"type":"Polygon","coordinates":[[[3.99948177,50.94879521],[3.99937091,50.94876864],[3.99933105,50.94883593],[3.99944474,50.94885855],[3.99948177,50.94879521]]]}},{"type":"Feature","id":"gebouw/Gebouw.19716959/0","properties":{"source":"Digitaal Vlaanderen Gebouwenregister","source_id":"gebouw/Gebouw.19716959/0","kind":"building","building":"official","height_m":8.85,"status":null},"geometry":{"type":"Polygon","coordinates":[[[3.99891664,50.94919464],[3.9988772,50.94926362],[3.99873395,50.94923094],[3.99877432,50.94916251],[3.99891664,50.94919464]]]}},{"type":"Feature","id":"gebouw/Gebouw.19716960/0","properties":{"source":"Digitaal Vlaanderen Gebouwenregister","source_id":"gebouw/Gebouw.19716960/0","kind":"building","building":"official","height_m":5.1,"status":null},"geometry":{"type":"Polygon","coordinates":[[[3.99891664,50.94919464],[3.99900219,50.94921396],[3.99896274,50.94928314],[3.9988772,50.94926362],[3.99891664,50.94919464]]]}},{"type":"Feature","id":"gebouw/Gebouw.19719501/0","properties":{"source":"Digitaal Vlaanderen Gebouwenregister","source_id":"gebouw/Gebouw.19719501/0","kind":"building","building":"official","height_m":7.35,"status":null},"geometry":{"type":"Polygon","coordinates":[[[3.99603462,50.95090795],[3.99603557,50.95091863],[3.99586772,50.95092465],[3.99586072,50.95084905],[3.99588531,50.95084811],[3.99602648,50.95084272],[3.99603462,50.95090795]]]}},{"type":"Feature","id":"gebouw/Gebouw.19719502/0","properties":{"source":"Digitaal Vlaanderen Gebouwenregister","source_id":"gebouw/Gebouw.19719502/0","kind":"building","building":"official","height_m":8.1,"status":null},"geometry":{"type":"Polygon","coordinates":[[[3.99613707,50.95090428],[3.99603462,50.95090795],[3.99602648,50.95084272],[3.9960233,50.95083228],[3.99602249,50.9508296],[3.9961052,50.95080832],[3.99612397,50.95084101],[3.99612818,50.95084055],[3.99613707,50.95090428]]]}},{"type":"Feature","id":"gebouw/Gebouw.19721297/0","properties":{"source":"Digitaal Vlaanderen Gebouwenregister","source_id":"gebouw/Gebouw.19721297/0","kind":"building","building":"official","height_m":8.85,"status":null},"geometry":{"type":"Polygon","coordinates":[[[3.99910977,50.94733998],[3.99904649,50.94738434],[3.9990216,50.94737163],[3.99907905,50.94732466],[3.99910977,50.94733998]]]}},{"type":"Feature","id":"gebouw/Gebouw.19954850/0","properties":{"source":"Digitaal Vlaanderen Gebouwenregister","source_id":"gebouw/Gebouw.19954850/0","kind":"building","building":"official","height_m":6.6,"status":null},"geometry":{"type":"Polygon","coordinates":[[[3.99663392,50.94866693],[3.99666312,50.94860011],[3.99687573,50.94863718],[3.99684652,50.94870401],[3.99663392,50.94866693]]]}},{"type":"Feature","id":"gebouw/Gebouw.19954851/0","properties":{"source":"Digitaal Vlaanderen Gebouwenregister","source_id":"gebouw/Gebouw.19954851/0","kind":"building","building":"official","height_m":7.35,"status":null},"geometry":{"type":"Polygon","coordinates":[[[3.9973736,50.95006416],[3.99738487,50.95001012],[3.99751334,50.95002081],[3.99751317,50.95002161],[3.99753275,50.95002324],[3.99752164,50.95007648],[3.9973736,50.95006416]]]}},{"type":"Feature","id":"gebouw/Gebouw.19954852/0","properties":{"source":"Digitaal Vlaanderen Gebouwenregister","source_id":"gebouw/Gebouw.19954852/0","kind":"building","building":"official","height_m":8.1,"status":null},"geometry":{"type":"Polygon","coordinates":[[[4.00113229,50.94935735],[4.00107946,50.94933342],[4.00111607,50.94930117],[4.00116889,50.94932509],[4.00113229,50.94935735]]]}},{"type":"Feature","id":"gebouw/Gebouw.19954853/0","properties":{"source":"Digitaal Vlaanderen Gebouwenregister","source_id":"gebouw/Gebouw.19954853/0","kind":"building","building":"official","height_m":8.85,"status":null},"geometry":{"type":"Polygon","coordinates":[[[4.00190526,50.94922141],[4.00187657,50.94923583],[4.00185552,50.94921912],[4.00184786,50.94922297],[4.00184673,50.94922207],[4.00180015,50.94918509],[4.00183652,50.94916681],[4.00187532,50.94919763],[4.00190526,50.94922141]]]}},{"type":"Feature","id":"gebouw/Gebouw.19954854/0","properties":{"source":"Digitaal Vlaanderen Gebouwenregister","source_id":"gebouw/Gebouw.19954854/0","kind":"building","building":"official","height_m":5.1,"status":null},"geometry":{"type":"Polygon","coordinates":[[[3.99967332,50.94882546],[3.99971706,50.94883543],[3.99971106,50.94884593],[3.99973156,50.9488506],[3.99971354,50.94888216],[3.99969332,50.94887755],[3.9996925,50.948879],[3.99964847,50.94886896],[3.99966894,50.94883313],[3.99967332,50.94882546]]]}},{"type":"Feature","id":"gebouw/Gebouw.19954855/0","properties":{"source":"Digitaal Vlaanderen Gebouwenregister","source_id":"gebouw/Gebouw.19954855/0","kind":"building","building":"official","height_m":5.85,"status":null},"geometry":{"type":"Polygon","coordinates":[[[3.99994398,50.94910577],[3.99995548,50.94910871],[3.9999713,50.94911274],[3.99995276,50.94914171],[3.99992647,50.949135],[3.99990282,50.94912896],[3.99992135,50.94909999],[3.99994398,50.94910577]]]}},{"type":"Feature","id":"gebouw/Gebouw.19954856/0","properties":{"source":"Digitaal Vlaanderen Gebouwenregister","source_id":"gebouw/Gebouw.19954856/0","kind":"building","building":"official","height_m":6.6,"status":null},"geometry":{"type":"Polygon","coordinates":[[[4.00012409,50.94976835],[4.00014963,50.94972763],[4.00018049,50.94973535],[4.00017176,50.94974928],[4.00017928,50.94975116],[4.00016247,50.94977796],[4.00012409,50.94976835]]]}},{"type":"Feature","id":"gebouw/Gebouw.19954875/0","properties":{"source":"Digitaal Vlaanderen Gebouwenregister","source_id":"gebouw/Gebouw.19954875/0","kind":"building","building":"official","height_m":7.35,"status":null},"geometry":{"type":"Polygon","coordinates":[[[4.00022456,50.94745477],[4.00025363,50.94743052],[4.00030591,50.94745553],[4.00027685,50.94747978],[4.00022456,50.94745477]]]}},{"type":"Feature","id":"gebouw/Gebouw.19954876/0","properties":{"source":"Digitaal Vlaanderen Gebouwenregister","source_id":"gebouw/Gebouw.19954876/0","kind":"building","building":"official","height_m":8.1,"status":null},"geometry":{"type":"Polygon","coordinates":[[[4.00014363,50.94756972],[4.00011462,50.94759293],[4.00008159,50.94757753],[4.00007395,50.94757397],[4.00010397,50.94754994],[4.00014363,50.94756972]]]}},{"type":"Feature","id":"gebouw/Gebouw.19956095/0","properties":{"source":"Digitaal Vlaanderen Gebouwenregister","source_id":"gebouw/Gebouw.19956095/0","kind":"building","building":"official","height_m":8.85,"status":null},"geometry":{"type":"Polygon","coordinates":[[[3.99975691,50.94962898],[3.99981657,50.94964646],[3.99979255,50.94967918],[3.99973289,50.94966171],[3.99975691,50.94962898]]]}},{"type":"Feature","id":"gebouw/Gebouw.20802309/0","properties":{"source":"Digitaal Vlaanderen Gebouwenregister","source_id":"gebouw/Gebouw.20802309/0","kind":"building","building":"official","height_m":7.35,"status":null},"geometry":{"type":"Polygon","coordinates":[[[3.99976095,50.94798752],[3.99978935,50.94800098],[3.99976541,50.94803196],[3.99973285,50.9480212],[3.99976095,50.94798752]]]}},{"type":"Feature","id":"gebouw/Gebouw.20802310/0","properties":{"source":"Digitaal Vlaanderen Gebouwenregister","source_id":"gebouw/Gebouw.20802310/0","kind":"building","building":"official","height_m":8.1,"status":null},"geometry":{"type":"Polygon","coordinates":[[[3.99992716,50.94830717],[4.00000076,50.94824493],[4.00006753,50.94827644],[3.99999393,50.94833868],[3.99992716,50.94830717]]]}},{"type":"Feature","id":"gebouw/Gebouw.20802311/0","properties":{"source":"Digitaal Vlaanderen Gebouwenregister","source_id":"gebouw/Gebouw.20802311/0","kind":"building","building":"official","height_m":8.85,"status":null},"geometry":{"type":"Polygon","coordinates":[[[3.99995224,50.94849881],[4.00002298,50.94843931],[4.0000654,50.94845944],[3.99999466,50.94851893],[3.99995224,50.94849881]]]}},{"type":"Feature","id":"gebouw/Gebouw.20802313/0","properties":{"source":"Digitaal Vlaanderen Gebouwenregister","source_id":"gebouw/Gebouw.20802313/0","kind":"building","building":"official","height_m":5.85,"status":null},"geometry":{"type":"Polygon","coordinates":[[[3.99683603,50.94896074],[3.99691772,50.94897446],[3.99690248,50.94901065],[3.9968208,50.94899693],[3.99683603,50.94896074]]]}},{"type":"Feature","id":"gebouw/Gebouw.30883430/0","properties":{"source":"Digitaal Vlaanderen Gebouwenregister","source_id":"gebouw/Gebouw.30883430/0","kind":"building","building":"official","height_m":6.6,"status":null},"geometry":{"type":"Polygon","coordinates":[[[3.99586148,50.95075419],[3.99584067,50.95072078],[3.99591694,50.95070182],[3.99593776,50.95073522],[3.99586148,50.95075419]]]}},{"type":"Feature","id":"gebouw/Gebouw.30883431/0","properties":{"source":"Digitaal Vlaanderen Gebouwenregister","source_id":"gebouw/Gebouw.30883431/0","kind":"building","building":"official","height_m":7.35,"status":null},"geometry":{"type":"Polygon","coordinates":[[[3.99564558,50.95053149],[3.99563276,50.95049776],[3.99568728,50.95048949],[3.9957001,50.95052322],[3.99564558,50.95053149]]]}},{"type":"Feature","id":"gebouw/Gebouw.30883432/0","properties":{"source":"Digitaal Vlaanderen Gebouwenregister","source_id":"gebouw/Gebouw.30883432/0","kind":"building","building":"official","height_m":8.1,"status":null},"geometry":{"type":"Polygon","coordinates":[[[3.99813367,50.94733765],[3.99812499,50.94736326],[3.9980122,50.94734797],[3.99802089,50.94732236],[3.99813367,50.94733765]]]}},{"type":"Feature","id":"gebouw/Gebouw.31075309/0","properties":{"source":"Digitaal Vlaanderen Gebouwenregister","source_id":"gebouw/Gebouw.31075309/0","kind":"building","building":"official","height_m":5.85,"status":null},"geometry":{"type":"Polygon","coordinates":[[[3.99896826,50.94810121],[3.9989658,50.94811605],[3.99895804,50.94816293],[3.99889245,50.94815603],[3.99892593,50.94810597],[3.9989344,50.9480933],[3.99896826,50.94810121]]]}},{"type":"Feature","id":"gebouw/Gebouw.31326859/0","properties":{"source":"Digitaal Vlaanderen Gebouwenregister","source_id":"gebouw/Gebouw.31326859/0","kind":"building","building":"official","height_m":5.85,"status":null},"geometry":{"type":"Polygon","coordinates":[[[3.99970917,50.94930397],[3.999649,50.94928933],[3.99968181,50.9492355],[3.99974198,50.94925013],[3.99970917,50.94930397]]]}},{"type":"Feature","id":"gebouw/Gebouw.31326861/0","properties":{"source":"Digitaal Vlaanderen Gebouwenregister","source_id":"gebouw/Gebouw.31326861/0","kind":"building","building":"official","height_m":7.35,"status":null},"geometry":{"type":"Polygon","coordinates":[[[4.00296406,50.94928071],[4.00293441,50.94930871],[4.00280739,50.94925505],[4.00283703,50.94922705],[4.00296406,50.94928071]]]}},{"type":"Feature","id":"gebouw/Gebouw.31542996/0","properties":{"source":"Digitaal Vlaanderen Gebouwenregister","source_id":"gebouw/Gebouw.31542996/0","kind":"building","building":"official","height_m":5.1,"status":null},"geometry":{"type":"Polygon","coordinates":[[[3.99940985,50.94781778],[3.99938266,50.94781028],[3.99937089,50.94782717],[3.99939807,50.94783467],[3.99940985,50.94781778]]]}},{"type":"Feature","id":"gebouw/Gebouw.31558917/0","properties":{"source":"Digitaal Vlaanderen Gebouwenregister","source_id":"gebouw/Gebouw.31558917/0","kind":"building","building":"official","height_m":7.35,"status":null},"geometry":{"type":"Polygon","coordinates":[[[3.99955223,50.9488118],[3.99988455,50.94888379],[3.99983789,50.94896975],[3.99950556,50.94889776],[3.99955223,50.9488118]]]}},{"type":"Feature","id":"gebouw/Gebouw.31559867/0","properties":{"source":"Digitaal Vlaanderen Gebouwenregister","source_id":"gebouw/Gebouw.31559867/0","kind":"building","building":"official","height_m":8.85,"status":null},"geometry":{"type":"Polygon","coordinates":[[[3.99953143,50.9488484],[3.99962997,50.94887118],[3.99956659,50.94898059],[3.99947291,50.94895894],[3.99953143,50.9488484]]]}},{"type":"Feature","id":"gebouw/Gebouw.31559869/0","properties":{"source":"Digitaal Vlaanderen Gebouwenregister","source_id":"gebouw/Gebouw.31559869/0","kind":"building","building":"official","height_m":5.85,"status":null},"geometry":{"type":"Polygon","coordinates":[[[3.99963018,50.94887069],[3.99956706,50.94898118],[3.99966045,50.94900247],[3.99972357,50.94889199],[3.99963018,50.94887069]]]}},{"type":"Feature","id":"gebouw/Gebouw.31559870/0","properties":{"source":"Digitaal Vlaanderen Gebouwenregister","source_id":"gebouw/Gebouw.31559870/0","kind":"building","building":"official","height_m":6.6,"status":null},"geometry":{"type":"Polygon","coordinates":[[[3.99972429,50.94889234],[3.99966161,50.94900254],[3.99975463,50.94902365],[3.99981731,50.94891345],[3.99972429,50.94889234]]]}},{"type":"Feature","id":"gebouw/Gebouw.31844528/0","properties":{"source":"Digitaal Vlaanderen Gebouwenregister","source_id":"gebouw/Gebouw.31844528/0","kind":"building","building":"official","height_m":6.6,"status":null},"geometry":{"type":"Polygon","coordinates":[[[3.99819977,50.94900663],[3.99834613,50.94904053],[3.9983738,50.94899285],[3.99822744,50.94895895],[3.99819977,50.94900663]]]}},{"type":"Feature","id":"gebouw/Gebouw.31844738/0","properties":{"source":"Digitaal Vlaanderen Gebouwenregister","source_id":"gebouw/Gebouw.31844738/0","kind":"building","building":"official","height_m":6.6,"status":null},"geometry":{"type":"Polygon","coordinates":[[[4.00014036,50.949732],[4.000087,50.94980847],[4.00012756,50.94981976],[4.00015709,50.94977743],[4.00015359,50.94977645],[4.00017741,50.94974232],[4.00014036,50.949732]]]}},{"type":"Feature","id":"gebouw/Gebouw.31844805/0","properties":{"source":"Digitaal Vlaanderen Gebouwenregister","source_id":"gebouw/Gebouw.31844805/0","kind":"building","building":"official","height_m":7.35,"status":null},"geometry":{"type":"Polygon","coordinates":[[[3.99529897,50.94737978],[3.99525726,50.94745199],[3.9953118,50.94746486],[3.99535433,50.94739284],[3.99529897,50.94737978]]]}},{"type":"Feature","id":"gebouw/Gebouw.31845039/0","properties":{"source":"Digitaal Vlaanderen Gebouwenregister","source_id":"gebouw/Gebouw.31845039/0","kind":"building","building":"official","height_m":7.35,"status":null},"geometry":{"type":"Polygon","coordinates":[[[3.99941834,50.94839763],[3.99935433,50.94845353],[3.99939577,50.94847246],[3.99942479,50.94844713],[3.99943643,50.94845245],[3.99947142,50.94842188],[3.99941834,50.94839763]]]}},{"type":"Feature","id":"gebouw/Gebouw.31845240/0","properties":{"source":"Digitaal Vlaanderen Gebouwenregister","source_id":"gebouw/Gebouw.31845240/0","kind":"building","building":"official","height_m":5.1,"status":null},"geometry":{"type":"Polygon","coordinates":[[[3.99831049,50.94764176],[3.99822749,50.94762031],[3.99821003,50.94764726],[3.99829304,50.94766871],[3.99831049,50.94764176]]]}},{"type":"Feature","id":"gebouw/Gebouw.31845279/0","properties":{"source":"Digitaal Vlaanderen Gebouwenregister","source_id":"gebouw/Gebouw.31845279/0","kind":"building","building":"official","height_m":7.35,"status":null},"geometry":{"type":"Polygon","coordinates":[[[4.00113865,50.94903507],[4.00111539,50.94905827],[4.00115924,50.94907581],[4.00118249,50.9490526],[4.00113865,50.94903507]]]}},{"type":"Feature","id":"gebouw/Gebouw.32028143/0","properties":{"source":"Digitaal Vlaanderen Gebouwenregister","source_id":"gebouw/Gebouw.32028143/0","kind":"building","building":"official","height_m":8.85,"status":null},"geometry":{"type":"Polygon","coordinates":[[[3.99763066,50.94859292],[3.99778013,50.94861316],[3.99775832,50.9486774],[3.99788856,50.94869504],[3.9979281,50.94857854],[3.9976484,50.94854065],[3.99763066,50.94859292]]]}},{"type":"Feature","id":"way/153199310","properties":{"source":"OpenStreetMap","source_id":"way/153199310","kind":"vegetation","landuse":"forest","natural":null,"name":null},"geometry":{"type":"Polygon","coordinates":[[[3.997215,50.9537851],[3.9971127,50.9537663],[3.9965751,50.954185],[3.9962246,50.9541877],[3.9958606,50.9540697],[3.9962239,50.9536964],[3.9961321,50.9536451],[3.9962187,50.9535575],[3.9958932,50.9534087],[3.9959719,50.9533508],[3.9962473,50.9534511],[3.9964552,50.9536265],[3.9965257,50.9536662],[3.9966296,50.9536311],[3.9967224,50.953706],[3.9971345,50.9536195],[3.9972013,50.9536475],[3.997215,50.9537851]]]}},{"type":"Feature","id":"way/153199477","properties":{"source":"OpenStreetMap","source_id":"way/153199477","kind":"vegetation","landuse":"forest","natural":null,"name":null},"geometry":{"type":"Polygon","coordinates":[[[3.999637,50.9533088],[4.0004507,50.9534312],[4.0005661,50.9531365],[4.0001597,50.9531589],[3.9997987,50.9531252],[3.999637,50.9533088]]]}},{"type":"Feature","id":"way/153215825","properties":{"source":"OpenStreetMap","source_id":"way/153215825","kind":"vegetation","landuse":"forest","natural":null,"name":null},"geometry":{"type":"Polygon","coordinates":[[[3.9997754,50.9494935],[4.0005829,50.9496904],[4.0004529,50.949908],[4.0010478,50.9501195],[4.0002098,50.9510626],[3.9987601,50.9505726],[3.9988245,50.9504762],[3.9989774,50.9503579],[3.9991853,50.9502025],[3.999412,50.9500284],[3.9995702,50.9498526],[3.9996467,50.9496954],[3.9997754,50.9494935]]]}},{"type":"Feature","id":"way/153216010","properties":{"source":"OpenStreetMap","source_id":"way/153216010","kind":"vegetation","landuse":"orchard","natural":null,"name":null},"geometry":{"type":"Polygon","coordinates":[[[3.9965338,50.9506113],[3.9964913,50.9503128],[3.9967764,50.950323],[3.9968959,50.9505376],[3.9965338,50.9506113]]]}},{"type":"Feature","id":"way/450076828","properties":{"source":"OpenStreetMap","source_id":"way/450076828","kind":"waterway","waterway":"stream","name":"Ter Erpenbeek"},"geometry":{"type":"LineString","coordinates":[[4.0000697,50.9488219],[4.0001987,50.9488529]]}},{"type":"Feature","id":"way/457916297","properties":{"source":"OpenStreetMap","source_id":"way/457916297","kind":"waterway","waterway":"stream","name":"Zwartengracht"},"geometry":{"type":"LineString","coordinates":[[3.9965838,50.954146],[3.9967959,50.9539793]]}},{"type":"Feature","id":"way/457916307","properties":{"source":"OpenStreetMap","source_id":"way/457916307","kind":"waterway","waterway":"stream","name":null},"geometry":{"type":"LineString","coordinates":[[4.0017357,50.9524919],[4.0019061,50.9525199],[4.0019859,50.9525233],[4.0020637,50.9525102],[4.00212,50.9524836],[4.0021784,50.9524549],[4.0022407,50.9524401],[4.0023038,50.9524506],[4.0023824,50.9524857],[4.0024479,50.9525335],[4.0025872,50.9526349],[4.0028966,50.9529392],[4.0030737,50.9531598],[4.0032887,50.9533626],[4.0034481,50.9534404],[4.0038622,50.9535874],[4.0041987,50.9537579],[4.0044037,50.9538202],[4.0051209,50.9538083],[4.0054303,50.9539698],[4.0062923,50.9544996],[4.0062633,50.9545523],[4.0061651,50.9546566],[4.0058056,50.9550185]]}},{"type":"Feature","id":"way/457916316","properties":{"source":"OpenStreetMap","source_id":"way/457916316","kind":"waterway","waterway":"stream","name":"Torensbeek"},"geometry":{"type":"LineString","coordinates":[[3.9944819,50.9526711],[3.9946381,50.9527097],[3.9948361,50.9527978],[3.9949324,50.9528095],[3.995034,50.9528138],[3.995125,50.9528253],[3.9952334,50.9528257],[3.9952691,50.952879],[3.9953405,50.9529782],[3.9955566,50.9530701],[3.9956706,50.9531199],[3.9957244,50.9531658],[3.9958863,50.9532614],[3.9959998,50.9533758],[3.9960354,50.9534406],[3.996263,50.9535897],[3.9963469,50.953647],[3.9964065,50.9537232],[3.9964604,50.9537615],[3.9966102,50.9538532],[3.9967959,50.9539793]]}},{"type":"Feature","id":"way/754107145","properties":{"source":"OpenStreetMap","source_id":"way/754107145","kind":"water","name":null},"geometry":{"type":"Polygon","coordinates":[[[4.0048479,50.9522977],[4.004923,50.9523205],[4.0049686,50.9523155],[4.0050209,50.9522783],[4.0050276,50.9522487],[4.0050115,50.9522208],[4.0049726,50.9522039],[4.0049216,50.9521947],[4.0048385,50.9522445],[4.0048291,50.9522732],[4.0048479,50.9522977]]]}},{"type":"Feature","id":"way/754107147","properties":{"source":"OpenStreetMap","source_id":"way/754107147","kind":"vegetation","landuse":"forest","natural":null,"name":null},"geometry":{"type":"Polygon","coordinates":[[[4.0013053,50.9524038],[4.001393,50.9524662],[4.0014991,50.9524958],[4.0016564,50.9525113],[4.0017888,50.9525271],[4.0026414,50.9515806],[4.0021791,50.9514137],[4.0013053,50.9524038]]]}},{"type":"Feature","id":"way/1288913480","properties":{"source":"OpenStreetMap","source_id":"way/1288913480","kind":"water","name":null},"geometry":{"type":"Polygon","coordinates":[[[4.0044083,50.9538855],[4.0043655,50.9539022],[4.0043518,50.9538785],[4.0043732,50.953851],[4.0044083,50.9538494],[4.0044237,50.9538677],[4.0044083,50.9538855]]]}},{"type":"Feature","id":"way/1288913481","properties":{"source":"OpenStreetMap","source_id":"way/1288913481","kind":"water","name":null},"geometry":{"type":"Polygon","coordinates":[[[4.0048325,50.9533422],[4.0051197,50.9534367],[4.0052076,50.9534237],[4.0052387,50.953378],[4.0052439,50.9533422],[4.0052827,50.9533422],[4.0053603,50.9533797],[4.005425,50.9533715],[4.0054043,50.9533373],[4.0053551,50.9533047],[4.0053577,50.9531808],[4.0053991,50.9531661],[4.0054482,50.9532036],[4.0054664,50.95329],[4.0055052,50.9533194],[4.0055673,50.9533324],[4.0056087,50.9533096],[4.0055983,50.9532476],[4.0056578,50.9532069],[4.0055517,50.9531156],[4.0054586,50.9531319],[4.0054146,50.9531058],[4.0054586,50.9530618],[4.0054146,50.9530162],[4.0053706,50.9530048],[4.0052801,50.9530863],[4.005205,50.9530521],[4.0050679,50.9530455],[4.0049515,50.9530847],[4.0047264,50.9531694],[4.0046488,50.9532542],[4.0047031,50.9532982],[4.0048325,50.9533422]]]}},{"type":"Feature","id":"way/1288914384","properties":{"source":"OpenStreetMap","source_id":"way/1288914384","kind":"waterway","waterway":"ditch","name":null},"geometry":{"type":"LineString","coordinates":[[3.9992412,50.9522702],[4.0008104,50.9530766]]}},{"type":"Feature","id":"way/1288914385","properties":{"source":"OpenStreetMap","source_id":"way/1288914385","kind":"waterway","waterway":"ditch","name":null},"geometry":{"type":"LineString","coordinates":[[3.9987196,50.952723],[3.9988328,50.9528454],[3.9989969,50.9529262],[3.9993156,50.9530058],[3.9997438,50.9530997],[4.000138,50.953146],[4.0006984,50.9531108],[4.0008104,50.9530766]]}},{"type":"Feature","id":"way/1288914386","properties":{"source":"OpenStreetMap","source_id":"way/1288914386","kind":"waterway","waterway":"ditch","name":null},"geometry":{"type":"LineString","coordinates":[[3.9976049,50.9515681],[3.9983612,50.9523],[3.9983518,50.952357],[3.9986555,50.9526731]]}},{"type":"Feature","id":"way/1288914387","properties":{"source":"OpenStreetMap","source_id":"way/1288914387","kind":"waterway","waterway":"ditch","name":null},"geometry":{"type":"LineString","coordinates":[[3.9986555,50.9526731],[3.9987196,50.952723]]}},{"type":"Feature","id":"way/1311348465","properties":{"source":"OpenStreetMap","source_id":"way/1311348465","kind":"waterway","waterway":"stream","name":null},"geometry":{"type":"LineString","coordinates":[[4.0016953,50.9524877],[4.0017357,50.9524919]]}},{"type":"Feature","id":"way/1311348466","properties":{"source":"OpenStreetMap","source_id":"way/1311348466","kind":"waterway","waterway":"stream","name":null},"geometry":{"type":"LineString","coordinates":[[3.9983075,50.9511351],[3.9985121,50.9514509],[3.9986525,50.9515583],[3.9987933,50.9516123],[3.9989791,50.951658],[3.9991688,50.9517383],[3.999769,50.9520316],[4.0005911,50.9524835],[4.0010344,50.9527329],[4.0011483,50.952797],[4.0012312,50.952827],[4.0016953,50.9524877]]}}]}