{"type":"FeatureCollection","features":[{"type":"Feature","id":"way/153199508","properties":{"source":"OpenStreetMap","source_id":"way/153199508","kind":"water","name":null},"geometry":{"type":"Polygon","coordinates":[[[4.0014161,50.9549947],[4.0012901,50.9548505],[4.0007123,50.9550669],[4.000831,50.9552112],[4.0014161,50.9549947]]]}},{"type":"Feature","id":"way/457916293","properties":{"source":"OpenStreetMap","source_id":"way/457916293","kind":"waterway","waterway":"stream","name":"Torensbeek"},"geometry":{"type":"LineString","coordinates":[[3.9967959,50.9539793],[3.997026,50.9538165],[3.9971226,50.9537826],[3.9972694,50.9538071],[3.997826,50.9539331],[3.9979405,50.9539297],[3.9981148,50.9539683],[3.998275,50.9540439],[3.9984145,50.9541404],[3.9987026,50.9542668],[3.9993829,50.9544824],[3.9996513,50.9546197],[4.0000665,50.9548607],[4.0006646,50.9551782],[4.0008326,50.9552624],[4.0008263,50.9552966],[4.0007839,50.9553231],[4.0007595,50.9553725],[4.0011254,50.9555486],[4.0014553,50.9557208],[4.0015754,50.9557592],[4.001799,50.9556648],[4.0019242,50.9556207],[4.0023123,50.9554838],[4.0025766,50.9553972],[4.0031217,50.9551668],[4.0032416,50.9552357],[4.0036384,50.9553282],[4.0040092,50.955409],[4.0043176,50.95549],[4.0048975,50.9556219]]}},{"type":"Feature","id":"way/457916306","properties":{"source":"OpenStreetMap","source_id":"way/457916306","kind":"waterway","waterway":"stream","name":null},"geometry":{"type":"LineString","coordinates":[[4.0048975,50.9556219],[4.0049832,50.9555468],[4.0053811,50.9553086],[4.0058056,50.9550185]]}},{"type":"Feature","id":"way/457916317","properties":{"source":"OpenStreetMap","source_id":"way/457916317","kind":"waterway","waterway":"stream","name":"Zwartengracht"},"geometry":{"type":"LineString","coordinates":[[3.9964872,50.9542606],[3.9965838,50.954146]]}},{"type":"Feature","id":"way/457916318","properties":{"source":"OpenStreetMap","source_id":"way/457916318","kind":"waterway","waterway":"stream","name":null},"geometry":{"type":"LineString","coordinates":[[3.9951576,50.9547711],[3.9956689,50.9541927],[3.9956756,50.9541851],[3.9957337,50.9542027]]}},{"type":"Feature","id":"way/1288911066","properties":{"source":"OpenStreetMap","source_id":"way/1288911066","kind":"water","name":null},"geometry":{"type":"Polygon","coordinates":[[[4.0048596,50.9554901],[4.0049266,50.9555071],[4.0049333,50.9554851],[4.0049354,50.9554661],[4.0049292,50.9554607],[4.0049183,50.9554565],[4.0049063,50.9554552],[4.0048878,50.95546],[4.0048717,50.9554689],[4.0048646,50.9554755],[4.0048602,50.9554831],[4.0048596,50.9554901]]]}},{"type":"Feature","id":"way/1288911067","properties":{"source":"OpenStreetMap","source_id":"way/1288911067","kind":"water","name":null},"geometry":{"type":"Polygon","coordinates":[[[4.0051653,50.9553604],[4.0051886,50.9553538],[4.0052039,50.9553439],[4.0052132,50.955335],[4.0052369,50.9553234],[4.0052599,50.9553185],[4.0052752,50.9553069],[4.0052772,50.955295],[4.0052692,50.9552772],[4.0052446,50.9552663],[4.0052273,50.9552643],[4.0052088,50.9552645],[4.0051693,50.9552724],[4.0051307,50.9552906],[4.0051198,50.9553],[4.0051138,50.9553147],[4.005115,50.9553284],[4.0051206,50.9553371],[4.0051335,50.9553505],[4.0051653,50.9553604]]]}},{"type":"Feature","id":"way/1288911068","properties":{"source":"OpenStreetMap","source_id":"way/1288911068","kind":"water","name":null},"geometry":{"type":"Polygon","coordinates":[[[4.0057053,50.9551159],[4.0056644,50.9550916],[4.0056467,50.9550718],[4.005639,50.955054],[4.0056401,50.9550411],[4.0056451,50.9550307],[4.0056583,50.9550251],[4.0056793,50.955021],[4.0056997,50.9550286],[4.0057699,50.9550711],[4.0057053,50.9551159]]]}},{"type":"Feature","id":"way/1288911753","properties":{"source":"OpenStreetMap","source_id":"way/1288911753","kind":"water","name":null},"geometry":{"type":"Polygon","coordinates":[[[4.0038967,50.9543443],[4.0039224,50.9543511],[4.0039446,50.9543511],[4.0039605,50.9543393],[4.0039721,50.9543192],[4.0039756,50.9542946],[4.0039694,50.9542762],[4.0039561,50.9542627],[4.0039064,50.9542527],[4.003878,50.9542521],[4.003839,50.9542667],[4.0038195,50.9542857],[4.0038967,50.9543443]]]}},{"type":"Feature","id":"way/1288911754","properties":{"source":"OpenStreetMap","source_id":"way/1288911754","kind":"water","name":null},"geometry":{"type":"Polygon","coordinates":[[[4.0036623,50.9542553],[4.0036746,50.9542586],[4.0036859,50.9542565],[4.0037298,50.954228],[4.0037481,50.9542069],[4.0037458,50.9541929],[4.0036779,50.9541528],[4.003651,50.9541415],[4.0036057,50.954138],[4.0035779,50.9541614],[4.0035793,50.9541721],[4.0035902,50.9541846],[4.0036326,50.9542131],[4.0036623,50.9542553]]]}},{"type":"Feature","id":"way/1288911755","properties":{"source":"OpenStreetMap","source_id":"way/1288911755","kind":"water","name":null},"geometry":{"type":"Polygon","coordinates":[[[4.0032465,50.9541033],[4.0032758,50.9541139],[4.0033113,50.9541167],[4.0033699,50.9541016],[4.0034009,50.9541133],[4.0034426,50.9540921],[4.003455,50.9540737],[4.0034444,50.954058],[4.0033876,50.9540424],[4.003353,50.954044],[4.0032829,50.9540709],[4.0032501,50.9540848],[4.0032465,50.9541033]]]}},{"type":"Feature","id":"way/1288911756","properties":{"source":"OpenStreetMap","source_id":"way/1288911756","kind":"waterway","waterway":"ditch","name":null},"geometry":{"type":"LineString","coordinates":[[4.0019712,50.9544901],[4.0027676,50.9542609],[4.0028744,50.9542419],[4.0030297,50.9542104],[4.0033553,50.954059]]}}]}