{"type":"FeatureCollection","features":[{"type":"Feature","id":"gebouw/Gebouw.15673375/0","properties":{"source":"Digitaal Vlaanderen Gebouwenregister","source_id":"gebouw/Gebouw.15673375/0","kind":"building","height_m":7.88,"status":null},"geometry":{"type":"Polygon","coordinates":[[[4.05894373,50.98593088],[4.05898264,50.98594718],[4.05894733,50.98598077],[4.05890842,50.98596447],[4.05894373,50.98593088]]]}},{"type":"Feature","id":"gebouw/Gebouw.15681398/0","properties":{"source":"Digitaal Vlaanderen Gebouwenregister","source_id":"gebouw/Gebouw.15681398/0","kind":"building","height_m":8.6,"status":null},"geometry":{"type":"Polygon","coordinates":[[[4.06121089,50.9858563],[4.06121097,50.98585632],[4.06128054,50.98587904],[4.06127708,50.9858832],[4.06129609,50.9858895],[4.06121895,50.9859823],[4.06117593,50.98596628],[4.06118476,50.98595616],[4.06114044,50.98594104],[4.06120764,50.9858602],[4.06121089,50.9858563]]]}},{"type":"Feature","id":"gebouw/Gebouw.15709235/0","properties":{"source":"Digitaal Vlaanderen Gebouwenregister","source_id":"gebouw/Gebouw.15709235/0","kind":"building","height_m":7.16,"status":null},"geometry":{"type":"Polygon","coordinates":[[[4.06029685,50.9856718],[4.06031635,50.98564749],[4.06017284,50.98559989],[4.0602153,50.98554889],[4.06021432,50.98554854],[4.06022063,50.98554085],[4.06022186,50.98554126],[4.0602339,50.985527],[4.06042176,50.98559054],[4.06034031,50.98568649],[4.06029685,50.9856718]]]}},{"type":"Feature","id":"gebouw/Gebouw.15709424/0","properties":{"source":"Digitaal Vlaanderen Gebouwenregister","source_id":"gebouw/Gebouw.15709424/0","kind":"building","height_m":7.16,"status":null},"geometry":{"type":"Polygon","coordinates":[[[4.05981125,50.98638442],[4.05985839,50.98633969],[4.05979978,50.98631508],[4.05975263,50.98635981],[4.05981125,50.98638442]]]}},{"type":"Feature","id":"gebouw/Gebouw.15720880/0","properties":{"source":"Digitaal Vlaanderen Gebouwenregister","source_id":"gebouw/Gebouw.15720880/0","kind":"building","height_m":5.0,"status":null},"geometry":{"type":"Polygon","coordinates":[[[4.05921345,50.98528855],[4.05917047,50.985329],[4.0591601,50.9853246],[4.05910648,50.98537532],[4.05899485,50.98532915],[4.05902742,50.98529778],[4.05904809,50.98530665],[4.05907146,50.98528429],[4.05910891,50.98524781],[4.05911067,50.98524855],[4.05911882,50.98525196],[4.05912175,50.98524973],[4.05921345,50.98528855]]]}},{"type":"Feature","id":"gebouw/Gebouw.15738583/0","properties":{"source":"Digitaal Vlaanderen Gebouwenregister","source_id":"gebouw/Gebouw.15738583/0","kind":"building","height_m":5.0,"status":null},"geometry":{"type":"Polygon","coordinates":[[[4.05893999,50.98713208],[4.05900116,50.98712642],[4.05901032,50.98716592],[4.05894916,50.98717157],[4.05893999,50.98713208]]]}},{"type":"Feature","id":"gebouw/Gebouw.15738623/0","properties":{"source":"Digitaal Vlaanderen Gebouwenregister","source_id":"gebouw/Gebouw.15738623/0","kind":"building","height_m":8.6,"status":null},"geometry":{"type":"Polygon","coordinates":[[[4.06066646,50.98592781],[4.06062009,50.9859118],[4.06056163,50.98598027],[4.06057511,50.9859852],[4.06060764,50.9859971],[4.06060784,50.98599717],[4.06062334,50.98597882],[4.06062828,50.98597298],[4.06066554,50.98592889],[4.06066646,50.98592781]]]}},{"type":"Feature","id":"gebouw/Gebouw.15768952/0","properties":{"source":"Digitaal Vlaanderen Gebouwenregister","source_id":"gebouw/Gebouw.15768952/0","kind":"building","height_m":7.16,"status":null},"geometry":{"type":"Polygon","coordinates":[[[4.06062215,50.9857897],[4.06059313,50.98578971],[4.06057583,50.9857838],[4.06056161,50.9857709],[4.06057573,50.98575378],[4.0605479,50.98574489],[4.06062084,50.98565882],[4.06070796,50.98568824],[4.06063508,50.98577441],[4.06062215,50.9857897]]]}},{"type":"Feature","id":"gebouw/Gebouw.15793185/0","properties":{"source":"Digitaal Vlaanderen Gebouwenregister","source_id":"gebouw/Gebouw.15793185/0","kind":"building","height_m":6.44,"status":null},"geometry":{"type":"Polygon","coordinates":[[[4.05972582,50.98556147],[4.05978959,50.98558262],[4.05975772,50.98562089],[4.05956229,50.98555607],[4.05966337,50.98543467],[4.05983836,50.98549379],[4.05979987,50.98554002],[4.05975584,50.98552541],[4.05972582,50.98556147]]]}},{"type":"Feature","id":"gebouw/Gebouw.15807859/0","properties":{"source":"Digitaal Vlaanderen Gebouwenregister","source_id":"gebouw/Gebouw.15807859/0","kind":"building","height_m":7.88,"status":null},"geometry":{"type":"Polygon","coordinates":[[[4.06080036,50.98603356],[4.06086889,50.98603421],[4.06086838,50.98605595],[4.06079984,50.98605529],[4.06080036,50.98603356]]]}},{"type":"Feature","id":"gebouw/Gebouw.15818667/0","properties":{"source":"Digitaal Vlaanderen Gebouwenregister","source_id":"gebouw/Gebouw.15818667/0","kind":"building","height_m":7.88,"status":null},"geometry":{"type":"Polygon","coordinates":[[[4.05985466,50.98253878],[4.0597587,50.98256117],[4.05970452,50.98246867],[4.05968271,50.98247376],[4.0596627,50.98243961],[4.05964242,50.98244434],[4.05962692,50.98241789],[4.05961741,50.98242011],[4.05953951,50.98230818],[4.05964874,50.98227789],[4.05972674,50.98238997],[4.05971279,50.9823943],[4.05970977,50.98240103],[4.05970263,50.98240669],[4.05971204,50.98242282],[4.05990919,50.98237699],[4.0599662,50.98247469],[4.05986585,50.98249802],[4.05983494,50.98250521],[4.05985466,50.98253878]]]}},{"type":"Feature","id":"gebouw/Gebouw.15821403/0","properties":{"source":"Digitaal Vlaanderen Gebouwenregister","source_id":"gebouw/Gebouw.15821403/0","kind":"building","height_m":7.16,"status":null},"geometry":{"type":"Polygon","coordinates":[[[4.06052447,50.98501597],[4.06048945,50.98504212],[4.06045935,50.98502606],[4.06049437,50.98499991],[4.06052447,50.98501597]]]}},{"type":"Feature","id":"gebouw/Gebouw.15841229/0","properties":{"source":"Digitaal Vlaanderen Gebouwenregister","source_id":"gebouw/Gebouw.15841229/0","kind":"building","height_m":8.6,"status":null},"geometry":{"type":"Polygon","coordinates":[[[4.05895703,50.98706381],[4.05877193,50.98698725],[4.05881233,50.98694835],[4.05882384,50.98695311],[4.05887434,50.98690424],[4.05889545,50.98691287],[4.05889646,50.98691202],[4.05898987,50.98694967],[4.05893953,50.98699942],[4.05899799,50.98702299],[4.05895703,50.98706381]]]}},{"type":"Feature","id":"gebouw/Gebouw.15853842/0","properties":{"source":"Digitaal Vlaanderen Gebouwenregister","source_id":"gebouw/Gebouw.15853842/0","kind":"building","height_m":7.88,"status":null},"geometry":{"type":"Polygon","coordinates":[[[4.05934802,50.98250579],[4.05929875,50.98252083],[4.05925299,50.98246106],[4.05928945,50.98244993],[4.05930893,50.98247538],[4.05932174,50.98247147],[4.05934802,50.98250579]]]}},{"type":"Feature","id":"gebouw/Gebouw.15872960/0","properties":{"source":"Digitaal Vlaanderen Gebouwenregister","source_id":"gebouw/Gebouw.15872960/0","kind":"building","height_m":8.6,"status":null},"geometry":{"type":"Polygon","coordinates":[[[4.05917399,50.98694099],[4.05920909,50.9869556],[4.0591822,50.98698134],[4.0591471,50.98696673],[4.05917399,50.98694099]]]}},{"type":"Feature","id":"gebouw/Gebouw.15873302/0","properties":{"source":"Digitaal Vlaanderen Gebouwenregister","source_id":"gebouw/Gebouw.15873302/0","kind":"building","height_m":7.88,"status":null},"geometry":{"type":"Polygon","coordinates":[[[4.06133526,50.98556908],[4.06142303,50.98559823],[4.0613402,50.98569663],[4.06129017,50.98567986],[4.0613033,50.98566419],[4.06126611,50.98565159],[4.06133526,50.98556908]]]}},{"type":"Feature","id":"gebouw/Gebouw.15873311/0","properties":{"source":"Digitaal Vlaanderen Gebouwenregister","source_id":"gebouw/Gebouw.15873311/0","kind":"building","height_m":9.32,"status":null},"geometry":{"type":"Polygon","coordinates":[[[4.05996171,50.98503508],[4.06003259,50.98506541],[4.06000852,50.98508821],[4.06016188,50.98515346],[4.06010223,50.98520959],[4.05999794,50.98516544],[4.05998288,50.98517961],[4.05995531,50.98517885],[4.05993035,50.98516829],[4.05991916,50.9851531],[4.05993334,50.98514129],[4.05987094,50.98511589],[4.05996171,50.98503508]]]}},{"type":"Feature","id":"gebouw/Gebouw.15905858/0","properties":{"source":"Digitaal Vlaanderen Gebouwenregister","source_id":"gebouw/Gebouw.15905858/0","kind":"building","height_m":7.16,"status":null},"geometry":{"type":"Polygon","coordinates":[[[4.06114044,50.98594104],[4.06111963,50.98596607],[4.06106964,50.98594883],[4.06109167,50.98592235],[4.06105403,50.9859099],[4.06111964,50.98583103],[4.06120764,50.9858602],[4.06114044,50.98594104]]]}},{"type":"Feature","id":"gebouw/Gebouw.15929562/0","properties":{"source":"Digitaal Vlaanderen Gebouwenregister","source_id":"gebouw/Gebouw.15929562/0","kind":"building","height_m":8.6,"status":null},"geometry":{"type":"Polygon","coordinates":[[[4.06006692,50.98461706],[4.06012916,50.98457614],[4.06017056,50.9846021],[4.06011427,50.98464048],[4.06013328,50.98465175],[4.06008922,50.98468096],[4.06002636,50.98464501],[4.06003955,50.98463718],[4.06002478,50.9846301],[4.06005007,50.98460884],[4.06006692,50.98461706]]]}},{"type":"Feature","id":"gebouw/Gebouw.15931966/0","properties":{"source":"Digitaal Vlaanderen Gebouwenregister","source_id":"gebouw/Gebouw.15931966/0","kind":"building","height_m":5.72,"status":null},"geometry":{"type":"Polygon","coordinates":[[[4.061639,50.98614466],[4.06154144,50.98611278],[4.06160428,50.98603843],[4.0617816,50.98609814],[4.06170499,50.98618878],[4.06162459,50.9861617],[4.061639,50.98614466]]]}},{"type":"Feature","id":"gebouw/Gebouw.15938449/0","properties":{"source":"Digitaal Vlaanderen Gebouwenregister","source_id":"gebouw/Gebouw.15938449/0","kind":"building","height_m":6.44,"status":null},"geometry":{"type":"Polygon","coordinates":[[[4.0589131,50.984845],[4.05891408,50.98484405],[4.05898236,50.9848721],[4.05897471,50.98487944],[4.05899234,50.98488672],[4.05902297,50.98485643],[4.05910474,50.98488948],[4.05900494,50.98498803],[4.05883592,50.98491985],[4.05883789,50.98491794],[4.0589131,50.984845]]]}},{"type":"Feature","id":"gebouw/Gebouw.15942194/0","properties":{"source":"Digitaal Vlaanderen Gebouwenregister","source_id":"gebouw/Gebouw.15942194/0","kind":"building","height_m":6.44,"status":null},"geometry":{"type":"Polygon","coordinates":[[[4.05929053,50.98679022],[4.05933775,50.9867848],[4.0593459,50.98681311],[4.05929868,50.98681853],[4.05929053,50.98679022]]]}},{"type":"Feature","id":"gebouw/Gebouw.15955526/0","properties":{"source":"Digitaal Vlaanderen Gebouwenregister","source_id":"gebouw/Gebouw.15955526/0","kind":"building","height_m":9.32,"status":null},"geometry":{"type":"Polygon","coordinates":[[[4.05943485,50.98250512],[4.05942892,50.98249677],[4.05951466,50.98247252],[4.05958629,50.98257387],[4.0595262,50.9825908],[4.05951476,50.98257425],[4.05946539,50.98258828],[4.05948839,50.98262094],[4.05940196,50.98264539],[4.05932454,50.98253633],[4.05943485,50.98250512]]]}},{"type":"Feature","id":"gebouw/Gebouw.15958028/0","properties":{"source":"Digitaal Vlaanderen Gebouwenregister","source_id":"gebouw/Gebouw.15958028/0","kind":"building","height_m":6.44,"status":null},"geometry":{"type":"Polygon","coordinates":[[[4.05950051,50.98651983],[4.05940468,50.9866173],[4.05922426,50.98654476],[4.0592814,50.98648814],[4.05929677,50.98649429],[4.05933845,50.98645189],[4.05945987,50.98649945],[4.05945671,50.98650267],[4.05950051,50.98651983]]]}},{"type":"Feature","id":"gebouw/Gebouw.15979581/0","properties":{"source":"Digitaal Vlaanderen Gebouwenregister","source_id":"gebouw/Gebouw.15979581/0","kind":"building","height_m":6.44,"status":null},"geometry":{"type":"Polygon","coordinates":[[[4.06088541,50.98539751],[4.0609233,50.98541035],[4.0608804,50.98546017],[4.06085357,50.98545097],[4.06080132,50.98551379],[4.06070079,50.98548047],[4.06075251,50.98541829],[4.0607264,50.98540964],[4.06076848,50.98535786],[4.06081088,50.98537224],[4.06088541,50.98539751]]]}},{"type":"Feature","id":"gebouw/Gebouw.15984730/0","properties":{"source":"Digitaal Vlaanderen Gebouwenregister","source_id":"gebouw/Gebouw.15984730/0","kind":"building","height_m":9.32,"status":null},"geometry":{"type":"Polygon","coordinates":[[[4.06041835,50.9858442],[4.06037778,50.98589218],[4.06036433,50.98590808],[4.06042251,50.98592937],[4.06047691,50.98586365],[4.06041835,50.9858442]]]}},{"type":"Feature","id":"gebouw/Gebouw.15995463/0","properties":{"source":"Digitaal Vlaanderen Gebouwenregister","source_id":"gebouw/Gebouw.15995463/0","kind":"building","height_m":5.72,"status":null},"geometry":{"type":"Polygon","coordinates":[[[4.06037778,50.98589218],[4.0603227,50.98587375],[4.06029921,50.98590172],[4.06023433,50.98588001],[4.06026421,50.98584443],[4.06030258,50.98585727],[4.0603364,50.98581699],[4.06041835,50.9858442],[4.06037778,50.98589218]]]}},{"type":"Feature","id":"gebouw/Gebouw.16018973/0","properties":{"source":"Digitaal Vlaanderen Gebouwenregister","source_id":"gebouw/Gebouw.16018973/0","kind":"building","height_m":8.6,"status":null},"geometry":{"type":"Polygon","coordinates":[[[4.05946088,50.98340877],[4.05945496,50.98340529],[4.05939686,50.98344402],[4.05899246,50.98321054],[4.05935304,50.98297161],[4.05943657,50.98302184],[4.05945494,50.98300967],[4.05957114,50.98306271],[4.0595324,50.98309621],[4.0594146,50.98304496],[4.05930383,50.98311808],[4.05931101,50.98312241],[4.0592536,50.9831603],[4.05956457,50.98333846],[4.05946088,50.98340877]]]}},{"type":"Feature","id":"gebouw/Gebouw.16036157/0","properties":{"source":"Digitaal Vlaanderen Gebouwenregister","source_id":"gebouw/Gebouw.16036157/0","kind":"building","height_m":7.88,"status":null},"geometry":{"type":"Polygon","coordinates":[[[4.05881764,50.98263522],[4.05882862,50.9826313],[4.05885597,50.98266187],[4.05891128,50.98264215],[4.0589161,50.98263328],[4.05894185,50.98262273],[4.05895801,50.98262663],[4.05896939,50.98262201],[4.05904032,50.9827011],[4.05893875,50.9827374],[4.05894582,50.98274514],[4.05884683,50.98278043],[4.05858843,50.98249165],[4.05865031,50.98246958],[4.05870281,50.98252826],[4.05871731,50.98252309],[4.05881764,50.98263522]]]}},{"type":"Feature","id":"gebouw/Gebouw.16038519/0","properties":{"source":"Digitaal Vlaanderen Gebouwenregister","source_id":"gebouw/Gebouw.16038519/0","kind":"building","height_m":5.0,"status":null},"geometry":{"type":"Polygon","coordinates":[[[4.05960722,50.98529815],[4.05961099,50.98529338],[4.0596679,50.98531135],[4.05965282,50.98533038],[4.0597039,50.98534651],[4.05966375,50.98539624],[4.05956149,50.98536166],[4.05956588,50.98535631],[4.05954241,50.9853489],[4.05959378,50.98529394],[4.05960722,50.98529815]]]}},{"type":"Feature","id":"gebouw/Gebouw.16064901/0","properties":{"source":"Digitaal Vlaanderen Gebouwenregister","source_id":"gebouw/Gebouw.16064901/0","kind":"building","height_m":9.32,"status":null},"geometry":{"type":"Polygon","coordinates":[[[4.0604637,50.98571667],[4.06050111,50.98572767],[4.06047192,50.98576721],[4.06043452,50.98575621],[4.0604637,50.98571667]]]}},{"type":"Feature","id":"gebouw/Gebouw.16069799/0","properties":{"source":"Digitaal Vlaanderen Gebouwenregister","source_id":"gebouw/Gebouw.16069799/0","kind":"building","height_m":7.88,"status":null},"geometry":{"type":"Polygon","coordinates":[[[4.05887334,50.98580958],[4.0589431,50.985839],[4.05891752,50.98586296],[4.05884706,50.98583442],[4.05887334,50.98580958]]]}},{"type":"Feature","id":"gebouw/Gebouw.16073120/0","properties":{"source":"Digitaal Vlaanderen Gebouwenregister","source_id":"gebouw/Gebouw.16073120/0","kind":"building","height_m":5.0,"status":null},"geometry":{"type":"Polygon","coordinates":[[[4.05897656,50.98707204],[4.05902467,50.98709111],[4.05900196,50.98711392],[4.05895386,50.98709485],[4.05897656,50.98707204]]]}},{"type":"Feature","id":"gebouw/Gebouw.16083882/0","properties":{"source":"Digitaal Vlaanderen Gebouwenregister","source_id":"gebouw/Gebouw.16083882/0","kind":"building","height_m":7.16,"status":null},"geometry":{"type":"Polygon","coordinates":[[[4.05951085,50.98536263],[4.05955214,50.98537805],[4.05952444,50.9854076],[4.05948112,50.98539142],[4.05951085,50.98536263]]]}},{"type":"Feature","id":"gebouw/Gebouw.16085961/0","properties":{"source":"Digitaal Vlaanderen Gebouwenregister","source_id":"gebouw/Gebouw.16085961/0","kind":"building","height_m":7.16,"status":null},"geometry":{"type":"Polygon","coordinates":[[[4.05941576,50.9854759],[4.05942123,50.98546953],[4.05950109,50.98549731],[4.05946442,50.98554116],[4.05945996,50.98553944],[4.05936585,50.9855031],[4.05940037,50.98546965],[4.05941576,50.9854759]]]}},{"type":"Feature","id":"gebouw/Gebouw.16086003/0","properties":{"source":"Digitaal Vlaanderen Gebouwenregister","source_id":"gebouw/Gebouw.16086003/0","kind":"building","height_m":7.16,"status":null},"geometry":{"type":"Polygon","coordinates":[[[4.06514115,50.98291329],[4.06518741,50.98292982],[4.06512149,50.98300334],[4.06506444,50.98298295],[4.06508337,50.98296184],[4.06506541,50.98295542],[4.06510716,50.98290885],[4.06511239,50.98290302],[4.06514115,50.98291329]]]}},{"type":"Feature","id":"gebouw/Gebouw.16086111/0","properties":{"source":"Digitaal Vlaanderen Gebouwenregister","source_id":"gebouw/Gebouw.16086111/0","kind":"building","height_m":9.32,"status":null},"geometry":{"type":"Polygon","coordinates":[[[4.06772324,50.98528581],[4.06776943,50.98527296],[4.06773251,50.98522009],[4.06768484,50.98523336],[4.06767285,50.98521505],[4.06765364,50.98518571],[4.06760422,50.98511022],[4.06770207,50.98508268],[4.06775692,50.98516033],[4.06778969,50.9851511],[4.06790167,50.98530777],[4.06786952,50.98531694],[4.06788617,50.98534089],[4.06788804,50.98534052],[4.06789105,50.98534406],[4.06790787,50.98536856],[4.06790639,50.98536929],[4.06792038,50.98538995],[4.06792283,50.98538958],[4.06792526,50.98539305],[4.06781881,50.98542267],[4.06772324,50.98528581]]]}},{"type":"Feature","id":"gebouw/Gebouw.16093484/0","properties":{"source":"Digitaal Vlaanderen Gebouwenregister","source_id":"gebouw/Gebouw.16093484/0","kind":"building","height_m":5.72,"status":null},"geometry":{"type":"Polygon","coordinates":[[[4.06126412,50.98546247],[4.06130405,50.98547601],[4.06126327,50.98552391],[4.06122334,50.98551037],[4.06126412,50.98546247]]]}},{"type":"Feature","id":"gebouw/Gebouw.16116791/0","properties":{"source":"Digitaal Vlaanderen Gebouwenregister","source_id":"gebouw/Gebouw.16116791/0","kind":"building","height_m":8.6,"status":null},"geometry":{"type":"Polygon","coordinates":[[[4.06475774,50.98320284],[4.0646262,50.98317038],[4.06462168,50.98317847],[4.06457331,50.98316778],[4.06459034,50.98313814],[4.06461046,50.98310313],[4.06458725,50.98309912],[4.06461503,50.98304816],[4.06468489,50.98306333],[4.06469005,50.98305385],[4.06482661,50.98308454],[4.06488379,50.98301888],[4.06495893,50.98304387],[4.06487171,50.98314186],[4.06480295,50.98311993],[4.06475774,50.98320284]]]}},{"type":"Feature","id":"gebouw/Gebouw.16132762/0","properties":{"source":"Digitaal Vlaanderen Gebouwenregister","source_id":"gebouw/Gebouw.16132762/0","kind":"building","height_m":6.44,"status":null},"geometry":{"type":"Polygon","coordinates":[[[4.06159905,50.98544585],[4.06157178,50.98547776],[4.06151932,50.98553913],[4.06146936,50.98552356],[4.06155079,50.98542925],[4.06159905,50.98544585]]]}},{"type":"Feature","id":"gebouw/Gebouw.16135342/0","properties":{"source":"Digitaal Vlaanderen Gebouwenregister","source_id":"gebouw/Gebouw.16135342/0","kind":"building","height_m":9.32,"status":null},"geometry":{"type":"Polygon","coordinates":[[[4.06124725,50.98553985],[4.06125658,50.98554295],[4.06127071,50.9855265],[4.06134487,50.98555189],[4.06133125,50.98556775],[4.06133526,50.98556908],[4.06126611,50.98565159],[4.06122805,50.98563869],[4.06121471,50.9856546],[4.06116475,50.98563784],[4.06124725,50.98553985]]]}},{"type":"Feature","id":"gebouw/Gebouw.16138244/0","properties":{"source":"Digitaal Vlaanderen Gebouwenregister","source_id":"gebouw/Gebouw.16138244/0","kind":"building","height_m":7.16,"status":null},"geometry":{"type":"Polygon","coordinates":[[[4.06744836,50.98512057],[4.06739547,50.9851373],[4.0672146,50.98519451],[4.06711503,50.985226],[4.06719802,50.98532978],[4.06716218,50.9853412],[4.06718381,50.98536826],[4.0672161,50.98535797],[4.06722289,50.98536646],[4.06732066,50.98533531],[4.06733256,50.98535019],[4.0674861,50.98530128],[4.0674658,50.98527589],[4.06748064,50.98527116],[4.0674705,50.98525848],[4.06748502,50.98525386],[4.06747534,50.98524174],[4.06753106,50.98522399],[4.06744836,50.98512057]]]}},{"type":"Feature","id":"gebouw/Gebouw.16148443/0","properties":{"source":"Digitaal Vlaanderen Gebouwenregister","source_id":"gebouw/Gebouw.16148443/0","kind":"building","height_m":7.16,"status":null},"geometry":{"type":"Polygon","coordinates":[[[4.05940833,50.98544921],[4.05937749,50.98547907],[4.05933144,50.98546147],[4.0593608,50.985431],[4.05940833,50.98544921]]]}},{"type":"Feature","id":"gebouw/Gebouw.16148555/0","properties":{"source":"Digitaal Vlaanderen Gebouwenregister","source_id":"gebouw/Gebouw.16148555/0","kind":"building","height_m":7.16,"status":null},"geometry":{"type":"Polygon","coordinates":[[[4.05889147,50.98596265],[4.05886554,50.98598777],[4.05882268,50.98596981],[4.05884874,50.98594504],[4.05886882,50.98595332],[4.0588821,50.98595879],[4.05889147,50.98596265]]]}},{"type":"Feature","id":"gebouw/Gebouw.16153128/0","properties":{"source":"Digitaal Vlaanderen Gebouwenregister","source_id":"gebouw/Gebouw.16153128/0","kind":"building","height_m":8.6,"status":null},"geometry":{"type":"Polygon","coordinates":[[[4.06066333,50.9853465],[4.06064635,50.9853668],[4.06064901,50.98536768],[4.06058695,50.98544281],[4.06052838,50.98542354],[4.06054248,50.98540616],[4.06052108,50.9853992],[4.06051694,50.98540447],[4.06042004,50.98537263],[4.06049013,50.9852888],[4.06066333,50.9853465]]]}},{"type":"Feature","id":"gebouw/Gebouw.16153274/0","properties":{"source":"Digitaal Vlaanderen Gebouwenregister","source_id":"gebouw/Gebouw.16153274/0","kind":"building","height_m":7.88,"status":null},"geometry":{"type":"Polygon","coordinates":[[[4.06275609,50.98278937],[4.06268331,50.98287722],[4.06259256,50.98284726],[4.06259987,50.98283844],[4.06252249,50.98281289],[4.06259691,50.98272355],[4.06265953,50.98274433],[4.06264547,50.9827618],[4.06267105,50.98276942],[4.06267656,50.98276312],[4.06275609,50.98278937]]]}},{"type":"Feature","id":"gebouw/Gebouw.16153635/0","properties":{"source":"Digitaal Vlaanderen Gebouwenregister","source_id":"gebouw/Gebouw.16153635/0","kind":"building","height_m":5.72,"status":null},"geometry":{"type":"Polygon","coordinates":[[[4.05897093,50.98550874],[4.05908,50.98555449],[4.05893207,50.98569959],[4.05876227,50.98562972],[4.05883175,50.98556256],[4.0588897,50.98558657],[4.05897093,50.98550874]]]}},{"type":"Feature","id":"gebouw/Gebouw.16154979/0","properties":{"source":"Digitaal Vlaanderen Gebouwenregister","source_id":"gebouw/Gebouw.16154979/0","kind":"building","height_m":5.72,"status":null},"geometry":{"type":"Polygon","coordinates":[[[4.065212,50.98249532],[4.06521548,50.98247498],[4.06527489,50.982479],[4.06527152,50.98249884],[4.06526251,50.98255182],[4.06519687,50.98254738],[4.06520533,50.98249489],[4.065212,50.98249532]]]}},{"type":"Feature","id":"gebouw/Gebouw.16155292/0","properties":{"source":"Digitaal Vlaanderen Gebouwenregister","source_id":"gebouw/Gebouw.16155292/0","kind":"building","height_m":9.32,"status":null},"geometry":{"type":"Polygon","coordinates":[[[4.06522815,50.98269807],[4.06552591,50.98271942],[4.06552225,50.98273979],[4.06558365,50.98274419],[4.06556919,50.9828143],[4.06556253,50.98281375],[4.06556433,50.98280425],[4.06550777,50.98279959],[4.06550815,50.98279719],[4.06547765,50.98279492],[4.06547651,50.9828019],[4.06540936,50.98279647],[4.06540823,50.98280169],[4.06540166,50.98280126],[4.06541014,50.98275665],[4.06537009,50.98275306],[4.06535756,50.9827596],[4.065338,50.98275809],[4.06533277,50.98278602],[4.0653274,50.98278565],[4.06532551,50.98279532],[4.06531858,50.98279494],[4.06532037,50.98278514],[4.06522099,50.98277744],[4.06521907,50.98278723],[4.06521219,50.98278674],[4.06522815,50.98269807]]]}},{"type":"Feature","id":"gebouw/Gebouw.16170052/0","properties":{"source":"Digitaal Vlaanderen Gebouwenregister","source_id":"gebouw/Gebouw.16170052/0","kind":"building","height_m":7.16,"status":null},"geometry":{"type":"Polygon","coordinates":[[[4.06066646,50.98592781],[4.06066554,50.98592889],[4.06062828,50.98597298],[4.06062334,50.98597882],[4.06060784,50.98599717],[4.06066826,50.98601928],[4.0607272,50.98594826],[4.06066646,50.98592781]]]}},{"type":"Feature","id":"gebouw/Gebouw.16176511/0","properties":{"source":"Digitaal Vlaanderen Gebouwenregister","source_id":"gebouw/Gebouw.16176511/0","kind":"building","height_m":5.72,"status":null},"geometry":{"type":"Polygon","coordinates":[[[4.05959862,50.9851668],[4.05962177,50.98514569],[4.0596571,50.98516112],[4.05968622,50.98513456],[4.05971285,50.98514572],[4.05966431,50.98519549],[4.05959862,50.9851668]]]}},{"type":"Feature","id":"gebouw/Gebouw.16181617/0","properties":{"source":"Digitaal Vlaanderen Gebouwenregister","source_id":"gebouw/Gebouw.16181617/0","kind":"building","height_m":7.88,"status":null},"geometry":{"type":"Polygon","coordinates":[[[4.06164831,50.98563283],[4.06165783,50.98562156],[4.06171074,50.98563937],[4.06162535,50.98574044],[4.06155511,50.9857168],[4.06157854,50.98568919],[4.06147233,50.98565328],[4.06152467,50.98559162],[4.06164831,50.98563283]]]}},{"type":"Feature","id":"gebouw/Gebouw.16187027/0","properties":{"source":"Digitaal Vlaanderen Gebouwenregister","source_id":"gebouw/Gebouw.16187027/0","kind":"building","height_m":7.16,"status":null},"geometry":{"type":"Polygon","coordinates":[[[4.0597033,50.98567582],[4.05962042,50.98577234],[4.05950486,50.98573094],[4.05954057,50.9856918],[4.05950952,50.98568062],[4.05955728,50.98562586],[4.0597033,50.98567582]]]}},{"type":"Feature","id":"gebouw/Gebouw.16192618/0","properties":{"source":"Digitaal Vlaanderen Gebouwenregister","source_id":"gebouw/Gebouw.16192618/0","kind":"building","height_m":5.72,"status":null},"geometry":{"type":"Polygon","coordinates":[[[4.06171306,50.98576969],[4.06177603,50.98569539],[4.06195191,50.98575405],[4.06188845,50.98582891],[4.06171306,50.98576969]]]}},{"type":"Feature","id":"gebouw/Gebouw.16217217/0","properties":{"source":"Digitaal Vlaanderen Gebouwenregister","source_id":"gebouw/Gebouw.16217217/0","kind":"building","height_m":6.44,"status":null},"geometry":{"type":"Polygon","coordinates":[[[4.0597,50.98521034],[4.05974354,50.98522512],[4.05971958,50.98525325],[4.05967604,50.98523848],[4.0597,50.98521034]]]}},{"type":"Feature","id":"gebouw/Gebouw.16222162/0","properties":{"source":"Digitaal Vlaanderen Gebouwenregister","source_id":"gebouw/Gebouw.16222162/0","kind":"building","height_m":8.6,"status":null},"geometry":{"type":"Polygon","coordinates":[[[4.06104102,50.98580924],[4.06098802,50.98587115],[4.06091481,50.98584618],[4.0608931,50.98587154],[4.06079306,50.98583742],[4.0608276,50.98579707],[4.06084506,50.98580303],[4.06088523,50.9857561],[4.06100098,50.98579558],[4.06104102,50.98580924]]]}},{"type":"Feature","id":"gebouw/Gebouw.16225187/0","properties":{"source":"Digitaal Vlaanderen Gebouwenregister","source_id":"gebouw/Gebouw.16225187/0","kind":"building","height_m":9.32,"status":null},"geometry":{"type":"Polygon","coordinates":[[[4.05929845,50.98665835],[4.05927352,50.9866826],[4.0592627,50.98667816],[4.0591975,50.98674031],[4.0590759,50.98669095],[4.05907744,50.98668963],[4.05908409,50.98669241],[4.05911433,50.98666399],[4.05910669,50.98666096],[4.05917283,50.98659663],[4.05929432,50.98664639],[4.0592869,50.98665361],[4.05929845,50.98665835]]]}},{"type":"Feature","id":"gebouw/Gebouw.16232122/0","properties":{"source":"Digitaal Vlaanderen Gebouwenregister","source_id":"gebouw/Gebouw.16232122/0","kind":"building","height_m":7.88,"status":null},"geometry":{"type":"Polygon","coordinates":[[[4.0609311,50.98517506],[4.06092341,50.98517247],[4.06091032,50.98518795],[4.06086209,50.98517277],[4.06087235,50.98515925],[4.06087992,50.9851618],[4.06089331,50.98514598],[4.06094186,50.98516234],[4.0609311,50.98517506]]]}},{"type":"Feature","id":"gebouw/Gebouw.16257511/0","properties":{"source":"Digitaal Vlaanderen Gebouwenregister","source_id":"gebouw/Gebouw.16257511/0","kind":"building","height_m":7.88,"status":null},"geometry":{"type":"Polygon","coordinates":[[[4.05913196,50.98685778],[4.05907564,50.98691161],[4.05891557,50.98684565],[4.05891652,50.98684462],[4.05891771,50.98684516],[4.05895011,50.98681431],[4.0589679,50.98682141],[4.05903561,50.98675559],[4.05913677,50.98679705],[4.05913492,50.98679885],[4.05917579,50.98681588],[4.05913196,50.98685778]]]}},{"type":"Feature","id":"gebouw/Gebouw.16260307/0","properties":{"source":"Digitaal Vlaanderen Gebouwenregister","source_id":"gebouw/Gebouw.16260307/0","kind":"building","height_m":5.0,"status":null},"geometry":{"type":"Polygon","coordinates":[[[4.05954663,50.9858974],[4.05949296,50.98595018],[4.05933715,50.98588706],[4.05939051,50.98583477],[4.05954663,50.9858974]]]}},{"type":"Feature","id":"gebouw/Gebouw.16270986/0","properties":{"source":"Digitaal Vlaanderen Gebouwenregister","source_id":"gebouw/Gebouw.16270986/0","kind":"building","height_m":7.88,"status":null},"geometry":{"type":"Polygon","coordinates":[[[4.05972814,50.98515894],[4.05976323,50.98512383],[4.05981047,50.98514264],[4.05977539,50.98517776],[4.05972814,50.98515894]]]}},{"type":"Feature","id":"gebouw/Gebouw.16282485/0","properties":{"source":"Digitaal Vlaanderen Gebouwenregister","source_id":"gebouw/Gebouw.16282485/0","kind":"building","height_m":6.44,"status":null},"geometry":{"type":"Polygon","coordinates":[[[4.0594221,50.98502251],[4.05942525,50.98501972],[4.05939148,50.98500604],[4.05947228,50.98492634],[4.05962654,50.98498915],[4.05963534,50.98498086],[4.05970386,50.98500865],[4.05963951,50.98507185],[4.0595804,50.98504788],[4.05955598,50.98507149],[4.0594221,50.98502251]]]}},{"type":"Feature","id":"gebouw/Gebouw.16285540/0","properties":{"source":"Digitaal Vlaanderen Gebouwenregister","source_id":"gebouw/Gebouw.16285540/0","kind":"building","height_m":8.6,"status":null},"geometry":{"type":"Polygon","coordinates":[[[4.06089386,50.98520188],[4.06099914,50.98523578],[4.06097751,50.98526242],[4.0608725,50.98522857],[4.06089386,50.98520188]]]}},{"type":"Feature","id":"gebouw/Gebouw.16288091/0","properties":{"source":"Digitaal Vlaanderen Gebouwenregister","source_id":"gebouw/Gebouw.16288091/0","kind":"building","height_m":5.72,"status":null},"geometry":{"type":"Polygon","coordinates":[[[4.05924082,50.98264],[4.05932461,50.98273533],[4.05921379,50.98277414],[4.05914138,50.98269176],[4.05914693,50.98268982],[4.05913326,50.98267427],[4.05912116,50.98267854],[4.05910071,50.98265573],[4.05918013,50.9826267],[4.05919901,50.98264709],[4.05922569,50.98263775],[4.05920714,50.98261683],[4.05920123,50.98261008],[4.05917414,50.98257914],[4.05916779,50.98257188],[4.05921433,50.98255558],[4.05925175,50.98259815],[4.05927431,50.98262382],[4.0592773,50.98262722],[4.05924082,50.98264]]]}},{"type":"Feature","id":"gebouw/Gebouw.16308883/0","properties":{"source":"Digitaal Vlaanderen Gebouwenregister","source_id":"gebouw/Gebouw.16308883/0","kind":"building","height_m":7.16,"status":null},"geometry":{"type":"Polygon","coordinates":[[[4.06005624,50.98600963],[4.06013348,50.98604227],[4.06010737,50.98606689],[4.06003013,50.98603425],[4.06005624,50.98600963]]]}},{"type":"Feature","id":"gebouw/Gebouw.16310937/0","properties":{"source":"Digitaal Vlaanderen Gebouwenregister","source_id":"gebouw/Gebouw.16310937/0","kind":"building","height_m":9.32,"status":null},"geometry":{"type":"Polygon","coordinates":[[[4.05989692,50.98604183],[4.05991295,50.98604907],[4.05992021,50.98605502],[4.05991946,50.98606128],[4.0599056,50.98607638],[4.05989444,50.9860803],[4.05988314,50.98607994],[4.05986695,50.98607334],[4.05980877,50.9861302],[4.05969504,50.98608385],[4.05978748,50.98599349],[4.05981353,50.98600419],[4.05981588,50.98600187],[4.05990171,50.98603663],[4.05989692,50.98604183]]]}},{"type":"Feature","id":"gebouw/Gebouw.16318018/0","properties":{"source":"Digitaal Vlaanderen Gebouwenregister","source_id":"gebouw/Gebouw.16318018/0","kind":"building","height_m":7.16,"status":null},"geometry":{"type":"Polygon","coordinates":[[[4.0607522,50.98530389],[4.06073453,50.98532497],[4.0606931,50.98531101],[4.06070807,50.98529331],[4.06064267,50.98527127],[4.06067051,50.98523836],[4.06056479,50.98520273],[4.0606281,50.98512789],[4.06078702,50.98518145],[4.06080863,50.98515595],[4.06086209,50.98517277],[4.060858,50.98517765],[4.060844,50.98519435],[4.06082075,50.98518722],[4.06072827,50.98529582],[4.0607522,50.98530389]]]}},{"type":"Feature","id":"gebouw/Gebouw.16320580/0","properties":{"source":"Digitaal Vlaanderen Gebouwenregister","source_id":"gebouw/Gebouw.16320580/0","kind":"building","height_m":7.16,"status":null},"geometry":{"type":"Polygon","coordinates":[[[4.05932647,50.98521161],[4.05929746,50.9852397],[4.05915022,50.98517909],[4.05925922,50.98507359],[4.05941784,50.98513887],[4.05933785,50.9852163],[4.05932647,50.98521161]]]}},{"type":"Feature","id":"gebouw/Gebouw.16320796/0","properties":{"source":"Digitaal Vlaanderen Gebouwenregister","source_id":"gebouw/Gebouw.16320796/0","kind":"building","height_m":6.44,"status":null},"geometry":{"type":"Polygon","coordinates":[[[4.06107622,50.98542248],[4.06107864,50.98541948],[4.06115522,50.98544404],[4.06114831,50.9854523],[4.06121077,50.9854731],[4.06109463,50.98561202],[4.06103161,50.98559103],[4.06110259,50.98550613],[4.06102793,50.98548098],[4.06101597,50.98549583],[4.06096391,50.98547914],[4.06102319,50.98540548],[4.06107622,50.98542248]]]}},{"type":"Feature","id":"gebouw/Gebouw.16328887/0","properties":{"source":"Digitaal Vlaanderen Gebouwenregister","source_id":"gebouw/Gebouw.16328887/0","kind":"building","height_m":5.72,"status":null},"geometry":{"type":"Polygon","coordinates":[[[4.06019638,50.98584306],[4.06000396,50.98577648],[4.06009334,50.98567358],[4.06028576,50.98574017],[4.06019638,50.98584306]]]}},{"type":"Feature","id":"gebouw/Gebouw.16344545/0","properties":{"source":"Digitaal Vlaanderen Gebouwenregister","source_id":"gebouw/Gebouw.16344545/0","kind":"building","height_m":5.0,"status":null},"geometry":{"type":"Polygon","coordinates":[[[4.05964987,50.98615089],[4.05975585,50.98619439],[4.05965494,50.98629233],[4.05964362,50.9862877],[4.05954921,50.98624904],[4.059533,50.9862424],[4.05956382,50.98621242],[4.05958363,50.98622022],[4.05959964,50.98620489],[4.05960102,50.98620549],[4.05961492,50.98619255],[4.05960945,50.98619028],[4.05961243,50.98618722],[4.05964987,50.98615089]]]}},{"type":"Feature","id":"gebouw/Gebouw.16346433/0","properties":{"source":"Digitaal Vlaanderen Gebouwenregister","source_id":"gebouw/Gebouw.16346433/0","kind":"building","height_m":8.6,"status":null},"geometry":{"type":"Polygon","coordinates":[[[4.05912238,50.98447028],[4.05916159,50.98444791],[4.05914995,50.98443977],[4.05922637,50.98439617],[4.05928165,50.98443477],[4.05916601,50.98450075],[4.05912238,50.98447028]]]}},{"type":"Feature","id":"gebouw/Gebouw.16356964/0","properties":{"source":"Digitaal Vlaanderen Gebouwenregister","source_id":"gebouw/Gebouw.16356964/0","kind":"building","height_m":5.72,"status":null},"geometry":{"type":"Polygon","coordinates":[[[4.05938148,50.98597943],[4.05943981,50.98600308],[4.05936429,50.98607726],[4.05935953,50.98607543],[4.05937451,50.98606071],[4.05932639,50.98604178],[4.05926401,50.98610286],[4.05919894,50.98607639],[4.05922803,50.98604781],[4.05923227,50.98604364],[4.05920359,50.98603201],[4.0591995,50.98603602],[4.05911361,50.98600119],[4.05916587,50.98594985],[4.05915687,50.9859462],[4.05916494,50.98593827],[4.05915647,50.98593483],[4.0591885,50.98590337],[4.05919623,50.98590651],[4.05919868,50.98590411],[4.05928047,50.98593728],[4.05927571,50.98594196],[4.05935546,50.9859743],[4.05937758,50.98598327],[4.05938148,50.98597943]]]}},{"type":"Feature","id":"gebouw/Gebouw.16363356/0","properties":{"source":"Digitaal Vlaanderen Gebouwenregister","source_id":"gebouw/Gebouw.16363356/0","kind":"building","height_m":6.44,"status":null},"geometry":{"type":"Polygon","coordinates":[[[4.06131897,50.98539633],[4.06134387,50.98540483],[4.06135977,50.98538626],[4.06138789,50.98539585],[4.06133043,50.98546295],[4.06127741,50.98544487],[4.06131897,50.98539633]]]}},{"type":"Feature","id":"gebouw/Gebouw.16373977/0","properties":{"source":"Digitaal Vlaanderen Gebouwenregister","source_id":"gebouw/Gebouw.16373977/0","kind":"building","height_m":7.88,"status":null},"geometry":{"type":"Polygon","coordinates":[[[4.05955898,50.98530332],[4.05948116,50.98527113],[4.05943875,50.98531194],[4.05944557,50.98531475],[4.05944241,50.98531781],[4.05943223,50.98532767],[4.05950354,50.98535701],[4.05951574,50.98534519],[4.05955898,50.98530332]]]}},{"type":"Feature","id":"gebouw/Gebouw.16403747/0","properties":{"source":"Digitaal Vlaanderen Gebouwenregister","source_id":"gebouw/Gebouw.16403747/0","kind":"building","height_m":7.16,"status":null},"geometry":{"type":"Polygon","coordinates":[[[4.05897402,50.98629872],[4.05904808,50.98632887],[4.05899561,50.98638022],[4.05892074,50.98634974],[4.05891194,50.98635836],[4.05877899,50.98630423],[4.05888942,50.98619616],[4.05902301,50.98625078],[4.05897402,50.98629872]]]}},{"type":"Feature","id":"gebouw/Gebouw.16410780/0","properties":{"source":"Digitaal Vlaanderen Gebouwenregister","source_id":"gebouw/Gebouw.16410780/0","kind":"building","height_m":5.72,"status":null},"geometry":{"type":"Polygon","coordinates":[[[4.05925564,50.98564952],[4.05928112,50.98565919],[4.05927385,50.98566682],[4.05928186,50.98566986],[4.05928354,50.9856681],[4.05930061,50.98567457],[4.05929563,50.9856798],[4.05929023,50.98567774],[4.05928478,50.98568346],[4.05923876,50.98566599],[4.05924138,50.98566325],[4.05921262,50.98565233],[4.05923691,50.98562683],[4.05926654,50.98563808],[4.05925564,50.98564952]]]}},{"type":"Feature","id":"gebouw/Gebouw.16443955/0","properties":{"source":"Digitaal Vlaanderen Gebouwenregister","source_id":"gebouw/Gebouw.16443955/0","kind":"building","height_m":7.16,"status":null},"geometry":{"type":"Polygon","coordinates":[[[4.05953714,50.98644888],[4.05965646,50.9864972],[4.05962555,50.98652762],[4.05955647,50.98649897],[4.05955817,50.98649729],[4.0594792,50.98646532],[4.05950931,50.98643568],[4.05939267,50.98638845],[4.05945128,50.98633078],[4.05944525,50.98632831],[4.05948682,50.98628754],[4.0596122,50.98633846],[4.05955755,50.98639223],[4.05958388,50.98640289],[4.05953714,50.98644888]]]}},{"type":"Feature","id":"gebouw/Gebouw.16461694/0","properties":{"source":"Digitaal Vlaanderen Gebouwenregister","source_id":"gebouw/Gebouw.16461694/0","kind":"building","height_m":7.88,"status":null},"geometry":{"type":"Polygon","coordinates":[[[4.05889479,50.98595944],[4.05889147,50.98596265],[4.0588821,50.98595879],[4.05886882,50.98595332],[4.05887404,50.98594836],[4.0587762,50.98590736],[4.05883052,50.98585571],[4.05893095,50.98589769],[4.0589409,50.98590185],[4.05894951,50.98590545],[4.05889479,50.98595944]]]}},{"type":"Feature","id":"gebouw/Gebouw.16468812/0","properties":{"source":"Digitaal Vlaanderen Gebouwenregister","source_id":"gebouw/Gebouw.16468812/0","kind":"building","height_m":7.16,"status":null},"geometry":{"type":"Polygon","coordinates":[[[4.06070796,50.98568824],[4.06079598,50.98571826],[4.06067888,50.98585504],[4.06063298,50.98583939],[4.06067651,50.98578854],[4.06063508,50.98577441],[4.06070796,50.98568824]]]}},{"type":"Feature","id":"gebouw/Gebouw.16480098/0","properties":{"source":"Digitaal Vlaanderen Gebouwenregister","source_id":"gebouw/Gebouw.16480098/0","kind":"building","height_m":8.6,"status":null},"geometry":{"type":"Polygon","coordinates":[[[4.06135995,50.98607684],[4.06128499,50.98605151],[4.06135359,50.98597162],[4.0614326,50.98599865],[4.06144288,50.9859863],[4.06151843,50.98601159],[4.0614204,50.98612827],[4.06133949,50.98610119],[4.06135995,50.98607684]]]}},{"type":"Feature","id":"gebouw/Gebouw.16490306/0","properties":{"source":"Digitaal Vlaanderen Gebouwenregister","source_id":"gebouw/Gebouw.16490306/0","kind":"building","height_m":5.0,"status":null},"geometry":{"type":"Polygon","coordinates":[[[4.06080448,50.98662307],[4.06082655,50.98662977],[4.0608289,50.98662669],[4.06091454,50.9866527],[4.0608834,50.98669354],[4.06079748,50.98666744],[4.06079508,50.98667047],[4.06077277,50.98666464],[4.06080448,50.98662307]]]}},{"type":"Feature","id":"gebouw/Gebouw.16492436/0","properties":{"source":"Digitaal Vlaanderen Gebouwenregister","source_id":"gebouw/Gebouw.16492436/0","kind":"building","height_m":6.44,"status":null},"geometry":{"type":"Polygon","coordinates":[[[4.05944463,50.98578175],[4.0596002,50.98584444],[4.05954663,50.9858974],[4.05939051,50.98583477],[4.05944463,50.98578175]]]}},{"type":"Feature","id":"gebouw/Gebouw.16508259/0","properties":{"source":"Digitaal Vlaanderen Gebouwenregister","source_id":"gebouw/Gebouw.16508259/0","kind":"building","height_m":8.6,"status":null},"geometry":{"type":"Polygon","coordinates":[[[4.06746403,50.98492381],[4.06753042,50.98490521],[4.06761048,50.98501903],[4.06754408,50.98503764],[4.06746403,50.98492381]]]}},{"type":"Feature","id":"gebouw/Gebouw.16778241/0","properties":{"source":"Digitaal Vlaanderen Gebouwenregister","source_id":"gebouw/Gebouw.16778241/0","kind":"building","height_m":7.88,"status":null},"geometry":{"type":"Polygon","coordinates":[[[4.06463481,50.98303256],[4.06460623,50.98302572],[4.06452522,50.98300635],[4.06451849,50.98301757],[4.06446816,50.98300554],[4.06445928,50.98302033],[4.06445383,50.9830294],[4.06441723,50.98302114],[4.06443586,50.98299927],[4.06445987,50.98295067],[4.06444413,50.982947],[4.06447324,50.98289721],[4.0645759,50.98292113],[4.06458795,50.98290054],[4.06469901,50.98292559],[4.06463481,50.98303256]]]}},{"type":"Feature","id":"gebouw/Gebouw.16817168/0","properties":{"source":"Digitaal Vlaanderen Gebouwenregister","source_id":"gebouw/Gebouw.16817168/0","kind":"building","height_m":7.88,"status":null},"geometry":{"type":"Polygon","coordinates":[[[4.06325459,50.98394146],[4.06337347,50.98398325],[4.06334988,50.98400999],[4.063231,50.9839682],[4.06325459,50.98394146]]]}},{"type":"Feature","id":"gebouw/Gebouw.16840523/0","properties":{"source":"Digitaal Vlaanderen Gebouwenregister","source_id":"gebouw/Gebouw.16840523/0","kind":"building","height_m":5.0,"status":null},"geometry":{"type":"Polygon","coordinates":[[[4.05910069,50.98469323],[4.05907527,50.9846756],[4.05903986,50.98469595],[4.05906524,50.98471354],[4.05910069,50.98469323]]]}},{"type":"Feature","id":"gebouw/Gebouw.17040828/0","properties":{"source":"Digitaal Vlaanderen Gebouwenregister","source_id":"gebouw/Gebouw.17040828/0","kind":"building","height_m":5.0,"status":null},"geometry":{"type":"Polygon","coordinates":[[[4.06800513,50.98289399],[4.06795975,50.98290211],[4.06793699,50.98285675],[4.06798423,50.9828474],[4.06800513,50.98289399]]]}},{"type":"Feature","id":"gebouw/Gebouw.17112639/0","properties":{"source":"Digitaal Vlaanderen Gebouwenregister","source_id":"gebouw/Gebouw.17112639/0","kind":"building","height_m":8.6,"status":null},"geometry":{"type":"Polygon","coordinates":[[[4.06885903,50.98483951],[4.06883213,50.98480178],[4.06886502,50.98479318],[4.06889022,50.98483131],[4.06885903,50.98483951]]]}},{"type":"Feature","id":"gebouw/Gebouw.17117379/0","properties":{"source":"Digitaal Vlaanderen Gebouwenregister","source_id":"gebouw/Gebouw.17117379/0","kind":"building","height_m":9.32,"status":null},"geometry":{"type":"Polygon","coordinates":[[[4.06893399,50.98479514],[4.06899497,50.98479381],[4.06899651,50.98482207],[4.06893553,50.98482339],[4.06893399,50.98479514]]]}},{"type":"Feature","id":"gebouw/Gebouw.17122015/0","properties":{"source":"Digitaal Vlaanderen Gebouwenregister","source_id":"gebouw/Gebouw.17122015/0","kind":"building","height_m":5.72,"status":null},"geometry":{"type":"Polygon","coordinates":[[[4.06757986,50.98353393],[4.06754719,50.98348695],[4.06759875,50.98347262],[4.06763142,50.9835196],[4.06757986,50.98353393]]]}},{"type":"Feature","id":"gebouw/Gebouw.17129528/0","properties":{"source":"Digitaal Vlaanderen Gebouwenregister","source_id":"gebouw/Gebouw.17129528/0","kind":"building","height_m":7.16,"status":null},"geometry":{"type":"Polygon","coordinates":[[[4.06967579,50.98503895],[4.06959218,50.98504324],[4.06957053,50.98504152],[4.06945715,50.98503251],[4.06941988,50.98502955],[4.06929707,50.98499604],[4.06933319,50.98494694],[4.06945078,50.9849814],[4.06944724,50.98498621],[4.06947789,50.98498882],[4.06948248,50.98496817],[4.06954382,50.9849736],[4.06954063,50.98498851],[4.06959492,50.98499335],[4.06959354,50.98496687],[4.06967005,50.98496432],[4.06967579,50.98503895]]]}},{"type":"Feature","id":"gebouw/Gebouw.17294836/0","properties":{"source":"Digitaal Vlaanderen Gebouwenregister","source_id":"gebouw/Gebouw.17294836/0","kind":"building","height_m":9.32,"status":null},"geometry":{"type":"Polygon","coordinates":[[[4.06894515,50.98367806],[4.0687646,50.98368591],[4.06876034,50.98364611],[4.06894088,50.98363826],[4.06894515,50.98367806]]]}},{"type":"Feature","id":"gebouw/Gebouw.17311159/0","properties":{"source":"Digitaal Vlaanderen Gebouwenregister","source_id":"gebouw/Gebouw.17311159/0","kind":"building","height_m":8.6,"status":null},"geometry":{"type":"Polygon","coordinates":[[[4.06946045,50.98507511],[4.06954115,50.98507262],[4.06954631,50.98511485],[4.06938466,50.98512247],[4.06938349,50.98510351],[4.0693384,50.98510661],[4.06926984,50.98508622],[4.06929416,50.98505365],[4.06926172,50.9850441],[4.06929707,50.98499604],[4.06941988,50.98502955],[4.06938625,50.98507739],[4.06946045,50.98507511]]]}},{"type":"Feature","id":"gebouw/Gebouw.17370033/0","properties":{"source":"Digitaal Vlaanderen Gebouwenregister","source_id":"gebouw/Gebouw.17370033/0","kind":"building","height_m":6.44,"status":null},"geometry":{"type":"Polygon","coordinates":[[[4.06769297,50.98356569],[4.06766382,50.98351085],[4.06772229,50.9834985],[4.06775144,50.98355335],[4.06769297,50.98356569]]]}},{"type":"Feature","id":"gebouw/Gebouw.18729437/0","properties":{"source":"Digitaal Vlaanderen Gebouwenregister","source_id":"gebouw/Gebouw.18729437/0","kind":"building","height_m":9.32,"status":null},"geometry":{"type":"Polygon","coordinates":[[[4.06419212,50.98305238],[4.06419721,50.98305511],[4.06416437,50.98308121],[4.06415992,50.98307889],[4.06412301,50.98305966],[4.06415758,50.98303383],[4.06419212,50.98305238]]]}},{"type":"Feature","id":"gebouw/Gebouw.18729441/0","properties":{"source":"Digitaal Vlaanderen Gebouwenregister","source_id":"gebouw/Gebouw.18729441/0","kind":"building","height_m":7.16,"status":null},"geometry":{"type":"Polygon","coordinates":[[[4.05917886,50.9857626],[4.0591329,50.98574397],[4.05906714,50.98580872],[4.05911169,50.98582727],[4.05917886,50.9857626]]]}},{"type":"Feature","id":"gebouw/Gebouw.18729442/0","properties":{"source":"Digitaal Vlaanderen Gebouwenregister","source_id":"gebouw/Gebouw.18729442/0","kind":"building","height_m":7.88,"status":null},"geometry":{"type":"Polygon","coordinates":[[[4.06182399,50.98550393],[4.06180947,50.98552331],[4.06175367,50.98550569],[4.06176744,50.98548682],[4.06182399,50.98550393]]]}},{"type":"Feature","id":"gebouw/Gebouw.18729443/0","properties":{"source":"Digitaal Vlaanderen Gebouwenregister","source_id":"gebouw/Gebouw.18729443/0","kind":"building","height_m":8.6,"status":null},"geometry":{"type":"Polygon","coordinates":[[[4.06181374,50.98553714],[4.06179436,50.98555848],[4.06173629,50.98554027],[4.0617561,50.98551839],[4.06181374,50.98553714]]]}},{"type":"Feature","id":"gebouw/Gebouw.18729444/0","properties":{"source":"Digitaal Vlaanderen Gebouwenregister","source_id":"gebouw/Gebouw.18729444/0","kind":"building","height_m":9.32,"status":null},"geometry":{"type":"Polygon","coordinates":[[[4.06114983,50.98612017],[4.06110711,50.98617072],[4.06106552,50.98615728],[4.0611101,50.98610598],[4.06114983,50.98612017]]]}},{"type":"Feature","id":"gebouw/Gebouw.19019269/0","properties":{"source":"Digitaal Vlaanderen Gebouwenregister","source_id":"gebouw/Gebouw.19019269/0","kind":"building","height_m":7.16,"status":null},"geometry":{"type":"Polygon","coordinates":[[[4.05928298,50.9854976],[4.05929546,50.98552863],[4.05923364,50.98553853],[4.05922116,50.98550751],[4.05928298,50.9854976]]]}},{"type":"Feature","id":"gebouw/Gebouw.19790072/0","properties":{"source":"Digitaal Vlaanderen Gebouwenregister","source_id":"gebouw/Gebouw.19790072/0","kind":"building","height_m":5.72,"status":null},"geometry":{"type":"Polygon","coordinates":[[[4.05993847,50.98545546],[4.05983605,50.98542054],[4.05984849,50.985406],[4.05976597,50.98537785],[4.05980211,50.98533563],[4.0598283,50.98534456],[4.05985019,50.98531897],[4.05984349,50.98531669],[4.0598765,50.98527813],[4.05999203,50.98531753],[4.0599344,50.98538425],[4.05998514,50.98540093],[4.05993847,50.98545546]]]}},{"type":"Feature","id":"gebouw/Gebouw.20145139/0","properties":{"source":"Digitaal Vlaanderen Gebouwenregister","source_id":"gebouw/Gebouw.20145139/0","kind":"building","height_m":5.0,"status":null},"geometry":{"type":"Polygon","coordinates":[[[4.06731703,50.98557428],[4.06714815,50.98560946],[4.06714216,50.98561071],[4.06710153,50.98553059],[4.06727526,50.9854944],[4.06731703,50.98557428]]]}},{"type":"Feature","id":"gebouw/Gebouw.20145222/0","properties":{"source":"Digitaal Vlaanderen Gebouwenregister","source_id":"gebouw/Gebouw.20145222/0","kind":"building","height_m":9.32,"status":null},"geometry":{"type":"Polygon","coordinates":[[[4.05962555,50.98652762],[4.05959444,50.98655822],[4.05952487,50.98653006],[4.05955647,50.98649897],[4.05962555,50.98652762]]]}},{"type":"Feature","id":"gebouw/Gebouw.20145263/0","properties":{"source":"Digitaal Vlaanderen Gebouwenregister","source_id":"gebouw/Gebouw.20145263/0","kind":"building","height_m":8.6,"status":null},"geometry":{"type":"Polygon","coordinates":[[[4.06282084,50.98302601],[4.06285449,50.98297366],[4.06293804,50.98299506],[4.06290439,50.98304741],[4.06282084,50.98302601]]]}},{"type":"Feature","id":"gebouw/Gebouw.20146692/0","properties":{"source":"Digitaal Vlaanderen Gebouwenregister","source_id":"gebouw/Gebouw.20146692/0","kind":"building","height_m":9.32,"status":null},"geometry":{"type":"Polygon","coordinates":[[[4.06491763,50.98354181],[4.06495402,50.98356677],[4.06489276,50.98360236],[4.06488833,50.98359933],[4.06484081,50.98362693],[4.06480047,50.98359927],[4.06485503,50.98356757],[4.0648634,50.98357331],[4.06491763,50.98354181]]]}},{"type":"Feature","id":"gebouw/Gebouw.20146827/0","properties":{"source":"Digitaal Vlaanderen Gebouwenregister","source_id":"gebouw/Gebouw.20146827/0","kind":"building","height_m":5.72,"status":null},"geometry":{"type":"Polygon","coordinates":[[[4.05923748,50.98566547],[4.05923074,50.98567225],[4.05927704,50.9856906],[4.05924607,50.98572173],[4.0591709,50.98569195],[4.05920595,50.98565267],[4.05920694,50.98565308],[4.05920982,50.98565424],[4.05923748,50.98566547]]]}},{"type":"Feature","id":"gebouw/Gebouw.30642404/0","properties":{"source":"Digitaal Vlaanderen Gebouwenregister","source_id":"gebouw/Gebouw.30642404/0","kind":"building","height_m":6.44,"status":null},"geometry":{"type":"Polygon","coordinates":[[[4.0607277,50.98533312],[4.06072074,50.98534124],[4.06069947,50.98536609],[4.06067451,50.98535751],[4.06069109,50.98533829],[4.06065211,50.98532489],[4.06066381,50.98531133],[4.06068525,50.98531864],[4.0607277,50.98533312]]]}},{"type":"Feature","id":"gebouw/Gebouw.30642405/0","properties":{"source":"Digitaal Vlaanderen Gebouwenregister","source_id":"gebouw/Gebouw.30642405/0","kind":"building","height_m":7.16,"status":null},"geometry":{"type":"Polygon","coordinates":[[[4.06450042,50.98319129],[4.06446263,50.98317005],[4.06449956,50.98314387],[4.06453735,50.98316512],[4.06450042,50.98319129]]]}},{"type":"Feature","id":"gebouw/Gebouw.30642406/0","properties":{"source":"Digitaal Vlaanderen Gebouwenregister","source_id":"gebouw/Gebouw.30642406/0","kind":"building","height_m":7.88,"status":null},"geometry":{"type":"Polygon","coordinates":[[[4.06426137,50.98322967],[4.06432674,50.98318495],[4.06428795,50.98316237],[4.06429143,50.98315999],[4.06424408,50.98313241],[4.06422005,50.98314885],[4.06422666,50.98315269],[4.06418066,50.98318384],[4.06426137,50.98322967]]]}},{"type":"Feature","id":"gebouw/Gebouw.30909761/0","properties":{"source":"Digitaal Vlaanderen Gebouwenregister","source_id":"gebouw/Gebouw.30909761/0","kind":"building","height_m":5.72,"status":null},"geometry":{"type":"Polygon","coordinates":[[[4.06486192,50.98299376],[4.06488151,50.98296661],[4.06497943,50.98299477],[4.06495984,50.98302192],[4.06486192,50.98299376]]]}},{"type":"Feature","id":"gebouw/Gebouw.31144733/0","properties":{"source":"Digitaal Vlaanderen Gebouwenregister","source_id":"gebouw/Gebouw.31144733/0","kind":"building","height_m":7.88,"status":null},"geometry":{"type":"Polygon","coordinates":[[[4.06951532,50.98485815],[4.06951122,50.98488595],[4.06950454,50.9848856],[4.0693935,50.98487978],[4.0693977,50.98485124],[4.06951532,50.98485815]]]}},{"type":"Feature","id":"gebouw/Gebouw.31804622/0","properties":{"source":"Digitaal Vlaanderen Gebouwenregister","source_id":"gebouw/Gebouw.31804622/0","kind":"building","height_m":7.16,"status":null},"geometry":{"type":"Polygon","coordinates":[[[4.05897229,50.98596432],[4.05902629,50.98591102],[4.05898122,50.98589283],[4.05892723,50.98594613],[4.05897229,50.98596432]]]}},{"type":"Feature","id":"gebouw/Gebouw.31805929/0","properties":{"source":"Digitaal Vlaanderen Gebouwenregister","source_id":"gebouw/Gebouw.31805929/0","kind":"building","height_m":5.72,"status":null},"geometry":{"type":"Polygon","coordinates":[[[4.06009853,50.98590273],[4.05997084,50.98584803],[4.05992898,50.98588771],[4.05991699,50.98588269],[4.05991472,50.9858849],[4.05991211,50.98588736],[4.05985115,50.98594489],[4.06003051,50.98601886],[4.06009091,50.98596051],[4.06013511,50.98591781],[4.06009853,50.98590273]]]}},{"type":"Feature","id":"gebouw/Gebouw.31805981/0","properties":{"source":"Digitaal Vlaanderen Gebouwenregister","source_id":"gebouw/Gebouw.31805981/0","kind":"building","height_m":7.88,"status":null},"geometry":{"type":"Polygon","coordinates":[[[4.06090693,50.98605132],[4.06087603,50.98608806],[4.06095089,50.98611314],[4.06098179,50.9860764],[4.06090693,50.98605132]]]}},{"type":"Feature","id":"gebouw/Gebouw.31806167/0","properties":{"source":"Digitaal Vlaanderen Gebouwenregister","source_id":"gebouw/Gebouw.31806167/0","kind":"building","height_m":5.72,"status":null},"geometry":{"type":"Polygon","coordinates":[[[4.06429702,50.98336375],[4.06433527,50.98333672],[4.06430141,50.98331763],[4.06426316,50.98334466],[4.06429702,50.98336375]]]}},{"type":"Feature","id":"gebouw/Gebouw.31806712/0","properties":{"source":"Digitaal Vlaanderen Gebouwenregister","source_id":"gebouw/Gebouw.31806712/0","kind":"building","height_m":5.0,"status":null},"geometry":{"type":"Polygon","coordinates":[[[4.06474011,50.98320109],[4.06468029,50.98318915],[4.06466997,50.98320972],[4.06466411,50.98322142],[4.06468838,50.98322627],[4.06472393,50.98323337],[4.06474011,50.98320109]]]}},{"type":"Feature","id":"gebouw/Gebouw.32034018/0","properties":{"source":"Digitaal Vlaanderen Gebouwenregister","source_id":"gebouw/Gebouw.32034018/0","kind":"building","height_m":6.44,"status":null},"geometry":{"type":"Polygon","coordinates":[[[4.05936192,50.98551665],[4.05934209,50.98553788],[4.05939109,50.98555611],[4.05941092,50.98553488],[4.05936192,50.98551665]]]}},{"type":"Feature","id":"way/83015383","properties":{"source":"OpenStreetMap","source_id":"way/83015383","kind":"waterway","name":null,"waterway":"stream","landuse":null},"geometry":{"type":"LineString","coordinates":[[4.0667212,50.9884627],[4.0667551,50.9886415],[4.0667289,50.9888199]]}},{"type":"Feature","id":"way/152474888","properties":{"source":"OpenStreetMap","source_id":"way/152474888","kind":"vegetation","name":null,"waterway":null,"landuse":"forest"},"geometry":{"type":"Polygon","coordinates":[[[4.0599301,50.9849911],[4.0592928,50.9854053],[4.0587103,50.9850235],[4.0581997,50.9845252],[4.0579633,50.9841002],[4.0580421,50.9840873],[4.0583025,50.984495],[4.0589604,50.9843052],[4.0592517,50.9845209],[4.0586589,50.9848056],[4.0589604,50.9850149],[4.0595361,50.9847064],[4.0599301,50.9849911]]]}},{"type":"Feature","id":"way/152474910","properties":{"source":"OpenStreetMap","source_id":"way/152474910","kind":"vegetation","name":null,"waterway":null,"landuse":"forest"},"geometry":{"type":"Polygon","coordinates":[[[4.0645869,50.9828744],[4.0643265,50.9828317],[4.0642653,50.9822892],[4.0652861,50.9820152],[4.0653786,50.9820084],[4.0658472,50.9818925],[4.0670076,50.982859],[4.0670084,50.9831047],[4.06688,50.9830971],[4.066817,50.9829385],[4.0667031,50.9828088],[4.0666111,50.982792],[4.0665505,50.9826929],[4.0665214,50.9826547],[4.0663009,50.9826532],[4.0662815,50.982702],[4.0660513,50.9826898],[4.0660392,50.9824229],[4.0655231,50.9824122],[4.0654141,50.9829522],[4.06515,50.9829369],[4.0651791,50.9824488],[4.0646073,50.9824534],[4.0645869,50.9828744]]]}},{"type":"Feature","id":"way/152474912","properties":{"source":"OpenStreetMap","source_id":"way/152474912","kind":"vegetation","name":null,"waterway":null,"landuse":"forest"},"geometry":{"type":"Polygon","coordinates":[[[4.0691315,50.9861517],[4.0694025,50.986048],[4.0690875,50.9856453],[4.0683704,50.9858039],[4.0682007,50.9854867],[4.0688695,50.9853036],[4.0682198,50.9843361],[4.0680322,50.9843719],[4.068005,50.9844812],[4.0679493,50.9845323],[4.0678494,50.984587],[4.0676316,50.9846301],[4.0674401,50.9846523],[4.0673281,50.9846657],[4.0672506,50.9847041],[4.0671915,50.9847728],[4.0672075,50.9848804],[4.067279,50.9849993],[4.0673503,50.9850579],[4.0675804,50.985127],[4.0677822,50.9851969],[4.0679152,50.9852975],[4.0679834,50.9854388],[4.068004,50.9855795],[4.0679933,50.9858008],[4.0679295,50.9860479],[4.0677534,50.9864856],[4.0674818,50.9867623],[4.0676662,50.986914],[4.0681526,50.9863958],[4.0691315,50.9861517]]]}},{"type":"Feature","id":"way/152474928","properties":{"source":"OpenStreetMap","source_id":"way/152474928","kind":"vegetation","name":null,"waterway":null,"landuse":"forest"},"geometry":{"type":"Polygon","coordinates":[[[4.062473,50.986468],[4.0628266,50.9865674],[4.0627394,50.9875045],[4.062682,50.9875873],[4.0624908,50.9877568],[4.0624032,50.9878288],[4.0619632,50.9883323],[4.0613426,50.9890642],[4.0609547,50.9892051],[4.0596913,50.989551],[4.0594184,50.9893918],[4.0598562,50.9891982],[4.0594685,50.9888626],[4.0592602,50.9887681],[4.0591293,50.988704],[4.0592117,50.9886735],[4.0593716,50.988643],[4.0594734,50.9885576],[4.0595412,50.9884508],[4.0595121,50.9883685],[4.0594007,50.9882526],[4.0593813,50.988158],[4.0594734,50.9880878],[4.0595461,50.9881489],[4.059643,50.9882831],[4.0597932,50.9883654],[4.0599289,50.9884203],[4.0606461,50.9883166],[4.0607042,50.9882465],[4.0605734,50.9879079],[4.0605201,50.9877126],[4.0605637,50.9876486],[4.06068,50.9876882],[4.0607963,50.9878286],[4.060995,50.9879567],[4.061184,50.9879994],[4.0614893,50.9880756],[4.0617267,50.9880848],[4.0618527,50.9879719],[4.0620078,50.9878255],[4.0619351,50.9877248],[4.0617897,50.9876669],[4.0618963,50.9876181],[4.0624003,50.9877462],[4.0625457,50.9876669],[4.0625457,50.9875754],[4.06178,50.9873527],[4.061814,50.9872795],[4.0619545,50.9872947],[4.0625941,50.9874625],[4.0626281,50.9872124],[4.0626814,50.9868402],[4.0626862,50.9866816],[4.0623809,50.9865596],[4.062473,50.986468]]]}},{"type":"Feature","id":"way/152474933","properties":{"source":"OpenStreetMap","source_id":"way/152474933","kind":"vegetation","name":null,"waterway":null,"landuse":"forest"},"geometry":{"type":"Polygon","coordinates":[[[4.0627399,50.9848168],[4.0622961,50.9846287],[4.061511,50.985219],[4.0608665,50.9850894],[4.0618745,50.9843267],[4.0628437,50.9847141],[4.0627399,50.9848168]]]}},{"type":"Feature","id":"way/152474940","properties":{"source":"OpenStreetMap","source_id":"way/152474940","kind":"vegetation","name":null,"waterway":null,"landuse":"forest"},"geometry":{"type":"Polygon","coordinates":[[[4.0622089,50.9854981],[4.0620877,50.9854493],[4.0627399,50.9848168],[4.0628437,50.9847141],[4.0632168,50.9843511],[4.061826,50.9837715],[4.0619133,50.9836922],[4.0634446,50.9843206],[4.0622089,50.9854981]]]}},{"type":"Feature","id":"way/152474942","properties":{"source":"OpenStreetMap","source_id":"way/152474942","kind":"vegetation","name":null,"waterway":null,"landuse":"forest"},"geometry":{"type":"Polygon","coordinates":[[[4.0651544,50.9861048],[4.0652782,50.9861228],[4.0654819,50.9859499],[4.0656127,50.9849554],[4.0656081,50.9848728],[4.0653829,50.9848423],[4.0653878,50.9856415],[4.065286,50.9859405],[4.0651544,50.9861048]]]}},{"type":"Feature","id":"way/152474945","properties":{"source":"OpenStreetMap","source_id":"way/152474945","kind":"vegetation","name":null,"waterway":null,"landuse":"forest"},"geometry":{"type":"Polygon","coordinates":[[[4.065664,50.9838386],[4.0658439,50.9837048],[4.0662646,50.9831614],[4.0667158,50.983198],[4.0662475,50.9837931],[4.0655691,50.9841714],[4.0655883,50.9845155],[4.0650195,50.9842535],[4.065664,50.9838386]]]}},{"type":"Feature","id":"way/152474948","properties":{"source":"OpenStreetMap","source_id":"way/152474948","kind":"vegetation","name":null,"waterway":null,"landuse":"forest"},"geometry":{"type":"Polygon","coordinates":[[[4.0597919,50.9847939],[4.0603778,50.9844596],[4.0606071,50.984624],[4.0614432,50.9841345],[4.0605467,50.9837532],[4.0604052,50.9837261],[4.0601585,50.9838189],[4.0605183,50.984067],[4.0595177,50.9845933],[4.0597919,50.9847939]]]}},{"type":"Feature","id":"way/152496293","properties":{"source":"OpenStreetMap","source_id":"way/152496293","kind":"water","name":null,"waterway":null,"landuse":null},"geometry":{"type":"Polygon","coordinates":[[[4.0597279,50.9891257],[4.0597175,50.9891611],[4.0596592,50.9891978],[4.0596008,50.9891913],[4.0592882,50.9889722],[4.0592945,50.9889289],[4.0593653,50.9888974],[4.0594258,50.9888778],[4.0594674,50.9888935],[4.0597279,50.9891257]]]}},{"type":"Feature","id":"way/398195870","properties":{"source":"OpenStreetMap","source_id":"way/398195870","kind":"waterway","name":"Kleine Meersbeek","waterway":"stream","landuse":null},"geometry":{"type":"LineString","coordinates":[[4.0596883,50.9895702],[4.0609681,50.9892187],[4.0613672,50.9890818],[4.061992,50.9883439],[4.0624344,50.9878462],[4.0625224,50.9877609],[4.0627236,50.9875952],[4.0628845,50.9875297],[4.0633054,50.987303],[4.0637116,50.9870823],[4.0641771,50.9868503],[4.0643025,50.9868034],[4.0644593,50.986843],[4.0645283,50.9868789]]}},{"type":"Feature","id":"way/635299848","properties":{"source":"OpenStreetMap","source_id":"way/635299848","kind":"waterway","name":"Kleine Meersbeek","waterway":"stream","landuse":null},"geometry":{"type":"LineString","coordinates":[[4.0645283,50.9868789],[4.0646026,50.9869434]]}},{"type":"Feature","id":"way/780654508","properties":{"source":"OpenStreetMap","source_id":"way/780654508","kind":"waterway","name":"Molenbeek","waterway":"stream","landuse":null},"geometry":{"type":"LineString","coordinates":[[4.067096,50.9830839],[4.0672367,50.9832937]]}},{"type":"Feature","id":"way/780654509","properties":{"source":"OpenStreetMap","source_id":"way/780654509","kind":"waterway","name":"Molenbeek","waterway":"stream","landuse":null},"geometry":{"type":"LineString","coordinates":[[4.0672367,50.9832937],[4.0676293,50.9838528],[4.0679293,50.9843073],[4.0679592,50.9843857],[4.0679415,50.9844537],[4.0679112,50.9845069],[4.0678292,50.9845482],[4.0676076,50.9845998],[4.0674312,50.9846205],[4.067305,50.9846341],[4.0672014,50.9846799],[4.0671358,50.9847626],[4.0671563,50.9848814],[4.067222,50.9850131],[4.0673286,50.985088],[4.0675625,50.9851577],[4.0677266,50.9852171],[4.0678538,50.9853075],[4.0679276,50.9854418],[4.067944,50.9855865],[4.0679358,50.9858008],[4.0678782,50.9860484],[4.0677078,50.986481],[4.0675502,50.9866402],[4.0673697,50.9868132],[4.0672343,50.9869062],[4.0670825,50.9869321],[4.0669101,50.9869295],[4.0667795,50.9869122],[4.0667036,50.986852],[4.0666617,50.9867251],[4.0665515,50.9864561],[4.0664819,50.9862976],[4.0664026,50.9861835],[4.0663235,50.9861237],[4.0661305,50.9860562],[4.0658924,50.986021],[4.065708,50.9859894],[4.0656096,50.9859894],[4.0654913,50.9860062],[4.0654003,50.9860598],[4.0652677,50.9861896],[4.0651706,50.9863484],[4.0650065,50.9865085],[4.0648717,50.986622],[4.0647949,50.9867615],[4.0647268,50.9868691],[4.0646026,50.9869434]]}},{"type":"Feature","id":"way/1413570448","properties":{"source":"OpenStreetMap","source_id":"way/1413570448","kind":"water","name":null,"waterway":null,"landuse":null},"geometry":{"type":"Polygon","coordinates":[[[4.0650109,50.9838312],[4.0651638,50.9839123],[4.0652201,50.9839207],[4.0653676,50.9838211],[4.0653631,50.9837623],[4.0651766,50.9836694],[4.0651032,50.9836791],[4.0650038,50.9837828],[4.0650109,50.9838312]]]}},{"type":"Feature","id":"way/1413570449","properties":{"source":"OpenStreetMap","source_id":"way/1413570449","kind":"water","name":null,"waterway":null,"landuse":null},"geometry":{"type":"Polygon","coordinates":[[[4.0662753,50.9826565],[4.0662828,50.9826675],[4.0663914,50.982669],[4.0664176,50.9826627],[4.0664213,50.9826462],[4.0664101,50.9826172],[4.0662728,50.9824412],[4.0662566,50.982431],[4.0662391,50.9824318],[4.0662416,50.9824993],[4.0662728,50.9826023],[4.0662753,50.9826565]]]}},{"type":"Feature","id":"way/1413570450","properties":{"source":"OpenStreetMap","source_id":"way/1413570450","kind":"water","name":null,"waterway":null,"landuse":null},"geometry":{"type":"Polygon","coordinates":[[[4.0678733,50.985152],[4.0679486,50.9852608],[4.0680195,50.9852817],[4.0680572,50.9852719],[4.0680815,50.9852454],[4.0680616,50.9851799],[4.0679619,50.9850516],[4.0679176,50.9850251],[4.06788,50.9850209],[4.0678334,50.9850279],[4.0678002,50.9850502],[4.0677958,50.9850809],[4.0678733,50.985152]]]}},{"type":"Feature","id":"way/1413570451","properties":{"source":"OpenStreetMap","source_id":"way/1413570451","kind":"water","name":null,"waterway":null,"landuse":null},"geometry":{"type":"Polygon","coordinates":[[[4.0628777,50.9847765],[4.0628375,50.9847984],[4.0628448,50.9848145],[4.0628777,50.9848237],[4.0628942,50.9848122],[4.0630094,50.9848168],[4.0630277,50.9847846],[4.0630167,50.9847477],[4.0629984,50.9847063],[4.0629783,50.9847051],[4.0629399,50.9847212],[4.0629161,50.9847166],[4.0629106,50.9846901],[4.0628923,50.9846844],[4.0628484,50.9846878],[4.0628422,50.9847046],[4.0628676,50.9847518],[4.0628777,50.9847765]]]}}]}