{"type":"FeatureCollection","features":[{"type":"Feature","id":"gebouw/Gebouw.16737368/0","properties":{"source":"Digitaal Vlaanderen Gebouwenregister","source_id":"gebouw/Gebouw.16737368/0","kind":"building","height_m":7.88,"status":null},"geometry":{"type":"Polygon","coordinates":[[[4.06064378,50.91467907],[4.06067565,50.91468867],[4.06059406,50.91479686],[4.06046321,50.91475742],[4.06054509,50.91464886],[4.06056053,50.91465351],[4.06057805,50.91463029],[4.06066158,50.91465546],[4.06064378,50.91467907]]]}},{"type":"Feature","id":"gebouw/Gebouw.16737411/0","properties":{"source":"Digitaal Vlaanderen Gebouwenregister","source_id":"gebouw/Gebouw.16737411/0","kind":"building","height_m":8.6,"status":null},"geometry":{"type":"Polygon","coordinates":[[[4.05964205,50.91500006],[4.05959746,50.91498459],[4.05962085,50.91495765],[4.05966545,50.91497312],[4.05964205,50.91500006]]]}},{"type":"Feature","id":"gebouw/Gebouw.16745672/0","properties":{"source":"Digitaal Vlaanderen Gebouwenregister","source_id":"gebouw/Gebouw.16745672/0","kind":"building","height_m":9.32,"status":null},"geometry":{"type":"Polygon","coordinates":[[[4.0617279,50.9148506],[4.06178005,50.91486542],[4.06173411,50.91493274],[4.06167871,50.91491629],[4.06172534,50.91485402],[4.0617279,50.9148506]]]}},{"type":"Feature","id":"gebouw/Gebouw.16746006/0","properties":{"source":"Digitaal Vlaanderen Gebouwenregister","source_id":"gebouw/Gebouw.16746006/0","kind":"building","height_m":7.88,"status":null},"geometry":{"type":"Polygon","coordinates":[[[4.05920558,50.91333739],[4.05919783,50.91338349],[4.05913127,50.91337902],[4.05913901,50.91333292],[4.05920558,50.91333739]]]}},{"type":"Feature","id":"gebouw/Gebouw.16746266/0","properties":{"source":"Digitaal Vlaanderen Gebouwenregister","source_id":"gebouw/Gebouw.16746266/0","kind":"building","height_m":8.6,"status":null},"geometry":{"type":"Polygon","coordinates":[[[4.06023897,50.91503881],[4.06019515,50.91509786],[4.06018759,50.91509557],[4.06014011,50.91508116],[4.06015541,50.91506101],[4.06002631,50.91502183],[4.06012997,50.91488534],[4.06020601,50.91490842],[4.06020288,50.91491319],[4.06025226,50.91492829],[4.06023239,50.91495489],[4.06023997,50.91495733],[4.06018702,50.9150231],[4.06023897,50.91503881]]]}},{"type":"Feature","id":"gebouw/Gebouw.16746269/0","properties":{"source":"Digitaal Vlaanderen Gebouwenregister","source_id":"gebouw/Gebouw.16746269/0","kind":"building","height_m":5.72,"status":null},"geometry":{"type":"Polygon","coordinates":[[[4.06126374,50.91475184],[4.06121929,50.9148112],[4.06117094,50.91479644],[4.06123022,50.91471887],[4.06127783,50.91473341],[4.06126374,50.91475184]]]}},{"type":"Feature","id":"gebouw/Gebouw.16752117/0","properties":{"source":"Digitaal Vlaanderen Gebouwenregister","source_id":"gebouw/Gebouw.16752117/0","kind":"building","height_m":7.88,"status":null},"geometry":{"type":"Polygon","coordinates":[[[4.06075133,50.91474933],[4.06074912,50.91475227],[4.06069368,50.91482619],[4.06069873,50.9148277],[4.06070169,50.91482382],[4.06078377,50.91484881],[4.06078149,50.91485201],[4.06082437,50.91486501],[4.06082405,50.91486595],[4.06082907,50.91486748],[4.06088781,50.91479052],[4.06088495,50.91478966],[4.06089272,50.9147793],[4.06085088,50.91476676],[4.06084328,50.91477689],[4.06075133,50.91474933]]]}},{"type":"Feature","id":"gebouw/Gebouw.16754443/0","properties":{"source":"Digitaal Vlaanderen Gebouwenregister","source_id":"gebouw/Gebouw.16754443/0","kind":"building","height_m":9.32,"status":null},"geometry":{"type":"Polygon","coordinates":[[[4.06163281,50.91497758],[4.0615937,50.91496596],[4.0615253,50.91505796],[4.0614673,50.91504073],[4.06145336,50.91505928],[4.06138187,50.91503647],[4.06148608,50.91490595],[4.06160164,50.91494283],[4.06167413,50.91483895],[4.06172534,50.91485402],[4.06167871,50.91491629],[4.06163281,50.91497758]]]}},{"type":"Feature","id":"gebouw/Gebouw.16758769/0","properties":{"source":"Digitaal Vlaanderen Gebouwenregister","source_id":"gebouw/Gebouw.16758769/0","kind":"building","height_m":9.32,"status":null},"geometry":{"type":"Polygon","coordinates":[[[4.06945966,50.91426816],[4.06945727,50.91426657],[4.06946896,50.91425877],[4.06951015,50.91428174],[4.0694769,50.91430171],[4.06938946,50.91435422],[4.06935798,50.91433328],[4.06930955,50.91436236],[4.06915802,50.91426153],[4.0692449,50.91420935],[4.06939323,50.91430806],[4.06945966,50.91426816]]]}},{"type":"Feature","id":"gebouw/Gebouw.16759041/0","properties":{"source":"Digitaal Vlaanderen Gebouwenregister","source_id":"gebouw/Gebouw.16759041/0","kind":"building","height_m":8.6,"status":null},"geometry":{"type":"Polygon","coordinates":[[[4.05978852,50.91456168],[4.05974039,50.91454697],[4.05974199,50.91454457],[4.05968374,50.9145271],[4.05975399,50.91443235],[4.05986083,50.91446457],[4.05978852,50.91456168]]]}},{"type":"Feature","id":"gebouw/Gebouw.16759054/0","properties":{"source":"Digitaal Vlaanderen Gebouwenregister","source_id":"gebouw/Gebouw.16759054/0","kind":"building","height_m":7.88,"status":null},"geometry":{"type":"Polygon","coordinates":[[[4.06573118,50.91009485],[4.06571115,50.91007243],[4.06576932,50.91005166],[4.06578935,50.91007408],[4.06573118,50.91009485]]]}},{"type":"Feature","id":"gebouw/Gebouw.16760308/0","properties":{"source":"Digitaal Vlaanderen Gebouwenregister","source_id":"gebouw/Gebouw.16760308/0","kind":"building","height_m":8.6,"status":null},"geometry":{"type":"Polygon","coordinates":[[[4.06924778,50.91327172],[4.06916518,50.91323584],[4.06922844,50.9131789],[4.0693139,50.91310198],[4.06943355,50.91315394],[4.06934631,50.9132301],[4.06932461,50.91324904],[4.06928929,50.91323437],[4.06924778,50.91327172]]]}},{"type":"Feature","id":"gebouw/Gebouw.16761799/0","properties":{"source":"Digitaal Vlaanderen Gebouwenregister","source_id":"gebouw/Gebouw.16761799/0","kind":"building","height_m":8.6,"status":null},"geometry":{"type":"Polygon","coordinates":[[[4.06953464,50.91440425],[4.0696057,50.91445048],[4.06945529,50.91454204],[4.06941074,50.91451279],[4.06942847,50.91450217],[4.06933298,50.9144415],[4.06945578,50.91436426],[4.06952664,50.91440928],[4.06953464,50.91440425]]]}},{"type":"Feature","id":"gebouw/Gebouw.16773392/0","properties":{"source":"Digitaal Vlaanderen Gebouwenregister","source_id":"gebouw/Gebouw.16773392/0","kind":"building","height_m":9.32,"status":null},"geometry":{"type":"Polygon","coordinates":[[[4.06883834,50.91453726],[4.06883381,50.91454015],[4.0687038,50.9144575],[4.06879895,50.91439768],[4.06887552,50.91444637],[4.06888428,50.91444031],[4.0689378,50.91447388],[4.06883834,50.91453726]]]}},{"type":"Feature","id":"gebouw/Gebouw.16775277/0","properties":{"source":"Digitaal Vlaanderen Gebouwenregister","source_id":"gebouw/Gebouw.16775277/0","kind":"building","height_m":5.72,"status":null},"geometry":{"type":"Polygon","coordinates":[[[4.06218091,50.91497078],[4.06217915,50.91500057],[4.06207227,50.91499806],[4.06207402,50.91496827],[4.06218091,50.91497078]]]}},{"type":"Feature","id":"gebouw/Gebouw.16775348/0","properties":{"source":"Digitaal Vlaanderen Gebouwenregister","source_id":"gebouw/Gebouw.16775348/0","kind":"building","height_m":6.44,"status":null},"geometry":{"type":"Polygon","coordinates":[[[4.06126374,50.91475184],[4.06132443,50.91477038],[4.06127924,50.91482951],[4.06121929,50.9148112],[4.06126374,50.91475184]]]}},{"type":"Feature","id":"gebouw/Gebouw.16775445/0","properties":{"source":"Digitaal Vlaanderen Gebouwenregister","source_id":"gebouw/Gebouw.16775445/0","kind":"building","height_m":5.72,"status":null},"geometry":{"type":"Polygon","coordinates":[[[4.06238766,50.91506488],[4.06234258,50.91506322],[4.06234146,50.9150748],[4.06218113,50.91506878],[4.0621867,50.91500941],[4.06233369,50.91501481],[4.06239206,50.91501696],[4.06238766,50.91506488]]]}},{"type":"Feature","id":"gebouw/Gebouw.16781597/0","properties":{"source":"Digitaal Vlaanderen Gebouwenregister","source_id":"gebouw/Gebouw.16781597/0","kind":"building","height_m":5.0,"status":null},"geometry":{"type":"Polygon","coordinates":[[[4.0693656,50.91178039],[4.06934836,50.91181967],[4.0692889,50.91180923],[4.06930614,50.91176995],[4.0693656,50.91178039]]]}},{"type":"Feature","id":"gebouw/Gebouw.16781805/0","properties":{"source":"Digitaal Vlaanderen Gebouwenregister","source_id":"gebouw/Gebouw.16781805/0","kind":"building","height_m":8.6,"status":null},"geometry":{"type":"Polygon","coordinates":[[[4.06117455,50.91451349],[4.06118678,50.91448971],[4.06128234,50.91450935],[4.06127011,50.91453313],[4.06117455,50.91451349]]]}},{"type":"Feature","id":"gebouw/Gebouw.16783509/0","properties":{"source":"Digitaal Vlaanderen Gebouwenregister","source_id":"gebouw/Gebouw.16783509/0","kind":"building","height_m":5.72,"status":null},"geometry":{"type":"Polygon","coordinates":[[[4.06036968,50.9145422],[4.06040232,50.91449889],[4.06032547,50.91447574],[4.06032089,50.9144819],[4.06029524,50.91451644],[4.06028353,50.9145322],[4.06035819,50.91455469],[4.06034525,50.91457185],[4.06032457,50.91456562],[4.06023236,50.91468793],[4.06036043,50.91472652],[4.06047091,50.91457997],[4.0604241,50.91456587],[4.06042858,50.91455994],[4.06036968,50.9145422]]]}},{"type":"Feature","id":"gebouw/Gebouw.16783580/0","properties":{"source":"Digitaal Vlaanderen Gebouwenregister","source_id":"gebouw/Gebouw.16783580/0","kind":"building","height_m":6.44,"status":null},"geometry":{"type":"Polygon","coordinates":[[[4.06926266,50.91481193],[4.06923849,50.91479596],[4.06917578,50.9148339],[4.06913907,50.91481423],[4.0693016,50.91471636],[4.0693585,50.91475394],[4.06929643,50.9147915],[4.06926266,50.91481193]]]}},{"type":"Feature","id":"gebouw/Gebouw.16785711/0","properties":{"source":"Digitaal Vlaanderen Gebouwenregister","source_id":"gebouw/Gebouw.16785711/0","kind":"building","height_m":8.6,"status":null},"geometry":{"type":"Polygon","coordinates":[[[4.0693016,50.91471636],[4.06924033,50.91467566],[4.06923739,50.91467743],[4.06916622,50.91472025],[4.0691441,50.91473356],[4.06915013,50.91473756],[4.06910973,50.91475973],[4.06913552,50.91477696],[4.06911154,50.91479146],[4.06913907,50.91481423],[4.0693016,50.91471636]]]}},{"type":"Feature","id":"gebouw/Gebouw.16794896/0","properties":{"source":"Digitaal Vlaanderen Gebouwenregister","source_id":"gebouw/Gebouw.16794896/0","kind":"building","height_m":9.32,"status":null},"geometry":{"type":"Polygon","coordinates":[[[4.0691299,50.91459749],[4.06913348,50.91459985],[4.06904021,50.91465633],[4.06895998,50.91460273],[4.06904975,50.91454903],[4.06912567,50.91459975],[4.0691299,50.91459749]]]}},{"type":"Feature","id":"gebouw/Gebouw.16797366/0","properties":{"source":"Digitaal Vlaanderen Gebouwenregister","source_id":"gebouw/Gebouw.16797366/0","kind":"building","height_m":8.6,"status":null},"geometry":{"type":"Polygon","coordinates":[[[4.06857158,50.91461066],[4.06861937,50.91457968],[4.06869023,50.91462337],[4.06864244,50.91465435],[4.06857158,50.91461066]]]}},{"type":"Feature","id":"gebouw/Gebouw.16797547/0","properties":{"source":"Digitaal Vlaanderen Gebouwenregister","source_id":"gebouw/Gebouw.16797547/0","kind":"building","height_m":7.88,"status":null},"geometry":{"type":"Polygon","coordinates":[[[4.05977399,50.91489914],[4.05972737,50.91495933],[4.05966144,50.91493942],[4.05968913,50.91490277],[4.05957155,50.91486727],[4.0596636,50.91474545],[4.05978566,50.91478235],[4.0597113,50.91488066],[4.05977399,50.91489914]]]}},{"type":"Feature","id":"gebouw/Gebouw.16797612/0","properties":{"source":"Digitaal Vlaanderen Gebouwenregister","source_id":"gebouw/Gebouw.16797612/0","kind":"building","height_m":9.32,"status":null},"geometry":{"type":"Polygon","coordinates":[[[4.06771452,50.91483755],[4.06767454,50.91488586],[4.06761378,50.91486576],[4.06765376,50.91481745],[4.06771452,50.91483755]]]}},{"type":"Feature","id":"gebouw/Gebouw.16800918/0","properties":{"source":"Digitaal Vlaanderen Gebouwenregister","source_id":"gebouw/Gebouw.16800918/0","kind":"building","height_m":5.72,"status":null},"geometry":{"type":"Polygon","coordinates":[[[4.06015524,50.91452459],[4.06009002,50.91450499],[4.06008156,50.91450245],[4.0599955,50.91461653],[4.06012619,50.91465593],[4.06021234,50.91454174],[4.06015524,50.91452459]]]}},{"type":"Feature","id":"gebouw/Gebouw.16801329/0","properties":{"source":"Digitaal Vlaanderen Gebouwenregister","source_id":"gebouw/Gebouw.16801329/0","kind":"building","height_m":9.32,"status":null},"geometry":{"type":"Polygon","coordinates":[[[4.05972517,50.91501787],[4.05976507,50.91500392],[4.05978884,50.91503108],[4.05974893,50.91504503],[4.05972517,50.91501787]]]}},{"type":"Feature","id":"gebouw/Gebouw.16811698/0","properties":{"source":"Digitaal Vlaanderen Gebouwenregister","source_id":"gebouw/Gebouw.16811698/0","kind":"building","height_m":5.72,"status":null},"geometry":{"type":"Polygon","coordinates":[[[4.06098561,50.91485514],[4.06104737,50.91477472],[4.06114829,50.91480569],[4.06104913,50.91493483],[4.06093009,50.9148983],[4.0609675,50.91484958],[4.06098561,50.91485514]]]}},{"type":"Feature","id":"gebouw/Gebouw.16811783/0","properties":{"source":"Digitaal Vlaanderen Gebouwenregister","source_id":"gebouw/Gebouw.16811783/0","kind":"building","height_m":6.44,"status":null},"geometry":{"type":"Polygon","coordinates":[[[4.05922669,50.91364199],[4.05922119,50.91367389],[4.05917065,50.91367047],[4.05917608,50.91363849],[4.05922669,50.91364199]]]}},{"type":"Feature","id":"gebouw/Gebouw.16812430/0","properties":{"source":"Digitaal Vlaanderen Gebouwenregister","source_id":"gebouw/Gebouw.16812430/0","kind":"building","height_m":8.6,"status":null},"geometry":{"type":"Polygon","coordinates":[[[4.06887905,50.91330407],[4.06893177,50.91332954],[4.06886919,50.91338131],[4.06872477,50.91331154],[4.06876445,50.91327872],[4.06881345,50.91323817],[4.06890515,50.91328247],[4.06887905,50.91330407]]]}},{"type":"Feature","id":"gebouw/Gebouw.16813998/0","properties":{"source":"Digitaal Vlaanderen Gebouwenregister","source_id":"gebouw/Gebouw.16813998/0","kind":"building","height_m":8.6,"status":null},"geometry":{"type":"Polygon","coordinates":[[[4.06906236,50.91354791],[4.06915751,50.9136101],[4.06911783,50.91363437],[4.06902267,50.91357217],[4.06906236,50.91354791]]]}},{"type":"Feature","id":"gebouw/Gebouw.16814304/0","properties":{"source":"Digitaal Vlaanderen Gebouwenregister","source_id":"gebouw/Gebouw.16814304/0","kind":"building","height_m":7.16,"status":null},"geometry":{"type":"Polygon","coordinates":[[[4.06949339,50.91431268],[4.06940595,50.9143652],[4.06938946,50.91435422],[4.0694769,50.91430171],[4.06949339,50.91431268]]]}},{"type":"Feature","id":"gebouw/Gebouw.16821367/0","properties":{"source":"Digitaal Vlaanderen Gebouwenregister","source_id":"gebouw/Gebouw.16821367/0","kind":"building","height_m":7.16,"status":null},"geometry":{"type":"Polygon","coordinates":[[[4.06116721,50.91497049],[4.0612607,50.914845],[4.06128518,50.91485228],[4.06130117,50.91485174],[4.06135413,50.91486653],[4.06135985,50.9148757],[4.0613856,50.91488336],[4.06129282,50.91500789],[4.06116721,50.91497049]]]}},{"type":"Feature","id":"gebouw/Gebouw.16828562/0","properties":{"source":"Digitaal Vlaanderen Gebouwenregister","source_id":"gebouw/Gebouw.16828562/0","kind":"building","height_m":6.44,"status":null},"geometry":{"type":"Polygon","coordinates":[[[4.06919129,50.91302195],[4.06917089,50.91303986],[4.06916805,50.91304236],[4.06917117,50.91304379],[4.0690933,50.91311218],[4.06899571,50.91306777],[4.06907491,50.91299818],[4.06910006,50.9130091],[4.0691216,50.91299023],[4.06919129,50.91302195]]]}},{"type":"Feature","id":"gebouw/Gebouw.16847369/0","properties":{"source":"Digitaal Vlaanderen Gebouwenregister","source_id":"gebouw/Gebouw.16847369/0","kind":"building","height_m":5.0,"status":null},"geometry":{"type":"Polygon","coordinates":[[[4.06098162,50.91465556],[4.06102406,50.91467775],[4.06099221,50.9147021],[4.06094976,50.91467991],[4.06098162,50.91465556]]]}},{"type":"Feature","id":"gebouw/Gebouw.16847630/0","properties":{"source":"Digitaal Vlaanderen Gebouwenregister","source_id":"gebouw/Gebouw.16847630/0","kind":"building","height_m":6.44,"status":null},"geometry":{"type":"Polygon","coordinates":[[[4.06951559,50.91485682],[4.06957546,50.91489635],[4.06954562,50.91491536],[4.06958663,50.91494153],[4.06952487,50.9149802],[4.06945827,50.91493771],[4.06940475,50.91497123],[4.06936854,50.91494945],[4.06951559,50.91485682]]]}},{"type":"Feature","id":"gebouw/Gebouw.17042155/0","properties":{"source":"Digitaal Vlaanderen Gebouwenregister","source_id":"gebouw/Gebouw.17042155/0","kind":"building","height_m":7.88,"status":null},"geometry":{"type":"Polygon","coordinates":[[[4.06844781,50.91273229],[4.06856909,50.91279111],[4.06850816,50.91284132],[4.06838687,50.9127825],[4.06844781,50.91273229]]]}},{"type":"Feature","id":"gebouw/Gebouw.17058795/0","properties":{"source":"Digitaal Vlaanderen Gebouwenregister","source_id":"gebouw/Gebouw.17058795/0","kind":"building","height_m":8.6,"status":null},"geometry":{"type":"Polygon","coordinates":[[[4.06187434,50.91487031],[4.06185279,50.91489963],[4.0617872,50.91488036],[4.06180874,50.91485104],[4.06187434,50.91487031]]]}},{"type":"Feature","id":"gebouw/Gebouw.17058957/0","properties":{"source":"Digitaal Vlaanderen Gebouwenregister","source_id":"gebouw/Gebouw.17058957/0","kind":"building","height_m":9.32,"status":null},"geometry":{"type":"Polygon","coordinates":[[[4.05977399,50.91489914],[4.05983137,50.91491605],[4.05990363,50.91481808],[4.06003078,50.91485556],[4.05993924,50.91497968],[4.05981576,50.91494329],[4.05978947,50.91497808],[4.05973846,50.91496268],[4.05972737,50.91495933],[4.05977399,50.91489914]]]}},{"type":"Feature","id":"gebouw/Gebouw.17071577/0","properties":{"source":"Digitaal Vlaanderen Gebouwenregister","source_id":"gebouw/Gebouw.17071577/0","kind":"building","height_m":8.6,"status":null},"geometry":{"type":"Polygon","coordinates":[[[4.069109,50.91469352],[4.06903165,50.91474339],[4.06896887,50.914702],[4.06904807,50.91465363],[4.069109,50.91469352]]]}},{"type":"Feature","id":"gebouw/Gebouw.17071578/0","properties":{"source":"Digitaal Vlaanderen Gebouwenregister","source_id":"gebouw/Gebouw.17071578/0","kind":"building","height_m":9.32,"status":null},"geometry":{"type":"Polygon","coordinates":[[[4.06951559,50.91485682],[4.06936854,50.91494945],[4.06936515,50.91494741],[4.06928894,50.91490156],[4.06925662,50.91488211],[4.06931894,50.91484071],[4.06935561,50.91486278],[4.06931601,50.91488908],[4.06934369,50.91490617],[4.06937813,50.91488388],[4.06936466,50.91487556],[4.06945541,50.91481681],[4.06951559,50.91485682]]]}},{"type":"Feature","id":"gebouw/Gebouw.17121197/0","properties":{"source":"Digitaal Vlaanderen Gebouwenregister","source_id":"gebouw/Gebouw.17121197/0","kind":"building","height_m":6.44,"status":null},"geometry":{"type":"Polygon","coordinates":[[[4.0615162,50.91464777],[4.06156606,50.91462027],[4.06161955,50.91465902],[4.06156969,50.91468653],[4.0615162,50.91464777]]]}},{"type":"Feature","id":"gebouw/Gebouw.18729561/0","properties":{"source":"Digitaal Vlaanderen Gebouwenregister","source_id":"gebouw/Gebouw.18729561/0","kind":"building","height_m":7.88,"status":null},"geometry":{"type":"Polygon","coordinates":[[[4.05997793,50.91447582],[4.06001525,50.91448699],[4.05999205,50.91451881],[4.0599543,50.91450764],[4.05997793,50.91447582]]]}},{"type":"Feature","id":"gebouw/Gebouw.19879850/0","properties":{"source":"Digitaal Vlaanderen Gebouwenregister","source_id":"gebouw/Gebouw.19879850/0","kind":"building","height_m":7.88,"status":null},"geometry":{"type":"Polygon","coordinates":[[[4.06943355,50.91315394],[4.06934047,50.9132352],[4.06922307,50.91318373],[4.0693139,50.91310198],[4.06943355,50.91315394]]]}},{"type":"Feature","id":"gebouw/Gebouw.19879851/0","properties":{"source":"Digitaal Vlaanderen Gebouwenregister","source_id":"gebouw/Gebouw.19879851/0","kind":"building","height_m":8.6,"status":null},"geometry":{"type":"Polygon","coordinates":[[[4.06932461,50.91324904],[4.06928929,50.91323437],[4.06924778,50.91327172],[4.06916518,50.91323584],[4.06922307,50.91318373],[4.06934047,50.9132352],[4.06932461,50.91324904]]]}},{"type":"Feature","id":"gebouw/Gebouw.19880537/0","properties":{"source":"Digitaal Vlaanderen Gebouwenregister","source_id":"gebouw/Gebouw.19880537/0","kind":"building","height_m":8.6,"status":null},"geometry":{"type":"Polygon","coordinates":[[[4.06909606,50.91312804],[4.06907413,50.9131182],[4.06903721,50.91310163],[4.06904844,50.91309176],[4.06899571,50.91306777],[4.06907491,50.91299818],[4.06910006,50.9130091],[4.06917089,50.91303986],[4.06918086,50.91303111],[4.06919939,50.91303954],[4.06918994,50.91304814],[4.0691471,50.9130871],[4.06915702,50.91309161],[4.06912259,50.91312185],[4.06910975,50.91311601],[4.06909606,50.91312804]]]}},{"type":"Feature","id":"gebouw/Gebouw.19880538/0","properties":{"source":"Digitaal Vlaanderen Gebouwenregister","source_id":"gebouw/Gebouw.19880538/0","kind":"building","height_m":9.32,"status":null},"geometry":{"type":"Polygon","coordinates":[[[4.06918086,50.91303111],[4.06917089,50.91303986],[4.06910006,50.9130091],[4.0691216,50.91299023],[4.06919129,50.91302195],[4.06918086,50.91303111]]]}},{"type":"Feature","id":"gebouw/Gebouw.20145984/0","properties":{"source":"Digitaal Vlaanderen Gebouwenregister","source_id":"gebouw/Gebouw.20145984/0","kind":"building","height_m":8.6,"status":null},"geometry":{"type":"Polygon","coordinates":[[[4.06941958,50.91357],[4.0694003,50.91358249],[4.06939037,50.91358893],[4.06928047,50.91352115],[4.06926322,50.9135105],[4.06927205,50.91350478],[4.06929242,50.91349158],[4.06941958,50.91357]]]}},{"type":"Feature","id":"gebouw/Gebouw.20146009/0","properties":{"source":"Digitaal Vlaanderen Gebouwenregister","source_id":"gebouw/Gebouw.20146009/0","kind":"building","height_m":6.44,"status":null},"geometry":{"type":"Polygon","coordinates":[[[4.06144407,50.91237008],[4.06143028,50.91239046],[4.06132302,50.91236145],[4.06133681,50.91234107],[4.06144407,50.91237008]]]}},{"type":"Feature","id":"gebouw/Gebouw.20146010/0","properties":{"source":"Digitaal Vlaanderen Gebouwenregister","source_id":"gebouw/Gebouw.20146010/0","kind":"building","height_m":7.16,"status":null},"geometry":{"type":"Polygon","coordinates":[[[4.06220965,50.91329504],[4.06219367,50.9132982],[4.0621538,50.91330609],[4.06213141,50.91326086],[4.06217575,50.91325209],[4.06218212,50.91325083],[4.06219176,50.9132703],[4.0621969,50.91326928],[4.06220965,50.91329504]]]}},{"type":"Feature","id":"gebouw/Gebouw.20146920/0","properties":{"source":"Digitaal Vlaanderen Gebouwenregister","source_id":"gebouw/Gebouw.20146920/0","kind":"building","height_m":7.16,"status":null},"geometry":{"type":"Polygon","coordinates":[[[4.06159715,50.9145955],[4.06164533,50.91461039],[4.0615931,50.91467794],[4.06154491,50.91466305],[4.06159715,50.9145955]]]}},{"type":"Feature","id":"gebouw/Gebouw.30910270/0","properties":{"source":"Digitaal Vlaanderen Gebouwenregister","source_id":"gebouw/Gebouw.30910270/0","kind":"building","height_m":9.32,"status":null},"geometry":{"type":"Polygon","coordinates":[[[4.069109,50.91469352],[4.06903165,50.91474339],[4.06896887,50.914702],[4.06896688,50.91470069],[4.06904021,50.91465633],[4.06895998,50.91460273],[4.06904975,50.91454903],[4.06912567,50.91459975],[4.0691299,50.91459749],[4.06913348,50.91459985],[4.06904644,50.91465256],[4.069109,50.91469352]]]}},{"type":"Feature","id":"gebouw/Gebouw.32035850/0","properties":{"source":"Digitaal Vlaanderen Gebouwenregister","source_id":"gebouw/Gebouw.32035850/0","kind":"building","height_m":5.0,"status":null},"geometry":{"type":"Polygon","coordinates":[[[4.06032089,50.9144819],[4.06028197,50.91447034],[4.06025575,50.91450387],[4.06029524,50.91451644],[4.06032089,50.9144819]]]}},{"type":"Feature","id":"gebouw/Gebouw.32035976/0","properties":{"source":"Digitaal Vlaanderen Gebouwenregister","source_id":"gebouw/Gebouw.32035976/0","kind":"building","height_m":5.0,"status":null},"geometry":{"type":"Polygon","coordinates":[[[4.05969558,50.91504046],[4.05978588,50.91506691],[4.05981178,50.91503157],[4.05972148,50.91500512],[4.05969558,50.91504046]]]}},{"type":"Feature","id":"way/161039668","properties":{"source":"OpenStreetMap","source_id":"way/161039668","kind":"vegetation","name":null,"waterway":null,"landuse":"forest"},"geometry":{"type":"Polygon","coordinates":[[[4.0674632,50.9145837],[4.0672513,50.9145131],[4.0674832,50.913439],[4.0674872,50.9132499],[4.0674752,50.913086],[4.0674233,50.9129625],[4.0673553,50.9128289],[4.0672313,50.912723],[4.0669154,50.9125414],[4.0667514,50.9124557],[4.0666115,50.9123599],[4.0665555,50.9122792],[4.0665235,50.9121834],[4.0665115,50.9121027],[4.0666195,50.9118657],[4.0667166,50.9116239],[4.0667288,50.9114976],[4.0667084,50.9113662],[4.0666185,50.9111446],[4.0663638,50.9108523],[4.0669554,50.9106546],[4.0673182,50.9104871],[4.0678406,50.9102297],[4.0686376,50.909838],[4.0684332,50.90964],[4.0689727,50.9094153],[4.0702929,50.9089514],[4.0714414,50.9085648],[4.0719523,50.9086885],[4.0717725,50.9089695],[4.0715703,50.9089144],[4.0710531,50.9087736],[4.0704196,50.9090184],[4.0703256,50.9092916],[4.0703624,50.909405],[4.0714537,50.9096112],[4.0712442,50.9100274],[4.0712028,50.9102316],[4.071199,50.9102505],[4.0705612,50.9101333],[4.0704768,50.9103663],[4.0710981,50.9105132],[4.0710082,50.9107786],[4.0709591,50.911008],[4.0709632,50.9112348],[4.0708447,50.9114667],[4.0707098,50.9116239],[4.0706035,50.9117708],[4.0705013,50.9119486],[4.0704523,50.9121702],[4.0704319,50.9122089],[4.0702297,50.9123664],[4.0693658,50.9119184],[4.0688265,50.9124679],[4.0687052,50.9124656],[4.0686508,50.9125278],[4.0697125,50.9129897],[4.0695661,50.9131273],[4.0685352,50.9126742],[4.0684452,50.9129359],[4.0685244,50.9129694],[4.0686694,50.9130308],[4.0686701,50.9131212],[4.0686703,50.9131521],[4.0686216,50.91317],[4.0684777,50.9132228],[4.068485,50.9132295],[4.0685893,50.9133254],[4.0685919,50.9133462],[4.0685948,50.9133691],[4.0684485,50.9134602],[4.0684279,50.913473],[4.0683481,50.9134698],[4.0682066,50.9134641],[4.0681619,50.913492],[4.0681668,50.9134976],[4.0681974,50.913533],[4.0681717,50.9135679],[4.0681569,50.913588],[4.0680882,50.9136118],[4.0680275,50.9135946],[4.0680196,50.9135789],[4.0679844,50.9135084],[4.0680059,50.9134381],[4.0680289,50.9133627],[4.0677719,50.9135988],[4.0675202,50.9136958],[4.0675504,50.913786],[4.0674628,50.9139564],[4.0679141,50.9141588],[4.0683068,50.9143254],[4.0686214,50.9140951],[4.0697945,50.9146438],[4.0697093,50.9146847],[4.069645,50.9147118],[4.0697616,50.9147886],[4.0695087,50.9149235],[4.0694042,50.9148828],[4.069237,50.9148178],[4.0692948,50.9147722],[4.0685521,50.9144934],[4.0681388,50.9148342],[4.0674632,50.9145837]]]}},{"type":"Feature","id":"way/161049674","properties":{"source":"OpenStreetMap","source_id":"way/161049674","kind":"vegetation","name":null,"waterway":null,"landuse":"forest"},"geometry":{"type":"Polygon","coordinates":[[[4.0640667,50.9114501],[4.0635502,50.9115542],[4.0629122,50.9116349],[4.0625256,50.9116924],[4.0613121,50.9119827],[4.0598807,50.9122788],[4.0587092,50.9124771],[4.0576971,50.9126352],[4.0577154,50.9124598],[4.0585587,50.9123276],[4.0593109,50.9121954],[4.0601725,50.9120229],[4.0608244,50.911885],[4.0615948,50.9116838],[4.0621783,50.9115832],[4.0627208,50.9115142],[4.063441,50.9114107],[4.06402,50.9113302],[4.0640667,50.9114501]]]}},{"type":"Feature","id":"way/161049697","properties":{"source":"OpenStreetMap","source_id":"way/161049697","kind":"vegetation","name":null,"waterway":null,"landuse":"forest"},"geometry":{"type":"Polygon","coordinates":[[[4.0661366,50.9112243],[4.0660677,50.9111355],[4.0659309,50.9109894],[4.065726,50.911101],[4.0655423,50.9111803],[4.0646107,50.9114302],[4.0644496,50.911477],[4.0640918,50.9115583],[4.0636856,50.9116254],[4.063431,50.911666],[4.0631731,50.9116884],[4.0629281,50.9117128],[4.0628056,50.9117412],[4.0626767,50.9117676],[4.0626509,50.9118266],[4.0626928,50.9119018],[4.0627218,50.9119445],[4.0627921,50.9120133],[4.0628904,50.9119933],[4.0630031,50.9119605],[4.0632054,50.9118839],[4.0634135,50.9118238],[4.0635752,50.9117987],[4.0636896,50.9117755],[4.0653899,50.9113864],[4.0661366,50.9112243]]]}},{"type":"Feature","id":"way/161049731","properties":{"source":"OpenStreetMap","source_id":"way/161049731","kind":"vegetation","name":null,"waterway":null,"landuse":"forest"},"geometry":{"type":"Polygon","coordinates":[[[4.0613669,50.9124601],[4.0614492,50.9123249],[4.0615264,50.9121101],[4.0615356,50.9120705],[4.0616679,50.912088],[4.0614425,50.912478],[4.0613669,50.9124601]]]}},{"type":"Feature","id":"way/448633230","properties":{"source":"OpenStreetMap","source_id":"way/448633230","kind":"waterway","name":"Wildebeek","waterway":"stream","landuse":null},"geometry":{"type":"LineString","coordinates":[[4.0615248,50.9120402],[4.0616668,50.9120365],[4.0617371,50.9120069],[4.0622506,50.9119737],[4.0625357,50.9119848],[4.0626724,50.9120242],[4.0626958,50.9121141],[4.0627622,50.9122396],[4.0628286,50.912247],[4.0629848,50.9124477],[4.0630922,50.9125511],[4.0632933,50.9127961],[4.0633109,50.9128934],[4.0634652,50.9130017],[4.0634876,50.9130488],[4.0635615,50.9131085],[4.0636292,50.9131679],[4.0636917,50.9132837],[4.0637268,50.9133489],[4.063803,50.9134179],[4.0638635,50.9135287],[4.0638245,50.9137589],[4.0637385,50.9141455],[4.0637464,50.9142169],[4.0637132,50.9142723],[4.0636504,50.9143469],[4.063688,50.9144635],[4.0636772,50.9145227],[4.0636049,50.9147085],[4.0635888,50.9147947],[4.063629,50.9150296],[4.0636612,50.9151631]]}},{"type":"Feature","id":"way/583927533","properties":{"source":"OpenStreetMap","source_id":"way/583927533","kind":"waterway","name":"Wildebeek","waterway":"stream","landuse":null},"geometry":{"type":"LineString","coordinates":[[4.059334,50.9108728],[4.0593309,50.91089],[4.0593081,50.9109185],[4.0592906,50.9109495],[4.0592788,50.9109642],[4.0592781,50.9109777],[4.0592987,50.9110066],[4.0593461,50.9110091],[4.059361,50.9110041],[4.0594176,50.910985],[4.0594229,50.9109746],[4.0594453,50.9109673],[4.0594883,50.9109525],[4.0595175,50.9109246],[4.0595369,50.9108809],[4.0595722,50.910876],[4.0596113,50.9108936],[4.0596355,50.9109208],[4.0596656,50.9109464],[4.0596868,50.9109665],[4.0597169,50.9109788],[4.05977,50.9109967],[4.0598107,50.9110011],[4.0598461,50.9110089],[4.0598992,50.911],[4.059931,50.9109933],[4.0599788,50.9110045],[4.0600054,50.9110234],[4.0600478,50.9110449],[4.0600885,50.9110591],[4.0601522,50.9110681],[4.0601912,50.9110703],[4.0602089,50.9110681],[4.0602478,50.9110513],[4.0602796,50.9110446],[4.0603239,50.9110312],[4.0603446,50.9110256],[4.0603814,50.9110235],[4.0604106,50.9110257],[4.0604531,50.9110301],[4.0604778,50.9110368],[4.0609662,50.9112232]]}},{"type":"Feature","id":"way/672251864","properties":{"source":"OpenStreetMap","source_id":"way/672251864","kind":"waterway","name":"Wildebeek","waterway":"stream","landuse":null},"geometry":{"type":"LineString","coordinates":[[4.0609662,50.9112232],[4.0614277,50.9119834],[4.0615248,50.9120402]]}},{"type":"Feature","id":"way/797557815","properties":{"source":"OpenStreetMap","source_id":"way/797557815","kind":"waterway","name":"Wildebeek","waterway":"stream","landuse":null},"geometry":{"type":"LineString","coordinates":[[4.058136,50.9103442],[4.058243,50.9103596],[4.0583661,50.9103992],[4.0584174,50.9104556],[4.0584988,50.9104658],[4.0585475,50.9105479],[4.0585923,50.9105953],[4.0586573,50.9106286],[4.0587406,50.9106453],[4.0588585,50.9106312],[4.0589927,50.9106145],[4.0590598,50.9106209],[4.0592,50.910685],[4.0592538,50.9107133],[4.0593061,50.9107496],[4.0593329,50.9108021],[4.0593355,50.9108125],[4.0593435,50.9108454],[4.059334,50.9108728]]}},{"type":"Feature","id":"way/1354556795","properties":{"source":"OpenStreetMap","source_id":"way/1354556795","kind":"water","name":null,"waterway":null,"landuse":null},"geometry":{"type":"Polygon","coordinates":[[[4.0670394,50.9105009],[4.0670796,50.9105362],[4.0678779,50.9101335],[4.0682571,50.909932],[4.0682663,50.9099184],[4.068235,50.9098939],[4.0676677,50.9101839],[4.0670394,50.9105009]]]}},{"type":"Feature","id":"way/1354556796","properties":{"source":"OpenStreetMap","source_id":"way/1354556796","kind":"water","name":null,"waterway":null,"landuse":null},"geometry":{"type":"Polygon","coordinates":[[[4.0663177,50.9107584],[4.0663265,50.910779],[4.0663584,50.910783],[4.066815,50.9106507],[4.0669379,50.9106003],[4.0669714,50.9105878],[4.0669427,50.9105646],[4.0667076,50.9106486],[4.0664639,50.9107148],[4.0664022,50.9107411],[4.0663177,50.9107584]]]}},{"type":"Feature","id":"way/1354556797","properties":{"source":"OpenStreetMap","source_id":"way/1354556797","kind":"water","name":null,"waterway":null,"landuse":null},"geometry":{"type":"Polygon","coordinates":[[[4.0685712,50.9097299],[4.068602,50.9097631],[4.0689709,50.9096161],[4.0692148,50.9095147],[4.0693322,50.9094452],[4.0693656,50.9094099],[4.0693394,50.909349],[4.0693331,50.9093393],[4.0692717,50.9093587],[4.0692924,50.9093934],[4.0692997,50.9094264],[4.0692825,50.9094481],[4.0692184,50.9094777],[4.0691543,50.9095067],[4.068896,50.9096121],[4.0687244,50.9096719],[4.0685712,50.9097299]]]}},{"type":"Feature","id":"way/1354557251","properties":{"source":"OpenStreetMap","source_id":"way/1354557251","kind":"water","name":null,"waterway":null,"landuse":null},"geometry":{"type":"Polygon","coordinates":[[[4.068097,50.9133251],[4.0680585,50.9133795],[4.0680059,50.9134381],[4.0679844,50.9135084],[4.0680196,50.9135789],[4.0681717,50.9135679],[4.0681974,50.913533],[4.0681668,50.9134976],[4.0682066,50.9134641],[4.0683481,50.9134698],[4.0684485,50.9134602],[4.0685254,50.9134018],[4.0685919,50.9133462],[4.068485,50.9132295],[4.0686216,50.91317],[4.0686701,50.9131212],[4.0686554,50.9130491],[4.0686758,50.9130336],[4.06875,50.9130058],[4.0687739,50.9129258],[4.0687729,50.9128688],[4.0687105,50.9128373],[4.0686377,50.9128334],[4.0686263,50.9128616],[4.0686606,50.9128944],[4.0686512,50.9129265],[4.0685868,50.9129501],[4.0685244,50.9129694],[4.0684828,50.9129593],[4.0684339,50.9129042],[4.0684277,50.9128839],[4.0684963,50.912838],[4.0685202,50.9128046],[4.0685753,50.9127915],[4.0686148,50.9127626],[4.0686055,50.91272],[4.0685722,50.9127056],[4.0684713,50.9126879],[4.0684297,50.912739],[4.0683663,50.912859],[4.0683071,50.9129363],[4.0682384,50.9130065],[4.0681833,50.9130812],[4.0681448,50.9131599],[4.0681573,50.9132327],[4.0681209,50.9132923],[4.068097,50.9133251]]]}}]}