{"type":"FeatureCollection","features":[{"type":"Feature","id":"gebouw/Gebouw.20146008/0","properties":{"source":"Digitaal Vlaanderen Gebouwenregister","source_id":"gebouw/Gebouw.20146008/0","kind":"building","height_m":5.72,"status":null},"geometry":{"type":"Polygon","coordinates":[[[4.06688636,50.90727116],[4.06698359,50.9072916],[4.06696788,50.90732149],[4.06691696,50.90731079],[4.06691479,50.90731492],[4.06686848,50.90730519],[4.06688636,50.90727116]]]}},{"type":"Feature","id":"way/84690262","properties":{"source":"OpenStreetMap","source_id":"way/84690262","kind":"waterway","name":"Dender","waterway":"river","landuse":null},"geometry":{"type":"LineString","coordinates":[[4.0710278,50.903028],[4.0704845,50.9034798],[4.0691143,50.9044032],[4.0684292,50.9048064],[4.0677926,50.9052191],[4.0670416,50.9057892],[4.0667331,50.9062774],[4.0662812,50.9070785],[4.0656411,50.9081189],[4.0655535,50.9082559],[4.0652285,50.9087644],[4.0649519,50.9094165],[4.0651699,50.9100295],[4.065519,50.9103848],[4.0657417,50.9106114]]}},{"type":"Feature","id":"way/1123222057","properties":{"source":"OpenStreetMap","source_id":"way/1123222057","kind":"water","name":null,"waterway":null,"landuse":null},"geometry":{"type":"Polygon","coordinates":[[[4.0666557,50.9077043],[4.0666623,50.9077176],[4.066712,50.9077113],[4.0667474,50.907705],[4.0667694,50.907712],[4.0667485,50.9077517],[4.0667451,50.9077733],[4.0667993,50.9077907],[4.0668048,50.9077747],[4.0668026,50.9077259],[4.0668346,50.9077454],[4.0668578,50.9077399],[4.0669163,50.907758],[4.0669252,50.9077566],[4.0670146,50.9077851],[4.0670378,50.9077782],[4.0670522,50.9077628],[4.0671472,50.9077768],[4.067166,50.9077886],[4.0671715,50.9077998],[4.0672201,50.9077907],[4.0672543,50.9077475],[4.0672223,50.9077301],[4.0671969,50.9077106],[4.0671936,50.9076967],[4.0671593,50.9076932],[4.0671439,50.9076716],[4.0670997,50.9076605],[4.0670213,50.9076612],[4.0669793,50.9076765],[4.0669782,50.9076584],[4.066976,50.9076465],[4.0669528,50.9076493],[4.0668954,50.9076096],[4.0668225,50.9076201],[4.0668203,50.9076305],[4.0667705,50.9076653],[4.066733,50.9076758],[4.066701,50.9076758],[4.0666601,50.9076974],[4.0666557,50.9077043]]]}}]}