{"type":"FeatureCollection","features":[{"type":"Feature","id":"gebouw/Gebouw.16462026/0","properties":{"source":"Digitaal Vlaanderen Gebouwenregister","source_id":"gebouw/Gebouw.16462026/0","kind":"building","height_m":5.0,"status":null},"geometry":{"type":"Polygon","coordinates":[[[4.09021105,50.94078356],[4.0901882,50.94076857],[4.09009885,50.94070999],[4.09009748,50.94071087],[4.09002514,50.94075718],[4.09009591,50.94080326],[4.09010588,50.94080976],[4.09010867,50.94080903],[4.09011107,50.9408076],[4.09020724,50.94078535],[4.0902081,50.9407858],[4.09021027,50.94078454],[4.09021105,50.94078356]]]}},{"type":"Feature","id":"gebouw/Gebouw.16462238/0","properties":{"source":"Digitaal Vlaanderen Gebouwenregister","source_id":"gebouw/Gebouw.16462238/0","kind":"building","height_m":6.44,"status":null},"geometry":{"type":"Polygon","coordinates":[[[4.09097668,50.94088947],[4.09097195,50.94089086],[4.09089647,50.94091312],[4.09085797,50.94092448],[4.09080567,50.94086261],[4.09077526,50.94082665],[4.09086502,50.94079649],[4.09089631,50.94083588],[4.09092136,50.94086748],[4.09094536,50.94085941],[4.09095183,50.94085724],[4.09097668,50.94088947]]]}},{"type":"Feature","id":"gebouw/Gebouw.16462431/0","properties":{"source":"Digitaal Vlaanderen Gebouwenregister","source_id":"gebouw/Gebouw.16462431/0","kind":"building","height_m":9.32,"status":null},"geometry":{"type":"Polygon","coordinates":[[[4.09084282,50.93917258],[4.09081141,50.9391801],[4.09079006,50.93914433],[4.09082147,50.93913681],[4.09084282,50.93917258]]]}},{"type":"Feature","id":"gebouw/Gebouw.16471286/0","properties":{"source":"Digitaal Vlaanderen Gebouwenregister","source_id":"gebouw/Gebouw.16471286/0","kind":"building","height_m":9.32,"status":null},"geometry":{"type":"Polygon","coordinates":[[[4.09053799,50.94190421],[4.09052861,50.94194274],[4.09045089,50.94193352],[4.09044272,50.94189299],[4.09053799,50.94190421]]]}},{"type":"Feature","id":"gebouw/Gebouw.16471367/0","properties":{"source":"Digitaal Vlaanderen Gebouwenregister","source_id":"gebouw/Gebouw.16471367/0","kind":"building","height_m":7.16,"status":null},"geometry":{"type":"Polygon","coordinates":[[[4.08822744,50.94170563],[4.08826079,50.94171257],[4.08826198,50.94171066],[4.08853501,50.94177875],[4.08851519,50.94181609],[4.08823655,50.94175147],[4.08824914,50.94173126],[4.08821667,50.94172438],[4.08822744,50.94170563]]]}},{"type":"Feature","id":"gebouw/Gebouw.16471575/0","properties":{"source":"Digitaal Vlaanderen Gebouwenregister","source_id":"gebouw/Gebouw.16471575/0","kind":"building","height_m":5.72,"status":null},"geometry":{"type":"Polygon","coordinates":[[[4.090705,50.94182595],[4.0907524,50.94183173],[4.09072027,50.94192567],[4.09067988,50.94192091],[4.09069552,50.94183042],[4.09069648,50.94182491],[4.090705,50.94182595]]]}},{"type":"Feature","id":"gebouw/Gebouw.16471605/0","properties":{"source":"Digitaal Vlaanderen Gebouwenregister","source_id":"gebouw/Gebouw.16471605/0","kind":"building","height_m":7.16,"status":null},"geometry":{"type":"Polygon","coordinates":[[[4.08930113,50.94161142],[4.08923276,50.94151655],[4.08928831,50.94150057],[4.08928324,50.94149305],[4.08934314,50.94147613],[4.0894374,50.94160933],[4.08940559,50.94161813],[4.08940144,50.94161199],[4.08932897,50.94163236],[4.08939055,50.94172189],[4.08933102,50.94173842],[4.08925473,50.9416307],[4.08931086,50.94161568],[4.08930758,50.94160956],[4.08930113,50.94161142]]]}},{"type":"Feature","id":"gebouw/Gebouw.16471918/0","properties":{"source":"Digitaal Vlaanderen Gebouwenregister","source_id":"gebouw/Gebouw.16471918/0","kind":"building","height_m":5.72,"status":null},"geometry":{"type":"Polygon","coordinates":[[[4.08969891,50.94131866],[4.08968569,50.9413007],[4.08960595,50.94132412],[4.08963812,50.94136783],[4.08959646,50.94138006],[4.08962234,50.94141522],[4.08966611,50.94140236],[4.08968314,50.9414255],[4.08975847,50.94140337],[4.08973546,50.9413721],[4.08973774,50.94137143],[4.08969891,50.94131866]]]}},{"type":"Feature","id":"gebouw/Gebouw.16473986/0","properties":{"source":"Digitaal Vlaanderen Gebouwenregister","source_id":"gebouw/Gebouw.16473986/0","kind":"building","height_m":7.88,"status":null},"geometry":{"type":"Polygon","coordinates":[[[4.08874147,50.94159176],[4.08860166,50.94155603],[4.08862486,50.94152102],[4.0886139,50.94151813],[4.08864201,50.94147499],[4.08865533,50.94147815],[4.08867738,50.94144611],[4.088803,50.94148118],[4.08877457,50.94152183],[4.08878743,50.94152553],[4.08878848,50.9415252],[4.08879276,50.94152638],[4.0887731,50.9415543],[4.08885394,50.94157655],[4.0888196,50.94162619],[4.08873396,50.94160255],[4.08874147,50.94159176]]]}},{"type":"Feature","id":"gebouw/Gebouw.16481676/0","properties":{"source":"Digitaal Vlaanderen Gebouwenregister","source_id":"gebouw/Gebouw.16481676/0","kind":"building","height_m":5.72,"status":null},"geometry":{"type":"Polygon","coordinates":[[[4.08952295,50.94060922],[4.08946044,50.94064958],[4.08954548,50.94070291],[4.08966579,50.94077836],[4.08975505,50.9407217],[4.08954922,50.94059226],[4.08952295,50.94060922]]]}},{"type":"Feature","id":"gebouw/Gebouw.16482079/0","properties":{"source":"Digitaal Vlaanderen Gebouwenregister","source_id":"gebouw/Gebouw.16482079/0","kind":"building","height_m":8.6,"status":null},"geometry":{"type":"Polygon","coordinates":[[[4.08900323,50.94114991],[4.08897857,50.94118492],[4.08883274,50.94114391],[4.08885668,50.94110987],[4.0888181,50.94109905],[4.08886782,50.94102836],[4.08902343,50.94107204],[4.08897433,50.94114186],[4.08900323,50.94114991]]]}},{"type":"Feature","id":"gebouw/Gebouw.16482400/0","properties":{"source":"Digitaal Vlaanderen Gebouwenregister","source_id":"gebouw/Gebouw.16482400/0","kind":"building","height_m":7.88,"status":null},"geometry":{"type":"Polygon","coordinates":[[[4.08877345,50.94184341],[4.08865594,50.94181305],[4.08872042,50.94171303],[4.08883815,50.94174345],[4.08877345,50.94184341]]]}},{"type":"Feature","id":"gebouw/Gebouw.16494774/0","properties":{"source":"Digitaal Vlaanderen Gebouwenregister","source_id":"gebouw/Gebouw.16494774/0","kind":"building","height_m":6.44,"status":null},"geometry":{"type":"Polygon","coordinates":[[[4.08880444,50.94008214],[4.08876223,50.94011604],[4.08871638,50.94009126],[4.08875781,50.94005284],[4.08880444,50.94008214]]]}},{"type":"Feature","id":"gebouw/Gebouw.16494828/0","properties":{"source":"Digitaal Vlaanderen Gebouwenregister","source_id":"gebouw/Gebouw.16494828/0","kind":"building","height_m":5.0,"status":null},"geometry":{"type":"Polygon","coordinates":[[[4.09094784,50.94195245],[4.09093315,50.94200506],[4.0910452,50.94201964],[4.09102925,50.94206858],[4.09073917,50.94203329],[4.09075296,50.94198998],[4.09077457,50.94199229],[4.09078287,50.94196315],[4.09081996,50.94196735],[4.09082858,50.94193841],[4.09086524,50.94194273],[4.09093756,50.94195124],[4.09094784,50.94195245]]]}},{"type":"Feature","id":"gebouw/Gebouw.16495231/0","properties":{"source":"Digitaal Vlaanderen Gebouwenregister","source_id":"gebouw/Gebouw.16495231/0","kind":"building","height_m":7.88,"status":null},"geometry":{"type":"Polygon","coordinates":[[[4.08847666,50.94090378],[4.08851305,50.94088174],[4.08854291,50.94090141],[4.08850653,50.94092346],[4.08847666,50.94090378]]]}},{"type":"Feature","id":"gebouw/Gebouw.16510071/0","properties":{"source":"Digitaal Vlaanderen Gebouwenregister","source_id":"gebouw/Gebouw.16510071/0","kind":"building","height_m":7.88,"status":null},"geometry":{"type":"Polygon","coordinates":[[[4.08849543,50.93948611],[4.08843226,50.93945307],[4.08847122,50.93942336],[4.08853439,50.9394564],[4.08849543,50.93948611]]]}},{"type":"Feature","id":"gebouw/Gebouw.16510854/0","properties":{"source":"Digitaal Vlaanderen Gebouwenregister","source_id":"gebouw/Gebouw.16510854/0","kind":"building","height_m":7.16,"status":null},"geometry":{"type":"Polygon","coordinates":[[[4.08940338,50.94046187],[4.08950077,50.94052113],[4.08941953,50.94057443],[4.08932566,50.9405173],[4.08933762,50.94050946],[4.0893341,50.94050731],[4.08940338,50.94046187]]]}},{"type":"Feature","id":"gebouw/Gebouw.16513324/0","properties":{"source":"Digitaal Vlaanderen Gebouwenregister","source_id":"gebouw/Gebouw.16513324/0","kind":"building","height_m":6.44,"status":null},"geometry":{"type":"Polygon","coordinates":[[[4.09067645,50.93980546],[4.09061883,50.93982739],[4.09065442,50.93986473],[4.09071204,50.9398428],[4.09067645,50.93980546]]]}},{"type":"Feature","id":"gebouw/Gebouw.16513622/0","properties":{"source":"Digitaal Vlaanderen Gebouwenregister","source_id":"gebouw/Gebouw.16513622/0","kind":"building","height_m":9.32,"status":null},"geometry":{"type":"Polygon","coordinates":[[[4.0908545,50.94128276],[4.0907977,50.94129965],[4.09080471,50.9413116],[4.09075003,50.94132713],[4.09074327,50.94131683],[4.09068218,50.94133507],[4.09062082,50.94125287],[4.09071882,50.94122627],[4.09073279,50.9412296],[4.09078069,50.9412155],[4.09078954,50.94122774],[4.09080913,50.94122185],[4.0908545,50.94128276]]]}},{"type":"Feature","id":"gebouw/Gebouw.16513640/0","properties":{"source":"Digitaal Vlaanderen Gebouwenregister","source_id":"gebouw/Gebouw.16513640/0","kind":"building","height_m":7.16,"status":null},"geometry":{"type":"Polygon","coordinates":[[[4.09025235,50.93981346],[4.09018298,50.93974463],[4.09022355,50.93972792],[4.09029208,50.93979841],[4.09025235,50.93981346]]]}},{"type":"Feature","id":"gebouw/Gebouw.16513660/0","properties":{"source":"Digitaal Vlaanderen Gebouwenregister","source_id":"gebouw/Gebouw.16513660/0","kind":"building","height_m":6.44,"status":null},"geometry":{"type":"Polygon","coordinates":[[[4.09077526,50.94082665],[4.09077387,50.94082712],[4.09070304,50.94073955],[4.0908574,50.94069021],[4.0909091,50.94067927],[4.09094221,50.9407279],[4.09087976,50.94074606],[4.09086999,50.9407345],[4.09085561,50.94073905],[4.09089472,50.9407865],[4.09086502,50.94079649],[4.09077526,50.94082665]]]}},{"type":"Feature","id":"gebouw/Gebouw.16518311/0","properties":{"source":"Digitaal Vlaanderen Gebouwenregister","source_id":"gebouw/Gebouw.16518311/0","kind":"building","height_m":8.6,"status":null},"geometry":{"type":"Polygon","coordinates":[[[4.09070171,50.94023616],[4.09082637,50.94035088],[4.09087243,50.94033035],[4.09086011,50.94031716],[4.09092474,50.94028835],[4.09081428,50.94018682],[4.09070171,50.94023616]]]}},{"type":"Feature","id":"gebouw/Gebouw.16518673/0","properties":{"source":"Digitaal Vlaanderen Gebouwenregister","source_id":"gebouw/Gebouw.16518673/0","kind":"building","height_m":7.16,"status":null},"geometry":{"type":"Polygon","coordinates":[[[4.08914234,50.94074599],[4.08919441,50.94076657],[4.08915976,50.94080156],[4.08910769,50.94078098],[4.08914234,50.94074599]]]}},{"type":"Feature","id":"gebouw/Gebouw.16523825/0","properties":{"source":"Digitaal Vlaanderen Gebouwenregister","source_id":"gebouw/Gebouw.16523825/0","kind":"building","height_m":7.16,"status":null},"geometry":{"type":"Polygon","coordinates":[[[4.08389667,50.93950625],[4.08376112,50.93945725],[4.08367555,50.93942632],[4.08375324,50.93933529],[4.08384873,50.93936972],[4.08384146,50.93937946],[4.08389775,50.93940201],[4.08396536,50.93942909],[4.08397627,50.93941684],[4.0840429,50.93944179],[4.0839891,50.93950271],[4.0839226,50.93947711],[4.08389667,50.93950625]]]}},{"type":"Feature","id":"gebouw/Gebouw.16523941/0","properties":{"source":"Digitaal Vlaanderen Gebouwenregister","source_id":"gebouw/Gebouw.16523941/0","kind":"building","height_m":5.0,"status":null},"geometry":{"type":"Polygon","coordinates":[[[4.08868374,50.94116024],[4.08852298,50.94111249],[4.08850398,50.94113927],[4.08866614,50.94118508],[4.08868374,50.94116024]]]}},{"type":"Feature","id":"gebouw/Gebouw.16530110/0","properties":{"source":"Digitaal Vlaanderen Gebouwenregister","source_id":"gebouw/Gebouw.16530110/0","kind":"building","height_m":6.44,"status":null},"geometry":{"type":"Polygon","coordinates":[[[4.08426941,50.94163394],[4.08435702,50.94171403],[4.08431854,50.94173181],[4.08425561,50.94167197],[4.08425119,50.94167407],[4.08422726,50.94165394],[4.08426941,50.94163394]]]}},{"type":"Feature","id":"gebouw/Gebouw.16530189/0","properties":{"source":"Digitaal Vlaanderen Gebouwenregister","source_id":"gebouw/Gebouw.16530189/0","kind":"building","height_m":7.88,"status":null},"geometry":{"type":"Polygon","coordinates":[[[4.08490548,50.94141623],[4.08499212,50.9414403],[4.0848897,50.94158746],[4.08480306,50.94156339],[4.08490548,50.94141623]]]}},{"type":"Feature","id":"gebouw/Gebouw.16530927/0","properties":{"source":"Digitaal Vlaanderen Gebouwenregister","source_id":"gebouw/Gebouw.16530927/0","kind":"building","height_m":5.0,"status":null},"geometry":{"type":"Polygon","coordinates":[[[4.08947974,50.94043451],[4.08942226,50.94047023],[4.08939504,50.9404481],[4.08944901,50.9404147],[4.08947974,50.94043451]]]}},{"type":"Feature","id":"gebouw/Gebouw.16530968/0","properties":{"source":"Digitaal Vlaanderen Gebouwenregister","source_id":"gebouw/Gebouw.16530968/0","kind":"building","height_m":9.32,"status":null},"geometry":{"type":"Polygon","coordinates":[[[4.0906552,50.94161364],[4.09062466,50.94156283],[4.09069799,50.94154524],[4.09072853,50.94159605],[4.0906552,50.94161364]]]}},{"type":"Feature","id":"gebouw/Gebouw.16532444/0","properties":{"source":"Digitaal Vlaanderen Gebouwenregister","source_id":"gebouw/Gebouw.16532444/0","kind":"building","height_m":8.6,"status":null},"geometry":{"type":"Polygon","coordinates":[[[4.09076774,50.94098428],[4.09065775,50.94101692],[4.09061926,50.94096102],[4.09068947,50.94094004],[4.0906668,50.94090544],[4.09070148,50.94089514],[4.09076774,50.94098428]]]}},{"type":"Feature","id":"gebouw/Gebouw.16532956/0","properties":{"source":"Digitaal Vlaanderen Gebouwenregister","source_id":"gebouw/Gebouw.16532956/0","kind":"building","height_m":9.32,"status":null},"geometry":{"type":"Polygon","coordinates":[[[4.09002514,50.94075718],[4.09009748,50.94071087],[4.08995106,50.94061512],[4.08987765,50.94065993],[4.08990485,50.94067751],[4.08997486,50.94072275],[4.08995362,50.94073593],[4.08991771,50.9407112],[4.08986146,50.94074611],[4.08989911,50.94076976],[4.08995281,50.94080349],[4.09002514,50.94075718]]]}},{"type":"Feature","id":"gebouw/Gebouw.16532990/0","properties":{"source":"Digitaal Vlaanderen Gebouwenregister","source_id":"gebouw/Gebouw.16532990/0","kind":"building","height_m":8.6,"status":null},"geometry":{"type":"Polygon","coordinates":[[[4.09084489,50.94167745],[4.09083094,50.94162739],[4.09081321,50.9416288],[4.09079918,50.94157659],[4.09095842,50.94155893],[4.09097109,50.94160455],[4.09097216,50.94160446],[4.09098749,50.94166158],[4.09084489,50.94167745]]]}},{"type":"Feature","id":"gebouw/Gebouw.16534660/0","properties":{"source":"Digitaal Vlaanderen Gebouwenregister","source_id":"gebouw/Gebouw.16534660/0","kind":"building","height_m":6.44,"status":null},"geometry":{"type":"Polygon","coordinates":[[[4.08880348,50.94193909],[4.08872194,50.94192038],[4.08865286,50.94190452],[4.08860127,50.94189268],[4.08856862,50.94195253],[4.0885951,50.94195867],[4.08876894,50.941999],[4.08880348,50.94193909]]]}},{"type":"Feature","id":"gebouw/Gebouw.16534876/0","properties":{"source":"Digitaal Vlaanderen Gebouwenregister","source_id":"gebouw/Gebouw.16534876/0","kind":"building","height_m":5.72,"status":null},"geometry":{"type":"Polygon","coordinates":[[[4.08864,50.94109083],[4.08864248,50.94108731],[4.08855264,50.94106193],[4.08851796,50.941111],[4.08852298,50.94111249],[4.08868374,50.94116024],[4.08871738,50.94111269],[4.08864,50.94109083]]]}},{"type":"Feature","id":"gebouw/Gebouw.16534973/0","properties":{"source":"Digitaal Vlaanderen Gebouwenregister","source_id":"gebouw/Gebouw.16534973/0","kind":"building","height_m":5.0,"status":null},"geometry":{"type":"Polygon","coordinates":[[[4.08409817,50.94183343],[4.08431524,50.94174056],[4.08438606,50.94180665],[4.084169,50.94189951],[4.08409817,50.94183343]]]}},{"type":"Feature","id":"gebouw/Gebouw.16535309/0","properties":{"source":"Digitaal Vlaanderen Gebouwenregister","source_id":"gebouw/Gebouw.16535309/0","kind":"building","height_m":5.0,"status":null},"geometry":{"type":"Polygon","coordinates":[[[4.08932169,50.9403016],[4.08936227,50.94032768],[4.08943399,50.940283],[4.08939205,50.94025613],[4.08932169,50.9403016]]]}},{"type":"Feature","id":"gebouw/Gebouw.16535487/0","properties":{"source":"Digitaal Vlaanderen Gebouwenregister","source_id":"gebouw/Gebouw.16535487/0","kind":"building","height_m":7.16,"status":null},"geometry":{"type":"Polygon","coordinates":[[[4.09009023,50.93976525],[4.09015179,50.9397402],[4.09027723,50.93986329],[4.09021566,50.93988834],[4.09009023,50.93976525]]]}},{"type":"Feature","id":"gebouw/Gebouw.16537041/0","properties":{"source":"Digitaal Vlaanderen Gebouwenregister","source_id":"gebouw/Gebouw.16537041/0","kind":"building","height_m":7.16,"status":null},"geometry":{"type":"Polygon","coordinates":[[[4.09043376,50.94186104],[4.09054903,50.94185876],[4.09055029,50.94190241],[4.0904345,50.94189041],[4.09043376,50.94186104]]]}},{"type":"Feature","id":"gebouw/Gebouw.16537282/0","properties":{"source":"Digitaal Vlaanderen Gebouwenregister","source_id":"gebouw/Gebouw.16537282/0","kind":"building","height_m":9.32,"status":null},"geometry":{"type":"Polygon","coordinates":[[[4.08267818,50.93886434],[4.08249768,50.93905802],[4.08229831,50.93898384],[4.08247882,50.93879016],[4.08267818,50.93886434]]]}},{"type":"Feature","id":"gebouw/Gebouw.16537310/0","properties":{"source":"Digitaal Vlaanderen Gebouwenregister","source_id":"gebouw/Gebouw.16537310/0","kind":"building","height_m":9.32,"status":null},"geometry":{"type":"Polygon","coordinates":[[[4.0891224,50.93750553],[4.08911955,50.93751047],[4.08908214,50.93757554],[4.08914258,50.93758946],[4.0891587,50.93756151],[4.08913307,50.9375556],[4.08915731,50.93751357],[4.0891224,50.93750553]]]}},{"type":"Feature","id":"gebouw/Gebouw.16537428/0","properties":{"source":"Digitaal Vlaanderen Gebouwenregister","source_id":"gebouw/Gebouw.16537428/0","kind":"building","height_m":8.6,"status":null},"geometry":{"type":"Polygon","coordinates":[[[4.09043618,50.94166142],[4.09049924,50.94165968],[4.09050105,50.94168584],[4.09043799,50.94168757],[4.09043618,50.94166142]]]}},{"type":"Feature","id":"gebouw/Gebouw.16540385/0","properties":{"source":"Digitaal Vlaanderen Gebouwenregister","source_id":"gebouw/Gebouw.16540385/0","kind":"building","height_m":5.72,"status":null},"geometry":{"type":"Polygon","coordinates":[[[4.08339794,50.93941049],[4.08335451,50.93939269],[4.08337729,50.9393705],[4.08342072,50.9393883],[4.08339794,50.93941049]]]}},{"type":"Feature","id":"gebouw/Gebouw.16540725/0","properties":{"source":"Digitaal Vlaanderen Gebouwenregister","source_id":"gebouw/Gebouw.16540725/0","kind":"building","height_m":8.6,"status":null},"geometry":{"type":"Polygon","coordinates":[[[4.08395641,50.93979475],[4.08394735,50.93979146],[4.08394336,50.93979583],[4.08390578,50.93978216],[4.08392723,50.93975858],[4.08391211,50.93975328],[4.08400102,50.93965041],[4.08406665,50.93967428],[4.08400983,50.93973664],[4.08407159,50.9397591],[4.08413089,50.93969402],[4.08419612,50.93971774],[4.08410356,50.93981933],[4.0840815,50.93981131],[4.0840617,50.93983305],[4.08400693,50.93981313],[4.0839825,50.93983994],[4.08393198,50.93982157],[4.08395641,50.93979475]]]}},{"type":"Feature","id":"gebouw/Gebouw.16542375/0","properties":{"source":"Digitaal Vlaanderen Gebouwenregister","source_id":"gebouw/Gebouw.16542375/0","kind":"building","height_m":7.16,"status":null},"geometry":{"type":"Polygon","coordinates":[[[4.09091396,50.94182293],[4.09090157,50.9418534],[4.09079278,50.94183575],[4.09083598,50.94172418],[4.09094714,50.94174136],[4.09091396,50.94182293]]]}},{"type":"Feature","id":"gebouw/Gebouw.16542525/0","properties":{"source":"Digitaal Vlaanderen Gebouwenregister","source_id":"gebouw/Gebouw.16542525/0","kind":"building","height_m":9.32,"status":null},"geometry":{"type":"Polygon","coordinates":[[[4.09063519,50.94044401],[4.09058706,50.94046974],[4.09057156,50.94045816],[4.09045088,50.94052266],[4.0903485,50.94044619],[4.09040579,50.94041557],[4.09042422,50.94042934],[4.09053574,50.94036973],[4.09063519,50.94044401]]]}},{"type":"Feature","id":"gebouw/Gebouw.16544225/0","properties":{"source":"Digitaal Vlaanderen Gebouwenregister","source_id":"gebouw/Gebouw.16544225/0","kind":"building","height_m":8.6,"status":null},"geometry":{"type":"Polygon","coordinates":[[[4.08889716,50.94134907],[4.08885986,50.94140066],[4.08870913,50.94135715],[4.0887993,50.94123015],[4.08893831,50.94127054],[4.08888387,50.94134532],[4.08889716,50.94134907]]]}},{"type":"Feature","id":"gebouw/Gebouw.16546160/0","properties":{"source":"Digitaal Vlaanderen Gebouwenregister","source_id":"gebouw/Gebouw.16546160/0","kind":"building","height_m":5.72,"status":null},"geometry":{"type":"Polygon","coordinates":[[[4.08707025,50.94179168],[4.08702007,50.94174989],[4.08709614,50.94171343],[4.08714632,50.94175522],[4.08707025,50.94179168]]]}},{"type":"Feature","id":"gebouw/Gebouw.16546269/0","properties":{"source":"Digitaal Vlaanderen Gebouwenregister","source_id":"gebouw/Gebouw.16546269/0","kind":"building","height_m":8.6,"status":null},"geometry":{"type":"Polygon","coordinates":[[[4.09126641,50.94022855],[4.09120248,50.94025204],[4.09116385,50.94021004],[4.09112762,50.94022296],[4.09028201,50.93927984],[4.08955723,50.93847143],[4.08987461,50.93835783],[4.08977912,50.93825132],[4.08998092,50.9381826],[4.08991531,50.93810568],[4.09047718,50.9379053],[4.09128978,50.93881494],[4.09100979,50.93891479],[4.09108127,50.9389948],[4.09081186,50.93909088],[4.09073819,50.93911716],[4.09141394,50.93987359],[4.09126128,50.93992803],[4.09127814,50.9399469],[4.09142976,50.93989283],[4.09152066,50.93999458],[4.09136868,50.94004878],[4.09142844,50.94011568],[4.09138987,50.94012943],[4.09122909,50.94018677],[4.09126641,50.94022855]]]}},{"type":"Feature","id":"gebouw/Gebouw.16546534/0","properties":{"source":"Digitaal Vlaanderen Gebouwenregister","source_id":"gebouw/Gebouw.16546534/0","kind":"building","height_m":7.88,"status":null},"geometry":{"type":"Polygon","coordinates":[[[4.08982165,50.94064549],[4.08980532,50.94065467],[4.08987126,50.94069806],[4.0898285,50.94072541],[4.08976309,50.94068219],[4.08968327,50.94062946],[4.08966102,50.94061485],[4.08967368,50.94060729],[4.08970414,50.9405891],[4.08972451,50.94060235],[4.08974137,50.94059302],[4.08982165,50.94064549]]]}},{"type":"Feature","id":"gebouw/Gebouw.16550490/0","properties":{"source":"Digitaal Vlaanderen Gebouwenregister","source_id":"gebouw/Gebouw.16550490/0","kind":"building","height_m":8.6,"status":null},"geometry":{"type":"Polygon","coordinates":[[[4.08431232,50.93588344],[4.08432018,50.93583393],[4.08436579,50.93583682],[4.08435793,50.93588633],[4.08431232,50.93588344]]]}},{"type":"Feature","id":"gebouw/Gebouw.16553423/0","properties":{"source":"Digitaal Vlaanderen Gebouwenregister","source_id":"gebouw/Gebouw.16553423/0","kind":"building","height_m":8.6,"status":null},"geometry":{"type":"Polygon","coordinates":[[[4.08828933,50.94199209],[4.08824624,50.94198181],[4.0882524,50.94197151],[4.08826601,50.94194872],[4.08840006,50.94198068],[4.08841715,50.94195083],[4.08851201,50.94197274],[4.08847845,50.94202837],[4.08847454,50.94203491],[4.08843297,50.9420253],[4.08836623,50.94200987],[4.0883615,50.94200877],[4.08828933,50.94199209]]]}},{"type":"Feature","id":"gebouw/Gebouw.16553440/0","properties":{"source":"Digitaal Vlaanderen Gebouwenregister","source_id":"gebouw/Gebouw.16553440/0","kind":"building","height_m":5.72,"status":null},"geometry":{"type":"Polygon","coordinates":[[[4.09050397,50.94152716],[4.09055467,50.9415149],[4.09057634,50.94155066],[4.09052564,50.94156292],[4.09050397,50.94152716]]]}},{"type":"Feature","id":"gebouw/Gebouw.16554987/0","properties":{"source":"Digitaal Vlaanderen Gebouwenregister","source_id":"gebouw/Gebouw.16554987/0","kind":"building","height_m":5.72,"status":null},"geometry":{"type":"Polygon","coordinates":[[[4.08347513,50.93954003],[4.08341049,50.93950845],[4.08344053,50.93948391],[4.08350516,50.93951549],[4.08347513,50.93954003]]]}},{"type":"Feature","id":"gebouw/Gebouw.16555143/0","properties":{"source":"Digitaal Vlaanderen Gebouwenregister","source_id":"gebouw/Gebouw.16555143/0","kind":"building","height_m":7.16,"status":null},"geometry":{"type":"Polygon","coordinates":[[[4.08698674,50.9379183],[4.08688792,50.93788171],[4.08687053,50.93790334],[4.08696744,50.93793912],[4.08698674,50.9379183]]]}},{"type":"Feature","id":"gebouw/Gebouw.16555457/0","properties":{"source":"Digitaal Vlaanderen Gebouwenregister","source_id":"gebouw/Gebouw.16555457/0","kind":"building","height_m":6.44,"status":null},"geometry":{"type":"Polygon","coordinates":[[[4.09023726,50.94065709],[4.09023466,50.94065843],[4.09007512,50.94053869],[4.09022071,50.94046125],[4.09037021,50.94057756],[4.09031892,50.94060388],[4.0903205,50.9406051],[4.0903125,50.94060928],[4.09031094,50.94060812],[4.09027652,50.9406257],[4.0902851,50.9406324],[4.09028051,50.94063476],[4.09023726,50.94065709]]]}},{"type":"Feature","id":"gebouw/Gebouw.16555551/0","properties":{"source":"Digitaal Vlaanderen Gebouwenregister","source_id":"gebouw/Gebouw.16555551/0","kind":"building","height_m":8.6,"status":null},"geometry":{"type":"Polygon","coordinates":[[[4.08883409,50.93998212],[4.08879414,50.94001588],[4.08874596,50.94005659],[4.08870899,50.94003751],[4.08860267,50.94013262],[4.0885242,50.94009688],[4.08867571,50.93996092],[4.08873456,50.93998823],[4.08877032,50.93995714],[4.08871045,50.93992953],[4.08880267,50.93985099],[4.08889722,50.93989531],[4.08881058,50.9399691],[4.08883409,50.93998212]]]}},{"type":"Feature","id":"gebouw/Gebouw.16557696/0","properties":{"source":"Digitaal Vlaanderen Gebouwenregister","source_id":"gebouw/Gebouw.16557696/0","kind":"building","height_m":5.72,"status":null},"geometry":{"type":"Polygon","coordinates":[[[4.08839784,50.94080973],[4.08842474,50.94077203],[4.08848053,50.94078792],[4.08845363,50.94082562],[4.08839784,50.94080973]]]}},{"type":"Feature","id":"gebouw/Gebouw.16561171/0","properties":{"source":"Digitaal Vlaanderen Gebouwenregister","source_id":"gebouw/Gebouw.16561171/0","kind":"building","height_m":7.88,"status":null},"geometry":{"type":"Polygon","coordinates":[[[4.08966579,50.94077836],[4.08950146,50.94088264],[4.08937348,50.94080214],[4.08942371,50.94077026],[4.08943413,50.94077682],[4.08954548,50.94070291],[4.08966579,50.94077836]]]}},{"type":"Feature","id":"gebouw/Gebouw.16561488/0","properties":{"source":"Digitaal Vlaanderen Gebouwenregister","source_id":"gebouw/Gebouw.16561488/0","kind":"building","height_m":9.32,"status":null},"geometry":{"type":"Polygon","coordinates":[[[4.0907196,50.94178928],[4.09070321,50.94178949],[4.0906763,50.94178985],[4.09067797,50.94183069],[4.09064416,50.94183135],[4.09051405,50.94183391],[4.09051182,50.94179029],[4.09050969,50.94174872],[4.09071737,50.94174447],[4.0907196,50.94178928]]]}},{"type":"Feature","id":"gebouw/Gebouw.16561501/0","properties":{"source":"Digitaal Vlaanderen Gebouwenregister","source_id":"gebouw/Gebouw.16561501/0","kind":"building","height_m":8.6,"status":null},"geometry":{"type":"Polygon","coordinates":[[[4.08902333,50.94087116],[4.08903956,50.94087582],[4.08906286,50.94084178],[4.08915742,50.94086925],[4.08913253,50.94090344],[4.08915232,50.94090926],[4.08913398,50.94093484],[4.08915069,50.94093949],[4.08910662,50.94100286],[4.08896004,50.94096217],[4.08900452,50.94089822],[4.08902333,50.94087116]]]}},{"type":"Feature","id":"gebouw/Gebouw.16561972/0","properties":{"source":"Digitaal Vlaanderen Gebouwenregister","source_id":"gebouw/Gebouw.16561972/0","kind":"building","height_m":5.0,"status":null},"geometry":{"type":"Polygon","coordinates":[[[4.08953816,50.94169009],[4.08961614,50.94166668],[4.08964204,50.94170112],[4.08956405,50.94172452],[4.08953816,50.94169009]]]}},{"type":"Feature","id":"gebouw/Gebouw.16567509/0","properties":{"source":"Digitaal Vlaanderen Gebouwenregister","source_id":"gebouw/Gebouw.16567509/0","kind":"building","height_m":5.0,"status":null},"geometry":{"type":"Polygon","coordinates":[[[4.08954053,50.94127832],[4.08945087,50.94130402],[4.08940941,50.94124403],[4.08940497,50.94124573],[4.08936385,50.94118909],[4.08936579,50.94118853],[4.08935659,50.9411757],[4.08936637,50.94117289],[4.0893648,50.94117003],[4.08936425,50.94116704],[4.08936472,50.94116404],[4.08936621,50.94116116],[4.08936864,50.94115857],[4.0893719,50.94115636],[4.08937582,50.94115465],[4.08938024,50.94115351],[4.08938495,50.941153],[4.08938972,50.94115314],[4.08939432,50.94115392],[4.08939816,50.94115523],[4.08940156,50.94115697],[4.08940441,50.94115905],[4.0894066,50.94116143],[4.0894172,50.94115828],[4.0894301,50.94117639],[4.08950996,50.94115364],[4.08951457,50.94116022],[4.08952533,50.9411574],[4.08954148,50.94118196],[4.08953126,50.94118446],[4.08954128,50.94119811],[4.08954627,50.9412049],[4.08949778,50.9412188],[4.08954053,50.94127832]]]}},{"type":"Feature","id":"gebouw/Gebouw.16567560/0","properties":{"source":"Digitaal Vlaanderen Gebouwenregister","source_id":"gebouw/Gebouw.16567560/0","kind":"building","height_m":6.44,"status":null},"geometry":{"type":"Polygon","coordinates":[[[4.09082637,50.94035088],[4.09070171,50.94023616],[4.09063605,50.94017573],[4.09052625,50.94022362],[4.09050185,50.94020043],[4.0904806,50.94021108],[4.09045688,50.94019],[4.09040248,50.94021435],[4.09048842,50.94028108],[4.09055186,50.94025027],[4.09059311,50.94028943],[4.09063831,50.94033234],[4.0906757,50.94031641],[4.09075037,50.94038477],[4.09082637,50.94035088]]]}},{"type":"Feature","id":"gebouw/Gebouw.16567604/0","properties":{"source":"Digitaal Vlaanderen Gebouwenregister","source_id":"gebouw/Gebouw.16567604/0","kind":"building","height_m":7.88,"status":null},"geometry":{"type":"Polygon","coordinates":[[[4.08950031,50.94044354],[4.089542,50.94046928],[4.08950409,50.9404938],[4.08951497,50.94050051],[4.08949578,50.94051293],[4.0894432,50.94048048],[4.08950031,50.94044354]]]}},{"type":"Feature","id":"gebouw/Gebouw.16567796/0","properties":{"source":"Digitaal Vlaanderen Gebouwenregister","source_id":"gebouw/Gebouw.16567796/0","kind":"building","height_m":5.0,"status":null},"geometry":{"type":"Polygon","coordinates":[[[4.08436069,50.94171498],[4.08438241,50.941735],[4.08433813,50.94175418],[4.0843164,50.94173416],[4.08436069,50.94171498]]]}},{"type":"Feature","id":"gebouw/Gebouw.16571970/0","properties":{"source":"Digitaal Vlaanderen Gebouwenregister","source_id":"gebouw/Gebouw.16571970/0","kind":"building","height_m":6.44,"status":null},"geometry":{"type":"Polygon","coordinates":[[[4.08963205,50.94160323],[4.08956364,50.94162106],[4.08958819,50.94165867],[4.0896566,50.94164084],[4.08963205,50.94160323]]]}},{"type":"Feature","id":"gebouw/Gebouw.16572543/0","properties":{"source":"Digitaal Vlaanderen Gebouwenregister","source_id":"gebouw/Gebouw.16572543/0","kind":"building","height_m":5.72,"status":null},"geometry":{"type":"Polygon","coordinates":[[[4.08284563,50.941723],[4.08293999,50.94176268],[4.08290782,50.94179322],[4.08281346,50.94175354],[4.08284563,50.941723]]]}},{"type":"Feature","id":"gebouw/Gebouw.16572560/0","properties":{"source":"Digitaal Vlaanderen Gebouwenregister","source_id":"gebouw/Gebouw.16572560/0","kind":"building","height_m":7.88,"status":null},"geometry":{"type":"Polygon","coordinates":[[[4.08973614,50.93884852],[4.08967606,50.93878435],[4.08973,50.9387642],[4.08979008,50.93882838],[4.08973614,50.93884852]]]}},{"type":"Feature","id":"gebouw/Gebouw.16572690/0","properties":{"source":"Digitaal Vlaanderen Gebouwenregister","source_id":"gebouw/Gebouw.16572690/0","kind":"building","height_m":5.72,"status":null},"geometry":{"type":"Polygon","coordinates":[[[4.09020197,50.94109193],[4.09024012,50.94114157],[4.09021826,50.94114796],[4.09025883,50.94119837],[4.09025122,50.94120054],[4.09017215,50.94122316],[4.09018299,50.94123992],[4.09012474,50.94125747],[4.09012028,50.94125032],[4.09003939,50.94127433],[4.0900496,50.94128864],[4.09004467,50.9412907],[4.08993183,50.94113993],[4.0900172,50.94111442],[4.09002914,50.94113042],[4.09008486,50.94111414],[4.09009663,50.94113051],[4.0902006,50.94109969],[4.09019616,50.94109372],[4.09020197,50.94109193]]]}},{"type":"Feature","id":"gebouw/Gebouw.16595118/0","properties":{"source":"Digitaal Vlaanderen Gebouwenregister","source_id":"gebouw/Gebouw.16595118/0","kind":"building","height_m":5.72,"status":null},"geometry":{"type":"Polygon","coordinates":[[[4.09060872,50.94094019],[4.09054166,50.94095984],[4.09051839,50.94092359],[4.09049489,50.94093049],[4.0904236,50.94082431],[4.09056693,50.9407859],[4.0906023,50.94083274],[4.09054341,50.94084921],[4.09058382,50.94090627],[4.09060872,50.94094019]]]}},{"type":"Feature","id":"gebouw/Gebouw.16595658/0","properties":{"source":"Digitaal Vlaanderen Gebouwenregister","source_id":"gebouw/Gebouw.16595658/0","kind":"building","height_m":6.44,"status":null},"geometry":{"type":"Polygon","coordinates":[[[4.0897377,50.94126255],[4.08970913,50.94127107],[4.08958728,50.94110929],[4.08966461,50.94108604],[4.08967998,50.9411063],[4.08977231,50.94107868],[4.08978753,50.94109873],[4.0897888,50.94109834],[4.08981217,50.94112849],[4.08972121,50.94115579],[4.08978988,50.94124697],[4.08978599,50.94124814],[4.0897377,50.94126255]]]}},{"type":"Feature","id":"gebouw/Gebouw.16601606/0","properties":{"source":"Digitaal Vlaanderen Gebouwenregister","source_id":"gebouw/Gebouw.16601606/0","kind":"building","height_m":5.0,"status":null},"geometry":{"type":"Polygon","coordinates":[[[4.0879578,50.93912147],[4.08799477,50.93908624],[4.088095,50.93912767],[4.08805333,50.93916497],[4.0879578,50.93912147]]]}},{"type":"Feature","id":"gebouw/Gebouw.16602290/0","properties":{"source":"Digitaal Vlaanderen Gebouwenregister","source_id":"gebouw/Gebouw.16602290/0","kind":"building","height_m":8.6,"status":null},"geometry":{"type":"Polygon","coordinates":[[[4.0882004,50.94148305],[4.08822034,50.94145605],[4.08828371,50.94147474],[4.08826377,50.94150174],[4.0882004,50.94148305]]]}},{"type":"Feature","id":"gebouw/Gebouw.16608329/0","properties":{"source":"Digitaal Vlaanderen Gebouwenregister","source_id":"gebouw/Gebouw.16608329/0","kind":"building","height_m":7.16,"status":null},"geometry":{"type":"Polygon","coordinates":[[[4.0867959,50.94100137],[4.08684777,50.94102005],[4.08682312,50.94104738],[4.08677125,50.9410287],[4.0867959,50.94100137]]]}},{"type":"Feature","id":"gebouw/Gebouw.18730927/0","properties":{"source":"Digitaal Vlaanderen Gebouwenregister","source_id":"gebouw/Gebouw.18730927/0","kind":"building","height_m":8.6,"status":null},"geometry":{"type":"Polygon","coordinates":[[[4.09047318,50.94170531],[4.09047563,50.94172362],[4.09038459,50.94172938],[4.09038264,50.94170976],[4.09038223,50.94170565],[4.09047282,50.94170259],[4.09047318,50.94170531]]]}},{"type":"Feature","id":"gebouw/Gebouw.18730928/0","properties":{"source":"Digitaal Vlaanderen Gebouwenregister","source_id":"gebouw/Gebouw.18730928/0","kind":"building","height_m":9.32,"status":null},"geometry":{"type":"Polygon","coordinates":[[[4.08691258,50.94170909],[4.08682685,50.94172043],[4.08681564,50.94168066],[4.08690028,50.9416704],[4.08691258,50.94170909]]]}},{"type":"Feature","id":"gebouw/Gebouw.18730929/0","properties":{"source":"Digitaal Vlaanderen Gebouwenregister","source_id":"gebouw/Gebouw.18730929/0","kind":"building","height_m":5.0,"status":null},"geometry":{"type":"Polygon","coordinates":[[[4.08839723,50.94088298],[4.08841248,50.94085768],[4.08848995,50.94088075],[4.08847084,50.94090494],[4.08839723,50.94088298]]]}},{"type":"Feature","id":"gebouw/Gebouw.18964123/0","properties":{"source":"Digitaal Vlaanderen Gebouwenregister","source_id":"gebouw/Gebouw.18964123/0","kind":"building","height_m":7.16,"status":null},"geometry":{"type":"Polygon","coordinates":[[[4.09088923,50.94145389],[4.0909652,50.94143168],[4.09090298,50.94134779],[4.09075323,50.94139213],[4.09075676,50.94139688],[4.0907171,50.94140862],[4.09074544,50.94144684],[4.09075363,50.94144441],[4.09078357,50.94148477],[4.09088923,50.94145389]]]}},{"type":"Feature","id":"gebouw/Gebouw.19790181/0","properties":{"source":"Digitaal Vlaanderen Gebouwenregister","source_id":"gebouw/Gebouw.19790181/0","kind":"building","height_m":8.6,"status":null},"geometry":{"type":"Polygon","coordinates":[[[4.08927183,50.94189515],[4.0892397,50.94200817],[4.08910415,50.94199278],[4.08910245,50.94199877],[4.08909751,50.94199817],[4.08913063,50.94187907],[4.08927183,50.94189515]]]}},{"type":"Feature","id":"gebouw/Gebouw.19790182/0","properties":{"source":"Digitaal Vlaanderen Gebouwenregister","source_id":"gebouw/Gebouw.19790182/0","kind":"building","height_m":9.32,"status":null},"geometry":{"type":"Polygon","coordinates":[[[4.08927337,50.94188967],[4.08927183,50.94189515],[4.08913063,50.94187907],[4.08913212,50.94187371],[4.08915145,50.94180383],[4.08916112,50.94180478],[4.08916545,50.941787],[4.08917245,50.94175828],[4.08930594,50.94177318],[4.08927337,50.94188967]]]}},{"type":"Feature","id":"gebouw/Gebouw.19870307/0","properties":{"source":"Digitaal Vlaanderen Gebouwenregister","source_id":"gebouw/Gebouw.19870307/0","kind":"building","height_m":6.44,"status":null},"geometry":{"type":"Polygon","coordinates":[[[4.08384873,50.93936972],[4.08384146,50.93937946],[4.08389775,50.93940201],[4.08396536,50.93942909],[4.0839226,50.93947711],[4.08389667,50.93950625],[4.08376113,50.93945725],[4.08367555,50.93942632],[4.08375324,50.93933529],[4.08384873,50.93936972]]]}},{"type":"Feature","id":"gebouw/Gebouw.19870308/0","properties":{"source":"Digitaal Vlaanderen Gebouwenregister","source_id":"gebouw/Gebouw.19870308/0","kind":"building","height_m":7.16,"status":null},"geometry":{"type":"Polygon","coordinates":[[[4.08397627,50.93941684],[4.0840429,50.93944179],[4.08395662,50.93952973],[4.08389667,50.93950625],[4.0839226,50.93947711],[4.08396536,50.93942909],[4.08397627,50.93941684]]]}},{"type":"Feature","id":"gebouw/Gebouw.19870764/0","properties":{"source":"Digitaal Vlaanderen Gebouwenregister","source_id":"gebouw/Gebouw.19870764/0","kind":"building","height_m":7.88,"status":null},"geometry":{"type":"Polygon","coordinates":[[[4.09128978,50.93881494],[4.09047523,50.93790607],[4.08995858,50.93808979],[4.08995741,50.93809021],[4.08991548,50.93810512],[4.08991189,50.93810639],[4.08998092,50.9381826],[4.08977912,50.93825132],[4.08987461,50.93835783],[4.08955723,50.93847143],[4.0901797,50.93916572],[4.09028242,50.93928029],[4.09055524,50.93918264],[4.09081194,50.93909098],[4.09108127,50.9389948],[4.09100979,50.93891479],[4.09106133,50.93889641],[4.09128978,50.93881494]]]}},{"type":"Feature","id":"gebouw/Gebouw.20145645/0","properties":{"source":"Digitaal Vlaanderen Gebouwenregister","source_id":"gebouw/Gebouw.20145645/0","kind":"building","height_m":6.44,"status":null},"geometry":{"type":"Polygon","coordinates":[[[4.08769233,50.93940757],[4.08774834,50.93939863],[4.08777291,50.93946012],[4.08771689,50.93946905],[4.08769233,50.93940757]]]}},{"type":"Feature","id":"gebouw/Gebouw.20146409/0","properties":{"source":"Digitaal Vlaanderen Gebouwenregister","source_id":"gebouw/Gebouw.20146409/0","kind":"building","height_m":7.16,"status":null},"geometry":{"type":"Polygon","coordinates":[[[4.0822435,50.93821512],[4.08225176,50.9382177],[4.08223405,50.93824035],[4.08222821,50.93823853],[4.08217573,50.93822216],[4.08219343,50.93819951],[4.0822435,50.93821512]]]}},{"type":"Feature","id":"gebouw/Gebouw.30642035/0","properties":{"source":"Digitaal Vlaanderen Gebouwenregister","source_id":"gebouw/Gebouw.30642035/0","kind":"building","height_m":7.88,"status":null},"geometry":{"type":"Polygon","coordinates":[[[4.08366984,50.93940874],[4.08361921,50.93939212],[4.08367107,50.93932906],[4.0837217,50.93934568],[4.08366984,50.93940874]]]}},{"type":"Feature","id":"gebouw/Gebouw.30642036/0","properties":{"source":"Digitaal Vlaanderen Gebouwenregister","source_id":"gebouw/Gebouw.30642036/0","kind":"building","height_m":8.6,"status":null},"geometry":{"type":"Polygon","coordinates":[[[4.08313943,50.93958742],[4.08317639,50.93954518],[4.08321181,50.93955769],[4.08317485,50.93959992],[4.08313943,50.93958742]]]}},{"type":"Feature","id":"gebouw/Gebouw.30642037/0","properties":{"source":"Digitaal Vlaanderen Gebouwenregister","source_id":"gebouw/Gebouw.30642037/0","kind":"building","height_m":9.32,"status":null},"geometry":{"type":"Polygon","coordinates":[[[4.08564924,50.94166471],[4.08571471,50.94168456],[4.0857167,50.94168122],[4.08574169,50.9416888],[4.08576581,50.94165705],[4.08567535,50.94162962],[4.08564924,50.94166471]]]}},{"type":"Feature","id":"gebouw/Gebouw.30642099/0","properties":{"source":"Digitaal Vlaanderen Gebouwenregister","source_id":"gebouw/Gebouw.30642099/0","kind":"building","height_m":8.6,"status":null},"geometry":{"type":"Polygon","coordinates":[[[4.09049092,50.94138723],[4.09054122,50.94137263],[4.09056396,50.9414039],[4.09051366,50.9414185],[4.09049092,50.94138723]]]}},{"type":"Feature","id":"gebouw/Gebouw.31144866/0","properties":{"source":"Digitaal Vlaanderen Gebouwenregister","source_id":"gebouw/Gebouw.31144866/0","kind":"building","height_m":7.88,"status":null},"geometry":{"type":"Polygon","coordinates":[[[4.09054002,50.9410512],[4.09058492,50.94103845],[4.09062784,50.94109874],[4.09058294,50.9411115],[4.09054002,50.9410512]]]}},{"type":"Feature","id":"gebouw/Gebouw.31804803/0","properties":{"source":"Digitaal Vlaanderen Gebouwenregister","source_id":"gebouw/Gebouw.31804803/0","kind":"building","height_m":6.44,"status":null},"geometry":{"type":"Polygon","coordinates":[[[4.08971935,50.94131266],[4.08957567,50.94111741],[4.08955523,50.94112341],[4.08959648,50.94117946],[4.08968569,50.9413007],[4.08969891,50.94131866],[4.08970318,50.94131741],[4.08971935,50.94131266]]]}},{"type":"Feature","id":"gebouw/Gebouw.31804826/0","properties":{"source":"Digitaal Vlaanderen Gebouwenregister","source_id":"gebouw/Gebouw.31804826/0","kind":"building","height_m":7.88,"status":null},"geometry":{"type":"Polygon","coordinates":[[[4.08771535,50.93946742],[4.08777291,50.93945805],[4.08774981,50.93940141],[4.08769225,50.93941078],[4.08771535,50.93946742]]]}},{"type":"Feature","id":"gebouw/Gebouw.31804883/0","properties":{"source":"Digitaal Vlaanderen Gebouwenregister","source_id":"gebouw/Gebouw.31804883/0","kind":"building","height_m":8.6,"status":null},"geometry":{"type":"Polygon","coordinates":[[[4.08428759,50.9395606],[4.08422681,50.9395344],[4.0841895,50.9395745],[4.08424391,50.93959844],[4.08428759,50.9395606]]]}},{"type":"Feature","id":"gebouw/Gebouw.31805909/0","properties":{"source":"Digitaal Vlaanderen Gebouwenregister","source_id":"gebouw/Gebouw.31805909/0","kind":"building","height_m":6.44,"status":null},"geometry":{"type":"Polygon","coordinates":[[[4.0900566,50.94038052],[4.09010041,50.94035692],[4.09002483,50.94030337],[4.08998121,50.94032595],[4.0900566,50.94038052]]]}},{"type":"Feature","id":"gebouw/Gebouw.31806614/0","properties":{"source":"Digitaal Vlaanderen Gebouwenregister","source_id":"gebouw/Gebouw.31806614/0","kind":"building","height_m":5.0,"status":null},"geometry":{"type":"Polygon","coordinates":[[[4.0876905,50.9394048],[4.0877497,50.93939577],[4.08772579,50.93933318],[4.08766659,50.9393422],[4.0876905,50.9394048]]]}},{"type":"Feature","id":"way/132696756","properties":{"source":"OpenStreetMap","source_id":"way/132696756","kind":"vegetation","name":null,"waterway":null,"landuse":"forest"},"geometry":{"type":"Polygon","coordinates":[[[4.0873229,50.9387159],[4.088299,50.9379436],[4.0879278,50.9378396],[4.0873229,50.9387159]]]}},{"type":"Feature","id":"way/132696760","properties":{"source":"OpenStreetMap","source_id":"way/132696760","kind":"vegetation","name":null,"waterway":null,"landuse":"forest"},"geometry":{"type":"Polygon","coordinates":[[[4.0897327,50.9361304],[4.090033,50.9350184],[4.0898767,50.9349944],[4.0896755,50.9357891],[4.0889667,50.9356353],[4.0888096,50.9360005],[4.0897327,50.9361304]]]}},{"type":"Feature","id":"way/160747304","properties":{"source":"OpenStreetMap","source_id":"way/160747304","kind":"vegetation","name":null,"waterway":null,"landuse":"forest"},"geometry":{"type":"Polygon","coordinates":[[[4.0855262,50.9354593],[4.0865576,50.9353116],[4.0865435,50.9355849],[4.0863745,50.9355796],[4.0863379,50.9357322],[4.0861549,50.9357233],[4.0861239,50.9359345],[4.0866702,50.9359842],[4.0871194,50.9352158],[4.0892162,50.9349182],[4.0892303,50.9349821],[4.0872141,50.9352838],[4.0870001,50.9357452],[4.0885094,50.9361817],[4.0884742,50.9362358],[4.0884306,50.9363158],[4.0868931,50.9358516],[4.0864823,50.9366502],[4.0854315,50.9366812],[4.0853609,50.9366819],[4.0855262,50.9354593]]]}},{"type":"Feature","id":"way/160747394","properties":{"source":"OpenStreetMap","source_id":"way/160747394","kind":"vegetation","name":null,"waterway":null,"landuse":"forest"},"geometry":{"type":"Polygon","coordinates":[[[4.0837712,50.9366971],[4.0842849,50.9366922],[4.0843506,50.9362204],[4.0840639,50.9362091],[4.0840838,50.9357474],[4.0844242,50.9357185],[4.0844123,50.9356219],[4.0838238,50.9356852],[4.0837712,50.9366971]]]}}]}