{"type":"FeatureCollection","features":[{"type":"Feature","id":"gebouw/Gebouw.16462105/0","properties":{"source":"Digitaal Vlaanderen Gebouwenregister","source_id":"gebouw/Gebouw.16462105/0","kind":"building","height_m":6.44,"status":null},"geometry":{"type":"Polygon","coordinates":[[[4.08069069,50.93206254],[4.08073676,50.93201287],[4.0807802,50.93203146],[4.08082622,50.93198569],[4.08093988,50.93203243],[4.08090953,50.93206519],[4.08089624,50.93206027],[4.08080312,50.9321608],[4.08074842,50.93214056],[4.0807677,50.93212003],[4.08066964,50.93208287],[4.08068367,50.93206814],[4.08068143,50.93206712],[4.08068804,50.93206132],[4.08069069,50.93206254]]]}},{"type":"Feature","id":"gebouw/Gebouw.16462118/0","properties":{"source":"Digitaal Vlaanderen Gebouwenregister","source_id":"gebouw/Gebouw.16462118/0","kind":"building","height_m":5.72,"status":null},"geometry":{"type":"Polygon","coordinates":[[[4.08087713,50.93273407],[4.080923,50.93268462],[4.08103796,50.93272721],[4.08093734,50.93283567],[4.08078438,50.93277901],[4.08083913,50.93272],[4.08087713,50.93273407]]]}},{"type":"Feature","id":"gebouw/Gebouw.16462294/0","properties":{"source":"Digitaal Vlaanderen Gebouwenregister","source_id":"gebouw/Gebouw.16462294/0","kind":"building","height_m":6.44,"status":null},"geometry":{"type":"Polygon","coordinates":[[[4.08151378,50.9317516],[4.08145761,50.93185778],[4.08138003,50.93184166],[4.08138269,50.93183644],[4.08136006,50.93183087],[4.08137202,50.9318095],[4.08132154,50.93179822],[4.081373,50.93170625],[4.08143462,50.93172002],[4.08142755,50.93173243],[4.08146578,50.93174093],[4.08151378,50.9317516]]]}},{"type":"Feature","id":"gebouw/Gebouw.16462398/0","properties":{"source":"Digitaal Vlaanderen Gebouwenregister","source_id":"gebouw/Gebouw.16462398/0","kind":"building","height_m":5.72,"status":null},"geometry":{"type":"Polygon","coordinates":[[[4.08081932,50.92851355],[4.08085388,50.9285253],[4.0808287,50.92855488],[4.08079414,50.92854313],[4.08081932,50.92851355]]]}},{"type":"Feature","id":"gebouw/Gebouw.16471237/0","properties":{"source":"Digitaal Vlaanderen Gebouwenregister","source_id":"gebouw/Gebouw.16471237/0","kind":"building","height_m":9.32,"status":null},"geometry":{"type":"Polygon","coordinates":[[[4.08080249,50.93177478],[4.08071847,50.93175711],[4.08070499,50.93178685],[4.08078735,50.93180415],[4.08080249,50.93177478]]]}},{"type":"Feature","id":"gebouw/Gebouw.16471271/0","properties":{"source":"Digitaal Vlaanderen Gebouwenregister","source_id":"gebouw/Gebouw.16471271/0","kind":"building","height_m":8.6,"status":null},"geometry":{"type":"Polygon","coordinates":[[[4.08046503,50.93298096],[4.08041525,50.93300986],[4.08037188,50.93298],[4.08042166,50.93295111],[4.08046503,50.93298096]]]}},{"type":"Feature","id":"gebouw/Gebouw.16471817/0","properties":{"source":"Digitaal Vlaanderen Gebouwenregister","source_id":"gebouw/Gebouw.16471817/0","kind":"building","height_m":8.6,"status":null},"geometry":{"type":"Polygon","coordinates":[[[4.08049249,50.93274532],[4.08053693,50.9327602],[4.08050957,50.93279285],[4.08046513,50.93277798],[4.08049249,50.93274532]]]}},{"type":"Feature","id":"gebouw/Gebouw.16473923/0","properties":{"source":"Digitaal Vlaanderen Gebouwenregister","source_id":"gebouw/Gebouw.16473923/0","kind":"building","height_m":7.88,"status":null},"geometry":{"type":"Polygon","coordinates":[[[4.08090217,50.93077192],[4.08106941,50.93080866],[4.08102035,50.93089786],[4.0808531,50.93086113],[4.08090217,50.93077192]]]}},{"type":"Feature","id":"gebouw/Gebouw.16474009/0","properties":{"source":"Digitaal Vlaanderen Gebouwenregister","source_id":"gebouw/Gebouw.16474009/0","kind":"building","height_m":9.32,"status":null},"geometry":{"type":"Polygon","coordinates":[[[4.09084097,50.93397624],[4.09081784,50.93393359],[4.09085297,50.93392636],[4.0908761,50.93396901],[4.09084097,50.93397624]]]}},{"type":"Feature","id":"gebouw/Gebouw.16474194/0","properties":{"source":"Digitaal Vlaanderen Gebouwenregister","source_id":"gebouw/Gebouw.16474194/0","kind":"building","height_m":6.44,"status":null},"geometry":{"type":"Polygon","coordinates":[[[4.08063069,50.93446274],[4.08030839,50.93440213],[4.08029878,50.93442194],[4.08025942,50.93441454],[4.08015119,50.93439419],[4.08018031,50.93433237],[4.08024581,50.93434482],[4.08024751,50.93434162],[4.08025128,50.93434237],[4.08030159,50.93423862],[4.08029723,50.93423783],[4.08029838,50.93423512],[4.08030294,50.93423604],[4.08031872,50.93420355],[4.0803145,50.93420257],[4.08031569,50.9342002],[4.08031859,50.93420066],[4.08031888,50.93419934],[4.08032054,50.93419983],[4.08033325,50.93417367],[4.08029209,50.93416578],[4.08037239,50.93400023],[4.08041335,50.93400805],[4.08041754,50.93399945],[4.08041339,50.93399851],[4.08041457,50.9339962],[4.08041844,50.933997],[4.0804197,50.93399472],[4.08041983,50.93399475],[4.080423,50.93399548],[4.08042445,50.93399295],[4.08057013,50.93402035],[4.08055183,50.93405809],[4.08063031,50.93407285],[4.08053301,50.93427613],[4.08061674,50.93429188],[4.08065165,50.93429844],[4.08070548,50.93430856],[4.08063069,50.93446274]]]}},{"type":"Feature","id":"gebouw/Gebouw.16474429/0","properties":{"source":"Digitaal Vlaanderen Gebouwenregister","source_id":"gebouw/Gebouw.16474429/0","kind":"building","height_m":9.32,"status":null},"geometry":{"type":"Polygon","coordinates":[[[4.08077183,50.93114696],[4.08070067,50.93127299],[4.08069408,50.93127143],[4.08069755,50.93126538],[4.08060433,50.931245],[4.08060112,50.93125116],[4.08059445,50.9312496],[4.08059766,50.93124462],[4.08056882,50.93123844],[4.08061617,50.93115024],[4.08067416,50.93116267],[4.08068036,50.93115111],[4.0806152,50.93113714],[4.08062745,50.93111449],[4.08077183,50.93114696]]]}},{"type":"Feature","id":"gebouw/Gebouw.16481695/0","properties":{"source":"Digitaal Vlaanderen Gebouwenregister","source_id":"gebouw/Gebouw.16481695/0","kind":"building","height_m":9.32,"status":null},"geometry":{"type":"Polygon","coordinates":[[[4.08241558,50.93061998],[4.08241099,50.93062812],[4.08226334,50.93059489],[4.08230586,50.93051945],[4.08245351,50.93055268],[4.08244955,50.9305597],[4.08241558,50.93061998]]]}},{"type":"Feature","id":"gebouw/Gebouw.16482011/0","properties":{"source":"Digitaal Vlaanderen Gebouwenregister","source_id":"gebouw/Gebouw.16482011/0","kind":"building","height_m":5.0,"status":null},"geometry":{"type":"Polygon","coordinates":[[[4.08069286,50.93165541],[4.08067801,50.93168153],[4.08055495,50.93165358],[4.08056168,50.93164174],[4.08055196,50.93163953],[4.08059138,50.93156695],[4.08060747,50.93157045],[4.08062378,50.93154025],[4.08075479,50.93157],[4.0807047,50.93165809],[4.08069286,50.93165541]]]}},{"type":"Feature","id":"gebouw/Gebouw.16482200/0","properties":{"source":"Digitaal Vlaanderen Gebouwenregister","source_id":"gebouw/Gebouw.16482200/0","kind":"building","height_m":5.0,"status":null},"geometry":{"type":"Polygon","coordinates":[[[4.08170208,50.93064312],[4.08181164,50.93066743],[4.0818144,50.93066298],[4.08187543,50.93067637],[4.08183096,50.93075668],[4.08165999,50.93071887],[4.08170208,50.93064312]]]}},{"type":"Feature","id":"gebouw/Gebouw.16482227/0","properties":{"source":"Digitaal Vlaanderen Gebouwenregister","source_id":"gebouw/Gebouw.16482227/0","kind":"building","height_m":9.32,"status":null},"geometry":{"type":"Polygon","coordinates":[[[4.08029625,50.93000799],[4.08027725,50.93004555],[4.0802307,50.93003612],[4.08025349,50.92999827],[4.08029625,50.93000799]]]}},{"type":"Feature","id":"gebouw/Gebouw.16495023/0","properties":{"source":"Digitaal Vlaanderen Gebouwenregister","source_id":"gebouw/Gebouw.16495023/0","kind":"building","height_m":9.32,"status":null},"geometry":{"type":"Polygon","coordinates":[[[4.08253106,50.93060524],[4.08258478,50.93051347],[4.08263819,50.93052596],[4.08263269,50.93053534],[4.08273685,50.9305597],[4.08271863,50.93059082],[4.08273109,50.93059374],[4.0827048,50.93063865],[4.08266336,50.93062896],[4.08266082,50.9306333],[4.08265503,50.93063195],[4.08264799,50.93064396],[4.08264337,50.93064288],[4.08263882,50.93065065],[4.08262008,50.93064626],[4.0826151,50.93065062],[4.08260392,50.93067086],[4.08253091,50.93065475],[4.08254565,50.9306284],[4.08253484,50.93062607],[4.08254173,50.93061346],[4.08253106,50.93060524]]]}},{"type":"Feature","id":"gebouw/Gebouw.16495101/0","properties":{"source":"Digitaal Vlaanderen Gebouwenregister","source_id":"gebouw/Gebouw.16495101/0","kind":"building","height_m":5.0,"status":null},"geometry":{"type":"Polygon","coordinates":[[[4.08112483,50.9317637],[4.08112986,50.93175492],[4.0810682,50.93174081],[4.08111935,50.93165058],[4.08117567,50.93166333],[4.08116828,50.93167601],[4.0811954,50.93168179],[4.08119064,50.93169],[4.08125502,50.93170473],[4.08121007,50.9317832],[4.08112483,50.9317637]]]}},{"type":"Feature","id":"gebouw/Gebouw.16495106/0","properties":{"source":"Digitaal Vlaanderen Gebouwenregister","source_id":"gebouw/Gebouw.16495106/0","kind":"building","height_m":8.6,"status":null},"geometry":{"type":"Polygon","coordinates":[[[4.08234204,50.93038373],[4.08239699,50.93039564],[4.0823831,50.93042125],[4.08232815,50.93040934],[4.08234204,50.93038373]]]}},{"type":"Feature","id":"gebouw/Gebouw.16495190/0","properties":{"source":"Digitaal Vlaanderen Gebouwenregister","source_id":"gebouw/Gebouw.16495190/0","kind":"building","height_m":8.6,"status":null},"geometry":{"type":"Polygon","coordinates":[[[4.08035022,50.92889823],[4.08036397,50.92889197],[4.08039379,50.9288578],[4.08038017,50.9288522],[4.08045735,50.92877558],[4.08054262,50.92880777],[4.08054429,50.92881902],[4.08058105,50.92883287],[4.08051482,50.92890398],[4.08049665,50.92889786],[4.08046581,50.92893378],[4.08046287,50.92894189],[4.08037203,50.92895581],[4.08035022,50.92889823]]]}},{"type":"Feature","id":"gebouw/Gebouw.16510074/0","properties":{"source":"Digitaal Vlaanderen Gebouwenregister","source_id":"gebouw/Gebouw.16510074/0","kind":"building","height_m":5.0,"status":null},"geometry":{"type":"Polygon","coordinates":[[[4.0826333,50.93095123],[4.08244092,50.93090543],[4.08244416,50.93090031],[4.08245196,50.93090198],[4.08247656,50.93085977],[4.08246815,50.93085781],[4.08247078,50.9308526],[4.08247919,50.93085426],[4.08249915,50.93081852],[4.08262764,50.93084762],[4.08262415,50.93085309],[4.08261679,50.93085176],[4.08259501,50.93088979],[4.08265955,50.93090416],[4.0826333,50.93095123]]]}},{"type":"Feature","id":"gebouw/Gebouw.16510665/0","properties":{"source":"Digitaal Vlaanderen Gebouwenregister","source_id":"gebouw/Gebouw.16510665/0","kind":"building","height_m":7.16,"status":null},"geometry":{"type":"Polygon","coordinates":[[[4.08206262,50.93523777],[4.08204296,50.93527817],[4.08201618,50.93529999],[4.08197807,50.93529214],[4.08198597,50.93527685],[4.08195597,50.93527066],[4.08202408,50.93512417],[4.08210761,50.9351404],[4.08214583,50.93514782],[4.08215559,50.93514972],[4.08210843,50.93524666],[4.08206262,50.93523777]]]}},{"type":"Feature","id":"gebouw/Gebouw.16510799/0","properties":{"source":"Digitaal Vlaanderen Gebouwenregister","source_id":"gebouw/Gebouw.16510799/0","kind":"building","height_m":7.88,"status":null},"geometry":{"type":"Polygon","coordinates":[[[4.08162093,50.93142811],[4.08161456,50.93143915],[4.08151067,50.93141539],[4.08150258,50.93141354],[4.08145789,50.93148643],[4.0815614,50.93150952],[4.08155682,50.93151795],[4.08161367,50.93153065],[4.08166565,50.9314381],[4.08162093,50.93142811]]]}},{"type":"Feature","id":"gebouw/Gebouw.16513610/0","properties":{"source":"Digitaal Vlaanderen Gebouwenregister","source_id":"gebouw/Gebouw.16513610/0","kind":"building","height_m":5.72,"status":null},"geometry":{"type":"Polygon","coordinates":[[[4.0811113,50.93264714],[4.08097121,50.93259621],[4.0810769,50.93248092],[4.08121647,50.93253201],[4.08118886,50.93256228],[4.08116345,50.93255317],[4.08112589,50.93259441],[4.08115099,50.93260354],[4.0811113,50.93264714]]]}},{"type":"Feature","id":"gebouw/Gebouw.16513759/0","properties":{"source":"Digitaal Vlaanderen Gebouwenregister","source_id":"gebouw/Gebouw.16513759/0","kind":"building","height_m":7.16,"status":null},"geometry":{"type":"Polygon","coordinates":[[[4.08111602,50.93202642],[4.08125296,50.93207697],[4.08112351,50.93221682],[4.08104136,50.93218645],[4.08103233,50.93219612],[4.08096059,50.93216964],[4.08104602,50.93207723],[4.08106319,50.93208357],[4.08111602,50.93202642]]]}},{"type":"Feature","id":"gebouw/Gebouw.16518382/0","properties":{"source":"Digitaal Vlaanderen Gebouwenregister","source_id":"gebouw/Gebouw.16518382/0","kind":"building","height_m":9.32,"status":null},"geometry":{"type":"Polygon","coordinates":[[[4.08193031,50.93046238],[4.08188929,50.93045329],[4.08186021,50.9305057],[4.0817551,50.93048241],[4.08182106,50.93036356],[4.08184103,50.93035839],[4.08187751,50.93036701],[4.08188549,50.93037768],[4.08187664,50.93039364],[4.0819584,50.93041176],[4.08193031,50.93046238]]]}},{"type":"Feature","id":"gebouw/Gebouw.16518439/0","properties":{"source":"Digitaal Vlaanderen Gebouwenregister","source_id":"gebouw/Gebouw.16518439/0","kind":"building","height_m":5.0,"status":null},"geometry":{"type":"Polygon","coordinates":[[[4.08216654,50.93163643],[4.08221382,50.93155167],[4.08221722,50.93154556],[4.08205048,50.93150787],[4.08199059,50.93161365],[4.08206149,50.93162968],[4.08206524,50.93162379],[4.08216161,50.93164526],[4.08216654,50.93163643]]]}},{"type":"Feature","id":"gebouw/Gebouw.16523544/0","properties":{"source":"Digitaal Vlaanderen Gebouwenregister","source_id":"gebouw/Gebouw.16523544/0","kind":"building","height_m":6.44,"status":null},"geometry":{"type":"Polygon","coordinates":[[[4.08080135,50.93104826],[4.08085966,50.93106033],[4.08084662,50.93108466],[4.0807883,50.9310726],[4.08080135,50.93104826]]]}},{"type":"Feature","id":"gebouw/Gebouw.16523698/0","properties":{"source":"Digitaal Vlaanderen Gebouwenregister","source_id":"gebouw/Gebouw.16523698/0","kind":"building","height_m":6.44,"status":null},"geometry":{"type":"Polygon","coordinates":[[[4.08038314,50.93323357],[4.08052068,50.93328423],[4.08044191,50.93336962],[4.08042758,50.93336426],[4.0804051,50.93338823],[4.08029485,50.93334693],[4.08031261,50.93332767],[4.08030047,50.9333232],[4.08038314,50.93323357]]]}},{"type":"Feature","id":"gebouw/Gebouw.16523718/0","properties":{"source":"Digitaal Vlaanderen Gebouwenregister","source_id":"gebouw/Gebouw.16523718/0","kind":"building","height_m":5.72,"status":null},"geometry":{"type":"Polygon","coordinates":[[[4.08126595,50.93077284],[4.08124388,50.93081276],[4.08130566,50.93082696],[4.08132498,50.93078476],[4.08126595,50.93077284]]]}},{"type":"Feature","id":"gebouw/Gebouw.16523721/0","properties":{"source":"Digitaal Vlaanderen Gebouwenregister","source_id":"gebouw/Gebouw.16523721/0","kind":"building","height_m":7.88,"status":null},"geometry":{"type":"Polygon","coordinates":[[[4.08126721,50.93223762],[4.08134258,50.9321546],[4.08151047,50.93221735],[4.08143469,50.93229833],[4.08126721,50.93223762]]]}},{"type":"Feature","id":"gebouw/Gebouw.16525277/0","properties":{"source":"Digitaal Vlaanderen Gebouwenregister","source_id":"gebouw/Gebouw.16525277/0","kind":"building","height_m":9.32,"status":null},"geometry":{"type":"Polygon","coordinates":[[[4.09082073,50.93419149],[4.09085861,50.93418234],[4.0908634,50.93419025],[4.09093729,50.93417241],[4.09096264,50.93421431],[4.09094455,50.93421868],[4.09095792,50.93424077],[4.09089273,50.93425652],[4.09087937,50.93423443],[4.09085086,50.93424131],[4.09082073,50.93419149]]]}},{"type":"Feature","id":"gebouw/Gebouw.16525893/0","properties":{"source":"Digitaal Vlaanderen Gebouwenregister","source_id":"gebouw/Gebouw.16525893/0","kind":"building","height_m":9.32,"status":null},"geometry":{"type":"Polygon","coordinates":[[[4.08072911,50.93287361],[4.08084534,50.93291724],[4.08079806,50.93296753],[4.0807933,50.93296571],[4.08077001,50.93299032],[4.08078725,50.93299685],[4.08076015,50.93302547],[4.08063142,50.93297678],[4.08066055,50.93294602],[4.08065548,50.93293424],[4.08066516,50.93292315],[4.08068529,50.93292022],[4.08072911,50.93287361]]]}},{"type":"Feature","id":"gebouw/Gebouw.16525903/0","properties":{"source":"Digitaal Vlaanderen Gebouwenregister","source_id":"gebouw/Gebouw.16525903/0","kind":"building","height_m":6.44,"status":null},"geometry":{"type":"Polygon","coordinates":[[[4.08146297,50.9319175],[4.08146282,50.93194379],[4.08141427,50.93194442],[4.0814151,50.93191757],[4.08146297,50.9319175]]]}},{"type":"Feature","id":"gebouw/Gebouw.16528160/0","properties":{"source":"Digitaal Vlaanderen Gebouwenregister","source_id":"gebouw/Gebouw.16528160/0","kind":"building","height_m":8.6,"status":null},"geometry":{"type":"Polygon","coordinates":[[[4.08510199,50.93473224],[4.08508782,50.93469418],[4.08500056,50.93446026],[4.08448963,50.9345354],[4.08448844,50.93453558],[4.08464557,50.93495699],[4.08478903,50.9349358],[4.08480489,50.93497868],[4.08502967,50.93494548],[4.08501082,50.93489452],[4.0851545,50.9348733],[4.08510199,50.93473224]]]}},{"type":"Feature","id":"gebouw/Gebouw.16528465/0","properties":{"source":"Digitaal Vlaanderen Gebouwenregister","source_id":"gebouw/Gebouw.16528465/0","kind":"building","height_m":6.44,"status":null},"geometry":{"type":"Polygon","coordinates":[[[4.08039331,50.93149021],[4.08049981,50.93151388],[4.08044307,50.93161579],[4.08039071,50.93160442],[4.0803953,50.93159598],[4.08034139,50.93158427],[4.08039331,50.93149021]]]}},{"type":"Feature","id":"gebouw/Gebouw.16528500/0","properties":{"source":"Digitaal Vlaanderen Gebouwenregister","source_id":"gebouw/Gebouw.16528500/0","kind":"building","height_m":6.44,"status":null},"geometry":{"type":"Polygon","coordinates":[[[4.08171483,50.93096864],[4.08167695,50.9310372],[4.081511,50.93100058],[4.08155345,50.93091907],[4.08167872,50.93094736],[4.08167202,50.93095921],[4.08171483,50.93096864]]]}},{"type":"Feature","id":"gebouw/Gebouw.16528741/0","properties":{"source":"Digitaal Vlaanderen Gebouwenregister","source_id":"gebouw/Gebouw.16528741/0","kind":"building","height_m":8.6,"status":null},"geometry":{"type":"Polygon","coordinates":[[[4.08055496,50.93105067],[4.08059482,50.93105935],[4.08056624,50.9311162],[4.08053798,50.93111048],[4.08055721,50.9310776],[4.08054136,50.93107404],[4.08055496,50.93105067]]]}},{"type":"Feature","id":"gebouw/Gebouw.16532389/0","properties":{"source":"Digitaal Vlaanderen Gebouwenregister","source_id":"gebouw/Gebouw.16532389/0","kind":"building","height_m":9.32,"status":null},"geometry":{"type":"Polygon","coordinates":[[[4.08068514,50.93032895],[4.08074205,50.93022733],[4.08088841,50.93025981],[4.08082726,50.93036985],[4.08077672,50.93035863],[4.08078148,50.9303505],[4.08068514,50.93032895]]]}},{"type":"Feature","id":"gebouw/Gebouw.16532720/0","properties":{"source":"Digitaal Vlaanderen Gebouwenregister","source_id":"gebouw/Gebouw.16532720/0","kind":"building","height_m":5.72,"status":null},"geometry":{"type":"Polygon","coordinates":[[[4.08188832,50.93269836],[4.08161952,50.93263837],[4.08165804,50.93257003],[4.0818703,50.93261749],[4.08183204,50.93268335],[4.0818897,50.93269581],[4.08188832,50.93269836]]]}},{"type":"Feature","id":"gebouw/Gebouw.16534843/0","properties":{"source":"Digitaal Vlaanderen Gebouwenregister","source_id":"gebouw/Gebouw.16534843/0","kind":"building","height_m":7.16,"status":null},"geometry":{"type":"Polygon","coordinates":[[[4.0804914,50.93292132],[4.08046971,50.9329488],[4.0804318,50.93293683],[4.08045348,50.93290936],[4.0804914,50.93292132]]]}},{"type":"Feature","id":"gebouw/Gebouw.16534927/0","properties":{"source":"Digitaal Vlaanderen Gebouwenregister","source_id":"gebouw/Gebouw.16534927/0","kind":"building","height_m":7.16,"status":null},"geometry":{"type":"Polygon","coordinates":[[[4.08123109,50.93086742],[4.08127262,50.93087662],[4.08123019,50.93095304],[4.08118866,50.93094383],[4.08123109,50.93086742]]]}},{"type":"Feature","id":"gebouw/Gebouw.16537139/0","properties":{"source":"Digitaal Vlaanderen Gebouwenregister","source_id":"gebouw/Gebouw.16537139/0","kind":"building","height_m":7.16,"status":null},"geometry":{"type":"Polygon","coordinates":[[[4.08181067,50.93025767],[4.08179214,50.93029118],[4.08174686,50.93028055],[4.08176641,50.93024726],[4.08181067,50.93025767]]]}},{"type":"Feature","id":"gebouw/Gebouw.16537289/0","properties":{"source":"Digitaal Vlaanderen Gebouwenregister","source_id":"gebouw/Gebouw.16537289/0","kind":"building","height_m":9.32,"status":null},"geometry":{"type":"Polygon","coordinates":[[[4.08048681,50.93301644],[4.0805998,50.9330582],[4.0805418,50.93312086],[4.08063842,50.93315657],[4.08059062,50.93320821],[4.08038009,50.9331304],[4.0804525,50.93305217],[4.08043224,50.93304469],[4.08045739,50.93301752],[4.08047857,50.93302535],[4.08048681,50.93301644]]]}},{"type":"Feature","id":"gebouw/Gebouw.16537303/0","properties":{"source":"Digitaal Vlaanderen Gebouwenregister","source_id":"gebouw/Gebouw.16537303/0","kind":"building","height_m":9.32,"status":null},"geometry":{"type":"Polygon","coordinates":[[[4.08324504,50.93438702],[4.08316048,50.9343713],[4.08316804,50.93435505],[4.0832526,50.93437077],[4.08324504,50.93438702]]]}},{"type":"Feature","id":"gebouw/Gebouw.16537448/0","properties":{"source":"Digitaal Vlaanderen Gebouwenregister","source_id":"gebouw/Gebouw.16537448/0","kind":"building","height_m":7.88,"status":null},"geometry":{"type":"Polygon","coordinates":[[[4.08150105,50.93042764],[4.08157187,50.93029603],[4.08172008,50.93032788],[4.08164927,50.93045949],[4.08150105,50.93042764]]]}},{"type":"Feature","id":"gebouw/Gebouw.16537618/0","properties":{"source":"Digitaal Vlaanderen Gebouwenregister","source_id":"gebouw/Gebouw.16537618/0","kind":"building","height_m":9.32,"status":null},"geometry":{"type":"Polygon","coordinates":[[[4.08214077,50.9350063],[4.08207982,50.9350741],[4.08207604,50.93507275],[4.08205469,50.9350651],[4.0821158,50.93499735],[4.08214077,50.9350063]]]}},{"type":"Feature","id":"gebouw/Gebouw.16537698/0","properties":{"source":"Digitaal Vlaanderen Gebouwenregister","source_id":"gebouw/Gebouw.16537698/0","kind":"building","height_m":6.44,"status":null},"geometry":{"type":"Polygon","coordinates":[[[4.08076205,50.93182245],[4.08080862,50.9318384],[4.08077503,50.93187754],[4.08072846,50.93186158],[4.08076205,50.93182245]]]}},{"type":"Feature","id":"gebouw/Gebouw.16537797/0","properties":{"source":"Digitaal Vlaanderen Gebouwenregister","source_id":"gebouw/Gebouw.16537797/0","kind":"building","height_m":7.16,"status":null},"geometry":{"type":"Polygon","coordinates":[[[4.08216227,50.93498775],[4.08213387,50.93497758],[4.08217533,50.93493135],[4.08220297,50.93494125],[4.08217691,50.93497031],[4.08220633,50.93498091],[4.08217402,50.9350168],[4.08214538,50.93500658],[4.08216227,50.93498775]]]}},{"type":"Feature","id":"gebouw/Gebouw.16539947/0","properties":{"source":"Digitaal Vlaanderen Gebouwenregister","source_id":"gebouw/Gebouw.16539947/0","kind":"building","height_m":7.88,"status":null},"geometry":{"type":"Polygon","coordinates":[[[4.08693914,50.93432157],[4.08695233,50.93424962],[4.0869533,50.93424859],[4.08700029,50.93425206],[4.08698676,50.93432505],[4.08693914,50.93432157]]]}},{"type":"Feature","id":"gebouw/Gebouw.16540175/0","properties":{"source":"Digitaal Vlaanderen Gebouwenregister","source_id":"gebouw/Gebouw.16540175/0","kind":"building","height_m":5.72,"status":null},"geometry":{"type":"Polygon","coordinates":[[[4.08681141,50.93444969],[4.08681843,50.93442331],[4.08673307,50.93441424],[4.08672605,50.93444062],[4.08671644,50.9344396],[4.08667278,50.93460361],[4.08676167,50.93461306],[4.08675487,50.93463861],[4.08683459,50.93464708],[4.08686966,50.93451536],[4.0868837,50.93451685],[4.08688927,50.93447715],[4.08686629,50.93447471],[4.08687126,50.93445605],[4.08681141,50.93444969]]]}},{"type":"Feature","id":"gebouw/Gebouw.16544555/0","properties":{"source":"Digitaal Vlaanderen Gebouwenregister","source_id":"gebouw/Gebouw.16544555/0","kind":"building","height_m":9.32,"status":null},"geometry":{"type":"Polygon","coordinates":[[[4.08137422,50.93139562],[4.0813337,50.93146855],[4.08118449,50.93143629],[4.08122172,50.93136802],[4.08125805,50.93137606],[4.08126081,50.9313705],[4.08130963,50.93138131],[4.08137422,50.93139562]]]}},{"type":"Feature","id":"gebouw/Gebouw.16544556/0","properties":{"source":"Digitaal Vlaanderen Gebouwenregister","source_id":"gebouw/Gebouw.16544556/0","kind":"building","height_m":5.0,"status":null},"geometry":{"type":"Polygon","coordinates":[[[4.08092157,50.93123567],[4.08098626,50.93125015],[4.08091515,50.93137703],[4.08078167,50.93134764],[4.08084625,50.93123054],[4.08091573,50.93124609],[4.08092157,50.93123567]]]}},{"type":"Feature","id":"gebouw/Gebouw.16544566/0","properties":{"source":"Digitaal Vlaanderen Gebouwenregister","source_id":"gebouw/Gebouw.16544566/0","kind":"building","height_m":7.16,"status":null},"geometry":{"type":"Polygon","coordinates":[[[4.09078905,50.93441185],[4.0907682,50.93436275],[4.09076107,50.93436403],[4.09075455,50.93434967],[4.09077049,50.93434646],[4.09077698,50.9343601],[4.09079738,50.93435692],[4.09082094,50.93440521],[4.09078905,50.93441185]]]}},{"type":"Feature","id":"gebouw/Gebouw.16544975/0","properties":{"source":"Digitaal Vlaanderen Gebouwenregister","source_id":"gebouw/Gebouw.16544975/0","kind":"building","height_m":9.32,"status":null},"geometry":{"type":"Polygon","coordinates":[[[4.08246244,50.93128998],[4.08249543,50.93128806],[4.08249976,50.93127663],[4.08251441,50.93126918],[4.08253623,50.93127266],[4.08249427,50.93132386],[4.0824315,50.93130978],[4.08240955,50.93130486],[4.08242553,50.93128141],[4.08246244,50.93128998]]]}},{"type":"Feature","id":"gebouw/Gebouw.16545181/0","properties":{"source":"Digitaal Vlaanderen Gebouwenregister","source_id":"gebouw/Gebouw.16545181/0","kind":"building","height_m":6.44,"status":null},"geometry":{"type":"Polygon","coordinates":[[[4.08130552,50.93026081],[4.08131832,50.93026372],[4.08132937,50.93024432],[4.0814625,50.9302746],[4.08141835,50.93035212],[4.08135301,50.93033725],[4.08131476,50.93040537],[4.08130844,50.93040395],[4.08131824,50.93038724],[4.08124322,50.93037018],[4.08130552,50.93026081]]]}},{"type":"Feature","id":"gebouw/Gebouw.16546210/0","properties":{"source":"Digitaal Vlaanderen Gebouwenregister","source_id":"gebouw/Gebouw.16546210/0","kind":"building","height_m":6.44,"status":null},"geometry":{"type":"Polygon","coordinates":[[[4.08279231,50.9309861],[4.08276584,50.93101107],[4.08272048,50.93100088],[4.08271028,50.93098491],[4.08275009,50.93097392],[4.08276685,50.93093894],[4.08281087,50.93094737],[4.08279231,50.9309861]]]}},{"type":"Feature","id":"gebouw/Gebouw.16547106/0","properties":{"source":"Digitaal Vlaanderen Gebouwenregister","source_id":"gebouw/Gebouw.16547106/0","kind":"building","height_m":6.44,"status":null},"geometry":{"type":"Polygon","coordinates":[[[4.08249427,50.93132386],[4.08248091,50.93134736],[4.08242027,50.93133487],[4.0824315,50.93130978],[4.08249427,50.93132386]]]}},{"type":"Feature","id":"gebouw/Gebouw.16548359/0","properties":{"source":"Digitaal Vlaanderen Gebouwenregister","source_id":"gebouw/Gebouw.16548359/0","kind":"building","height_m":6.44,"status":null},"geometry":{"type":"Polygon","coordinates":[[[4.08179866,50.9308167],[4.08175436,50.93089701],[4.08158325,50.93085932],[4.08162755,50.93077901],[4.08179866,50.9308167]]]}},{"type":"Feature","id":"gebouw/Gebouw.16548794/0","properties":{"source":"Digitaal Vlaanderen Gebouwenregister","source_id":"gebouw/Gebouw.16548794/0","kind":"building","height_m":7.16,"status":null},"geometry":{"type":"Polygon","coordinates":[[[4.08043887,50.93028385],[4.08050082,50.93017445],[4.08063459,50.93020496],[4.08057663,50.93030643],[4.08052604,50.93029489],[4.08052585,50.93029533],[4.08052561,50.93029575],[4.08052533,50.93029617],[4.08052501,50.93029657],[4.08052465,50.93029696],[4.08052425,50.93029734],[4.08052381,50.93029769],[4.08052334,50.93029803],[4.08052284,50.93029835],[4.0805223,50.93029865],[4.08052173,50.93029893],[4.08052114,50.93029918],[4.08052053,50.93029941],[4.08051989,50.93029962],[4.08051923,50.9302998],[4.08051856,50.93029995],[4.08051787,50.93030007],[4.08051717,50.93030017],[4.08051646,50.93030023],[4.08051575,50.93030027],[4.08051503,50.93030028],[4.08051432,50.93030027],[4.08051361,50.93030022],[4.0805129,50.93030014],[4.08051221,50.93030004],[4.08051152,50.93029991],[4.08051085,50.93029975],[4.0805102,50.93029956],[4.08050957,50.93029935],[4.08050896,50.93029912],[4.08050837,50.93029886],[4.08050782,50.93029857],[4.08050729,50.93029827],[4.08050679,50.93029794],[4.08050633,50.9302976],[4.0805059,50.93029724],[4.08050551,50.93029686],[4.08050516,50.93029646],[4.08050485,50.93029606],[4.08050459,50.93029564],[4.08050436,50.93029521],[4.08050418,50.93029477],[4.08050404,50.93029433],[4.08050395,50.93029388],[4.0805039,50.93029343],[4.0805039,50.93029298],[4.08050394,50.93029252],[4.08050403,50.93029208],[4.08050416,50.93029163],[4.08050434,50.93029119],[4.08050456,50.93029077],[4.08050479,50.9302904],[4.08047101,50.93028276],[4.080467,50.93029021],[4.08043887,50.93028385]]]}},{"type":"Feature","id":"gebouw/Gebouw.16550341/0","properties":{"source":"Digitaal Vlaanderen Gebouwenregister","source_id":"gebouw/Gebouw.16550341/0","kind":"building","height_m":7.16,"status":null},"geometry":{"type":"Polygon","coordinates":[[[4.08087016,50.93159522],[4.08082966,50.93166887],[4.08084126,50.93167142],[4.08089058,50.93168225],[4.08089531,50.93168329],[4.08095598,50.93169661],[4.08096388,50.93169834],[4.08100438,50.93162469],[4.08087016,50.93159522]]]}},{"type":"Feature","id":"gebouw/Gebouw.16550607/0","properties":{"source":"Digitaal Vlaanderen Gebouwenregister","source_id":"gebouw/Gebouw.16550607/0","kind":"building","height_m":7.16,"status":null},"geometry":{"type":"Polygon","coordinates":[[[4.08040793,50.9326439],[4.08035412,50.9327016],[4.0802226,50.93265262],[4.08026553,50.93260659],[4.08028392,50.93261369],[4.0802929,50.93260422],[4.08030311,50.93259345],[4.0803431,50.93255127],[4.08045465,50.9325935],[4.08044763,50.93260103],[4.08047858,50.93261255],[4.08043867,50.93265534],[4.08040793,50.9326439]]]}},{"type":"Feature","id":"gebouw/Gebouw.16550690/0","properties":{"source":"Digitaal Vlaanderen Gebouwenregister","source_id":"gebouw/Gebouw.16550690/0","kind":"building","height_m":6.44,"status":null},"geometry":{"type":"Polygon","coordinates":[[[4.08231719,50.93113002],[4.08246929,50.93116401],[4.08241244,50.93126561],[4.08226034,50.93123162],[4.08231719,50.93113002]]]}},{"type":"Feature","id":"gebouw/Gebouw.16553401/0","properties":{"source":"Digitaal Vlaanderen Gebouwenregister","source_id":"gebouw/Gebouw.16553401/0","kind":"building","height_m":7.88,"status":null},"geometry":{"type":"Polygon","coordinates":[[[4.08263284,50.93066392],[4.08267828,50.93063868],[4.08268944,50.9306467],[4.0826853,50.930649],[4.08269359,50.93065496],[4.08267648,50.93068922],[4.0826711,50.93068535],[4.08266633,50.930688],[4.08263284,50.93066392]]]}},{"type":"Feature","id":"gebouw/Gebouw.16553439/0","properties":{"source":"Digitaal Vlaanderen Gebouwenregister","source_id":"gebouw/Gebouw.16553439/0","kind":"building","height_m":5.0,"status":null},"geometry":{"type":"Polygon","coordinates":[[[4.08082366,50.9309122],[4.0810274,50.93095799],[4.08097944,50.93104321],[4.0807757,50.93099742],[4.08082366,50.9309122]]]}},{"type":"Feature","id":"gebouw/Gebouw.16553664/0","properties":{"source":"Digitaal Vlaanderen Gebouwenregister","source_id":"gebouw/Gebouw.16553664/0","kind":"building","height_m":5.72,"status":null},"geometry":{"type":"Polygon","coordinates":[[[4.08224996,50.93130629],[4.08237826,50.93133463],[4.08232115,50.93143722],[4.08224967,50.93142133],[4.08217127,50.9314039],[4.08216572,50.93140266],[4.08218973,50.93135952],[4.08221727,50.93136539],[4.08224996,50.93130629]]]}},{"type":"Feature","id":"gebouw/Gebouw.16553709/0","properties":{"source":"Digitaal Vlaanderen Gebouwenregister","source_id":"gebouw/Gebouw.16553709/0","kind":"building","height_m":7.88,"status":null},"geometry":{"type":"Polygon","coordinates":[[[4.08069335,50.93180953],[4.08073545,50.93182497],[4.08070206,50.93186129],[4.08065996,50.93184584],[4.08069335,50.93180953]]]}},{"type":"Feature","id":"gebouw/Gebouw.16557646/0","properties":{"source":"Digitaal Vlaanderen Gebouwenregister","source_id":"gebouw/Gebouw.16557646/0","kind":"building","height_m":5.0,"status":null},"geometry":{"type":"Polygon","coordinates":[[[4.08198514,50.93146875],[4.08198047,50.93147791],[4.08195814,50.93147337],[4.08193237,50.93152425],[4.08192056,50.93152203],[4.08188298,50.93159012],[4.08173523,50.93155755],[4.08180598,50.93143025],[4.081963,50.93146483],[4.08197174,50.93144701],[4.08200552,50.93145388],[4.08199674,50.93147111],[4.08198514,50.93146875]]]}},{"type":"Feature","id":"gebouw/Gebouw.16558068/0","properties":{"source":"Digitaal Vlaanderen Gebouwenregister","source_id":"gebouw/Gebouw.16558068/0","kind":"building","height_m":6.44,"status":null},"geometry":{"type":"Polygon","coordinates":[[[4.0827835,50.93071024],[4.08283791,50.9306117],[4.08299196,50.93064568],[4.0829405,50.93073922],[4.08287848,50.93072559],[4.08288124,50.93072043],[4.08285202,50.93071417],[4.08284602,50.93072403],[4.0827835,50.93071024]]]}},{"type":"Feature","id":"gebouw/Gebouw.16561405/0","properties":{"source":"Digitaal Vlaanderen Gebouwenregister","source_id":"gebouw/Gebouw.16561405/0","kind":"building","height_m":5.0,"status":null},"geometry":{"type":"Polygon","coordinates":[[[4.08164306,50.93109676],[4.08159963,50.93117567],[4.08145857,50.93114438],[4.08148098,50.93110403],[4.08150221,50.93106581],[4.08164306,50.93109676]]]}},{"type":"Feature","id":"gebouw/Gebouw.16561464/0","properties":{"source":"Digitaal Vlaanderen Gebouwenregister","source_id":"gebouw/Gebouw.16561464/0","kind":"building","height_m":7.16,"status":null},"geometry":{"type":"Polygon","coordinates":[[[4.08043841,50.93198876],[4.08049834,50.93192713],[4.08061364,50.93197191],[4.08048501,50.93210338],[4.08042206,50.93207878],[4.08041049,50.93209116],[4.08032086,50.93205635],[4.08040079,50.93197416],[4.08043841,50.93198876]]]}},{"type":"Feature","id":"gebouw/Gebouw.16568006/0","properties":{"source":"Digitaal Vlaanderen Gebouwenregister","source_id":"gebouw/Gebouw.16568006/0","kind":"building","height_m":5.0,"status":null},"geometry":{"type":"Polygon","coordinates":[[[4.08169103,50.93182973],[4.0817173,50.93178235],[4.08182479,50.93180614],[4.08180063,50.93185],[4.08182601,50.93185602],[4.08177436,50.93194486],[4.08165138,50.93191631],[4.08169846,50.93183137],[4.08169103,50.93182973]]]}},{"type":"Feature","id":"gebouw/Gebouw.16568056/0","properties":{"source":"Digitaal Vlaanderen Gebouwenregister","source_id":"gebouw/Gebouw.16568056/0","kind":"building","height_m":5.72,"status":null},"geometry":{"type":"Polygon","coordinates":[[[4.0809861,50.93031736],[4.08105406,50.93019327],[4.08120196,50.93022561],[4.081134,50.93034971],[4.0809861,50.93031736]]]}},{"type":"Feature","id":"gebouw/Gebouw.16572315/0","properties":{"source":"Digitaal Vlaanderen Gebouwenregister","source_id":"gebouw/Gebouw.16572315/0","kind":"building","height_m":7.88,"status":null},"geometry":{"type":"Polygon","coordinates":[[[4.08146046,50.93071921],[4.08148051,50.9307391],[4.08142457,50.9307604],[4.08140761,50.93074187],[4.08146046,50.93071921]]]}},{"type":"Feature","id":"gebouw/Gebouw.16572412/0","properties":{"source":"Digitaal Vlaanderen Gebouwenregister","source_id":"gebouw/Gebouw.16572412/0","kind":"building","height_m":7.16,"status":null},"geometry":{"type":"Polygon","coordinates":[[[4.08105262,50.93071242],[4.08094775,50.93068945],[4.08097708,50.93063596],[4.08117408,50.93067909],[4.08112746,50.93076413],[4.08103533,50.93074396],[4.08105262,50.93071242]]]}},{"type":"Feature","id":"gebouw/Gebouw.16572731/0","properties":{"source":"Digitaal Vlaanderen Gebouwenregister","source_id":"gebouw/Gebouw.16572731/0","kind":"building","height_m":5.0,"status":null},"geometry":{"type":"Polygon","coordinates":[[[4.08265287,50.93223345],[4.08264878,50.93224053],[4.08264797,50.93224193],[4.08264372,50.93224928],[4.08258486,50.93223578],[4.08255606,50.93222918],[4.08252343,50.9322217],[4.08252679,50.93221577],[4.08252747,50.93221457],[4.08257061,50.93213842],[4.08252593,50.93212865],[4.08252548,50.93212855],[4.08253544,50.9321112],[4.08235314,50.93206981],[4.08242583,50.9319426],[4.08279193,50.93202703],[4.08271964,50.93215338],[4.08270152,50.9321492],[4.08265287,50.93223345]]]}},{"type":"Feature","id":"gebouw/Gebouw.16572748/0","properties":{"source":"Digitaal Vlaanderen Gebouwenregister","source_id":"gebouw/Gebouw.16572748/0","kind":"building","height_m":7.16,"status":null},"geometry":{"type":"Polygon","coordinates":[[[4.08097518,50.93332531],[4.0810182,50.93334116],[4.08099337,50.93336806],[4.08095036,50.93335222],[4.08097518,50.93332531]]]}},{"type":"Feature","id":"gebouw/Gebouw.16572811/0","properties":{"source":"Digitaal Vlaanderen Gebouwenregister","source_id":"gebouw/Gebouw.16572811/0","kind":"building","height_m":7.16,"status":null},"geometry":{"type":"Polygon","coordinates":[[[4.08048878,50.92860006],[4.08053055,50.92861569],[4.08046615,50.92868442],[4.08042444,50.92866872],[4.08048878,50.92860006]]]}},{"type":"Feature","id":"gebouw/Gebouw.16574857/0","properties":{"source":"Digitaal Vlaanderen Gebouwenregister","source_id":"gebouw/Gebouw.16574857/0","kind":"building","height_m":8.6,"status":null},"geometry":{"type":"Polygon","coordinates":[[[4.08036442,50.93095225],[4.08037369,50.93095382],[4.08035899,50.93098298],[4.08034797,50.93098029],[4.08034496,50.93098427],[4.08029411,50.93097273],[4.08031439,50.93093333],[4.08036784,50.93094511],[4.08036442,50.93095225]]]}},{"type":"Feature","id":"gebouw/Gebouw.16583794/0","properties":{"source":"Digitaal Vlaanderen Gebouwenregister","source_id":"gebouw/Gebouw.16583794/0","kind":"building","height_m":7.16,"status":null},"geometry":{"type":"Polygon","coordinates":[[[4.08039331,50.93149021],[4.08034139,50.93158427],[4.08029048,50.93157321],[4.08030022,50.9315553],[4.08024402,50.93154309],[4.08028551,50.9314668],[4.08039331,50.93149021]]]}},{"type":"Feature","id":"gebouw/Gebouw.16584335/0","properties":{"source":"Digitaal Vlaanderen Gebouwenregister","source_id":"gebouw/Gebouw.16584335/0","kind":"building","height_m":8.6,"status":null},"geometry":{"type":"Polygon","coordinates":[[[4.0832609,50.93197095],[4.08323773,50.93196559],[4.08346674,50.93162753],[4.08353969,50.93164762],[4.08332451,50.93196297],[4.08327534,50.93194945],[4.0832609,50.93197095]]]}},{"type":"Feature","id":"gebouw/Gebouw.16594885/0","properties":{"source":"Digitaal Vlaanderen Gebouwenregister","source_id":"gebouw/Gebouw.16594885/0","kind":"building","height_m":9.32,"status":null},"geometry":{"type":"Polygon","coordinates":[[[4.08032299,50.93012567],[4.08031814,50.93013475],[4.08038161,50.93014829],[4.08032392,50.93025295],[4.08020599,50.93022699],[4.08021076,50.93021947],[4.08018868,50.93021476],[4.08024515,50.93010906],[4.08032299,50.93012567]]]}},{"type":"Feature","id":"gebouw/Gebouw.16594889/0","properties":{"source":"Digitaal Vlaanderen Gebouwenregister","source_id":"gebouw/Gebouw.16594889/0","kind":"building","height_m":7.16,"status":null},"geometry":{"type":"Polygon","coordinates":[[[4.08051809,50.93111752],[4.08045943,50.93122088],[4.08037831,50.93120255],[4.08038403,50.93119185],[4.08031776,50.9311774],[4.08037017,50.93108399],[4.08051809,50.93111752]]]}},{"type":"Feature","id":"gebouw/Gebouw.16595025/0","properties":{"source":"Digitaal Vlaanderen Gebouwenregister","source_id":"gebouw/Gebouw.16595025/0","kind":"building","height_m":9.32,"status":null},"geometry":{"type":"Polygon","coordinates":[[[4.0811265,50.93109556],[4.08114711,50.93105178],[4.08118318,50.93105949],[4.08115958,50.93110247],[4.0811265,50.93109556]]]}},{"type":"Feature","id":"gebouw/Gebouw.16595306/0","properties":{"source":"Digitaal Vlaanderen Gebouwenregister","source_id":"gebouw/Gebouw.16595306/0","kind":"building","height_m":5.0,"status":null},"geometry":{"type":"Polygon","coordinates":[[[4.08092,50.93017104],[4.08095733,50.93015852],[4.0809849,50.93019137],[4.08094757,50.93020388],[4.08092,50.93017104]]]}},{"type":"Feature","id":"gebouw/Gebouw.16595626/0","properties":{"source":"Digitaal Vlaanderen Gebouwenregister","source_id":"gebouw/Gebouw.16595626/0","kind":"building","height_m":8.6,"status":null},"geometry":{"type":"Polygon","coordinates":[[[4.0812442,50.93108077],[4.0812605,50.93110798],[4.08121354,50.93111717],[4.08118864,50.93110928],[4.08119536,50.93109418],[4.0812442,50.93108077]]]}},{"type":"Feature","id":"gebouw/Gebouw.16601763/0","properties":{"source":"Digitaal Vlaanderen Gebouwenregister","source_id":"gebouw/Gebouw.16601763/0","kind":"building","height_m":7.16,"status":null},"geometry":{"type":"Polygon","coordinates":[[[4.08111101,50.93059757],[4.08100995,50.93057502],[4.0810491,50.93050495],[4.08113469,50.93052404],[4.08113805,50.93051803],[4.08122153,50.93053631],[4.08118395,50.93060485],[4.08111548,50.93058957],[4.08111101,50.93059757]]]}},{"type":"Feature","id":"gebouw/Gebouw.16602264/0","properties":{"source":"Digitaal Vlaanderen Gebouwenregister","source_id":"gebouw/Gebouw.16602264/0","kind":"building","height_m":5.0,"status":null},"geometry":{"type":"Polygon","coordinates":[[[4.08027353,50.93296379],[4.08021193,50.9329414],[4.08024126,50.93290675],[4.08030265,50.93292916],[4.08029604,50.932936],[4.08032128,50.93294493],[4.08029768,50.93297256],[4.08027353,50.93296379]]]}},{"type":"Feature","id":"gebouw/Gebouw.16602592/0","properties":{"source":"Digitaal Vlaanderen Gebouwenregister","source_id":"gebouw/Gebouw.16602592/0","kind":"building","height_m":9.32,"status":null},"geometry":{"type":"Polygon","coordinates":[[[4.08240318,50.93097346],[4.0825961,50.93101561],[4.08254614,50.93110504],[4.08236092,50.93106372],[4.08238264,50.93102485],[4.08238929,50.93102615],[4.08239561,50.93101518],[4.08238199,50.93101219],[4.08240318,50.93097346]]]}},{"type":"Feature","id":"gebouw/Gebouw.16608069/0","properties":{"source":"Digitaal Vlaanderen Gebouwenregister","source_id":"gebouw/Gebouw.16608069/0","kind":"building","height_m":6.44,"status":null},"geometry":{"type":"Polygon","coordinates":[[[4.08040753,50.93165757],[4.08037486,50.93171912],[4.08044007,50.93173294],[4.08047083,50.93167498],[4.0804583,50.93167226],[4.08045988,50.93166988],[4.08040753,50.93165757]]]}},{"type":"Feature","id":"gebouw/Gebouw.16608139/0","properties":{"source":"Digitaal Vlaanderen Gebouwenregister","source_id":"gebouw/Gebouw.16608139/0","kind":"building","height_m":6.44,"status":null},"geometry":{"type":"Polygon","coordinates":[[[4.08200994,50.93053883],[4.08206169,50.93044377],[4.08220928,50.93047586],[4.08215752,50.93057092],[4.08200994,50.93053883]]]}},{"type":"Feature","id":"gebouw/Gebouw.18114782/0","properties":{"source":"Digitaal Vlaanderen Gebouwenregister","source_id":"gebouw/Gebouw.18114782/0","kind":"building","height_m":5.0,"status":null},"geometry":{"type":"Polygon","coordinates":[[[4.08535079,50.93465199],[4.08522987,50.93432973],[4.08497228,50.93437118],[4.08495824,50.93433641],[4.08494117,50.93429413],[4.08489293,50.9343013],[4.0844269,50.93437052],[4.08445453,50.93444463],[4.08446956,50.93448495],[4.08448844,50.93453558],[4.08448963,50.9345354],[4.08500056,50.93446026],[4.08508782,50.93469418],[4.08510199,50.93473224],[4.08510784,50.93473137],[4.08514079,50.93472629],[4.08531374,50.93470051],[4.08529763,50.93466012],[4.08535079,50.93465199]]]}},{"type":"Feature","id":"gebouw/Gebouw.18730674/0","properties":{"source":"Digitaal Vlaanderen Gebouwenregister","source_id":"gebouw/Gebouw.18730674/0","kind":"building","height_m":7.88,"status":null},"geometry":{"type":"Polygon","coordinates":[[[4.09064851,50.93297986],[4.09072437,50.93285233],[4.09071321,50.93284893],[4.09075039,50.93278294],[4.09076215,50.93278636],[4.090838,50.93265614],[4.09103657,50.93270269],[4.09095862,50.93282843],[4.09097745,50.93283282],[4.09093724,50.93290355],[4.09091819,50.93289902],[4.09084602,50.93302613],[4.09064851,50.93297986]]]}},{"type":"Feature","id":"gebouw/Gebouw.20145669/0","properties":{"source":"Digitaal Vlaanderen Gebouwenregister","source_id":"gebouw/Gebouw.20145669/0","kind":"building","height_m":8.6,"status":null},"geometry":{"type":"Polygon","coordinates":[[[4.08119906,50.93018078],[4.08124766,50.93013109],[4.08129287,50.93014875],[4.08124427,50.93019844],[4.08119906,50.93018078]]]}},{"type":"Feature","id":"gebouw/Gebouw.20146232/0","properties":{"source":"Digitaal Vlaanderen Gebouwenregister","source_id":"gebouw/Gebouw.20146232/0","kind":"building","height_m":5.72,"status":null},"geometry":{"type":"Polygon","coordinates":[[[4.08039927,50.93020561],[4.08036188,50.93019723],[4.08038524,50.93015558],[4.08042263,50.93016395],[4.08039927,50.93020561]]]}},{"type":"Feature","id":"gebouw/Gebouw.20146239/0","properties":{"source":"Digitaal Vlaanderen Gebouwenregister","source_id":"gebouw/Gebouw.20146239/0","kind":"building","height_m":5.72,"status":null},"geometry":{"type":"Polygon","coordinates":[[[4.08213941,50.93482035],[4.08216295,50.93479428],[4.08220063,50.93480787],[4.08217708,50.93483393],[4.08213941,50.93482035]]]}},{"type":"Feature","id":"gebouw/Gebouw.20146240/0","properties":{"source":"Digitaal Vlaanderen Gebouwenregister","source_id":"gebouw/Gebouw.20146240/0","kind":"building","height_m":6.44,"status":null},"geometry":{"type":"Polygon","coordinates":[[[4.0812131,50.93129316],[4.08122242,50.93126856],[4.08122673,50.93126921],[4.08123034,50.93125971],[4.08127222,50.93126605],[4.08126834,50.93127629],[4.08127236,50.9312769],[4.08126332,50.93130076],[4.0812131,50.93129316]]]}},{"type":"Feature","id":"gebouw/Gebouw.20146241/0","properties":{"source":"Digitaal Vlaanderen Gebouwenregister","source_id":"gebouw/Gebouw.20146241/0","kind":"building","height_m":7.16,"status":null},"geometry":{"type":"Polygon","coordinates":[[[4.08219381,50.93151037],[4.08221085,50.93148019],[4.08232328,50.93150555],[4.08230625,50.93153572],[4.08219381,50.93151037]]]}},{"type":"Feature","id":"gebouw/Gebouw.20146242/0","properties":{"source":"Digitaal Vlaanderen Gebouwenregister","source_id":"gebouw/Gebouw.20146242/0","kind":"building","height_m":7.88,"status":null},"geometry":{"type":"Polygon","coordinates":[[[4.08103395,50.93012215],[4.08105837,50.93008098],[4.08110146,50.93009119],[4.08107705,50.93013236],[4.08103395,50.93012215]]]}},{"type":"Feature","id":"gebouw/Gebouw.20632032/0","properties":{"source":"Digitaal Vlaanderen Gebouwenregister","source_id":"gebouw/Gebouw.20632032/0","kind":"building","height_m":5.72,"status":null},"geometry":{"type":"Polygon","coordinates":[[[4.08264167,50.93230584],[4.08258801,50.93239919],[4.08255303,50.93239115],[4.08254568,50.93238946],[4.08250229,50.93237948],[4.08255582,50.93228635],[4.08255595,50.93228612],[4.082633,50.93230384],[4.08264167,50.93230584]]]}},{"type":"Feature","id":"gebouw/Gebouw.20980619/0","properties":{"source":"Digitaal Vlaanderen Gebouwenregister","source_id":"gebouw/Gebouw.20980619/0","kind":"building","height_m":6.44,"status":null},"geometry":{"type":"Polygon","coordinates":[[[4.08047957,50.93247693],[4.08044076,50.93246235],[4.08048383,50.93241595],[4.08057441,50.93244955],[4.08066809,50.9324843],[4.08060844,50.93254851],[4.08046346,50.93249405],[4.08047957,50.93247693]]]}},{"type":"Feature","id":"gebouw/Gebouw.30642798/0","properties":{"source":"Digitaal Vlaanderen Gebouwenregister","source_id":"gebouw/Gebouw.30642798/0","kind":"building","height_m":7.88,"status":null},"geometry":{"type":"Polygon","coordinates":[[[4.08061642,50.93258727],[4.08063837,50.93256346],[4.08069645,50.93258484],[4.08067451,50.93260864],[4.08061642,50.93258727]]]}},{"type":"Feature","id":"gebouw/Gebouw.31144871/0","properties":{"source":"Digitaal Vlaanderen Gebouwenregister","source_id":"gebouw/Gebouw.31144871/0","kind":"building","height_m":6.44,"status":null},"geometry":{"type":"Polygon","coordinates":[[[4.08085434,50.93406133],[4.08083971,50.93409366],[4.08082805,50.93409125],[4.08079839,50.93408511],[4.08081257,50.93405378],[4.08085434,50.93406133]]]}},{"type":"Feature","id":"gebouw/Gebouw.31144878/0","properties":{"source":"Digitaal Vlaanderen Gebouwenregister","source_id":"gebouw/Gebouw.31144878/0","kind":"building","height_m":6.44,"status":null},"geometry":{"type":"Polygon","coordinates":[[[4.08069695,50.93102602],[4.08067672,50.93106436],[4.080633,50.93105523],[4.08065324,50.93101688],[4.08069695,50.93102602]]]}},{"type":"Feature","id":"gebouw/Gebouw.31524544/0","properties":{"source":"Digitaal Vlaanderen Gebouwenregister","source_id":"gebouw/Gebouw.31524544/0","kind":"building","height_m":6.44,"status":null},"geometry":{"type":"Polygon","coordinates":[[[4.08202022,50.93203758],[4.08201575,50.93204482],[4.08200514,50.93206208],[4.0820072,50.93206259],[4.08204107,50.93207089],[4.08205602,50.9320463],[4.08202022,50.93203758]]]}},{"type":"Feature","id":"gebouw/Gebouw.31804629/0","properties":{"source":"Digitaal Vlaanderen Gebouwenregister","source_id":"gebouw/Gebouw.31804629/0","kind":"building","height_m":7.16,"status":null},"geometry":{"type":"Polygon","coordinates":[[[4.08150503,50.9340654],[4.08183437,50.93412803],[4.08184808,50.93409924],[4.08151874,50.93403661],[4.08150503,50.9340654]]]}},{"type":"Feature","id":"gebouw/Gebouw.31804989/0","properties":{"source":"Digitaal Vlaanderen Gebouwenregister","source_id":"gebouw/Gebouw.31804989/0","kind":"building","height_m":9.32,"status":null},"geometry":{"type":"Polygon","coordinates":[[[4.08025128,50.93000194],[4.0802307,50.93003612],[4.08018632,50.93010983],[4.0802298,50.9301205],[4.08027045,50.93005436],[4.08027783,50.93005617],[4.0803033,50.93001471],[4.08025128,50.93000194]]]}},{"type":"Feature","id":"gebouw/Gebouw.31805904/0","properties":{"source":"Digitaal Vlaanderen Gebouwenregister","source_id":"gebouw/Gebouw.31805904/0","kind":"building","height_m":7.88,"status":null},"geometry":{"type":"Polygon","coordinates":[[[4.08400352,50.9349376],[4.08416893,50.93491208],[4.08414828,50.93485863],[4.08425538,50.9348421],[4.08425947,50.93485269],[4.08432364,50.93484279],[4.08429967,50.93478076],[4.084124,50.93480787],[4.08412306,50.93480545],[4.08396205,50.93483029],[4.08400352,50.9349376]]]}},{"type":"Feature","id":"way/137293555","properties":{"source":"OpenStreetMap","source_id":"way/137293555","kind":"water","name":null,"waterway":null,"landuse":null},"geometry":{"type":"Polygon","coordinates":[[[4.0833122,50.9336407],[4.0832988,50.9336289],[4.0833122,50.9335883],[4.0833201,50.9335691],[4.0833143,50.9335353],[4.0833149,50.9334717],[4.0833417,50.933426],[4.083398,50.9334176],[4.083449,50.9334108],[4.083517,50.9334382],[4.0835559,50.9334475],[4.0835978,50.9334464],[4.0836796,50.9334193],[4.083736,50.9334074],[4.0837923,50.9334125],[4.0838186,50.9334297],[4.0838257,50.9334343],[4.0838647,50.9334598],[4.0839532,50.9334751],[4.0839774,50.9334751],[4.0840471,50.9335038],[4.0841007,50.9335646],[4.0840927,50.933639],[4.0840203,50.9336779],[4.0839184,50.9336864],[4.0838433,50.9336762],[4.0837494,50.933639],[4.0836904,50.9336407],[4.0835938,50.9336711],[4.0835133,50.9336728],[4.0834034,50.9336644],[4.0833122,50.9336407]]]}},{"type":"Feature","id":"way/137293560","properties":{"source":"OpenStreetMap","source_id":"way/137293560","kind":"water","name":null,"waterway":null,"landuse":null},"geometry":{"type":"Polygon","coordinates":[[[4.0824307,50.9332628],[4.08254,50.9332641],[4.0826098,50.9332776],[4.0826953,50.9333246],[4.0827194,50.9333381],[4.0827811,50.9333415],[4.0828213,50.9333162],[4.0828803,50.933257],[4.0829072,50.9332215],[4.0829436,50.9332101],[4.0829977,50.933198],[4.083044,50.9331843],[4.0830822,50.9331693],[4.0831014,50.9331467],[4.0831005,50.9331239],[4.0830788,50.9331099],[4.0830359,50.933088],[4.0828777,50.9331099],[4.0827838,50.9331049],[4.0826953,50.9330744],[4.0826309,50.9330744],[4.0825612,50.9331082],[4.082427,50.933137],[4.0823798,50.9331581],[4.0823707,50.9331945],[4.0823684,50.9332349],[4.0823913,50.9332521],[4.0824307,50.9332628]]]}},{"type":"Feature","id":"way/238884376","properties":{"source":"OpenStreetMap","source_id":"way/238884376","kind":"waterway","name":null,"waterway":"stream","landuse":null},"geometry":{"type":"LineString","coordinates":[[4.0815903,50.9294056],[4.0818994,50.9292221]]}},{"type":"Feature","id":"way/238884378","properties":{"source":"OpenStreetMap","source_id":"way/238884378","kind":"waterway","name":null,"waterway":"stream","landuse":null},"geometry":{"type":"LineString","coordinates":[[4.0835236,50.9305785],[4.083812,50.9302065]]}},{"type":"Feature","id":"way/238887536","properties":{"source":"OpenStreetMap","source_id":"way/238887536","kind":"waterway","name":null,"waterway":"stream","landuse":null},"geometry":{"type":"LineString","coordinates":[[4.0904952,50.9319722],[4.0903852,50.93194],[4.0895966,50.9317423],[4.0887759,50.9315326],[4.088277,50.9314042],[4.0874884,50.9311996],[4.0869573,50.9310661],[4.0862439,50.9308869],[4.085576,50.9307212],[4.0847365,50.9304879],[4.0846882,50.9304998],[4.084664,50.9305268],[4.0844595,50.93076],[4.0843926,50.930796]]}},{"type":"Feature","id":"way/238887547","properties":{"source":"OpenStreetMap","source_id":"way/238887547","kind":"waterway","name":null,"waterway":"stream","landuse":null},"geometry":{"type":"LineString","coordinates":[[4.084943,50.9317727],[4.0853051,50.9312047]]}},{"type":"Feature","id":"way/856204284","properties":{"source":"OpenStreetMap","source_id":"way/856204284","kind":"waterway","name":null,"waterway":"stream","landuse":null},"geometry":{"type":"LineString","coordinates":[[4.0806911,50.9300267],[4.0807319,50.9300213],[4.0808687,50.9299689],[4.0812308,50.9299774],[4.0813998,50.9300247],[4.0814856,50.9300754],[4.0815259,50.9301617],[4.0822501,50.9302986],[4.0825102,50.9303594],[4.0832264,50.9305082],[4.0835236,50.9305785],[4.0839398,50.9306756],[4.0841464,50.9307246],[4.0842027,50.9307408]]}},{"type":"Feature","id":"way/856204285","properties":{"source":"OpenStreetMap","source_id":"way/856204285","kind":"waterway","name":null,"waterway":"stream","landuse":null},"geometry":{"type":"LineString","coordinates":[[4.080593,50.9300396],[4.0806911,50.9300267]]}},{"type":"Feature","id":"way/856204286","properties":{"source":"OpenStreetMap","source_id":"way/856204286","kind":"waterway","name":null,"waterway":"stream","landuse":null},"geometry":{"type":"LineString","coordinates":[[4.0842134,50.9307442],[4.0843926,50.930796],[4.0844495,50.9308125],[4.0846506,50.9308919],[4.0849108,50.9310356],[4.0851254,50.9311202],[4.0853051,50.9312047],[4.0857423,50.9313957],[4.0860239,50.931536],[4.0864504,50.9317304],[4.086783,50.9318859],[4.0869707,50.9319367],[4.0874938,50.9320465]]}},{"type":"Feature","id":"way/856204287","properties":{"source":"OpenStreetMap","source_id":"way/856204287","kind":"waterway","name":null,"waterway":"stream","landuse":null},"geometry":{"type":"LineString","coordinates":[[4.0842027,50.9307408],[4.0842134,50.9307442]]}},{"type":"Feature","id":"way/856204288","properties":{"source":"OpenStreetMap","source_id":"way/856204288","kind":"waterway","name":null,"waterway":"stream","landuse":null},"geometry":{"type":"LineString","coordinates":[[4.0838329,50.9301834],[4.0838529,50.9301591],[4.0838576,50.9301297],[4.0837525,50.9300267],[4.0836894,50.9299663],[4.0836964,50.9299487],[4.0837478,50.9299266],[4.0838622,50.9299295],[4.0840047,50.9298957],[4.08407,50.9298633],[4.0840747,50.9298074],[4.084056,50.9297294],[4.0840584,50.929672],[4.0841191,50.9296602],[4.0842125,50.9296587],[4.0843666,50.9296587],[4.084509,50.9296264],[4.0847962,50.9295204],[4.0849924,50.929435],[4.0850517,50.9294022]]}},{"type":"Feature","id":"way/856204289","properties":{"source":"OpenStreetMap","source_id":"way/856204289","kind":"waterway","name":null,"waterway":"stream","landuse":null},"geometry":{"type":"LineString","coordinates":[[4.083812,50.9302065],[4.0838329,50.9301834]]}},{"type":"Feature","id":"way/856204290","properties":{"source":"OpenStreetMap","source_id":"way/856204290","kind":"waterway","name":null,"waterway":"stream","landuse":null},"geometry":{"type":"LineString","coordinates":[[4.0819144,50.9292115],[4.0819732,50.9291348],[4.0820016,50.9290962]]}},{"type":"Feature","id":"way/856204291","properties":{"source":"OpenStreetMap","source_id":"way/856204291","kind":"waterway","name":null,"waterway":"stream","landuse":null},"geometry":{"type":"LineString","coordinates":[[4.0818994,50.9292221],[4.0819144,50.9292115]]}},{"type":"Feature","id":"way/856204292","properties":{"source":"OpenStreetMap","source_id":"way/856204292","kind":"waterway","name":null,"waterway":"stream","landuse":null},"geometry":{"type":"LineString","coordinates":[[4.0820125,50.9290816],[4.0820316,50.929048],[4.0820363,50.9289832],[4.0819802,50.9287875]]}},{"type":"Feature","id":"way/856204293","properties":{"source":"OpenStreetMap","source_id":"way/856204293","kind":"waterway","name":null,"waterway":"stream","landuse":null},"geometry":{"type":"LineString","coordinates":[[4.0820016,50.9290962],[4.0820125,50.9290816]]}},{"type":"Feature","id":"way/856204294","properties":{"source":"OpenStreetMap","source_id":"way/856204294","kind":"waterway","name":null,"waterway":"stream","landuse":null},"geometry":{"type":"LineString","coordinates":[[4.0850999,50.9293659],[4.0852677,50.929138]]}},{"type":"Feature","id":"way/856204295","properties":{"source":"OpenStreetMap","source_id":"way/856204295","kind":"waterway","name":null,"waterway":"stream","landuse":null},"geometry":{"type":"LineString","coordinates":[[4.0850517,50.9294022],[4.0850999,50.9293659]]}},{"type":"Feature","id":"way/856204296","properties":{"source":"OpenStreetMap","source_id":"way/856204296","kind":"waterway","name":null,"waterway":"stream","landuse":null},"geometry":{"type":"LineString","coordinates":[[4.0852856,50.9291131],[4.0854668,50.9288534]]}},{"type":"Feature","id":"way/856204297","properties":{"source":"OpenStreetMap","source_id":"way/856204297","kind":"waterway","name":null,"waterway":"stream","landuse":null},"geometry":{"type":"LineString","coordinates":[[4.0852677,50.929138],[4.0852856,50.9291131]]}},{"type":"Feature","id":"way/856204298","properties":{"source":"OpenStreetMap","source_id":"way/856204298","kind":"waterway","name":null,"waterway":"stream","landuse":null},"geometry":{"type":"LineString","coordinates":[[4.0854878,50.9288265],[4.0855247,50.9287743],[4.0857746,50.9282694]]}},{"type":"Feature","id":"way/856204299","properties":{"source":"OpenStreetMap","source_id":"way/856204299","kind":"waterway","name":null,"waterway":"stream","landuse":null},"geometry":{"type":"LineString","coordinates":[[4.0854668,50.9288534],[4.0854878,50.9288265]]}},{"type":"Feature","id":"way/905830602","properties":{"source":"OpenStreetMap","source_id":"way/905830602","kind":"water","name":null,"waterway":null,"landuse":null},"geometry":{"type":"Polygon","coordinates":[[[4.084424,50.9325442],[4.0844629,50.9325637],[4.0844939,50.9325799],[4.0845293,50.9325782],[4.0845956,50.9325844],[4.0846434,50.9325972],[4.0846744,50.932615],[4.0846956,50.9326357],[4.0847133,50.9326552],[4.0847354,50.9326686],[4.0847717,50.9326803],[4.0848062,50.9326948],[4.0848274,50.9327104],[4.0848363,50.9327355],[4.0848398,50.9327544],[4.0848345,50.9327812],[4.0848265,50.9328024],[4.0848115,50.9328108],[4.084792,50.9328236],[4.0847735,50.9328281],[4.0847549,50.9328314],[4.0847142,50.9328325],[4.0846841,50.9328331],[4.0846575,50.932837],[4.0846186,50.9328504],[4.0845974,50.9328604],[4.0845859,50.9328649],[4.0845708,50.9328676],[4.0845363,50.9328688],[4.0845045,50.9328654],[4.0844717,50.9328582],[4.0844523,50.9328409],[4.0844443,50.9328219],[4.0844425,50.9327952],[4.0844479,50.9327756],[4.0844496,50.9327606],[4.0844479,50.9327427],[4.0844169,50.9327238],[4.084378,50.9326953],[4.0843594,50.9326781],[4.0843355,50.9326613],[4.0843151,50.9326452],[4.0842904,50.932624],[4.0842833,50.9325866],[4.0842992,50.9325671],[4.0843408,50.9325537],[4.0843903,50.9325492],[4.084424,50.9325442]]]}},{"type":"Feature","id":"way/905847500","properties":{"source":"OpenStreetMap","source_id":"way/905847500","kind":"water","name":null,"waterway":null,"landuse":null},"geometry":{"type":"Polygon","coordinates":[[[4.084573,50.9323267],[4.0850037,50.9324501],[4.0852593,50.9325263],[4.0853904,50.9325737],[4.0854717,50.9326076],[4.0855296,50.9326294],[4.0855937,50.9326409],[4.0856973,50.9326569],[4.085803,50.9326729],[4.0859534,50.9327139],[4.0861384,50.9327793],[4.086298,50.9328286],[4.0865978,50.9329093],[4.086792,50.9329586],[4.0870999,50.9330246],[4.0875481,50.9331098],[4.0878988,50.9331713],[4.0882596,50.9332302],[4.0885462,50.9332859],[4.0890625,50.9333711],[4.0898004,50.9335261],[4.090208,50.9336043],[4.0906074,50.9336626],[4.0905993,50.9336856],[4.0904997,50.9336722],[4.0902151,50.9336293],[4.0899264,50.9335703],[4.0894985,50.9334826],[4.0889172,50.9333698],[4.0883643,50.9332686],[4.0880414,50.9332117],[4.08791,50.9331886],[4.087548,50.9331286],[4.0873652,50.9330983],[4.086797,50.9329759],[4.0863447,50.9328587],[4.0862065,50.9328254],[4.0859169,50.9327396],[4.0858355,50.9327069],[4.0857959,50.9326954],[4.0857329,50.9326845],[4.0856211,50.9326723],[4.085553,50.9326569],[4.0854595,50.9326255],[4.0853599,50.9325833],[4.085194,50.9325585],[4.084962,50.9325153],[4.0847212,50.9324435],[4.0845334,50.9323828],[4.084573,50.9323267]]]}},{"type":"Feature","id":"way/907386751","properties":{"source":"OpenStreetMap","source_id":"way/907386751","kind":"water","name":null,"waterway":null,"landuse":null},"geometry":{"type":"Polygon","coordinates":[[[4.0874711,50.9341572],[4.0875169,50.9341604],[4.0875982,50.9341547],[4.0876561,50.9341489],[4.0877029,50.9341502],[4.0877384,50.9341624],[4.0877516,50.9341873],[4.0877506,50.9342149],[4.0877364,50.9342514],[4.0876947,50.9342738],[4.0876419,50.9342879],[4.0875707,50.934286],[4.0874976,50.9342828],[4.0874488,50.9342706],[4.0874284,50.9342648],[4.087404,50.9342578],[4.0873908,50.9342322],[4.0874051,50.9341937],[4.0874213,50.9341662],[4.0874711,50.9341572]]]}},{"type":"Feature","id":"way/1013568127","properties":{"source":"OpenStreetMap","source_id":"way/1013568127","kind":"vegetation","name":"Kluizenbos","waterway":null,"landuse":null},"geometry":{"type":"Polygon","coordinates":[[[4.0868961,50.9301306],[4.0852579,50.9297648],[4.0847793,50.9303197],[4.0918435,50.9321412],[4.0947774,50.932885],[4.0953899,50.9326819],[4.0954115,50.93259],[4.0954585,50.9324653],[4.0914037,50.9314708],[4.0868961,50.9301306]]]}}]}