{"type":"FeatureCollection","features":[{"type":"Feature","id":"gebouw/Gebouw.13485385/0","properties":{"source":"Digitaal Vlaanderen Gebouwenregister","source_id":"gebouw/Gebouw.13485385/0","kind":"building","height_m":7.88,"status":null},"geometry":{"type":"Polygon","coordinates":[[[4.08022735,50.9734809],[4.08025354,50.97345141],[4.08033037,50.9734786],[4.08030419,50.97350809],[4.08022735,50.9734809]]]}},{"type":"Feature","id":"gebouw/Gebouw.13485464/0","properties":{"source":"Digitaal Vlaanderen Gebouwenregister","source_id":"gebouw/Gebouw.13485464/0","kind":"building","height_m":9.32,"status":null},"geometry":{"type":"Polygon","coordinates":[[[4.08222833,50.97153108],[4.08219858,50.97155157],[4.08204473,50.9714688],[4.08204891,50.97146518],[4.08207648,50.97144127],[4.08222833,50.97153108]]]}},{"type":"Feature","id":"gebouw/Gebouw.13485817/0","properties":{"source":"Digitaal Vlaanderen Gebouwenregister","source_id":"gebouw/Gebouw.13485817/0","kind":"building","height_m":6.44,"status":null},"geometry":{"type":"Polygon","coordinates":[[[4.08029377,50.97208621],[4.08026418,50.97211851],[4.08021305,50.97210041],[4.08021616,50.97209695],[4.08019423,50.97208912],[4.08021161,50.97206859],[4.08023517,50.97207654],[4.08024183,50.97206868],[4.08029377,50.97208621]]]}},{"type":"Feature","id":"gebouw/Gebouw.13492940/0","properties":{"source":"Digitaal Vlaanderen Gebouwenregister","source_id":"gebouw/Gebouw.13492940/0","kind":"building","height_m":9.32,"status":null},"geometry":{"type":"Polygon","coordinates":[[[4.08270095,50.96929193],[4.08264377,50.96929798],[4.08262972,50.969245],[4.0826869,50.96923896],[4.08270095,50.96929193]]]}},{"type":"Feature","id":"gebouw/Gebouw.13492945/0","properties":{"source":"Digitaal Vlaanderen Gebouwenregister","source_id":"gebouw/Gebouw.13492945/0","kind":"building","height_m":7.88,"status":null},"geometry":{"type":"Polygon","coordinates":[[[4.08197666,50.9714132],[4.08197335,50.97141636],[4.08200204,50.97142906],[4.08199135,50.97143856],[4.08204519,50.97146346],[4.08204108,50.97146684],[4.08203418,50.9714725],[4.08203791,50.97147471],[4.082128,50.97152823],[4.08209084,50.97155179],[4.08201025,50.9714987],[4.08181499,50.97141566],[4.08186677,50.97136677],[4.08197666,50.9714132]]]}},{"type":"Feature","id":"gebouw/Gebouw.13493377/0","properties":{"source":"Digitaal Vlaanderen Gebouwenregister","source_id":"gebouw/Gebouw.13493377/0","kind":"building","height_m":6.44,"status":null},"geometry":{"type":"Polygon","coordinates":[[[4.09008285,50.96990701],[4.09025682,50.96997904],[4.09010027,50.97012979],[4.08992629,50.97005776],[4.09008285,50.96990701]]]}},{"type":"Feature","id":"gebouw/Gebouw.13493527/0","properties":{"source":"Digitaal Vlaanderen Gebouwenregister","source_id":"gebouw/Gebouw.13493527/0","kind":"building","height_m":8.6,"status":null},"geometry":{"type":"Polygon","coordinates":[[[4.09085272,50.97025939],[4.0908694,50.97022816],[4.09092006,50.97023891],[4.09090437,50.97027004],[4.09085272,50.97025939]]]}},{"type":"Feature","id":"gebouw/Gebouw.13493605/0","properties":{"source":"Digitaal Vlaanderen Gebouwenregister","source_id":"gebouw/Gebouw.13493605/0","kind":"building","height_m":9.32,"status":null},"geometry":{"type":"Polygon","coordinates":[[[4.08920406,50.97001361],[4.08917049,50.97004741],[4.08904502,50.96999772],[4.08907859,50.96996393],[4.08920406,50.97001361]]]}},{"type":"Feature","id":"gebouw/Gebouw.13494681/0","properties":{"source":"Digitaal Vlaanderen Gebouwenregister","source_id":"gebouw/Gebouw.13494681/0","kind":"building","height_m":7.88,"status":null},"geometry":{"type":"Polygon","coordinates":[[[4.08667342,50.96944398],[4.08660287,50.96950128],[4.08657803,50.96948989],[4.08663264,50.96944712],[4.08664161,50.96945119],[4.08665946,50.96943729],[4.08667342,50.96944398]]]}},{"type":"Feature","id":"gebouw/Gebouw.13494928/0","properties":{"source":"Digitaal Vlaanderen Gebouwenregister","source_id":"gebouw/Gebouw.13494928/0","kind":"building","height_m":9.32,"status":null},"geometry":{"type":"Polygon","coordinates":[[[4.0820344,50.97157701],[4.08199373,50.97160248],[4.08194511,50.97156968],[4.08197016,50.97154698],[4.0819773,50.97154067],[4.0820344,50.97157701]]]}},{"type":"Feature","id":"gebouw/Gebouw.13496107/0","properties":{"source":"Digitaal Vlaanderen Gebouwenregister","source_id":"gebouw/Gebouw.13496107/0","kind":"building","height_m":6.44,"status":null},"geometry":{"type":"Polygon","coordinates":[[[4.08894855,50.97008961],[4.08899853,50.97011095],[4.08897279,50.97013499],[4.08897589,50.97013631],[4.08889185,50.97021335],[4.08883978,50.97019084],[4.08894855,50.97008961]]]}},{"type":"Feature","id":"gebouw/Gebouw.13496475/0","properties":{"source":"Digitaal Vlaanderen Gebouwenregister","source_id":"gebouw/Gebouw.13496475/0","kind":"building","height_m":9.32,"status":null},"geometry":{"type":"Polygon","coordinates":[[[4.08120567,50.97103624],[4.08122803,50.97101132],[4.08128877,50.97103234],[4.08126641,50.97105725],[4.08120567,50.97103624]]]}},{"type":"Feature","id":"gebouw/Gebouw.13496556/0","properties":{"source":"Digitaal Vlaanderen Gebouwenregister","source_id":"gebouw/Gebouw.13496556/0","kind":"building","height_m":7.16,"status":null},"geometry":{"type":"Polygon","coordinates":[[[4.08171398,50.97001421],[4.08173099,50.96998027],[4.08179126,50.96999232],[4.08177425,50.97002625],[4.08171398,50.97001421]]]}},{"type":"Feature","id":"gebouw/Gebouw.13496609/0","properties":{"source":"Digitaal Vlaanderen Gebouwenregister","source_id":"gebouw/Gebouw.13496609/0","kind":"building","height_m":5.0,"status":null},"geometry":{"type":"Polygon","coordinates":[[[4.08209051,50.97177452],[4.08212096,50.97175515],[4.08216612,50.97178326],[4.08213357,50.97180386],[4.08209051,50.97177452]]]}},{"type":"Feature","id":"gebouw/Gebouw.13506960/0","properties":{"source":"Digitaal Vlaanderen Gebouwenregister","source_id":"gebouw/Gebouw.13506960/0","kind":"building","height_m":8.6,"status":null},"geometry":{"type":"Polygon","coordinates":[[[4.08193438,50.97185192],[4.08197584,50.9718215],[4.08200479,50.97183771],[4.08196334,50.97186813],[4.08193438,50.97185192]]]}},{"type":"Feature","id":"gebouw/Gebouw.13507046/0","properties":{"source":"Digitaal Vlaanderen Gebouwenregister","source_id":"gebouw/Gebouw.13507046/0","kind":"building","height_m":5.0,"status":null},"geometry":{"type":"Polygon","coordinates":[[[4.08117552,50.97208459],[4.0812115,50.97205093],[4.0812291,50.97205842],[4.08130406,50.9719877],[4.0814306,50.97204115],[4.08136743,50.97210021],[4.08143758,50.97213094],[4.08142501,50.97214187],[4.08144018,50.97214832],[4.08141347,50.97217233],[4.08139968,50.97216649],[4.08138996,50.97217598],[4.08117552,50.97208459]]]}},{"type":"Feature","id":"gebouw/Gebouw.13507050/0","properties":{"source":"Digitaal Vlaanderen Gebouwenregister","source_id":"gebouw/Gebouw.13507050/0","kind":"building","height_m":7.88,"status":null},"geometry":{"type":"Polygon","coordinates":[[[4.08087672,50.97116763],[4.08086878,50.97116613],[4.08086533,50.97117317],[4.08084446,50.97121565],[4.08103195,50.97125235],[4.08105524,50.97120493],[4.08105691,50.9712015],[4.08087672,50.97116763]]]}},{"type":"Feature","id":"gebouw/Gebouw.13507469/0","properties":{"source":"Digitaal Vlaanderen Gebouwenregister","source_id":"gebouw/Gebouw.13507469/0","kind":"building","height_m":7.16,"status":null},"geometry":{"type":"Polygon","coordinates":[[[4.09008367,50.97038977],[4.09016411,50.97025572],[4.09020047,50.97026452],[4.09019762,50.97026873],[4.09036347,50.97031037],[4.09036606,50.97030528],[4.09040219,50.97031345],[4.09032052,50.97044647],[4.09028471,50.9704383],[4.09028672,50.97043497],[4.09012055,50.97039474],[4.09011883,50.97039808],[4.09008367,50.97038977]]]}},{"type":"Feature","id":"gebouw/Gebouw.13509084/0","properties":{"source":"Digitaal Vlaanderen Gebouwenregister","source_id":"gebouw/Gebouw.13509084/0","kind":"building","height_m":5.72,"status":null},"geometry":{"type":"Polygon","coordinates":[[[4.08166339,50.97191765],[4.08163798,50.97190681],[4.08165977,50.9718862],[4.08165981,50.97188616],[4.08166408,50.97188212],[4.08169254,50.9718552],[4.08169563,50.97185657],[4.08172915,50.97187147],[4.08170823,50.97189134],[4.08170377,50.97189558],[4.08170313,50.97189619],[4.08169932,50.9718998],[4.08168744,50.97189481],[4.08166339,50.97191765]]]}},{"type":"Feature","id":"gebouw/Gebouw.13515492/0","properties":{"source":"Digitaal Vlaanderen Gebouwenregister","source_id":"gebouw/Gebouw.13515492/0","kind":"building","height_m":7.88,"status":null},"geometry":{"type":"Polygon","coordinates":[[[4.08161,50.97028463],[4.08163513,50.97024064],[4.08167373,50.97024943],[4.08164733,50.97029301],[4.08161,50.97028463]]]}},{"type":"Feature","id":"gebouw/Gebouw.13515700/0","properties":{"source":"Digitaal Vlaanderen Gebouwenregister","source_id":"gebouw/Gebouw.13515700/0","kind":"building","height_m":6.44,"status":null},"geometry":{"type":"Polygon","coordinates":[[[4.09044645,50.97043089],[4.09050584,50.97033082],[4.09063852,50.97036305],[4.09066655,50.97031603],[4.09074542,50.97033558],[4.09065067,50.97049355],[4.09053956,50.97046709],[4.09054587,50.97045586],[4.09044645,50.97043089]]]}},{"type":"Feature","id":"gebouw/Gebouw.13515829/0","properties":{"source":"Digitaal Vlaanderen Gebouwenregister","source_id":"gebouw/Gebouw.13515829/0","kind":"building","height_m":8.6,"status":null},"geometry":{"type":"Polygon","coordinates":[[[4.08084376,50.97234609],[4.0809278,50.97226676],[4.08094322,50.97227327],[4.08093964,50.97227653],[4.08097141,50.97228997],[4.08098021,50.97228233],[4.0810539,50.97231355],[4.08101052,50.9723543],[4.08103537,50.97236392],[4.08103756,50.97237268],[4.08100181,50.97240649],[4.08098882,50.97240736],[4.08084376,50.97234609]]]}},{"type":"Feature","id":"gebouw/Gebouw.13516115/0","properties":{"source":"Digitaal Vlaanderen Gebouwenregister","source_id":"gebouw/Gebouw.13516115/0","kind":"building","height_m":7.88,"status":null},"geometry":{"type":"Polygon","coordinates":[[[4.08086713,50.97301246],[4.08088863,50.97298957],[4.0809483,50.97301073],[4.08092681,50.97303362],[4.08086713,50.97301246]]]}},{"type":"Feature","id":"gebouw/Gebouw.13516147/0","properties":{"source":"Digitaal Vlaanderen Gebouwenregister","source_id":"gebouw/Gebouw.13516147/0","kind":"building","height_m":5.72,"status":null},"geometry":{"type":"Polygon","coordinates":[[[4.08985153,50.97034435],[4.08976149,50.9704303],[4.08967218,50.97039338],[4.08967946,50.9703866],[4.08962356,50.97036294],[4.08970678,50.97028394],[4.08985153,50.97034435]]]}},{"type":"Feature","id":"gebouw/Gebouw.13517978/0","properties":{"source":"Digitaal Vlaanderen Gebouwenregister","source_id":"gebouw/Gebouw.13517978/0","kind":"building","height_m":8.6,"status":null},"geometry":{"type":"Polygon","coordinates":[[[4.08043612,50.97214427],[4.08054766,50.97204096],[4.08058285,50.97205604],[4.0806561,50.97208741],[4.08066936,50.97209308],[4.08055821,50.97219654],[4.08043612,50.97214427]]]}},{"type":"Feature","id":"gebouw/Gebouw.13529946/0","properties":{"source":"Digitaal Vlaanderen Gebouwenregister","source_id":"gebouw/Gebouw.13529946/0","kind":"building","height_m":7.16,"status":null},"geometry":{"type":"Polygon","coordinates":[[[4.08109332,50.97069169],[4.08110847,50.97067643],[4.08112162,50.97068223],[4.08115541,50.97064838],[4.08126506,50.97069285],[4.08121495,50.97074179],[4.08109332,50.97069169]]]}},{"type":"Feature","id":"gebouw/Gebouw.13531592/0","properties":{"source":"Digitaal Vlaanderen Gebouwenregister","source_id":"gebouw/Gebouw.13531592/0","kind":"building","height_m":7.88,"status":null},"geometry":{"type":"Polygon","coordinates":[[[4.08135047,50.9719205],[4.08139552,50.971877],[4.08148483,50.97191387],[4.08152073,50.97188164],[4.08157955,50.97190639],[4.08159054,50.9718967],[4.08165571,50.97192319],[4.08156707,50.97200995],[4.08135047,50.9719205]]]}},{"type":"Feature","id":"gebouw/Gebouw.13541382/0","properties":{"source":"Digitaal Vlaanderen Gebouwenregister","source_id":"gebouw/Gebouw.13541382/0","kind":"building","height_m":5.72,"status":null},"geometry":{"type":"Polygon","coordinates":[[[4.08053794,50.97181596],[4.0805643,50.97179066],[4.08062765,50.97181698],[4.08060128,50.97184228],[4.08053794,50.97181596]]]}},{"type":"Feature","id":"gebouw/Gebouw.13544362/0","properties":{"source":"Digitaal Vlaanderen Gebouwenregister","source_id":"gebouw/Gebouw.13544362/0","kind":"building","height_m":9.32,"status":null},"geometry":{"type":"Polygon","coordinates":[[[4.08190314,50.97175951],[4.0818728,50.97178384],[4.08182648,50.97176136],[4.08180509,50.97177917],[4.08175299,50.97175698],[4.0816964,50.97180828],[4.08158639,50.97176226],[4.08155946,50.97178662],[4.08148712,50.97175581],[4.08149945,50.97174427],[4.0814977,50.97173645],[4.08151212,50.97172323],[4.08150509,50.9717201],[4.08156987,50.97166055],[4.08170378,50.97171863],[4.08173808,50.97168802],[4.08186789,50.97174424],[4.08190314,50.97175951]]]}},{"type":"Feature","id":"gebouw/Gebouw.13545009/0","properties":{"source":"Digitaal Vlaanderen Gebouwenregister","source_id":"gebouw/Gebouw.13545009/0","kind":"building","height_m":6.44,"status":null},"geometry":{"type":"Polygon","coordinates":[[[4.08065913,50.97176814],[4.08066354,50.97176403],[4.08063726,50.9717528],[4.08068272,50.97171039],[4.08070899,50.97172162],[4.08071547,50.97171558],[4.08081225,50.97175633],[4.08082398,50.97174437],[4.08085078,50.97175593],[4.08088138,50.97172705],[4.08100426,50.97177944],[4.08090445,50.97187275],[4.08065913,50.97176814]]]}},{"type":"Feature","id":"gebouw/Gebouw.13545038/0","properties":{"source":"Digitaal Vlaanderen Gebouwenregister","source_id":"gebouw/Gebouw.13545038/0","kind":"building","height_m":7.16,"status":null},"geometry":{"type":"Polygon","coordinates":[[[4.08176731,50.97146045],[4.08181499,50.97141566],[4.08201025,50.9714987],[4.08209084,50.97155179],[4.08205667,50.97157346],[4.08199223,50.97152748],[4.0819773,50.97154067],[4.08197015,50.97154698],[4.08187164,50.97150376],[4.08186094,50.97151236],[4.08181624,50.9714929],[4.08182374,50.9714844],[4.08176731,50.97146045]]]}},{"type":"Feature","id":"gebouw/Gebouw.13558685/0","properties":{"source":"Digitaal Vlaanderen Gebouwenregister","source_id":"gebouw/Gebouw.13558685/0","kind":"building","height_m":5.0,"status":null},"geometry":{"type":"Polygon","coordinates":[[[4.08107998,50.97268762],[4.08113915,50.97265399],[4.08118675,50.97268738],[4.08112833,50.97272062],[4.08107998,50.97268762]]]}},{"type":"Feature","id":"gebouw/Gebouw.13558981/0","properties":{"source":"Digitaal Vlaanderen Gebouwenregister","source_id":"gebouw/Gebouw.13558981/0","kind":"building","height_m":6.44,"status":null},"geometry":{"type":"Polygon","coordinates":[[[4.08895786,50.97024758],[4.08894228,50.97026863],[4.08885324,50.9703889],[4.08879969,50.9703731],[4.08879315,50.97037117],[4.08884682,50.97029868],[4.08884233,50.97029741],[4.08880391,50.97028656],[4.08883844,50.97024095],[4.0888415,50.97024177],[4.08885913,50.97021844],[4.08890855,50.97023303],[4.08895786,50.97024758]]]}},{"type":"Feature","id":"gebouw/Gebouw.13559061/0","properties":{"source":"Digitaal Vlaanderen Gebouwenregister","source_id":"gebouw/Gebouw.13559061/0","kind":"building","height_m":8.6,"status":null},"geometry":{"type":"Polygon","coordinates":[[[4.08076271,50.97163073],[4.08078687,50.97160959],[4.08083009,50.97162928],[4.08080594,50.97165042],[4.08076271,50.97163073]]]}},{"type":"Feature","id":"gebouw/Gebouw.13567851/0","properties":{"source":"Digitaal Vlaanderen Gebouwenregister","source_id":"gebouw/Gebouw.13567851/0","kind":"building","height_m":7.16,"status":null},"geometry":{"type":"Polygon","coordinates":[[[4.09044171,50.96988958],[4.0904636,50.96986309],[4.09051562,50.96987914],[4.09052357,50.96986911],[4.09058201,50.96988829],[4.09057386,50.96989819],[4.0905937,50.96990469],[4.09060192,50.9698947],[4.09065881,50.96991337],[4.09062796,50.96995086],[4.09044171,50.96988958]]]}},{"type":"Feature","id":"gebouw/Gebouw.13567916/0","properties":{"source":"Digitaal Vlaanderen Gebouwenregister","source_id":"gebouw/Gebouw.13567916/0","kind":"building","height_m":8.6,"status":null},"geometry":{"type":"Polygon","coordinates":[[[4.0829631,50.96918516],[4.08281249,50.96907899],[4.08277776,50.96909842],[4.08277324,50.96909529],[4.0826852,50.9691444],[4.08267221,50.96913502],[4.08262707,50.96915976],[4.08272584,50.96922887],[4.08276542,50.9692088],[4.08282713,50.96925296],[4.08283317,50.96924902],[4.0828377,50.96925285],[4.0829631,50.96918516]]]}},{"type":"Feature","id":"gebouw/Gebouw.13567999/0","properties":{"source":"Digitaal Vlaanderen Gebouwenregister","source_id":"gebouw/Gebouw.13567999/0","kind":"building","height_m":7.88,"status":null},"geometry":{"type":"Polygon","coordinates":[[[4.08229407,50.96939396],[4.0822902,50.96941318],[4.08235826,50.96941337],[4.08235436,50.96944052],[4.08228365,50.96944052],[4.08228146,50.96944939],[4.0822171,50.96944423],[4.08221837,50.9694379],[4.08218403,50.96943515],[4.08219131,50.96939893],[4.08220466,50.9694],[4.08220727,50.969387],[4.08229407,50.96939396]]]}},{"type":"Feature","id":"gebouw/Gebouw.13568001/0","properties":{"source":"Digitaal Vlaanderen Gebouwenregister","source_id":"gebouw/Gebouw.13568001/0","kind":"building","height_m":9.32,"status":null},"geometry":{"type":"Polygon","coordinates":[[[4.08144996,50.97007038],[4.08139515,50.97005824],[4.08141601,50.97002069],[4.08147082,50.97003283],[4.08144996,50.97007038]]]}},{"type":"Feature","id":"gebouw/Gebouw.13568079/0","properties":{"source":"Digitaal Vlaanderen Gebouwenregister","source_id":"gebouw/Gebouw.13568079/0","kind":"building","height_m":5.0,"status":null},"geometry":{"type":"Polygon","coordinates":[[[4.08237559,50.97168309],[4.08235909,50.97169309],[4.08239037,50.97171366],[4.08235838,50.97173305],[4.0822845,50.97168332],[4.0823321,50.97165448],[4.08237559,50.97168309]]]}},{"type":"Feature","id":"gebouw/Gebouw.13568411/0","properties":{"source":"Digitaal Vlaanderen Gebouwenregister","source_id":"gebouw/Gebouw.13568411/0","kind":"building","height_m":7.16,"status":null},"geometry":{"type":"Polygon","coordinates":[[[4.08200776,50.97161195],[4.08198067,50.97163566],[4.08191239,50.9716049],[4.08187111,50.97164505],[4.08168364,50.97156582],[4.08173578,50.9715166],[4.08191438,50.9715968],[4.0819417,50.97157269],[4.08194511,50.97156968],[4.08199373,50.97160248],[4.08200776,50.97161195]]]}},{"type":"Feature","id":"gebouw/Gebouw.13587009/0","properties":{"source":"Digitaal Vlaanderen Gebouwenregister","source_id":"gebouw/Gebouw.13587009/0","kind":"building","height_m":6.44,"status":null},"geometry":{"type":"Polygon","coordinates":[[[4.08174554,50.97047317],[4.08162877,50.97044654],[4.08161661,50.97046842],[4.08173376,50.97049436],[4.08174554,50.97047317]]]}},{"type":"Feature","id":"gebouw/Gebouw.13587274/0","properties":{"source":"Digitaal Vlaanderen Gebouwenregister","source_id":"gebouw/Gebouw.13587274/0","kind":"building","height_m":5.72,"status":null},"geometry":{"type":"Polygon","coordinates":[[[4.0803894,50.97318144],[4.08042609,50.97314041],[4.08044407,50.97312028],[4.08031704,50.97307472],[4.08026377,50.97313393],[4.08020541,50.97311299],[4.08020481,50.97311368],[4.08016036,50.97316303],[4.08034621,50.97322976],[4.0803894,50.97318144]]]}},{"type":"Feature","id":"gebouw/Gebouw.13587276/0","properties":{"source":"Digitaal Vlaanderen Gebouwenregister","source_id":"gebouw/Gebouw.13587276/0","kind":"building","height_m":7.16,"status":null},"geometry":{"type":"Polygon","coordinates":[[[4.08245707,50.96929898],[4.08245696,50.96933038],[4.08239358,50.96933029],[4.08239369,50.96929889],[4.08245707,50.96929898]]]}},{"type":"Feature","id":"gebouw/Gebouw.13587624/0","properties":{"source":"Digitaal Vlaanderen Gebouwenregister","source_id":"gebouw/Gebouw.13587624/0","kind":"building","height_m":5.72,"status":null},"geometry":{"type":"Polygon","coordinates":[[[4.08132632,50.9703522],[4.08134484,50.97032569],[4.0814426,50.97035291],[4.08142408,50.97037942],[4.08132632,50.9703522]]]}},{"type":"Feature","id":"gebouw/Gebouw.13598210/0","properties":{"source":"Digitaal Vlaanderen Gebouwenregister","source_id":"gebouw/Gebouw.13598210/0","kind":"building","height_m":7.16,"status":null},"geometry":{"type":"Polygon","coordinates":[[[4.08083302,50.97156468],[4.08086565,50.971534],[4.08090206,50.97154944],[4.08102437,50.97143438],[4.08111988,50.97147518],[4.08108042,50.97151288],[4.08110122,50.97152175],[4.08103943,50.97157947],[4.08103628,50.97157765],[4.0810185,50.97159391],[4.08104372,50.97160471],[4.08103079,50.97161674],[4.08103443,50.97161832],[4.08102001,50.97163155],[4.08101637,50.97162996],[4.08100314,50.97164203],[4.08083302,50.97156468]]]}},{"type":"Feature","id":"gebouw/Gebouw.13598470/0","properties":{"source":"Digitaal Vlaanderen Gebouwenregister","source_id":"gebouw/Gebouw.13598470/0","kind":"building","height_m":7.88,"status":null},"geometry":{"type":"Polygon","coordinates":[[[4.08054226,50.97363658],[4.08059676,50.97365356],[4.08056709,50.97369153],[4.08051259,50.97367455],[4.08054226,50.97363658]]]}},{"type":"Feature","id":"gebouw/Gebouw.13598537/0","properties":{"source":"Digitaal Vlaanderen Gebouwenregister","source_id":"gebouw/Gebouw.13598537/0","kind":"building","height_m":5.72,"status":null},"geometry":{"type":"Polygon","coordinates":[[[4.08154895,50.97048529],[4.08152792,50.97050824],[4.08148627,50.97049483],[4.08148902,50.97049144],[4.08143569,50.9704724],[4.08143776,50.97046977],[4.08141803,50.97046379],[4.08143666,50.97043993],[4.08145723,50.97044677],[4.08148961,50.97040826],[4.08152296,50.97041853],[4.08152618,50.97041503],[4.08158144,50.97043575],[4.0815921,50.97043818],[4.0815817,50.97044954],[4.08160863,50.97045823],[4.08157719,50.97049451],[4.08154895,50.97048529]]]}},{"type":"Feature","id":"gebouw/Gebouw.13598761/0","properties":{"source":"Digitaal Vlaanderen Gebouwenregister","source_id":"gebouw/Gebouw.13598761/0","kind":"building","height_m":5.72,"status":null},"geometry":{"type":"Polygon","coordinates":[[[4.09085664,50.97017963],[4.09072888,50.9701625],[4.0907258,50.97017426],[4.09057443,50.97015117],[4.09060195,50.97009774],[4.09059861,50.97009701],[4.09062492,50.97005389],[4.09068817,50.97006322],[4.09072004,50.96997734],[4.0907245,50.96997807],[4.090744,50.96992519],[4.09092404,50.96995553],[4.09090699,50.970001],[4.09093221,50.97000364],[4.09092293,50.97002483],[4.09094243,50.97002823],[4.09093423,50.97004917],[4.09089746,50.97014301],[4.09088021,50.97014],[4.09087445,50.97013899],[4.09085664,50.97017963]]]}},{"type":"Feature","id":"gebouw/Gebouw.13598995/0","properties":{"source":"Digitaal Vlaanderen Gebouwenregister","source_id":"gebouw/Gebouw.13598995/0","kind":"building","height_m":7.88,"status":null},"geometry":{"type":"Polygon","coordinates":[[[4.08075919,50.97305897],[4.08079838,50.97301338],[4.08099045,50.97307918],[4.08095127,50.97312477],[4.08075919,50.97305897]]]}},{"type":"Feature","id":"gebouw/Gebouw.13602721/0","properties":{"source":"Digitaal Vlaanderen Gebouwenregister","source_id":"gebouw/Gebouw.13602721/0","kind":"building","height_m":9.32,"status":null},"geometry":{"type":"Polygon","coordinates":[[[4.08098743,50.9722107],[4.08104437,50.97215677],[4.08108267,50.97217278],[4.08111274,50.97214464],[4.08122286,50.97219156],[4.08118916,50.97222388],[4.08122938,50.97224101],[4.08117922,50.97228827],[4.08108861,50.9722511],[4.08107929,50.97225988],[4.08105922,50.97225134],[4.08106846,50.97224284],[4.08098743,50.9722107]]]}},{"type":"Feature","id":"gebouw/Gebouw.13676944/0","properties":{"source":"Digitaal Vlaanderen Gebouwenregister","source_id":"gebouw/Gebouw.13676944/0","kind":"building","height_m":5.72,"status":null},"geometry":{"type":"Polygon","coordinates":[[[4.08116957,50.9705433],[4.08119884,50.97051614],[4.08124575,50.9705363],[4.08121648,50.97056346],[4.08116957,50.9705433]]]}},{"type":"Feature","id":"gebouw/Gebouw.13677105/0","properties":{"source":"Digitaal Vlaanderen Gebouwenregister","source_id":"gebouw/Gebouw.13677105/0","kind":"building","height_m":5.72,"status":null},"geometry":{"type":"Polygon","coordinates":[[[4.08243261,50.97174163],[4.08240138,50.971762],[4.08236288,50.97173608],[4.08239658,50.97171665],[4.08243261,50.97174163]]]}},{"type":"Feature","id":"gebouw/Gebouw.13677121/0","properties":{"source":"Digitaal Vlaanderen Gebouwenregister","source_id":"gebouw/Gebouw.13677121/0","kind":"building","height_m":7.16,"status":null},"geometry":{"type":"Polygon","coordinates":[[[4.08141205,50.97025484],[4.08145241,50.97018307],[4.08158988,50.97021389],[4.08155016,50.9702845],[4.08141205,50.97025484]]]}},{"type":"Feature","id":"gebouw/Gebouw.13718665/0","properties":{"source":"Digitaal Vlaanderen Gebouwenregister","source_id":"gebouw/Gebouw.13718665/0","kind":"building","height_m":6.44,"status":null},"geometry":{"type":"Polygon","coordinates":[[[4.08094858,50.97094521],[4.08097264,50.97091697],[4.08104422,50.97094082],[4.08102208,50.97096858],[4.08094858,50.97094521]]]}},{"type":"Feature","id":"gebouw/Gebouw.13718940/0","properties":{"source":"Digitaal Vlaanderen Gebouwenregister","source_id":"gebouw/Gebouw.13718940/0","kind":"building","height_m":7.88,"status":null},"geometry":{"type":"Polygon","coordinates":[[[4.08064679,50.97267129],[4.0806685,50.97265032],[4.08056567,50.97260768],[4.08063319,50.97254344],[4.08079049,50.97260933],[4.0807597,50.97263974],[4.08077334,50.97264628],[4.08074804,50.97266974],[4.08076299,50.97267568],[4.08074245,50.97270465],[4.08064679,50.97267129]]]}},{"type":"Feature","id":"gebouw/Gebouw.13719379/0","properties":{"source":"Digitaal Vlaanderen Gebouwenregister","source_id":"gebouw/Gebouw.13719379/0","kind":"building","height_m":6.44,"status":null},"geometry":{"type":"Polygon","coordinates":[[[4.08187111,50.97164505],[4.08184851,50.97166704],[4.08182154,50.97165607],[4.08179475,50.97167944],[4.08187567,50.97171404],[4.08186708,50.97172208],[4.08188407,50.97172942],[4.08186789,50.97174424],[4.08173808,50.97168802],[4.08176156,50.97166714],[4.0816324,50.97161259],[4.08163108,50.97161176],[4.08162987,50.97161087],[4.08162877,50.97160993],[4.08162778,50.97160893],[4.08162704,50.97160808],[4.08162639,50.97160719],[4.08162582,50.97160628],[4.08162534,50.97160536],[4.08162504,50.97160471],[4.08162479,50.97160406],[4.08162457,50.9716034],[4.0816242,50.97160002],[4.08162437,50.97159818],[4.08162484,50.97159635],[4.0816256,50.97159457],[4.08162652,50.97159304],[4.08162766,50.97159157],[4.081629,50.97159018],[4.08163055,50.97158888],[4.08163269,50.97158739],[4.08163508,50.97158607],[4.08163769,50.97158494],[4.0816405,50.971584],[4.08164398,50.97158318],[4.08164761,50.97158267],[4.08165313,50.97158245],[4.08165862,50.97158287],[4.08166389,50.97158392],[4.08168364,50.97156582],[4.08187111,50.97164505]]]}},{"type":"Feature","id":"gebouw/Gebouw.13719563/0","properties":{"source":"Digitaal Vlaanderen Gebouwenregister","source_id":"gebouw/Gebouw.13719563/0","kind":"building","height_m":7.88,"status":null},"geometry":{"type":"Polygon","coordinates":[[[4.08048675,50.97283668],[4.08056501,50.97276416],[4.0806114,50.97278161],[4.08062321,50.97276908],[4.08061932,50.97276713],[4.08061608,50.97276475],[4.0806136,50.97276203],[4.08061197,50.97275908],[4.0806112,50.97275599],[4.08061134,50.97275285],[4.08061215,50.97275025],[4.08061363,50.97274775],[4.08061574,50.97274544],[4.08061841,50.97274338],[4.08062161,50.97274165],[4.08062524,50.97274027],[4.08062835,50.97273949],[4.08063163,50.97273901],[4.08063496,50.97273884],[4.08063832,50.97273895],[4.08064183,50.97273921],[4.08064528,50.97273979],[4.08064853,50.97274068],[4.08065038,50.97274134],[4.08065214,50.97274207],[4.08065474,50.97274342],[4.08065705,50.97274495],[4.08065904,50.97274665],[4.08066071,50.97274849],[4.08066164,50.97274985],[4.08066238,50.97275126],[4.08066289,50.97275271],[4.08066315,50.97275417],[4.08066318,50.97275551],[4.08066295,50.97275684],[4.08066253,50.97275815],[4.08066191,50.97275944],[4.08081345,50.97281752],[4.08071629,50.9729249],[4.08071279,50.97292877],[4.08048675,50.97283668]]]}},{"type":"Feature","id":"gebouw/Gebouw.13764850/0","properties":{"source":"Digitaal Vlaanderen Gebouwenregister","source_id":"gebouw/Gebouw.13764850/0","kind":"building","height_m":5.72,"status":null},"geometry":{"type":"Polygon","coordinates":[[[4.08043749,50.97328964],[4.08043506,50.97329254],[4.08031492,50.97325265],[4.08033196,50.97323289],[4.08045124,50.97327399],[4.08046297,50.97326104],[4.08052956,50.9732835],[4.08051567,50.97329992],[4.08052699,50.97330373],[4.08051641,50.97331625],[4.08043749,50.97328964]]]}},{"type":"Feature","id":"gebouw/Gebouw.13765143/0","properties":{"source":"Digitaal Vlaanderen Gebouwenregister","source_id":"gebouw/Gebouw.13765143/0","kind":"building","height_m":5.0,"status":null},"geometry":{"type":"Polygon","coordinates":[[[4.09077876,50.97048831],[4.09089148,50.97051622],[4.09089596,50.97052291],[4.09084893,50.97060273],[4.09069471,50.9705665],[4.0907347,50.97049862],[4.09073286,50.97049819],[4.09067529,50.97048459],[4.09071346,50.97040934],[4.09071933,50.97041053],[4.09073935,50.97041458],[4.09074943,50.9703947],[4.09082397,50.97040977],[4.09077876,50.97048831]]]}},{"type":"Feature","id":"gebouw/Gebouw.13765171/0","properties":{"source":"Digitaal Vlaanderen Gebouwenregister","source_id":"gebouw/Gebouw.13765171/0","kind":"building","height_m":5.0,"status":null},"geometry":{"type":"Polygon","coordinates":[[[4.08166019,50.97215062],[4.08168719,50.9721253],[4.08175605,50.97215457],[4.08172905,50.97217989],[4.08166019,50.97215062]]]}},{"type":"Feature","id":"gebouw/Gebouw.13765341/0","properties":{"source":"Digitaal Vlaanderen Gebouwenregister","source_id":"gebouw/Gebouw.13765341/0","kind":"building","height_m":6.44,"status":null},"geometry":{"type":"Polygon","coordinates":[[[4.08240368,50.97176906],[4.08238994,50.97178208],[4.08233585,50.97183336],[4.08229074,50.97180291],[4.08237334,50.97174671],[4.08240368,50.97176906]]]}},{"type":"Feature","id":"gebouw/Gebouw.13765393/0","properties":{"source":"Digitaal Vlaanderen Gebouwenregister","source_id":"gebouw/Gebouw.13765393/0","kind":"building","height_m":8.6,"status":null},"geometry":{"type":"Polygon","coordinates":[[[4.08134971,50.97240286],[4.08131893,50.97243192],[4.08119972,50.97238157],[4.08123069,50.97235233],[4.08133029,50.97239461],[4.08134971,50.97240286]]]}},{"type":"Feature","id":"gebouw/Gebouw.13765417/0","properties":{"source":"Digitaal Vlaanderen Gebouwenregister","source_id":"gebouw/Gebouw.13765417/0","kind":"building","height_m":5.72,"status":null},"geometry":{"type":"Polygon","coordinates":[[[4.0808356,50.97193609],[4.08065641,50.97186358],[4.08060667,50.97190962],[4.08054153,50.97188217],[4.08053808,50.97188543],[4.08050109,50.97187137],[4.08044206,50.97184892],[4.08039178,50.97189744],[4.0804514,50.97192069],[4.08065755,50.97200695],[4.0806691,50.97201185],[4.08072816,50.97203694],[4.0808356,50.97193609]]]}},{"type":"Feature","id":"gebouw/Gebouw.13780050/0","properties":{"source":"Digitaal Vlaanderen Gebouwenregister","source_id":"gebouw/Gebouw.13780050/0","kind":"building","height_m":7.88,"status":null},"geometry":{"type":"Polygon","coordinates":[[[4.0806841,50.97249558],[4.08073259,50.97244858],[4.08074333,50.972453],[4.08079036,50.97240992],[4.08091072,50.97246128],[4.08085864,50.97250884],[4.08088558,50.97252126],[4.08084238,50.97256069],[4.0806841,50.97249558]]]}},{"type":"Feature","id":"gebouw/Gebouw.13780132/0","properties":{"source":"Digitaal Vlaanderen Gebouwenregister","source_id":"gebouw/Gebouw.13780132/0","kind":"building","height_m":6.44,"status":null},"geometry":{"type":"Polygon","coordinates":[[[4.08023567,50.97356589],[4.08026331,50.97354027],[4.08030418,50.97355755],[4.08027652,50.97358352],[4.08023567,50.97356589]]]}},{"type":"Feature","id":"gebouw/Gebouw.13780416/0","properties":{"source":"Digitaal Vlaanderen Gebouwenregister","source_id":"gebouw/Gebouw.13780416/0","kind":"building","height_m":9.32,"status":null},"geometry":{"type":"Polygon","coordinates":[[[4.08207609,50.97011958],[4.0819056,50.97008083],[4.08188691,50.97011486],[4.082058,50.97015215],[4.08207609,50.97011958]]]}},{"type":"Feature","id":"gebouw/Gebouw.13780580/0","properties":{"source":"Digitaal Vlaanderen Gebouwenregister","source_id":"gebouw/Gebouw.13780580/0","kind":"building","height_m":6.44,"status":null},"geometry":{"type":"Polygon","coordinates":[[[4.08170926,50.9698445],[4.08179511,50.96986264],[4.08177392,50.96990262],[4.08168807,50.96988447],[4.08170926,50.9698445]]]}},{"type":"Feature","id":"gebouw/Gebouw.13796823/0","properties":{"source":"Digitaal Vlaanderen Gebouwenregister","source_id":"gebouw/Gebouw.13796823/0","kind":"building","height_m":8.6,"status":null},"geometry":{"type":"Polygon","coordinates":[[[4.09034769,50.97009699],[4.09038031,50.97004052],[4.09053966,50.97007928],[4.09050702,50.9701368],[4.09034769,50.97009699]]]}},{"type":"Feature","id":"gebouw/Gebouw.13796962/0","properties":{"source":"Digitaal Vlaanderen Gebouwenregister","source_id":"gebouw/Gebouw.13796962/0","kind":"building","height_m":7.88,"status":null},"geometry":{"type":"Polygon","coordinates":[[[4.08657779,50.96925687],[4.08635077,50.96940772],[4.08630397,50.96938018],[4.08643543,50.96929147],[4.0864183,50.96928135],[4.0865121,50.96921806],[4.08657779,50.96925687]]]}},{"type":"Feature","id":"gebouw/Gebouw.13797502/0","properties":{"source":"Digitaal Vlaanderen Gebouwenregister","source_id":"gebouw/Gebouw.13797502/0","kind":"building","height_m":8.6,"status":null},"geometry":{"type":"Polygon","coordinates":[[[4.08034412,50.97301029],[4.08040012,50.97295649],[4.08037686,50.97294671],[4.08042806,50.97289703],[4.08056264,50.97295233],[4.08051206,50.97300069],[4.08060908,50.97304117],[4.08059775,50.97305181],[4.08066402,50.97307772],[4.08062496,50.97311676],[4.08055776,50.97309018],[4.08055139,50.9730963],[4.08034412,50.97301029]]]}},{"type":"Feature","id":"gebouw/Gebouw.14861852/0","properties":{"source":"Digitaal Vlaanderen Gebouwenregister","source_id":"gebouw/Gebouw.14861852/0","kind":"building","height_m":8.6,"status":null},"geometry":{"type":"Polygon","coordinates":[[[4.0894301,50.97030685],[4.08942744,50.97030987],[4.08928437,50.97025677],[4.08928016,50.9702552],[4.08920855,50.97033831],[4.08911459,50.97030603],[4.0891008,50.97030129],[4.0890959,50.9702996],[4.08916967,50.97021331],[4.08923453,50.97013744],[4.08949784,50.97023018],[4.08947154,50.97025995],[4.0894301,50.97030685]]]}},{"type":"Feature","id":"gebouw/Gebouw.15684554/0","properties":{"source":"Digitaal Vlaanderen Gebouwenregister","source_id":"gebouw/Gebouw.15684554/0","kind":"building","height_m":7.88,"status":null},"geometry":{"type":"Polygon","coordinates":[[[4.08686424,50.96915592],[4.08682478,50.96913443],[4.08686494,50.96910503],[4.0869044,50.96912652],[4.08686424,50.96915592]]]}},{"type":"Feature","id":"gebouw/Gebouw.15844026/0","properties":{"source":"Digitaal Vlaanderen Gebouwenregister","source_id":"gebouw/Gebouw.15844026/0","kind":"building","height_m":6.44,"status":null},"geometry":{"type":"Polygon","coordinates":[[[4.09082468,50.96966779],[4.09080706,50.96969705],[4.09072495,50.96967733],[4.09074419,50.96964537],[4.09076891,50.9696513],[4.09077721,50.96963752],[4.09080556,50.96964432],[4.09079563,50.96966082],[4.09082468,50.96966779]]]}},{"type":"Feature","id":"gebouw/Gebouw.15867160/0","properties":{"source":"Digitaal Vlaanderen Gebouwenregister","source_id":"gebouw/Gebouw.15867160/0","kind":"building","height_m":5.72,"status":null},"geometry":{"type":"Polygon","coordinates":[[[4.08669665,50.96917778],[4.08668618,50.96918486],[4.08663151,50.96915534],[4.08664423,50.96914676],[4.08666361,50.96915821],[4.08681672,50.96905489],[4.08684968,50.96907437],[4.08669665,50.96917778]]]}},{"type":"Feature","id":"gebouw/Gebouw.16300336/0","properties":{"source":"Digitaal Vlaanderen Gebouwenregister","source_id":"gebouw/Gebouw.16300336/0","kind":"building","height_m":7.16,"status":null},"geometry":{"type":"Polygon","coordinates":[[[4.08673265,50.96896369],[4.08678337,50.96899313],[4.08676109,50.96900843],[4.08673258,50.96899187],[4.08655171,50.96911603],[4.08652778,50.96910213],[4.08654019,50.96909374],[4.08673265,50.96896369]]]}},{"type":"Feature","id":"gebouw/Gebouw.18597925/0","properties":{"source":"Digitaal Vlaanderen Gebouwenregister","source_id":"gebouw/Gebouw.18597925/0","kind":"building","height_m":7.16,"status":null},"geometry":{"type":"Polygon","coordinates":[[[4.08022871,50.97358413],[4.08028105,50.97352279],[4.08056825,50.97361821],[4.08051687,50.97367986],[4.08022871,50.97358413]]]}},{"type":"Feature","id":"gebouw/Gebouw.18658842/0","properties":{"source":"Digitaal Vlaanderen Gebouwenregister","source_id":"gebouw/Gebouw.18658842/0","kind":"building","height_m":9.32,"status":null},"geometry":{"type":"Polygon","coordinates":[[[4.08128303,50.97082392],[4.08131242,50.97079536],[4.08140028,50.97083142],[4.08137089,50.97085997],[4.08128303,50.97082392]]]}},{"type":"Feature","id":"gebouw/Gebouw.18658844/0","properties":{"source":"Digitaal Vlaanderen Gebouwenregister","source_id":"gebouw/Gebouw.18658844/0","kind":"building","height_m":5.72,"status":null},"geometry":{"type":"Polygon","coordinates":[[[4.08106964,50.97115639],[4.08108905,50.97111218],[4.08115671,50.97112323],[4.08115842,50.9711193],[4.08129635,50.97114411],[4.08127399,50.97119234],[4.08106964,50.97115639]]]}},{"type":"Feature","id":"gebouw/Gebouw.18658847/0","properties":{"source":"Digitaal Vlaanderen Gebouwenregister","source_id":"gebouw/Gebouw.18658847/0","kind":"building","height_m":7.88,"status":null},"geometry":{"type":"Polygon","coordinates":[[[4.08238874,50.97169974],[4.08243359,50.97165949],[4.08248509,50.97168166],[4.0824403,50.97172269],[4.08238874,50.97169974]]]}},{"type":"Feature","id":"gebouw/Gebouw.18658848/0","properties":{"source":"Digitaal Vlaanderen Gebouwenregister","source_id":"gebouw/Gebouw.18658848/0","kind":"building","height_m":8.6,"status":null},"geometry":{"type":"Polygon","coordinates":[[[4.0817888,50.97191379],[4.08183493,50.97192367],[4.0818378,50.97191839],[4.08185271,50.97189091],[4.08180627,50.97188054],[4.08179146,50.97190872],[4.0817888,50.97191379]]]}},{"type":"Feature","id":"gebouw/Gebouw.18659005/0","properties":{"source":"Digitaal Vlaanderen Gebouwenregister","source_id":"gebouw/Gebouw.18659005/0","kind":"building","height_m":5.72,"status":null},"geometry":{"type":"Polygon","coordinates":[[[4.08947469,50.97042208],[4.08946958,50.9704456],[4.0894527,50.97044364],[4.08936549,50.97043355],[4.08937181,50.97041018],[4.08947469,50.97042208]]]}},{"type":"Feature","id":"gebouw/Gebouw.18659006/0","properties":{"source":"Digitaal Vlaanderen Gebouwenregister","source_id":"gebouw/Gebouw.18659006/0","kind":"building","height_m":6.44,"status":null},"geometry":{"type":"Polygon","coordinates":[[[4.08644994,50.96919269],[4.0864773,50.96917443],[4.08652648,50.96920366],[4.08649822,50.96922194],[4.08644994,50.96919269]]]}},{"type":"Feature","id":"gebouw/Gebouw.18659012/0","properties":{"source":"Digitaal Vlaanderen Gebouwenregister","source_id":"gebouw/Gebouw.18659012/0","kind":"building","height_m":5.72,"status":null},"geometry":{"type":"Polygon","coordinates":[[[4.08189484,50.96965663],[4.08188315,50.96968833],[4.08183786,50.96968114],[4.08184894,50.96965104],[4.08189484,50.96965663]]]}},{"type":"Feature","id":"gebouw/Gebouw.18659247/0","properties":{"source":"Digitaal Vlaanderen Gebouwenregister","source_id":"gebouw/Gebouw.18659247/0","kind":"building","height_m":8.6,"status":null},"geometry":{"type":"Polygon","coordinates":[[[4.08053888,50.97333916],[4.08055817,50.97331649],[4.08068006,50.97336118],[4.08066076,50.97338285],[4.08054245,50.97334046],[4.08053888,50.97333916]]]}},{"type":"Feature","id":"gebouw/Gebouw.19323965/0","properties":{"source":"Digitaal Vlaanderen Gebouwenregister","source_id":"gebouw/Gebouw.19323965/0","kind":"building","height_m":7.16,"status":null},"geometry":{"type":"Polygon","coordinates":[[[4.08111875,50.97075721],[4.08114339,50.97073063],[4.08120424,50.97075312],[4.0811796,50.9707797],[4.08111875,50.97075721]]]}},{"type":"Feature","id":"gebouw/Gebouw.19323966/0","properties":{"source":"Digitaal Vlaanderen Gebouwenregister","source_id":"gebouw/Gebouw.19323966/0","kind":"building","height_m":7.88,"status":null},"geometry":{"type":"Polygon","coordinates":[[[4.08123069,50.97235233],[4.08125613,50.97232886],[4.08135516,50.97237165],[4.08133029,50.97239461],[4.08123069,50.97235233]]]}},{"type":"Feature","id":"gebouw/Gebouw.19324276/0","properties":{"source":"Digitaal Vlaanderen Gebouwenregister","source_id":"gebouw/Gebouw.19324276/0","kind":"building","height_m":9.32,"status":null},"geometry":{"type":"Polygon","coordinates":[[[4.08206657,50.96962314],[4.08207965,50.96958778],[4.08214607,50.96959758],[4.08213298,50.96963294],[4.08206657,50.96962314]]]}},{"type":"Feature","id":"gebouw/Gebouw.19324277/0","properties":{"source":"Digitaal Vlaanderen Gebouwenregister","source_id":"gebouw/Gebouw.19324277/0","kind":"building","height_m":5.0,"status":null},"geometry":{"type":"Polygon","coordinates":[[[4.08208338,50.96943975],[4.08203625,50.96943743],[4.08204145,50.96939515],[4.0820886,50.96939747],[4.08208338,50.96943975]]]}},{"type":"Feature","id":"gebouw/Gebouw.19324281/0","properties":{"source":"Digitaal Vlaanderen Gebouwenregister","source_id":"gebouw/Gebouw.19324281/0","kind":"building","height_m":7.88,"status":null},"geometry":{"type":"Polygon","coordinates":[[[4.086453,50.96915266],[4.08642547,50.96913591],[4.0863993,50.9691533],[4.08642706,50.96917019],[4.086453,50.96915266]]]}},{"type":"Feature","id":"gebouw/Gebouw.19324284/0","properties":{"source":"Digitaal Vlaanderen Gebouwenregister","source_id":"gebouw/Gebouw.19324284/0","kind":"building","height_m":5.0,"status":null},"geometry":{"type":"Polygon","coordinates":[[[4.08968988,50.97021102],[4.08970317,50.97021569],[4.08965104,50.97027481],[4.08963175,50.97026803],[4.08955899,50.97024245],[4.08956908,50.97023102],[4.08952734,50.97021634],[4.0895694,50.97016865],[4.08968988,50.97021102]]]}},{"type":"Feature","id":"gebouw/Gebouw.19324285/0","properties":{"source":"Digitaal Vlaanderen Gebouwenregister","source_id":"gebouw/Gebouw.19324285/0","kind":"building","height_m":5.72,"status":null},"geometry":{"type":"Polygon","coordinates":[[[4.08866761,50.96997265],[4.08862117,50.96995343],[4.08866185,50.96991428],[4.08870826,50.96993348],[4.08866761,50.96997265]]]}},{"type":"Feature","id":"gebouw/Gebouw.19723926/0","properties":{"source":"Digitaal Vlaanderen Gebouwenregister","source_id":"gebouw/Gebouw.19723926/0","kind":"building","height_m":8.6,"status":null},"geometry":{"type":"Polygon","coordinates":[[[4.08199223,50.97152748],[4.0819773,50.97154067],[4.08197016,50.97154698],[4.08187164,50.97150376],[4.08186094,50.97151236],[4.08181624,50.9714929],[4.08182374,50.9714844],[4.08176731,50.97146045],[4.08181499,50.97141566],[4.08201025,50.9714987],[4.08198136,50.97152234],[4.08199223,50.97152748]]]}},{"type":"Feature","id":"gebouw/Gebouw.19723927/0","properties":{"source":"Digitaal Vlaanderen Gebouwenregister","source_id":"gebouw/Gebouw.19723927/0","kind":"building","height_m":9.32,"status":null},"geometry":{"type":"Polygon","coordinates":[[[4.08201025,50.9714987],[4.08208995,50.97155236],[4.08205667,50.97157346],[4.08199223,50.97152748],[4.08198136,50.97152234],[4.08201025,50.9714987]]]}},{"type":"Feature","id":"gebouw/Gebouw.19723928/0","properties":{"source":"Digitaal Vlaanderen Gebouwenregister","source_id":"gebouw/Gebouw.19723928/0","kind":"building","height_m":5.0,"status":null},"geometry":{"type":"Polygon","coordinates":[[[4.08203791,50.97147472],[4.08201025,50.9714987],[4.08181499,50.97141566],[4.08186677,50.97136677],[4.08197666,50.9714132],[4.08197335,50.97141636],[4.08200204,50.97142906],[4.08199135,50.97143856],[4.08204891,50.97146518],[4.08204473,50.9714688],[4.08203791,50.97147472]]]}},{"type":"Feature","id":"gebouw/Gebouw.19723929/0","properties":{"source":"Digitaal Vlaanderen Gebouwenregister","source_id":"gebouw/Gebouw.19723929/0","kind":"building","height_m":5.72,"status":null},"geometry":{"type":"Polygon","coordinates":[[[4.08203791,50.97147472],[4.082128,50.97152823],[4.08208995,50.97155236],[4.08201025,50.9714987],[4.08203791,50.97147472]]]}},{"type":"Feature","id":"gebouw/Gebouw.19725201/0","properties":{"source":"Digitaal Vlaanderen Gebouwenregister","source_id":"gebouw/Gebouw.19725201/0","kind":"building","height_m":9.32,"status":null},"geometry":{"type":"Polygon","coordinates":[[[4.08646916,50.96968641],[4.08641125,50.96965816],[4.08651571,50.96957431],[4.08651395,50.96957349],[4.08655769,50.96953796],[4.08660287,50.96950128],[4.08667342,50.96944398],[4.08667943,50.96943911],[4.08679506,50.96949774],[4.08663538,50.96963003],[4.08658536,50.96967147],[4.08652296,50.96964141],[4.08646916,50.96968641]]]}},{"type":"Feature","id":"gebouw/Gebouw.20687323/0","properties":{"source":"Digitaal Vlaanderen Gebouwenregister","source_id":"gebouw/Gebouw.20687323/0","kind":"building","height_m":9.32,"status":null},"geometry":{"type":"Polygon","coordinates":[[[4.08202335,50.97163238],[4.08208393,50.97167367],[4.08206538,50.97168452],[4.08200481,50.97164323],[4.08202335,50.97163238]]]}},{"type":"Feature","id":"gebouw/Gebouw.31324725/0","properties":{"source":"Digitaal Vlaanderen Gebouwenregister","source_id":"gebouw/Gebouw.31324725/0","kind":"building","height_m":8.6,"status":null},"geometry":{"type":"Polygon","coordinates":[[[4.08124849,50.97291717],[4.08121755,50.97295298],[4.08115694,50.97293446],[4.08114105,50.9729098],[4.0811897,50.9728969],[4.08124849,50.97291717]]]}},{"type":"Feature","id":"gebouw/Gebouw.31633097/0","properties":{"source":"Digitaal Vlaanderen Gebouwenregister","source_id":"gebouw/Gebouw.31633097/0","kind":"building","height_m":9.32,"status":null},"geometry":{"type":"Polygon","coordinates":[[[4.08084643,50.97111545],[4.08094295,50.97112908],[4.08095275,50.97110139],[4.08085624,50.97108777],[4.08084643,50.97111545]]]}},{"type":"Feature","id":"gebouw/Gebouw.31633229/0","properties":{"source":"Digitaal Vlaanderen Gebouwenregister","source_id":"gebouw/Gebouw.31633229/0","kind":"building","height_m":8.6,"status":null},"geometry":{"type":"Polygon","coordinates":[[[4.08198627,50.97191812],[4.08193509,50.97190716],[4.08191876,50.97194163],[4.08197042,50.97195178],[4.08198627,50.97191812]]]}},{"type":"Feature","id":"gebouw/Gebouw.31633628/0","properties":{"source":"Digitaal Vlaanderen Gebouwenregister","source_id":"gebouw/Gebouw.31633628/0","kind":"building","height_m":8.6,"status":null},"geometry":{"type":"Polygon","coordinates":[[[4.0814052,50.9701499],[4.08148575,50.97016702],[4.08150139,50.97013769],[4.08142085,50.97012056],[4.0814052,50.9701499]]]}},{"type":"Feature","id":"gebouw/Gebouw.32006412/0","properties":{"source":"Digitaal Vlaanderen Gebouwenregister","source_id":"gebouw/Gebouw.32006412/0","kind":"building","height_m":7.88,"status":null},"geometry":{"type":"Polygon","coordinates":[[[4.08129592,50.97113421],[4.08131,50.97110054],[4.08114915,50.97107373],[4.08113508,50.97110739],[4.08129592,50.97113421]]]}},{"type":"Feature","id":"gebouw/Gebouw.32006562/0","properties":{"source":"Digitaal Vlaanderen Gebouwenregister","source_id":"gebouw/Gebouw.32006562/0","kind":"building","height_m":5.0,"status":null},"geometry":{"type":"Polygon","coordinates":[[[4.0804514,50.97192069],[4.08039178,50.97189744],[4.0803719,50.97188949],[4.08034907,50.97191225],[4.08042815,50.97194387],[4.0804514,50.97192069]]]}},{"type":"Feature","id":"gebouw/Gebouw.32055087/0","properties":{"source":"Digitaal Vlaanderen Gebouwenregister","source_id":"gebouw/Gebouw.32055087/0","kind":"building","height_m":5.72,"status":null},"geometry":{"type":"Polygon","coordinates":[[[4.0862014,50.9693261],[4.08622862,50.96938225],[4.08628864,50.9693649],[4.08625867,50.96931373],[4.0862014,50.9693261]]]}},{"type":"Feature","id":"gebouw/Gebouw.32055144/0","properties":{"source":"Digitaal Vlaanderen Gebouwenregister","source_id":"gebouw/Gebouw.32055144/0","kind":"building","height_m":6.44,"status":null},"geometry":{"type":"Polygon","coordinates":[[[4.086453,50.96915266],[4.08642706,50.96917019],[4.08644516,50.9691812],[4.08647133,50.96916381],[4.086453,50.96915266]]]}}]}