{"type":"FeatureCollection","features":[{"type":"Feature","id":"gebouw/Gebouw.11447344/0","properties":{"source":"Digitaal Vlaanderen Gebouwenregister","source_id":"gebouw/Gebouw.11447344/0","kind":"building","height_m":9.32,"status":null},"geometry":{"type":"Polygon","coordinates":[[[4.08793117,50.90343203],[4.08792786,50.90343403],[4.08789423,50.90345439],[4.087887,50.90344978],[4.08785419,50.90342891],[4.08789112,50.90340916],[4.08793117,50.90343203]]]}},{"type":"Feature","id":"gebouw/Gebouw.11661468/0","properties":{"source":"Digitaal Vlaanderen Gebouwenregister","source_id":"gebouw/Gebouw.11661468/0","kind":"building","height_m":5.0,"status":null},"geometry":{"type":"Polygon","coordinates":[[[4.08974847,50.90454744],[4.08979319,50.90451738],[4.08983133,50.90453504],[4.08978333,50.90456794],[4.08974847,50.90454744]]]}},{"type":"Feature","id":"gebouw/Gebouw.11864041/0","properties":{"source":"Digitaal Vlaanderen Gebouwenregister","source_id":"gebouw/Gebouw.11864041/0","kind":"building","height_m":5.0,"status":null},"geometry":{"type":"Polygon","coordinates":[[[4.09003395,50.90468284],[4.09007332,50.90469959],[4.09000098,50.90476791],[4.08996138,50.90475154],[4.0899844,50.90472975],[4.09001695,50.90469893],[4.09003395,50.90468284]]]}},{"type":"Feature","id":"gebouw/Gebouw.11871688/0","properties":{"source":"Digitaal Vlaanderen Gebouwenregister","source_id":"gebouw/Gebouw.11871688/0","kind":"building","height_m":7.16,"status":null},"geometry":{"type":"Polygon","coordinates":[[[4.08981706,50.9046855],[4.08984491,50.9046578],[4.0898887,50.90467343],[4.08986126,50.90470038],[4.08981706,50.9046855]]]}},{"type":"Feature","id":"gebouw/Gebouw.12300354/0","properties":{"source":"Digitaal Vlaanderen Gebouwenregister","source_id":"gebouw/Gebouw.12300354/0","kind":"building","height_m":7.16,"status":null},"geometry":{"type":"Polygon","coordinates":[[[4.08993489,50.9047091],[4.0899711,50.90467786],[4.09001695,50.90469893],[4.0899844,50.90472975],[4.08993489,50.9047091]]]}},{"type":"Feature","id":"gebouw/Gebouw.16745757/0","properties":{"source":"Digitaal Vlaanderen Gebouwenregister","source_id":"gebouw/Gebouw.16745757/0","kind":"building","height_m":5.0,"status":null},"geometry":{"type":"Polygon","coordinates":[[[4.08646461,50.90357421],[4.0864319,50.9035757],[4.08642038,50.90353863],[4.08641894,50.903534],[4.08642787,50.90353328],[4.08645476,50.90353111],[4.08646461,50.90357421]]]}},{"type":"Feature","id":"gebouw/Gebouw.16746076/0","properties":{"source":"Digitaal Vlaanderen Gebouwenregister","source_id":"gebouw/Gebouw.16746076/0","kind":"building","height_m":7.88,"status":null},"geometry":{"type":"Polygon","coordinates":[[[4.08631362,50.90726555],[4.0863018,50.90732146],[4.08626693,50.9073185],[4.08626649,50.90731848],[4.08619666,50.90731258],[4.0861154,50.90730572],[4.08607303,50.90730203],[4.08608495,50.90724721],[4.08608924,50.90724759],[4.08612748,50.90725091],[4.08612768,50.90724984],[4.08631362,50.90726555]]]}},{"type":"Feature","id":"gebouw/Gebouw.16751602/0","properties":{"source":"Digitaal Vlaanderen Gebouwenregister","source_id":"gebouw/Gebouw.16751602/0","kind":"building","height_m":5.0,"status":null},"geometry":{"type":"Polygon","coordinates":[[[4.08794496,50.90578925],[4.08804373,50.90583681],[4.08797772,50.90589161],[4.0878624,50.90583583],[4.08789355,50.90580997],[4.08791029,50.90581803],[4.08794496,50.90578925]]]}},{"type":"Feature","id":"gebouw/Gebouw.16752088/0","properties":{"source":"Digitaal Vlaanderen Gebouwenregister","source_id":"gebouw/Gebouw.16752088/0","kind":"building","height_m":7.16,"status":null},"geometry":{"type":"Polygon","coordinates":[[[4.08964904,50.90620594],[4.08968378,50.90620811],[4.08967069,50.90629194],[4.08955089,50.9062861],[4.08955361,50.90626379],[4.08952465,50.90626238],[4.08952956,50.90622218],[4.08952478,50.90622195],[4.0895271,50.90620296],[4.0894694,50.9061999],[4.0894781,50.90613415],[4.08957236,50.90613914],[4.08957054,50.90615851],[4.08965562,50.90616381],[4.08964904,50.90620594]]]}},{"type":"Feature","id":"gebouw/Gebouw.16752135/0","properties":{"source":"Digitaal Vlaanderen Gebouwenregister","source_id":"gebouw/Gebouw.16752135/0","kind":"building","height_m":5.72,"status":null},"geometry":{"type":"Polygon","coordinates":[[[4.08930427,50.90616044],[4.08927422,50.90636552],[4.08914292,50.90635799],[4.08915177,50.90630458],[4.08918953,50.90617946],[4.08920973,50.90618312],[4.08921072,50.90618108],[4.08921231,50.90618136],[4.08921684,50.90617292],[4.08922341,50.90617102],[4.08923669,50.90616787],[4.08924329,50.90616691],[4.08924298,50.90616597],[4.08924961,50.90616512],[4.08925004,50.90616611],[4.08926268,50.90616484],[4.08928381,50.90616392],[4.08929859,50.90616326],[4.08929918,50.90616012],[4.08930427,50.90616044]]]}},{"type":"Feature","id":"gebouw/Gebouw.16752147/0","properties":{"source":"Digitaal Vlaanderen Gebouwenregister","source_id":"gebouw/Gebouw.16752147/0","kind":"building","height_m":9.32,"status":null},"geometry":{"type":"Polygon","coordinates":[[[4.09044058,50.90560926],[4.09035925,50.90559169],[4.09039626,50.90550803],[4.09041408,50.90551061],[4.09045452,50.90541961],[4.09052168,50.90543205],[4.09044058,50.90560926]]]}},{"type":"Feature","id":"gebouw/Gebouw.16752385/0","properties":{"source":"Digitaal Vlaanderen Gebouwenregister","source_id":"gebouw/Gebouw.16752385/0","kind":"building","height_m":9.32,"status":null},"geometry":{"type":"Polygon","coordinates":[[[4.09003359,50.90770068],[4.08997592,50.90781624],[4.08985672,50.9077921],[4.08990994,50.90768704],[4.08994828,50.90766141],[4.09004355,50.9076807],[4.09003359,50.90770068]]]}},{"type":"Feature","id":"gebouw/Gebouw.16752401/0","properties":{"source":"Digitaal Vlaanderen Gebouwenregister","source_id":"gebouw/Gebouw.16752401/0","kind":"building","height_m":5.72,"status":null},"geometry":{"type":"Polygon","coordinates":[[[4.08664315,50.90785346],[4.0865407,50.90783115],[4.0865526,50.9078093],[4.08665506,50.9078316],[4.08664315,50.90785346]]]}},{"type":"Feature","id":"gebouw/Gebouw.16754293/0","properties":{"source":"Digitaal Vlaanderen Gebouwenregister","source_id":"gebouw/Gebouw.16754293/0","kind":"building","height_m":7.16,"status":null},"geometry":{"type":"Polygon","coordinates":[[[4.0879661,50.90605914],[4.08804777,50.90609187],[4.088044,50.90609577],[4.08806006,50.90610198],[4.08806685,50.9061361],[4.08798997,50.90621392],[4.08781535,50.90614495],[4.08785908,50.90610069],[4.08788485,50.90611101],[4.08791725,50.9060775],[4.08793988,50.90608625],[4.0879661,50.90605914]]]}},{"type":"Feature","id":"gebouw/Gebouw.16754376/0","properties":{"source":"Digitaal Vlaanderen Gebouwenregister","source_id":"gebouw/Gebouw.16754376/0","kind":"building","height_m":6.44,"status":null},"geometry":{"type":"Polygon","coordinates":[[[4.08601066,50.9075906],[4.08592378,50.907564],[4.08597492,50.90749722],[4.0860618,50.90752382],[4.08601066,50.9075906]]]}},{"type":"Feature","id":"gebouw/Gebouw.16754423/0","properties":{"source":"Digitaal Vlaanderen Gebouwenregister","source_id":"gebouw/Gebouw.16754423/0","kind":"building","height_m":5.0,"status":null},"geometry":{"type":"Polygon","coordinates":[[[4.08720121,50.90343442],[4.08714882,50.90340419],[4.08714487,50.90336121],[4.08712333,50.90334857],[4.08711928,50.90334619],[4.08711938,50.90333023],[4.08711938,50.90332932],[4.08700672,50.90326832],[4.08700619,50.90326872],[4.08700485,50.90326971],[4.08699456,50.9032773],[4.08693869,50.90324705],[4.08693155,50.90324319],[4.08688041,50.90328096],[4.08682547,50.90324964],[4.08681941,50.90325397],[4.08675561,50.90329948],[4.08668463,50.90335012],[4.0866242,50.90339612],[4.08673832,50.90345882],[4.08677773,50.90343014],[4.08694252,50.90351849],[4.08695471,50.90350953],[4.08703415,50.90355018],[4.08720121,50.90343442]],[[4.08704962,50.90334391],[4.08709766,50.90336924],[4.08710791,50.90336103],[4.08711896,50.9033675],[4.08712399,50.90341369],[4.08711967,50.90341092],[4.08704603,50.90346409],[4.08687016,50.90336849],[4.08693999,50.903321],[4.0870225,50.90336448],[4.08704962,50.90334391]]]}},{"type":"Feature","id":"gebouw/Gebouw.16754579/0","properties":{"source":"Digitaal Vlaanderen Gebouwenregister","source_id":"gebouw/Gebouw.16754579/0","kind":"building","height_m":6.44,"status":null},"geometry":{"type":"Polygon","coordinates":[[[4.0873046,50.90741224],[4.08730384,50.90741348],[4.08715092,50.90737559],[4.08720887,50.90728207],[4.08716881,50.90727202],[4.08719209,50.90723449],[4.08732578,50.90726644],[4.08736534,50.90727589],[4.08738603,50.90728083],[4.0873046,50.90741224]]]}},{"type":"Feature","id":"gebouw/Gebouw.16754586/0","properties":{"source":"Digitaal Vlaanderen Gebouwenregister","source_id":"gebouw/Gebouw.16754586/0","kind":"building","height_m":6.44,"status":null},"geometry":{"type":"Polygon","coordinates":[[[4.0882798,50.9057842],[4.08824405,50.90581313],[4.08809464,50.90573931],[4.08808165,50.90574983],[4.08805716,50.90573773],[4.08813744,50.90567277],[4.08816103,50.90568442],[4.08816424,50.90568182],[4.08831455,50.90575608],[4.08830599,50.905763],[4.0882798,50.9057842]]]}},{"type":"Feature","id":"gebouw/Gebouw.16758273/0","properties":{"source":"Digitaal Vlaanderen Gebouwenregister","source_id":"gebouw/Gebouw.16758273/0","kind":"building","height_m":5.0,"status":null},"geometry":{"type":"Polygon","coordinates":[[[4.08634615,50.90794031],[4.08633084,50.90796727],[4.08628333,50.90795743],[4.08629725,50.90792914],[4.08634615,50.90794031]]]}},{"type":"Feature","id":"gebouw/Gebouw.16758326/0","properties":{"source":"Digitaal Vlaanderen Gebouwenregister","source_id":"gebouw/Gebouw.16758326/0","kind":"building","height_m":7.88,"status":null},"geometry":{"type":"Polygon","coordinates":[[[4.0883199,50.90787917],[4.08833962,50.90785193],[4.08837907,50.90786334],[4.08835935,50.90789058],[4.0883199,50.90787917]]]}},{"type":"Feature","id":"gebouw/Gebouw.16758589/0","properties":{"source":"Digitaal Vlaanderen Gebouwenregister","source_id":"gebouw/Gebouw.16758589/0","kind":"building","height_m":5.72,"status":null},"geometry":{"type":"Polygon","coordinates":[[[4.08890341,50.90820739],[4.08888836,50.90823297],[4.08882765,50.90821868],[4.08884269,50.90819311],[4.08890341,50.90820739]]]}},{"type":"Feature","id":"gebouw/Gebouw.16758829/0","properties":{"source":"Digitaal Vlaanderen Gebouwenregister","source_id":"gebouw/Gebouw.16758829/0","kind":"building","height_m":7.16,"status":null},"geometry":{"type":"Polygon","coordinates":[[[4.08800576,50.90781574],[4.08795452,50.90780451],[4.08797172,50.90777315],[4.08802296,50.90778438],[4.08800576,50.90781574]]]}},{"type":"Feature","id":"gebouw/Gebouw.16758870/0","properties":{"source":"Digitaal Vlaanderen Gebouwenregister","source_id":"gebouw/Gebouw.16758870/0","kind":"building","height_m":6.44,"status":null},"geometry":{"type":"Polygon","coordinates":[[[4.09020991,50.90751839],[4.09019379,50.90755637],[4.09012924,50.90754263],[4.09014879,50.90750575],[4.09020991,50.90751839]]]}},{"type":"Feature","id":"gebouw/Gebouw.16758911/0","properties":{"source":"Digitaal Vlaanderen Gebouwenregister","source_id":"gebouw/Gebouw.16758911/0","kind":"building","height_m":5.72,"status":null},"geometry":{"type":"Polygon","coordinates":[[[4.08966818,50.9045944],[4.08952352,50.90468827],[4.08936165,50.904584],[4.08951516,50.90448872],[4.08961146,50.90455075],[4.08960584,50.90455424],[4.08966818,50.9045944]]]}},{"type":"Feature","id":"gebouw/Gebouw.16758937/0","properties":{"source":"Digitaal Vlaanderen Gebouwenregister","source_id":"gebouw/Gebouw.16758937/0","kind":"building","height_m":9.32,"status":null},"geometry":{"type":"Polygon","coordinates":[[[4.08835347,50.90612231],[4.08851364,50.90618359],[4.08847929,50.90621948],[4.08839365,50.90618763],[4.08839513,50.90618585],[4.08832012,50.90615716],[4.08835347,50.90612231]]]}},{"type":"Feature","id":"gebouw/Gebouw.16759165/0","properties":{"source":"Digitaal Vlaanderen Gebouwenregister","source_id":"gebouw/Gebouw.16759165/0","kind":"building","height_m":7.16,"status":null},"geometry":{"type":"Polygon","coordinates":[[[4.08860797,50.9069243],[4.08860261,50.90693281],[4.08860728,50.90693398],[4.08858764,50.90696519],[4.08852742,50.90695004],[4.08854765,50.90691789],[4.08855385,50.90691945],[4.08855861,50.90691188],[4.08860797,50.9069243]]]}},{"type":"Feature","id":"gebouw/Gebouw.16761584/0","properties":{"source":"Digitaal Vlaanderen Gebouwenregister","source_id":"gebouw/Gebouw.16761584/0","kind":"building","height_m":5.0,"status":null},"geometry":{"type":"Polygon","coordinates":[[[4.088962,50.90766229],[4.08892487,50.90774893],[4.08883145,50.90773087],[4.08887296,50.90764886],[4.08887721,50.90764973],[4.08886941,50.90766787],[4.08894743,50.90768284],[4.08895699,50.90766151],[4.088962,50.90766229]]]}},{"type":"Feature","id":"gebouw/Gebouw.16761693/0","properties":{"source":"Digitaal Vlaanderen Gebouwenregister","source_id":"gebouw/Gebouw.16761693/0","kind":"building","height_m":7.88,"status":null},"geometry":{"type":"Polygon","coordinates":[[[4.09043501,50.90784446],[4.09038492,50.90783306],[4.090426,50.90775803],[4.09045463,50.90776472],[4.09042777,50.90781255],[4.09044876,50.9078174],[4.09043501,50.90784446]]]}},{"type":"Feature","id":"gebouw/Gebouw.16761977/0","properties":{"source":"Digitaal Vlaanderen Gebouwenregister","source_id":"gebouw/Gebouw.16761977/0","kind":"building","height_m":5.72,"status":null},"geometry":{"type":"Polygon","coordinates":[[[4.09078777,50.90596805],[4.09070922,50.90594295],[4.09073902,50.90590556],[4.09081757,50.90593066],[4.09078777,50.90596805]]]}},{"type":"Feature","id":"gebouw/Gebouw.16762146/0","properties":{"source":"Digitaal Vlaanderen Gebouwenregister","source_id":"gebouw/Gebouw.16762146/0","kind":"building","height_m":6.44,"status":null},"geometry":{"type":"Polygon","coordinates":[[[4.08872915,50.90439377],[4.0887104,50.90441499],[4.08870532,50.90441288],[4.08866505,50.9043962],[4.08868607,50.90437592],[4.08872915,50.90439377]]]}},{"type":"Feature","id":"gebouw/Gebouw.16762357/0","properties":{"source":"Digitaal Vlaanderen Gebouwenregister","source_id":"gebouw/Gebouw.16762357/0","kind":"building","height_m":7.16,"status":null},"geometry":{"type":"Polygon","coordinates":[[[4.08755678,50.90725381],[4.08756616,50.90725592],[4.08756553,50.90725717],[4.08759883,50.90726469],[4.0875996,50.9072631],[4.0876077,50.90726492],[4.08760618,50.9072681],[4.08764944,50.90727861],[4.0876577,50.90728061],[4.08766449,50.9072694],[4.08773721,50.907287],[4.08768063,50.90738048],[4.0876125,50.907364],[4.08762629,50.90734122],[4.08752187,50.90731595],[4.08755678,50.90725381]]]}},{"type":"Feature","id":"gebouw/Gebouw.16762423/0","properties":{"source":"Digitaal Vlaanderen Gebouwenregister","source_id":"gebouw/Gebouw.16762423/0","kind":"building","height_m":9.32,"status":null},"geometry":{"type":"Polygon","coordinates":[[[4.08702866,50.9077297],[4.08697031,50.90771513],[4.08698356,50.90769391],[4.08704191,50.90770847],[4.08702866,50.9077297]]]}},{"type":"Feature","id":"gebouw/Gebouw.16762494/0","properties":{"source":"Digitaal Vlaanderen Gebouwenregister","source_id":"gebouw/Gebouw.16762494/0","kind":"building","height_m":5.0,"status":null},"geometry":{"type":"Polygon","coordinates":[[[4.08871926,50.9072311],[4.08864937,50.90733265],[4.08858048,50.9073137],[4.08859386,50.907293],[4.08854909,50.90728068],[4.0885446,50.90728697],[4.08848375,50.90726993],[4.08855493,50.90716834],[4.08868432,50.90720513],[4.08867485,50.90721888],[4.08871926,50.9072311]]]}},{"type":"Feature","id":"gebouw/Gebouw.16772723/0","properties":{"source":"Digitaal Vlaanderen Gebouwenregister","source_id":"gebouw/Gebouw.16772723/0","kind":"building","height_m":6.44,"status":null},"geometry":{"type":"Polygon","coordinates":[[[4.08739495,50.90715398],[4.08732578,50.90726644],[4.08719209,50.90723449],[4.08721373,50.90719961],[4.08724462,50.90714984],[4.0872682,50.90715561],[4.08728586,50.90712715],[4.08739495,50.90715398]]]}},{"type":"Feature","id":"gebouw/Gebouw.16772831/0","properties":{"source":"Digitaal Vlaanderen Gebouwenregister","source_id":"gebouw/Gebouw.16772831/0","kind":"building","height_m":8.6,"status":null},"geometry":{"type":"Polygon","coordinates":[[[4.08733416,50.90328017],[4.08732071,50.90329036],[4.08735758,50.90330981],[4.08736573,50.90331412],[4.08730136,50.90336289],[4.08729825,50.90336524],[4.08710811,50.90326485],[4.08714612,50.90323607],[4.0871452,50.903229],[4.08716328,50.90321272],[4.08717986,50.90321224],[4.08718884,50.90320543],[4.08733416,50.90328017]]]}},{"type":"Feature","id":"gebouw/Gebouw.16772987/0","properties":{"source":"Digitaal Vlaanderen Gebouwenregister","source_id":"gebouw/Gebouw.16772987/0","kind":"building","height_m":5.0,"status":null},"geometry":{"type":"Polygon","coordinates":[[[4.0904698,50.90815825],[4.09047201,50.90815875],[4.09047259,50.9081578],[4.09061537,50.90819051],[4.0905285,50.90834211],[4.09043413,50.90832044],[4.0904656,50.90826564],[4.09041547,50.90825413],[4.0904698,50.90815825]]]}},{"type":"Feature","id":"gebouw/Gebouw.16773011/0","properties":{"source":"Digitaal Vlaanderen Gebouwenregister","source_id":"gebouw/Gebouw.16773011/0","kind":"building","height_m":7.16,"status":null},"geometry":{"type":"Polygon","coordinates":[[[4.08858819,50.90768032],[4.08859968,50.90766322],[4.08851033,50.90763922],[4.08856771,50.90755385],[4.08878345,50.90761182],[4.08871458,50.90771429],[4.08858819,50.90768032]]]}},{"type":"Feature","id":"gebouw/Gebouw.16773198/0","properties":{"source":"Digitaal Vlaanderen Gebouwenregister","source_id":"gebouw/Gebouw.16773198/0","kind":"building","height_m":5.72,"status":null},"geometry":{"type":"Polygon","coordinates":[[[4.08645501,50.9074963],[4.08649999,50.90741632],[4.08652652,50.90742228],[4.0865531,50.90737501],[4.08666603,50.9074004],[4.08659447,50.90752765],[4.08645501,50.9074963]]]}},{"type":"Feature","id":"gebouw/Gebouw.16773220/0","properties":{"source":"Digitaal Vlaanderen Gebouwenregister","source_id":"gebouw/Gebouw.16773220/0","kind":"building","height_m":6.44,"status":null},"geometry":{"type":"Polygon","coordinates":[[[4.09008638,50.90771137],[4.0901235,50.90771889],[4.09010744,50.9077506],[4.09011394,50.90775191],[4.09007155,50.9078356],[4.08997592,50.90781624],[4.09003359,50.90770068],[4.09008638,50.90771137]]]}},{"type":"Feature","id":"gebouw/Gebouw.16773423/0","properties":{"source":"Digitaal Vlaanderen Gebouwenregister","source_id":"gebouw/Gebouw.16773423/0","kind":"building","height_m":6.44,"status":null},"geometry":{"type":"Polygon","coordinates":[[[4.0902638,50.90552574],[4.09013768,50.90550676],[4.09015061,50.90547241],[4.09014895,50.905472],[4.0901597,50.90544424],[4.09016164,50.90544414],[4.09017447,50.90540943],[4.09024205,50.90541995],[4.09024608,50.90540917],[4.0902934,50.90541624],[4.09028915,50.90542759],[4.09032648,50.90543317],[4.09029661,50.90551254],[4.09027026,50.90550858],[4.0902638,50.90552574]]]}},{"type":"Feature","id":"gebouw/Gebouw.16774627/0","properties":{"source":"Digitaal Vlaanderen Gebouwenregister","source_id":"gebouw/Gebouw.16774627/0","kind":"building","height_m":6.44,"status":null},"geometry":{"type":"Polygon","coordinates":[[[4.08869869,50.90608808],[4.08865283,50.90612571],[4.0883767,50.90597273],[4.08839559,50.9059591],[4.08844926,50.90592037],[4.08849871,50.90594756],[4.08866709,50.90604013],[4.08872379,50.90599163],[4.08878294,50.90601896],[4.08869869,50.90608808]]]}},{"type":"Feature","id":"gebouw/Gebouw.16774728/0","properties":{"source":"Digitaal Vlaanderen Gebouwenregister","source_id":"gebouw/Gebouw.16774728/0","kind":"building","height_m":8.6,"status":null},"geometry":{"type":"Polygon","coordinates":[[[4.09025324,50.90759104],[4.09021121,50.90767483],[4.09015775,50.90766411],[4.09020989,50.90755867],[4.09026398,50.90756963],[4.09025324,50.90759104]]]}},{"type":"Feature","id":"gebouw/Gebouw.16774916/0","properties":{"source":"Digitaal Vlaanderen Gebouwenregister","source_id":"gebouw/Gebouw.16774916/0","kind":"building","height_m":7.88,"status":null},"geometry":{"type":"Polygon","coordinates":[[[4.08812415,50.90606235],[4.08812214,50.90606462],[4.08819199,50.90608935],[4.08817686,50.90610644],[4.08808108,50.90607252],[4.08809822,50.90605317],[4.08812415,50.90606235]]]}},{"type":"Feature","id":"gebouw/Gebouw.16775017/0","properties":{"source":"Digitaal Vlaanderen Gebouwenregister","source_id":"gebouw/Gebouw.16775017/0","kind":"building","height_m":5.0,"status":null},"geometry":{"type":"Polygon","coordinates":[[[4.08915836,50.90738781],[4.08917841,50.90739166],[4.08917674,50.90739512],[4.08922425,50.90740425],[4.08921363,50.90742633],[4.0892856,50.90743959],[4.08924182,50.9075346],[4.08918986,50.90752503],[4.08917647,50.90752256],[4.08918002,50.90751487],[4.0891662,50.90751228],[4.0891058,50.90750096],[4.08915718,50.90739035],[4.08915836,50.90738781]]]}},{"type":"Feature","id":"gebouw/Gebouw.16775114/0","properties":{"source":"Digitaal Vlaanderen Gebouwenregister","source_id":"gebouw/Gebouw.16775114/0","kind":"building","height_m":9.32,"status":null},"geometry":{"type":"Polygon","coordinates":[[[4.08650537,50.90774513],[4.08644842,50.90773227],[4.08649924,50.90764233],[4.0865567,50.90765428],[4.08650537,50.90774513]]]}},{"type":"Feature","id":"gebouw/Gebouw.16781745/0","properties":{"source":"Digitaal Vlaanderen Gebouwenregister","source_id":"gebouw/Gebouw.16781745/0","kind":"building","height_m":5.72,"status":null},"geometry":{"type":"Polygon","coordinates":[[[4.0905131,50.90804057],[4.09040959,50.90801238],[4.09040447,50.90801098],[4.09042809,50.90797598],[4.09042221,50.90797492],[4.09031932,50.90795646],[4.09037138,50.90785369],[4.09041787,50.90786308],[4.09039807,50.90790227],[4.09044649,50.90791205],[4.09042753,50.90794957],[4.09043404,50.90795089],[4.09044379,50.90795286],[4.09044782,50.90794488],[4.09044297,50.9079439],[4.09048419,50.90786236],[4.09053332,50.90787229],[4.09051191,50.90791464],[4.09051996,50.90791627],[4.09051186,50.90793229],[4.09052717,50.90793538],[4.09051473,50.90795998],[4.09055717,50.90796948],[4.09056602,50.90795149],[4.09058282,50.90791738],[4.09054143,50.90790811],[4.09059253,50.90779802],[4.09060792,50.90776486],[4.09065233,50.9077731],[4.09064696,50.90778467],[4.09067944,50.90779069],[4.09066953,50.90781204],[4.09063983,50.90787603],[4.0906516,50.90787821],[4.09057339,50.90803447],[4.09052395,50.90802344],[4.0905131,50.90804057]]]}},{"type":"Feature","id":"gebouw/Gebouw.16781967/0","properties":{"source":"Digitaal Vlaanderen Gebouwenregister","source_id":"gebouw/Gebouw.16781967/0","kind":"building","height_m":9.32,"status":null},"geometry":{"type":"Polygon","coordinates":[[[4.08920203,50.90779392],[4.08929507,50.90783076],[4.08926813,50.90785776],[4.08928389,50.90786465],[4.08928862,50.90785983],[4.08929437,50.90786216],[4.08921297,50.90794259],[4.08920054,50.90793756],[4.08909942,50.90789667],[4.08910748,50.90788861],[4.08920203,50.90779392]]]}},{"type":"Feature","id":"gebouw/Gebouw.16782093/0","properties":{"source":"Digitaal Vlaanderen Gebouwenregister","source_id":"gebouw/Gebouw.16782093/0","kind":"building","height_m":9.32,"status":null},"geometry":{"type":"Polygon","coordinates":[[[4.09055112,50.9053315],[4.0905478,50.9053307],[4.09056137,50.90530807],[4.09051144,50.9052961],[4.09055003,50.90523243],[4.09065135,50.90525699],[4.0906556,50.90524993],[4.09071414,50.90526397],[4.09064321,50.90538222],[4.09057497,50.90536586],[4.09057726,50.90536205],[4.09058999,50.90534082],[4.09055112,50.9053315]]]}},{"type":"Feature","id":"gebouw/Gebouw.16782463/0","properties":{"source":"Digitaal Vlaanderen Gebouwenregister","source_id":"gebouw/Gebouw.16782463/0","kind":"building","height_m":8.6,"status":null},"geometry":{"type":"Polygon","coordinates":[[[4.09078845,50.90598138],[4.09067069,50.90614142],[4.09055696,50.90610797],[4.09067355,50.90594962],[4.09078845,50.90598138]]]}},{"type":"Feature","id":"gebouw/Gebouw.16782551/0","properties":{"source":"Digitaal Vlaanderen Gebouwenregister","source_id":"gebouw/Gebouw.16782551/0","kind":"building","height_m":6.44,"status":null},"geometry":{"type":"Polygon","coordinates":[[[4.09038093,50.90540316],[4.09033945,50.90539344],[4.09034949,50.90537649],[4.0903307,50.90537239],[4.09034493,50.90534759],[4.09040561,50.90536233],[4.09038093,50.90540316]]]}},{"type":"Feature","id":"gebouw/Gebouw.16783545/0","properties":{"source":"Digitaal Vlaanderen Gebouwenregister","source_id":"gebouw/Gebouw.16783545/0","kind":"building","height_m":6.44,"status":null},"geometry":{"type":"Polygon","coordinates":[[[4.08755888,50.90546366],[4.08750277,50.90550146],[4.08757028,50.90554034],[4.08760412,50.90551684],[4.08758762,50.90550734],[4.08760903,50.90549248],[4.08755888,50.90546366]]]}},{"type":"Feature","id":"gebouw/Gebouw.16783671/0","properties":{"source":"Digitaal Vlaanderen Gebouwenregister","source_id":"gebouw/Gebouw.16783671/0","kind":"building","height_m":6.44,"status":null},"geometry":{"type":"Polygon","coordinates":[[[4.08822048,50.90785003],[4.08823954,50.90781809],[4.08829032,50.90783021],[4.08827126,50.90786215],[4.08822048,50.90785003]]]}},{"type":"Feature","id":"gebouw/Gebouw.16783912/0","properties":{"source":"Digitaal Vlaanderen Gebouwenregister","source_id":"gebouw/Gebouw.16783912/0","kind":"building","height_m":8.6,"status":null},"geometry":{"type":"Polygon","coordinates":[[[4.08824744,50.90682343],[4.08820152,50.90680907],[4.08822771,50.9067756],[4.08827363,50.90678996],[4.08824744,50.90682343]]]}},{"type":"Feature","id":"gebouw/Gebouw.16783928/0","properties":{"source":"Digitaal Vlaanderen Gebouwenregister","source_id":"gebouw/Gebouw.16783928/0","kind":"building","height_m":5.0,"status":null},"geometry":{"type":"Polygon","coordinates":[[[4.0861186,50.90789455],[4.08618255,50.90791148],[4.08616161,50.90794309],[4.08611062,50.90792958],[4.08610914,50.90793182],[4.08609618,50.90792838],[4.0861186,50.90789455]]]}},{"type":"Feature","id":"gebouw/Gebouw.16783951/0","properties":{"source":"Digitaal Vlaanderen Gebouwenregister","source_id":"gebouw/Gebouw.16783951/0","kind":"building","height_m":6.44,"status":null},"geometry":{"type":"Polygon","coordinates":[[[4.08992421,50.90617054],[4.09000304,50.90618991],[4.09001805,50.90616549],[4.08993922,50.90614612],[4.08992421,50.90617054]]]}},{"type":"Feature","id":"gebouw/Gebouw.16785340/0","properties":{"source":"Digitaal Vlaanderen Gebouwenregister","source_id":"gebouw/Gebouw.16785340/0","kind":"building","height_m":8.6,"status":null},"geometry":{"type":"Polygon","coordinates":[[[4.08822295,50.90720851],[4.08828397,50.90712154],[4.0884525,50.90716805],[4.08838417,50.90726701],[4.08832429,50.90725048],[4.08833209,50.90723912],[4.08822295,50.90720851]]]}},{"type":"Feature","id":"gebouw/Gebouw.16785351/0","properties":{"source":"Digitaal Vlaanderen Gebouwenregister","source_id":"gebouw/Gebouw.16785351/0","kind":"building","height_m":6.44,"status":null},"geometry":{"type":"Polygon","coordinates":[[[4.09000205,50.90753096],[4.08995705,50.90752236],[4.08997605,50.90748247],[4.09002105,50.90749107],[4.09000205,50.90753096]]]}},{"type":"Feature","id":"gebouw/Gebouw.16785447/0","properties":{"source":"Digitaal Vlaanderen Gebouwenregister","source_id":"gebouw/Gebouw.16785447/0","kind":"building","height_m":5.0,"status":null},"geometry":{"type":"Polygon","coordinates":[[[4.0893682,50.90803789],[4.08934278,50.9080817],[4.08929223,50.90806998],[4.08931765,50.90802617],[4.0893682,50.90803789]]]}},{"type":"Feature","id":"gebouw/Gebouw.16785499/0","properties":{"source":"Digitaal Vlaanderen Gebouwenregister","source_id":"gebouw/Gebouw.16785499/0","kind":"building","height_m":7.16,"status":null},"geometry":{"type":"Polygon","coordinates":[[[4.0897041,50.90604837],[4.08971328,50.9060364],[4.08977903,50.90595069],[4.08993714,50.90599918],[4.0898644,50.906094],[4.0897041,50.90604837]]]}},{"type":"Feature","id":"gebouw/Gebouw.16785537/0","properties":{"source":"Digitaal Vlaanderen Gebouwenregister","source_id":"gebouw/Gebouw.16785537/0","kind":"building","height_m":9.32,"status":null},"geometry":{"type":"Polygon","coordinates":[[[4.08913235,50.90417925],[4.0891644,50.90415609],[4.08923882,50.90419727],[4.08912204,50.90428481],[4.08893671,50.90418597],[4.08902389,50.90412062],[4.08913235,50.90417925]]]}},{"type":"Feature","id":"gebouw/Gebouw.16785983/0","properties":{"source":"Digitaal Vlaanderen Gebouwenregister","source_id":"gebouw/Gebouw.16785983/0","kind":"building","height_m":7.88,"status":null},"geometry":{"type":"Polygon","coordinates":[[[4.08739556,50.90752133],[4.08737885,50.90755308],[4.0872993,50.90753635],[4.08731601,50.90750459],[4.08739556,50.90752133]]]}},{"type":"Feature","id":"gebouw/Gebouw.16786123/0","properties":{"source":"Digitaal Vlaanderen Gebouwenregister","source_id":"gebouw/Gebouw.16786123/0","kind":"building","height_m":7.88,"status":null},"geometry":{"type":"Polygon","coordinates":[[[4.08831434,50.90748573],[4.08823325,50.90760882],[4.08811296,50.90757652],[4.0881372,50.90754044],[4.08812548,50.90753729],[4.08818369,50.90745064],[4.08831434,50.90748573]]]}},{"type":"Feature","id":"gebouw/Gebouw.16797019/0","properties":{"source":"Digitaal Vlaanderen Gebouwenregister","source_id":"gebouw/Gebouw.16797019/0","kind":"building","height_m":5.72,"status":null},"geometry":{"type":"Polygon","coordinates":[[[4.08639258,50.90746467],[4.08637093,50.90745859],[4.08637593,50.90745147],[4.0861917,50.90740045],[4.08615257,50.90738961],[4.08619403,50.90733003],[4.08623651,50.90734185],[4.08625651,50.90734742],[4.08625902,50.90734812],[4.0864366,50.90739753],[4.08643998,50.9073929],[4.08643865,50.90739247],[4.08644024,50.90739049],[4.08644397,50.90739152],[4.08639258,50.90746467]]]}},{"type":"Feature","id":"gebouw/Gebouw.16797054/0","properties":{"source":"Digitaal Vlaanderen Gebouwenregister","source_id":"gebouw/Gebouw.16797054/0","kind":"building","height_m":5.72,"status":null},"geometry":{"type":"Polygon","coordinates":[[[4.08654359,50.90759223],[4.08658646,50.90760161],[4.08656712,50.90763957],[4.08651497,50.90762898],[4.08653193,50.9075988],[4.08654359,50.90759223]]]}},{"type":"Feature","id":"gebouw/Gebouw.16797084/0","properties":{"source":"Digitaal Vlaanderen Gebouwenregister","source_id":"gebouw/Gebouw.16797084/0","kind":"building","height_m":7.16,"status":null},"geometry":{"type":"Polygon","coordinates":[[[4.09027965,50.90570096],[4.09025556,50.90573602],[4.09026688,50.90573912],[4.0902798,50.90575832],[4.09026758,50.90577786],[4.09023321,50.90578827],[4.09003455,50.9057337],[4.0900589,50.90569825],[4.09006789,50.90568517],[4.09009238,50.90564952],[4.09027965,50.90570096]]]}},{"type":"Feature","id":"gebouw/Gebouw.16797640/0","properties":{"source":"Digitaal Vlaanderen Gebouwenregister","source_id":"gebouw/Gebouw.16797640/0","kind":"building","height_m":9.32,"status":null},"geometry":{"type":"Polygon","coordinates":[[[4.08950838,50.90437272],[4.08939582,50.90445165],[4.08932846,50.90441324],[4.08933606,50.90440793],[4.08929277,50.90438325],[4.0892918,50.90438392],[4.08925804,50.90436462],[4.08925895,50.90436397],[4.08921581,50.90433917],[4.08924913,50.904316],[4.08925324,50.90430099],[4.08926994,50.90428901],[4.08929283,50.90428871],[4.08931612,50.90427239],[4.08937582,50.90430643],[4.08938313,50.9043013],[4.08950838,50.90437272]]]}},{"type":"Feature","id":"gebouw/Gebouw.16800944/0","properties":{"source":"Digitaal Vlaanderen Gebouwenregister","source_id":"gebouw/Gebouw.16800944/0","kind":"building","height_m":9.32,"status":null},"geometry":{"type":"Polygon","coordinates":[[[4.08760197,50.90562744],[4.0876167,50.90561354],[4.08756024,50.90558958],[4.08757922,50.90556733],[4.08763545,50.90559085],[4.08763218,50.90559319],[4.08773767,50.9056402],[4.08771757,50.90565819],[4.08766852,50.90563646],[4.08765403,50.90564845],[4.08764894,50.90564638],[4.08764637,50.90564872],[4.08760197,50.90562744]]]}},{"type":"Feature","id":"gebouw/Gebouw.16801195/0","properties":{"source":"Digitaal Vlaanderen Gebouwenregister","source_id":"gebouw/Gebouw.16801195/0","kind":"building","height_m":8.6,"status":null},"geometry":{"type":"Polygon","coordinates":[[[4.08795556,50.90748745],[4.08792375,50.90754143],[4.08780525,50.90751353],[4.0878213,50.90748627],[4.08778499,50.90747748],[4.08785054,50.90736926],[4.08789051,50.90737894],[4.08788325,50.90739192],[4.08803807,50.90743124],[4.08805634,50.90740148],[4.0881207,50.90741664],[4.08806394,50.90751298],[4.08795556,50.90748745]]]}},{"type":"Feature","id":"gebouw/Gebouw.16801295/0","properties":{"source":"Digitaal Vlaanderen Gebouwenregister","source_id":"gebouw/Gebouw.16801295/0","kind":"building","height_m":5.0,"status":null},"geometry":{"type":"Polygon","coordinates":[[[4.09063168,50.90796605],[4.09061824,50.90796331],[4.09063263,50.9079342],[4.09070126,50.90779546],[4.09074432,50.90780398],[4.09069828,50.90789707],[4.09072528,50.90790241],[4.09070322,50.90794702],[4.09075128,50.90795652],[4.09073738,50.90798463],[4.09078671,50.90799438],[4.09074928,50.90806762],[4.09059579,50.90803625],[4.09063168,50.90796605]]]}},{"type":"Feature","id":"gebouw/Gebouw.16801376/0","properties":{"source":"Digitaal Vlaanderen Gebouwenregister","source_id":"gebouw/Gebouw.16801376/0","kind":"building","height_m":7.88,"status":null},"geometry":{"type":"Polygon","coordinates":[[[4.08615364,50.90745022],[4.08623038,50.90747368],[4.08618346,50.90753503],[4.0861594,50.90752768],[4.08614861,50.90754179],[4.08609733,50.90752612],[4.08610844,50.90751159],[4.08610704,50.90751116],[4.08615364,50.90745022]]]}},{"type":"Feature","id":"gebouw/Gebouw.16801793/0","properties":{"source":"Digitaal Vlaanderen Gebouwenregister","source_id":"gebouw/Gebouw.16801793/0","kind":"building","height_m":5.72,"status":null},"geometry":{"type":"Polygon","coordinates":[[[4.09016782,50.90787383],[4.0902319,50.90774825],[4.09024074,50.90774998],[4.09026276,50.90775089],[4.09028726,50.90775343],[4.09031077,50.90775822],[4.09033168,50.90776463],[4.09035033,50.90777144],[4.09036411,50.90777414],[4.09029966,50.9079057],[4.09024237,50.90789448],[4.09024496,50.90788956],[4.09016782,50.90787383]]]}},{"type":"Feature","id":"gebouw/Gebouw.16812224/0","properties":{"source":"Digitaal Vlaanderen Gebouwenregister","source_id":"gebouw/Gebouw.16812224/0","kind":"building","height_m":6.44,"status":null},"geometry":{"type":"Polygon","coordinates":[[[4.09025324,50.90759104],[4.09030698,50.90760246],[4.09026813,50.90768624],[4.09021121,50.90767483],[4.09025324,50.90759104]]]}},{"type":"Feature","id":"gebouw/Gebouw.16812297/0","properties":{"source":"Digitaal Vlaanderen Gebouwenregister","source_id":"gebouw/Gebouw.16812297/0","kind":"building","height_m":8.6,"status":null},"geometry":{"type":"Polygon","coordinates":[[[4.08808913,50.90709259],[4.08808336,50.90710068],[4.08816525,50.90712332],[4.08812571,50.90718051],[4.08804543,50.90715832],[4.08799062,50.90714317],[4.08798209,50.9071557],[4.08789696,50.90713235],[4.08790991,50.90711354],[4.08789605,50.90710959],[4.08793873,50.90704972],[4.08808913,50.90709259]]]}},{"type":"Feature","id":"gebouw/Gebouw.16812439/0","properties":{"source":"Digitaal Vlaanderen Gebouwenregister","source_id":"gebouw/Gebouw.16812439/0","kind":"building","height_m":5.0,"status":null},"geometry":{"type":"Polygon","coordinates":[[[4.08793592,50.90542261],[4.08784719,50.90537051],[4.08789016,50.90534125],[4.0879789,50.90539335],[4.08793592,50.90542261]]]}},{"type":"Feature","id":"gebouw/Gebouw.16812477/0","properties":{"source":"Digitaal Vlaanderen Gebouwenregister","source_id":"gebouw/Gebouw.16812477/0","kind":"building","height_m":7.16,"status":null},"geometry":{"type":"Polygon","coordinates":[[[4.08854528,50.90413268],[4.08851069,50.90416824],[4.08837382,50.90411493],[4.08841589,50.9040688],[4.08855729,50.90412034],[4.08854528,50.90413268]]]}},{"type":"Feature","id":"gebouw/Gebouw.16812513/0","properties":{"source":"Digitaal Vlaanderen Gebouwenregister","source_id":"gebouw/Gebouw.16812513/0","kind":"building","height_m":7.88,"status":null},"geometry":{"type":"Polygon","coordinates":[[[4.08897566,50.90627401],[4.08904432,50.90628593],[4.08901064,50.90636349],[4.08905207,50.90637068],[4.08902913,50.90640589],[4.08903684,50.90640723],[4.08895897,50.90658703],[4.08877104,50.90655441],[4.08884783,50.90637754],[4.08884309,50.90637668],[4.08884595,50.90637042],[4.08883296,50.90636805],[4.08887586,50.90627399],[4.08886393,50.90627181],[4.08882529,50.90626476],[4.088845,50.90622154],[4.08875843,50.90620575],[4.08877958,50.90615409],[4.08879201,50.90615612],[4.08881056,50.90611542],[4.08893137,50.90613712],[4.08902983,50.9061548],[4.08897566,50.90627401]]]}},{"type":"Feature","id":"gebouw/Gebouw.16812676/0","properties":{"source":"Digitaal Vlaanderen Gebouwenregister","source_id":"gebouw/Gebouw.16812676/0","kind":"building","height_m":9.32,"status":null},"geometry":{"type":"Polygon","coordinates":[[[4.08957955,50.90479113],[4.08947573,50.90472964],[4.08964008,50.9046187],[4.08974389,50.90468019],[4.08957955,50.90479113]]]}},{"type":"Feature","id":"gebouw/Gebouw.16813653/0","properties":{"source":"Digitaal Vlaanderen Gebouwenregister","source_id":"gebouw/Gebouw.16813653/0","kind":"building","height_m":7.16,"status":null},"geometry":{"type":"Polygon","coordinates":[[[4.08918953,50.90617946],[4.08915177,50.90630458],[4.08904432,50.90628593],[4.08897566,50.90627401],[4.08902983,50.9061548],[4.08915014,50.90617575],[4.08915261,50.90617057],[4.08918974,50.90617762],[4.08918953,50.90617946]]]}},{"type":"Feature","id":"gebouw/Gebouw.16813772/0","properties":{"source":"Digitaal Vlaanderen Gebouwenregister","source_id":"gebouw/Gebouw.16813772/0","kind":"building","height_m":7.16,"status":null},"geometry":{"type":"Polygon","coordinates":[[[4.08959318,50.90749126],[4.08960126,50.90747548],[4.08963315,50.90746487],[4.08966843,50.90747178],[4.08968459,50.90749095],[4.08968255,50.9074951],[4.08978501,50.90751519],[4.08973499,50.90761719],[4.08973373,50.90761858],[4.08973161,50.9076197],[4.08972886,50.90762053],[4.08972567,50.90762086],[4.08972346,50.9076208],[4.08967837,50.90761168],[4.08967692,50.90761308],[4.08967534,50.90761385],[4.08967268,50.90761444],[4.0896706,50.90761448],[4.08963186,50.9076065],[4.08961749,50.9076115],[4.08959551,50.90760696],[4.08958369,50.90759256],[4.08954201,50.90758411],[4.08952916,50.90761025],[4.08952764,50.90761174],[4.08952521,50.907613],[4.08952276,50.90761364],[4.08951953,50.90761394],[4.08951681,50.90761371],[4.08944808,50.90759991],[4.08944529,50.90759886],[4.08944332,50.90759747],[4.08944189,50.9075957],[4.08944139,50.90759403],[4.08944198,50.90759235],[4.08949772,50.90747186],[4.08959318,50.90749126]]]}},{"type":"Feature","id":"gebouw/Gebouw.16814155/0","properties":{"source":"Digitaal Vlaanderen Gebouwenregister","source_id":"gebouw/Gebouw.16814155/0","kind":"building","height_m":5.72,"status":null},"geometry":{"type":"Polygon","coordinates":[[[4.08290817,50.90748398],[4.08282158,50.90747683],[4.08282698,50.90745067],[4.08291358,50.90745782],[4.08290817,50.90748398]]]}},{"type":"Feature","id":"gebouw/Gebouw.16814383/0","properties":{"source":"Digitaal Vlaanderen Gebouwenregister","source_id":"gebouw/Gebouw.16814383/0","kind":"building","height_m":8.6,"status":null},"geometry":{"type":"Polygon","coordinates":[[[4.08920203,50.90779392],[4.08910748,50.90788861],[4.08908711,50.90788055],[4.08904742,50.90786485],[4.08904226,50.90786281],[4.08905601,50.90784892],[4.08901341,50.90783206],[4.0890089,50.90783028],[4.08904543,50.90779337],[4.089038,50.90779042],[4.08908167,50.9077463],[4.08920203,50.90779392]]]}},{"type":"Feature","id":"gebouw/Gebouw.16820989/0","properties":{"source":"Digitaal Vlaanderen Gebouwenregister","source_id":"gebouw/Gebouw.16820989/0","kind":"building","height_m":7.16,"status":null},"geometry":{"type":"Polygon","coordinates":[[[4.0899738,50.90478858],[4.090085,50.90483496],[4.08999577,50.90492049],[4.08988614,50.90487476],[4.08992061,50.90484172],[4.08990475,50.9048351],[4.08992919,50.90481167],[4.08994349,50.90481763],[4.0899738,50.90478858]]]}},{"type":"Feature","id":"gebouw/Gebouw.16821151/0","properties":{"source":"Digitaal Vlaanderen Gebouwenregister","source_id":"gebouw/Gebouw.16821151/0","kind":"building","height_m":7.88,"status":null},"geometry":{"type":"Polygon","coordinates":[[[4.0886351,50.90711839],[4.08868657,50.90704262],[4.08881162,50.90707658],[4.08876015,50.90715235],[4.0886351,50.90711839]]]}},{"type":"Feature","id":"gebouw/Gebouw.16821329/0","properties":{"source":"Digitaal Vlaanderen Gebouwenregister","source_id":"gebouw/Gebouw.16821329/0","kind":"building","height_m":5.0,"status":null},"geometry":{"type":"Polygon","coordinates":[[[4.08933192,50.90712292],[4.08929389,50.90711492],[4.0893111,50.90708224],[4.08934913,50.90709024],[4.08933192,50.90712292]]]}},{"type":"Feature","id":"gebouw/Gebouw.16821331/0","properties":{"source":"Digitaal Vlaanderen Gebouwenregister","source_id":"gebouw/Gebouw.16821331/0","kind":"building","height_m":6.44,"status":null},"geometry":{"type":"Polygon","coordinates":[[[4.09040608,50.90524349],[4.09036599,50.90533563],[4.09025122,50.9053156],[4.09031151,50.90517754],[4.09044115,50.90520009],[4.09042113,50.9052461],[4.09040608,50.90524349]]]}},{"type":"Feature","id":"gebouw/Gebouw.16829250/0","properties":{"source":"Digitaal Vlaanderen Gebouwenregister","source_id":"gebouw/Gebouw.16829250/0","kind":"building","height_m":7.88,"status":null},"geometry":{"type":"Polygon","coordinates":[[[4.08863249,50.90626336],[4.08857692,50.90624484],[4.08860331,50.90621318],[4.08862605,50.90622097],[4.08864529,50.90619733],[4.08867991,50.90620887],[4.08866047,50.90623317],[4.08865822,50.9062325],[4.08863249,50.90626336]]]}},{"type":"Feature","id":"gebouw/Gebouw.16829292/0","properties":{"source":"Digitaal Vlaanderen Gebouwenregister","source_id":"gebouw/Gebouw.16829292/0","kind":"building","height_m":7.88,"status":null},"geometry":{"type":"Polygon","coordinates":[[[4.08920811,50.90713341],[4.08922276,50.90710102],[4.08928518,50.90711231],[4.08927053,50.9071447],[4.08920811,50.90713341]]]}},{"type":"Feature","id":"gebouw/Gebouw.16829327/0","properties":{"source":"Digitaal Vlaanderen Gebouwenregister","source_id":"gebouw/Gebouw.16829327/0","kind":"building","height_m":7.88,"status":null},"geometry":{"type":"Polygon","coordinates":[[[4.08983663,50.90474346],[4.08989382,50.90476682],[4.08980447,50.9048543],[4.08976143,50.90483672],[4.08976542,50.90483248],[4.08968721,50.9048004],[4.08976131,50.90473566],[4.08976247,50.90473613],[4.08982009,50.90475966],[4.08983663,50.90474346]]]}},{"type":"Feature","id":"gebouw/Gebouw.16829343/0","properties":{"source":"Digitaal Vlaanderen Gebouwenregister","source_id":"gebouw/Gebouw.16829343/0","kind":"building","height_m":9.32,"status":null},"geometry":{"type":"Polygon","coordinates":[[[4.09007437,50.90596147],[4.09006974,50.90596755],[4.09004036,50.90595861],[4.09004475,50.90595285],[4.08991476,50.9059133],[4.08997515,50.90583394],[4.09005435,50.90585804],[4.09007024,50.90583716],[4.09021325,50.90588067],[4.0901372,50.90598059],[4.09007437,50.90596147]]]}},{"type":"Feature","id":"gebouw/Gebouw.16847284/0","properties":{"source":"Digitaal Vlaanderen Gebouwenregister","source_id":"gebouw/Gebouw.16847284/0","kind":"building","height_m":9.32,"status":null},"geometry":{"type":"Polygon","coordinates":[[[4.08952627,50.90792406],[4.08944556,50.90806355],[4.08937282,50.90804673],[4.08937797,50.90803783],[4.08934374,50.90802985],[4.08935808,50.90800525],[4.08932793,50.90799822],[4.089372,50.90792257],[4.08937803,50.90792397],[4.0893812,50.90791853],[4.08940709,50.90792456],[4.08941574,50.90790973],[4.0894522,50.90791822],[4.0894579,50.90790825],[4.08952627,50.90792406]]]}},{"type":"Feature","id":"gebouw/Gebouw.16847477/0","properties":{"source":"Digitaal Vlaanderen Gebouwenregister","source_id":"gebouw/Gebouw.16847477/0","kind":"building","height_m":7.16,"status":null},"geometry":{"type":"Polygon","coordinates":[[[4.08755094,50.9069148],[4.08755631,50.90691621],[4.08748808,50.90702183],[4.08742705,50.90700607],[4.08744601,50.90697613],[4.08737559,50.90695728],[4.08742503,50.90688182],[4.08748382,50.90689722],[4.08755094,50.9069148]]]}},{"type":"Feature","id":"gebouw/Gebouw.16847560/0","properties":{"source":"Digitaal Vlaanderen Gebouwenregister","source_id":"gebouw/Gebouw.16847560/0","kind":"building","height_m":6.44,"status":null},"geometry":{"type":"Polygon","coordinates":[[[4.08875041,50.90432686],[4.08870251,50.90437691],[4.08858555,50.90433216],[4.08863344,50.90428211],[4.08875041,50.90432686]]]}},{"type":"Feature","id":"gebouw/Gebouw.16847800/0","properties":{"source":"Digitaal Vlaanderen Gebouwenregister","source_id":"gebouw/Gebouw.16847800/0","kind":"building","height_m":7.88,"status":null},"geometry":{"type":"Polygon","coordinates":[[[4.08773968,50.90696223],[4.08774131,50.90695957],[4.08778875,50.90697121],[4.08772704,50.90707306],[4.08767917,50.90706147],[4.08768212,50.90705642],[4.08764241,50.90704686],[4.08763471,50.90705933],[4.08758955,50.90704826],[4.08765505,50.90694148],[4.08773968,50.90696223]]]}},{"type":"Feature","id":"gebouw/Gebouw.17058291/0","properties":{"source":"Digitaal Vlaanderen Gebouwenregister","source_id":"gebouw/Gebouw.17058291/0","kind":"building","height_m":8.6,"status":null},"geometry":{"type":"Polygon","coordinates":[[[4.09071335,50.90816453],[4.09066958,50.90824177],[4.09073481,50.90825675],[4.09073349,50.90825905],[4.09078748,50.90827145],[4.0907611,50.90831734],[4.09084251,50.90833604],[4.09091451,50.90821074],[4.09071335,50.90816453]]]}},{"type":"Feature","id":"gebouw/Gebouw.17058302/0","properties":{"source":"Digitaal Vlaanderen Gebouwenregister","source_id":"gebouw/Gebouw.17058302/0","kind":"building","height_m":6.44,"status":null},"geometry":{"type":"Polygon","coordinates":[[[4.08752056,50.90675142],[4.08750705,50.90677436],[4.08744787,50.90676043],[4.08746138,50.90673748],[4.08752056,50.90675142]]]}},{"type":"Feature","id":"gebouw/Gebouw.17058516/0","properties":{"source":"Digitaal Vlaanderen Gebouwenregister","source_id":"gebouw/Gebouw.17058516/0","kind":"building","height_m":9.32,"status":null},"geometry":{"type":"Polygon","coordinates":[[[4.08995116,50.90763096],[4.08988985,50.90761826],[4.08993819,50.9075249],[4.08999949,50.90753759],[4.08995116,50.90763096]]]}},{"type":"Feature","id":"gebouw/Gebouw.17058639/0","properties":{"source":"Digitaal Vlaanderen Gebouwenregister","source_id":"gebouw/Gebouw.17058639/0","kind":"building","height_m":7.16,"status":null},"geometry":{"type":"Polygon","coordinates":[[[4.08915718,50.90739035],[4.0891058,50.90750096],[4.08905754,50.90749192],[4.08905995,50.90748662],[4.08903983,50.90748272],[4.08903663,50.90748974],[4.08897934,50.90747872],[4.08900093,50.90743382],[4.08899133,50.90743198],[4.08901703,50.90737853],[4.08902878,50.90738079],[4.08907526,50.90738973],[4.08908192,50.90737589],[4.08915718,50.90739035]]]}},{"type":"Feature","id":"gebouw/Gebouw.17058844/0","properties":{"source":"Digitaal Vlaanderen Gebouwenregister","source_id":"gebouw/Gebouw.17058844/0","kind":"building","height_m":8.6,"status":null},"geometry":{"type":"Polygon","coordinates":[[[4.08833155,50.90432372],[4.08837653,50.90428756],[4.08850602,50.90435197],[4.08843683,50.9044076],[4.08830896,50.904344],[4.08826296,50.90432112],[4.08828719,50.90430165],[4.08833155,50.90432372]]]}},{"type":"Feature","id":"gebouw/Gebouw.17059032/0","properties":{"source":"Digitaal Vlaanderen Gebouwenregister","source_id":"gebouw/Gebouw.17059032/0","kind":"building","height_m":7.88,"status":null},"geometry":{"type":"Polygon","coordinates":[[[4.08936753,50.90693753],[4.08934641,50.906983],[4.08935119,50.90698395],[4.08932277,50.90704512],[4.08931799,50.90704417],[4.08929033,50.90703868],[4.08931912,50.90698069],[4.08929236,50.90697538],[4.08931653,50.90692669],[4.08936753,50.90693753]]]}},{"type":"Feature","id":"gebouw/Gebouw.17071046/0","properties":{"source":"Digitaal Vlaanderen Gebouwenregister","source_id":"gebouw/Gebouw.17071046/0","kind":"building","height_m":9.32,"status":null},"geometry":{"type":"Polygon","coordinates":[[[4.08832084,50.90626945],[4.08838334,50.90629298],[4.08835103,50.90632728],[4.08828853,50.90630375],[4.08832084,50.90626945]]]}},{"type":"Feature","id":"gebouw/Gebouw.17071461/0","properties":{"source":"Digitaal Vlaanderen Gebouwenregister","source_id":"gebouw/Gebouw.17071461/0","kind":"building","height_m":5.72,"status":null},"geometry":{"type":"Polygon","coordinates":[[[4.08670897,50.90757486],[4.08670277,50.90757362],[4.08678006,50.90742109],[4.08689646,50.90744467],[4.08685948,50.90751833],[4.08687824,50.90752206],[4.08683906,50.90760075],[4.08675695,50.90758441],[4.08670897,50.90757486]]]}},{"type":"Feature","id":"gebouw/Gebouw.17071550/0","properties":{"source":"Digitaal Vlaanderen Gebouwenregister","source_id":"gebouw/Gebouw.17071550/0","kind":"building","height_m":9.32,"status":null},"geometry":{"type":"Polygon","coordinates":[[[4.09065124,50.90542325],[4.09060822,50.90541334],[4.09062481,50.90538457],[4.09066783,50.90539447],[4.09065124,50.90542325]]]}},{"type":"Feature","id":"gebouw/Gebouw.17071625/0","properties":{"source":"Digitaal Vlaanderen Gebouwenregister","source_id":"gebouw/Gebouw.17071625/0","kind":"building","height_m":7.88,"status":null},"geometry":{"type":"Polygon","coordinates":[[[4.0889216,50.90739287],[4.08890429,50.90742989],[4.08890799,50.90743143],[4.08888949,50.90744922],[4.08884649,50.90749059],[4.08876301,50.9074559],[4.08884809,50.90737405],[4.08880003,50.90736074],[4.08879592,50.90736784],[4.08874573,50.90735619],[4.08873349,50.90737754],[4.08869182,50.90736775],[4.08874019,50.90730758],[4.08874634,50.90730876],[4.08876951,50.90728088],[4.08883118,50.90729381],[4.08885034,50.90725147],[4.08896969,50.90727306],[4.08897535,50.90727408],[4.08894258,50.9073465],[4.0889216,50.90739287]]]}},{"type":"Feature","id":"gebouw/Gebouw.17120350/0","properties":{"source":"Digitaal Vlaanderen Gebouwenregister","source_id":"gebouw/Gebouw.17120350/0","kind":"building","height_m":6.44,"status":null},"geometry":{"type":"Polygon","coordinates":[[[4.08839572,50.90761073],[4.08837184,50.90764626],[4.08830755,50.90762899],[4.08830445,50.9076336],[4.08823006,50.90761362],[4.08823325,50.90760882],[4.08831434,50.90748573],[4.08847215,50.90752812],[4.08841344,50.90761549],[4.08839572,50.90761073]]]}},{"type":"Feature","id":"gebouw/Gebouw.17120372/0","properties":{"source":"Digitaal Vlaanderen Gebouwenregister","source_id":"gebouw/Gebouw.17120372/0","kind":"building","height_m":7.16,"status":null},"geometry":{"type":"Polygon","coordinates":[[[4.08707018,50.90786003],[4.08714731,50.90788317],[4.08712887,50.90791191],[4.08704965,50.90788906],[4.08707018,50.90786003]]]}},{"type":"Feature","id":"gebouw/Gebouw.17120741/0","properties":{"source":"Digitaal Vlaanderen Gebouwenregister","source_id":"gebouw/Gebouw.17120741/0","kind":"building","height_m":5.72,"status":null},"geometry":{"type":"Polygon","coordinates":[[[4.08659159,50.90676258],[4.08661352,50.90672252],[4.08664619,50.90672967],[4.08662427,50.90676973],[4.08659159,50.90676258]]]}},{"type":"Feature","id":"gebouw/Gebouw.17120939/0","properties":{"source":"Digitaal Vlaanderen Gebouwenregister","source_id":"gebouw/Gebouw.17120939/0","kind":"building","height_m":7.16,"status":null},"geometry":{"type":"Polygon","coordinates":[[[4.08767956,50.90350374],[4.08764922,50.90352525],[4.08764514,50.90352258],[4.08759124,50.90355421],[4.08739903,50.90342292],[4.08748574,50.90337186],[4.08767956,50.90350374]]]}},{"type":"Feature","id":"gebouw/Gebouw.18115068/0","properties":{"source":"Digitaal Vlaanderen Gebouwenregister","source_id":"gebouw/Gebouw.18115068/0","kind":"building","height_m":9.32,"status":null},"geometry":{"type":"Polygon","coordinates":[[[4.09085575,50.90540807],[4.09076899,50.90538706],[4.09082412,50.90529853],[4.09084562,50.90530324],[4.09085571,50.90528657],[4.09094724,50.90530876],[4.0909522,50.90530996],[4.09092442,50.90535444],[4.09089792,50.90539687],[4.09086924,50.90539044],[4.09085575,50.90540807]]]}},{"type":"Feature","id":"gebouw/Gebouw.18511070/0","properties":{"source":"Digitaal Vlaanderen Gebouwenregister","source_id":"gebouw/Gebouw.18511070/0","kind":"building","height_m":7.88,"status":null},"geometry":{"type":"Polygon","coordinates":[[[4.08641663,50.90354223],[4.08642623,50.90354745],[4.08643316,50.90354281],[4.08645713,50.90355577],[4.08645036,50.90356059],[4.08645921,50.90356542],[4.08644043,50.90358026],[4.0864319,50.9035757],[4.08639734,50.9035572],[4.08641663,50.90354223]]]}},{"type":"Feature","id":"gebouw/Gebouw.18730983/0","properties":{"source":"Digitaal Vlaanderen Gebouwenregister","source_id":"gebouw/Gebouw.18730983/0","kind":"building","height_m":8.6,"status":null},"geometry":{"type":"Polygon","coordinates":[[[4.08630124,50.90775005],[4.08628573,50.90777271],[4.08622507,50.90775721],[4.0862393,50.90773491],[4.08630124,50.90775005]]]}},{"type":"Feature","id":"gebouw/Gebouw.18730985/0","properties":{"source":"Digitaal Vlaanderen Gebouwenregister","source_id":"gebouw/Gebouw.18730985/0","kind":"building","height_m":5.0,"status":null},"geometry":{"type":"Polygon","coordinates":[[[4.08784489,50.90569635],[4.08781273,50.90572288],[4.08770803,50.90567346],[4.0877374,50.90564815],[4.08784489,50.90569635]]]}},{"type":"Feature","id":"gebouw/Gebouw.18730986/0","properties":{"source":"Digitaal Vlaanderen Gebouwenregister","source_id":"gebouw/Gebouw.18730986/0","kind":"building","height_m":5.72,"status":null},"geometry":{"type":"Polygon","coordinates":[[[4.08613227,50.90372263],[4.08610975,50.9037523],[4.08606936,50.90373942],[4.08609284,50.90370949],[4.08613227,50.90372263]]]}},{"type":"Feature","id":"gebouw/Gebouw.18730987/0","properties":{"source":"Digitaal Vlaanderen Gebouwenregister","source_id":"gebouw/Gebouw.18730987/0","kind":"building","height_m":6.44,"status":null},"geometry":{"type":"Polygon","coordinates":[[[4.09056185,50.90584153],[4.09052778,50.90589724],[4.09044932,50.905876],[4.09048467,50.90582124],[4.09056185,50.90584153]]]}},{"type":"Feature","id":"gebouw/Gebouw.19880186/0","properties":{"source":"Digitaal Vlaanderen Gebouwenregister","source_id":"gebouw/Gebouw.19880186/0","kind":"building","height_m":7.88,"status":null},"geometry":{"type":"Polygon","coordinates":[[[4.0905131,50.90804057],[4.09040959,50.90801238],[4.09040447,50.90801098],[4.09042809,50.90797598],[4.09042221,50.90797492],[4.09031932,50.90795646],[4.09037138,50.90785369],[4.09041787,50.90786308],[4.09039807,50.90790227],[4.09044649,50.90791205],[4.09042753,50.90794957],[4.09043404,50.90795089],[4.09044379,50.90795286],[4.09044782,50.90794488],[4.09044297,50.9079439],[4.09048419,50.90786236],[4.09053332,50.90787229],[4.09051191,50.90791464],[4.09051996,50.90791627],[4.09051186,50.90793229],[4.09052717,50.90793538],[4.09051473,50.90795998],[4.09055717,50.90796948],[4.09056602,50.90795149],[4.09058282,50.90791738],[4.09054143,50.90790811],[4.0905812,50.90782243],[4.09065749,50.90783798],[4.09063983,50.90787603],[4.0906516,50.90787821],[4.09057339,50.90803447],[4.09052395,50.90802344],[4.0905131,50.90804057]]]}},{"type":"Feature","id":"gebouw/Gebouw.19880187/0","properties":{"source":"Digitaal Vlaanderen Gebouwenregister","source_id":"gebouw/Gebouw.19880187/0","kind":"building","height_m":8.6,"status":null},"geometry":{"type":"Polygon","coordinates":[[[4.0905812,50.90782243],[4.09060792,50.90776486],[4.09065233,50.9077731],[4.09064696,50.90778467],[4.09067944,50.90779069],[4.09065749,50.90783798],[4.0905812,50.90782243]]]}},{"type":"Feature","id":"gebouw/Gebouw.19880428/0","properties":{"source":"Digitaal Vlaanderen Gebouwenregister","source_id":"gebouw/Gebouw.19880428/0","kind":"building","height_m":5.72,"status":null},"geometry":{"type":"Polygon","coordinates":[[[4.09063168,50.90796605],[4.09061824,50.90796331],[4.09065404,50.90789328],[4.09079234,50.90792154],[4.09075809,50.90798854],[4.09078671,50.90799438],[4.09074928,50.90806762],[4.09059579,50.90803625],[4.09063168,50.90796605]]]}},{"type":"Feature","id":"gebouw/Gebouw.19880429/0","properties":{"source":"Digitaal Vlaanderen Gebouwenregister","source_id":"gebouw/Gebouw.19880429/0","kind":"building","height_m":6.44,"status":null},"geometry":{"type":"Polygon","coordinates":[[[4.09074432,50.90780398],[4.09071225,50.90786882],[4.09066919,50.9078603],[4.09070126,50.90779546],[4.09074432,50.90780398]]]}},{"type":"Feature","id":"gebouw/Gebouw.19881400/0","properties":{"source":"Digitaal Vlaanderen Gebouwenregister","source_id":"gebouw/Gebouw.19881400/0","kind":"building","height_m":5.0,"status":null},"geometry":{"type":"Polygon","coordinates":[[[4.08902913,50.90640589],[4.08895897,50.90658703],[4.08877104,50.90655441],[4.08884783,50.90637754],[4.08884309,50.90637668],[4.08884595,50.90637042],[4.08883296,50.90636805],[4.08887586,50.90627399],[4.08888285,50.9062579],[4.08897566,50.90627401],[4.08904432,50.90628593],[4.08901064,50.90636349],[4.08905207,50.90637068],[4.08902913,50.90640589]]]}},{"type":"Feature","id":"gebouw/Gebouw.19881401/0","properties":{"source":"Digitaal Vlaanderen Gebouwenregister","source_id":"gebouw/Gebouw.19881401/0","kind":"building","height_m":5.72,"status":null},"geometry":{"type":"Polygon","coordinates":[[[4.08887586,50.90627399],[4.08886393,50.90627181],[4.08882529,50.90626476],[4.088845,50.90622154],[4.08875843,50.90620575],[4.08877958,50.90615409],[4.08879201,50.90615612],[4.08881056,50.90611542],[4.08893137,50.90613712],[4.08893502,50.90613777],[4.08902983,50.9061548],[4.08897566,50.90627401],[4.08888285,50.9062579],[4.08887586,50.90627399]]]}},{"type":"Feature","id":"gebouw/Gebouw.20145884/0","properties":{"source":"Digitaal Vlaanderen Gebouwenregister","source_id":"gebouw/Gebouw.20145884/0","kind":"building","height_m":7.16,"status":null},"geometry":{"type":"Polygon","coordinates":[[[4.08876339,50.90702265],[4.08871803,50.90700898],[4.08874208,50.90697707],[4.08878744,50.90699073],[4.08876339,50.90702265]]]}},{"type":"Feature","id":"gebouw/Gebouw.20145921/0","properties":{"source":"Digitaal Vlaanderen Gebouwenregister","source_id":"gebouw/Gebouw.20145921/0","kind":"building","height_m":8.6,"status":null},"geometry":{"type":"Polygon","coordinates":[[[4.08956916,50.90739587],[4.08962122,50.90740628],[4.08960488,50.90743895],[4.08955281,50.90742854],[4.08956916,50.90739587]]]}},{"type":"Feature","id":"gebouw/Gebouw.20145923/0","properties":{"source":"Digitaal Vlaanderen Gebouwenregister","source_id":"gebouw/Gebouw.20145923/0","kind":"building","height_m":5.0,"status":null},"geometry":{"type":"Polygon","coordinates":[[[4.08588764,50.90783922],[4.08587595,50.90785714],[4.08586609,50.90787226],[4.08577824,50.90784935],[4.08578766,50.90783491],[4.08579979,50.90781631],[4.08588764,50.90783922]]]}},{"type":"Feature","id":"gebouw/Gebouw.30644345/0","properties":{"source":"Digitaal Vlaanderen Gebouwenregister","source_id":"gebouw/Gebouw.30644345/0","kind":"building","height_m":7.88,"status":null},"geometry":{"type":"Polygon","coordinates":[[[4.08747013,50.90726806],[4.08745293,50.90729682],[4.08738603,50.90728083],[4.08736534,50.90727589],[4.08738254,50.90724713],[4.08747013,50.90726806]]]}},{"type":"Feature","id":"gebouw/Gebouw.30874401/0","properties":{"source":"Digitaal Vlaanderen Gebouwenregister","source_id":"gebouw/Gebouw.30874401/0","kind":"building","height_m":8.6,"status":null},"geometry":{"type":"Polygon","coordinates":[[[4.08799212,50.90357569],[4.08792715,50.90361522],[4.08783935,50.90366865],[4.08772888,50.90359619],[4.08781703,50.90354245],[4.08788162,50.90350308],[4.08799212,50.90357569]]]}},{"type":"Feature","id":"gebouw/Gebouw.31144988/0","properties":{"source":"Digitaal Vlaanderen Gebouwenregister","source_id":"gebouw/Gebouw.31144988/0","kind":"building","height_m":5.0,"status":null},"geometry":{"type":"Polygon","coordinates":[[[4.08624381,50.90377374],[4.0862065,50.90380698],[4.08611687,50.90376675],[4.08615418,50.90373351],[4.08624381,50.90377374]]]}},{"type":"Feature","id":"gebouw/Gebouw.31144989/0","properties":{"source":"Digitaal Vlaanderen Gebouwenregister","source_id":"gebouw/Gebouw.31144989/0","kind":"building","height_m":5.72,"status":null},"geometry":{"type":"Polygon","coordinates":[[[4.0897711,50.90638526],[4.08967357,50.90638024],[4.08967979,50.90633186],[4.08977732,50.90633688],[4.0897711,50.90638526]]]}},{"type":"Feature","id":"gebouw/Gebouw.31144990/0","properties":{"source":"Digitaal Vlaanderen Gebouwenregister","source_id":"gebouw/Gebouw.31144990/0","kind":"building","height_m":6.44,"status":null},"geometry":{"type":"Polygon","coordinates":[[[4.08808024,50.90779809],[4.08805649,50.90783303],[4.08794745,50.90780342],[4.0879712,50.90776847],[4.08808024,50.90779809]]]}},{"type":"Feature","id":"gebouw/Gebouw.31532732/0","properties":{"source":"Digitaal Vlaanderen Gebouwenregister","source_id":"gebouw/Gebouw.31532732/0","kind":"building","height_m":5.0,"status":null},"geometry":{"type":"Polygon","coordinates":[[[4.08678123,50.90729598],[4.08675147,50.90728933],[4.0867476,50.90729626],[4.086742,50.90730628],[4.08677176,50.90731293],[4.08678067,50.90729698],[4.08678123,50.90729598]]]}},{"type":"Feature","id":"gebouw/Gebouw.31804842/0","properties":{"source":"Digitaal Vlaanderen Gebouwenregister","source_id":"gebouw/Gebouw.31804842/0","kind":"building","height_m":9.32,"status":null},"geometry":{"type":"Polygon","coordinates":[[[4.08726588,50.90744889],[4.08720109,50.90743528],[4.0871845,50.90746686],[4.0872493,50.90748046],[4.08726588,50.90744889]]]}},{"type":"Feature","id":"gebouw/Gebouw.31805347/0","properties":{"source":"Digitaal Vlaanderen Gebouwenregister","source_id":"gebouw/Gebouw.31805347/0","kind":"building","height_m":5.0,"status":null},"geometry":{"type":"Polygon","coordinates":[[[4.09033857,50.90513006],[4.09025916,50.90511512],[4.09022957,50.90512172],[4.09022159,50.90513868],[4.09032625,50.9051566],[4.09033857,50.90513006]]]}},{"type":"Feature","id":"gebouw/Gebouw.31806524/0","properties":{"source":"Digitaal Vlaanderen Gebouwenregister","source_id":"gebouw/Gebouw.31806524/0","kind":"building","height_m":5.72,"status":null},"geometry":{"type":"Polygon","coordinates":[[[4.08837558,50.90688245],[4.08833251,50.90686954],[4.08829845,50.90691985],[4.08834551,50.90693241],[4.08837558,50.90688245]]]}},{"type":"Feature","id":"way/161049656","properties":{"source":"OpenStreetMap","source_id":"way/161049656","kind":"vegetation","name":null,"waterway":null,"landuse":"forest"},"geometry":{"type":"Polygon","coordinates":[[[4.0844467,50.9078523],[4.0845124,50.9078542],[4.0847335,50.9078211],[4.0847722,50.9078815],[4.0844919,50.907949],[4.0843551,50.9080036],[4.0842731,50.9080654],[4.0841477,50.9081991],[4.0839927,50.9085291],[4.0834018,50.9084489],[4.0836694,50.9078752],[4.0837074,50.9077851],[4.084319,50.9078466],[4.0844467,50.9078523]]]}},{"type":"Feature","id":"way/161049744","properties":{"source":"OpenStreetMap","source_id":"way/161049744","kind":"vegetation","name":null,"waterway":null,"landuse":"forest"},"geometry":{"type":"Polygon","coordinates":[[[4.0801814,50.9081793],[4.0797005,50.9082512],[4.0794201,50.9073888],[4.0792441,50.9074422],[4.0791741,50.9074637],[4.0789893,50.9075857],[4.0784149,50.9073227],[4.0779636,50.9077338],[4.0783351,50.9079178],[4.0782901,50.9079542],[4.0780799,50.9081017],[4.0777311,50.9079566],[4.0778269,50.907889],[4.0773951,50.9077498],[4.0782033,50.9070066],[4.0782941,50.9069232],[4.0783184,50.9069009],[4.0778246,50.9067004],[4.0776947,50.9068297],[4.0774804,50.9067449],[4.0772912,50.9068484],[4.0771555,50.9069459],[4.0771499,50.9071273],[4.077118,50.9071919],[4.0770223,50.9072451],[4.076963,50.9070396],[4.0768467,50.9068915],[4.0767421,50.9067719],[4.0783667,50.9062373],[4.0797173,50.9057962],[4.0805103,50.9055319],[4.0812968,50.9052636],[4.0816157,50.9051617],[4.0818665,50.9052996],[4.0821218,50.905429],[4.0822676,50.9055612],[4.0824135,50.9056762],[4.0829013,50.9055037],[4.0830062,50.9054856],[4.0831839,50.9054549],[4.0833617,50.9055354],[4.0836398,50.9057366],[4.0838404,50.9055497],[4.0843965,50.9052968],[4.0845287,50.9054175],[4.0853402,50.9051473],[4.0860194,50.9055354],[4.0868764,50.9046729],[4.0869858,50.9046988],[4.0864479,50.9053025],[4.0866895,50.9053744],[4.0868445,50.9052709],[4.0873095,50.9057337],[4.0877881,50.9056245],[4.0882212,50.9052738],[4.0887956,50.9055871],[4.0885221,50.9057855],[4.0886771,50.9058458],[4.0884309,50.9060844],[4.088905,50.9062224],[4.0886361,50.9063374],[4.0884674,50.9064639],[4.0883489,50.9066134],[4.0882668,50.9067571],[4.0882068,50.9070728],[4.0872867,50.9068807],[4.0869539,50.9073952],[4.0864525,50.9074729],[4.0857732,50.907631],[4.0852718,50.9077488],[4.0847156,50.9072486],[4.0844786,50.9071365],[4.0844056,50.9071279],[4.0843646,50.9072544],[4.0843236,50.9073981],[4.0844148,50.9076482],[4.0844467,50.9078523],[4.084319,50.9078466],[4.0841823,50.9075476],[4.0841777,50.907401],[4.0842598,50.9070992],[4.083617,50.9069871],[4.0835498,50.9069837],[4.0833999,50.9069761],[4.0831611,50.9069641],[4.08307,50.9071394],[4.082956,50.9072515],[4.0827417,50.9073004],[4.0823679,50.9072601],[4.08183,50.907217],[4.0819554,50.9079069],[4.0812442,50.908019],[4.0810368,50.9072702],[4.0808385,50.9073263],[4.0806539,50.9073104],[4.0804852,50.9072817],[4.0803416,50.9073378],[4.0801934,50.9073191],[4.0800635,50.9073162],[4.0798926,50.9073349],[4.0800088,50.9075634],[4.0799701,50.9075648],[4.0800521,50.9078149],[4.0801091,50.9078049],[4.0802276,50.9081685],[4.0801814,50.9081793]]]}},{"type":"Feature","id":"way/161056471","properties":{"source":"OpenStreetMap","source_id":"way/161056471","kind":"vegetation","name":null,"waterway":null,"landuse":"forest"},"geometry":{"type":"Polygon","coordinates":[[[4.0886123,50.9077424],[4.0885607,50.9078481],[4.0886413,50.9078745],[4.0887058,50.9077688],[4.0888218,50.9078054],[4.0888218,50.9079151],[4.0887928,50.9079822],[4.0889798,50.9080269],[4.0889185,50.9081265],[4.0890539,50.908157],[4.0889015,50.9083942],[4.0882836,50.9082059],[4.0885188,50.907718],[4.0886123,50.9077424]]]}},{"type":"Feature","id":"way/161056488","properties":{"source":"OpenStreetMap","source_id":"way/161056488","kind":"vegetation","name":null,"waterway":null,"landuse":"forest"},"geometry":{"type":"Polygon","coordinates":[[[4.0893718,50.904284],[4.0894201,50.9043105],[4.0893782,50.9043593],[4.0894749,50.9043979],[4.0892879,50.9045869],[4.0895007,50.9046804],[4.0895845,50.9045991],[4.0897328,50.9046764],[4.0892976,50.9049752],[4.0887464,50.905213],[4.0886207,50.9051683],[4.0887174,50.9049609],[4.0890139,50.9046662],[4.0892041,50.9044792],[4.0893718,50.904284]]]}},{"type":"Feature","id":"way/161056493","properties":{"source":"OpenStreetMap","source_id":"way/161056493","kind":"vegetation","name":null,"waterway":null,"landuse":"forest"},"geometry":{"type":"Polygon","coordinates":[[[4.0898452,50.908098],[4.0898475,50.9081641],[4.0898999,50.9082043],[4.0900503,50.9082101],[4.0900366,50.9082762],[4.0898702,50.9082776],[4.0897415,50.9086373],[4.0895967,50.9085957],[4.0894613,50.9083722],[4.0895739,50.9083869],[4.0896583,50.9082043],[4.0894554,50.9081483],[4.0894873,50.908098],[4.089713,50.9081569],[4.0897472,50.908085],[4.0898452,50.908098]]]}},{"type":"Feature","id":"way/161056510","properties":{"source":"OpenStreetMap","source_id":"way/161056510","kind":"vegetation","name":null,"waterway":null,"landuse":"forest"},"geometry":{"type":"Polygon","coordinates":[[[4.0885433,50.9043421],[4.0878116,50.904393],[4.0874183,50.9043787],[4.0873216,50.9043706],[4.0872249,50.904397],[4.0867253,50.904147],[4.0862418,50.9037526],[4.085178,50.9041145],[4.0855713,50.9045292],[4.0841328,50.9050663],[4.0835405,50.9046125],[4.082538,50.9049642],[4.0830062,50.9054856],[4.0829013,50.9055037],[4.0824135,50.9056762],[4.0822676,50.9055612],[4.0821218,50.905429],[4.0818665,50.9052996],[4.0816157,50.9051617],[4.0863288,50.9035412],[4.0865802,50.9038197],[4.0868156,50.9040372],[4.0870315,50.904145],[4.0872378,50.9042364],[4.0875086,50.9042913],[4.0876891,50.9043178],[4.0879953,50.9043259],[4.0885498,50.9042873],[4.0885433,50.9043421]]]}},{"type":"Feature","id":"way/161197562","properties":{"source":"OpenStreetMap","source_id":"way/161197562","kind":"vegetation","name":null,"waterway":null,"landuse":"forest"},"geometry":{"type":"Polygon","coordinates":[[[4.0855568,50.9025894],[4.0854408,50.9026103],[4.0855734,50.9028141],[4.0846081,50.9035901],[4.0844465,50.9036789],[4.083676,50.9039506],[4.0833487,50.9038174],[4.082255,50.9031904],[4.0830131,50.9026678],[4.0817454,50.901918],[4.0829841,50.901304],[4.0821845,50.9004156],[4.0818448,50.9004522],[4.0815134,50.9005045],[4.0813477,50.9005332],[4.0812855,50.9005646],[4.0812234,50.9006116],[4.081006,50.9008629],[4.0809002,50.9009852],[4.0807138,50.9011289],[4.0805232,50.9012596],[4.0803326,50.901385],[4.0801669,50.9015313],[4.0800716,50.9016515],[4.0797733,50.9020173],[4.0807055,50.9025372],[4.0797554,50.9030278],[4.0787169,50.903564],[4.0789818,50.9037517],[4.0787666,50.903867],[4.0789158,50.9039611],[4.0786386,50.9041151],[4.0784269,50.9042328],[4.0792707,50.9045409],[4.0793806,50.9044024],[4.0797024,50.904469],[4.079564,50.9045975],[4.079831,50.9046815],[4.0794683,50.9050095],[4.0793673,50.9051185],[4.0786713,50.9048415],[4.0784208,50.9050792],[4.078112,50.9053722],[4.0779476,50.9053025],[4.0776563,50.9055956],[4.0774332,50.9055146],[4.0766539,50.9063089],[4.0800873,50.9052264],[4.0813762,50.9047904],[4.0830578,50.9042879],[4.0847393,50.9037041],[4.0860634,50.9032497],[4.0855568,50.9025894]]]}},{"type":"Feature","id":"way/1354556247","properties":{"source":"OpenStreetMap","source_id":"way/1354556247","kind":"waterway","name":"Rosselbeek","waterway":"stream","landuse":null},"geometry":{"type":"LineString","coordinates":[[4.0853855,50.9077328],[4.0853419,50.9076992],[4.0853022,50.9076358],[4.0852603,50.9076193],[4.0852446,50.9075817],[4.0852153,50.9075579],[4.0851965,50.9075236],[4.0851284,50.9074669],[4.0849913,50.9073593],[4.0849286,50.9073138],[4.0848898,50.9072927],[4.0848061,50.9072617],[4.0847444,50.907195],[4.0846732,50.9071739],[4.0846219,50.9071554],[4.0845801,50.9071211],[4.0845225,50.9070769],[4.0844733,50.9070637],[4.0844221,50.9070795],[4.0843739,50.9070762],[4.0843206,50.9070571],[4.0841856,50.9070129],[4.0841291,50.906997],[4.0840631,50.9069911],[4.0840171,50.9070036],[4.0839825,50.9069984],[4.0838946,50.9069832],[4.0837848,50.9069746],[4.0836487,50.9069641],[4.0835498,50.9069837],[4.0835242,50.9069667],[4.0834813,50.9069588],[4.0834415,50.9069674],[4.0833999,50.9069761],[4.0833756,50.9069522],[4.0833442,50.9069429],[4.0832961,50.9069482],[4.0832751,50.9069443],[4.0832395,50.9069159],[4.0832102,50.9068948],[4.0831652,50.9068895],[4.0831265,50.9068941],[4.0830889,50.906906],[4.0830951,50.9069449],[4.0830418,50.9070043],[4.083003,50.9070353],[4.0829748,50.9070591],[4.0829947,50.9071422],[4.0830072,50.9071673],[4.083025,50.9072075],[4.0830041,50.907226],[4.082956,50.9072168],[4.0829225,50.907199],[4.0829036,50.9072036],[4.0828869,50.9072287],[4.0828189,50.9072544],[4.0827498,50.9072716],[4.0827163,50.9072834],[4.0826765,50.9072636],[4.0826431,50.9072366],[4.0826106,50.9072227],[4.0825646,50.9072148],[4.0825018,50.907228],[4.0824254,50.9072234],[4.0823657,50.9072161],[4.0823302,50.907226],[4.0823019,50.9072273],[4.0822841,50.9072036],[4.0822716,50.9071963],[4.0822077,50.907193],[4.0821627,50.9072043],[4.0821334,50.9072148],[4.0821041,50.9072148],[4.0820288,50.9071792],[4.0819775,50.9071792],[4.0818299,50.9071785],[4.0817169,50.9071792],[4.0816656,50.9071666],[4.0816186,50.9071561],[4.0815788,50.9071647],[4.0815254,50.9071983],[4.0814867,50.907228],[4.0814239,50.90723],[4.0813747,50.9072313],[4.0813402,50.9072478],[4.0812973,50.907261],[4.0812439,50.9072584],[4.0812094,50.9072412],[4.081155,50.9072273],[4.0811162,50.9072287],[4.0810629,50.9072326],[4.0810022,50.907232],[4.0809342,50.9072306],[4.0808494,50.9072339],[4.080795,50.9072405],[4.0807196,50.9072412],[4.0806715,50.9072386],[4.0806077,50.9072247],[4.0805752,50.9072049],[4.0805647,50.9071805],[4.0805438,50.9071482],[4.0805114,50.907133],[4.0804455,50.907133],[4.0803868,50.9071541],[4.0803408,50.9071706],[4.0803209,50.9072069],[4.0803,50.9072306],[4.0802456,50.9072293],[4.0802246,50.9072267],[4.0801535,50.9072518],[4.0800991,50.9072656],[4.0800216,50.9072848],[4.079986,50.9072927],[4.0799358,50.9072861],[4.0799076,50.9073118],[4.0798793,50.9073105],[4.0798531,50.9073329],[4.0798144,50.9073217],[4.0797631,50.9073125],[4.079738,50.9073197],[4.0797161,50.9073349],[4.0796784,50.9073547],[4.0796711,50.9073811],[4.0795926,50.907387],[4.079535,50.907389],[4.0794785,50.9073877],[4.0794377,50.9073851],[4.0794021,50.9074134],[4.0793561,50.9074372],[4.0792954,50.9074537],[4.0792441,50.9074422],[4.0791541,50.9074365],[4.0791028,50.9074326],[4.079085,50.9074068],[4.0790296,50.9073936],[4.0789908,50.9073804],[4.0789772,50.9073554],[4.078972,50.9073369],[4.078927,50.9073329],[4.0789061,50.9073309],[4.0788349,50.9073395],[4.0788004,50.9073349],[4.0787512,50.9073158],[4.0786978,50.9072907],[4.0786319,50.9072623],[4.0785733,50.9072313],[4.0785011,50.9071996],[4.0784603,50.9071831],[4.0784278,50.9071765],[4.0784006,50.9071587],[4.0783755,50.907135],[4.0784017,50.9071086],[4.078387,50.9070855],[4.0783546,50.9070657],[4.0783232,50.9070518],[4.0782928,50.9070373],[4.0783075,50.9070102],[4.0783399,50.906997],[4.0783431,50.9069733],[4.0783284,50.9069436],[4.0783284,50.9069297],[4.0783184,50.9069009],[4.0782751,50.9068677],[4.078252,50.906838],[4.0782353,50.9068202],[4.0782259,50.9067912],[4.0782468,50.9067661],[4.0782342,50.9067397],[4.0781987,50.9067278],[4.0781631,50.9067509],[4.0781275,50.9067436],[4.0781003,50.906743],[4.0780637,50.9067021],[4.0780166,50.9066697],[4.0779831,50.9066493],[4.0779172,50.906644],[4.0778816,50.9066315],[4.077846,50.906615],[4.0778052,50.9065879],[4.077756,50.9065589],[4.0777183,50.9065391],[4.0776744,50.9065358],[4.0775833,50.9065364],[4.0775462,50.9065193]]}},{"type":"Feature","id":"way/1354556252","properties":{"source":"OpenStreetMap","source_id":"way/1354556252","kind":"waterway","name":"Rosselbeek","waterway":"stream","landuse":null},"geometry":{"type":"LineString","coordinates":[[4.0854942,50.9078097],[4.0853932,50.9077388],[4.0853855,50.9077328]]}}]}