{"type":"FeatureCollection","features":[{"type":"Feature","id":"gebouw/Gebouw.11325584/0","properties":{"source":"Digitaal Vlaanderen Gebouwenregister","source_id":"gebouw/Gebouw.11325584/0","kind":"building","height_m":7.88,"status":null},"geometry":{"type":"Polygon","coordinates":[[[4.09130817,50.91736107],[4.09144592,50.91722414],[4.09158455,50.91728007],[4.09144365,50.9174171],[4.09130817,50.91736107]]]}},{"type":"Feature","id":"gebouw/Gebouw.11325585/0","properties":{"source":"Digitaal Vlaanderen Gebouwenregister","source_id":"gebouw/Gebouw.11325585/0","kind":"building","height_m":8.6,"status":null},"geometry":{"type":"Polygon","coordinates":[[[4.09126085,50.91718775],[4.09144213,50.91700497],[4.09158422,50.91706129],[4.09140058,50.91724326],[4.09126085,50.91718775]]]}},{"type":"Feature","id":"gebouw/Gebouw.16783694/0","properties":{"source":"Digitaal Vlaanderen Gebouwenregister","source_id":"gebouw/Gebouw.16783694/0","kind":"building","height_m":7.88,"status":null},"geometry":{"type":"Polygon","coordinates":[[[4.09123149,50.91539969],[4.09124834,50.91540013],[4.09124814,50.91540324],[4.09124647,50.91542942],[4.09116317,50.91542725],[4.09116504,50.91539796],[4.09123149,50.91539969]]]}},{"type":"Feature","id":"gebouw/Gebouw.18730489/0","properties":{"source":"Digitaal Vlaanderen Gebouwenregister","source_id":"gebouw/Gebouw.18730489/0","kind":"building","height_m":5.72,"status":null},"geometry":{"type":"Polygon","coordinates":[[[4.09124778,50.91543816],[4.09124527,50.91546789],[4.09116069,50.91546667],[4.0911604,50.91543642],[4.09124778,50.91543816]]]}},{"type":"Feature","id":"gebouw/Gebouw.20145918/0","properties":{"source":"Digitaal Vlaanderen Gebouwenregister","source_id":"gebouw/Gebouw.20145918/0","kind":"building","height_m":6.44,"status":null},"geometry":{"type":"Polygon","coordinates":[[[4.09226219,50.91537158],[4.09220592,50.91537165],[4.0922058,50.9153355],[4.09219927,50.91533268],[4.09219288,50.91532969],[4.09218664,50.91532653],[4.09218057,50.91532322],[4.09217469,50.91531974],[4.09216901,50.91531612],[4.09216354,50.91531236],[4.09215829,50.91530846],[4.09215329,50.91530444],[4.09214853,50.9153003],[4.09214404,50.91529606],[4.09213981,50.91529172],[4.09213586,50.9152873],[4.09213219,50.9152828],[4.09212881,50.91527824],[4.09212572,50.91527363],[4.09212262,50.91520184],[4.09226164,50.91520044],[4.09226219,50.91537158]]]}},{"type":"Feature","id":"gebouw/Gebouw.20145919/0","properties":{"source":"Digitaal Vlaanderen Gebouwenregister","source_id":"gebouw/Gebouw.20145919/0","kind":"building","height_m":7.16,"status":null},"geometry":{"type":"Polygon","coordinates":[[[4.09220915,50.91513463],[4.09225861,50.91513602],[4.09225431,50.91519724],[4.09220486,50.91519586],[4.09220915,50.91513463]]]}},{"type":"Feature","id":"way/146793129","properties":{"source":"OpenStreetMap","source_id":"way/146793129","kind":"vegetation","name":null,"waterway":null,"landuse":"forest"},"geometry":{"type":"Polygon","coordinates":[[[4.091783,50.9161313],[4.0920636,50.9161388],[4.0914237,50.9176507],[4.0911298,50.9176004],[4.091783,50.9161313]]]}},{"type":"Feature","id":"way/146793137","properties":{"source":"OpenStreetMap","source_id":"way/146793137","kind":"vegetation","name":null,"waterway":null,"landuse":"forest"},"geometry":{"type":"Polygon","coordinates":[[[4.0905767,50.9175059],[4.0912303,50.9161284],[4.0915738,50.9161292],[4.0910187,50.9175815],[4.0905767,50.9175059]]]}}]}