{"type":"FeatureCollection","features":[{"type":"Feature","id":"gebouw/Gebouw.16461850/0","properties":{"source":"Digitaal Vlaanderen Gebouwenregister","source_id":"gebouw/Gebouw.16461850/0","kind":"building","height_m":9.32,"status":null},"geometry":{"type":"Polygon","coordinates":[[[4.0945671,50.93087157],[4.09442402,50.93087611],[4.09441972,50.93082211],[4.0945628,50.93081757],[4.09456212,50.9308089],[4.09465541,50.93080594],[4.09465157,50.93075777],[4.09475128,50.9307546],[4.09475495,50.93080075],[4.09490041,50.93079612],[4.09490087,50.93080195],[4.09490106,50.9308687],[4.09456758,50.93088051],[4.0945671,50.93087157]]]}},{"type":"Feature","id":"gebouw/Gebouw.16462098/0","properties":{"source":"Digitaal Vlaanderen Gebouwenregister","source_id":"gebouw/Gebouw.16462098/0","kind":"building","height_m":6.44,"status":null},"geometry":{"type":"Polygon","coordinates":[[[4.09422408,50.93337348],[4.09426974,50.93336168],[4.09429502,50.93340093],[4.09424935,50.93341273],[4.09422408,50.93337348]]]}},{"type":"Feature","id":"gebouw/Gebouw.16471592/0","properties":{"source":"Digitaal Vlaanderen Gebouwenregister","source_id":"gebouw/Gebouw.16471592/0","kind":"building","height_m":7.88,"status":null},"geometry":{"type":"Polygon","coordinates":[[[4.09248604,50.9341145],[4.09246759,50.9340892],[4.09252265,50.93407317],[4.0925411,50.93409847],[4.09248604,50.9341145]]]}},{"type":"Feature","id":"gebouw/Gebouw.16481790/0","properties":{"source":"Digitaal Vlaanderen Gebouwenregister","source_id":"gebouw/Gebouw.16481790/0","kind":"building","height_m":7.16,"status":null},"geometry":{"type":"Polygon","coordinates":[[[4.09495019,50.93442599],[4.0948555,50.93444864],[4.0948285,50.93440391],[4.09492319,50.93438126],[4.09495019,50.93442599]]]}},{"type":"Feature","id":"gebouw/Gebouw.16510107/0","properties":{"source":"Digitaal Vlaanderen Gebouwenregister","source_id":"gebouw/Gebouw.16510107/0","kind":"building","height_m":8.6,"status":null},"geometry":{"type":"Polygon","coordinates":[[[4.09413577,50.93315073],[4.09411096,50.93311154],[4.094171,50.93309637],[4.0941958,50.93313556],[4.09413577,50.93315073]]]}},{"type":"Feature","id":"gebouw/Gebouw.16513031/0","properties":{"source":"Digitaal Vlaanderen Gebouwenregister","source_id":"gebouw/Gebouw.16513031/0","kind":"building","height_m":7.16,"status":null},"geometry":{"type":"Polygon","coordinates":[[[4.09129171,50.93323433],[4.09129873,50.93324056],[4.09130806,50.93325186],[4.09131068,50.93326175],[4.09130765,50.93327277],[4.09129847,50.933281],[4.09129206,50.93328545],[4.09127838,50.93328941],[4.0912611,50.93329071],[4.0912462,50.93328939],[4.09123026,50.93328415],[4.09121908,50.93327537],[4.091215,50.9332665],[4.09121435,50.93325984],[4.09086743,50.93318256],[4.09093474,50.9330619],[4.09133789,50.93315171],[4.09138311,50.93307065],[4.09141436,50.93301462],[4.09140289,50.93301207],[4.09144586,50.93293504],[4.09146046,50.93293829],[4.09153416,50.93280619],[4.09102193,50.93268628],[4.09115031,50.93246638],[4.09166971,50.93258748],[4.09169383,50.93257244],[4.09172624,50.93257053],[4.09176067,50.93258091],[4.09178372,50.93260489],[4.09177242,50.93263185],[4.09173272,50.93264887],[4.09171464,50.93264388],[4.0916682,50.93272342],[4.0917139,50.93273407],[4.09157845,50.93296607],[4.09159733,50.93297047],[4.09155385,50.93304494],[4.09153791,50.93304123],[4.09146799,50.93316098],[4.09146734,50.9331621],[4.09144527,50.9331999],[4.09132364,50.93317369],[4.09129171,50.93323433]]]}},{"type":"Feature","id":"gebouw/Gebouw.16523822/0","properties":{"source":"Digitaal Vlaanderen Gebouwenregister","source_id":"gebouw/Gebouw.16523822/0","kind":"building","height_m":5.0,"status":null},"geometry":{"type":"Polygon","coordinates":[[[4.09416989,50.93285696],[4.09412547,50.93277515],[4.09420168,50.93275863],[4.0942461,50.93284044],[4.09416989,50.93285696]]]}},{"type":"Feature","id":"gebouw/Gebouw.16530384/0","properties":{"source":"Digitaal Vlaanderen Gebouwenregister","source_id":"gebouw/Gebouw.16530384/0","kind":"building","height_m":7.16,"status":null},"geometry":{"type":"Polygon","coordinates":[[[4.09418595,50.93263568],[4.09424123,50.93269506],[4.09418087,50.9327175],[4.09413904,50.93267257],[4.09408219,50.93269371],[4.09402138,50.93260336],[4.09406379,50.93258707],[4.09414842,50.93255456],[4.09421579,50.93262458],[4.09418595,50.93263568]]]}},{"type":"Feature","id":"gebouw/Gebouw.16532129/0","properties":{"source":"Digitaal Vlaanderen Gebouwenregister","source_id":"gebouw/Gebouw.16532129/0","kind":"building","height_m":8.6,"status":null},"geometry":{"type":"Polygon","coordinates":[[[4.09496084,50.9345937],[4.09494981,50.93456939],[4.09499511,50.93456119],[4.09498793,50.93454536],[4.0950428,50.93453542],[4.095061,50.93457556],[4.09496084,50.9345937]]]}},{"type":"Feature","id":"gebouw/Gebouw.16532306/0","properties":{"source":"Digitaal Vlaanderen Gebouwenregister","source_id":"gebouw/Gebouw.16532306/0","kind":"building","height_m":5.0,"status":null},"geometry":{"type":"Polygon","coordinates":[[[4.09436197,50.93269351],[4.09432408,50.93270154],[4.09428679,50.93263145],[4.09432349,50.93262368],[4.09436197,50.93269351]]]}},{"type":"Feature","id":"gebouw/Gebouw.16535482/0","properties":{"source":"Digitaal Vlaanderen Gebouwenregister","source_id":"gebouw/Gebouw.16535482/0","kind":"building","height_m":8.6,"status":null},"geometry":{"type":"Polygon","coordinates":[[[4.09092223,50.9345549],[4.09090993,50.93451987],[4.091011,50.93450411],[4.09103706,50.93457789],[4.09099896,50.9345835],[4.09098329,50.93454509],[4.09092223,50.9345549]]]}},{"type":"Feature","id":"gebouw/Gebouw.16552986/0","properties":{"source":"Digitaal Vlaanderen Gebouwenregister","source_id":"gebouw/Gebouw.16552986/0","kind":"building","height_m":6.44,"status":null},"geometry":{"type":"Polygon","coordinates":[[[4.09459084,50.93333093],[4.09457349,50.93329305],[4.0946948,50.93327083],[4.09471215,50.93330871],[4.09459084,50.93333093]]]}},{"type":"Feature","id":"gebouw/Gebouw.16557920/0","properties":{"source":"Digitaal Vlaanderen Gebouwenregister","source_id":"gebouw/Gebouw.16557920/0","kind":"building","height_m":5.72,"status":null},"geometry":{"type":"Polygon","coordinates":[[[4.09406233,50.93277002],[4.09411775,50.9328281],[4.09400718,50.93287022],[4.09388074,50.93273769],[4.09401156,50.93268785],[4.0940594,50.932738],[4.09403915,50.93274572],[4.09406233,50.93277002]]]}},{"type":"Feature","id":"gebouw/Gebouw.16557965/0","properties":{"source":"Digitaal Vlaanderen Gebouwenregister","source_id":"gebouw/Gebouw.16557965/0","kind":"building","height_m":7.88,"status":null},"geometry":{"type":"Polygon","coordinates":[[[4.09675636,50.93513382],[4.09675381,50.93529664],[4.09657552,50.93529626],[4.09657412,50.9350247],[4.09728781,50.93502219],[4.09728754,50.93504437],[4.09738647,50.93504405],[4.09738735,50.9350674],[4.09738993,50.93513558],[4.09675636,50.93513382]]]}},{"type":"Feature","id":"gebouw/Gebouw.16558296/0","properties":{"source":"Digitaal Vlaanderen Gebouwenregister","source_id":"gebouw/Gebouw.16558296/0","kind":"building","height_m":9.32,"status":null},"geometry":{"type":"Polygon","coordinates":[[[4.0927962,50.93384169],[4.09275301,50.93376931],[4.09279234,50.93375994],[4.09283554,50.93383232],[4.0927962,50.93384169]]]}},{"type":"Feature","id":"gebouw/Gebouw.16559940/0","properties":{"source":"Digitaal Vlaanderen Gebouwenregister","source_id":"gebouw/Gebouw.16559940/0","kind":"building","height_m":8.6,"status":null},"geometry":{"type":"Polygon","coordinates":[[[4.10072267,50.93250584],[4.10072107,50.93241607],[4.10102466,50.93241391],[4.10102626,50.93250368],[4.10072267,50.93250584]]]}},{"type":"Feature","id":"gebouw/Gebouw.16560074/0","properties":{"source":"Digitaal Vlaanderen Gebouwenregister","source_id":"gebouw/Gebouw.16560074/0","kind":"building","height_m":9.32,"status":null},"geometry":{"type":"Polygon","coordinates":[[[4.10057119,50.93243132],[4.10070089,50.93243124],[4.10070051,50.93246502],[4.10063278,50.93246467],[4.10063278,50.93249981],[4.10065178,50.93249995],[4.10065901,50.93250223],[4.10069709,50.93250315],[4.10069854,50.93258905],[4.10057426,50.93259002],[4.10057119,50.93243132]]]}},{"type":"Feature","id":"gebouw/Gebouw.16560512/0","properties":{"source":"Digitaal Vlaanderen Gebouwenregister","source_id":"gebouw/Gebouw.16560512/0","kind":"building","height_m":7.16,"status":null},"geometry":{"type":"Polygon","coordinates":[[[4.09895129,50.93498066],[4.09895093,50.93495948],[4.09889792,50.93495931],[4.09889957,50.93498505],[4.09888952,50.93498523],[4.09889466,50.93505738],[4.09931686,50.93504961],[4.09931436,50.93497576],[4.09895129,50.93498066]]]}},{"type":"Feature","id":"gebouw/Gebouw.16560527/0","properties":{"source":"Digitaal Vlaanderen Gebouwenregister","source_id":"gebouw/Gebouw.16560527/0","kind":"building","height_m":7.88,"status":null},"geometry":{"type":"Polygon","coordinates":[[[4.10102404,50.932253],[4.10133094,50.93224953],[4.10133245,50.93230305],[4.10102556,50.93230652],[4.10102404,50.932253]]]}},{"type":"Feature","id":"gebouw/Gebouw.16560606/0","properties":{"source":"Digitaal Vlaanderen Gebouwenregister","source_id":"gebouw/Gebouw.16560606/0","kind":"building","height_m":9.32,"status":null},"geometry":{"type":"Polygon","coordinates":[[[4.10103048,50.93231628],[4.10133189,50.93231313],[4.10133422,50.93240245],[4.10103281,50.9324056],[4.10103048,50.93231628]]]}},{"type":"Feature","id":"gebouw/Gebouw.16564673/0","properties":{"source":"Digitaal Vlaanderen Gebouwenregister","source_id":"gebouw/Gebouw.16564673/0","kind":"building","height_m":9.32,"status":null},"geometry":{"type":"Polygon","coordinates":[[[4.10056784,50.93225844],[4.10049738,50.93225933],[4.10049564,50.93221447],[4.10067748,50.93221166],[4.10067832,50.93229238],[4.1006323,50.93229262],[4.10063429,50.93234528],[4.10059336,50.93234569],[4.10059122,50.93229169],[4.10058639,50.93229177],[4.10058509,50.93225817],[4.10056784,50.93225844]]]}},{"type":"Feature","id":"gebouw/Gebouw.16566768/0","properties":{"source":"Digitaal Vlaanderen Gebouwenregister","source_id":"gebouw/Gebouw.16566768/0","kind":"building","height_m":5.72,"status":null},"geometry":{"type":"Polygon","coordinates":[[[4.09936509,50.93513524],[4.09941693,50.93513645],[4.09941448,50.93517839],[4.09936264,50.93517718],[4.09936509,50.93513524]]]}},{"type":"Feature","id":"gebouw/Gebouw.16567637/0","properties":{"source":"Digitaal Vlaanderen Gebouwenregister","source_id":"gebouw/Gebouw.16567637/0","kind":"building","height_m":6.44,"status":null},"geometry":{"type":"Polygon","coordinates":[[[4.09840948,50.93378985],[4.09841428,50.93384666],[4.09833689,50.93384926],[4.09833209,50.93379246],[4.09840948,50.93378985]]]}},{"type":"Feature","id":"gebouw/Gebouw.16571906/0","properties":{"source":"Digitaal Vlaanderen Gebouwenregister","source_id":"gebouw/Gebouw.16571906/0","kind":"building","height_m":5.72,"status":null},"geometry":{"type":"Polygon","coordinates":[[[4.09450407,50.93295142],[4.09446299,50.93296046],[4.09444301,50.93292421],[4.09448409,50.93291517],[4.09450407,50.93295142]]]}},{"type":"Feature","id":"gebouw/Gebouw.16572110/0","properties":{"source":"Digitaal Vlaanderen Gebouwenregister","source_id":"gebouw/Gebouw.16572110/0","kind":"building","height_m":6.44,"status":null},"geometry":{"type":"Polygon","coordinates":[[[4.09367353,50.93281322],[4.09362104,50.9327591],[4.09370162,50.93272789],[4.09371043,50.93273695],[4.09376161,50.93271701],[4.0938056,50.93276207],[4.09379554,50.93276597],[4.09382322,50.93279451],[4.09383399,50.93279034],[4.09386918,50.93282661],[4.09375401,50.93287122],[4.09369113,50.9328064],[4.09367353,50.93281322]]]}},{"type":"Feature","id":"gebouw/Gebouw.16577083/0","properties":{"source":"Digitaal Vlaanderen Gebouwenregister","source_id":"gebouw/Gebouw.16577083/0","kind":"building","height_m":8.6,"status":null},"geometry":{"type":"Polygon","coordinates":[[[4.09961206,50.93507096],[4.09961285,50.93499496],[4.09979997,50.93499574],[4.09979993,50.93499877],[4.09979851,50.93499877],[4.09979861,50.93500607],[4.09980284,50.93500602],[4.09980291,50.93500796],[4.09979977,50.93500791],[4.09979957,50.93503846],[4.09980329,50.93503847],[4.09980344,50.93504046],[4.09979873,50.93504045],[4.09979834,50.93507414],[4.09980108,50.93507411],[4.09980115,50.93507696],[4.0996747,50.93507819],[4.09967375,50.93508321],[4.09967079,50.93508814],[4.0996662,50.93509152],[4.09965987,50.93509416],[4.09965402,50.93509502],[4.09962225,50.93509515],[4.09962199,50.93511949],[4.09949335,50.93511895],[4.09949338,50.93511662],[4.09941149,50.93511628],[4.09941193,50.9350738],[4.09949223,50.93507413],[4.09949227,50.93507046],[4.09961206,50.93507096]]]}},{"type":"Feature","id":"gebouw/Gebouw.16600073/0","properties":{"source":"Digitaal Vlaanderen Gebouwenregister","source_id":"gebouw/Gebouw.16600073/0","kind":"building","height_m":5.0,"status":null},"geometry":{"type":"Polygon","coordinates":[[[4.1007039,50.93272414],[4.10027494,50.9327281],[4.10027275,50.9326336],[4.10070171,50.93262963],[4.1007039,50.93272414]]]}},{"type":"Feature","id":"gebouw/Gebouw.16600285/0","properties":{"source":"Digitaal Vlaanderen Gebouwenregister","source_id":"gebouw/Gebouw.16600285/0","kind":"building","height_m":6.44,"status":null},"geometry":{"type":"Polygon","coordinates":[[[4.10099104,50.93203253],[4.10089879,50.93203327],[4.1008969,50.93199389],[4.10098912,50.93199214],[4.10099104,50.93203253]]]}},{"type":"Feature","id":"gebouw/Gebouw.16600735/0","properties":{"source":"Digitaal Vlaanderen Gebouwenregister","source_id":"gebouw/Gebouw.16600735/0","kind":"building","height_m":7.88,"status":null},"geometry":{"type":"Polygon","coordinates":[[[4.10102605,50.93251315],[4.10102805,50.93259228],[4.10072324,50.93259536],[4.10072124,50.93251623],[4.10102605,50.93251315]]]}},{"type":"Feature","id":"gebouw/Gebouw.16601274/0","properties":{"source":"Digitaal Vlaanderen Gebouwenregister","source_id":"gebouw/Gebouw.16601274/0","kind":"building","height_m":7.88,"status":null},"geometry":{"type":"Polygon","coordinates":[[[4.10154771,50.93441943],[4.10162219,50.93444543],[4.10159535,50.93447613],[4.10152088,50.93445013],[4.10154771,50.93441943]]]}},{"type":"Feature","id":"gebouw/Gebouw.16601276/0","properties":{"source":"Digitaal Vlaanderen Gebouwenregister","source_id":"gebouw/Gebouw.16601276/0","kind":"building","height_m":9.32,"status":null},"geometry":{"type":"Polygon","coordinates":[[[4.09876233,50.93511543],[4.09876236,50.9351206],[4.09867758,50.93512084],[4.09867754,50.935115],[4.09867737,50.93509188],[4.09866644,50.93509191],[4.09866532,50.93493687],[4.09882527,50.93493641],[4.09882562,50.9349852],[4.09877923,50.93498534],[4.09878,50.93509158],[4.09876215,50.93509163],[4.09876233,50.93511543]]]}},{"type":"Feature","id":"gebouw/Gebouw.16601834/0","properties":{"source":"Digitaal Vlaanderen Gebouwenregister","source_id":"gebouw/Gebouw.16601834/0","kind":"building","height_m":7.88,"status":null},"geometry":{"type":"Polygon","coordinates":[[[4.09490087,50.93080195],[4.09496092,50.93080004],[4.0949563,50.93070506],[4.09514149,50.93069918],[4.09514888,50.93079205],[4.09522882,50.93078951],[4.09523343,50.93084745],[4.09497645,50.93085562],[4.09497947,50.93089352],[4.09490323,50.93089594],[4.09490106,50.9308687],[4.09490087,50.93080195]]]}},{"type":"Feature","id":"gebouw/Gebouw.16602062/0","properties":{"source":"Digitaal Vlaanderen Gebouwenregister","source_id":"gebouw/Gebouw.16602062/0","kind":"building","height_m":5.72,"status":null},"geometry":{"type":"Polygon","coordinates":[[[4.09420337,50.9332669],[4.09416089,50.93320083],[4.09428775,50.93316826],[4.09433023,50.93323434],[4.09420337,50.9332669]]]}},{"type":"Feature","id":"gebouw/Gebouw.16876940/0","properties":{"source":"Digitaal Vlaanderen Gebouwenregister","source_id":"gebouw/Gebouw.16876940/0","kind":"building","height_m":7.16,"status":null},"geometry":{"type":"Polygon","coordinates":[[[4.10077968,50.93367311],[4.10056051,50.93367503],[4.10039416,50.93367649],[4.10039371,50.9336412],[4.10029635,50.93364168],[4.10029655,50.93365779],[4.10027288,50.93365791],[4.10027265,50.93363936],[4.10015427,50.93363994],[4.10015286,50.93352555],[4.1001514,50.9334072],[4.10035076,50.93340622],[4.10035184,50.93349334],[4.10027337,50.93349373],[4.10027454,50.93358847],[4.10046106,50.93358755],[4.10046024,50.93352125],[4.1004004,50.93352154],[4.1003998,50.93347281],[4.10046965,50.93347247],[4.10046986,50.93349007],[4.10055788,50.93348963],[4.10055674,50.93340934],[4.10078364,50.93340822],[4.10078527,50.93354007],[4.10078645,50.93363571],[4.10077922,50.93363574],[4.10077968,50.93367311]]]}},{"type":"Feature","id":"gebouw/Gebouw.18597860/0","properties":{"source":"Digitaal Vlaanderen Gebouwenregister","source_id":"gebouw/Gebouw.18597860/0","kind":"building","height_m":5.72,"status":null},"geometry":{"type":"Polygon","coordinates":[[[4.10058512,50.93225887],[4.10058639,50.93229177],[4.10067832,50.93229238],[4.10067748,50.93221166],[4.10046872,50.93221423],[4.10046941,50.93223348],[4.10049686,50.93223399],[4.10049738,50.93225933],[4.10058512,50.93225887]]]}},{"type":"Feature","id":"gebouw/Gebouw.18730308/0","properties":{"source":"Digitaal Vlaanderen Gebouwenregister","source_id":"gebouw/Gebouw.18730308/0","kind":"building","height_m":6.44,"status":null},"geometry":{"type":"Polygon","coordinates":[[[4.1004623,50.93330775],[4.10046221,50.9332782],[4.10056921,50.93327627],[4.10057108,50.9333076],[4.1004623,50.93330775]]]}},{"type":"Feature","id":"gebouw/Gebouw.18730309/0","properties":{"source":"Digitaal Vlaanderen Gebouwenregister","source_id":"gebouw/Gebouw.18730309/0","kind":"building","height_m":7.16,"status":null},"geometry":{"type":"Polygon","coordinates":[[[4.10037852,50.93377138],[4.10037673,50.93370888],[4.10051427,50.93370747],[4.10051757,50.93376904],[4.10037852,50.93377138]]]}},{"type":"Feature","id":"gebouw/Gebouw.18730310/0","properties":{"source":"Digitaal Vlaanderen Gebouwenregister","source_id":"gebouw/Gebouw.18730310/0","kind":"building","height_m":7.88,"status":null},"geometry":{"type":"Polygon","coordinates":[[[4.09449854,50.93326641],[4.09451501,50.9332889],[4.09446343,50.93330146],[4.09444883,50.93327877],[4.09448803,50.93326902],[4.09449854,50.93326641]]]}},{"type":"Feature","id":"gebouw/Gebouw.18730311/0","properties":{"source":"Digitaal Vlaanderen Gebouwenregister","source_id":"gebouw/Gebouw.18730311/0","kind":"building","height_m":8.6,"status":null},"geometry":{"type":"Polygon","coordinates":[[[4.09438768,50.933209],[4.09445948,50.9331938],[4.09448604,50.93324515],[4.09441511,50.93325939],[4.09438768,50.933209]]]}},{"type":"Feature","id":"gebouw/Gebouw.18972507/0","properties":{"source":"Digitaal Vlaanderen Gebouwenregister","source_id":"gebouw/Gebouw.18972507/0","kind":"building","height_m":5.72,"status":null},"geometry":{"type":"Polygon","coordinates":[[[4.09980148,50.9351746],[4.09980103,50.93522398],[4.09978101,50.93522392],[4.09978014,50.93525516],[4.09979946,50.93525522],[4.09979947,50.93525232],[4.09990254,50.93525249],[4.09990225,50.93532326],[4.09966847,50.93532288],[4.09966841,50.93517411],[4.09980148,50.9351746]]]}},{"type":"Feature","id":"gebouw/Gebouw.18978031/0","properties":{"source":"Digitaal Vlaanderen Gebouwenregister","source_id":"gebouw/Gebouw.18978031/0","kind":"building","height_m":6.44,"status":null},"geometry":{"type":"Polygon","coordinates":[[[4.10042399,50.93244338],[4.10042437,50.93247614],[4.10044396,50.93247605],[4.10044509,50.93257496],[4.10026363,50.93257517],[4.10026339,50.9324905],[4.10024129,50.93249064],[4.10024076,50.93244422],[4.10042399,50.93244338]]]}},{"type":"Feature","id":"gebouw/Gebouw.20145664/0","properties":{"source":"Digitaal Vlaanderen Gebouwenregister","source_id":"gebouw/Gebouw.20145664/0","kind":"building","height_m":5.0,"status":null},"geometry":{"type":"Polygon","coordinates":[[[4.10119914,50.93416418],[4.10120782,50.93413314],[4.10130422,50.9341439],[4.10129555,50.93417494],[4.10119914,50.93416418]]]}},{"type":"Feature","id":"gebouw/Gebouw.20145665/0","properties":{"source":"Digitaal Vlaanderen Gebouwenregister","source_id":"gebouw/Gebouw.20145665/0","kind":"building","height_m":5.72,"status":null},"geometry":{"type":"Polygon","coordinates":[[[4.09455139,50.93317727],[4.09460489,50.93316519],[4.09462879,50.93320743],[4.09457529,50.93321952],[4.09455139,50.93317727]]]}},{"type":"Feature","id":"gebouw/Gebouw.20146311/0","properties":{"source":"Digitaal Vlaanderen Gebouwenregister","source_id":"gebouw/Gebouw.20146311/0","kind":"building","height_m":7.16,"status":null},"geometry":{"type":"Polygon","coordinates":[[[4.09215918,50.93510494],[4.09209983,50.935119],[4.09206361,50.93505797],[4.09212297,50.93504391],[4.09215918,50.93510494]]]}},{"type":"Feature","id":"gebouw/Gebouw.20146312/0","properties":{"source":"Digitaal Vlaanderen Gebouwenregister","source_id":"gebouw/Gebouw.20146312/0","kind":"building","height_m":7.88,"status":null},"geometry":{"type":"Polygon","coordinates":[[[4.1015451,50.93287892],[4.10148448,50.9328792],[4.10148389,50.93282726],[4.1015445,50.93282698],[4.1015451,50.93287892]]]}},{"type":"Feature","id":"gebouw/Gebouw.30644301/0","properties":{"source":"Digitaal Vlaanderen Gebouwenregister","source_id":"gebouw/Gebouw.30644301/0","kind":"building","height_m":6.44,"status":null},"geometry":{"type":"Polygon","coordinates":[[[4.0977669,50.93516419],[4.09739626,50.93516653],[4.09739508,50.9351355],[4.09738993,50.93513558],[4.09738735,50.9350674],[4.09776302,50.93506173],[4.09776367,50.93507878],[4.09776423,50.93509371],[4.0977669,50.93516419]]]}},{"type":"Feature","id":"gebouw/Gebouw.30644309/0","properties":{"source":"Digitaal Vlaanderen Gebouwenregister","source_id":"gebouw/Gebouw.30644309/0","kind":"building","height_m":7.16,"status":null},"geometry":{"type":"Polygon","coordinates":[[[4.09495869,50.93075426],[4.0949563,50.93070506],[4.09514149,50.93069918],[4.09514536,50.93074776],[4.09495869,50.93075426]]]}},{"type":"Feature","id":"gebouw/Gebouw.30644310/0","properties":{"source":"Digitaal Vlaanderen Gebouwenregister","source_id":"gebouw/Gebouw.30644310/0","kind":"building","height_m":7.88,"status":null},"geometry":{"type":"Polygon","coordinates":[[[4.09490087,50.93080195],[4.09522882,50.93078951],[4.09523343,50.93084745],[4.09497645,50.93085562],[4.09497947,50.93089352],[4.09490323,50.93089594],[4.09490106,50.9308687],[4.09490087,50.93080195]]]}},{"type":"Feature","id":"gebouw/Gebouw.31144950/0","properties":{"source":"Digitaal Vlaanderen Gebouwenregister","source_id":"gebouw/Gebouw.31144950/0","kind":"building","height_m":7.88,"status":null},"geometry":{"type":"Polygon","coordinates":[[[4.09450577,50.93327256],[4.09464392,50.93324136],[4.09466609,50.93328057],[4.09452795,50.93331177],[4.09450577,50.93327256]]]}},{"type":"Feature","id":"gebouw/Gebouw.31805286/0","properties":{"source":"Digitaal Vlaanderen Gebouwenregister","source_id":"gebouw/Gebouw.31805286/0","kind":"building","height_m":6.44,"status":null},"geometry":{"type":"Polygon","coordinates":[[[4.0943125,50.93360716],[4.09428967,50.93355583],[4.09424598,50.93356359],[4.09426881,50.93361492],[4.0943125,50.93360716]]]}},{"type":"Feature","id":"gebouw/Gebouw.31805320/0","properties":{"source":"Digitaal Vlaanderen Gebouwenregister","source_id":"gebouw/Gebouw.31805320/0","kind":"building","height_m":5.72,"status":null},"geometry":{"type":"Polygon","coordinates":[[[4.09629271,50.93345665],[4.09625148,50.9333571],[4.09620563,50.93336468],[4.09624686,50.93346423],[4.09629271,50.93345665]]]}},{"type":"Feature","id":"gebouw/Gebouw.31805557/0","properties":{"source":"Digitaal Vlaanderen Gebouwenregister","source_id":"gebouw/Gebouw.31805557/0","kind":"building","height_m":5.0,"status":null},"geometry":{"type":"Polygon","coordinates":[[[4.09634155,50.9334566],[4.09636777,50.93351201],[4.09640749,50.93350451],[4.09638128,50.9334491],[4.09634155,50.9334566]]]}},{"type":"Feature","id":"way/160747293","properties":{"source":"OpenStreetMap","source_id":"way/160747293","kind":"vegetation","name":null,"waterway":null,"landuse":"forest"},"geometry":{"type":"Polygon","coordinates":[[[4.0952811,50.9336812],[4.0957739,50.9335747],[4.0960133,50.9340485],[4.0967679,50.9338995],[4.0960386,50.9324833],[4.0963753,50.9323486],[4.0965398,50.9325702],[4.0963371,50.9327992],[4.0969052,50.9339205],[4.096782,50.9339421],[4.0960611,50.9340947],[4.0964385,50.9348045],[4.0958978,50.9349252],[4.0955566,50.934202],[4.0952811,50.9336812]]]}},{"type":"Feature","id":"way/160747310","properties":{"source":"OpenStreetMap","source_id":"way/160747310","kind":"vegetation","name":null,"waterway":null,"landuse":"forest"},"geometry":{"type":"Polygon","coordinates":[[[4.0927682,50.9337215],[4.0932867,50.9347065],[4.0926691,50.9348314],[4.0924099,50.934387],[4.0922765,50.934435],[4.0920325,50.9340746],[4.0914683,50.9342885],[4.0915979,50.9344735],[4.091739,50.9344374],[4.0919067,50.9346608],[4.0921431,50.9346152],[4.0922836,50.9349126],[4.0925639,50.9355056],[4.0927688,50.9354989],[4.092855,50.9358522],[4.092607,50.935859],[4.0926504,50.9362806],[4.092075,50.9362133],[4.0919978,50.9357231],[4.0916636,50.9357265],[4.0915719,50.9354343],[4.0913778,50.9354207],[4.0908226,50.934483],[4.0927682,50.9337215]]]}},{"type":"Feature","id":"way/160747346","properties":{"source":"OpenStreetMap","source_id":"way/160747346","kind":"vegetation","name":null,"waterway":null,"landuse":"forest"},"geometry":{"type":"Polygon","coordinates":[[[4.093626,50.9333947],[4.0930122,50.9336206],[4.0935802,50.9346224],[4.0942283,50.9344831],[4.093626,50.9333947]]]}},{"type":"Feature","id":"way/160747349","properties":{"source":"OpenStreetMap","source_id":"way/160747349","kind":"vegetation","name":null,"waterway":null,"landuse":"forest"},"geometry":{"type":"Polygon","coordinates":[[[4.0974363,50.931945],[4.0976809,50.9318596],[4.0984722,50.9336383],[4.0981696,50.9336734],[4.0974363,50.931945]]]}},{"type":"Feature","id":"way/160747353","properties":{"source":"OpenStreetMap","source_id":"way/160747353","kind":"vegetation","name":null,"waterway":null,"landuse":"forest"},"geometry":{"type":"Polygon","coordinates":[[[4.0968489,50.9321793],[4.0966551,50.9322507],[4.097058,50.9330902],[4.0972325,50.9330796],[4.0968489,50.9321793]]]}},{"type":"Feature","id":"way/160767320","properties":{"source":"OpenStreetMap","source_id":"way/160767320","kind":"vegetation","name":null,"waterway":null,"landuse":"forest"},"geometry":{"type":"Polygon","coordinates":[[[4.1015734,50.9310084],[4.1016813,50.931084],[4.1017057,50.9312675],[4.1011481,50.9312687],[4.101147,50.9310963],[4.1015723,50.931095],[4.1015734,50.9310084]]]}}]}