{"type":"FeatureCollection","features":[{"type":"Feature","id":"gebouw/Gebouw.16754677/0","properties":{"source":"Digitaal Vlaanderen Gebouwenregister","source_id":"gebouw/Gebouw.16754677/0","kind":"building","height_m":6.44,"status":null},"geometry":{"type":"Polygon","coordinates":[[[4.09110946,50.90601224],[4.09110259,50.90594744],[4.09113127,50.90594503],[4.09112485,50.90590924],[4.09109877,50.90591148],[4.09109828,50.90590684],[4.09103627,50.90590924],[4.09105486,50.90606513],[4.09112759,50.90606052],[4.09112359,50.90601182],[4.09110946,50.90601224]]]}},{"type":"Feature","id":"gebouw/Gebouw.16760310/0","properties":{"source":"Digitaal Vlaanderen Gebouwenregister","source_id":"gebouw/Gebouw.16760310/0","kind":"building","height_m":5.0,"status":null},"geometry":{"type":"Polygon","coordinates":[[[4.09223297,50.90578108],[4.09216085,50.90574485],[4.0922132,50.90570483],[4.09226747,50.90573236],[4.09223297,50.90578108]]]}},{"type":"Feature","id":"gebouw/Gebouw.16772721/0","properties":{"source":"Digitaal Vlaanderen Gebouwenregister","source_id":"gebouw/Gebouw.16772721/0","kind":"building","height_m":5.0,"status":null},"geometry":{"type":"Polygon","coordinates":[[[4.09112988,50.9057376],[4.09121792,50.9056255],[4.09128409,50.90564628],[4.09128207,50.90564905],[4.09132872,50.90566363],[4.09134547,50.90564259],[4.09141349,50.90566395],[4.09132711,50.90577394],[4.09127225,50.90575672],[4.09125613,50.90577724],[4.09112988,50.9057376]]]}},{"type":"Feature","id":"gebouw/Gebouw.16773703/0","properties":{"source":"Digitaal Vlaanderen Gebouwenregister","source_id":"gebouw/Gebouw.16773703/0","kind":"building","height_m":6.44,"status":null},"geometry":{"type":"Polygon","coordinates":[[[4.092019,50.90549685],[4.09211288,50.90541143],[4.0923366,50.90550974],[4.09222475,50.9056121],[4.09214399,50.90557681],[4.0921626,50.90555995],[4.092019,50.90549685]]]}},{"type":"Feature","id":"gebouw/Gebouw.16774995/0","properties":{"source":"Digitaal Vlaanderen Gebouwenregister","source_id":"gebouw/Gebouw.16774995/0","kind":"building","height_m":9.32,"status":null},"geometry":{"type":"Polygon","coordinates":[[[4.09096107,50.90772431],[4.09110191,50.90775048],[4.09104981,50.90786246],[4.09090966,50.90783734],[4.09096107,50.90772431]]]}},{"type":"Feature","id":"gebouw/Gebouw.16784010/0","properties":{"source":"Digitaal Vlaanderen Gebouwenregister","source_id":"gebouw/Gebouw.16784010/0","kind":"building","height_m":8.6,"status":null},"geometry":{"type":"Polygon","coordinates":[[[4.09166961,50.9057044],[4.09165328,50.90571963],[4.09166108,50.90572297],[4.09161762,50.90576351],[4.09153697,50.90572895],[4.09153963,50.90572647],[4.09150779,50.90571283],[4.0915449,50.90567821],[4.09157647,50.90564875],[4.091601,50.90562586],[4.09167409,50.90565718],[4.091638,50.90569085],[4.09166961,50.9057044]]]}},{"type":"Feature","id":"gebouw/Gebouw.16784407/0","properties":{"source":"Digitaal Vlaanderen Gebouwenregister","source_id":"gebouw/Gebouw.16784407/0","kind":"building","height_m":7.16,"status":null},"geometry":{"type":"Polygon","coordinates":[[[4.09115791,50.90798174],[4.09116579,50.9079656],[4.09117546,50.90796748],[4.09110742,50.90810687],[4.09110085,50.90810559],[4.09110288,50.90810069],[4.09103968,50.90808882],[4.0910371,50.90809414],[4.09098563,50.90808465],[4.09104208,50.90796015],[4.09115791,50.90798174]]]}},{"type":"Feature","id":"gebouw/Gebouw.16785798/0","properties":{"source":"Digitaal Vlaanderen Gebouwenregister","source_id":"gebouw/Gebouw.16785798/0","kind":"building","height_m":5.72,"status":null},"geometry":{"type":"Polygon","coordinates":[[[4.09185324,50.90553805],[4.09177412,50.90549811],[4.09179114,50.90548486],[4.09172126,50.90544995],[4.09181721,50.90537315],[4.09192515,50.90542762],[4.09193659,50.90541856],[4.09197782,50.90543937],[4.09185324,50.90553805]]]}},{"type":"Feature","id":"gebouw/Gebouw.16797209/0","properties":{"source":"Digitaal Vlaanderen Gebouwenregister","source_id":"gebouw/Gebouw.16797209/0","kind":"building","height_m":6.44,"status":null},"geometry":{"type":"Polygon","coordinates":[[[4.09104208,50.90796015],[4.09098563,50.90808465],[4.09094182,50.90807658],[4.09094569,50.90806823],[4.09087102,50.9080543],[4.09092714,50.90793402],[4.09104403,50.90795584],[4.09104208,50.90796015]]]}},{"type":"Feature","id":"gebouw/Gebouw.16847916/0","properties":{"source":"Digitaal Vlaanderen Gebouwenregister","source_id":"gebouw/Gebouw.16847916/0","kind":"building","height_m":5.72,"status":null},"geometry":{"type":"Polygon","coordinates":[[[4.09200433,50.90583897],[4.09198176,50.90591645],[4.09180407,50.90589576],[4.09182505,50.90581543],[4.09182989,50.90581594],[4.0918295,50.90581689],[4.09200055,50.90583941],[4.09200086,50.90583856],[4.09200433,50.90583897]]]}},{"type":"Feature","id":"gebouw/Gebouw.17059120/0","properties":{"source":"Digitaal Vlaanderen Gebouwenregister","source_id":"gebouw/Gebouw.17059120/0","kind":"building","height_m":5.72,"status":null},"geometry":{"type":"Polygon","coordinates":[[[4.09206246,50.90611153],[4.09210402,50.90603644],[4.0921298,50.90604214],[4.09214259,50.90603804],[4.09214926,50.90604543],[4.09217454,50.90605003],[4.0921728,50.90605387],[4.09219162,50.90605742],[4.0921895,50.90605427],[4.09218885,50.90605171],[4.09218913,50.90604913],[4.0921905,50.90604647],[4.09219287,50.90604412],[4.09219641,50.90604207],[4.09220069,50.9060407],[4.09220692,50.90604009],[4.09221307,50.90604092],[4.09221704,50.90604252],[4.09223575,50.90600291],[4.09227094,50.90600966],[4.09227558,50.90600068],[4.09227161,50.90599986],[4.09227494,50.90599345],[4.09235508,50.90600817],[4.09235274,50.90601445],[4.09235813,50.90601547],[4.09231511,50.90610652],[4.09229422,50.90610189],[4.09227566,50.90613543],[4.09222863,50.90612502],[4.09221958,50.90614136],[4.09221209,50.9061397],[4.09219191,50.90617615],[4.09212634,50.90616164],[4.09213484,50.90614629],[4.09208875,50.90613609],[4.092098,50.90611939],[4.09206246,50.90611153]]]}},{"type":"Feature","id":"gebouw/Gebouw.17071522/0","properties":{"source":"Digitaal Vlaanderen Gebouwenregister","source_id":"gebouw/Gebouw.17071522/0","kind":"building","height_m":9.32,"status":null},"geometry":{"type":"Polygon","coordinates":[[[4.09141293,50.90587952],[4.09132987,50.90586217],[4.09135622,50.90581179],[4.09143927,50.90582914],[4.09141293,50.90587952]]]}},{"type":"Feature","id":"gebouw/Gebouw.18114792/0","properties":{"source":"Digitaal Vlaanderen Gebouwenregister","source_id":"gebouw/Gebouw.18114792/0","kind":"building","height_m":7.16,"status":null},"geometry":{"type":"Polygon","coordinates":[[[4.09126109,50.90799649],[4.09133615,50.9080123],[4.09133092,50.90802532],[4.09137273,50.90803479],[4.09134342,50.90810289],[4.09131352,50.90809739],[4.09129353,50.90814128],[4.09121533,50.90812699],[4.09122642,50.90810232],[4.09121432,50.90810022],[4.09126109,50.90799649]]]}},{"type":"Feature","id":"gebouw/Gebouw.18730984/0","properties":{"source":"Digitaal Vlaanderen Gebouwenregister","source_id":"gebouw/Gebouw.18730984/0","kind":"building","height_m":9.32,"status":null},"geometry":{"type":"Polygon","coordinates":[[[4.09130762,50.90776634],[4.09129345,50.90780342],[4.09122822,50.9077918],[4.09124542,50.90775519],[4.09130762,50.90776634]]]}},{"type":"Feature","id":"gebouw/Gebouw.20145920/0","properties":{"source":"Digitaal Vlaanderen Gebouwenregister","source_id":"gebouw/Gebouw.20145920/0","kind":"building","height_m":7.88,"status":null},"geometry":{"type":"Polygon","coordinates":[[[4.09151877,50.90780004],[4.09150555,50.90782982],[4.09140103,50.90781126],[4.09141426,50.90778149],[4.09151877,50.90780004]]]}},{"type":"Feature","id":"gebouw/Gebouw.20146839/0","properties":{"source":"Digitaal Vlaanderen Gebouwenregister","source_id":"gebouw/Gebouw.20146839/0","kind":"building","height_m":9.32,"status":null},"geometry":{"type":"Polygon","coordinates":[[[4.09216215,50.90574545],[4.09221316,50.90570565],[4.09226839,50.90573394],[4.09223389,50.90578221],[4.09216215,50.90574545]]]}},{"type":"Feature","id":"gebouw/Gebouw.20146840/0","properties":{"source":"Digitaal Vlaanderen Gebouwenregister","source_id":"gebouw/Gebouw.20146840/0","kind":"building","height_m":5.0,"status":null},"geometry":{"type":"Polygon","coordinates":[[[4.09278792,50.90626015],[4.09275636,50.90631116],[4.09272771,50.90630492],[4.09275588,50.90625318],[4.09278792,50.90626015]]]}},{"type":"Feature","id":"gebouw/Gebouw.30642827/0","properties":{"source":"Digitaal Vlaanderen Gebouwenregister","source_id":"gebouw/Gebouw.30642827/0","kind":"building","height_m":8.6,"status":null},"geometry":{"type":"Polygon","coordinates":[[[4.09197234,50.90619803],[4.09198791,50.90616003],[4.09204099,50.90616872],[4.09202542,50.90620672],[4.09197234,50.90619803]]]}},{"type":"Feature","id":"gebouw/Gebouw.30642828/0","properties":{"source":"Digitaal Vlaanderen Gebouwenregister","source_id":"gebouw/Gebouw.30642828/0","kind":"building","height_m":9.32,"status":null},"geometry":{"type":"Polygon","coordinates":[[[4.09193303,50.90600277],[4.09194437,50.90597268],[4.0920057,50.90598192],[4.09199437,50.906012],[4.09193303,50.90600277]]]}},{"type":"Feature","id":"way/161056542","properties":{"source":"OpenStreetMap","source_id":"way/161056542","kind":"vegetation","name":null,"waterway":null,"landuse":"forest"},"geometry":{"type":"Polygon","coordinates":[[[4.091998,50.9074987],[4.0916279,50.907424],[4.0914242,50.907871],[4.0917861,50.9079476],[4.0918695,50.9077824],[4.091998,50.9074987]]]}}]}