{"type":"FeatureCollection","features":[{"type":"Feature","id":"gebouw/Gebouw.11282852/0","properties":{"source":"Digitaal Vlaanderen Gebouwenregister","source_id":"gebouw/Gebouw.11282852/0","kind":"building","height_m":5.0,"status":null},"geometry":{"type":"Polygon","coordinates":[[[4.10330393,50.93053331],[4.10341788,50.93052865],[4.10341616,50.93051325],[4.10348718,50.9305093],[4.10348343,50.93048096],[4.1035696,50.9304756],[4.10357,50.93047853],[4.10367212,50.93047339],[4.10368054,50.93052705],[4.10370347,50.93052587],[4.10371141,50.93058953],[4.1035014,50.93060371],[4.10350621,50.9306366],[4.10332837,50.93064703],[4.10332503,50.93061562],[4.1033155,50.93061626],[4.10330393,50.93053331]]]}},{"type":"Feature","id":"gebouw/Gebouw.11282857/0","properties":{"source":"Digitaal Vlaanderen Gebouwenregister","source_id":"gebouw/Gebouw.11282857/0","kind":"building","height_m":8.6,"status":null},"geometry":{"type":"Polygon","coordinates":[[[4.10306616,50.93063859],[4.10324373,50.93062992],[4.10325349,50.93068707],[4.10307592,50.93070152],[4.10306616,50.93063859]]]}},{"type":"Feature","id":"gebouw/Gebouw.11365127/0","properties":{"source":"Digitaal Vlaanderen Gebouwenregister","source_id":"gebouw/Gebouw.11365127/0","kind":"building","height_m":7.88,"status":null},"geometry":{"type":"Polygon","coordinates":[[[4.10313902,50.93058075],[4.10308544,50.93058224],[4.10308836,50.93063081],[4.10299783,50.93063234],[4.10298871,50.93045604],[4.10299952,50.93045577],[4.10303208,50.93045497],[4.10309283,50.93047369],[4.10309569,50.93052065],[4.10313804,50.93052024],[4.10313902,50.93058075]]]}},{"type":"Feature","id":"gebouw/Gebouw.11393063/0","properties":{"source":"Digitaal Vlaanderen Gebouwenregister","source_id":"gebouw/Gebouw.11393063/0","kind":"building","height_m":7.16,"status":null},"geometry":{"type":"Polygon","coordinates":[[[4.10261146,50.93019197],[4.10261239,50.93015638],[4.10267879,50.93015746],[4.10267817,50.93019268],[4.10261146,50.93019197]]]}},{"type":"Feature","id":"gebouw/Gebouw.11397304/0","properties":{"source":"Digitaal Vlaanderen Gebouwenregister","source_id":"gebouw/Gebouw.11397304/0","kind":"building","height_m":6.44,"status":null},"geometry":{"type":"Polygon","coordinates":[[[4.10274837,50.93031395],[4.10280507,50.93031326],[4.10280708,50.93037935],[4.10275038,50.93038004],[4.10274837,50.93031395]]]}},{"type":"Feature","id":"gebouw/Gebouw.11415506/0","properties":{"source":"Digitaal Vlaanderen Gebouwenregister","source_id":"gebouw/Gebouw.11415506/0","kind":"building","height_m":7.88,"status":null},"geometry":{"type":"Polygon","coordinates":[[[4.10276322,50.93011155],[4.10283747,50.93011031],[4.10283812,50.93015537],[4.10282776,50.93015545],[4.10283092,50.93021449],[4.10276707,50.93021543],[4.10276322,50.93011155]]]}},{"type":"Feature","id":"gebouw/Gebouw.11516979/0","properties":{"source":"Digitaal Vlaanderen Gebouwenregister","source_id":"gebouw/Gebouw.11516979/0","kind":"building","height_m":8.6,"status":null},"geometry":{"type":"Polygon","coordinates":[[[4.10188335,50.93044212],[4.10174254,50.9304458],[4.10173911,50.93040235],[4.10171608,50.93038789],[4.10171193,50.93038987],[4.10169492,50.93037851],[4.10172685,50.93035635],[4.10173255,50.93035968],[4.10177619,50.93033168],[4.10182039,50.93035272],[4.10188159,50.93035315],[4.10188335,50.93044212]]]}},{"type":"Feature","id":"gebouw/Gebouw.12539825/0","properties":{"source":"Digitaal Vlaanderen Gebouwenregister","source_id":"gebouw/Gebouw.12539825/0","kind":"building","height_m":7.88,"status":null},"geometry":{"type":"Polygon","coordinates":[[[4.10431332,50.93078777],[4.10444496,50.93077425],[4.10447401,50.93088469],[4.1044846,50.93092231],[4.1044214,50.93092933],[4.10442902,50.93095508],[4.10437782,50.93096077],[4.10435926,50.93089803],[4.10434211,50.93090002],[4.10431332,50.93078777]]]}},{"type":"Feature","id":"gebouw/Gebouw.16560608/0","properties":{"source":"Digitaal Vlaanderen Gebouwenregister","source_id":"gebouw/Gebouw.16560608/0","kind":"building","height_m":5.72,"status":null},"geometry":{"type":"Polygon","coordinates":[[[4.11129556,50.92931856],[4.1112926,50.9293886],[4.11123403,50.92938761],[4.11123699,50.92931757],[4.11129556,50.92931856]]]}},{"type":"Feature","id":"gebouw/Gebouw.16565056/0","properties":{"source":"Digitaal Vlaanderen Gebouwenregister","source_id":"gebouw/Gebouw.16565056/0","kind":"building","height_m":7.88,"status":null},"geometry":{"type":"Polygon","coordinates":[[[4.10292408,50.93257358],[4.10166826,50.93258649],[4.10165847,50.93220562],[4.10291428,50.93219272],[4.10292408,50.93257358]]]}},{"type":"Feature","id":"gebouw/Gebouw.16600497/0","properties":{"source":"Digitaal Vlaanderen Gebouwenregister","source_id":"gebouw/Gebouw.16600497/0","kind":"building","height_m":7.88,"status":null},"geometry":{"type":"Polygon","coordinates":[[[4.10188574,50.93509047],[4.10193769,50.93509309],[4.10194065,50.93499714],[4.10188843,50.9349965],[4.10188574,50.93509047]]]}},{"type":"Feature","id":"way/160747399","properties":{"source":"OpenStreetMap","source_id":"way/160747399","kind":"water","name":null,"waterway":null,"landuse":null},"geometry":{"type":"Polygon","coordinates":[[[4.1038888,50.932887],[4.1038914,50.9330159],[4.1033683,50.9330201],[4.1033658,50.9328912],[4.1038888,50.932887]]]}},{"type":"Feature","id":"way/160767223","properties":{"source":"OpenStreetMap","source_id":"way/160767223","kind":"vegetation","name":null,"waterway":null,"landuse":"forest"},"geometry":{"type":"Polygon","coordinates":[[[4.1056922,50.9312306],[4.1053625,50.9312921],[4.1042722,50.9314952],[4.1042636,50.9309891],[4.1039786,50.930991],[4.1039815,50.9306681],[4.1035844,50.9306681],[4.1035917,50.9312403],[4.1039803,50.9312367],[4.1039786,50.9316472],[4.1057105,50.9313032],[4.1056922,50.9312306]]]}},{"type":"Feature","id":"way/160767302","properties":{"source":"OpenStreetMap","source_id":"way/160767302","kind":"vegetation","name":null,"waterway":null,"landuse":"forest"},"geometry":{"type":"Polygon","coordinates":[[[4.1056473,50.9310524],[4.1055379,50.9310647],[4.1053716,50.93042],[4.1050291,50.929092],[4.1051471,50.9290682],[4.1056473,50.9310524]]]}},{"type":"Feature","id":"way/779136144","properties":{"source":"OpenStreetMap","source_id":"way/779136144","kind":"waterway","name":"Geerbeek","waterway":"stream","landuse":null},"geometry":{"type":"LineString","coordinates":[[4.1062283,50.9285993],[4.1062992,50.9286499]]}},{"type":"Feature","id":"way/1103771204","properties":{"source":"OpenStreetMap","source_id":"way/1103771204","kind":"waterway","name":"Geerbeek","waterway":"stream","landuse":null},"geometry":{"type":"LineString","coordinates":[[4.1062992,50.9286499],[4.1064651,50.928751],[4.1064888,50.9287973],[4.1064913,50.928866],[4.1065505,50.9289528],[4.1066308,50.9290407],[4.1067544,50.9291557],[4.1067892,50.9292402],[4.106852,50.9292888],[4.1068643,50.9293197],[4.1068429,50.9294059],[4.1068402,50.9294685],[4.1068429,50.9295344],[4.106809,50.9296656],[4.1068378,50.9298338],[4.1069475,50.9299384],[4.1069555,50.9299976],[4.1070401,50.9301506],[4.1072721,50.9304877],[4.107422,50.9308099],[4.1075638,50.9309453],[4.1077206,50.9310708],[4.1078221,50.9313062],[4.1080041,50.931668],[4.1080595,50.9318078],[4.1080885,50.9319153],[4.1085047,50.932711],[4.1080305,50.9328652],[4.1075939,50.9329856],[4.107213,50.9331297],[4.1072801,50.9332561],[4.1074597,50.9334664],[4.1079561,50.9339502],[4.1085497,50.9346626],[4.1085852,50.9346756],[4.1087169,50.9346279]]}},{"type":"Feature","id":"way/1103771205","properties":{"source":"OpenStreetMap","source_id":"way/1103771205","kind":"waterway","name":null,"waterway":"stream","landuse":null},"geometry":{"type":"LineString","coordinates":[[4.1103952,50.9336391],[4.1105449,50.9338931],[4.1106476,50.9341285],[4.1106848,50.9342702],[4.1106987,50.9344982],[4.1106722,50.9345704],[4.1106173,50.9346679],[4.1105569,50.9347955],[4.1104498,50.9349411],[4.1103197,50.9350748],[4.1099518,50.9351939],[4.1097533,50.9352759],[4.1095702,50.9353676],[4.1094832,50.935455]]}},{"type":"Feature","id":"way/1103771206","properties":{"source":"OpenStreetMap","source_id":"way/1103771206","kind":"waterway","name":"Geerbeek","waterway":"stream","landuse":null},"geometry":{"type":"LineString","coordinates":[[4.1088404,50.934659],[4.1088807,50.9346692],[4.1089271,50.9347264],[4.1089926,50.9347537],[4.1089949,50.9348101],[4.1091594,50.934993],[4.1092084,50.9351323],[4.1092988,50.9351964],[4.1093829,50.9352185],[4.1094452,50.9352574],[4.109466,50.9352918],[4.1094358,50.9354178],[4.1094498,50.9354405],[4.1094832,50.935455]]}},{"type":"Feature","id":"way/1103771207","properties":{"source":"OpenStreetMap","source_id":"way/1103771207","kind":"waterway","name":"Geerbeek","waterway":"stream","landuse":null},"geometry":{"type":"LineString","coordinates":[[4.1087169,50.9346279],[4.1088404,50.934659]]}}]}