{"type":"FeatureCollection","features":[{"type":"Feature","id":"gebouw/Gebouw.13485905/0","properties":{"source":"Digitaal Vlaanderen Gebouwenregister","source_id":"gebouw/Gebouw.13485905/0","kind":"building","height_m":9.32,"status":null},"geometry":{"type":"Polygon","coordinates":[[[4.10637721,50.97240195],[4.10630702,50.97233763],[4.10628455,50.97234733],[4.10626556,50.97232978],[4.10622319,50.97234899],[4.10631258,50.9724309],[4.10625053,50.97245869],[4.10628278,50.97248576],[4.1063613,50.9724544],[4.10638047,50.97247352],[4.10641772,50.97245863],[4.10647161,50.97242718],[4.10641982,50.97238286],[4.10637721,50.97240195]]]}},{"type":"Feature","id":"gebouw/Gebouw.13485935/0","properties":{"source":"Digitaal Vlaanderen Gebouwenregister","source_id":"gebouw/Gebouw.13485935/0","kind":"building","height_m":5.72,"status":null},"geometry":{"type":"Polygon","coordinates":[[[4.11048127,50.97147367],[4.1103832,50.97150954],[4.11034551,50.97146645],[4.11032963,50.97147166],[4.11034588,50.97148974],[4.11031867,50.97149928],[4.1103037,50.97148246],[4.11028263,50.97148988],[4.11027448,50.97148013],[4.1102486,50.9714896],[4.11022088,50.97145862],[4.11019399,50.97142858],[4.11016238,50.97139326],[4.11025481,50.97136128],[4.11028737,50.97139634],[4.11031324,50.97142421],[4.11034881,50.97146253],[4.11044258,50.97142924],[4.11048127,50.97147367]]]}},{"type":"Feature","id":"gebouw/Gebouw.13494500/0","properties":{"source":"Digitaal Vlaanderen Gebouwenregister","source_id":"gebouw/Gebouw.13494500/0","kind":"building","height_m":8.6,"status":null},"geometry":{"type":"Polygon","coordinates":[[[4.11237777,50.97079608],[4.1122289,50.97084634],[4.1122021,50.97081469],[4.11218555,50.97082028],[4.11214501,50.97077486],[4.11210029,50.97079294],[4.11207792,50.97077088],[4.11201493,50.97070878],[4.11206476,50.97068863],[4.11203855,50.97065884],[4.11202404,50.97066372],[4.11198202,50.97061684],[4.11205107,50.97059216],[4.1120534,50.97059453],[4.11211904,50.97057152],[4.11215051,50.97060731],[4.112134,50.97061318],[4.11215407,50.97063512],[4.1121248,50.9706458],[4.11214402,50.97066681],[4.11213738,50.9706691],[4.11214657,50.97067916],[4.11215201,50.97067694],[4.11221468,50.97075095],[4.1123118,50.97071817],[4.11237777,50.97079608]]]}},{"type":"Feature","id":"gebouw/Gebouw.13496302/0","properties":{"source":"Digitaal Vlaanderen Gebouwenregister","source_id":"gebouw/Gebouw.13496302/0","kind":"building","height_m":5.72,"status":null},"geometry":{"type":"Polygon","coordinates":[[[4.10826971,50.97175213],[4.10836864,50.97171583],[4.10839961,50.97175016],[4.10838784,50.97175473],[4.1085124,50.9718957],[4.10853318,50.97188847],[4.10854654,50.97190305],[4.10846109,50.97193425],[4.10844177,50.97191327],[4.10843351,50.9719163],[4.10841067,50.97189148],[4.10839917,50.97189572],[4.10826971,50.97175213]]]}},{"type":"Feature","id":"gebouw/Gebouw.13507169/0","properties":{"source":"Digitaal Vlaanderen Gebouwenregister","source_id":"gebouw/Gebouw.13507169/0","kind":"building","height_m":7.88,"status":null},"geometry":{"type":"Polygon","coordinates":[[[4.11006563,50.97121431],[4.10995499,50.97117595],[4.11001039,50.97110358],[4.11003943,50.97106565],[4.11010362,50.97108799],[4.11012225,50.97106366],[4.11009141,50.9710517],[4.11017088,50.97096341],[4.11017905,50.97095434],[4.11018427,50.97095621],[4.1102118,50.97092562],[4.11029496,50.97095546],[4.11020102,50.97105984],[4.11022811,50.97106933],[4.11015588,50.97115431],[4.11012657,50.97114427],[4.11006563,50.97121431]]]}},{"type":"Feature","id":"gebouw/Gebouw.13507489/0","properties":{"source":"Digitaal Vlaanderen Gebouwenregister","source_id":"gebouw/Gebouw.13507489/0","kind":"building","height_m":6.44,"status":null},"geometry":{"type":"Polygon","coordinates":[[[4.11187662,50.97031335],[4.11179689,50.97035663],[4.11164702,50.97024538],[4.11168649,50.97022315],[4.11164705,50.97019399],[4.11172205,50.97015462],[4.11178793,50.97020242],[4.11175289,50.9702225],[4.11187662,50.97031335]]]}},{"type":"Feature","id":"gebouw/Gebouw.13507659/0","properties":{"source":"Digitaal Vlaanderen Gebouwenregister","source_id":"gebouw/Gebouw.13507659/0","kind":"building","height_m":7.88,"status":null},"geometry":{"type":"Polygon","coordinates":[[[4.11185838,50.97064994],[4.1118978,50.97063264],[4.11192445,50.97065659],[4.11188503,50.97067389],[4.11185838,50.97064994]]]}},{"type":"Feature","id":"gebouw/Gebouw.13515845/0","properties":{"source":"Digitaal Vlaanderen Gebouwenregister","source_id":"gebouw/Gebouw.13515845/0","kind":"building","height_m":5.0,"status":null},"geometry":{"type":"Polygon","coordinates":[[[4.10969651,50.9714057],[4.10956528,50.97147497],[4.10950561,50.97150647],[4.10945581,50.97146885],[4.10952419,50.97143294],[4.10960021,50.97139302],[4.10957361,50.97137336],[4.10962336,50.97134532],[4.10965147,50.97136609],[4.10966756,50.97135765],[4.10971692,50.97139492],[4.10969651,50.9714057]]]}},{"type":"Feature","id":"gebouw/Gebouw.13529330/0","properties":{"source":"Digitaal Vlaanderen Gebouwenregister","source_id":"gebouw/Gebouw.13529330/0","kind":"building","height_m":7.16,"status":null},"geometry":{"type":"Polygon","coordinates":[[[4.10795348,50.971757],[4.10798229,50.97174646],[4.10805122,50.97182157],[4.10804596,50.97182349],[4.10805151,50.97182953],[4.10803125,50.97183695],[4.10802543,50.97183061],[4.10802214,50.97183182],[4.10795348,50.971757]]]}},{"type":"Feature","id":"gebouw/Gebouw.13529830/0","properties":{"source":"Digitaal Vlaanderen Gebouwenregister","source_id":"gebouw/Gebouw.13529830/0","kind":"building","height_m":9.32,"status":null},"geometry":{"type":"Polygon","coordinates":[[[4.10796114,50.97190053],[4.10798409,50.97189089],[4.10797571,50.97188303],[4.10800187,50.97187191],[4.10799245,50.97186308],[4.108121,50.97180845],[4.1081396,50.97182557],[4.10819542,50.97180212],[4.108273,50.9718717],[4.10826618,50.97187473],[4.1082755,50.97188373],[4.10818521,50.97192165],[4.10814939,50.97193669],[4.10816099,50.97194787],[4.10810645,50.97197075],[4.10809482,50.9719597],[4.10804522,50.97198049],[4.10796114,50.97190053]]]}},{"type":"Feature","id":"gebouw/Gebouw.13544709/0","properties":{"source":"Digitaal Vlaanderen Gebouwenregister","source_id":"gebouw/Gebouw.13544709/0","kind":"building","height_m":7.16,"status":null},"geometry":{"type":"Polygon","coordinates":[[[4.10882157,50.97212095],[4.10867235,50.97217418],[4.10871835,50.9722249],[4.10866583,50.97224302],[4.1086184,50.97218799],[4.10866816,50.97216965],[4.10860997,50.97210505],[4.1087463,50.97205608],[4.10877544,50.97208841],[4.10878994,50.97208365],[4.10882157,50.97212095]]]}},{"type":"Feature","id":"gebouw/Gebouw.13544904/0","properties":{"source":"Digitaal Vlaanderen Gebouwenregister","source_id":"gebouw/Gebouw.13544904/0","kind":"building","height_m":6.44,"status":null},"geometry":{"type":"Polygon","coordinates":[[[4.10984244,50.97124829],[4.10990099,50.9712971],[4.10973288,50.97137719],[4.10972755,50.97137273],[4.10963027,50.97129131],[4.10962043,50.97128307],[4.109726,50.97123347],[4.10976465,50.97126486],[4.10978065,50.97127784],[4.10984244,50.97124829]]]}},{"type":"Feature","id":"gebouw/Gebouw.13545099/0","properties":{"source":"Digitaal Vlaanderen Gebouwenregister","source_id":"gebouw/Gebouw.13545099/0","kind":"building","height_m":5.72,"status":null},"geometry":{"type":"Polygon","coordinates":[[[4.11153131,50.97051466],[4.11151587,50.97052349],[4.11148044,50.97054377],[4.11144981,50.97052112],[4.11150157,50.97049275],[4.11153131,50.97051466]]]}},{"type":"Feature","id":"gebouw/Gebouw.13558313/0","properties":{"source":"Digitaal Vlaanderen Gebouwenregister","source_id":"gebouw/Gebouw.13558313/0","kind":"building","height_m":9.32,"status":null},"geometry":{"type":"Polygon","coordinates":[[[4.10644467,50.97266056],[4.10641433,50.97262831],[4.10639648,50.972635],[4.10624428,50.97247321],[4.10612954,50.97251623],[4.10619396,50.97258469],[4.10620071,50.97258216],[4.10629118,50.97267833],[4.10631684,50.97266871],[4.10634451,50.97269812],[4.10644467,50.97266056]]]}},{"type":"Feature","id":"gebouw/Gebouw.13567945/0","properties":{"source":"Digitaal Vlaanderen Gebouwenregister","source_id":"gebouw/Gebouw.13567945/0","kind":"building","height_m":9.32,"status":null},"geometry":{"type":"Polygon","coordinates":[[[4.11030367,50.97119683],[4.11033441,50.9710942],[4.11037525,50.97109891],[4.11038466,50.97106917],[4.11054266,50.97108768],[4.11052024,50.97115791],[4.11046232,50.9711514],[4.11044348,50.97121357],[4.11036171,50.97120378],[4.11030367,50.97119683]]]}},{"type":"Feature","id":"gebouw/Gebouw.13568596/0","properties":{"source":"Digitaal Vlaanderen Gebouwenregister","source_id":"gebouw/Gebouw.13568596/0","kind":"building","height_m":9.32,"status":null},"geometry":{"type":"Polygon","coordinates":[[[4.11170032,50.97061022],[4.11159791,50.97067631],[4.11157416,50.97069163],[4.11157152,50.97069007],[4.11142793,50.97060574],[4.11140864,50.97059441],[4.11134191,50.97055521],[4.1114017,50.97051462],[4.11146995,50.97055471],[4.11147544,50.97055098],[4.11157653,50.97061067],[4.1116369,50.97057104],[4.11169811,50.97060885],[4.11170032,50.97061022]]]}},{"type":"Feature","id":"gebouw/Gebouw.13586833/0","properties":{"source":"Digitaal Vlaanderen Gebouwenregister","source_id":"gebouw/Gebouw.13586833/0","kind":"building","height_m":5.72,"status":null},"geometry":{"type":"Polygon","coordinates":[[[4.11151709,50.9707232],[4.11147074,50.97075334],[4.11138408,50.97070021],[4.11141694,50.97067871],[4.11136437,50.97064694],[4.11142793,50.97060574],[4.11157152,50.97069007],[4.11157416,50.97069163],[4.11153037,50.97071997],[4.1115276,50.97071826],[4.1115158,50.97071099],[4.11150676,50.97071684],[4.11151709,50.9707232]]]}},{"type":"Feature","id":"gebouw/Gebouw.13598542/0","properties":{"source":"Digitaal Vlaanderen Gebouwenregister","source_id":"gebouw/Gebouw.13598542/0","kind":"building","height_m":9.32,"status":null},"geometry":{"type":"Polygon","coordinates":[[[4.11156752,50.97020311],[4.11165046,50.97026068],[4.11160395,50.97028793],[4.1115198,50.97023018],[4.11156752,50.97020311]]]}},{"type":"Feature","id":"gebouw/Gebouw.13615768/0","properties":{"source":"Digitaal Vlaanderen Gebouwenregister","source_id":"gebouw/Gebouw.13615768/0","kind":"building","height_m":8.6,"status":null},"geometry":{"type":"Polygon","coordinates":[[[4.10830478,50.97170613],[4.10824458,50.9716434],[4.10828402,50.97162748],[4.10836556,50.97171425],[4.1083135,50.97173268],[4.1082898,50.97171216],[4.10830478,50.97170613]]]}},{"type":"Feature","id":"gebouw/Gebouw.13796755/0","properties":{"source":"Digitaal Vlaanderen Gebouwenregister","source_id":"gebouw/Gebouw.13796755/0","kind":"building","height_m":5.0,"status":null},"geometry":{"type":"Polygon","coordinates":[[[4.11116972,50.97056249],[4.11121401,50.97053237],[4.11130298,50.97058453],[4.11125869,50.97061465],[4.11116972,50.97056249]]]}},{"type":"Feature","id":"gebouw/Gebouw.15654549/0","properties":{"source":"Digitaal Vlaanderen Gebouwenregister","source_id":"gebouw/Gebouw.15654549/0","kind":"building","height_m":5.72,"status":null},"geometry":{"type":"Polygon","coordinates":[[[4.10810206,50.97049869],[4.10804162,50.97053437],[4.10801333,50.97055181],[4.10800151,50.97054438],[4.10793753,50.97059179],[4.10784515,50.9705414],[4.10799328,50.97043313],[4.10808122,50.97048109],[4.10807613,50.97048482],[4.10810206,50.97049869]]]}},{"type":"Feature","id":"gebouw/Gebouw.15675226/0","properties":{"source":"Digitaal Vlaanderen Gebouwenregister","source_id":"gebouw/Gebouw.15675226/0","kind":"building","height_m":5.0,"status":null},"geometry":{"type":"Polygon","coordinates":[[[4.10656687,50.9703958],[4.10654406,50.97040741],[4.10652918,50.97041529],[4.10649731,50.97043216],[4.10641048,50.97047665],[4.10633346,50.97043622],[4.10627747,50.97040683],[4.10636666,50.97033229],[4.10642401,50.9703587],[4.10644953,50.97033686],[4.10640225,50.97031266],[4.10645821,50.97026907],[4.10650234,50.97029165],[4.10662198,50.97035287],[4.10656687,50.9703958]]]}},{"type":"Feature","id":"gebouw/Gebouw.15697438/0","properties":{"source":"Digitaal Vlaanderen Gebouwenregister","source_id":"gebouw/Gebouw.15697438/0","kind":"building","height_m":5.72,"status":null},"geometry":{"type":"Polygon","coordinates":[[[4.10760162,50.97042551],[4.10763251,50.97044357],[4.10757668,50.97048162],[4.1075458,50.97046356],[4.10760162,50.97042551]]]}},{"type":"Feature","id":"gebouw/Gebouw.15711311/0","properties":{"source":"Digitaal Vlaanderen Gebouwenregister","source_id":"gebouw/Gebouw.15711311/0","kind":"building","height_m":5.0,"status":null},"geometry":{"type":"Polygon","coordinates":[[[4.10597981,50.97042013],[4.10598091,50.97041923],[4.10612566,50.97048908],[4.10606435,50.97053974],[4.10603112,50.97052292],[4.10601364,50.97051407],[4.10600321,50.97052264],[4.10591006,50.97047746],[4.10597981,50.97042013]]]}},{"type":"Feature","id":"gebouw/Gebouw.15734151/0","properties":{"source":"Digitaal Vlaanderen Gebouwenregister","source_id":"gebouw/Gebouw.15734151/0","kind":"building","height_m":9.32,"status":null},"geometry":{"type":"Polygon","coordinates":[[[4.1069918,50.9699355],[4.10693948,50.96998411],[4.1068861,50.96996149],[4.10693797,50.96991269],[4.1069918,50.9699355]]]}},{"type":"Feature","id":"gebouw/Gebouw.15739003/0","properties":{"source":"Digitaal Vlaanderen Gebouwenregister","source_id":"gebouw/Gebouw.15739003/0","kind":"building","height_m":5.0,"status":null},"geometry":{"type":"Polygon","coordinates":[[[4.10416379,50.96922888],[4.10423692,50.96919632],[4.10425909,50.96921618],[4.10435606,50.96917301],[4.10449628,50.96929859],[4.10439548,50.96934347],[4.10428612,50.96924553],[4.10421777,50.96927595],[4.104142,50.96930969],[4.10413408,50.96930259],[4.10403333,50.96934745],[4.10401273,50.96932899],[4.10398545,50.96934113],[4.10395327,50.96931232],[4.10409085,50.96925107],[4.10408482,50.96924566],[4.10415009,50.96921661],[4.10416379,50.96922888]]]}},{"type":"Feature","id":"gebouw/Gebouw.15763031/0","properties":{"source":"Digitaal Vlaanderen Gebouwenregister","source_id":"gebouw/Gebouw.15763031/0","kind":"building","height_m":7.88,"status":null},"geometry":{"type":"Polygon","coordinates":[[[4.10312517,50.97252532],[4.10304869,50.97249499],[4.1030378,50.97250594],[4.10295689,50.97247385],[4.10297458,50.97245606],[4.10300749,50.97242298],[4.10297708,50.97241092],[4.10292169,50.97238895],[4.10294522,50.9723653],[4.10293576,50.97236155],[4.10296124,50.97233594],[4.10301965,50.97227723],[4.10297709,50.97226036],[4.1030192,50.97221803],[4.10325516,50.97231161],[4.10321725,50.97234972],[4.10310542,50.97230537],[4.10305195,50.97236132],[4.10304023,50.9723736],[4.10302223,50.97239243],[4.10316101,50.97244608],[4.10318976,50.97241803],[4.10328457,50.97232552],[4.10336213,50.9723572],[4.10326716,50.97244987],[4.10324612,50.97247041],[4.10320054,50.97245178],[4.10312517,50.97252532]]]}},{"type":"Feature","id":"gebouw/Gebouw.15793135/0","properties":{"source":"Digitaal Vlaanderen Gebouwenregister","source_id":"gebouw/Gebouw.15793135/0","kind":"building","height_m":5.72,"status":null},"geometry":{"type":"Polygon","coordinates":[[[4.10615251,50.97041286],[4.10605677,50.97036702],[4.10612343,50.97031142],[4.10626007,50.97037673],[4.10619538,50.97043069],[4.10615443,50.97041127],[4.10615251,50.97041286]]]}},{"type":"Feature","id":"gebouw/Gebouw.15805312/0","properties":{"source":"Digitaal Vlaanderen Gebouwenregister","source_id":"gebouw/Gebouw.15805312/0","kind":"building","height_m":8.6,"status":null},"geometry":{"type":"Polygon","coordinates":[[[4.10871737,50.96994443],[4.1086979,50.96996258],[4.10869116,50.96995981],[4.10868355,50.96996629],[4.1086996,50.96997381],[4.1086584,50.97000886],[4.10859275,50.96997809],[4.10866254,50.96991873],[4.10871737,50.96994443]]]}},{"type":"Feature","id":"gebouw/Gebouw.15818428/0","properties":{"source":"Digitaal Vlaanderen Gebouwenregister","source_id":"gebouw/Gebouw.15818428/0","kind":"building","height_m":7.16,"status":null},"geometry":{"type":"Polygon","coordinates":[[[4.10325971,50.9698672],[4.10326335,50.96987055],[4.10323844,50.96988136],[4.10323478,50.969878],[4.1032046,50.96985027],[4.10319389,50.96985491],[4.10314706,50.96981188],[4.1031827,50.96979642],[4.10325971,50.9698672]]]}},{"type":"Feature","id":"gebouw/Gebouw.15831719/0","properties":{"source":"Digitaal Vlaanderen Gebouwenregister","source_id":"gebouw/Gebouw.15831719/0","kind":"building","height_m":5.72,"status":null},"geometry":{"type":"Polygon","coordinates":[[[4.10376403,50.97169419],[4.1036965,50.97173577],[4.10360959,50.97167949],[4.10367712,50.97163792],[4.10376403,50.97169419]]]}},{"type":"Feature","id":"gebouw/Gebouw.15833875/0","properties":{"source":"Digitaal Vlaanderen Gebouwenregister","source_id":"gebouw/Gebouw.15833875/0","kind":"building","height_m":5.72,"status":null},"geometry":{"type":"Polygon","coordinates":[[[4.10775799,50.97065855],[4.1077962,50.97067713],[4.10776447,50.97070315],[4.10772626,50.97068457],[4.10775799,50.97065855]]]}},{"type":"Feature","id":"gebouw/Gebouw.15872963/0","properties":{"source":"Digitaal Vlaanderen Gebouwenregister","source_id":"gebouw/Gebouw.15872963/0","kind":"building","height_m":5.72,"status":null},"geometry":{"type":"Polygon","coordinates":[[[4.10740343,50.97016714],[4.10748289,50.97010727],[4.10764554,50.97019509],[4.10763648,50.97020183],[4.10768262,50.97022692],[4.10761296,50.97027801],[4.10740343,50.97016714]]]}},{"type":"Feature","id":"gebouw/Gebouw.15878962/0","properties":{"source":"Digitaal Vlaanderen Gebouwenregister","source_id":"gebouw/Gebouw.15878962/0","kind":"building","height_m":5.72,"status":null},"geometry":{"type":"Polygon","coordinates":[[[4.10210946,50.97120804],[4.10218123,50.97125308],[4.10224042,50.9712147],[4.10216758,50.9711727],[4.10210946,50.97120804]]]}},{"type":"Feature","id":"gebouw/Gebouw.15890074/0","properties":{"source":"Digitaal Vlaanderen Gebouwenregister","source_id":"gebouw/Gebouw.15890074/0","kind":"building","height_m":7.88,"status":null},"geometry":{"type":"Polygon","coordinates":[[[4.10852465,50.97088158],[4.10845728,50.97091336],[4.1083992,50.97086428],[4.1084663,50.97083262],[4.10848359,50.97084712],[4.10852465,50.97088158]]]}},{"type":"Feature","id":"gebouw/Gebouw.15914011/0","properties":{"source":"Digitaal Vlaanderen Gebouwenregister","source_id":"gebouw/Gebouw.15914011/0","kind":"building","height_m":5.72,"status":null},"geometry":{"type":"Polygon","coordinates":[[[4.10682645,50.9702293],[4.10674666,50.97029427],[4.10674259,50.97029228],[4.10669575,50.97026934],[4.10673275,50.97023921],[4.10674,50.97023331],[4.1066934,50.9702105],[4.10659741,50.97029266],[4.10646327,50.97023019],[4.10651592,50.97018513],[4.10655759,50.97020454],[4.10660246,50.97016613],[4.10661114,50.97017018],[4.10664287,50.97014302],[4.10672637,50.97018227],[4.10682645,50.9702293]]]}},{"type":"Feature","id":"gebouw/Gebouw.15922775/0","properties":{"source":"Digitaal Vlaanderen Gebouwenregister","source_id":"gebouw/Gebouw.15922775/0","kind":"building","height_m":5.72,"status":null},"geometry":{"type":"Polygon","coordinates":[[[4.10700746,50.9704756],[4.1069655,50.97050424],[4.10694346,50.97049136],[4.10682217,50.97042051],[4.10680612,50.97041114],[4.10680517,50.97041059],[4.10691568,50.97033516],[4.10707601,50.97042881],[4.10700746,50.9704756]]]}},{"type":"Feature","id":"gebouw/Gebouw.15971477/0","properties":{"source":"Digitaal Vlaanderen Gebouwenregister","source_id":"gebouw/Gebouw.15971477/0","kind":"building","height_m":7.88,"status":null},"geometry":{"type":"Polygon","coordinates":[[[4.10834938,50.97065752],[4.10838829,50.97068277],[4.10823327,50.97077797],[4.10810196,50.97069273],[4.10817272,50.97064927],[4.10825002,50.97069945],[4.10828471,50.97067814],[4.10830801,50.97066384],[4.10825309,50.97062819],[4.10817874,50.97057992],[4.10827302,50.97052203],[4.10841739,50.97061575],[4.10834938,50.97065752]]]}},{"type":"Feature","id":"gebouw/Gebouw.15981945/0","properties":{"source":"Digitaal Vlaanderen Gebouwenregister","source_id":"gebouw/Gebouw.15981945/0","kind":"building","height_m":5.0,"status":null},"geometry":{"type":"Polygon","coordinates":[[[4.11030304,50.97083276],[4.1103414,50.97084672],[4.11029575,50.97089674],[4.11025738,50.97088279],[4.11030304,50.97083276]]]}},{"type":"Feature","id":"gebouw/Gebouw.16000714/0","properties":{"source":"Digitaal Vlaanderen Gebouwenregister","source_id":"gebouw/Gebouw.16000714/0","kind":"building","height_m":6.44,"status":null},"geometry":{"type":"Polygon","coordinates":[[[4.10803172,50.9698493],[4.10811146,50.96989099],[4.10794674,50.97001659],[4.10786202,50.96997229],[4.10788853,50.96995208],[4.10789351,50.96995468],[4.10803172,50.9698493]]]}},{"type":"Feature","id":"gebouw/Gebouw.16000973/0","properties":{"source":"Digitaal Vlaanderen Gebouwenregister","source_id":"gebouw/Gebouw.16000973/0","kind":"building","height_m":6.44,"status":null},"geometry":{"type":"Polygon","coordinates":[[[4.10284524,50.97257514],[4.10280483,50.97255539],[4.10288628,50.97248896],[4.10298345,50.97253645],[4.10290094,50.97260375],[4.10304302,50.97267319],[4.1029739,50.97272956],[4.10277507,50.97263237],[4.10284524,50.97257514]]]}},{"type":"Feature","id":"gebouw/Gebouw.16008388/0","properties":{"source":"Digitaal Vlaanderen Gebouwenregister","source_id":"gebouw/Gebouw.16008388/0","kind":"building","height_m":7.88,"status":null},"geometry":{"type":"Polygon","coordinates":[[[4.1084095,50.97074433],[4.10839524,50.97075327],[4.10838228,50.9707614],[4.10841238,50.97078738],[4.10810176,50.97092543],[4.10806483,50.97089438],[4.10823514,50.97081875],[4.10822015,50.97080551],[4.1082993,50.97075651],[4.10839589,50.9706967],[4.10848572,50.97064108],[4.10857022,50.97069606],[4.10856877,50.97069664],[4.10856904,50.97069681],[4.10863953,50.97074242],[4.10859785,50.97076783],[4.10860573,50.97077284],[4.10854878,50.97080855],[4.10846795,50.97075716],[4.1084825,50.97075178],[4.10844036,50.97072498],[4.1084095,50.97074433]]]}},{"type":"Feature","id":"gebouw/Gebouw.16061346/0","properties":{"source":"Digitaal Vlaanderen Gebouwenregister","source_id":"gebouw/Gebouw.16061346/0","kind":"building","height_m":5.0,"status":null},"geometry":{"type":"Polygon","coordinates":[[[4.10631894,50.97026816],[4.10604336,50.97013724],[4.10610103,50.97008885],[4.10625596,50.97016245],[4.10631487,50.9701148],[4.10643659,50.97017535],[4.10631894,50.97026816]]]}},{"type":"Feature","id":"gebouw/Gebouw.16072373/0","properties":{"source":"Digitaal Vlaanderen Gebouwenregister","source_id":"gebouw/Gebouw.16072373/0","kind":"building","height_m":6.44,"status":null},"geometry":{"type":"Polygon","coordinates":[[[4.10806061,50.97053875],[4.10812555,50.97058247],[4.10806188,50.97062017],[4.10805543,50.97061583],[4.10799694,50.97057644],[4.10806061,50.97053875]]]}},{"type":"Feature","id":"gebouw/Gebouw.16093441/0","properties":{"source":"Digitaal Vlaanderen Gebouwenregister","source_id":"gebouw/Gebouw.16093441/0","kind":"building","height_m":5.0,"status":null},"geometry":{"type":"Polygon","coordinates":[[[4.10950514,50.9710045],[4.10947132,50.97099196],[4.10951063,50.97094971],[4.1095443,50.97096241],[4.10950514,50.9710045]]]}},{"type":"Feature","id":"gebouw/Gebouw.16096270/0","properties":{"source":"Digitaal Vlaanderen Gebouwenregister","source_id":"gebouw/Gebouw.16096270/0","kind":"building","height_m":5.72,"status":null},"geometry":{"type":"Polygon","coordinates":[[[4.10700783,50.96979454],[4.10697911,50.96982334],[4.10692523,50.96980191],[4.10695395,50.96977312],[4.10700783,50.96979454]]]}},{"type":"Feature","id":"gebouw/Gebouw.16096652/0","properties":{"source":"Digitaal Vlaanderen Gebouwenregister","source_id":"gebouw/Gebouw.16096652/0","kind":"building","height_m":8.6,"status":null},"geometry":{"type":"Polygon","coordinates":[[[4.10646116,50.96940997],[4.10632205,50.96934345],[4.10642793,50.96925518],[4.10656703,50.96932171],[4.10646116,50.96940997]]]}},{"type":"Feature","id":"gebouw/Gebouw.16150236/0","properties":{"source":"Digitaal Vlaanderen Gebouwenregister","source_id":"gebouw/Gebouw.16150236/0","kind":"building","height_m":7.88,"status":null},"geometry":{"type":"Polygon","coordinates":[[[4.10383992,50.97183218],[4.10390671,50.97178232],[4.1039604,50.97181099],[4.10402698,50.97176129],[4.10402799,50.97176193],[4.1040314,50.97175951],[4.10404334,50.97176587],[4.10408523,50.97173479],[4.1040496,50.97171565],[4.10405935,50.97170841],[4.1040189,50.97168667],[4.10401203,50.97169177],[4.10398445,50.97167695],[4.10394483,50.9717054],[4.10393274,50.97169922],[4.10391394,50.97171561],[4.10387811,50.97169659],[4.10384337,50.97167793],[4.10379257,50.97171561],[4.1037314,50.971761],[4.10374159,50.97176647],[4.10373138,50.97177289],[4.1036875,50.97180046],[4.1036523,50.97182257],[4.10370055,50.97185319],[4.10373993,50.97182845],[4.10380113,50.97186113],[4.1038389,50.97183294],[4.10383992,50.97183218]]]}},{"type":"Feature","id":"gebouw/Gebouw.16157560/0","properties":{"source":"Digitaal Vlaanderen Gebouwenregister","source_id":"gebouw/Gebouw.16157560/0","kind":"building","height_m":9.32,"status":null},"geometry":{"type":"Polygon","coordinates":[[[4.10544924,50.97281486],[4.10528643,50.97274275],[4.10523512,50.97278893],[4.10522474,50.97278433],[4.10513429,50.97286575],[4.10500579,50.97280884],[4.1050596,50.9727604],[4.1050197,50.97274273],[4.10520138,50.9725783],[4.10562504,50.97276489],[4.10559067,50.97279588],[4.1056011,50.9728005],[4.10556371,50.97283415],[4.10555098,50.97282851],[4.1055276,50.97284956],[4.10544924,50.97281486]]]}},{"type":"Feature","id":"gebouw/Gebouw.16160400/0","properties":{"source":"Digitaal Vlaanderen Gebouwenregister","source_id":"gebouw/Gebouw.16160400/0","kind":"building","height_m":7.88,"status":null},"geometry":{"type":"Polygon","coordinates":[[[4.10292968,50.96937332],[4.10290828,50.96938282],[4.10288452,50.96936149],[4.1027588,50.96924862],[4.10283034,50.96921685],[4.10298995,50.96936015],[4.10293981,50.96938241],[4.10292968,50.96937332]]]}},{"type":"Feature","id":"gebouw/Gebouw.16169965/0","properties":{"source":"Digitaal Vlaanderen Gebouwenregister","source_id":"gebouw/Gebouw.16169965/0","kind":"building","height_m":5.0,"status":null},"geometry":{"type":"Polygon","coordinates":[[[4.10389629,50.97113532],[4.10385606,50.97116334],[4.10380482,50.97113415],[4.10384582,50.9711054],[4.10389629,50.97113532]]]}},{"type":"Feature","id":"gebouw/Gebouw.16172960/0","properties":{"source":"Digitaal Vlaanderen Gebouwenregister","source_id":"gebouw/Gebouw.16172960/0","kind":"building","height_m":9.32,"status":null},"geometry":{"type":"Polygon","coordinates":[[[4.10412525,50.97098127],[4.10407929,50.97101147],[4.10417808,50.97106985],[4.10422232,50.97103994],[4.10412525,50.97098127]]]}},{"type":"Feature","id":"gebouw/Gebouw.16185228/0","properties":{"source":"Digitaal Vlaanderen Gebouwenregister","source_id":"gebouw/Gebouw.16185228/0","kind":"building","height_m":7.16,"status":null},"geometry":{"type":"Polygon","coordinates":[[[4.1042133,50.97146529],[4.10428012,50.97141455],[4.10431829,50.97138555],[4.10432189,50.97138282],[4.1043014,50.97137],[4.10430624,50.97136673],[4.10405963,50.97123218],[4.10402141,50.97125847],[4.1041416,50.97132364],[4.10411881,50.97133871],[4.10419288,50.9713849],[4.10410874,50.97143868],[4.10404403,50.97139963],[4.10397763,50.97144212],[4.10409081,50.97151263],[4.10408541,50.97151609],[4.10411892,50.97153697],[4.10418415,50.97148743],[4.1042133,50.97146529]]]}},{"type":"Feature","id":"gebouw/Gebouw.16219853/0","properties":{"source":"Digitaal Vlaanderen Gebouwenregister","source_id":"gebouw/Gebouw.16219853/0","kind":"building","height_m":9.32,"status":null},"geometry":{"type":"Polygon","coordinates":[[[4.10808461,50.97096421],[4.10828154,50.97117681],[4.10818647,50.97121192],[4.10798954,50.97099932],[4.10808461,50.97096421]]]}},{"type":"Feature","id":"gebouw/Gebouw.16237101/0","properties":{"source":"Digitaal Vlaanderen Gebouwenregister","source_id":"gebouw/Gebouw.16237101/0","kind":"building","height_m":9.32,"status":null},"geometry":{"type":"Polygon","coordinates":[[[4.1069926,50.96957649],[4.10694725,50.96961286],[4.1067718,50.96975351],[4.10663995,50.96968794],[4.1068154,50.96954728],[4.10686075,50.96951092],[4.1069926,50.96957649]]]}},{"type":"Feature","id":"gebouw/Gebouw.16258080/0","properties":{"source":"Digitaal Vlaanderen Gebouwenregister","source_id":"gebouw/Gebouw.16258080/0","kind":"building","height_m":9.32,"status":null},"geometry":{"type":"Polygon","coordinates":[[[4.10456651,50.97143298],[4.10456923,50.97143484],[4.10450066,50.97147507],[4.10434039,50.97136616],[4.10441328,50.97132371],[4.10450116,50.97138386],[4.104615,50.97131755],[4.10468383,50.97136466],[4.10460588,50.97141006],[4.10458504,50.97139578],[4.10454567,50.97141871],[4.10456651,50.97143298]]]}},{"type":"Feature","id":"gebouw/Gebouw.16265952/0","properties":{"source":"Digitaal Vlaanderen Gebouwenregister","source_id":"gebouw/Gebouw.16265952/0","kind":"building","height_m":7.16,"status":null},"geometry":{"type":"Polygon","coordinates":[[[4.10681448,50.970125],[4.10682188,50.97012855],[4.10683875,50.97013666],[4.10688349,50.97015815],[4.10688779,50.97017937],[4.10684956,50.97021049],[4.10682645,50.9702293],[4.10672637,50.97018227],[4.10664287,50.97014302],[4.10665712,50.97013082],[4.1066413,50.97012345],[4.10666969,50.97009915],[4.10669005,50.97010863],[4.10672317,50.97008114],[4.10681448,50.970125]]]}},{"type":"Feature","id":"gebouw/Gebouw.16279836/0","properties":{"source":"Digitaal Vlaanderen Gebouwenregister","source_id":"gebouw/Gebouw.16279836/0","kind":"building","height_m":9.32,"status":null},"geometry":{"type":"Polygon","coordinates":[[[4.1074765,50.97087698],[4.10740453,50.97093081],[4.10736529,50.9709099],[4.10739938,50.9708844],[4.10738206,50.97087517],[4.10745573,50.97082192],[4.10751713,50.97085578],[4.10748305,50.97088086],[4.1074765,50.97087698]]]}},{"type":"Feature","id":"gebouw/Gebouw.16308410/0","properties":{"source":"Digitaal Vlaanderen Gebouwenregister","source_id":"gebouw/Gebouw.16308410/0","kind":"building","height_m":9.32,"status":null},"geometry":{"type":"Polygon","coordinates":[[[4.10844632,50.9696973],[4.10837949,50.96974714],[4.10832469,50.96971785],[4.10839152,50.96966801],[4.10844632,50.9696973]]]}},{"type":"Feature","id":"gebouw/Gebouw.16313514/0","properties":{"source":"Digitaal Vlaanderen Gebouwenregister","source_id":"gebouw/Gebouw.16313514/0","kind":"building","height_m":5.0,"status":null},"geometry":{"type":"Polygon","coordinates":[[[4.10995403,50.97105099],[4.10998822,50.97106361],[4.10995801,50.97109625],[4.10997886,50.97110394],[4.10991424,50.97117374],[4.10984267,50.97114733],[4.10993767,50.97104495],[4.10995403,50.97105099]]]}},{"type":"Feature","id":"gebouw/Gebouw.16331286/0","properties":{"source":"Digitaal Vlaanderen Gebouwenregister","source_id":"gebouw/Gebouw.16331286/0","kind":"building","height_m":9.32,"status":null},"geometry":{"type":"Polygon","coordinates":[[[4.10984267,50.97114733],[4.10970556,50.97109674],[4.10969096,50.97111132],[4.10968796,50.97110985],[4.10968895,50.97110899],[4.10965798,50.97109462],[4.10958447,50.97106053],[4.10958687,50.97105799],[4.10964637,50.97099505],[4.10968818,50.9710105],[4.10976628,50.97092861],[4.10974277,50.97091932],[4.10980088,50.97086905],[4.1098333,50.97088186],[4.10997856,50.9707562],[4.11006044,50.97079419],[4.11007344,50.97080022],[4.11006724,50.97080556],[4.10995844,50.97089921],[4.11000523,50.97091648],[4.1099954,50.9709271],[4.11003002,50.97094019],[4.10997212,50.97100774],[4.10995173,50.97102976],[4.10993767,50.97104495],[4.10984267,50.97114733]],[[4.10976683,50.97104348],[4.10983401,50.97106766],[4.10988943,50.97100643],[4.10990902,50.97098479],[4.10984725,50.97096291],[4.10976683,50.97104348]]]}},{"type":"Feature","id":"gebouw/Gebouw.16349676/0","properties":{"source":"Digitaal Vlaanderen Gebouwenregister","source_id":"gebouw/Gebouw.16349676/0","kind":"building","height_m":5.0,"status":null},"geometry":{"type":"Polygon","coordinates":[[[4.10461047,50.97125916],[4.10455502,50.97129628],[4.10440758,50.97120848],[4.10446603,50.97116927],[4.10461047,50.97125916]]]}},{"type":"Feature","id":"gebouw/Gebouw.16362965/0","properties":{"source":"Digitaal Vlaanderen Gebouwenregister","source_id":"gebouw/Gebouw.16362965/0","kind":"building","height_m":7.16,"status":null},"geometry":{"type":"Polygon","coordinates":[[[4.10739025,50.9703453],[4.10718922,50.97022921],[4.10727641,50.97016902],[4.10744647,50.97026722],[4.1074036,50.970298],[4.10743268,50.97031588],[4.1074364,50.97031333],[4.10744759,50.97032018],[4.10743065,50.97033149],[4.10753123,50.97038921],[4.10747359,50.9704285],[4.10737268,50.97036908],[4.1073969,50.97035231],[4.10738763,50.97034706],[4.10739025,50.9703453]]]}},{"type":"Feature","id":"gebouw/Gebouw.16365873/0","properties":{"source":"Digitaal Vlaanderen Gebouwenregister","source_id":"gebouw/Gebouw.16365873/0","kind":"building","height_m":9.32,"status":null},"geometry":{"type":"Polygon","coordinates":[[[4.10778054,50.97055085],[4.10782898,50.97057731],[4.10775023,50.9706348],[4.10770178,50.97060835],[4.10778054,50.97055085]]]}},{"type":"Feature","id":"gebouw/Gebouw.16397766/0","properties":{"source":"Digitaal Vlaanderen Gebouwenregister","source_id":"gebouw/Gebouw.16397766/0","kind":"building","height_m":5.0,"status":null},"geometry":{"type":"Polygon","coordinates":[[[4.10946429,50.9712692],[4.10944796,50.97127702],[4.10941496,50.9712495],[4.10940795,50.97125286],[4.10935274,50.97120682],[4.10931,50.97117119],[4.10941486,50.97112105],[4.10950947,50.97119994],[4.10950326,50.97120299],[4.10953952,50.97123318],[4.10953527,50.97123521],[4.10946429,50.9712692]]]}},{"type":"Feature","id":"gebouw/Gebouw.16440848/0","properties":{"source":"Digitaal Vlaanderen Gebouwenregister","source_id":"gebouw/Gebouw.16440848/0","kind":"building","height_m":7.88,"status":null},"geometry":{"type":"Polygon","coordinates":[[[4.11006626,50.9709539],[4.11009377,50.9709643],[4.11003282,50.97103014],[4.10999449,50.97101599],[4.10997212,50.97100774],[4.11003002,50.97094019],[4.11006626,50.9709539]]]}},{"type":"Feature","id":"gebouw/Gebouw.16830293/0","properties":{"source":"Digitaal Vlaanderen Gebouwenregister","source_id":"gebouw/Gebouw.16830293/0","kind":"building","height_m":7.88,"status":null},"geometry":{"type":"Polygon","coordinates":[[[4.10871067,50.97012514],[4.10861472,50.97007837],[4.1088007,50.96992625],[4.10889665,50.96997302],[4.10871067,50.97012514]]]}},{"type":"Feature","id":"gebouw/Gebouw.16910030/0","properties":{"source":"Digitaal Vlaanderen Gebouwenregister","source_id":"gebouw/Gebouw.16910030/0","kind":"building","height_m":7.88,"status":null},"geometry":{"type":"Polygon","coordinates":[[[4.10586155,50.9703219],[4.10600452,50.97039138],[4.10597314,50.97041712],[4.10594922,50.9704055],[4.10583017,50.97034764],[4.10586155,50.9703219]]]}},{"type":"Feature","id":"gebouw/Gebouw.18730376/0","properties":{"source":"Digitaal Vlaanderen Gebouwenregister","source_id":"gebouw/Gebouw.18730376/0","kind":"building","height_m":5.0,"status":null},"geometry":{"type":"Polygon","coordinates":[[[4.11049256,50.97075185],[4.11060195,50.97082084],[4.11055988,50.97084482],[4.11045892,50.9707792],[4.11040586,50.97074471],[4.11044407,50.97072127],[4.11049256,50.97075185]]]}},{"type":"Feature","id":"gebouw/Gebouw.18730377/0","properties":{"source":"Digitaal Vlaanderen Gebouwenregister","source_id":"gebouw/Gebouw.18730377/0","kind":"building","height_m":5.72,"status":null},"geometry":{"type":"Polygon","coordinates":[[[4.1077492,50.97034667],[4.10771681,50.9703733],[4.10771386,50.97037573],[4.10765941,50.97034727],[4.10766308,50.97034434],[4.10766623,50.97034183],[4.10769431,50.97031943],[4.1077492,50.97034667]]]}},{"type":"Feature","id":"gebouw/Gebouw.18730378/0","properties":{"source":"Digitaal Vlaanderen Gebouwenregister","source_id":"gebouw/Gebouw.18730378/0","kind":"building","height_m":6.44,"status":null},"geometry":{"type":"Polygon","coordinates":[[[4.10802019,50.97092125],[4.10802975,50.97093127],[4.10805992,50.97096293],[4.10793494,50.9710125],[4.10784518,50.97091903],[4.10794167,50.97088436],[4.10797398,50.97087276],[4.10802019,50.97092125]]]}},{"type":"Feature","id":"gebouw/Gebouw.18730379/0","properties":{"source":"Digitaal Vlaanderen Gebouwenregister","source_id":"gebouw/Gebouw.18730379/0","kind":"building","height_m":7.16,"status":null},"geometry":{"type":"Polygon","coordinates":[[[4.10690432,50.97056834],[4.10687487,50.97055051],[4.10682314,50.97058679],[4.10685345,50.97060402],[4.10690432,50.97056834]]]}},{"type":"Feature","id":"gebouw/Gebouw.18730718/0","properties":{"source":"Digitaal Vlaanderen Gebouwenregister","source_id":"gebouw/Gebouw.18730718/0","kind":"building","height_m":9.32,"status":null},"geometry":{"type":"Polygon","coordinates":[[[4.10297528,50.96964741],[4.10289517,50.96966377],[4.10285934,50.96958804],[4.1029389,50.96957264],[4.10297528,50.96964741]]]}},{"type":"Feature","id":"gebouw/Gebouw.18958725/0","properties":{"source":"Digitaal Vlaanderen Gebouwenregister","source_id":"gebouw/Gebouw.18958725/0","kind":"building","height_m":6.44,"status":null},"geometry":{"type":"Polygon","coordinates":[[[4.10513809,50.97227732],[4.10535574,50.97213695],[4.10537498,50.97214885],[4.10550756,50.97206334],[4.10601212,50.97237519],[4.10566189,50.97260107],[4.10513809,50.97227732]]]}},{"type":"Feature","id":"gebouw/Gebouw.18964639/0","properties":{"source":"Digitaal Vlaanderen Gebouwenregister","source_id":"gebouw/Gebouw.18964639/0","kind":"building","height_m":5.72,"status":null},"geometry":{"type":"Polygon","coordinates":[[[4.10501915,50.97208282],[4.10496143,50.97204746],[4.10507683,50.97197236],[4.10522033,50.97206026],[4.10513574,50.97211581],[4.10504833,50.97206275],[4.10501915,50.97208282]]]}},{"type":"Feature","id":"gebouw/Gebouw.19323988/0","properties":{"source":"Digitaal Vlaanderen Gebouwenregister","source_id":"gebouw/Gebouw.19323988/0","kind":"building","height_m":8.6,"status":null},"geometry":{"type":"Polygon","coordinates":[[[4.11184543,50.97046644],[4.11182701,50.97047292],[4.11181565,50.97047691],[4.111786,50.9704433],[4.1117584,50.970412],[4.11178818,50.97040153],[4.11184543,50.97046644]]]}},{"type":"Feature","id":"gebouw/Gebouw.19324166/0","properties":{"source":"Digitaal Vlaanderen Gebouwenregister","source_id":"gebouw/Gebouw.19324166/0","kind":"building","height_m":5.72,"status":null},"geometry":{"type":"Polygon","coordinates":[[[4.11156385,50.97054312],[4.11154088,50.9705254],[4.11158981,50.97050012],[4.11161277,50.97051782],[4.11156385,50.97054312]]]}},{"type":"Feature","id":"gebouw/Gebouw.19836049/0","properties":{"source":"Digitaal Vlaanderen Gebouwenregister","source_id":"gebouw/Gebouw.19836049/0","kind":"building","height_m":6.44,"status":null},"geometry":{"type":"Polygon","coordinates":[[[4.10652918,50.97041529],[4.10641048,50.97047665],[4.10633346,50.97043622],[4.10642401,50.9703587],[4.10644953,50.97033686],[4.10650235,50.97029165],[4.10662198,50.97035287],[4.10656687,50.9703958],[4.10654406,50.97040741],[4.10652918,50.97041529]]]}},{"type":"Feature","id":"gebouw/Gebouw.19836050/0","properties":{"source":"Digitaal Vlaanderen Gebouwenregister","source_id":"gebouw/Gebouw.19836050/0","kind":"building","height_m":7.16,"status":null},"geometry":{"type":"Polygon","coordinates":[[[4.10642401,50.9703587],[4.10633346,50.97043622],[4.10627747,50.97040683],[4.10636666,50.97033229],[4.10642401,50.9703587]]]}},{"type":"Feature","id":"gebouw/Gebouw.19836051/0","properties":{"source":"Digitaal Vlaanderen Gebouwenregister","source_id":"gebouw/Gebouw.19836051/0","kind":"building","height_m":7.88,"status":null},"geometry":{"type":"Polygon","coordinates":[[[4.10650235,50.97029165],[4.10644953,50.97033686],[4.10640225,50.97031266],[4.10645821,50.97026907],[4.10650235,50.97029165]]]}},{"type":"Feature","id":"gebouw/Gebouw.19847697/0","properties":{"source":"Digitaal Vlaanderen Gebouwenregister","source_id":"gebouw/Gebouw.19847697/0","kind":"building","height_m":6.44,"status":null},"geometry":{"type":"Polygon","coordinates":[[[4.10580607,50.97044174],[4.10588313,50.97037685],[4.1058248,50.97034973],[4.10583197,50.97034359],[4.10577873,50.97031877],[4.10580377,50.97029736],[4.1060138,50.97039526],[4.10598451,50.97042097],[4.10612566,50.97048908],[4.10606435,50.97053974],[4.10603112,50.97052292],[4.10601364,50.97051407],[4.10600321,50.97052264],[4.10598032,50.97051154],[4.10596852,50.97051973],[4.10589917,50.97048584],[4.10590102,50.97048438],[4.10580607,50.97044174]]]}},{"type":"Feature","id":"gebouw/Gebouw.19855122/0","properties":{"source":"Digitaal Vlaanderen Gebouwenregister","source_id":"gebouw/Gebouw.19855122/0","kind":"building","height_m":5.0,"status":null},"geometry":{"type":"Polygon","coordinates":[[[4.10688779,50.97017937],[4.10688349,50.97015815],[4.10683854,50.97013682],[4.10682439,50.97013011],[4.10682161,50.97012879],[4.10678586,50.97015853],[4.10676252,50.97014751],[4.10672417,50.97018123],[4.10682645,50.9702293],[4.10684956,50.97021049],[4.10688779,50.97017937]]]}},{"type":"Feature","id":"gebouw/Gebouw.19855123/0","properties":{"source":"Digitaal Vlaanderen Gebouwenregister","source_id":"gebouw/Gebouw.19855123/0","kind":"building","height_m":5.72,"status":null},"geometry":{"type":"Polygon","coordinates":[[[4.10672417,50.97018123],[4.10676252,50.97014751],[4.10678586,50.97015853],[4.10682161,50.97012879],[4.10682188,50.97012856],[4.10682301,50.97012762],[4.1067228,50.97007936],[4.10672159,50.97008036],[4.10668837,50.97010786],[4.10666969,50.97009915],[4.1066413,50.97012345],[4.10665854,50.9701316],[4.10664287,50.97014302],[4.10672417,50.97018123]]]}},{"type":"Feature","id":"gebouw/Gebouw.19855124/0","properties":{"source":"Digitaal Vlaanderen Gebouwenregister","source_id":"gebouw/Gebouw.19855124/0","kind":"building","height_m":6.44,"status":null},"geometry":{"type":"Polygon","coordinates":[[[4.10669178,50.9702097],[4.10672417,50.97018123],[4.10664287,50.97014302],[4.10656799,50.97020909],[4.10651559,50.97018541],[4.10646327,50.97023019],[4.10659741,50.97029266],[4.10664731,50.97024879],[4.10669178,50.9702097]]]}},{"type":"Feature","id":"gebouw/Gebouw.19855125/0","properties":{"source":"Digitaal Vlaanderen Gebouwenregister","source_id":"gebouw/Gebouw.19855125/0","kind":"building","height_m":7.16,"status":null},"geometry":{"type":"Polygon","coordinates":[[[4.10682645,50.9702293],[4.10674666,50.97029427],[4.10674259,50.97029228],[4.10669575,50.97026934],[4.10673275,50.97023921],[4.10674,50.97023331],[4.10669178,50.9702097],[4.10672417,50.97018123],[4.10682645,50.9702293]]]}},{"type":"Feature","id":"gebouw/Gebouw.19858783/0","properties":{"source":"Digitaal Vlaanderen Gebouwenregister","source_id":"gebouw/Gebouw.19858783/0","kind":"building","height_m":5.0,"status":null},"geometry":{"type":"Polygon","coordinates":[[[4.10844036,50.97072498],[4.1084095,50.97074433],[4.10839524,50.97075327],[4.10838228,50.9707614],[4.10841238,50.97078738],[4.10810176,50.97092543],[4.10807576,50.97090328],[4.10806511,50.97089422],[4.10823514,50.97081875],[4.10822015,50.97080551],[4.1082993,50.97075651],[4.10839589,50.9706967],[4.10844036,50.97072498]]]}},{"type":"Feature","id":"gebouw/Gebouw.19858890/0","properties":{"source":"Digitaal Vlaanderen Gebouwenregister","source_id":"gebouw/Gebouw.19858890/0","kind":"building","height_m":6.44,"status":null},"geometry":{"type":"Polygon","coordinates":[[[4.10857022,50.97069606],[4.10856877,50.97069664],[4.10856904,50.97069681],[4.10863953,50.97074242],[4.10859785,50.97076783],[4.10860573,50.97077284],[4.10854878,50.97080855],[4.10846795,50.97075716],[4.1084825,50.97075178],[4.10844036,50.97072498],[4.10839589,50.9706967],[4.10848572,50.97064108],[4.10857022,50.97069606]]]}},{"type":"Feature","id":"gebouw/Gebouw.20145286/0","properties":{"source":"Digitaal Vlaanderen Gebouwenregister","source_id":"gebouw/Gebouw.20145286/0","kind":"building","height_m":5.0,"status":null},"geometry":{"type":"Polygon","coordinates":[[[4.10927021,50.97131296],[4.10925752,50.97131908],[4.10920274,50.97134549],[4.10916711,50.97131603],[4.10921983,50.97129061],[4.10923458,50.9712835],[4.10927021,50.97131296]]]}},{"type":"Feature","id":"gebouw/Gebouw.20145287/0","properties":{"source":"Digitaal Vlaanderen Gebouwenregister","source_id":"gebouw/Gebouw.20145287/0","kind":"building","height_m":5.72,"status":null},"geometry":{"type":"Polygon","coordinates":[[[4.10978416,50.97069946],[4.10981936,50.97072525],[4.10976518,50.97075473],[4.10972998,50.97072895],[4.10978416,50.97069946]]]}},{"type":"Feature","id":"gebouw/Gebouw.20497874/0","properties":{"source":"Digitaal Vlaanderen Gebouwenregister","source_id":"gebouw/Gebouw.20497874/0","kind":"building","height_m":8.6,"status":null},"geometry":{"type":"Polygon","coordinates":[[[4.10335977,50.97235513],[4.10326512,50.97244903],[4.10324158,50.97247238],[4.10316927,50.97244346],[4.10319332,50.97241949],[4.10324341,50.97236956],[4.10328715,50.97232596],[4.10335977,50.97235513]]]}},{"type":"Feature","id":"gebouw/Gebouw.20497875/0","properties":{"source":"Digitaal Vlaanderen Gebouwenregister","source_id":"gebouw/Gebouw.20497875/0","kind":"building","height_m":9.32,"status":null},"geometry":{"type":"Polygon","coordinates":[[[4.10292169,50.97238895],[4.10294522,50.9723653],[4.10293576,50.97236155],[4.10301346,50.97228292],[4.10297693,50.97226853],[4.10302413,50.97222077],[4.10328715,50.97232596],[4.10324341,50.97236956],[4.1031183,50.97232028],[4.10303852,50.97240102],[4.10318931,50.97246042],[4.10312517,50.97252532],[4.10304869,50.97249499],[4.1030378,50.97250594],[4.10295689,50.97247385],[4.10297458,50.97245606],[4.10300749,50.97242298],[4.10297708,50.97241092],[4.10292169,50.97238895]]]}},{"type":"Feature","id":"gebouw/Gebouw.30642363/0","properties":{"source":"Digitaal Vlaanderen Gebouwenregister","source_id":"gebouw/Gebouw.30642363/0","kind":"building","height_m":7.16,"status":null},"geometry":{"type":"Polygon","coordinates":[[[4.11024012,50.970898],[4.11026369,50.97087467],[4.11036114,50.97091391],[4.11033757,50.97093724],[4.11024012,50.970898]]]}},{"type":"Feature","id":"gebouw/Gebouw.30642364/0","properties":{"source":"Digitaal Vlaanderen Gebouwenregister","source_id":"gebouw/Gebouw.30642364/0","kind":"building","height_m":7.88,"status":null},"geometry":{"type":"Polygon","coordinates":[[[4.11008537,50.97081205],[4.11006724,50.97080556],[4.11007344,50.97080022],[4.11006044,50.97079419],[4.11008975,50.97075533],[4.11016624,50.97077833],[4.11011797,50.97084176],[4.1100729,50.97082796],[4.11008537,50.97081205]]]}},{"type":"Feature","id":"gebouw/Gebouw.30642371/0","properties":{"source":"Digitaal Vlaanderen Gebouwenregister","source_id":"gebouw/Gebouw.30642371/0","kind":"building","height_m":7.88,"status":null},"geometry":{"type":"Polygon","coordinates":[[[4.11112113,50.97072649],[4.11117913,50.97068716],[4.11124954,50.97072856],[4.11119154,50.97076789],[4.11112113,50.97072649]]]}},{"type":"Feature","id":"gebouw/Gebouw.30866313/0","properties":{"source":"Digitaal Vlaanderen Gebouwenregister","source_id":"gebouw/Gebouw.30866313/0","kind":"building","height_m":6.44,"status":null},"geometry":{"type":"Polygon","coordinates":[[[4.10792301,50.97181703],[4.10788898,50.9718319],[4.10788061,50.97183556],[4.10785217,50.97180963],[4.10786135,50.97180562],[4.10789458,50.9717911],[4.10792301,50.97181703]]]}},{"type":"Feature","id":"gebouw/Gebouw.31144805/0","properties":{"source":"Digitaal Vlaanderen Gebouwenregister","source_id":"gebouw/Gebouw.31144805/0","kind":"building","height_m":9.32,"status":null},"geometry":{"type":"Polygon","coordinates":[[[4.10759821,50.97178926],[4.10756696,50.97175699],[4.10781682,50.97166053],[4.10784808,50.97169281],[4.10759821,50.97178926]]]}},{"type":"Feature","id":"gebouw/Gebouw.31324735/0","properties":{"source":"Digitaal Vlaanderen Gebouwenregister","source_id":"gebouw/Gebouw.31324735/0","kind":"building","height_m":5.72,"status":null},"geometry":{"type":"Polygon","coordinates":[[[4.10941205,50.97138974],[4.1094698,50.97144524],[4.10942609,50.97146337],[4.1093754,50.97141466],[4.10935672,50.97139671],[4.10940043,50.97137858],[4.10941205,50.97138974]]]}},{"type":"Feature","id":"gebouw/Gebouw.31524992/0","properties":{"source":"Digitaal Vlaanderen Gebouwenregister","source_id":"gebouw/Gebouw.31524992/0","kind":"building","height_m":6.44,"status":null},"geometry":{"type":"Polygon","coordinates":[[[4.10773324,50.97006993],[4.10770976,50.97005749],[4.1076989,50.97006566],[4.10769037,50.97007207],[4.10771385,50.97008451],[4.10772206,50.97007834],[4.10773324,50.97006993]]]}},{"type":"Feature","id":"gebouw/Gebouw.31633125/0","properties":{"source":"Digitaal Vlaanderen Gebouwenregister","source_id":"gebouw/Gebouw.31633125/0","kind":"building","height_m":9.32,"status":null},"geometry":{"type":"Polygon","coordinates":[[[4.10662564,50.97255897],[4.10652819,50.97247559],[4.1064649,50.97249987],[4.10656399,50.97258649],[4.10656535,50.97258589],[4.10656579,50.9725857],[4.10662106,50.97256106],[4.10662189,50.97256069],[4.10662564,50.97255897]]]}},{"type":"Feature","id":"gebouw/Gebouw.31633598/0","properties":{"source":"Digitaal Vlaanderen Gebouwenregister","source_id":"gebouw/Gebouw.31633598/0","kind":"building","height_m":7.16,"status":null},"geometry":{"type":"Polygon","coordinates":[[[4.11196568,50.97109493],[4.11201006,50.97112475],[4.11204054,50.97110668],[4.11199616,50.97107684],[4.11196568,50.97109493]]]}},{"type":"Feature","id":"gebouw/Gebouw.31688906/0","properties":{"source":"Digitaal Vlaanderen Gebouwenregister","source_id":"gebouw/Gebouw.31688906/0","kind":"building","height_m":7.88,"status":null},"geometry":{"type":"Polygon","coordinates":[[[4.10716973,50.97040098],[4.10725941,50.97033953],[4.10715367,50.97028233],[4.1071294,50.97030021],[4.10710523,50.97028622],[4.10704402,50.9703286],[4.10716973,50.97040098]]]}},{"type":"Feature","id":"gebouw/Gebouw.31735571/0","properties":{"source":"Digitaal Vlaanderen Gebouwenregister","source_id":"gebouw/Gebouw.31735571/0","kind":"building","height_m":5.0,"status":null},"geometry":{"type":"Polygon","coordinates":[[[4.10504718,50.97210117],[4.10510382,50.97206379],[4.10506895,50.97204267],[4.10515547,50.97198569],[4.10509135,50.97194687],[4.10499093,50.972013],[4.10495153,50.97198922],[4.10490872,50.97201744],[4.10504718,50.97210117]]]}},{"type":"Feature","id":"gebouw/Gebouw.31804865/0","properties":{"source":"Digitaal Vlaanderen Gebouwenregister","source_id":"gebouw/Gebouw.31804865/0","kind":"building","height_m":5.72,"status":null},"geometry":{"type":"Polygon","coordinates":[[[4.1054107,50.97219581],[4.10529892,50.97226977],[4.1055047,50.97239403],[4.1056164,50.97232103],[4.1054107,50.97219581]]]}},{"type":"Feature","id":"gebouw/Gebouw.31804884/0","properties":{"source":"Digitaal Vlaanderen Gebouwenregister","source_id":"gebouw/Gebouw.31804884/0","kind":"building","height_m":9.32,"status":null},"geometry":{"type":"Polygon","coordinates":[[[4.10437462,50.96916985],[4.104302,50.96913826],[4.10427883,50.9691576],[4.10435193,50.96919016],[4.10437462,50.96916985]]]}},{"type":"Feature","id":"gebouw/Gebouw.31804963/0","properties":{"source":"Digitaal Vlaanderen Gebouwenregister","source_id":"gebouw/Gebouw.31804963/0","kind":"building","height_m":5.72,"status":null},"geometry":{"type":"Polygon","coordinates":[[[4.10765594,50.97033421],[4.1077198,50.97037279],[4.10774878,50.97035367],[4.10772683,50.97034041],[4.10774615,50.97032767],[4.10770422,50.97030234],[4.10765594,50.97033421]]]}},{"type":"Feature","id":"gebouw/Gebouw.31805321/0","properties":{"source":"Digitaal Vlaanderen Gebouwenregister","source_id":"gebouw/Gebouw.31805321/0","kind":"building","height_m":6.44,"status":null},"geometry":{"type":"Polygon","coordinates":[[[4.1041346,50.96924618],[4.10413721,50.96929496],[4.10406142,50.96935474],[4.10411823,50.96940728],[4.10422794,50.96935585],[4.10428249,50.96940543],[4.10433704,50.9693815],[4.10429066,50.9693201],[4.10438956,50.96927701],[4.10435508,50.96924573],[4.10424526,50.9692781],[4.10418451,50.96922329],[4.1041346,50.96924618]]]}},{"type":"Feature","id":"gebouw/Gebouw.32006486/0","properties":{"source":"Digitaal Vlaanderen Gebouwenregister","source_id":"gebouw/Gebouw.32006486/0","kind":"building","height_m":5.72,"status":null},"geometry":{"type":"Polygon","coordinates":[[[4.11201288,50.97065126],[4.11197402,50.97066714],[4.11196685,50.97067182],[4.11196055,50.97067696],[4.11195518,50.97068252],[4.11195081,50.97068841],[4.1119475,50.97069458],[4.11194529,50.97070093],[4.1119442,50.9707074],[4.11194425,50.97071391],[4.11194543,50.97072038],[4.11194773,50.97072672],[4.11194867,50.97072864],[4.11195195,50.97073498],[4.11195629,50.97074106],[4.11196163,50.97074681],[4.11196793,50.97075217],[4.11197511,50.97075706],[4.11198307,50.97076144],[4.11199174,50.97076525],[4.11199458,50.97076632],[4.11200406,50.97077073],[4.11201417,50.97077455],[4.11202481,50.97077772],[4.11203589,50.97078024],[4.11204731,50.97078207],[4.11205895,50.97078319],[4.11207071,50.9707836],[4.11208248,50.97078329],[4.11208992,50.97078272],[4.11211089,50.97078043],[4.11213304,50.97077633],[4.11214937,50.9707713],[4.112164,50.97076305],[4.11217615,50.9707488],[4.11218366,50.9707395],[4.11219376,50.97072624],[4.11215201,50.97067694],[4.11214657,50.97067916],[4.11213738,50.9706691],[4.11214402,50.97066681],[4.1121248,50.9706458],[4.11215407,50.97063512],[4.112134,50.97061318],[4.11215051,50.97060731],[4.11211904,50.97057152],[4.1120534,50.97059453],[4.11205107,50.97059216],[4.11198202,50.97061684],[4.11201288,50.97065126]]]}},{"type":"Feature","id":"gebouw/Gebouw.32023602/0","properties":{"source":"Digitaal Vlaanderen Gebouwenregister","source_id":"gebouw/Gebouw.32023602/0","kind":"building","height_m":6.44,"status":null},"geometry":{"type":"Polygon","coordinates":[[[4.10424284,50.97148584],[4.1042133,50.97146529],[4.10418415,50.97148743],[4.10421262,50.97150539],[4.10424284,50.97148584]]]}},{"type":"Feature","id":"gebouw/Gebouw.32023613/0","properties":{"source":"Digitaal Vlaanderen Gebouwenregister","source_id":"gebouw/Gebouw.32023613/0","kind":"building","height_m":9.32,"status":null},"geometry":{"type":"Polygon","coordinates":[[[4.10421262,50.97150539],[4.10418415,50.97148743],[4.10411892,50.97153697],[4.10425927,50.97162441],[4.10431204,50.97159065],[4.10429686,50.97158074],[4.10431445,50.97156962],[4.10421262,50.97150539]]]}},{"type":"Feature","id":"gebouw/Gebouw.32023618/0","properties":{"source":"Digitaal Vlaanderen Gebouwenregister","source_id":"gebouw/Gebouw.32023618/0","kind":"building","height_m":7.88,"status":null},"geometry":{"type":"Polygon","coordinates":[[[4.10447072,50.97147593],[4.10432189,50.97138282],[4.10431829,50.97138555],[4.10428012,50.97141455],[4.10430475,50.97143081],[4.10429346,50.97143762],[4.1043024,50.97144325],[4.10435867,50.97147871],[4.10432951,50.97149645],[4.10436411,50.97151875],[4.10447072,50.97147593]]]}},{"type":"Feature","id":"way/160369085","properties":{"source":"OpenStreetMap","source_id":"way/160369085","kind":"vegetation","name":null,"waterway":null,"landuse":"forest"},"geometry":{"type":"Polygon","coordinates":[[[4.1122275,50.9704089],[4.111879,50.9708091],[4.112356,50.9711347],[4.1120056,50.9713473],[4.1118617,50.9714251],[4.1117289,50.9714611],[4.1115556,50.9714994],[4.1115426,50.9714425],[4.1118101,50.9713786],[4.1119189,50.9713403],[4.1119392,50.9713171],[4.1113335,50.9710208],[4.1113801,50.9709707],[4.111633,50.9711045],[4.11174,50.9709895],[4.1118082,50.9710151],[4.111705,50.9711405],[4.1119798,50.9712927],[4.1122601,50.971115],[4.1116404,50.9707642],[4.1120326,50.9703564],[4.1122275,50.9704089]]]}},{"type":"Feature","id":"way/160369120","properties":{"source":"OpenStreetMap","source_id":"way/160369120","kind":"vegetation","name":null,"waterway":null,"landuse":"forest"},"geometry":{"type":"Polygon","coordinates":[[[4.1080459,50.9726682],[4.1077383,50.9728014],[4.1073109,50.9724652],[4.1069414,50.9721969],[4.1072053,50.9720259],[4.1080459,50.9726682]]]}},{"type":"Feature","id":"way/160373884","properties":{"source":"OpenStreetMap","source_id":"way/160373884","kind":"vegetation","name":null,"waterway":null,"landuse":"forest"},"geometry":{"type":"Polygon","coordinates":[[[4.107503,50.9694823],[4.1071245,50.9698308],[4.1076991,50.970087],[4.1076805,50.9701066],[4.1079507,50.970222],[4.1080129,50.9701731],[4.1080936,50.970224],[4.1082924,50.9699736],[4.1083732,50.9700127],[4.1081713,50.9702729],[4.1080998,50.9703374],[4.1080222,50.9703453],[4.1079756,50.9703218],[4.1070026,50.9698536],[4.1074573,50.9694608],[4.107503,50.9694823]]]}},{"type":"Feature","id":"way/160373897","properties":{"source":"OpenStreetMap","source_id":"way/160373897","kind":"vegetation","name":null,"waterway":null,"landuse":"forest"},"geometry":{"type":"Polygon","coordinates":[[[4.1084874,50.9708487],[4.1086173,50.9707462],[4.10812,50.9704532],[4.1079994,50.9705645],[4.108192,50.9706792],[4.1084874,50.9708487]]]}},{"type":"Feature","id":"way/160373900","properties":{"source":"OpenStreetMap","source_id":"way/160373900","kind":"vegetation","name":null,"waterway":null,"landuse":"forest"},"geometry":{"type":"Polygon","coordinates":[[[4.1075418,50.9708235],[4.1077855,50.9709712],[4.1083321,50.9712742],[4.1079489,50.9714858],[4.1073628,50.9709286],[4.1075418,50.9708235]]]}},{"type":"Feature","id":"way/1413570466","properties":{"source":"OpenStreetMap","source_id":"way/1413570466","kind":"water","name":null,"waterway":null,"landuse":null},"geometry":{"type":"Polygon","coordinates":[[[4.106803,50.9722689],[4.1069091,50.9723377],[4.106939,50.9723462],[4.1070101,50.9723157],[4.1070101,50.9722936],[4.1068462,50.9721495],[4.1068061,50.9721437],[4.1067813,50.9721521],[4.106736,50.9721917],[4.1067463,50.9722216],[4.106803,50.9722689]]]}}]}