{"type":"FeatureCollection","features":[{"type":"Feature","id":"gebouw/Gebouw.11331440/0","properties":{"source":"Digitaal Vlaanderen Gebouwenregister","source_id":"gebouw/Gebouw.11331440/0","kind":"building","height_m":5.72,"status":null},"geometry":{"type":"Polygon","coordinates":[[[4.11813963,50.92610359],[4.11813812,50.92616213],[4.11809669,50.92616248],[4.11809982,50.92619742],[4.11809528,50.92619746],[4.11809521,50.92622402],[4.11805355,50.92622457],[4.11804527,50.92610314],[4.11805016,50.92598935],[4.11814251,50.92599245],[4.11814157,50.92602872],[4.11814049,50.92607021],[4.11813963,50.92610359]]]}},{"type":"Feature","id":"gebouw/Gebouw.11331441/0","properties":{"source":"Digitaal Vlaanderen Gebouwenregister","source_id":"gebouw/Gebouw.11331441/0","kind":"building","height_m":6.44,"status":null},"geometry":{"type":"Polygon","coordinates":[[[4.11793146,50.92607156],[4.11793549,50.92598737],[4.11796232,50.92598639],[4.11805016,50.92598935],[4.11804527,50.92610314],[4.11793639,50.92610007],[4.11793504,50.92609941],[4.11793932,50.92607169],[4.11793146,50.92607156]]]}},{"type":"Feature","id":"gebouw/Gebouw.11397261/0","properties":{"source":"Digitaal Vlaanderen Gebouwenregister","source_id":"gebouw/Gebouw.11397261/0","kind":"building","height_m":5.72,"status":null},"geometry":{"type":"Polygon","coordinates":[[[4.11786957,50.92614922],[4.11792332,50.92614702],[4.11793341,50.92624555],[4.11787966,50.92624775],[4.11786957,50.92614922]]]}},{"type":"Feature","id":"gebouw/Gebouw.11437578/0","properties":{"source":"Digitaal Vlaanderen Gebouwenregister","source_id":"gebouw/Gebouw.11437578/0","kind":"building","height_m":8.6,"status":null},"geometry":{"type":"Polygon","coordinates":[[[4.11772321,50.92593021],[4.11767055,50.92611791],[4.11772629,50.9261226],[4.11773332,50.92608924],[4.11773922,50.92608974],[4.11774801,50.92604612],[4.11774164,50.92604503],[4.11774941,50.92601766],[4.11778416,50.92602287],[4.11781386,50.92594381],[4.11772411,50.92593034],[4.11772321,50.92593021]]]}},{"type":"Feature","id":"gebouw/Gebouw.11437973/0","properties":{"source":"Digitaal Vlaanderen Gebouwenregister","source_id":"gebouw/Gebouw.11437973/0","kind":"building","height_m":5.72,"status":null},"geometry":{"type":"Polygon","coordinates":[[[4.11742395,50.9259985],[4.11741931,50.92592409],[4.11741917,50.9259219],[4.11741912,50.92592112],[4.11730221,50.9259242],[4.11730318,50.92594234],[4.11725078,50.92594328],[4.11725398,50.9260147],[4.11722296,50.92601638],[4.11722968,50.92609148],[4.1173714,50.92608872],[4.11736649,50.92600024],[4.11742395,50.9259985]]]}},{"type":"Feature","id":"gebouw/Gebouw.11447536/0","properties":{"source":"Digitaal Vlaanderen Gebouwenregister","source_id":"gebouw/Gebouw.11447536/0","kind":"building","height_m":6.44,"status":null},"geometry":{"type":"Polygon","coordinates":[[[4.11822214,50.92621424],[4.11816851,50.9262151],[4.11816605,50.92615383],[4.11821648,50.92615296],[4.11822214,50.92621424]]]}},{"type":"Feature","id":"gebouw/Gebouw.11447795/0","properties":{"source":"Digitaal Vlaanderen Gebouwenregister","source_id":"gebouw/Gebouw.11447795/0","kind":"building","height_m":6.44,"status":null},"geometry":{"type":"Polygon","coordinates":[[[4.11766301,50.92614482],[4.11766485,50.92613825],[4.11767055,50.92611791],[4.11772321,50.92593021],[4.1176387,50.92591738],[4.11763843,50.92591734],[4.11760712,50.92599304],[4.11761363,50.92599419],[4.11759646,50.92603786],[4.11763068,50.92604174],[4.11762006,50.92608966],[4.11760646,50.92615108],[4.11765987,50.92615599],[4.11766301,50.92614482]]]}},{"type":"Feature","id":"gebouw/Gebouw.11464535/0","properties":{"source":"Digitaal Vlaanderen Gebouwenregister","source_id":"gebouw/Gebouw.11464535/0","kind":"building","height_m":8.6,"status":null},"geometry":{"type":"Polygon","coordinates":[[[4.11760712,50.92599304],[4.11763843,50.92591734],[4.11749688,50.92589575],[4.11748704,50.92592074],[4.11742108,50.92592111],[4.11741912,50.92592112],[4.11741917,50.9259219],[4.11741931,50.92592409],[4.11742395,50.9259985],[4.11745686,50.92600245],[4.11745311,50.92601145],[4.11755282,50.92602643],[4.11756624,50.92598775],[4.11760712,50.92599304]]]}},{"type":"Feature","id":"gebouw/Gebouw.11469197/0","properties":{"source":"Digitaal Vlaanderen Gebouwenregister","source_id":"gebouw/Gebouw.11469197/0","kind":"building","height_m":8.6,"status":null},"geometry":{"type":"Polygon","coordinates":[[[4.11653594,50.9258755],[4.11659779,50.92587371],[4.1166017,50.92587359],[4.11660194,50.92587533],[4.11661036,50.92588044],[4.11664166,50.92587956],[4.11664942,50.92587393],[4.11664931,50.92587211],[4.11665252,50.92587202],[4.11668923,50.92587096],[4.11668828,50.92585742],[4.116761,50.92585538],[4.11677088,50.9259962],[4.11667668,50.92599685],[4.11667527,50.92600162],[4.1166661,50.9260097],[4.11665021,50.92601422],[4.11663396,50.92601512],[4.11661911,50.92601106],[4.11660933,50.92600467],[4.11660591,50.92599918],[4.11660381,50.92597024],[4.116543,50.92597296],[4.11653594,50.9258755]]]}},{"type":"Feature","id":"gebouw/Gebouw.12097972/0","properties":{"source":"Digitaal Vlaanderen Gebouwenregister","source_id":"gebouw/Gebouw.12097972/0","kind":"building","height_m":8.6,"status":null},"geometry":{"type":"Polygon","coordinates":[[[4.11866555,50.92621446],[4.11849741,50.92604912],[4.11848293,50.92605505],[4.11840238,50.92608802],[4.11833666,50.92609033],[4.11838042,50.92614936],[4.11838824,50.92615992],[4.11838867,50.92615976],[4.11841261,50.92615075],[4.11843481,50.92618182],[4.11845358,50.92617505],[4.11847683,50.92619927],[4.11850671,50.92620099],[4.11856308,50.92625741],[4.11866059,50.92621654],[4.11866555,50.92621446]]]}},{"type":"Feature","id":"gebouw/Gebouw.12300181/0","properties":{"source":"Digitaal Vlaanderen Gebouwenregister","source_id":"gebouw/Gebouw.12300181/0","kind":"building","height_m":8.6,"status":null},"geometry":{"type":"Polygon","coordinates":[[[4.11823098,50.92621351],[4.11826485,50.92621302],[4.11824438,50.92618663],[4.11829951,50.92617172],[4.11832201,50.92620086],[4.11827751,50.92621353],[4.11827868,50.92625858],[4.11823497,50.92626031],[4.11823098,50.92621351]]]}},{"type":"Feature","id":"gebouw/Gebouw.12437288/0","properties":{"source":"Digitaal Vlaanderen Gebouwenregister","source_id":"gebouw/Gebouw.12437288/0","kind":"building","height_m":7.16,"status":null},"geometry":{"type":"Polygon","coordinates":[[[4.11825486,50.92608465],[4.11830888,50.92606902],[4.11832093,50.92608549],[4.11833099,50.92608269],[4.11836147,50.92612461],[4.11840126,50.9261766],[4.1183351,50.92619545],[4.11825486,50.92608465]]]}},{"type":"Feature","id":"gebouw/Gebouw.16560038/0","properties":{"source":"Digitaal Vlaanderen Gebouwenregister","source_id":"gebouw/Gebouw.16560038/0","kind":"building","height_m":8.6,"status":null},"geometry":{"type":"Polygon","coordinates":[[[4.12152752,50.92758339],[4.12152462,50.92762298],[4.12138349,50.9276188],[4.1213865,50.92757799],[4.12152752,50.92758339]]]}},{"type":"Feature","id":"gebouw/Gebouw.16560142/0","properties":{"source":"Digitaal Vlaanderen Gebouwenregister","source_id":"gebouw/Gebouw.16560142/0","kind":"building","height_m":7.88,"status":null},"geometry":{"type":"Polygon","coordinates":[[[4.11738448,50.92760994],[4.11741027,50.9276031],[4.11744372,50.9276535],[4.11741794,50.92766033],[4.11738448,50.92760994]]]}},{"type":"Feature","id":"gebouw/Gebouw.16560161/0","properties":{"source":"Digitaal Vlaanderen Gebouwenregister","source_id":"gebouw/Gebouw.16560161/0","kind":"building","height_m":6.44,"status":null},"geometry":{"type":"Polygon","coordinates":[[[4.11940267,50.92773764],[4.11938516,50.9277134],[4.11947327,50.92768798],[4.11949078,50.92771222],[4.11940267,50.92773764]]]}},{"type":"Feature","id":"gebouw/Gebouw.16560211/0","properties":{"source":"Digitaal Vlaanderen Gebouwenregister","source_id":"gebouw/Gebouw.16560211/0","kind":"building","height_m":7.16,"status":null},"geometry":{"type":"Polygon","coordinates":[[[4.11945018,50.92792684],[4.11944009,50.92792973],[4.11941715,50.92789784],[4.11959623,50.92784641],[4.11961924,50.92787841],[4.11945018,50.92792684]]]}},{"type":"Feature","id":"gebouw/Gebouw.16560241/0","properties":{"source":"Digitaal Vlaanderen Gebouwenregister","source_id":"gebouw/Gebouw.16560241/0","kind":"building","height_m":8.6,"status":null},"geometry":{"type":"Polygon","coordinates":[[[4.11673651,50.92774852],[4.11671151,50.92775491],[4.11666159,50.92767687],[4.11668659,50.92767048],[4.11673651,50.92774852]]]}},{"type":"Feature","id":"gebouw/Gebouw.16560411/0","properties":{"source":"Digitaal Vlaanderen Gebouwenregister","source_id":"gebouw/Gebouw.16560411/0","kind":"building","height_m":5.0,"status":null},"geometry":{"type":"Polygon","coordinates":[[[4.12167866,50.92580047],[4.12168463,50.92580083],[4.12166415,50.9258815],[4.12160843,50.92587612],[4.12162853,50.92579473],[4.12164698,50.92579597],[4.12165202,50.92577241],[4.12168309,50.9257757],[4.12167866,50.92580047]]]}},{"type":"Feature","id":"gebouw/Gebouw.16560428/0","properties":{"source":"Digitaal Vlaanderen Gebouwenregister","source_id":"gebouw/Gebouw.16560428/0","kind":"building","height_m":7.16,"status":null},"geometry":{"type":"Polygon","coordinates":[[[4.11926256,50.92771395],[4.11924026,50.92768256],[4.11919574,50.92769521],[4.11921488,50.9277221],[4.11915393,50.92773942],[4.1191541,50.92773966],[4.11917216,50.92776505],[4.11927763,50.92773508],[4.11926256,50.92771395]]]}},{"type":"Feature","id":"gebouw/Gebouw.16560437/0","properties":{"source":"Digitaal Vlaanderen Gebouwenregister","source_id":"gebouw/Gebouw.16560437/0","kind":"building","height_m":8.6,"status":null},"geometry":{"type":"Polygon","coordinates":[[[4.11871883,50.92754913],[4.1187526,50.92753979],[4.1187778,50.92757619],[4.11874402,50.92758553],[4.11871883,50.92754913]]]}},{"type":"Feature","id":"gebouw/Gebouw.16560450/0","properties":{"source":"Digitaal Vlaanderen Gebouwenregister","source_id":"gebouw/Gebouw.16560450/0","kind":"building","height_m":7.88,"status":null},"geometry":{"type":"Polygon","coordinates":[[[4.11980774,50.9266607],[4.11967666,50.92668319],[4.11962003,50.92669291],[4.1195889,50.92663505],[4.11954422,50.92651514],[4.11959294,50.92650932],[4.11958559,50.92648768],[4.11970872,50.92647015],[4.11994802,50.92645913],[4.11998793,50.92645729],[4.11999003,50.92646786],[4.1200537,50.92645993],[4.1201069,50.92653899],[4.12011349,50.92654879],[4.12012011,50.92655862],[4.11986999,50.92658882],[4.11970757,50.92660844],[4.11971041,50.92661506],[4.11972568,50.9266507],[4.11979775,50.92663775],[4.11980774,50.9266607]]]}},{"type":"Feature","id":"gebouw/Gebouw.16560482/0","properties":{"source":"Digitaal Vlaanderen Gebouwenregister","source_id":"gebouw/Gebouw.16560482/0","kind":"building","height_m":5.72,"status":null},"geometry":{"type":"Polygon","coordinates":[[[4.11909671,50.92730768],[4.11898068,50.9273394],[4.11895772,50.92730628],[4.11907162,50.92727348],[4.11909671,50.92730768]]]}},{"type":"Feature","id":"gebouw/Gebouw.16560526/0","properties":{"source":"Digitaal Vlaanderen Gebouwenregister","source_id":"gebouw/Gebouw.16560526/0","kind":"building","height_m":7.16,"status":null},"geometry":{"type":"Polygon","coordinates":[[[4.11729208,50.92760714],[4.1172851,50.92759862],[4.11744153,50.92754741],[4.11744851,50.92755593],[4.11729208,50.92760714]]]}},{"type":"Feature","id":"gebouw/Gebouw.16560531/0","properties":{"source":"Digitaal Vlaanderen Gebouwenregister","source_id":"gebouw/Gebouw.16560531/0","kind":"building","height_m":5.72,"status":null},"geometry":{"type":"Polygon","coordinates":[[[4.12114214,50.92728245],[4.12114604,50.92734389],[4.12099272,50.92734651],[4.12098187,50.92728344],[4.12105614,50.92728298],[4.12114214,50.92728245]]]}},{"type":"Feature","id":"gebouw/Gebouw.16560607/0","properties":{"source":"Digitaal Vlaanderen Gebouwenregister","source_id":"gebouw/Gebouw.16560607/0","kind":"building","height_m":5.0,"status":null},"geometry":{"type":"Polygon","coordinates":[[[4.11798794,50.92777009],[4.11808208,50.92773968],[4.11810989,50.92777407],[4.11801575,50.92780448],[4.11798794,50.92777009]]]}},{"type":"Feature","id":"gebouw/Gebouw.16560861/0","properties":{"source":"Digitaal Vlaanderen Gebouwenregister","source_id":"gebouw/Gebouw.16560861/0","kind":"building","height_m":6.44,"status":null},"geometry":{"type":"Polygon","coordinates":[[[4.11997893,50.92673811],[4.12002885,50.92672841],[4.12004697,50.92676564],[4.11999705,50.92677534],[4.11997893,50.92673811]]]}},{"type":"Feature","id":"gebouw/Gebouw.16560872/0","properties":{"source":"Digitaal Vlaanderen Gebouwenregister","source_id":"gebouw/Gebouw.16560872/0","kind":"building","height_m":9.32,"status":null},"geometry":{"type":"Polygon","coordinates":[[[4.11912217,50.92756642],[4.11917924,50.92754823],[4.11920248,50.92757736],[4.11914541,50.92759554],[4.11912217,50.92756642]]]}},{"type":"Feature","id":"gebouw/Gebouw.16562972/0","properties":{"source":"Digitaal Vlaanderen Gebouwenregister","source_id":"gebouw/Gebouw.16562972/0","kind":"building","height_m":9.32,"status":null},"geometry":{"type":"Polygon","coordinates":[[[4.1199907,50.92635425],[4.12003156,50.92636169],[4.12001019,50.92640851],[4.11997017,50.92640121],[4.11997544,50.92638916],[4.1199907,50.92635425]]]}},{"type":"Feature","id":"gebouw/Gebouw.16563399/0","properties":{"source":"Digitaal Vlaanderen Gebouwenregister","source_id":"gebouw/Gebouw.16563399/0","kind":"building","height_m":9.32,"status":null},"geometry":{"type":"Polygon","coordinates":[[[4.11907162,50.92727348],[4.11895772,50.92730628],[4.11892098,50.92725308],[4.11903336,50.92722136],[4.11907162,50.92727348]]]}},{"type":"Feature","id":"gebouw/Gebouw.16563400/0","properties":{"source":"Digitaal Vlaanderen Gebouwenregister","source_id":"gebouw/Gebouw.16563400/0","kind":"building","height_m":5.0,"status":null},"geometry":{"type":"Polygon","coordinates":[[[4.12100055,50.92815522],[4.12105609,50.92813974],[4.12107808,50.92817124],[4.12102253,50.92818672],[4.12100055,50.92815522]]]}},{"type":"Feature","id":"gebouw/Gebouw.16563404/0","properties":{"source":"Digitaal Vlaanderen Gebouwenregister","source_id":"gebouw/Gebouw.16563404/0","kind":"building","height_m":7.88,"status":null},"geometry":{"type":"Polygon","coordinates":[[[4.1211879,50.9259642],[4.12126294,50.92581348],[4.12134567,50.92582988],[4.12135489,50.92581314],[4.12135845,50.92580668],[4.12147058,50.92582537],[4.12148235,50.925797],[4.12150118,50.92575163],[4.12139692,50.92573542],[4.12140533,50.9257152],[4.12139203,50.92571295],[4.12122601,50.9256848],[4.12122497,50.92568722],[4.12118661,50.92577625],[4.12118075,50.92578984],[4.12115575,50.92584785],[4.12113998,50.92588446],[4.12111169,50.92595011],[4.1211879,50.9259642]]]}},{"type":"Feature","id":"gebouw/Gebouw.16563422/0","properties":{"source":"Digitaal Vlaanderen Gebouwenregister","source_id":"gebouw/Gebouw.16563422/0","kind":"building","height_m":5.72,"status":null},"geometry":{"type":"Polygon","coordinates":[[[4.12240776,50.92645621],[4.12239813,50.92645638],[4.1224027,50.9263829],[4.12253353,50.92638048],[4.12254478,50.92638027],[4.12253901,50.92645389],[4.12240776,50.92645621]]]}},{"type":"Feature","id":"gebouw/Gebouw.16563425/0","properties":{"source":"Digitaal Vlaanderen Gebouwenregister","source_id":"gebouw/Gebouw.16563425/0","kind":"building","height_m":7.88,"status":null},"geometry":{"type":"Polygon","coordinates":[[[4.11797489,50.92818544],[4.11798866,50.92820487],[4.11793146,50.92822106],[4.1179177,50.92820162],[4.11797489,50.92818544]]]}},{"type":"Feature","id":"gebouw/Gebouw.16563609/0","properties":{"source":"Digitaal Vlaanderen Gebouwenregister","source_id":"gebouw/Gebouw.16563609/0","kind":"building","height_m":9.32,"status":null},"geometry":{"type":"Polygon","coordinates":[[[4.12109547,50.92823713],[4.12105451,50.92824896],[4.1210307,50.92821606],[4.12107166,50.92820422],[4.12109547,50.92823713]]]}},{"type":"Feature","id":"gebouw/Gebouw.16563700/0","properties":{"source":"Digitaal Vlaanderen Gebouwenregister","source_id":"gebouw/Gebouw.16563700/0","kind":"building","height_m":9.32,"status":null},"geometry":{"type":"Polygon","coordinates":[[[4.1214991,50.92778097],[4.12140815,50.92779197],[4.12139992,50.92776196],[4.12149106,50.9277519],[4.1214991,50.92778097]]]}},{"type":"Feature","id":"gebouw/Gebouw.16563719/0","properties":{"source":"Digitaal Vlaanderen Gebouwenregister","source_id":"gebouw/Gebouw.16563719/0","kind":"building","height_m":7.88,"status":null},"geometry":{"type":"Polygon","coordinates":[[[4.12229628,50.9272623],[4.12229825,50.92724777],[4.12236613,50.92725146],[4.12236286,50.92727553],[4.12231237,50.92727129],[4.12231401,50.92726326],[4.12229628,50.9272623]]]}},{"type":"Feature","id":"gebouw/Gebouw.16563896/0","properties":{"source":"Digitaal Vlaanderen Gebouwenregister","source_id":"gebouw/Gebouw.16563896/0","kind":"building","height_m":9.32,"status":null},"geometry":{"type":"Polygon","coordinates":[[[4.12156579,50.92748701],[4.12153153,50.92748729],[4.12153215,50.92751785],[4.12135703,50.92751566],[4.12135455,50.92736753],[4.12143408,50.92736699],[4.12143444,50.92738813],[4.12156376,50.92738726],[4.12156579,50.92748701]]]}},{"type":"Feature","id":"gebouw/Gebouw.16563914/0","properties":{"source":"Digitaal Vlaanderen Gebouwenregister","source_id":"gebouw/Gebouw.16563914/0","kind":"building","height_m":7.16,"status":null},"geometry":{"type":"Polygon","coordinates":[[[4.120298,50.92721271],[4.12024403,50.92722169],[4.12022869,50.92718485],[4.12028266,50.92717588],[4.120298,50.92721271]]]}},{"type":"Feature","id":"gebouw/Gebouw.16564135/0","properties":{"source":"Digitaal Vlaanderen Gebouwenregister","source_id":"gebouw/Gebouw.16564135/0","kind":"building","height_m":5.0,"status":null},"geometry":{"type":"Polygon","coordinates":[[[4.11988752,50.92664701],[4.11990483,50.92668071],[4.11985475,50.92669087],[4.11983681,50.92665571],[4.11988752,50.92664701]]]}},{"type":"Feature","id":"gebouw/Gebouw.16564140/0","properties":{"source":"Digitaal Vlaanderen Gebouwenregister","source_id":"gebouw/Gebouw.16564140/0","kind":"building","height_m":8.6,"status":null},"geometry":{"type":"Polygon","coordinates":[[[4.12241264,50.92669379],[4.12220091,50.92669553],[4.12219795,50.92655184],[4.12213067,50.92655239],[4.12212818,50.92650155],[4.12214218,50.92649984],[4.12214175,50.92650631],[4.12219323,50.92650527],[4.12219297,50.92649286],[4.12239596,50.9264912],[4.12240847,50.92649109],[4.12241264,50.92669379]]]}},{"type":"Feature","id":"gebouw/Gebouw.16564143/0","properties":{"source":"Digitaal Vlaanderen Gebouwenregister","source_id":"gebouw/Gebouw.16564143/0","kind":"building","height_m":5.72,"status":null},"geometry":{"type":"Polygon","coordinates":[[[4.11711558,50.9275363],[4.1171183,50.92752254],[4.11712577,50.92750277],[4.11731486,50.92744497],[4.11738141,50.92753192],[4.11719123,50.92759002],[4.11717982,50.92757324],[4.11714304,50.92758274],[4.11711558,50.9275363]]]}},{"type":"Feature","id":"gebouw/Gebouw.16564146/0","properties":{"source":"Digitaal Vlaanderen Gebouwenregister","source_id":"gebouw/Gebouw.16564146/0","kind":"building","height_m":7.88,"status":null},"geometry":{"type":"Polygon","coordinates":[[[4.12035001,50.92734611],[4.12030733,50.92735432],[4.12029172,50.92732193],[4.12033441,50.92731372],[4.12035001,50.92734611]]]}},{"type":"Feature","id":"gebouw/Gebouw.16564351/0","properties":{"source":"Digitaal Vlaanderen Gebouwenregister","source_id":"gebouw/Gebouw.16564351/0","kind":"building","height_m":9.32,"status":null},"geometry":{"type":"Polygon","coordinates":[[[4.12030289,50.92738231],[4.12034823,50.92737467],[4.12036429,50.92741275],[4.12031895,50.92742039],[4.12030289,50.92738231]]]}},{"type":"Feature","id":"gebouw/Gebouw.16564364/0","properties":{"source":"Digitaal Vlaanderen Gebouwenregister","source_id":"gebouw/Gebouw.16564364/0","kind":"building","height_m":8.6,"status":null},"geometry":{"type":"Polygon","coordinates":[[[4.1205797,50.92791346],[4.12059848,50.92795181],[4.12042873,50.92798722],[4.12040714,50.92793604],[4.12046077,50.92792621],[4.12046585,50.92793759],[4.1205797,50.92791346]]]}},{"type":"Feature","id":"gebouw/Gebouw.16564408/0","properties":{"source":"Digitaal Vlaanderen Gebouwenregister","source_id":"gebouw/Gebouw.16564408/0","kind":"building","height_m":5.0,"status":null},"geometry":{"type":"Polygon","coordinates":[[[4.11654739,50.92637539],[4.11656389,50.92661346],[4.116527,50.92661444],[4.11651191,50.92637274],[4.11652564,50.92637322],[4.11653267,50.92633082],[4.11659768,50.92633393],[4.11659226,50.926378],[4.11654739,50.92637539]]]}},{"type":"Feature","id":"gebouw/Gebouw.16564557/0","properties":{"source":"Digitaal Vlaanderen Gebouwenregister","source_id":"gebouw/Gebouw.16564557/0","kind":"building","height_m":6.44,"status":null},"geometry":{"type":"Polygon","coordinates":[[[4.12150859,50.92779309],[4.12151462,50.92781489],[4.12137285,50.92782772],[4.1213637,50.9277955],[4.12140815,50.92779197],[4.1214991,50.92778097],[4.12150506,50.92778031],[4.12150859,50.92779309]]]}},{"type":"Feature","id":"gebouw/Gebouw.16564580/0","properties":{"source":"Digitaal Vlaanderen Gebouwenregister","source_id":"gebouw/Gebouw.16564580/0","kind":"building","height_m":7.88,"status":null},"geometry":{"type":"Polygon","coordinates":[[[4.11831342,50.92731701],[4.11830622,50.9273125],[4.11828195,50.92732295],[4.11827879,50.92732061],[4.11824999,50.92729921],[4.11827171,50.92728753],[4.11824953,50.92727105],[4.11829376,50.92724726],[4.11835649,50.92729385],[4.11834082,50.92730228],[4.11831342,50.92731701]]]}},{"type":"Feature","id":"gebouw/Gebouw.16564584/0","properties":{"source":"Digitaal Vlaanderen Gebouwenregister","source_id":"gebouw/Gebouw.16564584/0","kind":"building","height_m":5.72,"status":null},"geometry":{"type":"Polygon","coordinates":[[[4.12102031,50.92807587],[4.12104401,50.92810884],[4.12100436,50.92812022],[4.12098066,50.92808725],[4.12102031,50.92807587]]]}},{"type":"Feature","id":"gebouw/Gebouw.16564672/0","properties":{"source":"Digitaal Vlaanderen Gebouwenregister","source_id":"gebouw/Gebouw.16564672/0","kind":"building","height_m":8.6,"status":null},"geometry":{"type":"Polygon","coordinates":[[[4.11768081,50.92789513],[4.11763931,50.92790686],[4.11761316,50.9278699],[4.11765467,50.92785817],[4.11768081,50.92789513]]]}},{"type":"Feature","id":"gebouw/Gebouw.16564843/0","properties":{"source":"Digitaal Vlaanderen Gebouwenregister","source_id":"gebouw/Gebouw.16564843/0","kind":"building","height_m":5.72,"status":null},"geometry":{"type":"Polygon","coordinates":[[[4.12026862,50.92690817],[4.1202538,50.9268759],[4.12038439,50.92685195],[4.12039921,50.92688422],[4.12026862,50.92690817]]]}},{"type":"Feature","id":"gebouw/Gebouw.16564845/0","properties":{"source":"Digitaal Vlaanderen Gebouwenregister","source_id":"gebouw/Gebouw.16564845/0","kind":"building","height_m":7.16,"status":null},"geometry":{"type":"Polygon","coordinates":[[[4.11913433,50.92760908],[4.11914426,50.92762249],[4.11902043,50.92765909],[4.1190105,50.92764568],[4.11913433,50.92760908]]]}},{"type":"Feature","id":"gebouw/Gebouw.16564849/0","properties":{"source":"Digitaal Vlaanderen Gebouwenregister","source_id":"gebouw/Gebouw.16564849/0","kind":"building","height_m":5.0,"status":null},"geometry":{"type":"Polygon","coordinates":[[[4.12145604,50.92723],[4.12145422,50.92727459],[4.12142421,50.92727374],[4.12142413,50.92723009],[4.12138787,50.92722905],[4.1213913,50.92718417],[4.12147144,50.92718662],[4.12146813,50.92723005],[4.12145604,50.92723]]]}},{"type":"Feature","id":"gebouw/Gebouw.16565214/0","properties":{"source":"Digitaal Vlaanderen Gebouwenregister","source_id":"gebouw/Gebouw.16565214/0","kind":"building","height_m":5.72,"status":null},"geometry":{"type":"Polygon","coordinates":[[[4.12129874,50.92616031],[4.12127099,50.92623564],[4.12123479,50.92623028],[4.12122761,50.92624965],[4.12119857,50.92624535],[4.12120577,50.92622597],[4.12120208,50.92622543],[4.12123002,50.92615004],[4.12129874,50.92616031]]]}},{"type":"Feature","id":"gebouw/Gebouw.16565395/0","properties":{"source":"Digitaal Vlaanderen Gebouwenregister","source_id":"gebouw/Gebouw.16565395/0","kind":"building","height_m":5.0,"status":null},"geometry":{"type":"Polygon","coordinates":[[[4.11737889,50.92792397],[4.11738133,50.92792721],[4.1173159,50.92794681],[4.11731272,50.92794257],[4.11729956,50.92792502],[4.11736499,50.92790543],[4.11737889,50.92792397]]]}},{"type":"Feature","id":"gebouw/Gebouw.16565400/0","properties":{"source":"Digitaal Vlaanderen Gebouwenregister","source_id":"gebouw/Gebouw.16565400/0","kind":"building","height_m":8.6,"status":null},"geometry":{"type":"Polygon","coordinates":[[[4.11989719,50.92644407],[4.11991693,50.92638965],[4.11996242,50.92639624],[4.11994268,50.92645066],[4.11989719,50.92644407]]]}},{"type":"Feature","id":"gebouw/Gebouw.16565945/0","properties":{"source":"Digitaal Vlaanderen Gebouwenregister","source_id":"gebouw/Gebouw.16565945/0","kind":"building","height_m":7.88,"status":null},"geometry":{"type":"Polygon","coordinates":[[[4.11733703,50.92800831],[4.11730984,50.92796883],[4.11737635,50.92795054],[4.11740354,50.92799001],[4.11733703,50.92800831]]]}},{"type":"Feature","id":"gebouw/Gebouw.16565955/0","properties":{"source":"Digitaal Vlaanderen Gebouwenregister","source_id":"gebouw/Gebouw.16565955/0","kind":"building","height_m":5.0,"status":null},"geometry":{"type":"Polygon","coordinates":[[[4.11932495,50.92755369],[4.11934506,50.92757973],[4.11927754,50.92760056],[4.11925743,50.92757452],[4.11932495,50.92755369]]]}},{"type":"Feature","id":"gebouw/Gebouw.16565978/0","properties":{"source":"Digitaal Vlaanderen Gebouwenregister","source_id":"gebouw/Gebouw.16565978/0","kind":"building","height_m":6.44,"status":null},"geometry":{"type":"Polygon","coordinates":[[[4.1209836,50.92685338],[4.12098508,50.92680013],[4.12129122,50.92680352],[4.12129733,50.92643446],[4.12148095,50.92643622],[4.12147596,50.92680897],[4.12145943,50.92680843],[4.12145926,50.92681441],[4.12143402,50.92681413],[4.12143281,50.92685763],[4.12130138,50.92685617],[4.12130027,50.92689619],[4.12104305,50.92689333],[4.12104414,50.92685405],[4.1209836,50.92685338]]]}},{"type":"Feature","id":"gebouw/Gebouw.16566063/0","properties":{"source":"Digitaal Vlaanderen Gebouwenregister","source_id":"gebouw/Gebouw.16566063/0","kind":"building","height_m":7.16,"status":null},"geometry":{"type":"Polygon","coordinates":[[[4.12064015,50.92553139],[4.12065468,50.92549714],[4.12072995,50.9255099],[4.12071542,50.92554415],[4.12064015,50.92553139]]]}},{"type":"Feature","id":"gebouw/Gebouw.16566071/0","properties":{"source":"Digitaal Vlaanderen Gebouwenregister","source_id":"gebouw/Gebouw.16566071/0","kind":"building","height_m":7.88,"status":null},"geometry":{"type":"Polygon","coordinates":[[[4.11933599,50.92797599],[4.11934657,50.92799046],[4.11923473,50.92802311],[4.11922416,50.92800864],[4.11933599,50.92797599]]]}},{"type":"Feature","id":"gebouw/Gebouw.16566712/0","properties":{"source":"Digitaal Vlaanderen Gebouwenregister","source_id":"gebouw/Gebouw.16566712/0","kind":"building","height_m":5.72,"status":null},"geometry":{"type":"Polygon","coordinates":[[[4.12114214,50.92728245],[4.12105614,50.92728298],[4.12105532,50.92726873],[4.12101025,50.92726973],[4.12100867,50.9272414],[4.12110102,50.92723935],[4.12110169,50.9272514],[4.12126008,50.92725451],[4.12123283,50.92728188],[4.12114214,50.92728245]]]}},{"type":"Feature","id":"gebouw/Gebouw.16566773/0","properties":{"source":"Digitaal Vlaanderen Gebouwenregister","source_id":"gebouw/Gebouw.16566773/0","kind":"building","height_m":9.32,"status":null},"geometry":{"type":"Polygon","coordinates":[[[4.12039679,50.92506253],[4.12043792,50.92496121],[4.12049612,50.92497065],[4.12046053,50.92505833],[4.12042299,50.92506678],[4.12039679,50.92506253]]]}},{"type":"Feature","id":"gebouw/Gebouw.16566862/0","properties":{"source":"Digitaal Vlaanderen Gebouwenregister","source_id":"gebouw/Gebouw.16566862/0","kind":"building","height_m":7.88,"status":null},"geometry":{"type":"Polygon","coordinates":[[[4.12253178,50.92654637],[4.12272207,50.92654878],[4.12271623,50.92673273],[4.12251739,50.92673021],[4.12253178,50.92654637]]]}},{"type":"Feature","id":"gebouw/Gebouw.16566864/0","properties":{"source":"Digitaal Vlaanderen Gebouwenregister","source_id":"gebouw/Gebouw.16566864/0","kind":"building","height_m":9.32,"status":null},"geometry":{"type":"Polygon","coordinates":[[[4.11687781,50.92798687],[4.11696674,50.92796209],[4.11698852,50.92799331],[4.11699865,50.92799048],[4.11701797,50.92801818],[4.11691892,50.92804578],[4.11687781,50.92798687]]]}},{"type":"Feature","id":"gebouw/Gebouw.16566915/0","properties":{"source":"Digitaal Vlaanderen Gebouwenregister","source_id":"gebouw/Gebouw.16566915/0","kind":"building","height_m":5.72,"status":null},"geometry":{"type":"Polygon","coordinates":[[[4.11779693,50.92733787],[4.11777852,50.92730972],[4.11783805,50.92729416],[4.11783327,50.92728102],[4.11794361,50.92725178],[4.11796336,50.92730286],[4.11785336,50.92731593],[4.11785646,50.92732232],[4.11779693,50.92733787]]]}},{"type":"Feature","id":"gebouw/Gebouw.16567034/0","properties":{"source":"Digitaal Vlaanderen Gebouwenregister","source_id":"gebouw/Gebouw.16567034/0","kind":"building","height_m":5.72,"status":null},"geometry":{"type":"Polygon","coordinates":[[[4.11816502,50.9273867],[4.11825608,50.92736138],[4.11827876,50.92739394],[4.11818769,50.92741927],[4.11816502,50.9273867]]]}},{"type":"Feature","id":"gebouw/Gebouw.16567040/0","properties":{"source":"Digitaal Vlaanderen Gebouwenregister","source_id":"gebouw/Gebouw.16567040/0","kind":"building","height_m":5.0,"status":null},"geometry":{"type":"Polygon","coordinates":[[[4.12107536,50.92828447],[4.12109055,50.92831023],[4.12104579,50.92832076],[4.12103061,50.928295],[4.12107536,50.92828447]]]}},{"type":"Feature","id":"gebouw/Gebouw.16567044/0","properties":{"source":"Digitaal Vlaanderen Gebouwenregister","source_id":"gebouw/Gebouw.16567044/0","kind":"building","height_m":7.88,"status":null},"geometry":{"type":"Polygon","coordinates":[[[4.1214133,50.92429851],[4.12154238,50.9243163],[4.12152686,50.92436129],[4.12139778,50.92434349],[4.1214133,50.92429851]]]}},{"type":"Feature","id":"gebouw/Gebouw.16579979/0","properties":{"source":"Digitaal Vlaanderen Gebouwenregister","source_id":"gebouw/Gebouw.16579979/0","kind":"building","height_m":7.16,"status":null},"geometry":{"type":"Polygon","coordinates":[[[4.11936868,50.92751291],[4.11930297,50.92741548],[4.11948859,50.92736547],[4.1195311,50.92742849],[4.11943996,50.92745305],[4.11946317,50.92748746],[4.11936868,50.92751291]]]}},{"type":"Feature","id":"gebouw/Gebouw.16580118/0","properties":{"source":"Digitaal Vlaanderen Gebouwenregister","source_id":"gebouw/Gebouw.16580118/0","kind":"building","height_m":6.44,"status":null},"geometry":{"type":"Polygon","coordinates":[[[4.1214067,50.9247025],[4.12131774,50.92468255],[4.12133909,50.92464255],[4.12134437,50.92464372],[4.12135126,50.92463028],[4.12129034,50.92461701],[4.12128983,50.92461817],[4.12128711,50.92461753],[4.12128771,50.92461643],[4.12127614,50.92461391],[4.12127564,50.92461483],[4.12127331,50.92461429],[4.1212738,50.9246134],[4.12126644,50.9246118],[4.12126291,50.92461839],[4.12120699,50.92460714],[4.12119462,50.92462906],[4.12119194,50.92462847],[4.12119306,50.92462644],[4.12103321,50.92459034],[4.12108971,50.92449042],[4.1213063,50.92453901],[4.12128085,50.92458433],[4.12129641,50.92458782],[4.12132994,50.9245281],[4.12143677,50.92455207],[4.121383,50.92464782],[4.12142289,50.92465677],[4.12144767,50.92462029],[4.12148782,50.92462951],[4.12149528,50.92461623],[4.12154358,50.92462707],[4.12153506,50.92464224],[4.12157846,50.92465198],[4.12155963,50.9246855],[4.12143228,50.92465694],[4.1214067,50.9247025]]]}},{"type":"Feature","id":"gebouw/Gebouw.16586097/0","properties":{"source":"Digitaal Vlaanderen Gebouwenregister","source_id":"gebouw/Gebouw.16586097/0","kind":"building","height_m":7.16,"status":null},"geometry":{"type":"Polygon","coordinates":[[[4.12036006,50.92819839],[4.12033481,50.92820407],[4.12024777,50.92804983],[4.12027785,50.92804305],[4.12037215,50.92802179],[4.12037653,50.92802955],[4.12040104,50.92807298],[4.12043315,50.92812989],[4.12052284,50.92810968],[4.12050901,50.92808517],[4.12066507,50.92805],[4.12070494,50.92812065],[4.12036006,50.92819839]]]}},{"type":"Feature","id":"gebouw/Gebouw.16586235/0","properties":{"source":"Digitaal Vlaanderen Gebouwenregister","source_id":"gebouw/Gebouw.16586235/0","kind":"building","height_m":5.72,"status":null},"geometry":{"type":"Polygon","coordinates":[[[4.1217565,50.9279758],[4.1217648,50.92801044],[4.12141515,50.92800884],[4.12141733,50.92796801],[4.12141079,50.9279675],[4.12140618,50.92796652],[4.12139966,50.92796237],[4.12139957,50.92795993],[4.12136933,50.9279623],[4.12136997,50.92796557],[4.12124451,50.92797541],[4.12123975,50.92795114],[4.12122158,50.92795263],[4.12121081,50.92790048],[4.12138632,50.92788652],[4.12140832,50.92788477],[4.1214244,50.92795768],[4.12143279,50.92795694],[4.12143778,50.92795866],[4.12144122,50.92796134],[4.12144311,50.92796767],[4.12157315,50.92796871],[4.12157338,50.92795753],[4.12175166,50.92795896],[4.12175132,50.92797576],[4.1217565,50.9279758]]]}},{"type":"Feature","id":"gebouw/Gebouw.16586326/0","properties":{"source":"Digitaal Vlaanderen Gebouwenregister","source_id":"gebouw/Gebouw.16586326/0","kind":"building","height_m":5.72,"status":null},"geometry":{"type":"Polygon","coordinates":[[[4.12121081,50.92790048],[4.12117199,50.92790357],[4.12115788,50.92783921],[4.12132225,50.92782475],[4.12132417,50.92783344],[4.12137369,50.92782908],[4.12138632,50.92788652],[4.12121081,50.92790048]]]}},{"type":"Feature","id":"gebouw/Gebouw.16586775/0","properties":{"source":"Digitaal Vlaanderen Gebouwenregister","source_id":"gebouw/Gebouw.16586775/0","kind":"building","height_m":6.44,"status":null},"geometry":{"type":"Polygon","coordinates":[[[4.12072353,50.92828076],[4.12055554,50.92832844],[4.12053333,50.92829684],[4.12054582,50.92829335],[4.12052719,50.92826682],[4.12068265,50.92822269],[4.12072353,50.92828076]]]}},{"type":"Feature","id":"gebouw/Gebouw.16586930/0","properties":{"source":"Digitaal Vlaanderen Gebouwenregister","source_id":"gebouw/Gebouw.16586930/0","kind":"building","height_m":7.16,"status":null},"geometry":{"type":"Polygon","coordinates":[[[4.12068265,50.92822269],[4.12052719,50.92826682],[4.12050954,50.9282417],[4.12049673,50.92824501],[4.12047338,50.9282117],[4.12064174,50.92816456],[4.12068265,50.92822269]]]}},{"type":"Feature","id":"gebouw/Gebouw.16587094/0","properties":{"source":"Digitaal Vlaanderen Gebouwenregister","source_id":"gebouw/Gebouw.16587094/0","kind":"building","height_m":9.32,"status":null},"geometry":{"type":"Polygon","coordinates":[[[4.12024264,50.92671036],[4.12021145,50.92663524],[4.12033153,50.92661532],[4.12036305,50.92669123],[4.12038172,50.92668813],[4.12039763,50.92672536],[4.12024647,50.92675116],[4.12023038,50.9267124],[4.12024264,50.92671036]]]}},{"type":"Feature","id":"gebouw/Gebouw.16588762/0","properties":{"source":"Digitaal Vlaanderen Gebouwenregister","source_id":"gebouw/Gebouw.16588762/0","kind":"building","height_m":5.72,"status":null},"geometry":{"type":"Polygon","coordinates":[[[4.12016288,50.92630471],[4.12029117,50.92630049],[4.12029544,50.92637003],[4.12028803,50.92637009],[4.12029423,50.92647431],[4.12030195,50.92647406],[4.12030454,50.92651178],[4.1202989,50.92651193],[4.12031098,50.92656331],[4.12014554,50.92659642],[4.12012011,50.92655862],[4.12011349,50.92654878],[4.1201069,50.92653899],[4.12016517,50.92652986],[4.12016013,50.92651678],[4.12018888,50.92651584],[4.12018585,50.92647901],[4.12015958,50.92647988],[4.12015398,50.92641185],[4.12017164,50.92641127],[4.12016288,50.92630471]]]}},{"type":"Feature","id":"gebouw/Gebouw.16600067/0","properties":{"source":"Digitaal Vlaanderen Gebouwenregister","source_id":"gebouw/Gebouw.16600067/0","kind":"building","height_m":5.72,"status":null},"geometry":{"type":"Polygon","coordinates":[[[4.11961724,50.92805153],[4.11968863,50.92803053],[4.11972089,50.92807435],[4.1196495,50.92809535],[4.11961724,50.92805153]]]}},{"type":"Feature","id":"gebouw/Gebouw.16600278/0","properties":{"source":"Digitaal Vlaanderen Gebouwenregister","source_id":"gebouw/Gebouw.16600278/0","kind":"building","height_m":6.44,"status":null},"geometry":{"type":"Polygon","coordinates":[[[4.11954764,50.92682048],[4.11960697,50.92680728],[4.11961175,50.92681828],[4.119648,50.92681199],[4.11966388,50.92684853],[4.11956713,50.92686532],[4.11954764,50.92682048]]]}},{"type":"Feature","id":"gebouw/Gebouw.16600288/0","properties":{"source":"Digitaal Vlaanderen Gebouwenregister","source_id":"gebouw/Gebouw.16600288/0","kind":"building","height_m":8.6,"status":null},"geometry":{"type":"Polygon","coordinates":[[[4.12197927,50.92674691],[4.12204509,50.92674197],[4.1220546,50.92679252],[4.12198878,50.92679747],[4.12197927,50.92674691]]]}},{"type":"Feature","id":"gebouw/Gebouw.16600492/0","properties":{"source":"Digitaal Vlaanderen Gebouwenregister","source_id":"gebouw/Gebouw.16600492/0","kind":"building","height_m":9.32,"status":null},"geometry":{"type":"Polygon","coordinates":[[[4.11687242,50.92769221],[4.11682791,50.92770469],[4.11677482,50.92762925],[4.11681926,50.92761676],[4.11687242,50.92769221]]]}},{"type":"Feature","id":"gebouw/Gebouw.16600592/0","properties":{"source":"Digitaal Vlaanderen Gebouwenregister","source_id":"gebouw/Gebouw.16600592/0","kind":"building","height_m":5.72,"status":null},"geometry":{"type":"Polygon","coordinates":[[[4.1220939,50.92638066],[4.12210316,50.9264336],[4.12200125,50.92644071],[4.12199334,50.92639543],[4.121992,50.92638777],[4.1220939,50.92638066]]]}},{"type":"Feature","id":"gebouw/Gebouw.16600593/0","properties":{"source":"Digitaal Vlaanderen Gebouwenregister","source_id":"gebouw/Gebouw.16600593/0","kind":"building","height_m":6.44,"status":null},"geometry":{"type":"Polygon","coordinates":[[[4.12105012,50.92594648],[4.12093457,50.92592738],[4.1209223,50.92596282],[4.1210356,50.92598155],[4.12105012,50.92594648]]]}},{"type":"Feature","id":"gebouw/Gebouw.16600846/0","properties":{"source":"Digitaal Vlaanderen Gebouwenregister","source_id":"gebouw/Gebouw.16600846/0","kind":"building","height_m":7.16,"status":null},"geometry":{"type":"Polygon","coordinates":[[[4.11999539,50.92584108],[4.12003274,50.92584699],[4.12005292,50.92585019],[4.12006976,50.9258077],[4.12020371,50.92582891],[4.12018516,50.92587571],[4.12021433,50.92588033],[4.12019221,50.92593615],[4.12001684,50.92590839],[4.12001412,50.92591527],[4.11996161,50.92590695],[4.11999539,50.92584108]]]}},{"type":"Feature","id":"gebouw/Gebouw.16600849/0","properties":{"source":"Digitaal Vlaanderen Gebouwenregister","source_id":"gebouw/Gebouw.16600849/0","kind":"building","height_m":9.32,"status":null},"geometry":{"type":"Polygon","coordinates":[[[4.11740327,50.92700596],[4.11746453,50.92700403],[4.11746667,50.92703124],[4.11740542,50.92703318],[4.11740327,50.92700596]]]}},{"type":"Feature","id":"gebouw/Gebouw.16601066/0","properties":{"source":"Digitaal Vlaanderen Gebouwenregister","source_id":"gebouw/Gebouw.16601066/0","kind":"building","height_m":9.32,"status":null},"geometry":{"type":"Polygon","coordinates":[[[4.12154439,50.92722988],[4.12154595,50.92718998],[4.12175892,50.92719331],[4.12175716,50.92723837],[4.12167636,50.92723711],[4.12167664,50.92722997],[4.12167517,50.92722994],[4.1216749,50.92723697],[4.12161534,50.92723605],[4.12161554,50.92723099],[4.12154439,50.92722988]]]}},{"type":"Feature","id":"gebouw/Gebouw.16601190/0","properties":{"source":"Digitaal Vlaanderen Gebouwenregister","source_id":"gebouw/Gebouw.16601190/0","kind":"building","height_m":7.88,"status":null},"geometry":{"type":"Polygon","coordinates":[[[4.11933614,50.92796551],[4.11940449,50.92794705],[4.11943176,50.92798737],[4.11936342,50.92800584],[4.11933614,50.92796551]]]}},{"type":"Feature","id":"gebouw/Gebouw.16601261/0","properties":{"source":"Digitaal Vlaanderen Gebouwenregister","source_id":"gebouw/Gebouw.16601261/0","kind":"building","height_m":8.6,"status":null},"geometry":{"type":"Polygon","coordinates":[[[4.117586,50.92778298],[4.1175387,50.9277966],[4.11751126,50.92775705],[4.11755885,50.92774384],[4.117586,50.92778298]]]}},{"type":"Feature","id":"gebouw/Gebouw.16601269/0","properties":{"source":"Digitaal Vlaanderen Gebouwenregister","source_id":"gebouw/Gebouw.16601269/0","kind":"building","height_m":9.32,"status":null},"geometry":{"type":"Polygon","coordinates":[[[4.12105031,50.92707961],[4.12095292,50.92708414],[4.12094605,50.92702519],[4.12093044,50.92689133],[4.12102741,50.92688681],[4.12103148,50.92692169],[4.12104634,50.926921],[4.1210612,50.92704857],[4.12104677,50.92704924],[4.12105031,50.92707961]]]}},{"type":"Feature","id":"gebouw/Gebouw.16603944/0","properties":{"source":"Digitaal Vlaanderen Gebouwenregister","source_id":"gebouw/Gebouw.16603944/0","kind":"building","height_m":5.0,"status":null},"geometry":{"type":"Polygon","coordinates":[[[4.12239813,50.92645638],[4.12217856,50.92646027],[4.12217791,50.92638768],[4.12217951,50.92638767],[4.12217947,50.92638364],[4.12222523,50.92638268],[4.12222534,50.92638618],[4.1224027,50.9263829],[4.12239813,50.92645638]]]}},{"type":"Feature","id":"gebouw/Gebouw.16604499/0","properties":{"source":"Digitaal Vlaanderen Gebouwenregister","source_id":"gebouw/Gebouw.16604499/0","kind":"building","height_m":6.44,"status":null},"geometry":{"type":"Polygon","coordinates":[[[4.11923478,50.92701293],[4.11898274,50.92708812],[4.11898133,50.92708623],[4.11891956,50.92700353],[4.1191716,50.92692834],[4.11923478,50.92701293]]]}},{"type":"Feature","id":"gebouw/Gebouw.16605909/0","properties":{"source":"Digitaal Vlaanderen Gebouwenregister","source_id":"gebouw/Gebouw.16605909/0","kind":"building","height_m":8.6,"status":null},"geometry":{"type":"Polygon","coordinates":[[[4.12012587,50.92752701],[4.12013745,50.92755648],[4.12020553,50.9275458],[4.12020811,50.92755238],[4.12022277,50.92755008],[4.12022403,50.92755327],[4.12028032,50.92754444],[4.12030075,50.92759647],[4.1200536,50.92763713],[4.12003031,50.92758059],[4.12001864,50.92758247],[4.12000412,50.92754681],[4.12012587,50.92752701]]]}},{"type":"Feature","id":"gebouw/Gebouw.16606218/0","properties":{"source":"Digitaal Vlaanderen Gebouwenregister","source_id":"gebouw/Gebouw.16606218/0","kind":"building","height_m":9.32,"status":null},"geometry":{"type":"Polygon","coordinates":[[[4.11873504,50.92639328],[4.11871266,50.92636168],[4.11869427,50.9263669],[4.11867151,50.92633476],[4.11849673,50.9263842],[4.11854177,50.9264478],[4.11873504,50.92639328]]]}},{"type":"Feature","id":"gebouw/Gebouw.16610723/0","properties":{"source":"Digitaal Vlaanderen Gebouwenregister","source_id":"gebouw/Gebouw.16610723/0","kind":"building","height_m":7.16,"status":null},"geometry":{"type":"Polygon","coordinates":[[[4.12132657,50.92768655],[4.1213305,50.92771086],[4.12131024,50.92771217],[4.12131089,50.92771623],[4.12135528,50.92771336],[4.12136281,50.92776],[4.12132065,50.92776272],[4.12132214,50.92777198],[4.12124188,50.92777716],[4.12124148,50.92777469],[4.12124884,50.92777424],[4.1212434,50.92774857],[4.12117273,50.92775454],[4.12115967,50.92769471],[4.12132657,50.92768655]]]}},{"type":"Feature","id":"gebouw/Gebouw.16610870/0","properties":{"source":"Digitaal Vlaanderen Gebouwenregister","source_id":"gebouw/Gebouw.16610870/0","kind":"building","height_m":7.16,"status":null},"geometry":{"type":"Polygon","coordinates":[[[4.12132657,50.92768655],[4.12115967,50.92769471],[4.12114544,50.92762934],[4.12125744,50.9276196],[4.12126246,50.92765116],[4.12132025,50.92764743],[4.12132657,50.92768655]]]}},{"type":"Feature","id":"gebouw/Gebouw.16612406/0","properties":{"source":"Digitaal Vlaanderen Gebouwenregister","source_id":"gebouw/Gebouw.16612406/0","kind":"building","height_m":9.32,"status":null},"geometry":{"type":"Polygon","coordinates":[[[4.119835,50.92605389],[4.11974873,50.92604023],[4.11981997,50.92586513],[4.11983735,50.92586742],[4.11984794,50.92586881],[4.11985342,50.92585216],[4.1196599,50.92582673],[4.11966168,50.92582189],[4.1196893,50.92574679],[4.11977134,50.92575859],[4.11978235,50.9257257],[4.1198589,50.9257345],[4.11990966,50.92574034],[4.1198953,50.92577655],[4.11987715,50.92582236],[4.11999074,50.92584034],[4.11996161,50.92590695],[4.11993132,50.92598338],[4.11992309,50.92598208],[4.11986698,50.92597319],[4.119835,50.92605389]]]}},{"type":"Feature","id":"gebouw/Gebouw.16612563/0","properties":{"source":"Digitaal Vlaanderen Gebouwenregister","source_id":"gebouw/Gebouw.16612563/0","kind":"building","height_m":6.44,"status":null},"geometry":{"type":"Polygon","coordinates":[[[4.1215032,50.92833359],[4.12137011,50.92833946],[4.12126907,50.92834391],[4.12125545,50.92822051],[4.12135649,50.92821605],[4.12136118,50.9282585],[4.12138297,50.92825754],[4.12138238,50.92825222],[4.12149368,50.92824731],[4.12149427,50.92825264],[4.1215032,50.92833359]]]}},{"type":"Feature","id":"gebouw/Gebouw.16612809/0","properties":{"source":"Digitaal Vlaanderen Gebouwenregister","source_id":"gebouw/Gebouw.16612809/0","kind":"building","height_m":7.16,"status":null},"geometry":{"type":"Polygon","coordinates":[[[4.11977538,50.92693295],[4.11989274,50.92691184],[4.11993132,50.92691658],[4.11994188,50.92693709],[4.11991627,50.92695543],[4.1197953,50.92697719],[4.11977538,50.92693295]]]}},{"type":"Feature","id":"gebouw/Gebouw.16614966/0","properties":{"source":"Digitaal Vlaanderen Gebouwenregister","source_id":"gebouw/Gebouw.16614966/0","kind":"building","height_m":7.88,"status":null},"geometry":{"type":"Polygon","coordinates":[[[4.12076367,50.9283378],[4.12060879,50.92838176],[4.12059087,50.92835645],[4.12057795,50.92836011],[4.12055554,50.92832844],[4.12072353,50.92828076],[4.12076367,50.9283378]]]}},{"type":"Feature","id":"gebouw/Gebouw.16615705/0","properties":{"source":"Digitaal Vlaanderen Gebouwenregister","source_id":"gebouw/Gebouw.16615705/0","kind":"building","height_m":5.72,"status":null},"geometry":{"type":"Polygon","coordinates":[[[4.12145272,50.92632845],[4.12128764,50.92630345],[4.12131659,50.92622706],[4.12143918,50.92624562],[4.12145943,50.9261922],[4.12141196,50.92618501],[4.12140711,50.92619781],[4.12133823,50.92618738],[4.12134579,50.92616743],[4.12129874,50.92616031],[4.12123002,50.92615004],[4.12127761,50.92602163],[4.12129237,50.92598183],[4.12129928,50.92596318],[4.12143085,50.92598266],[4.12142331,50.926003],[4.12141058,50.92603736],[4.121409,50.92604161],[4.12144844,50.92604659],[4.12145054,50.92604208],[4.12160918,50.92606084],[4.12155264,50.92628319],[4.12153155,50.92627994],[4.12151299,50.92632801],[4.12145613,50.92631925],[4.12145272,50.92632845]]]}},{"type":"Feature","id":"gebouw/Gebouw.16615774/0","properties":{"source":"Digitaal Vlaanderen Gebouwenregister","source_id":"gebouw/Gebouw.16615774/0","kind":"building","height_m":5.0,"status":null},"geometry":{"type":"Polygon","coordinates":[[[4.12202609,50.92661185],[4.12196895,50.92661543],[4.12195894,50.92655167],[4.12195153,50.92650447],[4.12182125,50.92651263],[4.1218293,50.92656394],[4.12184434,50.92656299],[4.12186173,50.92667378],[4.12197106,50.92666692],[4.12199541,50.926822],[4.12205942,50.92682419],[4.12202609,50.92661185]]]}},{"type":"Feature","id":"gebouw/Gebouw.16616919/0","properties":{"source":"Digitaal Vlaanderen Gebouwenregister","source_id":"gebouw/Gebouw.16616919/0","kind":"building","height_m":7.88,"status":null},"geometry":{"type":"Polygon","coordinates":[[[4.11933886,50.92715772],[4.119123,50.92721987],[4.11907288,50.92715034],[4.11928873,50.92708819],[4.11933886,50.92715772]]]}},{"type":"Feature","id":"gebouw/Gebouw.16619167/0","properties":{"source":"Digitaal Vlaanderen Gebouwenregister","source_id":"gebouw/Gebouw.16619167/0","kind":"building","height_m":8.6,"status":null},"geometry":{"type":"Polygon","coordinates":[[[4.12061735,50.9274434],[4.12060698,50.9274188],[4.12064242,50.92741284],[4.12062294,50.92736663],[4.1207829,50.92733969],[4.12079786,50.92737518],[4.1207864,50.92737721],[4.1208,50.92741029],[4.12080218,50.92741559],[4.12079986,50.92741595],[4.12080041,50.92741734],[4.12067726,50.92743677],[4.12067557,50.92743285],[4.12061735,50.9274434]]]}},{"type":"Feature","id":"gebouw/Gebouw.16621611/0","properties":{"source":"Digitaal Vlaanderen Gebouwenregister","source_id":"gebouw/Gebouw.16621611/0","kind":"building","height_m":9.32,"status":null},"geometry":{"type":"Polygon","coordinates":[[[4.11923978,50.92736503],[4.11918582,50.92729084],[4.11923249,50.92727741],[4.11922567,50.92726795],[4.11929336,50.92724846],[4.11930058,50.92725848],[4.11933749,50.92724786],[4.11933109,50.92723898],[4.11938635,50.92722307],[4.11940579,50.92725005],[4.11939852,50.92726242],[4.11939336,50.92726387],[4.11940115,50.92727491],[4.11940661,50.92727323],[4.11942584,50.9272778],[4.11944577,50.9273052],[4.11923978,50.92736503]]]}},{"type":"Feature","id":"gebouw/Gebouw.16621686/0","properties":{"source":"Digitaal Vlaanderen Gebouwenregister","source_id":"gebouw/Gebouw.16621686/0","kind":"building","height_m":7.88,"status":null},"geometry":{"type":"Polygon","coordinates":[[[4.12076367,50.9283378],[4.12080565,50.92839743],[4.12063804,50.92844455],[4.12061472,50.92841141],[4.12062728,50.92840791],[4.12060879,50.92838176],[4.12076367,50.9283378]]]}},{"type":"Feature","id":"gebouw/Gebouw.16622068/0","properties":{"source":"Digitaal Vlaanderen Gebouwenregister","source_id":"gebouw/Gebouw.16622068/0","kind":"building","height_m":5.72,"status":null},"geometry":{"type":"Polygon","coordinates":[[[4.11980801,50.92828812],[4.11979672,50.92829136],[4.11977585,50.92826182],[4.11984583,50.92824205],[4.11980292,50.92818138],[4.11988135,50.92815923],[4.11985202,50.92811776],[4.11999448,50.92807752],[4.12002449,50.92811995],[4.12001176,50.92812363],[4.1200258,50.92814318],[4.12002705,50.92814288],[4.12003016,50.92814678],[4.12002861,50.92814729],[4.12004887,50.92817608],[4.11997209,50.92819766],[4.11998427,50.92821495],[4.11993024,50.92823015],[4.11992616,50.92822435],[4.11987474,50.92823882],[4.1198924,50.92826392],[4.11980801,50.92828812]]]}},{"type":"Feature","id":"gebouw/Gebouw.16622465/0","properties":{"source":"Digitaal Vlaanderen Gebouwenregister","source_id":"gebouw/Gebouw.16622465/0","kind":"building","height_m":9.32,"status":null},"geometry":{"type":"Polygon","coordinates":[[[4.12128781,50.92840284],[4.12146632,50.92838242],[4.12148427,50.92844504],[4.12141446,50.92845303],[4.12141825,50.92846627],[4.12148137,50.92845904],[4.12148772,50.9284812],[4.12150274,50.92853363],[4.12146793,50.92853761],[4.12147454,50.9285607],[4.12133706,50.92857476],[4.12131936,50.92851298],[4.12131518,50.92849839],[4.12128781,50.92840284]]]}},{"type":"Feature","id":"gebouw/Gebouw.16623914/0","properties":{"source":"Digitaal Vlaanderen Gebouwenregister","source_id":"gebouw/Gebouw.16623914/0","kind":"building","height_m":9.32,"status":null},"geometry":{"type":"Polygon","coordinates":[[[4.11977044,50.92779489],[4.119657,50.92782785],[4.11965507,50.92782516],[4.11960945,50.92776151],[4.11976201,50.92771815],[4.11979709,50.92776776],[4.11975862,50.92777864],[4.11977044,50.92779489]]]}},{"type":"Feature","id":"gebouw/Gebouw.16623967/0","properties":{"source":"Digitaal Vlaanderen Gebouwenregister","source_id":"gebouw/Gebouw.16623967/0","kind":"building","height_m":7.16,"status":null},"geometry":{"type":"Polygon","coordinates":[[[4.12021876,50.92838424],[4.11999338,50.9284509],[4.11997763,50.92842963],[4.12004031,50.92841109],[4.12000756,50.92836687],[4.12006547,50.92834975],[4.12007709,50.92836544],[4.12018188,50.92833444],[4.12021876,50.92838424]]]}},{"type":"Feature","id":"gebouw/Gebouw.16624389/0","properties":{"source":"Digitaal Vlaanderen Gebouwenregister","source_id":"gebouw/Gebouw.16624389/0","kind":"building","height_m":8.6,"status":null},"geometry":{"type":"Polygon","coordinates":[[[4.12114346,50.92735405],[4.1212789,50.927348],[4.12129617,50.92750244],[4.12116004,50.92750811],[4.12115572,50.92746666],[4.12116534,50.9274664],[4.1211582,50.92739519],[4.1211481,50.9273955],[4.12114346,50.92735405]]]}},{"type":"Feature","id":"gebouw/Gebouw.16624453/0","properties":{"source":"Digitaal Vlaanderen Gebouwenregister","source_id":"gebouw/Gebouw.16624453/0","kind":"building","height_m":9.32,"status":null},"geometry":{"type":"Polygon","coordinates":[[[4.12063711,50.92617531],[4.12052669,50.92615035],[4.12067491,50.92588843],[4.12070661,50.9258956],[4.12071653,50.92587806],[4.12074602,50.92588473],[4.12080908,50.92577322],[4.12084508,50.92578136],[4.12086975,50.92573778],[4.12079144,50.92572008],[4.12082428,50.92566203],[4.12075611,50.92564889],[4.12077944,50.92560804],[4.12078174,50.92560401],[4.12091661,50.92563449],[4.1209205,50.92562763],[4.12094699,50.92563282],[4.12098069,50.92563941],[4.12112613,50.92566787],[4.12122497,50.92568722],[4.12118661,50.92577625],[4.12118075,50.92578984],[4.12115576,50.92584785],[4.12088852,50.92580078],[4.12087162,50.9257978],[4.12080446,50.92591774],[4.12081975,50.92592118],[4.12068256,50.92616136],[4.12064933,50.92615393],[4.12063711,50.92617531]]]}},{"type":"Feature","id":"gebouw/Gebouw.16625933/0","properties":{"source":"Digitaal Vlaanderen Gebouwenregister","source_id":"gebouw/Gebouw.16625933/0","kind":"building","height_m":6.44,"status":null},"geometry":{"type":"Polygon","coordinates":[[[4.11946719,50.92765856],[4.11946391,50.92765367],[4.11940758,50.92766876],[4.11934468,50.92757502],[4.11958708,50.92751007],[4.1196293,50.92757298],[4.11953813,50.92759741],[4.11956209,50.92763313],[4.11946719,50.92765856]]]}},{"type":"Feature","id":"gebouw/Gebouw.16630234/0","properties":{"source":"Digitaal Vlaanderen Gebouwenregister","source_id":"gebouw/Gebouw.16630234/0","kind":"building","height_m":8.6,"status":null},"geometry":{"type":"Polygon","coordinates":[[[4.11969402,50.92796992],[4.11995949,50.92789365],[4.11992051,50.92783944],[4.11964758,50.92791782],[4.11961924,50.92787841],[4.11945018,50.92792684],[4.11948179,50.9279708],[4.11960937,50.92793416],[4.11964931,50.92792269],[4.11968208,50.92796825],[4.11968511,50.92797247],[4.11969402,50.92796992]]]}},{"type":"Feature","id":"gebouw/Gebouw.16633269/0","properties":{"source":"Digitaal Vlaanderen Gebouwenregister","source_id":"gebouw/Gebouw.16633269/0","kind":"building","height_m":6.44,"status":null},"geometry":{"type":"Polygon","coordinates":[[[4.12005028,50.92728894],[4.11985626,50.92732766],[4.11982968,50.92727399],[4.11989799,50.92726035],[4.11988473,50.927234],[4.12001924,50.92720696],[4.12005938,50.92728713],[4.12005028,50.92728894]]]}},{"type":"Feature","id":"gebouw/Gebouw.16635350/0","properties":{"source":"Digitaal Vlaanderen Gebouwenregister","source_id":"gebouw/Gebouw.16635350/0","kind":"building","height_m":7.88,"status":null},"geometry":{"type":"Polygon","coordinates":[[[4.12012587,50.92752701],[4.12000412,50.92754681],[4.12000228,50.92754236],[4.1200036,50.92754204],[4.11999486,50.92752028],[4.11999342,50.92752038],[4.11999006,50.92751307],[4.11999131,50.92751288],[4.1199875,50.92750226],[4.11998602,50.92750229],[4.1199844,50.92749877],[4.11999277,50.92749739],[4.11998028,50.92746558],[4.12015026,50.92743892],[4.1201813,50.927518],[4.12012587,50.92752701]]]}},{"type":"Feature","id":"gebouw/Gebouw.16639170/0","properties":{"source":"Digitaal Vlaanderen Gebouwenregister","source_id":"gebouw/Gebouw.16639170/0","kind":"building","height_m":6.44,"status":null},"geometry":{"type":"Polygon","coordinates":[[[4.11976201,50.92771815],[4.11960945,50.92776151],[4.11956993,50.92770639],[4.11956115,50.92769414],[4.1196249,50.92767589],[4.11963289,50.92768703],[4.11972151,50.92766166],[4.11976201,50.92771815]]]}},{"type":"Feature","id":"gebouw/Gebouw.16639396/0","properties":{"source":"Digitaal Vlaanderen Gebouwenregister","source_id":"gebouw/Gebouw.16639396/0","kind":"building","height_m":7.88,"status":null},"geometry":{"type":"Polygon","coordinates":[[[4.12056405,50.9259393],[4.12045066,50.92616413],[4.12034654,50.92614315],[4.12043917,50.92595949],[4.12028848,50.92592913],[4.12031629,50.92587399],[4.12034004,50.92582691],[4.12049528,50.92585819],[4.12047039,50.92590756],[4.12046449,50.92591924],[4.12056405,50.9259393]]]}},{"type":"Feature","id":"gebouw/Gebouw.16704830/0","properties":{"source":"Digitaal Vlaanderen Gebouwenregister","source_id":"gebouw/Gebouw.16704830/0","kind":"building","height_m":6.44,"status":null},"geometry":{"type":"Polygon","coordinates":[[[4.120608,50.92691144],[4.12032971,50.92695768],[4.12024478,50.92697179],[4.12023218,50.92694171],[4.12031699,50.92692753],[4.1204767,50.92690084],[4.12046697,50.92687758],[4.12046353,50.92686938],[4.12053086,50.92685819],[4.12053415,50.92686605],[4.12058533,50.92685768],[4.120608,50.92691144]]]}},{"type":"Feature","id":"gebouw/Gebouw.16705473/0","properties":{"source":"Digitaal Vlaanderen Gebouwenregister","source_id":"gebouw/Gebouw.16705473/0","kind":"building","height_m":5.72,"status":null},"geometry":{"type":"Polygon","coordinates":[[[4.1200537,50.9280386],[4.11976724,50.92811722],[4.11972027,50.92804886],[4.11980437,50.92802578],[4.11981114,50.92803564],[4.11989513,50.92801259],[4.11987709,50.92798635],[4.11999547,50.92795386],[4.1200537,50.9280386]]]}},{"type":"Feature","id":"gebouw/Gebouw.16730990/0","properties":{"source":"Digitaal Vlaanderen Gebouwenregister","source_id":"gebouw/Gebouw.16730990/0","kind":"building","height_m":7.16,"status":null},"geometry":{"type":"Polygon","coordinates":[[[4.11962003,50.92669291],[4.11957503,50.92670063],[4.11946151,50.9267201],[4.11942756,50.92672593],[4.11942752,50.92672583],[4.11940772,50.92667983],[4.11954468,50.92665629],[4.1195394,50.92664318],[4.11957468,50.92663738],[4.1195889,50.92663505],[4.11962003,50.92669291]]]}},{"type":"Feature","id":"gebouw/Gebouw.16877195/0","properties":{"source":"Digitaal Vlaanderen Gebouwenregister","source_id":"gebouw/Gebouw.16877195/0","kind":"building","height_m":9.32,"status":null},"geometry":{"type":"Polygon","coordinates":[[[4.11954764,50.92682048],[4.11952044,50.92682522],[4.11951949,50.9268227],[4.11950624,50.92682493],[4.11948612,50.92677789],[4.11948992,50.92677721],[4.11948297,50.9267595],[4.11947869,50.92676003],[4.11946151,50.9267201],[4.11957503,50.92670063],[4.11962038,50.92680496],[4.11960697,50.92680728],[4.11954764,50.92682048]]]}},{"type":"Feature","id":"gebouw/Gebouw.16877214/0","properties":{"source":"Digitaal Vlaanderen Gebouwenregister","source_id":"gebouw/Gebouw.16877214/0","kind":"building","height_m":7.88,"status":null},"geometry":{"type":"Polygon","coordinates":[[[4.11930367,50.92684863],[4.11909316,50.92691452],[4.11907616,50.92689284],[4.11916334,50.92686555],[4.11909485,50.92677816],[4.11921819,50.92673956],[4.11930367,50.92684863]]]}},{"type":"Feature","id":"gebouw/Gebouw.16895966/0","properties":{"source":"Digitaal Vlaanderen Gebouwenregister","source_id":"gebouw/Gebouw.16895966/0","kind":"building","height_m":7.16,"status":null},"geometry":{"type":"Polygon","coordinates":[[[4.11995367,50.92627039],[4.11992707,50.92634565],[4.11989498,50.92634112],[4.11985891,50.92644317],[4.11973437,50.92642558],[4.11975653,50.92636289],[4.11973706,50.92636014],[4.11975785,50.92630132],[4.11979977,50.92630724],[4.11981949,50.92625144],[4.11995367,50.92627039]]]}},{"type":"Feature","id":"gebouw/Gebouw.16896464/0","properties":{"source":"Digitaal Vlaanderen Gebouwenregister","source_id":"gebouw/Gebouw.16896464/0","kind":"building","height_m":7.88,"status":null},"geometry":{"type":"Polygon","coordinates":[[[4.12160372,50.9281521],[4.1213141,50.92814827],[4.12131583,50.92809625],[4.12141383,50.92809755],[4.12141326,50.92811456],[4.12143988,50.92811491],[4.12144227,50.92804269],[4.12160728,50.92804487],[4.12160372,50.9281521]]]}},{"type":"Feature","id":"gebouw/Gebouw.16914961/0","properties":{"source":"Digitaal Vlaanderen Gebouwenregister","source_id":"gebouw/Gebouw.16914961/0","kind":"building","height_m":5.0,"status":null},"geometry":{"type":"Polygon","coordinates":[[[4.1198339,50.92832473],[4.11984577,50.92834151],[4.11974178,50.92837088],[4.11970428,50.92831787],[4.11979672,50.92829136],[4.11980801,50.92828812],[4.1198924,50.92826392],[4.11991564,50.92829689],[4.11996318,50.92828351],[4.11995672,50.92827433],[4.12010637,50.92823223],[4.12014667,50.92828945],[4.11994822,50.92834636],[4.11993626,50.92832946],[4.11990488,50.92833832],[4.11988505,50.92831028],[4.1198339,50.92832473]]]}},{"type":"Feature","id":"gebouw/Gebouw.16929250/0","properties":{"source":"Digitaal Vlaanderen Gebouwenregister","source_id":"gebouw/Gebouw.16929250/0","kind":"building","height_m":6.44,"status":null},"geometry":{"type":"Polygon","coordinates":[[[4.12120893,50.92606227],[4.12112465,50.92604749],[4.12111306,50.92604546],[4.12104468,50.92620121],[4.12115461,50.92622049],[4.12122299,50.92606474],[4.12120893,50.92606227]]]}},{"type":"Feature","id":"gebouw/Gebouw.18114665/0","properties":{"source":"Digitaal Vlaanderen Gebouwenregister","source_id":"gebouw/Gebouw.18114665/0","kind":"building","height_m":6.44,"status":null},"geometry":{"type":"Polygon","coordinates":[[[4.12094239,50.92774927],[4.12098906,50.92787161],[4.12079458,50.92790124],[4.12076504,50.92782381],[4.12079366,50.92781945],[4.12077654,50.92777459],[4.12094239,50.92774927]]]}},{"type":"Feature","id":"gebouw/Gebouw.18114879/0","properties":{"source":"Digitaal Vlaanderen Gebouwenregister","source_id":"gebouw/Gebouw.18114879/0","kind":"building","height_m":9.32,"status":null},"geometry":{"type":"Polygon","coordinates":[[[4.12043287,50.92789263],[4.12026496,50.92791837],[4.12025925,50.92790363],[4.12024128,50.92785724],[4.12044915,50.92782509],[4.12047293,50.92788649],[4.12043287,50.92789263]]]}},{"type":"Feature","id":"gebouw/Gebouw.18114880/0","properties":{"source":"Digitaal Vlaanderen Gebouwenregister","source_id":"gebouw/Gebouw.18114880/0","kind":"building","height_m":5.0,"status":null},"geometry":{"type":"Polygon","coordinates":[[[4.12077189,50.92771798],[4.12073569,50.92762042],[4.1208852,50.92759831],[4.12092139,50.92769587],[4.12077189,50.92771798]]]}},{"type":"Feature","id":"gebouw/Gebouw.18115237/0","properties":{"source":"Digitaal Vlaanderen Gebouwenregister","source_id":"gebouw/Gebouw.18115237/0","kind":"building","height_m":5.0,"status":null},"geometry":{"type":"Polygon","coordinates":[[[4.12071034,50.92717413],[4.1207135,50.92718114],[4.12075083,50.92726412],[4.12058254,50.92729437],[4.12056413,50.92725343],[4.12056831,50.92725268],[4.12054598,50.92720304],[4.12071034,50.92717413]]]}},{"type":"Feature","id":"gebouw/Gebouw.18115553/0","properties":{"source":"Digitaal Vlaanderen Gebouwenregister","source_id":"gebouw/Gebouw.18115553/0","kind":"building","height_m":5.72,"status":null},"geometry":{"type":"Polygon","coordinates":[[[4.12113183,50.92651878],[4.12103942,50.92652891],[4.12099886,50.92641313],[4.12099382,50.92639875],[4.12099793,50.92639818],[4.12109072,50.92638522],[4.12113183,50.92651878]]]}},{"type":"Feature","id":"gebouw/Gebouw.18115556/0","properties":{"source":"Digitaal Vlaanderen Gebouwenregister","source_id":"gebouw/Gebouw.18115556/0","kind":"building","height_m":7.88,"status":null},"geometry":{"type":"Polygon","coordinates":[[[4.12072659,50.92648792],[4.12071499,50.92648953],[4.12059481,50.92650621],[4.12054916,50.9263748],[4.12068094,50.92635649],[4.12070237,50.92641818],[4.12072659,50.92648792]]]}},{"type":"Feature","id":"gebouw/Gebouw.18296281/0","properties":{"source":"Digitaal Vlaanderen Gebouwenregister","source_id":"gebouw/Gebouw.18296281/0","kind":"building","height_m":7.16,"status":null},"geometry":{"type":"Polygon","coordinates":[[[4.11753146,50.92624742],[4.11752781,50.92625888],[4.11747455,50.92625211],[4.11745943,50.92625019],[4.11746167,50.92624316],[4.11746648,50.92622805],[4.1174822,50.92623005],[4.11749506,50.92623168],[4.11752167,50.92614809],[4.11756145,50.92615315],[4.11753146,50.92624742]]]}},{"type":"Feature","id":"gebouw/Gebouw.18729230/0","properties":{"source":"Digitaal Vlaanderen Gebouwenregister","source_id":"gebouw/Gebouw.18729230/0","kind":"building","height_m":6.44,"status":null},"geometry":{"type":"Polygon","coordinates":[[[4.12171371,50.92650101],[4.12174255,50.9265882],[4.1215513,50.92661701],[4.12151919,50.92652797],[4.12160172,50.92651653],[4.12171371,50.92650101]]]}},{"type":"Feature","id":"gebouw/Gebouw.18730305/0","properties":{"source":"Digitaal Vlaanderen Gebouwenregister","source_id":"gebouw/Gebouw.18730305/0","kind":"building","height_m":9.32,"status":null},"geometry":{"type":"Polygon","coordinates":[[[4.11971603,50.92800194],[4.11961996,50.92802995],[4.11959578,50.92799814],[4.11968511,50.92797247],[4.11969402,50.92796992],[4.11971603,50.92800194]]]}},{"type":"Feature","id":"gebouw/Gebouw.18730306/0","properties":{"source":"Digitaal Vlaanderen Gebouwenregister","source_id":"gebouw/Gebouw.18730306/0","kind":"building","height_m":5.0,"status":null},"geometry":{"type":"Polygon","coordinates":[[[4.11892678,50.92731488],[4.11890208,50.92732216],[4.11888246,50.92732794],[4.11884513,50.92727583],[4.11889038,50.9272642],[4.11892678,50.92731488]]]}},{"type":"Feature","id":"gebouw/Gebouw.18730835/0","properties":{"source":"Digitaal Vlaanderen Gebouwenregister","source_id":"gebouw/Gebouw.18730835/0","kind":"building","height_m":7.88,"status":null},"geometry":{"type":"Polygon","coordinates":[[[4.12037322,50.92734962],[4.12035097,50.92729041],[4.12044145,50.92727662],[4.12046606,50.92733502],[4.12037322,50.92734962]]]}},{"type":"Feature","id":"gebouw/Gebouw.18730836/0","properties":{"source":"Digitaal Vlaanderen Gebouwenregister","source_id":"gebouw/Gebouw.18730836/0","kind":"building","height_m":8.6,"status":null},"geometry":{"type":"Polygon","coordinates":[[[4.12041627,50.92740465],[4.12040557,50.92737687],[4.12038113,50.92737862],[4.12037578,50.92736277],[4.12039808,50.92735912],[4.12039572,50.92735559],[4.12051172,50.92734343],[4.12052883,50.92738869],[4.12041627,50.92740465]]]}},{"type":"Feature","id":"gebouw/Gebouw.18730919/0","properties":{"source":"Digitaal Vlaanderen Gebouwenregister","source_id":"gebouw/Gebouw.18730919/0","kind":"building","height_m":7.88,"status":null},"geometry":{"type":"Polygon","coordinates":[[[4.11828474,50.92661664],[4.11826183,50.92658723],[4.11832187,50.92657032],[4.11833985,50.92660094],[4.11828474,50.92661664]]]}},{"type":"Feature","id":"gebouw/Gebouw.18854484/0","properties":{"source":"Digitaal Vlaanderen Gebouwenregister","source_id":"gebouw/Gebouw.18854484/0","kind":"building","height_m":8.6,"status":null},"geometry":{"type":"Polygon","coordinates":[[[4.12043287,50.92789263],[4.12044514,50.92792433],[4.12041757,50.92792859],[4.12042894,50.92795795],[4.12028849,50.92797968],[4.12026496,50.92791837],[4.12043287,50.92789263]]]}},{"type":"Feature","id":"gebouw/Gebouw.18962059/0","properties":{"source":"Digitaal Vlaanderen Gebouwenregister","source_id":"gebouw/Gebouw.18962059/0","kind":"building","height_m":7.88,"status":null},"geometry":{"type":"Polygon","coordinates":[[[4.11873504,50.92639328],[4.11854177,50.9264478],[4.11854448,50.92645164],[4.11856566,50.92648154],[4.11858722,50.92647544],[4.11860684,50.92650316],[4.11860812,50.92650496],[4.11876134,50.92646162],[4.11873873,50.92642968],[4.11875702,50.92642425],[4.11873504,50.92639328]]]}},{"type":"Feature","id":"gebouw/Gebouw.18963981/0","properties":{"source":"Digitaal Vlaanderen Gebouwenregister","source_id":"gebouw/Gebouw.18963981/0","kind":"building","height_m":5.72,"status":null},"geometry":{"type":"Polygon","coordinates":[[[4.12105932,50.92707817],[4.12095331,50.92708462],[4.12095186,50.92707505],[4.12094428,50.92702531],[4.12092405,50.92689249],[4.1209303,50.92689211],[4.12103006,50.92688604],[4.12105932,50.92707817]]]}},{"type":"Feature","id":"gebouw/Gebouw.18978204/0","properties":{"source":"Digitaal Vlaanderen Gebouwenregister","source_id":"gebouw/Gebouw.18978204/0","kind":"building","height_m":5.0,"status":null},"geometry":{"type":"Polygon","coordinates":[[[4.12010809,50.92736196],[4.12008863,50.92732309],[4.12006931,50.92732695],[4.12005028,50.92728894],[4.11985626,50.92732766],[4.11989202,50.92739909],[4.12002363,50.92737277],[4.12002928,50.92738407],[4.12011098,50.92736774],[4.12010809,50.92736196]]]}},{"type":"Feature","id":"gebouw/Gebouw.18978265/0","properties":{"source":"Digitaal Vlaanderen Gebouwenregister","source_id":"gebouw/Gebouw.18978265/0","kind":"building","height_m":8.6,"status":null},"geometry":{"type":"Polygon","coordinates":[[[4.12133948,50.92708962],[4.12140172,50.92708884],[4.12139661,50.92692588],[4.12128837,50.92692724],[4.12129329,50.927084],[4.12102255,50.9270925],[4.12102697,50.92717188],[4.1213422,50.92716346],[4.12133948,50.92708962]]]}},{"type":"Feature","id":"gebouw/Gebouw.18987405/0","properties":{"source":"Digitaal Vlaanderen Gebouwenregister","source_id":"gebouw/Gebouw.18987405/0","kind":"building","height_m":7.16,"status":null},"geometry":{"type":"Polygon","coordinates":[[[4.12275327,50.92653055],[4.12264142,50.92652959],[4.1226432,50.92644644],[4.12264737,50.92644648],[4.12264741,50.92644906],[4.12278008,50.92645103],[4.12277955,50.92645967],[4.12280792,50.92646035],[4.12280855,50.92645395],[4.12280579,50.92645391],[4.12280616,50.92644713],[4.12281044,50.92644714],[4.12281019,50.92645135],[4.12286779,50.9264524],[4.12286171,50.92658508],[4.12285049,50.92658498],[4.1227969,50.92658452],[4.12275212,50.92658414],[4.12275327,50.92653055]]]}},{"type":"Feature","id":"gebouw/Gebouw.19624091/0","properties":{"source":"Digitaal Vlaanderen Gebouwenregister","source_id":"gebouw/Gebouw.19624091/0","kind":"building","height_m":7.88,"status":null},"geometry":{"type":"Polygon","coordinates":[[[4.11838042,50.92614936],[4.11833666,50.92609033],[4.11833099,50.92608269],[4.11832093,50.92608549],[4.11830888,50.92606902],[4.11826987,50.92608031],[4.11825486,50.92608465],[4.11825138,50.92610526],[4.11827253,50.92613446],[4.11829951,50.92617172],[4.11838042,50.92614936]]]}},{"type":"Feature","id":"gebouw/Gebouw.19872215/0","properties":{"source":"Digitaal Vlaanderen Gebouwenregister","source_id":"gebouw/Gebouw.19872215/0","kind":"building","height_m":9.32,"status":null},"geometry":{"type":"Polygon","coordinates":[[[4.11973539,50.92660508],[4.11986999,50.92658882],[4.12012011,50.92655862],[4.12011349,50.92654878],[4.1201069,50.92653899],[4.1200537,50.92645993],[4.12004034,50.92646159],[4.11994863,50.92647301],[4.11994555,50.92646314],[4.1199438,50.92645752],[4.11970872,50.92647015],[4.11964256,50.92647957],[4.11958559,50.92648768],[4.11959294,50.92650932],[4.11954422,50.92651514],[4.11958441,50.92662301],[4.11970757,50.92660844],[4.11973539,50.92660508]]]}},{"type":"Feature","id":"gebouw/Gebouw.19872216/0","properties":{"source":"Digitaal Vlaanderen Gebouwenregister","source_id":"gebouw/Gebouw.19872216/0","kind":"building","height_m":5.0,"status":null},"geometry":{"type":"Polygon","coordinates":[[[4.1197584,50.92666917],[4.11973539,50.92660508],[4.11970757,50.92660844],[4.11958441,50.92662301],[4.1195889,50.92663505],[4.11962003,50.92669291],[4.11967666,50.92668319],[4.1197584,50.92666917]]]}},{"type":"Feature","id":"gebouw/Gebouw.19872268/0","properties":{"source":"Digitaal Vlaanderen Gebouwenregister","source_id":"gebouw/Gebouw.19872268/0","kind":"building","height_m":7.16,"status":null},"geometry":{"type":"Polygon","coordinates":[[[4.11992309,50.92598208],[4.11986698,50.92597319],[4.119835,50.92605389],[4.11974873,50.92604023],[4.11981997,50.92586513],[4.11983735,50.92586742],[4.11985438,50.92586966],[4.11986224,50.92585332],[4.11987536,50.92582207],[4.11999539,50.92584108],[4.11996161,50.92590695],[4.11992309,50.92598208]]]}},{"type":"Feature","id":"gebouw/Gebouw.19872270/0","properties":{"source":"Digitaal Vlaanderen Gebouwenregister","source_id":"gebouw/Gebouw.19872270/0","kind":"building","height_m":8.6,"status":null},"geometry":{"type":"Polygon","coordinates":[[[4.11983983,50.92576632],[4.11985047,50.92573354],[4.11990966,50.92574034],[4.11989571,50.92577357],[4.11983983,50.92576632]]]}},{"type":"Feature","id":"gebouw/Gebouw.19872278/0","properties":{"source":"Digitaal Vlaanderen Gebouwenregister","source_id":"gebouw/Gebouw.19872278/0","kind":"building","height_m":9.32,"status":null},"geometry":{"type":"Polygon","coordinates":[[[4.12154856,50.92722995],[4.12154653,50.92724907],[4.12148714,50.92724832],[4.12148916,50.92730226],[4.12142497,50.92730322],[4.12142268,50.92724191],[4.12145947,50.92724135],[4.12146015,50.92723021],[4.12138787,50.92722905],[4.1213913,50.92718417],[4.12175892,50.92719331],[4.12175716,50.92723837],[4.12167636,50.92723711],[4.12167664,50.92722997],[4.12167517,50.92722994],[4.1216749,50.92723697],[4.12161534,50.92723605],[4.12161554,50.92723099],[4.12154856,50.92722995]]]}},{"type":"Feature","id":"gebouw/Gebouw.19872346/0","properties":{"source":"Digitaal Vlaanderen Gebouwenregister","source_id":"gebouw/Gebouw.19872346/0","kind":"building","height_m":7.88,"status":null},"geometry":{"type":"Polygon","coordinates":[[[4.12240966,50.9265491],[4.12241264,50.92669379],[4.12220091,50.92669553],[4.12219795,50.92655184],[4.12240966,50.9265491]]]}},{"type":"Feature","id":"gebouw/Gebouw.19872347/0","properties":{"source":"Digitaal Vlaanderen Gebouwenregister","source_id":"gebouw/Gebouw.19872347/0","kind":"building","height_m":8.6,"status":null},"geometry":{"type":"Polygon","coordinates":[[[4.12240966,50.9265491],[4.12219795,50.92655184],[4.12219748,50.92653747],[4.12212998,50.92653834],[4.12212818,50.92650155],[4.12214218,50.92649984],[4.12214175,50.92650631],[4.12219323,50.92650527],[4.12219297,50.92649286],[4.12239596,50.9264912],[4.12240847,50.92649109],[4.12240966,50.9265491]]]}},{"type":"Feature","id":"gebouw/Gebouw.19872348/0","properties":{"source":"Digitaal Vlaanderen Gebouwenregister","source_id":"gebouw/Gebouw.19872348/0","kind":"building","height_m":9.32,"status":null},"geometry":{"type":"Polygon","coordinates":[[[4.12219795,50.92655184],[4.12213067,50.92655239],[4.12212998,50.92653834],[4.12219748,50.92653747],[4.12219795,50.92655184]]]}},{"type":"Feature","id":"gebouw/Gebouw.19872361/0","properties":{"source":"Digitaal Vlaanderen Gebouwenregister","source_id":"gebouw/Gebouw.19872361/0","kind":"building","height_m":8.6,"status":null},"geometry":{"type":"Polygon","coordinates":[[[4.1213083,50.92680374],[4.12130657,50.9268917],[4.12104785,50.92688966],[4.12104961,50.92680085],[4.12104962,50.9268004],[4.1213083,50.92680374]]]}},{"type":"Feature","id":"gebouw/Gebouw.19872362/0","properties":{"source":"Digitaal Vlaanderen Gebouwenregister","source_id":"gebouw/Gebouw.19872362/0","kind":"building","height_m":9.32,"status":null},"geometry":{"type":"Polygon","coordinates":[[[4.12144072,50.92655925],[4.12134703,50.9265702],[4.12130248,50.92644107],[4.12132451,50.92643811],[4.12132626,50.9264433],[4.12138196,50.9264356],[4.12138618,50.92644781],[4.12140428,50.92644525],[4.12144072,50.92655925]]]}},{"type":"Feature","id":"gebouw/Gebouw.19873262/0","properties":{"source":"Digitaal Vlaanderen Gebouwenregister","source_id":"gebouw/Gebouw.19873262/0","kind":"building","height_m":7.16,"status":null},"geometry":{"type":"Polygon","coordinates":[[[4.12142186,50.92465861],[4.12143028,50.9246605],[4.1214067,50.9247025],[4.12131774,50.92468255],[4.12133909,50.92464255],[4.12134437,50.92464372],[4.12135126,50.92463028],[4.12129034,50.92461701],[4.12128983,50.92461817],[4.12128711,50.92461753],[4.12128771,50.92461643],[4.12127614,50.92461391],[4.12127564,50.92461483],[4.12127331,50.92461429],[4.1212738,50.9246134],[4.12126644,50.9246118],[4.12126291,50.92461839],[4.12120699,50.92460714],[4.12119462,50.92462906],[4.12119194,50.92462847],[4.12119306,50.92462644],[4.12103321,50.92459034],[4.12108971,50.92449042],[4.1213063,50.92453901],[4.12128085,50.92458433],[4.12129641,50.92458782],[4.12132994,50.9245281],[4.12143677,50.92455207],[4.12143022,50.92456374],[4.12146787,50.92457218],[4.12145861,50.92458957],[4.12142186,50.92465861]]]}},{"type":"Feature","id":"gebouw/Gebouw.19873263/0","properties":{"source":"Digitaal Vlaanderen Gebouwenregister","source_id":"gebouw/Gebouw.19873263/0","kind":"building","height_m":7.88,"status":null},"geometry":{"type":"Polygon","coordinates":[[[4.12157846,50.92465198],[4.12155963,50.9246855],[4.12146793,50.92466494],[4.12149528,50.92461623],[4.12154358,50.92462707],[4.12153506,50.92464224],[4.12157846,50.92465198]]]}},{"type":"Feature","id":"gebouw/Gebouw.19875354/0","properties":{"source":"Digitaal Vlaanderen Gebouwenregister","source_id":"gebouw/Gebouw.19875354/0","kind":"building","height_m":6.44,"status":null},"geometry":{"type":"Polygon","coordinates":[[[4.12160918,50.92606084],[4.12155264,50.92628319],[4.12153155,50.92627994],[4.12151299,50.92632801],[4.12145613,50.92631925],[4.12145272,50.92632845],[4.12128764,50.92630345],[4.12131659,50.92622706],[4.12143918,50.92624562],[4.12145943,50.9261922],[4.12141196,50.92618501],[4.12140711,50.92619781],[4.12133823,50.92618738],[4.12134579,50.92616743],[4.12129874,50.92616031],[4.12123002,50.92615004],[4.12127761,50.92602163],[4.12141058,50.92603736],[4.121409,50.92604161],[4.12144844,50.92604659],[4.12145054,50.92604208],[4.12160918,50.92606084]]]}},{"type":"Feature","id":"gebouw/Gebouw.19875355/0","properties":{"source":"Digitaal Vlaanderen Gebouwenregister","source_id":"gebouw/Gebouw.19875355/0","kind":"building","height_m":7.16,"status":null},"geometry":{"type":"Polygon","coordinates":[[[4.12129928,50.92596318],[4.12143085,50.92598266],[4.12142331,50.926003],[4.12141058,50.92603736],[4.12127761,50.92602163],[4.12129237,50.92598183],[4.12129928,50.92596318]]]}},{"type":"Feature","id":"gebouw/Gebouw.19875392/0","properties":{"source":"Digitaal Vlaanderen Gebouwenregister","source_id":"gebouw/Gebouw.19875392/0","kind":"building","height_m":8.6,"status":null},"geometry":{"type":"Polygon","coordinates":[[[4.12149368,50.92824731],[4.12149427,50.92825264],[4.1215032,50.92833359],[4.12137011,50.92833946],[4.12136118,50.9282585],[4.12138297,50.92825754],[4.12138238,50.92825222],[4.12149368,50.92824731]]]}},{"type":"Feature","id":"gebouw/Gebouw.19875393/0","properties":{"source":"Digitaal Vlaanderen Gebouwenregister","source_id":"gebouw/Gebouw.19875393/0","kind":"building","height_m":9.32,"status":null},"geometry":{"type":"Polygon","coordinates":[[[4.12137011,50.92833946],[4.12126907,50.92834391],[4.12125545,50.92822051],[4.12135649,50.92821605],[4.12136059,50.92825318],[4.12136118,50.9282585],[4.12137011,50.92833946]]]}},{"type":"Feature","id":"gebouw/Gebouw.19875563/0","properties":{"source":"Digitaal Vlaanderen Gebouwenregister","source_id":"gebouw/Gebouw.19875563/0","kind":"building","height_m":5.72,"status":null},"geometry":{"type":"Polygon","coordinates":[[[4.12098069,50.92563941],[4.12094699,50.92563282],[4.1209205,50.92562763],[4.12091661,50.92563449],[4.12078174,50.92560401],[4.12077944,50.92560804],[4.12075611,50.92564889],[4.12082428,50.92566203],[4.12079144,50.92572008],[4.12086975,50.92573778],[4.12083914,50.92579187],[4.12088862,50.92580062],[4.12115575,50.92584785],[4.12118075,50.92578984],[4.12118661,50.92577625],[4.12122497,50.92568722],[4.12112613,50.92566787],[4.12098069,50.92563941]]]}},{"type":"Feature","id":"gebouw/Gebouw.19875564/0","properties":{"source":"Digitaal Vlaanderen Gebouwenregister","source_id":"gebouw/Gebouw.19875564/0","kind":"building","height_m":6.44,"status":null},"geometry":{"type":"Polygon","coordinates":[[[4.12068256,50.92616136],[4.12064933,50.92615393],[4.12063711,50.92617531],[4.12052669,50.92615035],[4.12067491,50.92588843],[4.12070661,50.9258956],[4.12078656,50.92591368],[4.12080446,50.92591774],[4.12081975,50.92592118],[4.12068256,50.92616136]]]}},{"type":"Feature","id":"gebouw/Gebouw.19875625/0","properties":{"source":"Digitaal Vlaanderen Gebouwenregister","source_id":"gebouw/Gebouw.19875625/0","kind":"building","height_m":5.0,"status":null},"geometry":{"type":"Polygon","coordinates":[[[4.120608,50.92691144],[4.1203327,50.92695718],[4.12032008,50.92692702],[4.1204767,50.92690084],[4.12046696,50.92687758],[4.12046353,50.92686938],[4.12053086,50.92685819],[4.12053415,50.92686605],[4.12058533,50.92685768],[4.120608,50.92691144]]]}},{"type":"Feature","id":"gebouw/Gebouw.19875626/0","properties":{"source":"Digitaal Vlaanderen Gebouwenregister","source_id":"gebouw/Gebouw.19875626/0","kind":"building","height_m":5.72,"status":null},"geometry":{"type":"Polygon","coordinates":[[[4.1203327,50.92695718],[4.12032971,50.92695768],[4.12024478,50.92697179],[4.12023218,50.92694171],[4.12032008,50.92692702],[4.1203327,50.92695718]]]}},{"type":"Feature","id":"gebouw/Gebouw.19875807/0","properties":{"source":"Digitaal Vlaanderen Gebouwenregister","source_id":"gebouw/Gebouw.19875807/0","kind":"building","height_m":5.0,"status":null},"geometry":{"type":"Polygon","coordinates":[[[4.12014667,50.92828945],[4.11994822,50.92834636],[4.11993626,50.92832946],[4.11990488,50.92833832],[4.11988505,50.92831028],[4.1198339,50.92832473],[4.11980801,50.92828812],[4.1198924,50.92826392],[4.11991564,50.92829689],[4.11996318,50.92828351],[4.11995672,50.92827433],[4.12010637,50.92823223],[4.12014667,50.92828945]]]}},{"type":"Feature","id":"gebouw/Gebouw.19875808/0","properties":{"source":"Digitaal Vlaanderen Gebouwenregister","source_id":"gebouw/Gebouw.19875808/0","kind":"building","height_m":5.72,"status":null},"geometry":{"type":"Polygon","coordinates":[[[4.11984577,50.92834151],[4.1198339,50.92832473],[4.11980801,50.92828812],[4.11979672,50.92829136],[4.11974556,50.92830603],[4.11970428,50.92831787],[4.11974178,50.92837088],[4.11984577,50.92834151]]]}},{"type":"Feature","id":"gebouw/Gebouw.20145626/0","properties":{"source":"Digitaal Vlaanderen Gebouwenregister","source_id":"gebouw/Gebouw.20145626/0","kind":"building","height_m":7.88,"status":null},"geometry":{"type":"Polygon","coordinates":[[[4.11934753,50.92841563],[4.11941418,50.9283967],[4.11938607,50.92835716],[4.11931942,50.92837609],[4.11934753,50.92841563]]]}},{"type":"Feature","id":"gebouw/Gebouw.20145628/0","properties":{"source":"Digitaal Vlaanderen Gebouwenregister","source_id":"gebouw/Gebouw.20145628/0","kind":"building","height_m":9.32,"status":null},"geometry":{"type":"Polygon","coordinates":[[[4.11827935,50.92651405],[4.11825844,50.92648334],[4.11830608,50.92647038],[4.118327,50.92650109],[4.11827935,50.92651405]]]}},{"type":"Feature","id":"gebouw/Gebouw.20145655/0","properties":{"source":"Digitaal Vlaanderen Gebouwenregister","source_id":"gebouw/Gebouw.20145655/0","kind":"building","height_m":8.6,"status":null},"geometry":{"type":"Polygon","coordinates":[[[4.1174715,50.9267036],[4.11753024,50.92670334],[4.11752906,50.92659727],[4.11747032,50.92659753],[4.1174715,50.9267036]]]}},{"type":"Feature","id":"gebouw/Gebouw.20145656/0","properties":{"source":"Digitaal Vlaanderen Gebouwenregister","source_id":"gebouw/Gebouw.20145656/0","kind":"building","height_m":9.32,"status":null},"geometry":{"type":"Polygon","coordinates":[[[4.11825218,50.92735885],[4.11827285,50.92738654],[4.11816053,50.92742003],[4.11813986,50.92739234],[4.11825218,50.92735885]]]}},{"type":"Feature","id":"gebouw/Gebouw.20145657/0","properties":{"source":"Digitaal Vlaanderen Gebouwenregister","source_id":"gebouw/Gebouw.20145657/0","kind":"building","height_m":5.0,"status":null},"geometry":{"type":"Polygon","coordinates":[[[4.12183031,50.92674542],[4.12182974,50.92677358],[4.12174475,50.92677289],[4.12174532,50.92674473],[4.12183031,50.92674542]]]}},{"type":"Feature","id":"gebouw/Gebouw.20145658/0","properties":{"source":"Digitaal Vlaanderen Gebouwenregister","source_id":"gebouw/Gebouw.20145658/0","kind":"building","height_m":5.72,"status":null},"geometry":{"type":"Polygon","coordinates":[[[4.12114181,50.92676115],[4.12113211,50.92673435],[4.121229,50.92672034],[4.12124227,50.92675697],[4.12119739,50.92676346],[4.12114181,50.92676115]]]}},{"type":"Feature","id":"gebouw/Gebouw.20145659/0","properties":{"source":"Digitaal Vlaanderen Gebouwenregister","source_id":"gebouw/Gebouw.20145659/0","kind":"building","height_m":6.44,"status":null},"geometry":{"type":"Polygon","coordinates":[[[4.12059634,50.92780793],[4.12057632,50.92781075],[4.12050257,50.92782118],[4.12049183,50.92779079],[4.12054328,50.92778296],[4.12055789,50.92778073],[4.12057568,50.92777822],[4.12058251,50.92778803],[4.12059634,50.92780793]]]}},{"type":"Feature","id":"gebouw/Gebouw.20146313/0","properties":{"source":"Digitaal Vlaanderen Gebouwenregister","source_id":"gebouw/Gebouw.20146313/0","kind":"building","height_m":8.6,"status":null},"geometry":{"type":"Polygon","coordinates":[[[4.11725207,50.92696593],[4.11732728,50.92696348],[4.11733375,50.92704259],[4.11725854,50.92704505],[4.11725207,50.92696593]]]}},{"type":"Feature","id":"gebouw/Gebouw.20146314/0","properties":{"source":"Digitaal Vlaanderen Gebouwenregister","source_id":"gebouw/Gebouw.20146314/0","kind":"building","height_m":9.32,"status":null},"geometry":{"type":"Polygon","coordinates":[[[4.11740275,50.92697403],[4.11746022,50.9269729],[4.11746148,50.92699834],[4.11740401,50.92699948],[4.11740275,50.92697403]]]}},{"type":"Feature","id":"gebouw/Gebouw.20146315/0","properties":{"source":"Digitaal Vlaanderen Gebouwenregister","source_id":"gebouw/Gebouw.20146315/0","kind":"building","height_m":5.0,"status":null},"geometry":{"type":"Polygon","coordinates":[[[4.11716437,50.92817116],[4.11718781,50.92820253],[4.11712935,50.92821997],[4.11710591,50.92818861],[4.11716437,50.92817116]]]}},{"type":"Feature","id":"gebouw/Gebouw.20146322/0","properties":{"source":"Digitaal Vlaanderen Gebouwenregister","source_id":"gebouw/Gebouw.20146322/0","kind":"building","height_m":5.0,"status":null},"geometry":{"type":"Polygon","coordinates":[[[4.12018262,50.92605714],[4.12023134,50.9260653],[4.12029884,50.92607661],[4.12027509,50.92613323],[4.1202562,50.92613061],[4.12025827,50.92612566],[4.12020965,50.926117],[4.12016101,50.92610834],[4.1200313,50.92608524],[4.12005226,50.92603529],[4.12018262,50.92605714]]]}},{"type":"Feature","id":"gebouw/Gebouw.20146905/0","properties":{"source":"Digitaal Vlaanderen Gebouwenregister","source_id":"gebouw/Gebouw.20146905/0","kind":"building","height_m":6.44,"status":null},"geometry":{"type":"Polygon","coordinates":[[[4.11808576,50.92778426],[4.11801844,50.92780305],[4.11802263,50.92780904],[4.11797909,50.92782119],[4.11794271,50.92776914],[4.11804761,50.9277394],[4.11805552,50.92775072],[4.11806121,50.92774913],[4.11808576,50.92778426]]]}},{"type":"Feature","id":"gebouw/Gebouw.20938462/0","properties":{"source":"Digitaal Vlaanderen Gebouwenregister","source_id":"gebouw/Gebouw.20938462/0","kind":"building","height_m":9.32,"status":null},"geometry":{"type":"Polygon","coordinates":[[[4.11740613,50.92615276],[4.11741582,50.9261528],[4.11741763,50.92618335],[4.11740741,50.92618335],[4.11740977,50.92623953],[4.11741045,50.92625585],[4.11736401,50.92625663],[4.11736305,50.9262338],[4.11735953,50.92615006],[4.11740598,50.92614928],[4.11740613,50.92615276]]]}},{"type":"Feature","id":"gebouw/Gebouw.20983907/0","properties":{"source":"Digitaal Vlaanderen Gebouwenregister","source_id":"gebouw/Gebouw.20983907/0","kind":"building","height_m":5.0,"status":null},"geometry":{"type":"Polygon","coordinates":[[[4.12033643,50.92601809],[4.12026854,50.92600702],[4.12028079,50.92597701],[4.12026919,50.92597511],[4.12026239,50.925974],[4.1202886,50.92590975],[4.12029272,50.92591043],[4.12030941,50.92586977],[4.12041899,50.92588763],[4.12042468,50.92588856],[4.12040799,50.92592921],[4.12037319,50.92601396],[4.12036682,50.92601291],[4.12034032,50.92600857],[4.12033643,50.92601809]]]}},{"type":"Feature","id":"gebouw/Gebouw.20983908/0","properties":{"source":"Digitaal Vlaanderen Gebouwenregister","source_id":"gebouw/Gebouw.20983908/0","kind":"building","height_m":5.72,"status":null},"geometry":{"type":"Polygon","coordinates":[[[4.12042468,50.92588856],[4.12052552,50.92590499],[4.12050882,50.92594564],[4.12053036,50.92594915],[4.12050386,50.92601367],[4.12048546,50.92601066],[4.12047314,50.92604067],[4.12040209,50.92602901],[4.12040605,50.92601935],[4.12037319,50.92601396],[4.12040799,50.92592921],[4.12042468,50.92588856]]]}},{"type":"Feature","id":"gebouw/Gebouw.30642171/0","properties":{"source":"Digitaal Vlaanderen Gebouwenregister","source_id":"gebouw/Gebouw.30642171/0","kind":"building","height_m":5.0,"status":null},"geometry":{"type":"Polygon","coordinates":[[[4.12001807,50.92549428],[4.11996709,50.92548283],[4.11996318,50.92548978],[4.1199319,50.92548276],[4.11990875,50.92547755],[4.11992436,50.92542583],[4.11994862,50.92543128],[4.12004173,50.9254522],[4.12001807,50.92549428]]]}},{"type":"Feature","id":"gebouw/Gebouw.30642172/0","properties":{"source":"Digitaal Vlaanderen Gebouwenregister","source_id":"gebouw/Gebouw.30642172/0","kind":"building","height_m":5.72,"status":null},"geometry":{"type":"Polygon","coordinates":[[[4.11962866,50.92638449],[4.11972987,50.92639848],[4.11972043,50.92642577],[4.11961922,50.92641177],[4.11962866,50.92638449]]]}},{"type":"Feature","id":"gebouw/Gebouw.31526725/0","properties":{"source":"Digitaal Vlaanderen Gebouwenregister","source_id":"gebouw/Gebouw.31526725/0","kind":"building","height_m":9.32,"status":null},"geometry":{"type":"Polygon","coordinates":[[[4.11989216,50.92606207],[4.11992087,50.92606673],[4.11992834,50.92604829],[4.11989964,50.92604364],[4.11989216,50.92606207]]]}},{"type":"Feature","id":"gebouw/Gebouw.31804881/0","properties":{"source":"Digitaal Vlaanderen Gebouwenregister","source_id":"gebouw/Gebouw.31804881/0","kind":"building","height_m":7.16,"status":null},"geometry":{"type":"Polygon","coordinates":[[[4.12078829,50.92666511],[4.1207458,50.92667079],[4.12075847,50.92670865],[4.12069797,50.92671674],[4.12071167,50.92675766],[4.12081559,50.92674377],[4.12078829,50.92666511]]]}},{"type":"Feature","id":"gebouw/Gebouw.31805025/0","properties":{"source":"Digitaal Vlaanderen Gebouwenregister","source_id":"gebouw/Gebouw.31805025/0","kind":"building","height_m":5.0,"status":null},"geometry":{"type":"Polygon","coordinates":[[[4.11943495,50.92839707],[4.11950251,50.9283799],[4.11949001,50.92836025],[4.11942245,50.92837743],[4.11943495,50.92839707]]]}},{"type":"Feature","id":"gebouw/Gebouw.31806090/0","properties":{"source":"Digitaal Vlaanderen Gebouwenregister","source_id":"gebouw/Gebouw.31806090/0","kind":"building","height_m":5.72,"status":null},"geometry":{"type":"Polygon","coordinates":[[[4.12055369,50.92556409],[4.12048828,50.92555029],[4.12046673,50.92559418],[4.12053468,50.92560768],[4.12053838,50.92560086],[4.12055787,50.92556497],[4.12055369,50.92556409]]]}},{"type":"Feature","id":"gebouw/Gebouw.32019519/0","properties":{"source":"Digitaal Vlaanderen Gebouwenregister","source_id":"gebouw/Gebouw.32019519/0","kind":"building","height_m":5.0,"status":null},"geometry":{"type":"Polygon","coordinates":[[[4.12150701,50.92573706],[4.12150118,50.92575163],[4.12148235,50.925797],[4.121609,50.92581673],[4.12163256,50.92575657],[4.12150701,50.92573706]]]}},{"type":"Feature","id":"gebouw/Gebouw.32035750/0","properties":{"source":"Digitaal Vlaanderen Gebouwenregister","source_id":"gebouw/Gebouw.32035750/0","kind":"building","height_m":8.6,"status":null},"geometry":{"type":"Polygon","coordinates":[[[4.1173896,50.92799209],[4.11748034,50.92796569],[4.11744327,50.92791206],[4.11735089,50.92793894],[4.1173896,50.92799209]]]}},{"type":"Feature","id":"gebouw/Gebouw.32040236/0","properties":{"source":"Digitaal Vlaanderen Gebouwenregister","source_id":"gebouw/Gebouw.32040236/0","kind":"building","height_m":7.88,"status":null},"geometry":{"type":"Polygon","coordinates":[[[4.11827751,50.92621353],[4.11840071,50.92617676],[4.11838824,50.92615992],[4.11838042,50.92614936],[4.11829951,50.92617172],[4.11827965,50.92617746],[4.11822852,50.92619225],[4.11823497,50.92626031],[4.11827868,50.92625858],[4.11827751,50.92621353]]]}},{"type":"Feature","id":"way/160767245","properties":{"source":"OpenStreetMap","source_id":"way/160767245","kind":"vegetation","name":null,"waterway":null,"landuse":"forest"},"geometry":{"type":"Polygon","coordinates":[[[4.119313,50.9270745],[4.1193463,50.9271991],[4.1185935,50.9274161],[4.1186157,50.9274553],[4.1182959,50.9275336],[4.1182895,50.9275875],[4.1182739,50.927379],[4.1185271,50.9273748],[4.118516,50.927295],[4.1184872,50.9268247],[4.118931,50.9267344],[4.1189421,50.9270759],[4.1191354,50.9270675],[4.1191354,50.9270927],[4.119313,50.9270745]]]}},{"type":"Feature","id":"way/160767330","properties":{"source":"OpenStreetMap","source_id":"way/160767330","kind":"vegetation","name":null,"waterway":null,"landuse":"forest"},"geometry":{"type":"Polygon","coordinates":[[[4.1179319,50.9276855],[4.1176947,50.9276899],[4.1177262,50.9278542],[4.1178172,50.9278404],[4.1178706,50.9279908],[4.1176445,50.9280373],[4.1176055,50.9274462],[4.117892,50.9274392],[4.1179319,50.9276855]]]}},{"type":"Feature","id":"way/160955072","properties":{"source":"OpenStreetMap","source_id":"way/160955072","kind":"vegetation","name":null,"waterway":null,"landuse":"forest"},"geometry":{"type":"Polygon","coordinates":[[[4.1194237,50.9278861],[4.1193428,50.9277536],[4.1196019,50.9276703],[4.1195627,50.9276272],[4.1192167,50.9277271],[4.1191359,50.9276069],[4.1188901,50.9276863],[4.1187875,50.9275542],[4.1181204,50.927751],[4.1183145,50.9280145],[4.1176645,50.9282112],[4.1176789,50.9284695],[4.1183716,50.9282748],[4.118308,50.9281908],[4.1194237,50.9278861]]]}},{"type":"Feature","id":"way/1270203603","properties":{"source":"OpenStreetMap","source_id":"way/1270203603","kind":"waterway","name":"Zwijnbeek","waterway":"stream","landuse":null},"geometry":{"type":"LineString","coordinates":[[4.1209184,50.9234262],[4.1210271,50.9234573],[4.1212468,50.9235261],[4.1218468,50.9238193],[4.1222089,50.9239883],[4.1234437,50.9244467],[4.1239657,50.924502]]}},{"type":"Feature","id":"way/1270203609","properties":{"source":"OpenStreetMap","source_id":"way/1270203609","kind":"waterway","name":"Zwijnbeek","waterway":"stream","landuse":null},"geometry":{"type":"LineString","coordinates":[[4.1207484,50.9233359],[4.1208468,50.9234057],[4.1209184,50.9234262]]}}]}