{"type":"FeatureCollection","features":[{"type":"Feature","id":"gebouw/Gebouw.13492872/0","properties":{"source":"Digitaal Vlaanderen Gebouwenregister","source_id":"gebouw/Gebouw.13492872/0","kind":"building","height_m":5.72,"status":null},"geometry":{"type":"Polygon","coordinates":[[[4.11856615,50.96917678],[4.11852097,50.96916166],[4.11858114,50.96909844],[4.11862493,50.9691151],[4.11856615,50.96917678]]]}},{"type":"Feature","id":"gebouw/Gebouw.13496220/0","properties":{"source":"Digitaal Vlaanderen Gebouwenregister","source_id":"gebouw/Gebouw.13496220/0","kind":"building","height_m":7.16,"status":null},"geometry":{"type":"Polygon","coordinates":[[[4.11318225,50.97035984],[4.11318527,50.9703643],[4.11314686,50.97037489],[4.11316552,50.970402],[4.11311808,50.97041501],[4.11312616,50.97042667],[4.11304392,50.97044851],[4.11304197,50.97044492],[4.1129941,50.97045814],[4.11295115,50.97039473],[4.1130063,50.97037984],[4.11302094,50.97038366],[4.11302223,50.97038532],[4.11304024,50.97038036],[4.1130285,50.97036296],[4.11301184,50.97033824],[4.11314346,50.97030249],[4.11315541,50.97032014],[4.11318225,50.97035984]]]}},{"type":"Feature","id":"gebouw/Gebouw.13780274/0","properties":{"source":"Digitaal Vlaanderen Gebouwenregister","source_id":"gebouw/Gebouw.13780274/0","kind":"building","height_m":7.88,"status":null},"geometry":{"type":"Polygon","coordinates":[[[4.11876854,50.96922405],[4.1187911,50.96916208],[4.11879857,50.9691632],[4.11880688,50.96913805],[4.11887155,50.96914879],[4.11884281,50.96923433],[4.11876854,50.96922405]]]}},{"type":"Feature","id":"gebouw/Gebouw.15957755/0","properties":{"source":"Digitaal Vlaanderen Gebouwenregister","source_id":"gebouw/Gebouw.15957755/0","kind":"building","height_m":6.44,"status":null},"geometry":{"type":"Polygon","coordinates":[[[4.11698316,50.96908782],[4.11725451,50.96916925],[4.11713878,50.969323],[4.11686743,50.96924158],[4.11698316,50.96908782]]]}},{"type":"Feature","id":"gebouw/Gebouw.18519601/0","properties":{"source":"Digitaal Vlaanderen Gebouwenregister","source_id":"gebouw/Gebouw.18519601/0","kind":"building","height_m":6.44,"status":null},"geometry":{"type":"Polygon","coordinates":[[[4.11235744,50.97051617],[4.11246259,50.97064065],[4.11233585,50.97068333],[4.11221373,50.97053876],[4.11222154,50.97053613],[4.11231017,50.97050628],[4.11232712,50.97052635],[4.11235744,50.97051617]]]}},{"type":"Feature","id":"gebouw/Gebouw.18730549/0","properties":{"source":"Digitaal Vlaanderen Gebouwenregister","source_id":"gebouw/Gebouw.18730549/0","kind":"building","height_m":8.6,"status":null},"geometry":{"type":"Polygon","coordinates":[[[4.11695233,50.96907807],[4.11683583,50.9692312],[4.11656435,50.96915079],[4.11667848,50.9689951],[4.11695233,50.96907807]]]}},{"type":"Feature","id":"gebouw/Gebouw.20145289/0","properties":{"source":"Digitaal Vlaanderen Gebouwenregister","source_id":"gebouw/Gebouw.20145289/0","kind":"building","height_m":7.16,"status":null},"geometry":{"type":"Polygon","coordinates":[[[4.11686405,50.96924062],[4.11697971,50.96908743],[4.11725079,50.96916903],[4.11713512,50.96932222],[4.11686405,50.96924062]]]}},{"type":"Feature","id":"gebouw/Gebouw.20945999/0","properties":{"source":"Digitaal Vlaanderen Gebouwenregister","source_id":"gebouw/Gebouw.20945999/0","kind":"building","height_m":7.88,"status":null},"geometry":{"type":"Polygon","coordinates":[[[4.1123118,50.97071817],[4.11237777,50.97079608],[4.1123826,50.97080179],[4.11239196,50.97081284],[4.11239555,50.97081708],[4.11243576,50.97080422],[4.11235162,50.97070473],[4.1123118,50.97071817]]]}},{"type":"Feature","id":"gebouw/Gebouw.30642369/0","properties":{"source":"Digitaal Vlaanderen Gebouwenregister","source_id":"gebouw/Gebouw.30642369/0","kind":"building","height_m":6.44,"status":null},"geometry":{"type":"Polygon","coordinates":[[[4.11716604,50.96933089],[4.11728442,50.96917429],[4.11755627,50.96925622],[4.11743788,50.96941283],[4.11716604,50.96933089]]]}},{"type":"Feature","id":"gebouw/Gebouw.32006897/0","properties":{"source":"Digitaal Vlaanderen Gebouwenregister","source_id":"gebouw/Gebouw.32006897/0","kind":"building","height_m":9.32,"status":null},"geometry":{"type":"Polygon","coordinates":[[[4.11239196,50.97081284],[4.1123826,50.97080179],[4.11237777,50.97079608],[4.1123118,50.97071817],[4.11224896,50.97073939],[4.11232854,50.97083409],[4.11239196,50.97081284]]]}},{"type":"Feature","id":"way/132075166","properties":{"source":"OpenStreetMap","source_id":"way/132075166","kind":"vegetation","name":null,"waterway":null,"landuse":"forest"},"geometry":{"type":"Polygon","coordinates":[[[4.1117304,50.9692103],[4.1118476,50.9688935],[4.1126481,50.9687781],[4.1126309,50.9686301],[4.1132544,50.9684269],[4.1135046,50.9690427],[4.1127249,50.9693252],[4.1123157,50.9693926],[4.1117304,50.9692103]]]}},{"type":"Feature","id":"way/1413570468","properties":{"source":"OpenStreetMap","source_id":"way/1413570468","kind":"water","name":null,"waterway":null,"landuse":null},"geometry":{"type":"Polygon","coordinates":[[[4.1141777,50.9693559],[4.1141739,50.9693724],[4.1141789,50.9693913],[4.1143262,50.9695068],[4.1143486,50.9695178],[4.1143848,50.9695162],[4.1145358,50.9694322],[4.1145358,50.9694054],[4.1143586,50.9692781],[4.1143174,50.9692758],[4.1142326,50.9693198],[4.1141777,50.9693559]]]}}]}