{"type":"FeatureCollection","features":[{"type":"Feature","id":"gebouw/Gebouw.16560160/0","properties":{"source":"Digitaal Vlaanderen Gebouwenregister","source_id":"gebouw/Gebouw.16560160/0","kind":"building","height_m":5.72,"status":null},"geometry":{"type":"Polygon","coordinates":[[[4.11947427,50.94150963],[4.11939874,50.94154128],[4.1193729,50.94152275],[4.11943664,50.9414847],[4.11947427,50.94150963]]]}},{"type":"Feature","id":"gebouw/Gebouw.16560179/0","properties":{"source":"Digitaal Vlaanderen Gebouwenregister","source_id":"gebouw/Gebouw.16560179/0","kind":"building","height_m":9.32,"status":null},"geometry":{"type":"Polygon","coordinates":[[[4.11935518,50.94165431],[4.11935395,50.94165547],[4.11943862,50.9416913],[4.1194165,50.94171257],[4.11935725,50.94176956],[4.11926935,50.94173375],[4.11927111,50.94173209],[4.11921074,50.94170359],[4.11929374,50.94162612],[4.11935518,50.94165431]]]}},{"type":"Feature","id":"gebouw/Gebouw.16560206/0","properties":{"source":"Digitaal Vlaanderen Gebouwenregister","source_id":"gebouw/Gebouw.16560206/0","kind":"building","height_m":8.6,"status":null},"geometry":{"type":"Polygon","coordinates":[[[4.11897644,50.94198074],[4.11903602,50.94200514],[4.11901022,50.94203029],[4.11895064,50.9420059],[4.11897644,50.94198074]]]}},{"type":"Feature","id":"gebouw/Gebouw.16560376/0","properties":{"source":"Digitaal Vlaanderen Gebouwenregister","source_id":"gebouw/Gebouw.16560376/0","kind":"building","height_m":5.0,"status":null},"geometry":{"type":"Polygon","coordinates":[[[4.11943751,50.9360235],[4.11934087,50.93603379],[4.11935388,50.93608257],[4.11945052,50.93607228],[4.11943751,50.9360235]]]}},{"type":"Feature","id":"gebouw/Gebouw.16560522/0","properties":{"source":"Digitaal Vlaanderen Gebouwenregister","source_id":"gebouw/Gebouw.16560522/0","kind":"building","height_m":9.32,"status":null},"geometry":{"type":"Polygon","coordinates":[[[4.11671538,50.93545838],[4.11670759,50.93540803],[4.11680771,50.93540185],[4.11681119,50.93542436],[4.11683444,50.93542292],[4.11683874,50.93545077],[4.11671538,50.93545838]]]}},{"type":"Feature","id":"gebouw/Gebouw.16560799/0","properties":{"source":"Digitaal Vlaanderen Gebouwenregister","source_id":"gebouw/Gebouw.16560799/0","kind":"building","height_m":7.16,"status":null},"geometry":{"type":"Polygon","coordinates":[[[4.12080003,50.93986961],[4.1208286,50.93990457],[4.12077533,50.93992194],[4.12074759,50.93988801],[4.12074046,50.93987928],[4.12079373,50.9398619],[4.12080003,50.93986961]]]}},{"type":"Feature","id":"gebouw/Gebouw.16560903/0","properties":{"source":"Digitaal Vlaanderen Gebouwenregister","source_id":"gebouw/Gebouw.16560903/0","kind":"building","height_m":6.44,"status":null},"geometry":{"type":"Polygon","coordinates":[[[4.12036192,50.93899549],[4.12031557,50.93894261],[4.12035824,50.93892768],[4.12040459,50.93898056],[4.12036192,50.93899549]]]}},{"type":"Feature","id":"gebouw/Gebouw.16563103/0","properties":{"source":"Digitaal Vlaanderen Gebouwenregister","source_id":"gebouw/Gebouw.16563103/0","kind":"building","height_m":7.88,"status":null},"geometry":{"type":"Polygon","coordinates":[[[4.11587953,50.93548349],[4.11590493,50.93552029],[4.11581901,50.93554398],[4.1157936,50.93550718],[4.11587953,50.93548349]]]}},{"type":"Feature","id":"gebouw/Gebouw.16563459/0","properties":{"source":"Digitaal Vlaanderen Gebouwenregister","source_id":"gebouw/Gebouw.16563459/0","kind":"building","height_m":7.16,"status":null},"geometry":{"type":"Polygon","coordinates":[[[4.11842395,50.93955445],[4.11842775,50.93949383],[4.11846991,50.93949453],[4.11846951,50.93949844],[4.11850557,50.93949913],[4.11850367,50.93952953],[4.11846912,50.93952847],[4.11846725,50.93955525],[4.11842395,50.93955445]]]}},{"type":"Feature","id":"gebouw/Gebouw.16564354/0","properties":{"source":"Digitaal Vlaanderen Gebouwenregister","source_id":"gebouw/Gebouw.16564354/0","kind":"building","height_m":6.44,"status":null},"geometry":{"type":"Polygon","coordinates":[[[4.12107366,50.9397226],[4.12111985,50.93970807],[4.12115525,50.93975299],[4.12111561,50.93976579],[4.1211054,50.93976177],[4.12107366,50.9397226]]]}},{"type":"Feature","id":"gebouw/Gebouw.16564575/0","properties":{"source":"Digitaal Vlaanderen Gebouwenregister","source_id":"gebouw/Gebouw.16564575/0","kind":"building","height_m":9.32,"status":null},"geometry":{"type":"Polygon","coordinates":[[[4.11800447,50.94114358],[4.11797163,50.94117027],[4.11797071,50.94116982],[4.11784063,50.94127495],[4.11777375,50.94124241],[4.1179364,50.94111014],[4.11800447,50.94114358]]]}},{"type":"Feature","id":"gebouw/Gebouw.16564578/0","properties":{"source":"Digitaal Vlaanderen Gebouwenregister","source_id":"gebouw/Gebouw.16564578/0","kind":"building","height_m":6.44,"status":null},"geometry":{"type":"Polygon","coordinates":[[[4.12182068,50.94048614],[4.12179616,50.94045528],[4.12185502,50.94043661],[4.12187912,50.94046695],[4.12195282,50.94055971],[4.12189397,50.94057838],[4.12182068,50.94048614]]]}},{"type":"Feature","id":"gebouw/Gebouw.16565211/0","properties":{"source":"Digitaal Vlaanderen Gebouwenregister","source_id":"gebouw/Gebouw.16565211/0","kind":"building","height_m":8.6,"status":null},"geometry":{"type":"Polygon","coordinates":[[[4.1199476,50.93601828],[4.11991071,50.93593119],[4.1197783,50.93595359],[4.11981519,50.93604068],[4.1199476,50.93601828]]]}},{"type":"Feature","id":"gebouw/Gebouw.16565235/0","properties":{"source":"Digitaal Vlaanderen Gebouwenregister","source_id":"gebouw/Gebouw.16565235/0","kind":"building","height_m":5.72,"status":null},"geometry":{"type":"Polygon","coordinates":[[[4.12242821,50.93979491],[4.12243408,50.93980317],[4.12251444,50.93991618],[4.12265511,50.94011403],[4.12248998,50.9401609],[4.12226308,50.93984177],[4.12240047,50.93980278],[4.12242821,50.93979491]]]}},{"type":"Feature","id":"gebouw/Gebouw.16565636/0","properties":{"source":"Digitaal Vlaanderen Gebouwenregister","source_id":"gebouw/Gebouw.16565636/0","kind":"building","height_m":7.16,"status":null},"geometry":{"type":"Polygon","coordinates":[[[4.12300111,50.94003229],[4.12291436,50.94005281],[4.12287786,50.93999414],[4.12291834,50.93998409],[4.1228913,50.93994059],[4.12289365,50.93994001],[4.12293383,50.93993004],[4.12293705,50.93992924],[4.12300111,50.94003229]]]}},{"type":"Feature","id":"gebouw/Gebouw.16565964/0","properties":{"source":"Digitaal Vlaanderen Gebouwenregister","source_id":"gebouw/Gebouw.16565964/0","kind":"building","height_m":6.44,"status":null},"geometry":{"type":"Polygon","coordinates":[[[4.11782221,50.9359034],[4.11774108,50.93590924],[4.11773597,50.93588094],[4.1178171,50.9358751],[4.11782221,50.9359034]]]}},{"type":"Feature","id":"gebouw/Gebouw.16566192/0","properties":{"source":"Digitaal Vlaanderen Gebouwenregister","source_id":"gebouw/Gebouw.16566192/0","kind":"building","height_m":9.32,"status":null},"geometry":{"type":"Polygon","coordinates":[[[4.11833999,50.93881254],[4.11836683,50.93884108],[4.11831069,50.93886216],[4.11828384,50.93883362],[4.11833999,50.93881254]]]}},{"type":"Feature","id":"gebouw/Gebouw.16566256/0","properties":{"source":"Digitaal Vlaanderen Gebouwenregister","source_id":"gebouw/Gebouw.16566256/0","kind":"building","height_m":5.0,"status":null},"geometry":{"type":"Polygon","coordinates":[[[4.12036178,50.94100661],[4.12040544,50.94098947],[4.12045001,50.94103479],[4.12040634,50.94105193],[4.12036178,50.94100661]]]}},{"type":"Feature","id":"gebouw/Gebouw.16566696/0","properties":{"source":"Digitaal Vlaanderen Gebouwenregister","source_id":"gebouw/Gebouw.16566696/0","kind":"building","height_m":9.32,"status":null},"geometry":{"type":"Polygon","coordinates":[[[4.12087918,50.94017581],[4.12078827,50.94020194],[4.1207955,50.94021197],[4.12079235,50.94021288],[4.12074876,50.94015234],[4.12084281,50.9401253],[4.12087918,50.94017581]]]}},{"type":"Feature","id":"gebouw/Gebouw.16566840/0","properties":{"source":"Digitaal Vlaanderen Gebouwenregister","source_id":"gebouw/Gebouw.16566840/0","kind":"building","height_m":7.16,"status":null},"geometry":{"type":"Polygon","coordinates":[[[4.1180724,50.94115868],[4.11824102,50.94124005],[4.118014,50.94142784],[4.1178485,50.9413447],[4.1180724,50.94115868]]]}},{"type":"Feature","id":"gebouw/Gebouw.16566860/0","properties":{"source":"Digitaal Vlaanderen Gebouwenregister","source_id":"gebouw/Gebouw.16566860/0","kind":"building","height_m":6.44,"status":null},"geometry":{"type":"Polygon","coordinates":[[[4.12023828,50.94078364],[4.12032912,50.94074791],[4.12051024,50.94094543],[4.1204096,50.94098041],[4.12023828,50.94078364]]]}},{"type":"Feature","id":"gebouw/Gebouw.16566998/0","properties":{"source":"Digitaal Vlaanderen Gebouwenregister","source_id":"gebouw/Gebouw.16566998/0","kind":"building","height_m":5.0,"status":null},"geometry":{"type":"Polygon","coordinates":[[[4.12020742,50.93920018],[4.12024508,50.93918588],[4.12030164,50.93924535],[4.12026398,50.93925965],[4.12020742,50.93920018]]]}},{"type":"Feature","id":"gebouw/Gebouw.16570004/0","properties":{"source":"Digitaal Vlaanderen Gebouwenregister","source_id":"gebouw/Gebouw.16570004/0","kind":"building","height_m":7.16,"status":null},"geometry":{"type":"Polygon","coordinates":[[[4.12242384,50.93911157],[4.12240437,50.93908468],[4.12245842,50.93906937],[4.12247856,50.93909632],[4.12242384,50.93911157]]]}},{"type":"Feature","id":"gebouw/Gebouw.16570126/0","properties":{"source":"Digitaal Vlaanderen Gebouwenregister","source_id":"gebouw/Gebouw.16570126/0","kind":"building","height_m":9.32,"status":null},"geometry":{"type":"Polygon","coordinates":[[[4.12068538,50.93968586],[4.12072003,50.93973015],[4.12076468,50.9397162],[4.12077486,50.93972922],[4.12076643,50.93974766],[4.1207927,50.93975245],[4.12077066,50.93979338],[4.12074531,50.93978875],[4.1207372,50.93980252],[4.12069107,50.93981913],[4.12068949,50.93981729],[4.12066849,50.93979286],[4.12059954,50.93971268],[4.12068538,50.93968586]]]}},{"type":"Feature","id":"gebouw/Gebouw.16570507/0","properties":{"source":"Digitaal Vlaanderen Gebouwenregister","source_id":"gebouw/Gebouw.16570507/0","kind":"building","height_m":6.44,"status":null},"geometry":{"type":"Polygon","coordinates":[[[4.12144308,50.93916065],[4.12143049,50.93916535],[4.1213562,50.93908171],[4.12136174,50.93907975],[4.12136887,50.93908724],[4.12147347,50.9390495],[4.12146691,50.93904176],[4.12147253,50.93903966],[4.12158852,50.93916347],[4.12152919,50.93918566],[4.12148948,50.93914329],[4.12144308,50.93916065]]]}},{"type":"Feature","id":"gebouw/Gebouw.16577314/0","properties":{"source":"Digitaal Vlaanderen Gebouwenregister","source_id":"gebouw/Gebouw.16577314/0","kind":"building","height_m":8.6,"status":null},"geometry":{"type":"Polygon","coordinates":[[[4.11949007,50.94150276],[4.11948178,50.94145981],[4.11935011,50.94134499],[4.11926428,50.94126807],[4.1194879,50.94114414],[4.11956177,50.94119734],[4.11957228,50.94119152],[4.11965771,50.94125632],[4.11963594,50.94126777],[4.11966431,50.94129662],[4.11965593,50.9412999],[4.11970154,50.94134628],[4.11960453,50.94138436],[4.11952355,50.941302],[4.1195563,50.94128914],[4.1195234,50.94126467],[4.11949615,50.94127841],[4.11946505,50.9412538],[4.1193998,50.94129207],[4.11954713,50.94142605],[4.11958718,50.94146203],[4.11952015,50.94149153],[4.11951797,50.94148954],[4.11949007,50.94150276]]]}},{"type":"Feature","id":"gebouw/Gebouw.16580162/0","properties":{"source":"Digitaal Vlaanderen Gebouwenregister","source_id":"gebouw/Gebouw.16580162/0","kind":"building","height_m":7.88,"status":null},"geometry":{"type":"Polygon","coordinates":[[[4.12088426,50.93845337],[4.12095684,50.93843369],[4.12099034,50.93848302],[4.12091776,50.9385027],[4.12088426,50.93845337]]]}},{"type":"Feature","id":"gebouw/Gebouw.16580307/0","properties":{"source":"Digitaal Vlaanderen Gebouwenregister","source_id":"gebouw/Gebouw.16580307/0","kind":"building","height_m":6.44,"status":null},"geometry":{"type":"Polygon","coordinates":[[[4.12222723,50.93847194],[4.12228317,50.93845465],[4.12231087,50.9384923],[4.12234832,50.9385432],[4.12236096,50.93856038],[4.12226482,50.93858919],[4.12225015,50.93857082],[4.12222826,50.93857781],[4.1221829,50.93852113],[4.12218664,50.93851993],[4.1221395,50.93846103],[4.12220283,50.93844146],[4.12222723,50.93847194]]]}},{"type":"Feature","id":"gebouw/Gebouw.16580312/0","properties":{"source":"Digitaal Vlaanderen Gebouwenregister","source_id":"gebouw/Gebouw.16580312/0","kind":"building","height_m":5.0,"status":null},"geometry":{"type":"Polygon","coordinates":[[[4.12154997,50.93934896],[4.12147103,50.9393796],[4.12144663,50.93935444],[4.12126635,50.93915928],[4.12133229,50.93913375],[4.12145354,50.9392588],[4.12146372,50.93925486],[4.12150385,50.93929864],[4.12154997,50.93934896]]]}},{"type":"Feature","id":"gebouw/Gebouw.16599958/0","properties":{"source":"Digitaal Vlaanderen Gebouwenregister","source_id":"gebouw/Gebouw.16599958/0","kind":"building","height_m":7.88,"status":null},"geometry":{"type":"Polygon","coordinates":[[[4.11932642,50.94140736],[4.1193598,50.94138818],[4.11939242,50.94141007],[4.11935853,50.9414302],[4.11932642,50.94140736]]]}},{"type":"Feature","id":"gebouw/Gebouw.16600710/0","properties":{"source":"Digitaal Vlaanderen Gebouwenregister","source_id":"gebouw/Gebouw.16600710/0","kind":"building","height_m":5.0,"status":null},"geometry":{"type":"Polygon","coordinates":[[[4.11616287,50.93563917],[4.11616061,50.93566898],[4.1161573,50.93571285],[4.11608866,50.93571078],[4.11604402,50.93570944],[4.11604632,50.93567909],[4.11604787,50.93565858],[4.11604959,50.93563576],[4.11616287,50.93563917]]]}},{"type":"Feature","id":"gebouw/Gebouw.16601015/0","properties":{"source":"Digitaal Vlaanderen Gebouwenregister","source_id":"gebouw/Gebouw.16601015/0","kind":"building","height_m":7.88,"status":null},"geometry":{"type":"Polygon","coordinates":[[[4.11868748,50.93947141],[4.11863055,50.93938199],[4.11871478,50.93936059],[4.11877171,50.93945],[4.11868748,50.93947141]]]}},{"type":"Feature","id":"gebouw/Gebouw.16604574/0","properties":{"source":"Digitaal Vlaanderen Gebouwenregister","source_id":"gebouw/Gebouw.16604574/0","kind":"building","height_m":5.0,"status":null},"geometry":{"type":"Polygon","coordinates":[[[4.12116593,50.93939623],[4.12107214,50.93942988],[4.12108071,50.93943942],[4.12102575,50.93945914],[4.1209407,50.93935912],[4.12098988,50.93934242],[4.12101181,50.93936836],[4.12109428,50.93934025],[4.12108947,50.93933439],[4.12110527,50.93932873],[4.12116593,50.93939623]]]}},{"type":"Feature","id":"gebouw/Gebouw.16605864/0","properties":{"source":"Digitaal Vlaanderen Gebouwenregister","source_id":"gebouw/Gebouw.16605864/0","kind":"building","height_m":6.44,"status":null},"geometry":{"type":"Polygon","coordinates":[[[4.12262054,50.93880688],[4.12260697,50.9387914],[4.12256707,50.93880535],[4.12249637,50.93872804],[4.12258409,50.93869725],[4.12262647,50.93874652],[4.12266501,50.93879132],[4.12262054,50.93880688]]]}},{"type":"Feature","id":"gebouw/Gebouw.16606302/0","properties":{"source":"Digitaal Vlaanderen Gebouwenregister","source_id":"gebouw/Gebouw.16606302/0","kind":"building","height_m":9.32,"status":null},"geometry":{"type":"Polygon","coordinates":[[[4.12240783,50.93955537],[4.12239668,50.93953983],[4.12244424,50.93952653],[4.12247225,50.93956372],[4.12246034,50.93956686],[4.12246169,50.93956878],[4.12242557,50.93958009],[4.12240783,50.93955537]]]}},{"type":"Feature","id":"gebouw/Gebouw.16606478/0","properties":{"source":"Digitaal Vlaanderen Gebouwenregister","source_id":"gebouw/Gebouw.16606478/0","kind":"building","height_m":5.0,"status":null},"geometry":{"type":"Polygon","coordinates":[[[4.12276603,50.93916863],[4.12258544,50.93922561],[4.12255416,50.93918493],[4.12273943,50.93913259],[4.12276603,50.93916863]]]}},{"type":"Feature","id":"gebouw/Gebouw.16606588/0","properties":{"source":"Digitaal Vlaanderen Gebouwenregister","source_id":"gebouw/Gebouw.16606588/0","kind":"building","height_m":8.6,"status":null},"geometry":{"type":"Polygon","coordinates":[[[4.12061757,50.94001595],[4.12073954,50.93997801],[4.12081339,50.94007282],[4.12069143,50.94011075],[4.12061757,50.94001595]]]}},{"type":"Feature","id":"gebouw/Gebouw.16617376/0","properties":{"source":"Digitaal Vlaanderen Gebouwenregister","source_id":"gebouw/Gebouw.16617376/0","kind":"building","height_m":9.32,"status":null},"geometry":{"type":"Polygon","coordinates":[[[4.12093668,50.93880446],[4.12095061,50.93882016],[4.12094725,50.938824],[4.12094253,50.93882695],[4.1209385,50.93882885],[4.12092764,50.93883305],[4.12096706,50.93887311],[4.1209679,50.93887623],[4.12096726,50.9388793],[4.12096557,50.93888162],[4.12096355,50.93888296],[4.12089399,50.93891085],[4.12072165,50.93873926],[4.12079534,50.93870972],[4.12081267,50.93872698],[4.12084507,50.93871398],[4.12086637,50.93873519],[4.1209105,50.9387175],[4.12095136,50.9387582],[4.12094083,50.93876331],[4.1209638,50.93878623],[4.12094891,50.93879438],[4.1209473,50.93879838],[4.12094464,50.93880171],[4.1209424,50.93880311],[4.12093668,50.93880446]]]}},{"type":"Feature","id":"gebouw/Gebouw.16619878/0","properties":{"source":"Digitaal Vlaanderen Gebouwenregister","source_id":"gebouw/Gebouw.16619878/0","kind":"building","height_m":6.44,"status":null},"geometry":{"type":"Polygon","coordinates":[[[4.12146563,50.938677],[4.12154978,50.93866114],[4.12158602,50.93873733],[4.12159556,50.93873553],[4.12163083,50.93881202],[4.12153768,50.93882958],[4.12146563,50.938677]]]}},{"type":"Feature","id":"gebouw/Gebouw.16621542/0","properties":{"source":"Digitaal Vlaanderen Gebouwenregister","source_id":"gebouw/Gebouw.16621542/0","kind":"building","height_m":5.0,"status":null},"geometry":{"type":"Polygon","coordinates":[[[4.12101428,50.93869882],[4.12096305,50.93870712],[4.12092914,50.93862103],[4.12092435,50.93860886],[4.12094386,50.9386057],[4.12093325,50.93857956],[4.1209715,50.93857336],[4.12098704,50.93861165],[4.12097941,50.93861289],[4.12101428,50.93869882]]]}},{"type":"Feature","id":"gebouw/Gebouw.16621914/0","properties":{"source":"Digitaal Vlaanderen Gebouwenregister","source_id":"gebouw/Gebouw.16621914/0","kind":"building","height_m":5.72,"status":null},"geometry":{"type":"Polygon","coordinates":[[[4.12050063,50.94069906],[4.12051695,50.94069038],[4.12056989,50.94073012],[4.12060298,50.94071253],[4.12073472,50.94081834],[4.12066196,50.9408545],[4.1207287,50.94092825],[4.12056397,50.94099032],[4.12048253,50.94090112],[4.12062036,50.94084919],[4.12052402,50.94075062],[4.12052825,50.94074837],[4.12048242,50.94070668],[4.12037179,50.94076551],[4.12031939,50.94072618],[4.12035362,50.94070797],[4.12039306,50.940687],[4.12044662,50.94065852],[4.12050063,50.94069906]]]}},{"type":"Feature","id":"gebouw/Gebouw.16622256/0","properties":{"source":"Digitaal Vlaanderen Gebouwenregister","source_id":"gebouw/Gebouw.16622256/0","kind":"building","height_m":5.0,"status":null},"geometry":{"type":"Polygon","coordinates":[[[4.12298222,50.9387311],[4.12287403,50.93875967],[4.12279628,50.93864212],[4.12285822,50.93862576],[4.12286719,50.93864036],[4.12296502,50.9386148],[4.12301443,50.93869029],[4.12296364,50.93870178],[4.12297928,50.93872645],[4.12298222,50.9387311]]]}},{"type":"Feature","id":"gebouw/Gebouw.16622446/0","properties":{"source":"Digitaal Vlaanderen Gebouwenregister","source_id":"gebouw/Gebouw.16622446/0","kind":"building","height_m":5.72,"status":null},"geometry":{"type":"Polygon","coordinates":[[[4.12120683,50.93876122],[4.12121223,50.93877279],[4.12126835,50.93876232],[4.12130396,50.93883575],[4.12127618,50.93884113],[4.12128297,50.9388552],[4.12120442,50.93887024],[4.12115674,50.93877055],[4.12120683,50.93876122]]]}},{"type":"Feature","id":"gebouw/Gebouw.16624336/0","properties":{"source":"Digitaal Vlaanderen Gebouwenregister","source_id":"gebouw/Gebouw.16624336/0","kind":"building","height_m":5.72,"status":null},"geometry":{"type":"Polygon","coordinates":[[[4.12120442,50.93887024],[4.12116903,50.93887706],[4.12116706,50.93887294],[4.12115393,50.93887531],[4.12115571,50.93887965],[4.12109202,50.93889153],[4.12104302,50.93878663],[4.12111711,50.93877281],[4.12111325,50.93876456],[4.12115055,50.9387576],[4.12115674,50.93877055],[4.12120442,50.93887024]]]}},{"type":"Feature","id":"gebouw/Gebouw.16625844/0","properties":{"source":"Digitaal Vlaanderen Gebouwenregister","source_id":"gebouw/Gebouw.16625844/0","kind":"building","height_m":7.88,"status":null},"geometry":{"type":"Polygon","coordinates":[[[4.12228508,50.93880152],[4.12238371,50.93876832],[4.12244759,50.93884408],[4.1224594,50.9388401],[4.12248689,50.9388727],[4.12241636,50.93889644],[4.12238473,50.93885893],[4.1223444,50.9388725],[4.12228508,50.93880152]]]}},{"type":"Feature","id":"gebouw/Gebouw.16626185/0","properties":{"source":"Digitaal Vlaanderen Gebouwenregister","source_id":"gebouw/Gebouw.16626185/0","kind":"building","height_m":6.44,"status":null},"geometry":{"type":"Polygon","coordinates":[[[4.12145477,50.93847126],[4.12142525,50.93847725],[4.12140441,50.9384363],[4.12143394,50.9384303],[4.12145477,50.93847126]]]}},{"type":"Feature","id":"gebouw/Gebouw.16626189/0","properties":{"source":"Digitaal Vlaanderen Gebouwenregister","source_id":"gebouw/Gebouw.16626189/0","kind":"building","height_m":9.32,"status":null},"geometry":{"type":"Polygon","coordinates":[[[4.12235574,50.93904313],[4.12234255,50.9390474],[4.12236759,50.93907831],[4.12233412,50.93908887],[4.1222699,50.93910913],[4.122244,50.93907715],[4.12225465,50.93907371],[4.12220715,50.93901505],[4.12225854,50.93899843],[4.12221957,50.93895179],[4.12226424,50.93893735],[4.12230203,50.93898402],[4.12230666,50.93898253],[4.12235574,50.93904313]]]}},{"type":"Feature","id":"gebouw/Gebouw.16626241/0","properties":{"source":"Digitaal Vlaanderen Gebouwenregister","source_id":"gebouw/Gebouw.16626241/0","kind":"building","height_m":6.44,"status":null},"geometry":{"type":"Polygon","coordinates":[[[4.1225738,50.93965666],[4.12254952,50.93966346],[4.12259287,50.93972526],[4.1224806,50.9397567],[4.12247723,50.93975182],[4.12246175,50.93972939],[4.12241664,50.93966401],[4.12249803,50.9396416],[4.12248687,50.93962542],[4.12248287,50.93962652],[4.12247236,50.93960438],[4.12245365,50.93960954],[4.12243617,50.9395842],[4.12250139,50.93956624],[4.12251896,50.93958817],[4.12252117,50.93959094],[4.12253674,50.93961038],[4.1225738,50.93965666]]]}},{"type":"Feature","id":"gebouw/Gebouw.16628832/0","properties":{"source":"Digitaal Vlaanderen Gebouwenregister","source_id":"gebouw/Gebouw.16628832/0","kind":"building","height_m":7.16,"status":null},"geometry":{"type":"Polygon","coordinates":[[[4.12288166,50.93930523],[4.12291618,50.93934198],[4.12292816,50.93933821],[4.12294674,50.93935799],[4.12294995,50.93935679],[4.1229655,50.93937334],[4.12275699,50.93945154],[4.12268783,50.93937793],[4.12288166,50.93930523]]]}},{"type":"Feature","id":"gebouw/Gebouw.16633219/0","properties":{"source":"Digitaal Vlaanderen Gebouwenregister","source_id":"gebouw/Gebouw.16633219/0","kind":"building","height_m":5.72,"status":null},"geometry":{"type":"Polygon","coordinates":[[[4.12210783,50.93891146],[4.12200969,50.9389419],[4.1219546,50.93887126],[4.12205716,50.93883946],[4.12211208,50.93891015],[4.12210783,50.93891146]]]}},{"type":"Feature","id":"gebouw/Gebouw.16633274/0","properties":{"source":"Digitaal Vlaanderen Gebouwenregister","source_id":"gebouw/Gebouw.16633274/0","kind":"building","height_m":5.0,"status":null},"geometry":{"type":"Polygon","coordinates":[[[4.12062979,50.93985294],[4.12056992,50.93987449],[4.12052982,50.93983001],[4.12056688,50.93981504],[4.12056126,50.93980905],[4.12053821,50.93980206],[4.12053224,50.93980558],[4.12045339,50.93978091],[4.12045629,50.93977741],[4.12045464,50.939777],[4.12052074,50.93968748],[4.1205479,50.93969628],[4.12054971,50.9396948],[4.12056338,50.93969884],[4.1205619,50.93970069],[4.12059954,50.93971268],[4.12066849,50.93979286],[4.1206377,50.93980395],[4.12065575,50.93982943],[4.12062015,50.93984225],[4.12062979,50.93985294]]]}},{"type":"Feature","id":"gebouw/Gebouw.16634851/0","properties":{"source":"Digitaal Vlaanderen Gebouwenregister","source_id":"gebouw/Gebouw.16634851/0","kind":"building","height_m":6.44,"status":null},"geometry":{"type":"Polygon","coordinates":[[[4.12276316,50.9383943],[4.12276699,50.93839302],[4.12277501,50.93840264],[4.12277112,50.93840394],[4.12277777,50.93841183],[4.1227076,50.93843483],[4.12270536,50.93843231],[4.12267472,50.93844197],[4.12267721,50.93844479],[4.12261419,50.9384652],[4.12262106,50.93847311],[4.12255016,50.93849635],[4.12248591,50.93841807],[4.12260249,50.93837987],[4.122593,50.93836849],[4.12270934,50.93832976],[4.12276316,50.9383943]]]}},{"type":"Feature","id":"gebouw/Gebouw.16635348/0","properties":{"source":"Digitaal Vlaanderen Gebouwenregister","source_id":"gebouw/Gebouw.16635348/0","kind":"building","height_m":6.44,"status":null},"geometry":{"type":"Polygon","coordinates":[[[4.11935011,50.94134499],[4.11928487,50.94138322],[4.1191956,50.94132364],[4.11918367,50.94131485],[4.11926428,50.94126807],[4.11935011,50.94134499]]]}},{"type":"Feature","id":"gebouw/Gebouw.16635676/0","properties":{"source":"Digitaal Vlaanderen Gebouwenregister","source_id":"gebouw/Gebouw.16635676/0","kind":"building","height_m":5.72,"status":null},"geometry":{"type":"Polygon","coordinates":[[[4.11885703,50.94197043],[4.11894409,50.94200623],[4.1188649,50.94208309],[4.1186829,50.94200824],[4.11868435,50.94200584],[4.11868688,50.94200665],[4.11876072,50.94193422],[4.11875916,50.94193331],[4.11876165,50.94193119],[4.11876555,50.9419328],[4.11885703,50.94197043]]]}},{"type":"Feature","id":"gebouw/Gebouw.16705067/0","properties":{"source":"Digitaal Vlaanderen Gebouwenregister","source_id":"gebouw/Gebouw.16705067/0","kind":"building","height_m":5.72,"status":null},"geometry":{"type":"Polygon","coordinates":[[[4.12303663,50.9390173],[4.12295522,50.93904575],[4.12289189,50.93897554],[4.1228992,50.93897262],[4.12279333,50.9388555],[4.12276547,50.93882467],[4.12274888,50.93880633],[4.12283211,50.93878349],[4.12303663,50.9390173]]]}},{"type":"Feature","id":"gebouw/Gebouw.16705198/0","properties":{"source":"Digitaal Vlaanderen Gebouwenregister","source_id":"gebouw/Gebouw.16705198/0","kind":"building","height_m":9.32,"status":null},"geometry":{"type":"Polygon","coordinates":[[[4.12206965,50.93847448],[4.12200985,50.93848807],[4.12196831,50.93840668],[4.12197247,50.93840595],[4.12196626,50.93839442],[4.12198989,50.93839034],[4.12199424,50.93840058],[4.1220211,50.93839624],[4.12203442,50.93842241],[4.12204113,50.93842099],[4.12206965,50.93847448]]]}},{"type":"Feature","id":"gebouw/Gebouw.16714119/0","properties":{"source":"Digitaal Vlaanderen Gebouwenregister","source_id":"gebouw/Gebouw.16714119/0","kind":"building","height_m":6.44,"status":null},"geometry":{"type":"Polygon","coordinates":[[[4.11833611,50.94159461],[4.11848378,50.94166633],[4.11844407,50.94169897],[4.11842815,50.94169108],[4.11836538,50.94174327],[4.11831059,50.94171308],[4.11825466,50.94168227],[4.11825322,50.94168148],[4.11832217,50.94162482],[4.11830783,50.94161785],[4.11833611,50.94159461]]]}},{"type":"Feature","id":"gebouw/Gebouw.16725661/0","properties":{"source":"Digitaal Vlaanderen Gebouwenregister","source_id":"gebouw/Gebouw.16725661/0","kind":"building","height_m":5.72,"status":null},"geometry":{"type":"Polygon","coordinates":[[[4.12261271,50.93927067],[4.12263434,50.93930308],[4.12249346,50.93934062],[4.12247182,50.93930821],[4.12261271,50.93927067]]]}},{"type":"Feature","id":"gebouw/Gebouw.16726145/0","properties":{"source":"Digitaal Vlaanderen Gebouwenregister","source_id":"gebouw/Gebouw.16726145/0","kind":"building","height_m":6.44,"status":null},"geometry":{"type":"Polygon","coordinates":[[[4.12270553,50.94009876],[4.12262699,50.93997718],[4.12257954,50.93990373],[4.12253248,50.93983089],[4.12261189,50.93981054],[4.12262904,50.93980605],[4.12267458,50.93979412],[4.12278009,50.93995493],[4.1227149,50.93997175],[4.1227302,50.93999543],[4.12273178,50.93999787],[4.1227989,50.93998056],[4.12281722,50.94000892],[4.12283862,50.9400034],[4.12287522,50.94006006],[4.12278094,50.94008438],[4.12277813,50.94008003],[4.12270553,50.94009876]]]}},{"type":"Feature","id":"gebouw/Gebouw.16876733/0","properties":{"source":"Digitaal Vlaanderen Gebouwenregister","source_id":"gebouw/Gebouw.16876733/0","kind":"building","height_m":9.32,"status":null},"geometry":{"type":"Polygon","coordinates":[[[4.12250471,50.93856691],[4.12239154,50.93860193],[4.12236096,50.93856038],[4.12234832,50.9385432],[4.12240649,50.93852519],[4.12238113,50.93849247],[4.12243427,50.93847602],[4.12250471,50.93856691]]]}},{"type":"Feature","id":"gebouw/Gebouw.16877277/0","properties":{"source":"Digitaal Vlaanderen Gebouwenregister","source_id":"gebouw/Gebouw.16877277/0","kind":"building","height_m":7.88,"status":null},"geometry":{"type":"Polygon","coordinates":[[[4.12120143,50.93912719],[4.12119181,50.93913063],[4.12120009,50.93913987],[4.12117182,50.93914999],[4.12112392,50.93916713],[4.1211716,50.93922033],[4.12109008,50.9392495],[4.12097811,50.93912456],[4.12110562,50.93907894],[4.12114542,50.9390647],[4.12120143,50.93912719]]]}},{"type":"Feature","id":"gebouw/Gebouw.16877278/0","properties":{"source":"Digitaal Vlaanderen Gebouwenregister","source_id":"gebouw/Gebouw.16877278/0","kind":"building","height_m":8.6,"status":null},"geometry":{"type":"Polygon","coordinates":[[[4.12052559,50.93945277],[4.12043875,50.93952687],[4.12033564,50.93947863],[4.1203501,50.93946623],[4.1203123,50.9394439],[4.12030405,50.93943787],[4.12029974,50.93942975],[4.1202995,50.93942145],[4.12030228,50.93941365],[4.12030775,50.93940823],[4.12033845,50.93938125],[4.12033666,50.93935855],[4.12031218,50.93934456],[4.12037881,50.93929453],[4.12043837,50.9393379],[4.12043519,50.93934018],[4.12045203,50.93935298],[4.1204383,50.93936679],[4.12041591,50.93935528],[4.12038326,50.9393811],[4.12038321,50.93938711],[4.12040135,50.93939548],[4.12052559,50.93945277]]]}},{"type":"Feature","id":"gebouw/Gebouw.16896333/0","properties":{"source":"Digitaal Vlaanderen Gebouwenregister","source_id":"gebouw/Gebouw.16896333/0","kind":"building","height_m":9.32,"status":null},"geometry":{"type":"Polygon","coordinates":[[[4.12238738,50.93916983],[4.12243994,50.93924306],[4.12227823,50.93928939],[4.1222442,50.93924198],[4.12226349,50.93923663],[4.12221614,50.93916885],[4.12237497,50.93912456],[4.12240404,50.93916506],[4.12238738,50.93916983]]]}},{"type":"Feature","id":"gebouw/Gebouw.16915787/0","properties":{"source":"Digitaal Vlaanderen Gebouwenregister","source_id":"gebouw/Gebouw.16915787/0","kind":"building","height_m":5.0,"status":null},"geometry":{"type":"Polygon","coordinates":[[[4.12096305,50.93870712],[4.12091103,50.93871555],[4.12087835,50.93863501],[4.12088658,50.93863368],[4.12087001,50.93859285],[4.12091517,50.93858554],[4.12092435,50.93860886],[4.12092914,50.93862103],[4.12096305,50.93870712]]]}},{"type":"Feature","id":"gebouw/Gebouw.16929555/0","properties":{"source":"Digitaal Vlaanderen Gebouwenregister","source_id":"gebouw/Gebouw.16929555/0","kind":"building","height_m":9.32,"status":null},"geometry":{"type":"Polygon","coordinates":[[[4.12273505,50.93879103],[4.12277221,50.93877803],[4.12275033,50.93875307],[4.12275673,50.93875083],[4.12270655,50.93869355],[4.12269669,50.938697],[4.12267045,50.93866704],[4.12258409,50.93869725],[4.12262647,50.93874652],[4.12263817,50.93876012],[4.12266501,50.93879132],[4.12268101,50.93880992],[4.12273505,50.93879103]]]}},{"type":"Feature","id":"gebouw/Gebouw.16929698/0","properties":{"source":"Digitaal Vlaanderen Gebouwenregister","source_id":"gebouw/Gebouw.16929698/0","kind":"building","height_m":6.44,"status":null},"geometry":{"type":"Polygon","coordinates":[[[4.12088499,50.93960522],[4.12079277,50.93963608],[4.12071577,50.9395448],[4.12082273,50.93950878],[4.12083844,50.93952787],[4.12095038,50.93949041],[4.12101122,50.93956297],[4.12095037,50.93958333],[4.12088499,50.93960522]]]}},{"type":"Feature","id":"gebouw/Gebouw.18114999/0","properties":{"source":"Digitaal Vlaanderen Gebouwenregister","source_id":"gebouw/Gebouw.18114999/0","kind":"building","height_m":5.0,"status":null},"geometry":{"type":"Polygon","coordinates":[[[4.1207118,50.93901214],[4.12061725,50.93892293],[4.12067238,50.93889978],[4.12066574,50.93889205],[4.12074467,50.93886132],[4.1208366,50.93895303],[4.12078079,50.9389744],[4.12078859,50.93898191],[4.1207118,50.93901214]]]}},{"type":"Feature","id":"gebouw/Gebouw.18730852/0","properties":{"source":"Digitaal Vlaanderen Gebouwenregister","source_id":"gebouw/Gebouw.18730852/0","kind":"building","height_m":5.0,"status":null},"geometry":{"type":"Polygon","coordinates":[[[4.12264111,50.93952946],[4.12261048,50.93949002],[4.12265895,50.93947621],[4.12268787,50.93951606],[4.12264111,50.93952946]]]}},{"type":"Feature","id":"gebouw/Gebouw.18730857/0","properties":{"source":"Digitaal Vlaanderen Gebouwenregister","source_id":"gebouw/Gebouw.18730857/0","kind":"building","height_m":8.6,"status":null},"geometry":{"type":"Polygon","coordinates":[[[4.12045815,50.93880433],[4.12051228,50.93878253],[4.12057956,50.93885382],[4.12052739,50.93887526],[4.12045815,50.93880433]]]}},{"type":"Feature","id":"gebouw/Gebouw.18730858/0","properties":{"source":"Digitaal Vlaanderen Gebouwenregister","source_id":"gebouw/Gebouw.18730858/0","kind":"building","height_m":9.32,"status":null},"geometry":{"type":"Polygon","coordinates":[[[4.12117898,50.93961193],[4.12122075,50.93967346],[4.12118085,50.93968578],[4.12117271,50.93967182],[4.12115598,50.9396771],[4.12112385,50.93963143],[4.12117898,50.93961193]]]}},{"type":"Feature","id":"gebouw/Gebouw.18954256/0","properties":{"source":"Digitaal Vlaanderen Gebouwenregister","source_id":"gebouw/Gebouw.18954256/0","kind":"building","height_m":9.32,"status":null},"geometry":{"type":"Polygon","coordinates":[[[4.11916009,50.94152285],[4.11916508,50.94152625],[4.11915789,50.94153046],[4.11905282,50.94159202],[4.11896031,50.94152899],[4.11906703,50.94146647],[4.11903845,50.94144635],[4.11908412,50.94141906],[4.11917449,50.9414801],[4.1191799,50.94148376],[4.1191384,50.94150807],[4.11916009,50.94152285]]]}},{"type":"Feature","id":"gebouw/Gebouw.18961532/0","properties":{"source":"Digitaal Vlaanderen Gebouwenregister","source_id":"gebouw/Gebouw.18961532/0","kind":"building","height_m":6.44,"status":null},"geometry":{"type":"Polygon","coordinates":[[[4.11929715,50.94139142],[4.11922689,50.94143257],[4.11913915,50.9413716],[4.11912783,50.94136373],[4.1191956,50.94132364],[4.11928487,50.94138322],[4.11929715,50.94139142]]]}},{"type":"Feature","id":"gebouw/Gebouw.18962089/0","properties":{"source":"Digitaal Vlaanderen Gebouwenregister","source_id":"gebouw/Gebouw.18962089/0","kind":"building","height_m":9.32,"status":null},"geometry":{"type":"Polygon","coordinates":[[[4.12261559,50.93893499],[4.12257841,50.93889176],[4.12257436,50.93888705],[4.12252434,50.93882891],[4.12247701,50.93884407],[4.1225299,50.93890414],[4.12254625,50.93889872],[4.12258202,50.93893566],[4.12258863,50.93893322],[4.12258956,50.93893431],[4.12258631,50.93893547],[4.12259484,50.93894309],[4.12261559,50.93893499]]]}},{"type":"Feature","id":"gebouw/Gebouw.18972416/0","properties":{"source":"Digitaal Vlaanderen Gebouwenregister","source_id":"gebouw/Gebouw.18972416/0","kind":"building","height_m":5.72,"status":null},"geometry":{"type":"Polygon","coordinates":[[[4.12209552,50.93905195],[4.12201308,50.93907785],[4.12201025,50.93907426],[4.12201315,50.93907331],[4.121996,50.93905115],[4.12199298,50.93905208],[4.12197201,50.93902551],[4.12198016,50.93902287],[4.12194229,50.93897553],[4.12195355,50.93897155],[4.121934,50.93894746],[4.12189062,50.93896085],[4.12184531,50.93890381],[4.12184004,50.93889717],[4.12183996,50.93889707],[4.12183306,50.93888838],[4.12185063,50.93888281],[4.12194121,50.93885408],[4.1219546,50.93887126],[4.12200969,50.9389419],[4.12209552,50.93905195]]]}},{"type":"Feature","id":"gebouw/Gebouw.18972558/0","properties":{"source":"Digitaal Vlaanderen Gebouwenregister","source_id":"gebouw/Gebouw.18972558/0","kind":"building","height_m":7.16,"status":null},"geometry":{"type":"Polygon","coordinates":[[[4.12196098,50.93871444],[4.121994,50.93875103],[4.12216861,50.93869167],[4.12217026,50.93868952],[4.12217051,50.93868815],[4.1221697,50.93868663],[4.12213927,50.93865313],[4.12206705,50.93867586],[4.12201797,50.93859182],[4.12209051,50.93857491],[4.12212065,50.93862652],[4.12216883,50.93861529],[4.12213771,50.938562],[4.12210909,50.93856867],[4.12206915,50.93850028],[4.12198389,50.93852016],[4.1219997,50.93854721],[4.12198443,50.93855077],[4.12198728,50.93855565],[4.12188251,50.93858008],[4.12196098,50.93871444]]]}},{"type":"Feature","id":"gebouw/Gebouw.18978771/0","properties":{"source":"Digitaal Vlaanderen Gebouwenregister","source_id":"gebouw/Gebouw.18978771/0","kind":"building","height_m":5.0,"status":null},"geometry":{"type":"Polygon","coordinates":[[[4.12188681,50.93865482],[4.121843,50.93866643],[4.12189193,50.93874015],[4.12179998,50.93876452],[4.12175446,50.93868981],[4.12171823,50.93863036],[4.12171275,50.93862137],[4.12179211,50.93860034],[4.12176998,50.938567],[4.12181478,50.93855513],[4.121859,50.93862174],[4.12186552,50.93862004],[4.12188681,50.93865482]]]}},{"type":"Feature","id":"gebouw/Gebouw.18986937/0","properties":{"source":"Digitaal Vlaanderen Gebouwenregister","source_id":"gebouw/Gebouw.18986937/0","kind":"building","height_m":7.88,"status":null},"geometry":{"type":"Polygon","coordinates":[[[4.12144663,50.93935444],[4.12124922,50.93943086],[4.12118138,50.93936089],[4.12112034,50.93929794],[4.12128375,50.93923468],[4.12122584,50.93917496],[4.12126635,50.93915928],[4.12144663,50.93935444]]]}},{"type":"Feature","id":"gebouw/Gebouw.18987237/0","properties":{"source":"Digitaal Vlaanderen Gebouwenregister","source_id":"gebouw/Gebouw.18987237/0","kind":"building","height_m":7.16,"status":null},"geometry":{"type":"Polygon","coordinates":[[[4.11917449,50.9414801],[4.11908412,50.94141906],[4.11907247,50.94141119],[4.11913915,50.9413716],[4.11922689,50.94143257],[4.11924003,50.94144171],[4.11917449,50.9414801]]]}},{"type":"Feature","id":"gebouw/Gebouw.18998034/0","properties":{"source":"Digitaal Vlaanderen Gebouwenregister","source_id":"gebouw/Gebouw.18998034/0","kind":"building","height_m":9.32,"status":null},"geometry":{"type":"Polygon","coordinates":[[[4.12174719,50.93871109],[4.12168621,50.93872527],[4.12164768,50.93873424],[4.1216276,50.93870104],[4.12166878,50.93869256],[4.12172915,50.93868012],[4.12174719,50.93871109]]]}},{"type":"Feature","id":"gebouw/Gebouw.18998071/0","properties":{"source":"Digitaal Vlaanderen Gebouwenregister","source_id":"gebouw/Gebouw.18998071/0","kind":"building","height_m":5.72,"status":null},"geometry":{"type":"Polygon","coordinates":[[[4.12046201,50.93930649],[4.12031552,50.93915332],[4.12041871,50.93911192],[4.1205666,50.93926655],[4.12046201,50.93930649]]]}},{"type":"Feature","id":"gebouw/Gebouw.19002543/0","properties":{"source":"Digitaal Vlaanderen Gebouwenregister","source_id":"gebouw/Gebouw.19002543/0","kind":"building","height_m":5.0,"status":null},"geometry":{"type":"Polygon","coordinates":[[[4.12262531,50.93887108],[4.12262914,50.93887539],[4.1226713,50.93892297],[4.12262015,50.93894029],[4.12261559,50.93893499],[4.12257841,50.93889176],[4.12252434,50.9388289],[4.12257382,50.93881296],[4.12262531,50.93887108]]]}},{"type":"Feature","id":"gebouw/Gebouw.19002679/0","properties":{"source":"Digitaal Vlaanderen Gebouwenregister","source_id":"gebouw/Gebouw.19002679/0","kind":"building","height_m":7.16,"status":null},"geometry":{"type":"Polygon","coordinates":[[[4.12236886,50.93890177],[4.12227235,50.93893425],[4.12224779,50.93890513],[4.12224355,50.93890656],[4.12218361,50.93883587],[4.12228508,50.93880152],[4.1223444,50.9388725],[4.12236886,50.93890177]]]}},{"type":"Feature","id":"gebouw/Gebouw.19002804/0","properties":{"source":"Digitaal Vlaanderen Gebouwenregister","source_id":"gebouw/Gebouw.19002804/0","kind":"building","height_m":6.44,"status":null},"geometry":{"type":"Polygon","coordinates":[[[4.12022938,50.94220099],[4.12046526,50.94230262],[4.12030652,50.94245142],[4.12003301,50.94233435],[4.11936158,50.94204697],[4.11933751,50.94206931],[4.11912336,50.94199453],[4.11869363,50.94184448],[4.11874232,50.94178287],[4.11897838,50.94185734],[4.11896152,50.94187868],[4.11909602,50.94192325],[4.1191105,50.9419058],[4.11897634,50.94186134],[4.11906641,50.94174228],[4.11904094,50.94173385],[4.11901498,50.94176772],[4.11886761,50.94171381],[4.11882882,50.94176136],[4.11876242,50.9417425],[4.11880761,50.94168853],[4.11887184,50.94161056],[4.11913845,50.94170602],[4.11911359,50.94173374],[4.11919904,50.94176433],[4.11918756,50.94177713],[4.11922669,50.94179114],[4.11922869,50.94179914],[4.11916434,50.94187088],[4.11922876,50.94189315],[4.11928981,50.94191424],[4.11933919,50.94185919],[4.11949793,50.94191602],[4.11951746,50.94189424],[4.12022938,50.94220099]]]}},{"type":"Feature","id":"gebouw/Gebouw.19002947/0","properties":{"source":"Digitaal Vlaanderen Gebouwenregister","source_id":"gebouw/Gebouw.19002947/0","kind":"building","height_m":8.6,"status":null},"geometry":{"type":"Polygon","coordinates":[[[4.12053654,50.93902342],[4.12056201,50.93905161],[4.12062663,50.93902722],[4.1206977,50.93910081],[4.12056136,50.93915336],[4.12046224,50.93905071],[4.12053654,50.93902342]]]}},{"type":"Feature","id":"gebouw/Gebouw.19790178/0","properties":{"source":"Digitaal Vlaanderen Gebouwenregister","source_id":"gebouw/Gebouw.19790178/0","kind":"building","height_m":6.44,"status":null},"geometry":{"type":"Polygon","coordinates":[[[4.12178979,50.93933253],[4.12175018,50.93934725],[4.121707,50.93930292],[4.12174614,50.93928771],[4.12178979,50.93933253]]]}},{"type":"Feature","id":"gebouw/Gebouw.19790179/0","properties":{"source":"Digitaal Vlaanderen Gebouwenregister","source_id":"gebouw/Gebouw.19790179/0","kind":"building","height_m":7.16,"status":null},"geometry":{"type":"Polygon","coordinates":[[[4.1230131,50.93816911],[4.12295975,50.93806889],[4.12295331,50.93807026],[4.12294851,50.93806125],[4.1229215,50.93806699],[4.12290671,50.93803921],[4.12277478,50.93806725],[4.12277824,50.93807376],[4.1227179,50.93808658],[4.12272276,50.93809571],[4.12266,50.93810905],[4.12268492,50.93815586],[4.12269726,50.93817905],[4.12288682,50.93813876],[4.12291417,50.93819013],[4.1230131,50.93816911]]]}},{"type":"Feature","id":"gebouw/Gebouw.19872871/0","properties":{"source":"Digitaal Vlaanderen Gebouwenregister","source_id":"gebouw/Gebouw.19872871/0","kind":"building","height_m":7.88,"status":null},"geometry":{"type":"Polygon","coordinates":[[[4.11954713,50.94142605],[4.1193998,50.94129207],[4.11946505,50.9412538],[4.11949615,50.94127841],[4.1195234,50.94126467],[4.1195563,50.94128914],[4.11952355,50.941302],[4.11957888,50.94135827],[4.11967503,50.94132053],[4.11965569,50.94130086],[4.11966304,50.94129798],[4.11959427,50.94122804],[4.11960972,50.94121991],[4.11957228,50.94119152],[4.11956177,50.94119734],[4.1194879,50.94114414],[4.11926428,50.94126807],[4.11935011,50.94134499],[4.11948178,50.94145981],[4.11954713,50.94142605]]]}},{"type":"Feature","id":"gebouw/Gebouw.19872872/0","properties":{"source":"Digitaal Vlaanderen Gebouwenregister","source_id":"gebouw/Gebouw.19872872/0","kind":"building","height_m":8.6,"status":null},"geometry":{"type":"Polygon","coordinates":[[[4.11954713,50.94142605],[4.11958718,50.94146203],[4.11952015,50.94149153],[4.11948178,50.94145981],[4.11954713,50.94142605]]]}},{"type":"Feature","id":"gebouw/Gebouw.19873198/0","properties":{"source":"Digitaal Vlaanderen Gebouwenregister","source_id":"gebouw/Gebouw.19873198/0","kind":"building","height_m":6.44,"status":null},"geometry":{"type":"Polygon","coordinates":[[[4.121335,50.93931722],[4.12135597,50.93934095],[4.12145351,50.93930653],[4.12132836,50.93916495],[4.12132285,50.93916685],[4.1212835,50.93918047],[4.12122297,50.93920142],[4.12128265,50.93926894],[4.12132946,50.93931918],[4.121335,50.93931722]]]}},{"type":"Feature","id":"gebouw/Gebouw.19873199/0","properties":{"source":"Digitaal Vlaanderen Gebouwenregister","source_id":"gebouw/Gebouw.19873199/0","kind":"building","height_m":7.16,"status":null},"geometry":{"type":"Polygon","coordinates":[[[4.12128265,50.93926894],[4.12132946,50.93931918],[4.12122625,50.9393556],[4.12112159,50.93923719],[4.1211282,50.93923486],[4.12118977,50.93921313],[4.12122054,50.93920228],[4.12122297,50.93920142],[4.12128265,50.93926894]]]}},{"type":"Feature","id":"gebouw/Gebouw.19874149/0","properties":{"source":"Digitaal Vlaanderen Gebouwenregister","source_id":"gebouw/Gebouw.19874149/0","kind":"building","height_m":5.72,"status":null},"geometry":{"type":"Polygon","coordinates":[[[4.12262428,50.93886991],[4.12257435,50.93888705],[4.12252434,50.9388289],[4.12257382,50.93881296],[4.12262428,50.93886991]]]}},{"type":"Feature","id":"gebouw/Gebouw.19874150/0","properties":{"source":"Digitaal Vlaanderen Gebouwenregister","source_id":"gebouw/Gebouw.19874150/0","kind":"building","height_m":6.44,"status":null},"geometry":{"type":"Polygon","coordinates":[[[4.12262428,50.93886991],[4.1226713,50.93892297],[4.12262015,50.93894029],[4.12261559,50.93893499],[4.12257841,50.93889176],[4.12257435,50.93888705],[4.12262428,50.93886991]]]}},{"type":"Feature","id":"gebouw/Gebouw.19874715/0","properties":{"source":"Digitaal Vlaanderen Gebouwenregister","source_id":"gebouw/Gebouw.19874715/0","kind":"building","height_m":5.0,"status":null},"geometry":{"type":"Polygon","coordinates":[[[4.12270542,50.93883831],[4.12268101,50.93880992],[4.12266501,50.93879132],[4.12263817,50.93876012],[4.12262647,50.93874652],[4.12258409,50.93869725],[4.12249637,50.93872804],[4.12256707,50.93880535],[4.12256813,50.93880654],[4.12259415,50.93879744],[4.12264786,50.93885852],[4.12270542,50.93883831]]]}},{"type":"Feature","id":"gebouw/Gebouw.19874716/0","properties":{"source":"Digitaal Vlaanderen Gebouwenregister","source_id":"gebouw/Gebouw.19874716/0","kind":"building","height_m":5.72,"status":null},"geometry":{"type":"Polygon","coordinates":[[[4.12266501,50.93879132],[4.12262054,50.93880688],[4.12260697,50.9387914],[4.12259331,50.93877587],[4.12263817,50.93876012],[4.12266501,50.93879132]]]}},{"type":"Feature","id":"gebouw/Gebouw.19874951/0","properties":{"source":"Digitaal Vlaanderen Gebouwenregister","source_id":"gebouw/Gebouw.19874951/0","kind":"building","height_m":8.6,"status":null},"geometry":{"type":"Polygon","coordinates":[[[4.12252117,50.93959094],[4.12253674,50.93961038],[4.1225738,50.93965666],[4.12254952,50.93966346],[4.12259287,50.93972526],[4.1224806,50.9397567],[4.12247723,50.93975182],[4.12246175,50.93972939],[4.12241664,50.93966401],[4.12249803,50.9396416],[4.12248687,50.93962542],[4.12248287,50.93962652],[4.12247236,50.93960438],[4.12252117,50.93959094]]]}},{"type":"Feature","id":"gebouw/Gebouw.19874952/0","properties":{"source":"Digitaal Vlaanderen Gebouwenregister","source_id":"gebouw/Gebouw.19874952/0","kind":"building","height_m":9.32,"status":null},"geometry":{"type":"Polygon","coordinates":[[[4.12247236,50.93960438],[4.12245365,50.93960954],[4.12243617,50.9395842],[4.12250139,50.93956624],[4.12251896,50.93958817],[4.12252117,50.93959094],[4.12247236,50.93960438]]]}},{"type":"Feature","id":"gebouw/Gebouw.20145568/0","properties":{"source":"Digitaal Vlaanderen Gebouwenregister","source_id":"gebouw/Gebouw.20145568/0","kind":"building","height_m":6.44,"status":null},"geometry":{"type":"Polygon","coordinates":[[[4.11798838,50.94170779],[4.117937,50.94168564],[4.11797059,50.94165453],[4.11802197,50.94167668],[4.11798838,50.94170779]]]}},{"type":"Feature","id":"gebouw/Gebouw.20145577/0","properties":{"source":"Digitaal Vlaanderen Gebouwenregister","source_id":"gebouw/Gebouw.20145577/0","kind":"building","height_m":7.88,"status":null},"geometry":{"type":"Polygon","coordinates":[[[4.12202016,50.93835482],[4.12206801,50.93833973],[4.12209107,50.93836892],[4.12204322,50.93838401],[4.12202016,50.93835482]]]}},{"type":"Feature","id":"gebouw/Gebouw.20145623/0","properties":{"source":"Digitaal Vlaanderen Gebouwenregister","source_id":"gebouw/Gebouw.20145623/0","kind":"building","height_m":5.72,"status":null},"geometry":{"type":"Polygon","coordinates":[[[4.11505637,50.93640952],[4.11506078,50.93638801],[4.1151259,50.93639333],[4.11512149,50.93641485],[4.11505637,50.93640952]]]}},{"type":"Feature","id":"gebouw/Gebouw.20146278/0","properties":{"source":"Digitaal Vlaanderen Gebouwenregister","source_id":"gebouw/Gebouw.20146278/0","kind":"building","height_m":8.6,"status":null},"geometry":{"type":"Polygon","coordinates":[[[4.12091337,50.93858261],[4.12088792,50.93851657],[4.12083599,50.93852456],[4.12084112,50.93853787],[4.12086144,50.9385906],[4.12091337,50.93858261]]]}},{"type":"Feature","id":"gebouw/Gebouw.20146279/0","properties":{"source":"Digitaal Vlaanderen Gebouwenregister","source_id":"gebouw/Gebouw.20146279/0","kind":"building","height_m":9.32,"status":null},"geometry":{"type":"Polygon","coordinates":[[[4.12049993,50.93987417],[4.1205316,50.93986236],[4.12057513,50.939909],[4.12054346,50.9399208],[4.12049993,50.93987417]]]}},{"type":"Feature","id":"gebouw/Gebouw.20146316/0","properties":{"source":"Digitaal Vlaanderen Gebouwenregister","source_id":"gebouw/Gebouw.20146316/0","kind":"building","height_m":5.72,"status":null},"geometry":{"type":"Polygon","coordinates":[[[4.12263001,50.93591432],[4.1225978,50.93588245],[4.12268219,50.93584839],[4.1227144,50.93588026],[4.12263001,50.93591432]]]}},{"type":"Feature","id":"gebouw/Gebouw.30642137/0","properties":{"source":"Digitaal Vlaanderen Gebouwenregister","source_id":"gebouw/Gebouw.30642137/0","kind":"building","height_m":5.72,"status":null},"geometry":{"type":"Polygon","coordinates":[[[4.12100746,50.94099912],[4.12098176,50.94097316],[4.1210535,50.94094482],[4.1210792,50.94097078],[4.12100746,50.94099912]]]}},{"type":"Feature","id":"gebouw/Gebouw.30642177/0","properties":{"source":"Digitaal Vlaanderen Gebouwenregister","source_id":"gebouw/Gebouw.30642177/0","kind":"building","height_m":9.32,"status":null},"geometry":{"type":"Polygon","coordinates":[[[4.1166127,50.93604015],[4.11660156,50.93601913],[4.11666403,50.93600591],[4.11667518,50.93602693],[4.1166127,50.93604015]]]}},{"type":"Feature","id":"gebouw/Gebouw.31805633/0","properties":{"source":"Digitaal Vlaanderen Gebouwenregister","source_id":"gebouw/Gebouw.31805633/0","kind":"building","height_m":9.32,"status":null},"geometry":{"type":"Polygon","coordinates":[[[4.12258256,50.93882693],[4.12253695,50.93884268],[4.12262085,50.93893972],[4.12266647,50.93892397],[4.12258256,50.93882693]]]}},{"type":"Feature","id":"gebouw/Gebouw.31805789/0","properties":{"source":"Digitaal Vlaanderen Gebouwenregister","source_id":"gebouw/Gebouw.31805789/0","kind":"building","height_m":5.72,"status":null},"geometry":{"type":"Polygon","coordinates":[[[4.12136964,50.93844961],[4.12141911,50.93843924],[4.12140334,50.93840922],[4.12135387,50.9384196],[4.12136964,50.93844961]]]}},{"type":"Feature","id":"gebouw/Gebouw.31805996/0","properties":{"source":"Digitaal Vlaanderen Gebouwenregister","source_id":"gebouw/Gebouw.31805996/0","kind":"building","height_m":8.6,"status":null},"geometry":{"type":"Polygon","coordinates":[[[4.12074671,50.93853916],[4.12075895,50.9385799],[4.12084902,50.93856749],[4.12083388,50.93852634],[4.12074671,50.93853916]]]}},{"type":"Feature","id":"gebouw/Gebouw.31806148/0","properties":{"source":"Digitaal Vlaanderen Gebouwenregister","source_id":"gebouw/Gebouw.31806148/0","kind":"building","height_m":7.16,"status":null},"geometry":{"type":"Polygon","coordinates":[[[4.12266,50.93810905],[4.12264701,50.93808465],[4.12257573,50.9380998],[4.12261364,50.93817101],[4.12268492,50.93815586],[4.12266,50.93810905]]]}},{"type":"Feature","id":"gebouw/Gebouw.31806453/0","properties":{"source":"Digitaal Vlaanderen Gebouwenregister","source_id":"gebouw/Gebouw.31806453/0","kind":"building","height_m":5.0,"status":null},"geometry":{"type":"Polygon","coordinates":[[[4.1198162,50.93593056],[4.11979704,50.93588447],[4.11971507,50.93589809],[4.11973797,50.93594337],[4.1198162,50.93593056]]]}},{"type":"Feature","id":"gebouw/Gebouw.32035744/0","properties":{"source":"Digitaal Vlaanderen Gebouwenregister","source_id":"gebouw/Gebouw.32035744/0","kind":"building","height_m":9.32,"status":null},"geometry":{"type":"Polygon","coordinates":[[[4.12079533,50.93841537],[4.12080528,50.93844485],[4.1208534,50.93843837],[4.12084346,50.93840889],[4.12079533,50.93841537]]]}},{"type":"Feature","id":"gebouw/Gebouw.32036018/0","properties":{"source":"Digitaal Vlaanderen Gebouwenregister","source_id":"gebouw/Gebouw.32036018/0","kind":"building","height_m":5.0,"status":null},"geometry":{"type":"Polygon","coordinates":[[[4.11856299,50.94153788],[4.1186152,50.94149512],[4.11857358,50.94147483],[4.11852136,50.94151759],[4.11856299,50.94153788]]]}},{"type":"Feature","id":"way/143666247","properties":{"source":"OpenStreetMap","source_id":"way/143666247","kind":"waterway","name":"Molenbeek","waterway":"stream","landuse":null},"geometry":{"type":"LineString","coordinates":[[4.1251074,50.9367519],[4.1250148,50.9367499],[4.1249728,50.9367584],[4.1249672,50.936782],[4.1249795,50.9368047],[4.125,50.936846],[4.124982,50.9368741],[4.1249498,50.9369083],[4.1249055,50.9369552],[4.1248841,50.9369666],[4.1248489,50.9369694],[4.124813,50.9369468],[4.1247929,50.9369189],[4.1247649,50.9368859],[4.1247131,50.9368454],[4.1246749,50.9368318],[4.1246534,50.9368372],[4.1246411,50.9368929],[4.1246684,50.9369819],[4.1246641,50.9369983],[4.124646,50.9370085],[4.1246199,50.9370055],[4.1245918,50.9369937],[4.1245421,50.9369763],[4.1245039,50.9369704],[4.1244216,50.936967],[4.1243385,50.9369461],[4.1242846,50.9369278],[4.1242577,50.9369519],[4.1242477,50.9370085],[4.1242697,50.9370398],[4.1242437,50.9371238],[4.1241817,50.9371525],[4.1241091,50.9371667],[4.1240627,50.9371813],[4.1240525,50.9371996],[4.1240533,50.9372248],[4.1240423,50.9372497],[4.124013,50.9372531],[4.1239889,50.9372502],[4.1239199,50.9372303],[4.1238518,50.9372132],[4.1237603,50.937214],[4.123726,50.9372443],[4.1236749,50.9372645],[4.1236047,50.9372421],[4.1235416,50.937243],[4.1235269,50.9372662],[4.1235758,50.9373162],[4.1236328,50.9373524],[4.1236406,50.9373835],[4.1236033,50.9373972],[4.1234974,50.9373985],[4.1234002,50.9374051],[4.1233496,50.9374141],[4.1232774,50.9374479],[4.123194,50.9374074],[4.1231326,50.9373964],[4.1230734,50.9374196],[4.1230944,50.9374644],[4.1231138,50.9374953],[4.1230915,50.9375198],[4.1230127,50.9375519],[4.1229601,50.937559],[4.1228994,50.9375698],[4.1228654,50.9375782],[4.1228424,50.9376207],[4.1228133,50.9376417],[4.1226858,50.9376257],[4.1226289,50.9376384],[4.1226253,50.9377308],[4.1225853,50.9377458],[4.1224433,50.9377395],[4.1224192,50.9378014],[4.1223526,50.937824],[4.1222682,50.937797],[4.1222275,50.9378006],[4.1222131,50.9378373],[4.1222716,50.9378933],[4.1222754,50.93793],[4.1222064,50.9379551],[4.1220855,50.93793],[4.1220384,50.9378769],[4.1219693,50.9378394],[4.1219173,50.9378541],[4.1219161,50.937981],[4.1218557,50.9379825],[4.1217312,50.9379492],[4.1217028,50.9379709],[4.1216382,50.9380755],[4.1215874,50.9380964],[4.1215092,50.9380975],[4.1214172,50.9380812],[4.1213871,50.9381112],[4.1214018,50.9381723],[4.1212648,50.9382346],[4.1211073,50.9382032],[4.1210366,50.9382782],[4.1209017,50.9383562],[4.1208159,50.9383695],[4.1207341,50.9383179],[4.1206603,50.9383496],[4.1205865,50.9384534],[4.1204454,50.9385037],[4.1202763,50.9385117],[4.1200365,50.9385731],[4.1198894,50.938564],[4.1198317,50.9386011],[4.1197784,50.9386648],[4.1196426,50.9386996],[4.1195101,50.9387029],[4.119277,50.9386853],[4.1191996,50.9386475],[4.1191033,50.9387191],[4.11905,50.9387852],[4.1190278,50.9388064],[4.1189691,50.9388154],[4.1188636,50.9387753],[4.1187887,50.9387802],[4.118704,50.9387958],[4.1185951,50.9388131],[4.1185317,50.938825],[4.118483,50.9388368],[4.1184673,50.9389517],[4.118432,50.9389711],[4.1183535,50.9389543],[4.1182993,50.9389092],[4.1183019,50.9388702],[4.1183002,50.9387996],[4.1182488,50.9387791],[4.1181783,50.9388354],[4.118136,50.9388748],[4.1180958,50.9388721],[4.1180463,50.9388351],[4.1179497,50.9388165],[4.1178453,50.9388421],[4.1177166,50.9388815],[4.1175976,50.9389332],[4.1175367,50.9389372],[4.1174232,50.9388947],[4.1173049,50.9388768],[4.1171853,50.9388419],[4.1171021,50.9388351],[4.1170377,50.9388486],[4.1169761,50.9388216],[4.1169331,50.9388351],[4.1169294,50.9389084],[4.1168926,50.938929],[4.1168327,50.9389189],[4.1166984,50.938882],[4.1165007,50.9388262],[4.1163723,50.938803],[4.1163317,50.9387722],[4.1162854,50.9387539],[4.1162264,50.9387632],[4.1161957,50.9387908],[4.1162198,50.9388432],[4.1162519,50.9388841],[4.1162089,50.9389095],[4.1161622,50.9389018],[4.116133,50.938882],[4.1160762,50.938808],[4.115981,50.9388066],[4.1158794,50.9388715],[4.1157584,50.9388813],[4.1156985,50.9388423],[4.115655,50.9388361],[4.1155747,50.938867],[4.1154465,50.9389651],[4.1153838,50.9390341],[4.1153301,50.9390488],[4.1152731,50.9390337],[4.1152141,50.9389523],[4.1151629,50.9389483],[4.1151308,50.9389835],[4.1150967,50.9390697],[4.1150587,50.9390831],[4.115018,50.9390599],[4.1149937,50.9390279],[4.1149345,50.9389698],[4.1148528,50.9389657]]}},{"type":"Feature","id":"way/147536065","properties":{"source":"OpenStreetMap","source_id":"way/147536065","kind":"vegetation","name":null,"waterway":null,"landuse":"forest"},"geometry":{"type":"Polygon","coordinates":[[[4.1194438,50.940028],[4.1201733,50.9398049],[4.1194545,50.9389801],[4.1190454,50.9389973],[4.1194438,50.940028]]]}},{"type":"Feature","id":"way/148695816","properties":{"source":"OpenStreetMap","source_id":"way/148695816","kind":"vegetation","name":null,"waterway":null,"landuse":"forest"},"geometry":{"type":"Polygon","coordinates":[[[4.1132318,50.938997],[4.1128026,50.937993],[4.1124807,50.937939],[4.1124164,50.9378308],[4.1119121,50.9378443],[4.1125896,50.939395],[4.1127013,50.9393293],[4.1128182,50.9392426],[4.1129862,50.9391297],[4.1132318,50.938997]]]}},{"type":"Feature","id":"way/160717264","properties":{"source":"OpenStreetMap","source_id":"way/160717264","kind":"vegetation","name":null,"waterway":null,"landuse":"forest"},"geometry":{"type":"Polygon","coordinates":[[[4.1209374,50.9387476],[4.1212332,50.9390201],[4.1210104,50.939115],[4.1206673,50.9387747],[4.1209374,50.9387476]]]}},{"type":"Feature","id":"way/160717299","properties":{"source":"OpenStreetMap","source_id":"way/160717299","kind":"vegetation","name":null,"waterway":null,"landuse":"forest"},"geometry":{"type":"Polygon","coordinates":[[[4.1172664,50.9416484],[4.116684,50.9421225],[4.1170199,50.9422485],[4.1173064,50.9420022],[4.1173064,50.9418249],[4.1172692,50.9417885],[4.1173664,50.9416894],[4.1172664,50.9416484]]]}},{"type":"Feature","id":"way/160747285","properties":{"source":"OpenStreetMap","source_id":"way/160747285","kind":"vegetation","name":null,"waterway":null,"landuse":"forest"},"geometry":{"type":"Polygon","coordinates":[[[4.1180093,50.935413],[4.1176379,50.9354309],[4.1176624,50.9357875],[4.1175122,50.9358888],[4.1174859,50.9360952],[4.1179948,50.9360827],[4.1179948,50.936159],[4.116772,50.9361839],[4.1167709,50.9361482],[4.1167449,50.9353511],[4.1173351,50.9353344],[4.1180029,50.9353154],[4.1180093,50.935413]]]}},{"type":"Feature","id":"way/160747360","properties":{"source":"OpenStreetMap","source_id":"way/160747360","kind":"vegetation","name":null,"waterway":null,"landuse":"forest"},"geometry":{"type":"Polygon","coordinates":[[[4.1141404,50.936486],[4.1141709,50.93771],[4.1140398,50.937726],[4.1140141,50.9373705],[4.1140181,50.9364827],[4.1141404,50.936486]]]}},{"type":"Feature","id":"way/160747392","properties":{"source":"OpenStreetMap","source_id":"way/160747392","kind":"vegetation","name":null,"waterway":null,"landuse":"forest"},"geometry":{"type":"Polygon","coordinates":[[[4.1150385,50.937559],[4.1156328,50.9373793],[4.1164467,50.9381585],[4.1162965,50.9382136],[4.1156118,50.9374959],[4.1151961,50.9376368],[4.1156083,50.9384513],[4.1154838,50.9384852],[4.1150385,50.937559]]]}},{"type":"Feature","id":"way/990526138","properties":{"source":"OpenStreetMap","source_id":"way/990526138","kind":"vegetation","name":null,"waterway":null,"landuse":"forest"},"geometry":{"type":"Polygon","coordinates":[[[4.1089877,50.9393929],[4.1097744,50.9390997],[4.1098414,50.9389057],[4.1098691,50.9388504],[4.1098929,50.938803],[4.1099058,50.9387773],[4.1109894,50.9382804],[4.1110852,50.938091],[4.1108995,50.9377774],[4.1108079,50.9376348],[4.1106626,50.9374828],[4.110689,50.9374676],[4.1108221,50.9374474],[4.1114561,50.9372865],[4.1108661,50.9365597],[4.1101604,50.9363775],[4.1100077,50.9365068],[4.1099135,50.9367289],[4.109135,50.9352216],[4.1089169,50.9353034],[4.1083514,50.9348051],[4.1075609,50.9350822],[4.1075757,50.93398],[4.1078597,50.9340058],[4.1080549,50.9340236],[4.1086972,50.9345871],[4.1091863,50.9343505],[4.1092604,50.9344159],[4.1090035,50.9345435],[4.109621,50.9352363],[4.1096953,50.9353638],[4.1097939,50.9355787],[4.1112946,50.9353517],[4.1112905,50.9359555],[4.1113324,50.9361199],[4.1114429,50.9362648],[4.111979,50.9367726],[4.1123171,50.9373242],[4.1123885,50.9376942],[4.113981,50.9377486],[4.1140264,50.9379001],[4.1141012,50.9380414],[4.1132371,50.9381452],[4.1136931,50.9390173],[4.1139547,50.9390434],[4.1147195,50.9389061],[4.1150685,50.9388735],[4.114642,50.9379846],[4.1141792,50.9380326],[4.1140889,50.9378744],[4.1140398,50.937726],[4.1141709,50.93771],[4.1150385,50.937559],[4.1154838,50.9384852],[4.1156404,50.9388111],[4.1160534,50.9387874],[4.1165891,50.9385475],[4.116469,50.938277],[4.1178079,50.9381256],[4.1171378,50.9367771],[4.1175668,50.9366638],[4.11826,50.9365895],[4.1183099,50.9365845],[4.1195503,50.9366382],[4.1203053,50.938385],[4.1222219,50.9376977],[4.1225189,50.9376421],[4.1229999,50.9374638],[4.1231013,50.9375723],[4.1227523,50.9376748],[4.122551,50.9377921],[4.1224428,50.9378552],[4.1218793,50.9380605],[4.1201567,50.9386114],[4.1196804,50.9387624],[4.1191845,50.9387562],[4.1190576,50.9388462],[4.1190454,50.9389973],[4.1186748,50.9390461],[4.1184667,50.9390009],[4.1181535,50.9388981],[4.1179088,50.9389002],[4.1176282,50.9389824],[4.1174846,50.938966],[4.1171681,50.9389104],[4.1168647,50.9389577],[4.1165291,50.9388828],[4.1162412,50.9389936],[4.1159944,50.9389328],[4.1157155,50.9389565],[4.115399,50.9391627],[4.1151147,50.9391525],[4.1151188,50.9391728],[4.1151351,50.9392526],[4.1146372,50.9396427],[4.1136931,50.9392167],[4.1132908,50.9392201],[4.1128402,50.9395108],[4.1125076,50.9394973],[4.1123466,50.9396021],[4.1122919,50.9397258],[4.1118048,50.9399773],[4.1117723,50.9399985],[4.1117327,50.9400244],[4.1124915,50.9404151],[4.1120679,50.9407094],[4.1119979,50.9410184],[4.1110431,50.9405215],[4.1108661,50.940677],[4.110596,50.941002],[4.1107614,50.9412616],[4.1102748,50.9417605],[4.1098881,50.9415085],[4.1107164,50.9405703],[4.1089877,50.9393929]]]}},{"type":"Feature","id":"way/1030390749","properties":{"source":"OpenStreetMap","source_id":"way/1030390749","kind":"waterway","name":"Molenbeek","waterway":"stream","landuse":null},"geometry":{"type":"LineString","coordinates":[[4.1148528,50.9389657],[4.1147665,50.9389993]]}},{"type":"Feature","id":"way/1103765427","properties":{"source":"OpenStreetMap","source_id":"way/1103765427","kind":"waterway","name":"Molenbeek","waterway":"stream","landuse":null},"geometry":{"type":"LineString","coordinates":[[4.1147665,50.9389993],[4.1146526,50.9390513],[4.1146617,50.9390764],[4.1146939,50.9391317],[4.1146346,50.9391558],[4.1145097,50.9391373],[4.1143769,50.9390702],[4.1143424,50.9390613],[4.1142732,50.9390795],[4.1140803,50.9391528],[4.1140674,50.9391719],[4.1140652,50.9392263],[4.1140344,50.9392344],[4.1139913,50.9392265],[4.1139703,50.9391856],[4.1139394,50.93915],[4.1139057,50.9391567],[4.113818,50.9392303],[4.1137603,50.9392319],[4.1137388,50.9391956],[4.1137721,50.9391266],[4.1137643,50.9390856],[4.1137075,50.9390881],[4.1136743,50.9390971],[4.1135671,50.9391322],[4.1135254,50.9391703],[4.1134769,50.9391916],[4.1134343,50.9391723],[4.1134357,50.9390849],[4.1134048,50.9390618],[4.1133437,50.9390572],[4.1132865,50.9390808],[4.1132026,50.9391191],[4.1131858,50.9391829],[4.1131496,50.9392087],[4.113081,50.9392056],[4.1129627,50.9391712],[4.1129392,50.9391938],[4.1129266,50.9393162],[4.1128767,50.9393448],[4.1127569,50.9394114],[4.1126478,50.9394864],[4.1125416,50.9394727],[4.112476,50.9394796],[4.1123251,50.9395686],[4.1123116,50.9396081],[4.1122904,50.9396832],[4.1122655,50.9397038],[4.1122196,50.9397174],[4.1121568,50.93974],[4.1120862,50.9397844],[4.1119712,50.9397738],[4.111926,50.9397666],[4.1118847,50.9397772],[4.1118506,50.9398441],[4.1117393,50.9399274],[4.1117267,50.9399641]]}}]}