{"type":"FeatureCollection","features":[{"type":"Feature","id":"gebouw/Gebouw.15684830/0","properties":{"source":"Digitaal Vlaanderen Gebouwenregister","source_id":"gebouw/Gebouw.15684830/0","kind":"building","height_m":5.0,"status":null},"geometry":{"type":"Polygon","coordinates":[[[4.12284328,50.95007184],[4.12275441,50.95018215],[4.12257236,50.95040813],[4.12231971,50.95032711],[4.1225019,50.95010095],[4.12259076,50.94999066],[4.12284328,50.95007184]]]}},{"type":"Feature","id":"gebouw/Gebouw.15694061/0","properties":{"source":"Digitaal Vlaanderen Gebouwenregister","source_id":"gebouw/Gebouw.15694061/0","kind":"building","height_m":8.6,"status":null},"geometry":{"type":"Polygon","coordinates":[[[4.11253849,50.95109748],[4.11255729,50.95111523],[4.1126053,50.95116058],[4.1125884,50.95116703],[4.11254581,50.95112901],[4.11252304,50.95110868],[4.11250112,50.95108911],[4.11244587,50.95103979],[4.11250951,50.95096336],[4.11256571,50.95089588],[4.11262873,50.95091674],[4.11270015,50.95094037],[4.11260707,50.9510434],[4.11257318,50.95109968],[4.11255468,50.95109262],[4.11255218,50.95109523],[4.11254474,50.95109219],[4.11253849,50.95109748]]]}},{"type":"Feature","id":"gebouw/Gebouw.15701962/0","properties":{"source":"Digitaal Vlaanderen Gebouwenregister","source_id":"gebouw/Gebouw.15701962/0","kind":"building","height_m":7.16,"status":null},"geometry":{"type":"Polygon","coordinates":[[[4.12175723,50.95046489],[4.12169592,50.95052016],[4.12170764,50.95052535],[4.1215807,50.9506398],[4.12157758,50.95063842],[4.12155635,50.95065756],[4.12149693,50.95063125],[4.12151692,50.95061323],[4.12151166,50.95061091],[4.12162613,50.95050771],[4.12155785,50.9504775],[4.12145835,50.9505672],[4.12138971,50.95053681],[4.1213963,50.95053087],[4.12134615,50.95050867],[4.12144182,50.95042242],[4.12149439,50.95044569],[4.12150279,50.95043812],[4.1215093,50.95044101],[4.12157317,50.95038343],[4.12175723,50.95046489]]]}},{"type":"Feature","id":"gebouw/Gebouw.15765716/0","properties":{"source":"Digitaal Vlaanderen Gebouwenregister","source_id":"gebouw/Gebouw.15765716/0","kind":"building","height_m":5.72,"status":null},"geometry":{"type":"Polygon","coordinates":[[[4.12246562,50.95105266],[4.12256217,50.95108079],[4.12260356,50.9510241],[4.12250701,50.95099597],[4.12246562,50.95105266]]]}},{"type":"Feature","id":"gebouw/Gebouw.15823349/0","properties":{"source":"Digitaal Vlaanderen Gebouwenregister","source_id":"gebouw/Gebouw.15823349/0","kind":"building","height_m":7.16,"status":null},"geometry":{"type":"Polygon","coordinates":[[[4.11895399,50.94936712],[4.11908828,50.94941143],[4.11904497,50.94946125],[4.1190382,50.94945946],[4.1190118,50.94949104],[4.11897629,50.9494791],[4.11887605,50.94944539],[4.11891094,50.94942116],[4.11895399,50.94936712]]]}},{"type":"Feature","id":"gebouw/Gebouw.15825910/0","properties":{"source":"Digitaal Vlaanderen Gebouwenregister","source_id":"gebouw/Gebouw.15825910/0","kind":"building","height_m":6.44,"status":null},"geometry":{"type":"Polygon","coordinates":[[[4.1124576,50.950858],[4.11251691,50.95087757],[4.11248839,50.9509113],[4.11250047,50.9509154],[4.11247062,50.95095049],[4.11250951,50.95096336],[4.11244587,50.95103979],[4.11240573,50.95100396],[4.11233768,50.9509432],[4.11237115,50.95090272],[4.11236797,50.95090167],[4.11241555,50.95084413],[4.1124576,50.950858]]]}},{"type":"Feature","id":"gebouw/Gebouw.15834433/0","properties":{"source":"Digitaal Vlaanderen Gebouwenregister","source_id":"gebouw/Gebouw.15834433/0","kind":"building","height_m":9.32,"status":null},"geometry":{"type":"Polygon","coordinates":[[[4.11378043,50.94936243],[4.11370355,50.94931409],[4.1139048,50.94918634],[4.11398169,50.94923468],[4.11378043,50.94936243]]]}},{"type":"Feature","id":"gebouw/Gebouw.15839521/0","properties":{"source":"Digitaal Vlaanderen Gebouwenregister","source_id":"gebouw/Gebouw.15839521/0","kind":"building","height_m":8.6,"status":null},"geometry":{"type":"Polygon","coordinates":[[[4.11938589,50.95022692],[4.11930215,50.95030997],[4.11924052,50.95028624],[4.11923435,50.95029263],[4.1191242,50.9502502],[4.11913289,50.9502412],[4.11907043,50.95021715],[4.11914905,50.9501357],[4.11932516,50.95020353],[4.11938589,50.95022692]]]}},{"type":"Feature","id":"gebouw/Gebouw.15846715/0","properties":{"source":"Digitaal Vlaanderen Gebouwenregister","source_id":"gebouw/Gebouw.15846715/0","kind":"building","height_m":7.16,"status":null},"geometry":{"type":"Polygon","coordinates":[[[4.1194496,50.94887878],[4.11946002,50.9488808],[4.11946081,50.94887916],[4.11951956,50.94889052],[4.11952503,50.94887922],[4.11958483,50.94889079],[4.11950088,50.94905203],[4.1193795,50.94902681],[4.11938386,50.94901785],[4.11938238,50.94901744],[4.1194496,50.94887878]]]}},{"type":"Feature","id":"gebouw/Gebouw.15847127/0","properties":{"source":"Digitaal Vlaanderen Gebouwenregister","source_id":"gebouw/Gebouw.15847127/0","kind":"building","height_m":6.44,"status":null},"geometry":{"type":"Polygon","coordinates":[[[4.11398466,50.94932965],[4.11401063,50.94931274],[4.11413318,50.94938784],[4.11410721,50.94940475],[4.11398466,50.94932965]]]}},{"type":"Feature","id":"gebouw/Gebouw.15851353/0","properties":{"source":"Digitaal Vlaanderen Gebouwenregister","source_id":"gebouw/Gebouw.15851353/0","kind":"building","height_m":5.0,"status":null},"geometry":{"type":"Polygon","coordinates":[[[4.11392117,50.95193741],[4.11396582,50.95195855],[4.11393856,50.95198151],[4.11389391,50.95196036],[4.11392117,50.95193741]]]}},{"type":"Feature","id":"gebouw/Gebouw.15886855/0","properties":{"source":"Digitaal Vlaanderen Gebouwenregister","source_id":"gebouw/Gebouw.15886855/0","kind":"building","height_m":8.6,"status":null},"geometry":{"type":"Polygon","coordinates":[[[4.12204861,50.95002852],[4.1221613,50.95008165],[4.12198465,50.95023114],[4.12187388,50.95017891],[4.12191147,50.9501471],[4.1218732,50.95012905],[4.12193885,50.95007349],[4.12197522,50.95009064],[4.12204861,50.95002852]]]}},{"type":"Feature","id":"gebouw/Gebouw.15890242/0","properties":{"source":"Digitaal Vlaanderen Gebouwenregister","source_id":"gebouw/Gebouw.15890242/0","kind":"building","height_m":7.88,"status":null},"geometry":{"type":"Polygon","coordinates":[[[4.11865452,50.95022425],[4.11868687,50.95019087],[4.11873712,50.95021031],[4.11870477,50.95024369],[4.11865452,50.95022425]]]}},{"type":"Feature","id":"gebouw/Gebouw.15890432/0","properties":{"source":"Digitaal Vlaanderen Gebouwenregister","source_id":"gebouw/Gebouw.15890432/0","kind":"building","height_m":8.6,"status":null},"geometry":{"type":"Polygon","coordinates":[[[4.12228814,50.94927537],[4.12217242,50.94936885],[4.12178422,50.94917707],[4.12189994,50.9490836],[4.12228814,50.94927537]]]}},{"type":"Feature","id":"gebouw/Gebouw.15911239/0","properties":{"source":"Digitaal Vlaanderen Gebouwenregister","source_id":"gebouw/Gebouw.15911239/0","kind":"building","height_m":5.72,"status":null},"geometry":{"type":"Polygon","coordinates":[[[4.11883282,50.94954612],[4.11878772,50.94957956],[4.11878297,50.949577],[4.11875451,50.94959964],[4.11871509,50.9495763],[4.11878986,50.949523],[4.11883282,50.94954612]]]}},{"type":"Feature","id":"gebouw/Gebouw.15929388/0","properties":{"source":"Digitaal Vlaanderen Gebouwenregister","source_id":"gebouw/Gebouw.15929388/0","kind":"building","height_m":9.32,"status":null},"geometry":{"type":"Polygon","coordinates":[[[4.11323974,50.95237686],[4.11328608,50.95237733],[4.11328603,50.95237924],[4.11329983,50.95237938],[4.1132993,50.95239995],[4.11328581,50.95239982],[4.11328558,50.95240872],[4.11323894,50.95240824],[4.11323974,50.95237686]]]}},{"type":"Feature","id":"gebouw/Gebouw.15934756/0","properties":{"source":"Digitaal Vlaanderen Gebouwenregister","source_id":"gebouw/Gebouw.15934756/0","kind":"building","height_m":8.6,"status":null},"geometry":{"type":"Polygon","coordinates":[[[4.12134901,50.95020663],[4.12139639,50.95023346],[4.1213447,50.95026989],[4.12129732,50.95024306],[4.12134901,50.95020663]]]}},{"type":"Feature","id":"gebouw/Gebouw.15937781/0","properties":{"source":"Digitaal Vlaanderen Gebouwenregister","source_id":"gebouw/Gebouw.15937781/0","kind":"building","height_m":9.32,"status":null},"geometry":{"type":"Polygon","coordinates":[[[4.11916777,50.94944304],[4.11917188,50.94944008],[4.11915214,50.94942914],[4.11920744,50.94938933],[4.11925238,50.94941423],[4.11919297,50.94945701],[4.11916777,50.94944304]]]}},{"type":"Feature","id":"gebouw/Gebouw.15952777/0","properties":{"source":"Digitaal Vlaanderen Gebouwenregister","source_id":"gebouw/Gebouw.15952777/0","kind":"building","height_m":5.72,"status":null},"geometry":{"type":"Polygon","coordinates":[[[4.11941624,50.94882751],[4.11937092,50.94881953],[4.11939241,50.94877082],[4.11943772,50.9487788],[4.11941624,50.94882751]]]}},{"type":"Feature","id":"gebouw/Gebouw.15989627/0","properties":{"source":"Digitaal Vlaanderen Gebouwenregister","source_id":"gebouw/Gebouw.15989627/0","kind":"building","height_m":7.16,"status":null},"geometry":{"type":"Polygon","coordinates":[[[4.12158356,50.94997473],[4.12161952,50.94994955],[4.12172719,50.94987416],[4.12163626,50.94982277],[4.12149044,50.94992835],[4.12153475,50.94995338],[4.12150597,50.9499737],[4.12154972,50.94999842],[4.12158356,50.94997473]]]}},{"type":"Feature","id":"gebouw/Gebouw.16016533/0","properties":{"source":"Digitaal Vlaanderen Gebouwenregister","source_id":"gebouw/Gebouw.16016533/0","kind":"building","height_m":5.72,"status":null},"geometry":{"type":"Polygon","coordinates":[[[4.12229939,50.95106619],[4.12223398,50.95104491],[4.12220802,50.95103647],[4.12214456,50.95101583],[4.12216272,50.95099285],[4.12218141,50.95099851],[4.12223414,50.95092905],[4.12228569,50.95094466],[4.12230969,50.95095193],[4.12237183,50.95097075],[4.12229939,50.95106619]]]}},{"type":"Feature","id":"gebouw/Gebouw.16022349/0","properties":{"source":"Digitaal Vlaanderen Gebouwenregister","source_id":"gebouw/Gebouw.16022349/0","kind":"building","height_m":5.0,"status":null},"geometry":{"type":"Polygon","coordinates":[[[4.11961474,50.94892382],[4.1196471,50.94886024],[4.11969364,50.94886969],[4.11966127,50.94893328],[4.11961474,50.94892382]]]}},{"type":"Feature","id":"gebouw/Gebouw.16053785/0","properties":{"source":"Digitaal Vlaanderen Gebouwenregister","source_id":"gebouw/Gebouw.16053785/0","kind":"building","height_m":9.32,"status":null},"geometry":{"type":"Polygon","coordinates":[[[4.11422962,50.94889983],[4.11420092,50.94889068],[4.11423101,50.94885305],[4.1141443,50.94882539],[4.11406608,50.94880043],[4.11412243,50.94872996],[4.11420733,50.94875706],[4.1143629,50.94880669],[4.11430611,50.94887772],[4.11425925,50.94886277],[4.11422962,50.94889983]]]}},{"type":"Feature","id":"gebouw/Gebouw.16091056/0","properties":{"source":"Digitaal Vlaanderen Gebouwenregister","source_id":"gebouw/Gebouw.16091056/0","kind":"building","height_m":6.44,"status":null},"geometry":{"type":"Polygon","coordinates":[[[4.1221943,50.9490593],[4.12198857,50.94895578],[4.12148182,50.94936805],[4.12168242,50.94946899],[4.12187677,50.94931606],[4.12190277,50.94929504],[4.12212589,50.94911461],[4.1221943,50.9490593]]]}},{"type":"Feature","id":"gebouw/Gebouw.16108256/0","properties":{"source":"Digitaal Vlaanderen Gebouwenregister","source_id":"gebouw/Gebouw.16108256/0","kind":"building","height_m":7.16,"status":null},"geometry":{"type":"Polygon","coordinates":[[[4.12125979,50.95005041],[4.12118235,50.95010739],[4.12128605,50.9501626],[4.12136539,50.95010769],[4.12125979,50.95005041]]]}},{"type":"Feature","id":"gebouw/Gebouw.16150315/0","properties":{"source":"Digitaal Vlaanderen Gebouwenregister","source_id":"gebouw/Gebouw.16150315/0","kind":"building","height_m":9.32,"status":null},"geometry":{"type":"Polygon","coordinates":[[[4.11292281,50.95271156],[4.112991,50.95275098],[4.11292635,50.95279559],[4.11285817,50.95275617],[4.11292281,50.95271156]]]}},{"type":"Feature","id":"gebouw/Gebouw.16155371/0","properties":{"source":"Digitaal Vlaanderen Gebouwenregister","source_id":"gebouw/Gebouw.16155371/0","kind":"building","height_m":5.72,"status":null},"geometry":{"type":"Polygon","coordinates":[[[4.11860526,50.94965877],[4.11863407,50.94963833],[4.11867946,50.94966387],[4.11865065,50.94968431],[4.11860526,50.94965877]]]}},{"type":"Feature","id":"gebouw/Gebouw.16172873/0","properties":{"source":"Digitaal Vlaanderen Gebouwenregister","source_id":"gebouw/Gebouw.16172873/0","kind":"building","height_m":7.16,"status":null},"geometry":{"type":"Polygon","coordinates":[[[4.11386146,50.95186703],[4.1138731,50.95187251],[4.11391444,50.95183747],[4.11393112,50.95184533],[4.11392908,50.95184706],[4.11397062,50.95186661],[4.11393216,50.95189921],[4.11392679,50.95189668],[4.11390614,50.95191418],[4.11381012,50.95186898],[4.11382912,50.95185288],[4.11383599,50.95185611],[4.11388252,50.95181667],[4.11390718,50.95182828],[4.11386146,50.95186703]]]}},{"type":"Feature","id":"gebouw/Gebouw.16181811/0","properties":{"source":"Digitaal Vlaanderen Gebouwenregister","source_id":"gebouw/Gebouw.16181811/0","kind":"building","height_m":6.44,"status":null},"geometry":{"type":"Polygon","coordinates":[[[4.11952891,50.94879408],[4.11950463,50.94884485],[4.11942281,50.94882923],[4.11944851,50.94877997],[4.11945326,50.94878084],[4.11951093,50.94866027],[4.11954353,50.94866755],[4.11948758,50.9487862],[4.11952891,50.94879408]]]}},{"type":"Feature","id":"gebouw/Gebouw.16181953/0","properties":{"source":"Digitaal Vlaanderen Gebouwenregister","source_id":"gebouw/Gebouw.16181953/0","kind":"building","height_m":7.88,"status":null},"geometry":{"type":"Polygon","coordinates":[[[4.12216124,50.94991324],[4.12212669,50.9499629],[4.12207041,50.94994728],[4.1221114,50.94989941],[4.12216124,50.94991324]]]}},{"type":"Feature","id":"gebouw/Gebouw.16184400/0","properties":{"source":"Digitaal Vlaanderen Gebouwenregister","source_id":"gebouw/Gebouw.16184400/0","kind":"building","height_m":5.72,"status":null},"geometry":{"type":"Polygon","coordinates":[[[4.12173248,50.95017136],[4.12177918,50.9501334],[4.12181409,50.95015077],[4.1217663,50.9501891],[4.12175249,50.95018223],[4.12173248,50.95017136]]]}},{"type":"Feature","id":"gebouw/Gebouw.16192221/0","properties":{"source":"Digitaal Vlaanderen Gebouwenregister","source_id":"gebouw/Gebouw.16192221/0","kind":"building","height_m":7.16,"status":null},"geometry":{"type":"Polygon","coordinates":[[[4.11364784,50.95191496],[4.11361518,50.95189793],[4.11368101,50.95184756],[4.11371367,50.95186459],[4.11364784,50.95191496]]]}},{"type":"Feature","id":"gebouw/Gebouw.16206112/0","properties":{"source":"Digitaal Vlaanderen Gebouwenregister","source_id":"gebouw/Gebouw.16206112/0","kind":"building","height_m":9.32,"status":null},"geometry":{"type":"Polygon","coordinates":[[[4.11893687,50.95059356],[4.11883999,50.95055401],[4.11883619,50.95055772],[4.1187423,50.95051939],[4.11875969,50.95050239],[4.11873383,50.95049183],[4.11875567,50.95047048],[4.11873023,50.9504601],[4.11879028,50.9504014],[4.1188313,50.95041815],[4.11884909,50.95040076],[4.11880807,50.95038401],[4.11867056,50.95032787],[4.11883146,50.95017061],[4.11897966,50.95023111],[4.11895688,50.95025338],[4.11899667,50.95026962],[4.11884163,50.95042116],[4.11903322,50.95049938],[4.1190288,50.95050371],[4.11893687,50.95059356]]]}},{"type":"Feature","id":"gebouw/Gebouw.16219373/0","properties":{"source":"Digitaal Vlaanderen Gebouwenregister","source_id":"gebouw/Gebouw.16219373/0","kind":"building","height_m":6.44,"status":null},"geometry":{"type":"Polygon","coordinates":[[[4.11875906,50.94952661],[4.1187446,50.94951898],[4.1187228,50.94953547],[4.11869326,50.9495174],[4.11872907,50.94949207],[4.11871714,50.94948611],[4.11879782,50.94943124],[4.11877056,50.94941905],[4.11876695,50.94942118],[4.11873235,50.94940203],[4.11860508,50.94949271],[4.11862496,50.94950399],[4.11860649,50.94951756],[4.118587,50.94950678],[4.11859262,50.94950314],[4.11854345,50.94947624],[4.11853814,50.94947333],[4.1187075,50.94935493],[4.1187195,50.94935911],[4.11878402,50.94931102],[4.11895399,50.94936712],[4.11891094,50.94942116],[4.11887605,50.94944539],[4.1188532,50.94946125],[4.11883185,50.94947608],[4.11875906,50.94952661]]]}},{"type":"Feature","id":"gebouw/Gebouw.16242718/0","properties":{"source":"Digitaal Vlaanderen Gebouwenregister","source_id":"gebouw/Gebouw.16242718/0","kind":"building","height_m":6.44,"status":null},"geometry":{"type":"Polygon","coordinates":[[[4.11884865,50.95014324],[4.11894307,50.95004641],[4.11902121,50.95007682],[4.11892679,50.95017365],[4.11884865,50.95014324]]]}},{"type":"Feature","id":"gebouw/Gebouw.16252724/0","properties":{"source":"Digitaal Vlaanderen Gebouwenregister","source_id":"gebouw/Gebouw.16252724/0","kind":"building","height_m":8.6,"status":null},"geometry":{"type":"Polygon","coordinates":[[[4.12185903,50.95254823],[4.12186713,50.95253923],[4.12183089,50.95252622],[4.12184905,50.95250604],[4.12191745,50.95253059],[4.1218912,50.95255978],[4.12185903,50.95254823]]]}},{"type":"Feature","id":"gebouw/Gebouw.16292838/0","properties":{"source":"Digitaal Vlaanderen Gebouwenregister","source_id":"gebouw/Gebouw.16292838/0","kind":"building","height_m":6.44,"status":null},"geometry":{"type":"Polygon","coordinates":[[[4.11433154,50.95425507],[4.11428107,50.95423126],[4.11431323,50.95420408],[4.11436369,50.95422789],[4.11433154,50.95425507]]]}},{"type":"Feature","id":"gebouw/Gebouw.16310602/0","properties":{"source":"Digitaal Vlaanderen Gebouwenregister","source_id":"gebouw/Gebouw.16310602/0","kind":"building","height_m":5.0,"status":null},"geometry":{"type":"Polygon","coordinates":[[[4.11979401,50.94910312],[4.11985913,50.94897919],[4.11995835,50.94899947],[4.11994632,50.94902297],[4.1200024,50.94903443],[4.11994599,50.94914456],[4.11988844,50.9491328],[4.11989302,50.94912388],[4.11979401,50.94910312]]]}},{"type":"Feature","id":"gebouw/Gebouw.16310626/0","properties":{"source":"Digitaal Vlaanderen Gebouwenregister","source_id":"gebouw/Gebouw.16310626/0","kind":"building","height_m":7.16,"status":null},"geometry":{"type":"Polygon","coordinates":[[[4.11958369,50.94906914],[4.11970831,50.94909542],[4.11975993,50.94899774],[4.11963531,50.94897146],[4.11958369,50.94906914]]]}},{"type":"Feature","id":"gebouw/Gebouw.16320217/0","properties":{"source":"Digitaal Vlaanderen Gebouwenregister","source_id":"gebouw/Gebouw.16320217/0","kind":"building","height_m":7.88,"status":null},"geometry":{"type":"Polygon","coordinates":[[[4.1193516,50.94889283],[4.11928854,50.94901752],[4.11914705,50.94898897],[4.11918331,50.94891726],[4.11920667,50.94892197],[4.11921179,50.94891184],[4.11922354,50.94891421],[4.11924521,50.94887136],[4.1193516,50.94889283]]]}},{"type":"Feature","id":"gebouw/Gebouw.16322756/0","properties":{"source":"Digitaal Vlaanderen Gebouwenregister","source_id":"gebouw/Gebouw.16322756/0","kind":"building","height_m":6.44,"status":null},"geometry":{"type":"Polygon","coordinates":[[[4.11747773,50.95498016],[4.11753409,50.95499902],[4.11750513,50.95503378],[4.11744807,50.95501513],[4.11747773,50.95498016]]]}},{"type":"Feature","id":"gebouw/Gebouw.16360161/0","properties":{"source":"Digitaal Vlaanderen Gebouwenregister","source_id":"gebouw/Gebouw.16360161/0","kind":"building","height_m":9.32,"status":null},"geometry":{"type":"Polygon","coordinates":[[[4.12133081,50.95312232],[4.12130505,50.95311471],[4.12134725,50.9530577],[4.12137302,50.95306531],[4.12133081,50.95312232]]]}},{"type":"Feature","id":"gebouw/Gebouw.16368567/0","properties":{"source":"Digitaal Vlaanderen Gebouwenregister","source_id":"gebouw/Gebouw.16368567/0","kind":"building","height_m":8.6,"status":null},"geometry":{"type":"Polygon","coordinates":[[[4.11989447,50.94890301],[4.11987987,50.94893347],[4.11983933,50.94892572],[4.11985394,50.94889526],[4.11989447,50.94890301]]]}},{"type":"Feature","id":"gebouw/Gebouw.16384738/0","properties":{"source":"Digitaal Vlaanderen Gebouwenregister","source_id":"gebouw/Gebouw.16384738/0","kind":"building","height_m":9.32,"status":null},"geometry":{"type":"Polygon","coordinates":[[[4.12137622,50.95311008],[4.1214002,50.95307712],[4.12143885,50.95308834],[4.12141487,50.9531213],[4.12137622,50.95311008]]]}},{"type":"Feature","id":"gebouw/Gebouw.16424476/0","properties":{"source":"Digitaal Vlaanderen Gebouwenregister","source_id":"gebouw/Gebouw.16424476/0","kind":"building","height_m":8.6,"status":null},"geometry":{"type":"Polygon","coordinates":[[[4.1220204,50.94993341],[4.12200739,50.94992979],[4.12198284,50.94996539],[4.12193558,50.95000174],[4.12187442,50.94997434],[4.12179843,50.95003342],[4.12176093,50.95001433],[4.12183944,50.94995607],[4.12186957,50.9499337],[4.12189471,50.94994419],[4.12193039,50.94990775],[4.12193875,50.94991074],[4.1219733,50.94986108],[4.12206048,50.94988528],[4.12210519,50.94989768],[4.1221114,50.94989941],[4.12207041,50.94994728],[4.1220204,50.94993341]]]}},{"type":"Feature","id":"gebouw/Gebouw.16438854/0","properties":{"source":"Digitaal Vlaanderen Gebouwenregister","source_id":"gebouw/Gebouw.16438854/0","kind":"building","height_m":8.6,"status":null},"geometry":{"type":"Polygon","coordinates":[[[4.11333669,50.95238594],[4.11343153,50.95230158],[4.11344005,50.95230552],[4.11349138,50.95226117],[4.11362176,50.95232136],[4.11347568,50.95244759],[4.113467,50.95244384],[4.11343563,50.95247306],[4.1133468,50.95243654],[4.11337922,50.95240444],[4.11333669,50.95238594]]]}},{"type":"Feature","id":"gebouw/Gebouw.16451691/0","properties":{"source":"Digitaal Vlaanderen Gebouwenregister","source_id":"gebouw/Gebouw.16451691/0","kind":"building","height_m":7.88,"status":null},"geometry":{"type":"Polygon","coordinates":[[[4.12187677,50.94931606],[4.12204361,50.94940001],[4.1220083,50.94942801],[4.12204425,50.9494461],[4.1220734,50.94942299],[4.12216205,50.94946759],[4.12198415,50.94961579],[4.12183072,50.9495423],[4.1217875,50.94957987],[4.12170606,50.94953941],[4.12174953,50.94950276],[4.12168242,50.94946899],[4.12187677,50.94931606]],[[4.1217881,50.94951111],[4.12189587,50.94956314],[4.12200376,50.94947396],[4.12197084,50.94945806],[4.12196485,50.94946301],[4.12189,50.94942688],[4.1217881,50.94951111]]]}},{"type":"Feature","id":"gebouw/Gebouw.16497419/0","properties":{"source":"Digitaal Vlaanderen Gebouwenregister","source_id":"gebouw/Gebouw.16497419/0","kind":"building","height_m":5.72,"status":null},"geometry":{"type":"Polygon","coordinates":[[[4.12181585,50.94992402],[4.12171055,50.94999781],[4.12167669,50.94997869],[4.1216384,50.95000573],[4.12158667,50.94997649],[4.12158356,50.94997473],[4.12161952,50.94994955],[4.12172719,50.94987416],[4.12181585,50.94992402]]]}},{"type":"Feature","id":"gebouw/Gebouw.18730220/0","properties":{"source":"Digitaal Vlaanderen Gebouwenregister","source_id":"gebouw/Gebouw.18730220/0","kind":"building","height_m":8.6,"status":null},"geometry":{"type":"Polygon","coordinates":[[[4.12175129,50.95066186],[4.12171096,50.95069817],[4.12164413,50.9506685],[4.12168324,50.95063205],[4.12175129,50.95066186]]]}},{"type":"Feature","id":"gebouw/Gebouw.18730799/0","properties":{"source":"Digitaal Vlaanderen Gebouwenregister","source_id":"gebouw/Gebouw.18730799/0","kind":"building","height_m":7.16,"status":null},"geometry":{"type":"Polygon","coordinates":[[[4.11330837,50.9525874],[4.1132569,50.95263204],[4.11322135,50.95261477],[4.11327131,50.95257189],[4.11330837,50.9525874]]]}},{"type":"Feature","id":"gebouw/Gebouw.18984858/0","properties":{"source":"Digitaal Vlaanderen Gebouwenregister","source_id":"gebouw/Gebouw.18984858/0","kind":"building","height_m":7.88,"status":null},"geometry":{"type":"Polygon","coordinates":[[[4.12193272,50.95000907],[4.12186745,50.95006038],[4.12182565,50.95003927],[4.12189073,50.94998786],[4.12193272,50.95000907]]]}},{"type":"Feature","id":"gebouw/Gebouw.19857162/0","properties":{"source":"Digitaal Vlaanderen Gebouwenregister","source_id":"gebouw/Gebouw.19857162/0","kind":"building","height_m":7.16,"status":null},"geometry":{"type":"Polygon","coordinates":[[[4.122258,50.95105273],[4.12220802,50.95103647],[4.12218624,50.95102938],[4.12214456,50.95101583],[4.12216272,50.95099285],[4.12218141,50.95099851],[4.12223414,50.95092905],[4.12226407,50.95093811],[4.12228569,50.95094466],[4.12232987,50.95095804],[4.122258,50.95105273]]]}},{"type":"Feature","id":"gebouw/Gebouw.19857163/0","properties":{"source":"Digitaal Vlaanderen Gebouwenregister","source_id":"gebouw/Gebouw.19857163/0","kind":"building","height_m":7.88,"status":null},"geometry":{"type":"Polygon","coordinates":[[[4.12232987,50.95095804],[4.12237183,50.95097075],[4.12229939,50.95106619],[4.122258,50.95105273],[4.12232987,50.95095804]]]}},{"type":"Feature","id":"gebouw/Gebouw.19860768/0","properties":{"source":"Digitaal Vlaanderen Gebouwenregister","source_id":"gebouw/Gebouw.19860768/0","kind":"building","height_m":7.88,"status":null},"geometry":{"type":"Polygon","coordinates":[[[4.1142462,50.94876946],[4.1143629,50.94880669],[4.11430611,50.94887772],[4.11425925,50.94886277],[4.11422962,50.94889983],[4.11420092,50.94889068],[4.11423101,50.94885305],[4.11418986,50.94883992],[4.1142462,50.94876946]]]}},{"type":"Feature","id":"gebouw/Gebouw.19860769/0","properties":{"source":"Digitaal Vlaanderen Gebouwenregister","source_id":"gebouw/Gebouw.19860769/0","kind":"building","height_m":8.6,"status":null},"geometry":{"type":"Polygon","coordinates":[[[4.1142462,50.94876946],[4.11418986,50.94883992],[4.11406608,50.94880043],[4.11412243,50.94872996],[4.1142462,50.94876946]]]}},{"type":"Feature","id":"gebouw/Gebouw.19863168/0","properties":{"source":"Digitaal Vlaanderen Gebouwenregister","source_id":"gebouw/Gebouw.19863168/0","kind":"building","height_m":7.16,"status":null},"geometry":{"type":"Polygon","coordinates":[[[4.1190288,50.95050371],[4.11893687,50.95059356],[4.11883999,50.95055401],[4.11883619,50.95055772],[4.1187423,50.95051939],[4.11875969,50.95050239],[4.11878153,50.95048104],[4.11875567,50.95047048],[4.11873023,50.9504601],[4.11879028,50.9504014],[4.1188313,50.95041815],[4.11884909,50.95040076],[4.11880807,50.95038401],[4.11867056,50.95032787],[4.11883146,50.95017061],[4.11897966,50.95023111],[4.11895688,50.95025338],[4.11899667,50.95026962],[4.11884163,50.95042116],[4.11903322,50.95049938],[4.1190288,50.95050371]]]}},{"type":"Feature","id":"gebouw/Gebouw.19863169/0","properties":{"source":"Digitaal Vlaanderen Gebouwenregister","source_id":"gebouw/Gebouw.19863169/0","kind":"building","height_m":7.88,"status":null},"geometry":{"type":"Polygon","coordinates":[[[4.11875567,50.95047048],[4.11878153,50.95048104],[4.11875969,50.95050239],[4.11873383,50.95049183],[4.11875567,50.95047048]]]}},{"type":"Feature","id":"gebouw/Gebouw.20146284/0","properties":{"source":"Digitaal Vlaanderen Gebouwenregister","source_id":"gebouw/Gebouw.20146284/0","kind":"building","height_m":7.88,"status":null},"geometry":{"type":"Polygon","coordinates":[[[4.11963735,50.94885851],[4.11962088,50.94889236],[4.11958815,50.94888671],[4.11960292,50.94885257],[4.11963735,50.94885851]]]}},{"type":"Feature","id":"gebouw/Gebouw.20146287/0","properties":{"source":"Digitaal Vlaanderen Gebouwenregister","source_id":"gebouw/Gebouw.20146287/0","kind":"building","height_m":5.0,"status":null},"geometry":{"type":"Polygon","coordinates":[[[4.1123347,50.95083511],[4.11239012,50.95085404],[4.11236574,50.95088253],[4.11231032,50.9508636],[4.1123347,50.95083511]]]}},{"type":"Feature","id":"gebouw/Gebouw.31144792/0","properties":{"source":"Digitaal Vlaanderen Gebouwenregister","source_id":"gebouw/Gebouw.31144792/0","kind":"building","height_m":5.0,"status":null},"geometry":{"type":"Polygon","coordinates":[[[4.12278263,50.95095893],[4.12272277,50.95102775],[4.12254469,50.95096595],[4.12260455,50.95089713],[4.12278263,50.95095893]]]}},{"type":"Feature","id":"gebouw/Gebouw.31533626/0","properties":{"source":"Digitaal Vlaanderen Gebouwenregister","source_id":"gebouw/Gebouw.31533626/0","kind":"building","height_m":8.6,"status":null},"geometry":{"type":"Polygon","coordinates":[[[4.11707279,50.94883032],[4.11708148,50.94881182],[4.11705311,50.9488065],[4.11704443,50.948825],[4.11707279,50.94883032]]]}},{"type":"Feature","id":"gebouw/Gebouw.31805087/0","properties":{"source":"Digitaal Vlaanderen Gebouwenregister","source_id":"gebouw/Gebouw.31805087/0","kind":"building","height_m":9.32,"status":null},"geometry":{"type":"Polygon","coordinates":[[[4.12220639,50.94930993],[4.12223704,50.94932507],[4.12232578,50.94925339],[4.1222964,50.94923887],[4.12232714,50.94921403],[4.12212589,50.94911461],[4.12190277,50.94929504],[4.12210261,50.94939376],[4.12220639,50.94930993]]]}},{"type":"Feature","id":"gebouw/Gebouw.32035876/0","properties":{"source":"Digitaal Vlaanderen Gebouwenregister","source_id":"gebouw/Gebouw.32035876/0","kind":"building","height_m":8.6,"status":null},"geometry":{"type":"Polygon","coordinates":[[[4.12144018,50.95300778],[4.12141159,50.9529999],[4.12138882,50.95303286],[4.12141454,50.95303994],[4.12142199,50.953042],[4.12144476,50.95300904],[4.12144018,50.95300778]]]}},{"type":"Feature","id":"way/147528392","properties":{"source":"OpenStreetMap","source_id":"way/147528392","kind":"water","name":null,"waterway":null,"landuse":null},"geometry":{"type":"Polygon","coordinates":[[[4.1227268,50.9513843],[4.1228126,50.9514248],[4.1229448,50.9514106],[4.1230326,50.951337],[4.1230326,50.9512491],[4.1231237,50.951168],[4.1231988,50.95107],[4.1231706,50.9510502],[4.1231506,50.9510362],[4.1230379,50.9510497],[4.1229199,50.9512119],[4.1228233,50.9512761],[4.1227429,50.9513201],[4.1227268,50.9513843]]]}},{"type":"Feature","id":"way/147532795","properties":{"source":"OpenStreetMap","source_id":"way/147532795","kind":"vegetation","name":null,"waterway":null,"landuse":"forest"},"geometry":{"type":"Polygon","coordinates":[[[4.1144119,50.9506137],[4.1148186,50.950866],[4.1154902,50.9504177],[4.1155867,50.9503738],[4.1154526,50.9502893],[4.1150809,50.9502623],[4.1149654,50.9502522],[4.1144663,50.9505777],[4.1144119,50.9506137]]]}},{"type":"Feature","id":"way/147532796","properties":{"source":"OpenStreetMap","source_id":"way/147532796","kind":"vegetation","name":null,"waterway":null,"landuse":"forest"},"geometry":{"type":"Polygon","coordinates":[[[4.120345,50.9527259],[4.120522,50.9527732],[4.1211351,50.9519512],[4.12096,50.9519224],[4.120345,50.9527259]]]}},{"type":"Feature","id":"way/147532797","properties":{"source":"OpenStreetMap","source_id":"way/147532797","kind":"vegetation","name":null,"waterway":null,"landuse":"forest"},"geometry":{"type":"Polygon","coordinates":[[[4.1196261,50.9538783],[4.1195595,50.9540733],[4.1196315,50.9540641],[4.1201894,50.9539594],[4.1202109,50.9537972],[4.1198515,50.953858],[4.1196261,50.9538783]]]}},{"type":"Feature","id":"way/147532798","properties":{"source":"OpenStreetMap","source_id":"way/147532798","kind":"vegetation","name":null,"waterway":null,"landuse":"forest"},"geometry":{"type":"Polygon","coordinates":[[[4.1227202,50.9536653],[4.1233662,50.9529317],[4.123061,50.9528308],[4.1229994,50.9527956],[4.1225283,50.9533308],[4.1223942,50.9532903],[4.1222097,50.9534855],[4.1227202,50.9536653]]]}},{"type":"Feature","id":"way/147532799","properties":{"source":"OpenStreetMap","source_id":"way/147532799","kind":"vegetation","name":null,"waterway":null,"landuse":"forest"},"geometry":{"type":"Polygon","coordinates":[[[4.1164236,50.9528205],[4.1166049,50.95287],[4.1157638,50.9538512],[4.1159354,50.9538512],[4.1163378,50.9538647],[4.1164493,50.9538669],[4.116857,50.9539987],[4.1177379,50.9525806],[4.1178291,50.95254],[4.1180383,50.952246],[4.1170941,50.9520196],[4.1163485,50.9528036],[4.1164236,50.9528205]]]}},{"type":"Feature","id":"way/147532801","properties":{"source":"OpenStreetMap","source_id":"way/147532801","kind":"vegetation","name":null,"waterway":null,"landuse":"forest"},"geometry":{"type":"Polygon","coordinates":[[[4.1212998,50.953956],[4.121685,50.9540629],[4.1213267,50.9544426],[4.120919,50.9542838],[4.1212998,50.953956]]]}},{"type":"Feature","id":"way/160576015","properties":{"source":"OpenStreetMap","source_id":"way/160576015","kind":"vegetation","name":null,"waterway":null,"landuse":"forest"},"geometry":{"type":"Polygon","coordinates":[[[4.1143914,50.951357],[4.1143168,50.9518394],[4.1142326,50.9518942],[4.1139421,50.9516202],[4.1138303,50.951588],[4.1137584,50.9515845],[4.1136979,50.9515149],[4.1138063,50.9514153],[4.1137521,50.9513541],[4.1137995,50.9512901],[4.1138763,50.9512061],[4.1143914,50.951357]]]}},{"type":"Feature","id":"way/160576104","properties":{"source":"OpenStreetMap","source_id":"way/160576104","kind":"vegetation","name":null,"waterway":null,"landuse":"forest"},"geometry":{"type":"Polygon","coordinates":[[[4.1148125,50.9524906],[4.1143089,50.9529211],[4.113939,50.9527521],[4.11454,50.9523214],[4.114746,50.9524091],[4.1148522,50.9524544],[4.1148125,50.9524906]]]}},{"type":"Feature","id":"way/160576116","properties":{"source":"OpenStreetMap","source_id":"way/160576116","kind":"vegetation","name":null,"waterway":null,"landuse":"forest"},"geometry":{"type":"Polygon","coordinates":[[[4.114746,50.9524091],[4.11454,50.9523214],[4.1146226,50.9522622],[4.1148444,50.9521102],[4.1148889,50.9521265],[4.1148158,50.9521902],[4.1146632,50.9523279],[4.1147813,50.9523798],[4.114746,50.9524091]]]}},{"type":"Feature","id":"way/160576128","properties":{"source":"OpenStreetMap","source_id":"way/160576128","kind":"water","name":null,"waterway":null,"landuse":null},"geometry":{"type":"Polygon","coordinates":[[[4.112659,50.9517581],[4.1126669,50.9517709],[4.1124817,50.9519082],[4.112458,50.9519089],[4.1124015,50.9518797],[4.1123959,50.9518662],[4.1124106,50.9518513],[4.1125811,50.951731],[4.1126014,50.9517289],[4.1126229,50.9517353],[4.112659,50.9517581]]]}},{"type":"Feature","id":"way/160576134","properties":{"source":"OpenStreetMap","source_id":"way/160576134","kind":"water","name":null,"waterway":null,"landuse":null},"geometry":{"type":"Polygon","coordinates":[[[4.1148158,50.9521902],[4.1149338,50.9522421],[4.1147813,50.9523798],[4.1146632,50.9523279],[4.1148158,50.9521902]]]}},{"type":"Feature","id":"way/160596669","properties":{"source":"OpenStreetMap","source_id":"way/160596669","kind":"vegetation","name":null,"waterway":null,"landuse":"orchard"},"geometry":{"type":"Polygon","coordinates":[[[4.1181548,50.954621],[4.1180924,50.9545981],[4.1178299,50.9544916],[4.1172497,50.9548294],[4.1183802,50.9552227],[4.1190373,50.9545295],[4.1193744,50.9546621],[4.120399,50.9550651],[4.1208968,50.9545189],[4.1222499,50.9550823],[4.1223725,50.9549571],[4.1212254,50.9544611],[4.120961,50.9543484],[4.1204672,50.9541439],[4.1202864,50.9540606],[4.1202397,50.9540276],[4.1201894,50.9539594],[4.1196315,50.9540641],[4.1195595,50.9540733],[4.1195663,50.9540968],[4.1187536,50.954229],[4.1181548,50.954621]]]}},{"type":"Feature","id":"way/160640871","properties":{"source":"OpenStreetMap","source_id":"way/160640871","kind":"vegetation","name":null,"waterway":null,"landuse":"forest"},"geometry":{"type":"Polygon","coordinates":[[[4.1150942,50.9488617],[4.1150365,50.9489706],[4.1151296,50.9490083],[4.1150684,50.9490666],[4.1153401,50.9492711],[4.115429,50.9492208],[4.115398,50.9491999],[4.1164411,50.9486923],[4.1164894,50.9487083],[4.1165185,50.9487179],[4.1159757,50.9489665],[4.1158745,50.9490113],[4.1161272,50.9491482],[4.1156063,50.9495043],[4.1157659,50.9495797],[4.1156529,50.9496593],[4.1151365,50.9495168],[4.1150766,50.9494889],[4.1147885,50.9496662],[4.1143696,50.9494526],[4.1141413,50.9493255],[4.1140122,50.949259],[4.1139767,50.9491808],[4.1141274,50.9489322],[4.1141585,50.9488122],[4.1141097,50.9487284],[4.1140204,50.9486933],[4.1140702,50.9486896],[4.1141841,50.9485573],[4.1142324,50.9485151],[4.1143009,50.9485104],[4.1143881,50.9485375],[4.1144983,50.9486017],[4.1147299,50.9487557],[4.1147543,50.9487059],[4.1150942,50.9488617]]]}},{"type":"Feature","id":"way/537943326","properties":{"source":"OpenStreetMap","source_id":"way/537943326","kind":"waterway","name":"Koestaartbeek","waterway":"stream","landuse":null},"geometry":{"type":"LineString","coordinates":[[4.1154314,50.9492995],[4.1153401,50.9492711]]}},{"type":"Feature","id":"way/676173491","properties":{"source":"OpenStreetMap","source_id":"way/676173491","kind":"vegetation","name":null,"waterway":null,"landuse":null},"geometry":{"type":"Polygon","coordinates":[[[4.1134708,50.9555035],[4.1138687,50.9551322],[4.1136204,50.9550455],[4.1131896,50.9554375],[4.113424,50.9555497],[4.1134708,50.9555035]]]}},{"type":"Feature","id":"way/1282654878","properties":{"source":"OpenStreetMap","source_id":"way/1282654878","kind":"water","name":null,"waterway":null,"landuse":null},"geometry":{"type":"Polygon","coordinates":[[[4.113225,50.9498059],[4.1132219,50.9498144],[4.1132302,50.9498327],[4.1132822,50.9498622],[4.1133071,50.9498609],[4.1133425,50.9498465],[4.1135544,50.9497313],[4.1135472,50.9497227],[4.1135233,50.9496966],[4.1134765,50.9496697],[4.1134599,50.9496684],[4.1132375,50.9497948],[4.113225,50.9498059]]]}},{"type":"Feature","id":"way/1282654879","properties":{"source":"OpenStreetMap","source_id":"way/1282654879","kind":"water","name":null,"waterway":null,"landuse":null},"geometry":{"type":"Polygon","coordinates":[[[4.1135264,50.9496206],[4.1135139,50.9496409],[4.1138724,50.9498779],[4.1138953,50.9498766],[4.11394,50.9498622],[4.114047,50.9497882],[4.1140584,50.9497725],[4.1141166,50.9497443],[4.1141166,50.9497326],[4.1137768,50.9495054],[4.1137373,50.9495021],[4.1135264,50.9496206]]]}},{"type":"Feature","id":"way/1282654880","properties":{"source":"OpenStreetMap","source_id":"way/1282654880","kind":"water","name":null,"waterway":null,"landuse":null},"geometry":{"type":"Polygon","coordinates":[[[4.1161519,50.9496853],[4.1161436,50.9496918],[4.1161395,50.9497049],[4.1161447,50.9497186],[4.1161966,50.9497435],[4.1162288,50.9497448],[4.1162766,50.9497193],[4.1163151,50.9496931],[4.1163328,50.9496767],[4.11634,50.9496591],[4.1162668,50.9496558],[4.1162125,50.9496594],[4.1161729,50.9496736],[4.1161519,50.9496853]]]}},{"type":"Feature","id":"way/1282654947","properties":{"source":"OpenStreetMap","source_id":"way/1282654947","kind":"waterway","name":"Koestaartbeek","waterway":"stream","landuse":null},"geometry":{"type":"LineString","coordinates":[[4.1156834,50.9495948],[4.1154125,50.9494834],[4.1153684,50.9494275],[4.1154434,50.9493404],[4.1154314,50.9492995]]}},{"type":"Feature","id":"way/1282654948","properties":{"source":"OpenStreetMap","source_id":"way/1282654948","kind":"waterway","name":"Koestaartbeek","waterway":"stream","landuse":null},"geometry":{"type":"LineString","coordinates":[[4.1157433,50.949628],[4.1156834,50.9495948]]}}]}