{"type":"FeatureCollection","features":[{"type":"Feature","id":"gebouw/Gebouw.16559939/0","properties":{"source":"Digitaal Vlaanderen Gebouwenregister","source_id":"gebouw/Gebouw.16559939/0","kind":"building","height_m":7.88,"status":null},"geometry":{"type":"Polygon","coordinates":[[[4.12640103,50.94515428],[4.12627619,50.94522657],[4.12626502,50.94523303],[4.12617481,50.94517085],[4.12618888,50.94516271],[4.12631082,50.9450921],[4.12640103,50.94515428]]]}},{"type":"Feature","id":"gebouw/Gebouw.16560011/0","properties":{"source":"Digitaal Vlaanderen Gebouwenregister","source_id":"gebouw/Gebouw.16560011/0","kind":"building","height_m":9.32,"status":null},"geometry":{"type":"Polygon","coordinates":[[[4.12354445,50.94749843],[4.12364696,50.94741881],[4.12374289,50.9474681],[4.12364037,50.94754772],[4.12357151,50.9475545],[4.12355432,50.9475461],[4.12354445,50.94749843]]]}},{"type":"Feature","id":"gebouw/Gebouw.16560147/0","properties":{"source":"Digitaal Vlaanderen Gebouwenregister","source_id":"gebouw/Gebouw.16560147/0","kind":"building","height_m":6.44,"status":null},"geometry":{"type":"Polygon","coordinates":[[[4.13261531,50.9429432],[4.13279305,50.94291168],[4.13280673,50.94294248],[4.13263066,50.94297366],[4.13261531,50.9429432]]]}},{"type":"Feature","id":"gebouw/Gebouw.16560154/0","properties":{"source":"Digitaal Vlaanderen Gebouwenregister","source_id":"gebouw/Gebouw.16560154/0","kind":"building","height_m":6.44,"status":null},"geometry":{"type":"Polygon","coordinates":[[[4.12956726,50.94332168],[4.12951836,50.94340729],[4.1294405,50.94338954],[4.12948941,50.94330393],[4.12956726,50.94332168]]]}},{"type":"Feature","id":"gebouw/Gebouw.16560435/0","properties":{"source":"Digitaal Vlaanderen Gebouwenregister","source_id":"gebouw/Gebouw.16560435/0","kind":"building","height_m":7.16,"status":null},"geometry":{"type":"Polygon","coordinates":[[[4.12558249,50.94342936],[4.12563857,50.9434042],[4.1256565,50.94342015],[4.12560042,50.9434453],[4.12558249,50.94342936]]]}},{"type":"Feature","id":"gebouw/Gebouw.16560543/0","properties":{"source":"Digitaal Vlaanderen Gebouwenregister","source_id":"gebouw/Gebouw.16560543/0","kind":"building","height_m":9.32,"status":null},"geometry":{"type":"Polygon","coordinates":[[[4.1258229,50.94799261],[4.12577635,50.94804897],[4.1255668,50.94797805],[4.12555856,50.94797525],[4.12555145,50.9479722],[4.12559612,50.94791786],[4.1258229,50.94799261]]]}},{"type":"Feature","id":"gebouw/Gebouw.16560555/0","properties":{"source":"Digitaal Vlaanderen Gebouwenregister","source_id":"gebouw/Gebouw.16560555/0","kind":"building","height_m":7.88,"status":null},"geometry":{"type":"Polygon","coordinates":[[[4.13058741,50.94286188],[4.1305081,50.94290314],[4.13044675,50.94285607],[4.13046476,50.9428467],[4.13041215,50.94280634],[4.13047345,50.94277445],[4.13058741,50.94286188]]]}},{"type":"Feature","id":"gebouw/Gebouw.16560648/0","properties":{"source":"Digitaal Vlaanderen Gebouwenregister","source_id":"gebouw/Gebouw.16560648/0","kind":"building","height_m":9.32,"status":null},"geometry":{"type":"Polygon","coordinates":[[[4.12397849,50.94658044],[4.12389668,50.94663439],[4.12386089,50.94661273],[4.1239427,50.94655878],[4.12397849,50.94658044]]]}},{"type":"Feature","id":"gebouw/Gebouw.16560654/0","properties":{"source":"Digitaal Vlaanderen Gebouwenregister","source_id":"gebouw/Gebouw.16560654/0","kind":"building","height_m":8.6,"status":null},"geometry":{"type":"Polygon","coordinates":[[[4.12594493,50.94545839],[4.12598311,50.94548218],[4.12591139,50.94552759],[4.12587364,50.94550407],[4.12594493,50.94545839]]]}},{"type":"Feature","id":"gebouw/Gebouw.16560860/0","properties":{"source":"Digitaal Vlaanderen Gebouwenregister","source_id":"gebouw/Gebouw.16560860/0","kind":"building","height_m":5.72,"status":null},"geometry":{"type":"Polygon","coordinates":[[[4.12607736,50.94526358],[4.12620346,50.94535261],[4.12616176,50.94537618],[4.12603175,50.94528438],[4.12607736,50.94526358]]]}},{"type":"Feature","id":"gebouw/Gebouw.16562928/0","properties":{"source":"Digitaal Vlaanderen Gebouwenregister","source_id":"gebouw/Gebouw.16562928/0","kind":"building","height_m":7.88,"status":null},"geometry":{"type":"Polygon","coordinates":[[[4.12518611,50.94350498],[4.12525664,50.94347468],[4.12528652,50.94350244],[4.125216,50.94353274],[4.12518611,50.94350498]]]}},{"type":"Feature","id":"gebouw/Gebouw.16563455/0","properties":{"source":"Digitaal Vlaanderen Gebouwenregister","source_id":"gebouw/Gebouw.16563455/0","kind":"building","height_m":9.32,"status":null},"geometry":{"type":"Polygon","coordinates":[[[4.12320333,50.94358405],[4.12312472,50.94355751],[4.12316593,50.94351443],[4.12319804,50.94352679],[4.1232283,50.94349542],[4.12327244,50.94351242],[4.12320333,50.94358405]]]}},{"type":"Feature","id":"gebouw/Gebouw.16563601/0","properties":{"source":"Digitaal Vlaanderen Gebouwenregister","source_id":"gebouw/Gebouw.16563601/0","kind":"building","height_m":8.6,"status":null},"geometry":{"type":"Polygon","coordinates":[[[4.12611862,50.94518541],[4.12616488,50.94521752],[4.12613746,50.94523328],[4.12609121,50.94520117],[4.12611862,50.94518541]]]}},{"type":"Feature","id":"gebouw/Gebouw.16563613/0","properties":{"source":"Digitaal Vlaanderen Gebouwenregister","source_id":"gebouw/Gebouw.16563613/0","kind":"building","height_m":7.16,"status":null},"geometry":{"type":"Polygon","coordinates":[[[4.1331597,50.94791944],[4.13321278,50.94790571],[4.13325357,50.94796868],[4.1332005,50.9479824],[4.1331597,50.94791944]]]}},{"type":"Feature","id":"gebouw/Gebouw.16563618/0","properties":{"source":"Digitaal Vlaanderen Gebouwenregister","source_id":"gebouw/Gebouw.16563618/0","kind":"building","height_m":5.72,"status":null},"geometry":{"type":"Polygon","coordinates":[[[4.12549964,50.94539916],[4.12553091,50.94538182],[4.12557614,50.94541436],[4.12554518,50.94543154],[4.12553177,50.94542189],[4.1255151,50.94543114],[4.12549787,50.94541875],[4.12551425,50.94540967],[4.12549964,50.94539916]]]}},{"type":"Feature","id":"gebouw/Gebouw.16563619/0","properties":{"source":"Digitaal Vlaanderen Gebouwenregister","source_id":"gebouw/Gebouw.16563619/0","kind":"building","height_m":6.44,"status":null},"geometry":{"type":"Polygon","coordinates":[[[4.12299775,50.94692201],[4.12302761,50.94694217],[4.12298069,50.9469699],[4.12295083,50.94694975],[4.12299775,50.94692201]]]}},{"type":"Feature","id":"gebouw/Gebouw.16563630/0","properties":{"source":"Digitaal Vlaanderen Gebouwenregister","source_id":"gebouw/Gebouw.16563630/0","kind":"building","height_m":9.32,"status":null},"geometry":{"type":"Polygon","coordinates":[[[4.1238233,50.9475195],[4.12387083,50.94748826],[4.12391266,50.94751366],[4.12386513,50.9475449],[4.1238233,50.9475195]]]}},{"type":"Feature","id":"gebouw/Gebouw.16563681/0","properties":{"source":"Digitaal Vlaanderen Gebouwenregister","source_id":"gebouw/Gebouw.16563681/0","kind":"building","height_m":5.72,"status":null},"geometry":{"type":"Polygon","coordinates":[[[4.12710986,50.94518297],[4.12708212,50.9452162],[4.12703634,50.94519807],[4.12706386,50.94516454],[4.12710986,50.94518297]]]}},{"type":"Feature","id":"gebouw/Gebouw.16563693/0","properties":{"source":"Digitaal Vlaanderen Gebouwenregister","source_id":"gebouw/Gebouw.16563693/0","kind":"building","height_m":9.32,"status":null},"geometry":{"type":"Polygon","coordinates":[[[4.12420133,50.94275672],[4.12422116,50.94278672],[4.12414414,50.94280704],[4.12412435,50.94277711],[4.12411224,50.94275879],[4.12418927,50.94273847],[4.12420133,50.94275672]]]}},{"type":"Feature","id":"gebouw/Gebouw.16563795/0","properties":{"source":"Digitaal Vlaanderen Gebouwenregister","source_id":"gebouw/Gebouw.16563795/0","kind":"building","height_m":7.16,"status":null},"geometry":{"type":"Polygon","coordinates":[[[4.12543492,50.94353268],[4.1254725,50.94356958],[4.12540943,50.94359519],[4.12537436,50.94356048],[4.12543492,50.94353268]]]}},{"type":"Feature","id":"gebouw/Gebouw.16563908/0","properties":{"source":"Digitaal Vlaanderen Gebouwenregister","source_id":"gebouw/Gebouw.16563908/0","kind":"building","height_m":7.88,"status":null},"geometry":{"type":"Polygon","coordinates":[[[4.12511863,50.94351163],[4.12513681,50.94350208],[4.12517186,50.94352873],[4.12514144,50.9435447],[4.12510586,50.94351833],[4.12511863,50.94351163]]]}},{"type":"Feature","id":"gebouw/Gebouw.16564060/0","properties":{"source":"Digitaal Vlaanderen Gebouwenregister","source_id":"gebouw/Gebouw.16564060/0","kind":"building","height_m":6.44,"status":null},"geometry":{"type":"Polygon","coordinates":[[[4.12528583,50.94334285],[4.12527693,50.943335],[4.12542756,50.94326684],[4.12547796,50.94331128],[4.12543321,50.94333153],[4.12543878,50.94333645],[4.12536838,50.94336831],[4.12536293,50.94336351],[4.12532755,50.94337952],[4.12532532,50.94337756],[4.1252985,50.9433897],[4.1252591,50.94335495],[4.12528583,50.94334285]]]}},{"type":"Feature","id":"gebouw/Gebouw.16564133/0","properties":{"source":"Digitaal Vlaanderen Gebouwenregister","source_id":"gebouw/Gebouw.16564133/0","kind":"building","height_m":8.6,"status":null},"geometry":{"type":"Polygon","coordinates":[[[4.12403383,50.94246947],[4.12393945,50.94250562],[4.12387772,50.94243417],[4.12395135,50.94240878],[4.12396185,50.94242093],[4.12399706,50.94240878],[4.12403723,50.94245527],[4.124025,50.94245948],[4.12403383,50.94246947]]]}},{"type":"Feature","id":"gebouw/Gebouw.16564545/0","properties":{"source":"Digitaal Vlaanderen Gebouwenregister","source_id":"gebouw/Gebouw.16564545/0","kind":"building","height_m":7.88,"status":null},"geometry":{"type":"Polygon","coordinates":[[[4.12347636,50.94716919],[4.1234663,50.94712618],[4.12336688,50.94712648],[4.12336914,50.94716529],[4.12343349,50.94716763],[4.12347636,50.94716919]]]}},{"type":"Feature","id":"gebouw/Gebouw.16564550/0","properties":{"source":"Digitaal Vlaanderen Gebouwenregister","source_id":"gebouw/Gebouw.16564550/0","kind":"building","height_m":6.44,"status":null},"geometry":{"type":"Polygon","coordinates":[[[4.12485815,50.94372983],[4.12486964,50.94375808],[4.12478254,50.94377223],[4.12477104,50.94374398],[4.12485815,50.94372983]]]}},{"type":"Feature","id":"gebouw/Gebouw.16564663/0","properties":{"source":"Digitaal Vlaanderen Gebouwenregister","source_id":"gebouw/Gebouw.16564663/0","kind":"building","height_m":7.16,"status":null},"geometry":{"type":"Polygon","coordinates":[[[4.12476646,50.94291198],[4.12473533,50.94288559],[4.12478143,50.94286389],[4.12481256,50.94289027],[4.12476646,50.94291198]]]}},{"type":"Feature","id":"gebouw/Gebouw.16565222/0","properties":{"source":"Digitaal Vlaanderen Gebouwenregister","source_id":"gebouw/Gebouw.16565222/0","kind":"building","height_m":6.44,"status":null},"geometry":{"type":"Polygon","coordinates":[[[4.12433017,50.94337988],[4.12437001,50.94341452],[4.12431574,50.94343943],[4.1242759,50.94340479],[4.12433017,50.94337988]]]}},{"type":"Feature","id":"gebouw/Gebouw.16565237/0","properties":{"source":"Digitaal Vlaanderen Gebouwenregister","source_id":"gebouw/Gebouw.16565237/0","kind":"building","height_m":7.16,"status":null},"geometry":{"type":"Polygon","coordinates":[[[4.12616819,50.94591911],[4.12624455,50.94587609],[4.12630132,50.94587867],[4.12633925,50.94590554],[4.12630955,50.94592227],[4.12631136,50.94592355],[4.12623191,50.94596795],[4.12618756,50.94593805],[4.12619146,50.9459356],[4.12616819,50.94591911]]]}},{"type":"Feature","id":"gebouw/Gebouw.16565343/0","properties":{"source":"Digitaal Vlaanderen Gebouwenregister","source_id":"gebouw/Gebouw.16565343/0","kind":"building","height_m":7.88,"status":null},"geometry":{"type":"Polygon","coordinates":[[[4.12456528,50.94616521],[4.12456377,50.94619788],[4.12448471,50.94619642],[4.12448901,50.94616517],[4.12456528,50.94616521]]]}},{"type":"Feature","id":"gebouw/Gebouw.16565633/0","properties":{"source":"Digitaal Vlaanderen Gebouwenregister","source_id":"gebouw/Gebouw.16565633/0","kind":"building","height_m":5.0,"status":null},"geometry":{"type":"Polygon","coordinates":[[[4.12325931,50.94319242],[4.12323634,50.94317594],[4.1233431,50.94311653],[4.12336608,50.94313301],[4.12325931,50.94319242]]]}},{"type":"Feature","id":"gebouw/Gebouw.16565638/0","properties":{"source":"Digitaal Vlaanderen Gebouwenregister","source_id":"gebouw/Gebouw.16565638/0","kind":"building","height_m":8.6,"status":null},"geometry":{"type":"Polygon","coordinates":[[[4.12701304,50.9449269],[4.12699284,50.9449474],[4.12695076,50.94499008],[4.12692794,50.94498111],[4.12689842,50.94496949],[4.1269607,50.94490631],[4.12701304,50.9449269]]]}},{"type":"Feature","id":"gebouw/Gebouw.16565821/0","properties":{"source":"Digitaal Vlaanderen Gebouwenregister","source_id":"gebouw/Gebouw.16565821/0","kind":"building","height_m":9.32,"status":null},"geometry":{"type":"Polygon","coordinates":[[[4.12582262,50.94383018],[4.12586509,50.9438747],[4.12590342,50.9438601],[4.12590152,50.94385811],[4.1259352,50.94384529],[4.12589467,50.94380281],[4.12582262,50.94383018]]]}},{"type":"Feature","id":"gebouw/Gebouw.16565822/0","properties":{"source":"Digitaal Vlaanderen Gebouwenregister","source_id":"gebouw/Gebouw.16565822/0","kind":"building","height_m":5.0,"status":null},"geometry":{"type":"Polygon","coordinates":[[[4.12406349,50.94670882],[4.12412242,50.94666933],[4.12416973,50.94669751],[4.1241584,50.94670511],[4.12420779,50.94673452],[4.12416018,50.94676642],[4.12406349,50.94670882]]]}},{"type":"Feature","id":"gebouw/Gebouw.16565982/0","properties":{"source":"Digitaal Vlaanderen Gebouwenregister","source_id":"gebouw/Gebouw.16565982/0","kind":"building","height_m":9.32,"status":null},"geometry":{"type":"Polygon","coordinates":[[[4.12635941,50.94407115],[4.12630129,50.94410269],[4.12627438,50.9440829],[4.12626171,50.94408977],[4.12624269,50.94407647],[4.12623817,50.94407331],[4.12631289,50.94403446],[4.12631756,50.94403815],[4.12633305,50.94405036],[4.12635941,50.94407115]]]}},{"type":"Feature","id":"gebouw/Gebouw.16566268/0","properties":{"source":"Digitaal Vlaanderen Gebouwenregister","source_id":"gebouw/Gebouw.16566268/0","kind":"building","height_m":8.6,"status":null},"geometry":{"type":"Polygon","coordinates":[[[4.12491779,50.94304773],[4.12481246,50.94309895],[4.12480581,50.94309349],[4.12477571,50.94310813],[4.12473584,50.9430754],[4.12476594,50.94306077],[4.1247606,50.94305638],[4.12486592,50.94300516],[4.12491779,50.94304773]]]}},{"type":"Feature","id":"gebouw/Gebouw.16566503/0","properties":{"source":"Digitaal Vlaanderen Gebouwenregister","source_id":"gebouw/Gebouw.16566503/0","kind":"building","height_m":6.44,"status":null},"geometry":{"type":"Polygon","coordinates":[[[4.12350972,50.94740401],[4.12353529,50.94738228],[4.12357354,50.94740024],[4.12354797,50.94742197],[4.12350972,50.94740401]]]}},{"type":"Feature","id":"gebouw/Gebouw.16566532/0","properties":{"source":"Digitaal Vlaanderen Gebouwenregister","source_id":"gebouw/Gebouw.16566532/0","kind":"building","height_m":7.16,"status":null},"geometry":{"type":"Polygon","coordinates":[[[4.12428395,50.94678498],[4.12422739,50.94682221],[4.12419671,50.94680361],[4.12425327,50.94676638],[4.12428395,50.94678498]]]}},{"type":"Feature","id":"gebouw/Gebouw.16566832/0","properties":{"source":"Digitaal Vlaanderen Gebouwenregister","source_id":"gebouw/Gebouw.16566832/0","kind":"building","height_m":6.44,"status":null},"geometry":{"type":"Polygon","coordinates":[[[4.1254517,50.94398299],[4.12543319,50.94394952],[4.12553351,50.94392841],[4.12555041,50.943962],[4.1254517,50.94398299]]]}},{"type":"Feature","id":"gebouw/Gebouw.16566918/0","properties":{"source":"Digitaal Vlaanderen Gebouwenregister","source_id":"gebouw/Gebouw.16566918/0","kind":"building","height_m":7.88,"status":null},"geometry":{"type":"Polygon","coordinates":[[[4.12368426,50.94736099],[4.12373496,50.94736515],[4.12372868,50.94739573],[4.12367798,50.94739157],[4.12368426,50.94736099]]]}},{"type":"Feature","id":"gebouw/Gebouw.16570121/0","properties":{"source":"Digitaal Vlaanderen Gebouwenregister","source_id":"gebouw/Gebouw.16570121/0","kind":"building","height_m":5.72,"status":null},"geometry":{"type":"Polygon","coordinates":[[[4.12870188,50.94479061],[4.12866958,50.94484293],[4.12856017,50.94481598],[4.12859247,50.94476365],[4.12870188,50.94479061]]]}},{"type":"Feature","id":"gebouw/Gebouw.16570538/0","properties":{"source":"Digitaal Vlaanderen Gebouwenregister","source_id":"gebouw/Gebouw.16570538/0","kind":"building","height_m":8.6,"status":null},"geometry":{"type":"Polygon","coordinates":[[[4.12448012,50.94453838],[4.12433069,50.94444816],[4.12425219,50.94449967],[4.12428809,50.94451875],[4.12425413,50.94454073],[4.12436446,50.94461083],[4.12448012,50.94453838]]]}},{"type":"Feature","id":"gebouw/Gebouw.16599660/0","properties":{"source":"Digitaal Vlaanderen Gebouwenregister","source_id":"gebouw/Gebouw.16599660/0","kind":"building","height_m":5.0,"status":null},"geometry":{"type":"Polygon","coordinates":[[[4.125114,50.94790746],[4.12514737,50.94787228],[4.12524984,50.94791108],[4.12521647,50.94794625],[4.125114,50.94790746]]]}},{"type":"Feature","id":"gebouw/Gebouw.16599953/0","properties":{"source":"Digitaal Vlaanderen Gebouwenregister","source_id":"gebouw/Gebouw.16599953/0","kind":"building","height_m":9.32,"status":null},"geometry":{"type":"Polygon","coordinates":[[[4.1301992,50.94265423],[4.13016523,50.94263622],[4.13021195,50.94260105],[4.13024592,50.94261905],[4.1301992,50.94265423]]]}},{"type":"Feature","id":"gebouw/Gebouw.16600053/0","properties":{"source":"Digitaal Vlaanderen Gebouwenregister","source_id":"gebouw/Gebouw.16600053/0","kind":"building","height_m":5.72,"status":null},"geometry":{"type":"Polygon","coordinates":[[[4.13272844,50.94342137],[4.13268295,50.94333719],[4.13262508,50.94334989],[4.13266817,50.94343373],[4.13272844,50.94342137]]]}},{"type":"Feature","id":"gebouw/Gebouw.16600058/0","properties":{"source":"Digitaal Vlaanderen Gebouwenregister","source_id":"gebouw/Gebouw.16600058/0","kind":"building","height_m":9.32,"status":null},"geometry":{"type":"Polygon","coordinates":[[[4.1250927,50.94472877],[4.12505905,50.94475258],[4.12494417,50.94468902],[4.12495976,50.94467814],[4.12497973,50.94466419],[4.1250927,50.94472877]]]}},{"type":"Feature","id":"gebouw/Gebouw.16600583/0","properties":{"source":"Digitaal Vlaanderen Gebouwenregister","source_id":"gebouw/Gebouw.16600583/0","kind":"building","height_m":9.32,"status":null},"geometry":{"type":"Polygon","coordinates":[[[4.12392107,50.94654889],[4.1238538,50.94659436],[4.12381288,50.94657019],[4.12388015,50.94652473],[4.12392107,50.94654889]]]}},{"type":"Feature","id":"gebouw/Gebouw.16600797/0","properties":{"source":"Digitaal Vlaanderen Gebouwenregister","source_id":"gebouw/Gebouw.16600797/0","kind":"building","height_m":7.16,"status":null},"geometry":{"type":"Polygon","coordinates":[[[4.12628177,50.94403585],[4.12622102,50.94406444],[4.12617811,50.94402806],[4.12623886,50.94399947],[4.12628177,50.94403585]]]}},{"type":"Feature","id":"gebouw/Gebouw.16601262/0","properties":{"source":"Digitaal Vlaanderen Gebouwenregister","source_id":"gebouw/Gebouw.16601262/0","kind":"building","height_m":9.32,"status":null},"geometry":{"type":"Polygon","coordinates":[[[4.13297773,50.9439705],[4.13283637,50.9439978],[4.13282488,50.94397147],[4.13283695,50.94396939],[4.13283821,50.94397231],[4.13296882,50.94394979],[4.13297773,50.9439705]]]}},{"type":"Feature","id":"gebouw/Gebouw.16601424/0","properties":{"source":"Digitaal Vlaanderen Gebouwenregister","source_id":"gebouw/Gebouw.16601424/0","kind":"building","height_m":5.0,"status":null},"geometry":{"type":"Polygon","coordinates":[[[4.12740993,50.94527978],[4.12733953,50.94536343],[4.12723155,50.94532717],[4.12730195,50.94524351],[4.12740993,50.94527978]]]}},{"type":"Feature","id":"gebouw/Gebouw.16604416/0","properties":{"source":"Digitaal Vlaanderen Gebouwenregister","source_id":"gebouw/Gebouw.16604416/0","kind":"building","height_m":7.16,"status":null},"geometry":{"type":"Polygon","coordinates":[[[4.12466221,50.94589201],[4.12452265,50.94581644],[4.12457492,50.94577792],[4.12464033,50.94581334],[4.12466266,50.94579688],[4.1247368,50.94583703],[4.12466221,50.94589201]]]}},{"type":"Feature","id":"gebouw/Gebouw.16610280/0","properties":{"source":"Digitaal Vlaanderen Gebouwenregister","source_id":"gebouw/Gebouw.16610280/0","kind":"building","height_m":5.72,"status":null},"geometry":{"type":"Polygon","coordinates":[[[4.13044399,50.9430875],[4.13044316,50.94316464],[4.13029535,50.943164],[4.130295,50.94317741],[4.13021532,50.94317714],[4.13021617,50.94307712],[4.13029693,50.94307747],[4.13029683,50.94308722],[4.13032826,50.94308735],[4.13032821,50.94309199],[4.13038316,50.94309222],[4.13038322,50.94308723],[4.13044399,50.9430875]]]}},{"type":"Feature","id":"gebouw/Gebouw.16614930/0","properties":{"source":"Digitaal Vlaanderen Gebouwenregister","source_id":"gebouw/Gebouw.16614930/0","kind":"building","height_m":7.16,"status":null},"geometry":{"type":"Polygon","coordinates":[[[4.12604172,50.94418223],[4.12606148,50.94419996],[4.12598743,50.94423291],[4.12596767,50.94421518],[4.12604172,50.94418223]]]}},{"type":"Feature","id":"gebouw/Gebouw.16614953/0","properties":{"source":"Digitaal Vlaanderen Gebouwenregister","source_id":"gebouw/Gebouw.16614953/0","kind":"building","height_m":8.6,"status":null},"geometry":{"type":"Polygon","coordinates":[[[4.12496008,50.94501181],[4.12488375,50.94495636],[4.1249913,50.94489727],[4.12506763,50.94495272],[4.12496008,50.94501181]]]}},{"type":"Feature","id":"gebouw/Gebouw.16614976/0","properties":{"source":"Digitaal Vlaanderen Gebouwenregister","source_id":"gebouw/Gebouw.16614976/0","kind":"building","height_m":5.0,"status":null},"geometry":{"type":"Polygon","coordinates":[[[4.1265309,50.94623766],[4.12666107,50.94616366],[4.12673609,50.94621633],[4.12660592,50.94629033],[4.1265309,50.94623766]]]}},{"type":"Feature","id":"gebouw/Gebouw.16617206/0","properties":{"source":"Digitaal Vlaanderen Gebouwenregister","source_id":"gebouw/Gebouw.16617206/0","kind":"building","height_m":7.88,"status":null},"geometry":{"type":"Polygon","coordinates":[[[4.12576031,50.94540033],[4.12588241,50.94533081],[4.12593073,50.94536469],[4.12580863,50.9454342],[4.12576031,50.94540033]]]}},{"type":"Feature","id":"gebouw/Gebouw.16621959/0","properties":{"source":"Digitaal Vlaanderen Gebouwenregister","source_id":"gebouw/Gebouw.16621959/0","kind":"building","height_m":7.88,"status":null},"geometry":{"type":"Polygon","coordinates":[[[4.12528824,50.94313209],[4.12532366,50.94311624],[4.12541256,50.94319554],[4.12529064,50.9432501],[4.12528334,50.94324359],[4.12523084,50.94326708],[4.12515817,50.94320227],[4.12522892,50.94317062],[4.12521997,50.94316264],[4.12524562,50.94315116],[4.12528824,50.94313209]]]}},{"type":"Feature","id":"gebouw/Gebouw.16621962/0","properties":{"source":"Digitaal Vlaanderen Gebouwenregister","source_id":"gebouw/Gebouw.16621962/0","kind":"building","height_m":5.0,"status":null},"geometry":{"type":"Polygon","coordinates":[[[4.12627812,50.94394519],[4.1262733,50.94394109],[4.1262784,50.94393847],[4.12629304,50.94386066],[4.12619413,50.94385337],[4.12619168,50.94386638],[4.12618453,50.94390433],[4.12615773,50.94391771],[4.12614787,50.94392263],[4.12620996,50.94397276],[4.12621576,50.94396942],[4.12622198,50.94397338],[4.12627812,50.94394519]]]}},{"type":"Feature","id":"gebouw/Gebouw.16624564/0","properties":{"source":"Digitaal Vlaanderen Gebouwenregister","source_id":"gebouw/Gebouw.16624564/0","kind":"building","height_m":8.6,"status":null},"geometry":{"type":"Polygon","coordinates":[[[4.12930662,50.94358112],[4.12932054,50.94355776],[4.12933873,50.94356209],[4.12935968,50.94352693],[4.12941989,50.94354125],[4.12938502,50.94359976],[4.12930662,50.94358112]]]}},{"type":"Feature","id":"gebouw/Gebouw.16626049/0","properties":{"source":"Digitaal Vlaanderen Gebouwenregister","source_id":"gebouw/Gebouw.16626049/0","kind":"building","height_m":9.32,"status":null},"geometry":{"type":"Polygon","coordinates":[[[4.12619891,50.94584485],[4.12623787,50.945873],[4.12616313,50.94591428],[4.12612327,50.94588548],[4.12606286,50.94584183],[4.1260658,50.9458402],[4.12603733,50.94581964],[4.1261094,50.94577983],[4.12613753,50.94580015],[4.12613925,50.9457992],[4.1262009,50.94584375],[4.12619891,50.94584485]]]}},{"type":"Feature","id":"gebouw/Gebouw.16626676/0","properties":{"source":"Digitaal Vlaanderen Gebouwenregister","source_id":"gebouw/Gebouw.16626676/0","kind":"building","height_m":7.16,"status":null},"geometry":{"type":"Polygon","coordinates":[[[4.12432843,50.94590782],[4.12433432,50.94591097],[4.1243561,50.94589468],[4.12443266,50.94593554],[4.12435662,50.9459897],[4.12421665,50.94591499],[4.1242688,50.945876],[4.12427168,50.94587753],[4.12432843,50.94590782]]]}},{"type":"Feature","id":"gebouw/Gebouw.16632834/0","properties":{"source":"Digitaal Vlaanderen Gebouwenregister","source_id":"gebouw/Gebouw.16632834/0","kind":"building","height_m":5.72,"status":null},"geometry":{"type":"Polygon","coordinates":[[[4.12489017,50.94278105],[4.1249083,50.94280345],[4.12482666,50.94282982],[4.12480864,50.94280755],[4.12480381,50.94280911],[4.12472329,50.94270824],[4.12481294,50.94267928],[4.12489423,50.94277974],[4.12489017,50.94278105]]]}},{"type":"Feature","id":"gebouw/Gebouw.16639617/0","properties":{"source":"Digitaal Vlaanderen Gebouwenregister","source_id":"gebouw/Gebouw.16639617/0","kind":"building","height_m":5.72,"status":null},"geometry":{"type":"Polygon","coordinates":[[[4.12365801,50.94639375],[4.12368618,50.94637459],[4.12377901,50.94642909],[4.12374923,50.94644933],[4.12375934,50.94645526],[4.1236901,50.94650233],[4.12357505,50.94643478],[4.12364589,50.94638663],[4.12365801,50.94639375]]]}},{"type":"Feature","id":"gebouw/Gebouw.16726439/0","properties":{"source":"Digitaal Vlaanderen Gebouwenregister","source_id":"gebouw/Gebouw.16726439/0","kind":"building","height_m":6.44,"status":null},"geometry":{"type":"Polygon","coordinates":[[[4.12365156,50.94325009],[4.12361104,50.94326397],[4.12358746,50.9432365],[4.12358344,50.94323787],[4.123499,50.94313949],[4.12361662,50.94309919],[4.12363677,50.94312267],[4.12364077,50.9431213],[4.12368883,50.94317729],[4.12362,50.94320087],[4.12363684,50.9432205],[4.12362859,50.94322332],[4.12365156,50.94325009]]]}},{"type":"Feature","id":"gebouw/Gebouw.16726454/0","properties":{"source":"Digitaal Vlaanderen Gebouwenregister","source_id":"gebouw/Gebouw.16726454/0","kind":"building","height_m":7.16,"status":null},"geometry":{"type":"Polygon","coordinates":[[[4.12503776,50.94380013],[4.12507474,50.94387445],[4.12496449,50.94389634],[4.12492752,50.94382202],[4.12503776,50.94380013]]]}},{"type":"Feature","id":"gebouw/Gebouw.16726519/0","properties":{"source":"Digitaal Vlaanderen Gebouwenregister","source_id":"gebouw/Gebouw.16726519/0","kind":"building","height_m":8.6,"status":null},"geometry":{"type":"Polygon","coordinates":[[[4.12620762,50.94419881],[4.12624529,50.94423195],[4.12615555,50.94427267],[4.12610741,50.94423033],[4.12606476,50.94419281],[4.12606868,50.94419104],[4.12617449,50.94414303],[4.12618067,50.94414847],[4.12624504,50.94411926],[4.12628851,50.94415749],[4.12621955,50.94418878],[4.12622301,50.94419183],[4.12620762,50.94419881]]]}},{"type":"Feature","id":"gebouw/Gebouw.16876628/0","properties":{"source":"Digitaal Vlaanderen Gebouwenregister","source_id":"gebouw/Gebouw.16876628/0","kind":"building","height_m":9.32,"status":null},"geometry":{"type":"Polygon","coordinates":[[[4.12780957,50.94518925],[4.12774084,50.94523084],[4.12773996,50.94529204],[4.12765558,50.94529065],[4.12765524,50.94527253],[4.12747098,50.94526896],[4.12747157,50.9451822],[4.1276764,50.94518612],[4.12774396,50.94514598],[4.12780957,50.94518925]]]}},{"type":"Feature","id":"gebouw/Gebouw.16896224/0","properties":{"source":"Digitaal Vlaanderen Gebouwenregister","source_id":"gebouw/Gebouw.16896224/0","kind":"building","height_m":6.44,"status":null},"geometry":{"type":"Polygon","coordinates":[[[4.12567473,50.94502894],[4.12566046,50.94503597],[4.12563213,50.94501304],[4.1256449,50.94500674],[4.12574277,50.94495849],[4.12577104,50.94498138],[4.12571772,50.94500767],[4.12572336,50.94501223],[4.12570161,50.94502295],[4.12569603,50.94501844],[4.12567473,50.94502894]]]}},{"type":"Feature","id":"gebouw/Gebouw.18511074/0","properties":{"source":"Digitaal Vlaanderen Gebouwenregister","source_id":"gebouw/Gebouw.18511074/0","kind":"building","height_m":5.72,"status":null},"geometry":{"type":"Polygon","coordinates":[[[4.12698222,50.94495147],[4.12697865,50.94495477],[4.1269242,50.9450052],[4.12690174,50.94499472],[4.12686611,50.94497809],[4.12692407,50.94492555],[4.12698222,50.94495147]]]}},{"type":"Feature","id":"gebouw/Gebouw.18730627/0","properties":{"source":"Digitaal Vlaanderen Gebouwenregister","source_id":"gebouw/Gebouw.18730627/0","kind":"building","height_m":9.32,"status":null},"geometry":{"type":"Polygon","coordinates":[[[4.12714733,50.94506285],[4.1270997,50.94510421],[4.12705835,50.94508595],[4.12710833,50.94504404],[4.12714733,50.94506285]]]}},{"type":"Feature","id":"gebouw/Gebouw.18730628/0","properties":{"source":"Digitaal Vlaanderen Gebouwenregister","source_id":"gebouw/Gebouw.18730628/0","kind":"building","height_m":5.0,"status":null},"geometry":{"type":"Polygon","coordinates":[[[4.12667502,50.94397881],[4.12660861,50.94401191],[4.1265884,50.94399614],[4.12665591,50.94396172],[4.12667502,50.94397881]]]}},{"type":"Feature","id":"gebouw/Gebouw.18730629/0","properties":{"source":"Digitaal Vlaanderen Gebouwenregister","source_id":"gebouw/Gebouw.18730629/0","kind":"building","height_m":5.72,"status":null},"geometry":{"type":"Polygon","coordinates":[[[4.12666468,50.94413669],[4.12656076,50.94418749],[4.12645958,50.94410159],[4.12656548,50.94405513],[4.12666468,50.94413669]]]}},{"type":"Feature","id":"gebouw/Gebouw.18961541/0","properties":{"source":"Digitaal Vlaanderen Gebouwenregister","source_id":"gebouw/Gebouw.18961541/0","kind":"building","height_m":7.88,"status":null},"geometry":{"type":"Polygon","coordinates":[[[4.12442324,50.94219094],[4.12435099,50.94221871],[4.12428789,50.94224295],[4.12428289,50.94224488],[4.12435214,50.94231681],[4.12449249,50.94226287],[4.12442324,50.94219094]]]}},{"type":"Feature","id":"gebouw/Gebouw.18978326/0","properties":{"source":"Digitaal Vlaanderen Gebouwenregister","source_id":"gebouw/Gebouw.18978326/0","kind":"building","height_m":7.16,"status":null},"geometry":{"type":"Polygon","coordinates":[[[4.12538746,50.94337081],[4.12537051,50.94337844],[4.12532459,50.94339911],[4.12537069,50.9434422],[4.12532176,50.9434631],[4.1253695,50.94350772],[4.12541843,50.94348683],[4.12542223,50.94349038],[4.12554166,50.94343938],[4.12548153,50.94338317],[4.12542604,50.94340687],[4.12538746,50.94337081]]]}},{"type":"Feature","id":"gebouw/Gebouw.18978524/0","properties":{"source":"Digitaal Vlaanderen Gebouwenregister","source_id":"gebouw/Gebouw.18978524/0","kind":"building","height_m":8.6,"status":null},"geometry":{"type":"Polygon","coordinates":[[[4.1255443,50.94452609],[4.12540396,50.94457799],[4.12534331,50.94452713],[4.12546719,50.94446934],[4.12548961,50.94448795],[4.1255443,50.94452609]]]}},{"type":"Feature","id":"gebouw/Gebouw.18978662/0","properties":{"source":"Digitaal Vlaanderen Gebouwenregister","source_id":"gebouw/Gebouw.18978662/0","kind":"building","height_m":7.16,"status":null},"geometry":{"type":"Polygon","coordinates":[[[4.12591892,50.94445062],[4.12577006,50.94452448],[4.12568775,50.9444606],[4.12583521,50.94438635],[4.12591892,50.94445062]]]}},{"type":"Feature","id":"gebouw/Gebouw.18986901/0","properties":{"source":"Digitaal Vlaanderen Gebouwenregister","source_id":"gebouw/Gebouw.18986901/0","kind":"building","height_m":7.16,"status":null},"geometry":{"type":"Polygon","coordinates":[[[4.12490175,50.94572257],[4.12499893,50.94564969],[4.12504895,50.94567664],[4.12491636,50.94577787],[4.12476367,50.94569806],[4.12480073,50.94566977],[4.12490175,50.94572257]]]}},{"type":"Feature","id":"gebouw/Gebouw.18987524/0","properties":{"source":"Digitaal Vlaanderen Gebouwenregister","source_id":"gebouw/Gebouw.18987524/0","kind":"building","height_m":7.16,"status":null},"geometry":{"type":"Polygon","coordinates":[[[4.1244736,50.94356227],[4.12446538,50.94355536],[4.12446738,50.94354794],[4.12449894,50.94353295],[4.12459735,50.94348622],[4.12469706,50.94357003],[4.12459799,50.94361707],[4.12453397,50.94356326],[4.12451142,50.9435443],[4.1244736,50.94356227]]]}},{"type":"Feature","id":"gebouw/Gebouw.19003135/0","properties":{"source":"Digitaal Vlaanderen Gebouwenregister","source_id":"gebouw/Gebouw.19003135/0","kind":"building","height_m":7.88,"status":null},"geometry":{"type":"Polygon","coordinates":[[[4.12585026,50.94344738],[4.1257355,50.94349451],[4.12567767,50.94343831],[4.12579083,50.9433899],[4.12585026,50.94344738]]]}},{"type":"Feature","id":"gebouw/Gebouw.20145566/0","properties":{"source":"Digitaal Vlaanderen Gebouwenregister","source_id":"gebouw/Gebouw.20145566/0","kind":"building","height_m":5.0,"status":null},"geometry":{"type":"Polygon","coordinates":[[[4.12419481,50.94229985],[4.12422752,50.9423342],[4.12413268,50.94237024],[4.12409998,50.9423359],[4.12419481,50.94229985]]]}},{"type":"Feature","id":"gebouw/Gebouw.20145578/0","properties":{"source":"Digitaal Vlaanderen Gebouwenregister","source_id":"gebouw/Gebouw.20145578/0","kind":"building","height_m":8.6,"status":null},"geometry":{"type":"Polygon","coordinates":[[[4.12583642,50.9431686],[4.12586942,50.94319769],[4.12577791,50.94323911],[4.12574491,50.94321002],[4.12583642,50.9431686]]]}},{"type":"Feature","id":"gebouw/Gebouw.20145580/0","properties":{"source":"Digitaal Vlaanderen Gebouwenregister","source_id":"gebouw/Gebouw.20145580/0","kind":"building","height_m":5.0,"status":null},"geometry":{"type":"Polygon","coordinates":[[[4.12557426,50.94521844],[4.12564401,50.94517766],[4.12578718,50.9452754],[4.12571742,50.94531618],[4.12557426,50.94521844]]]}},{"type":"Feature","id":"gebouw/Gebouw.20146272/0","properties":{"source":"Digitaal Vlaanderen Gebouwenregister","source_id":"gebouw/Gebouw.20146272/0","kind":"building","height_m":9.32,"status":null},"geometry":{"type":"Polygon","coordinates":[[[4.1266026,50.9461099],[4.1266744,50.94606988],[4.12672307,50.94610473],[4.12665127,50.94614475],[4.1266026,50.9461099]]]}},{"type":"Feature","id":"gebouw/Gebouw.20146275/0","properties":{"source":"Digitaal Vlaanderen Gebouwenregister","source_id":"gebouw/Gebouw.20146275/0","kind":"building","height_m":6.44,"status":null},"geometry":{"type":"Polygon","coordinates":[[[4.12490965,50.94499928],[4.12495553,50.94503088],[4.12491765,50.94505283],[4.12487177,50.94502123],[4.12490965,50.94499928]]]}},{"type":"Feature","id":"gebouw/Gebouw.20146276/0","properties":{"source":"Digitaal Vlaanderen Gebouwenregister","source_id":"gebouw/Gebouw.20146276/0","kind":"building","height_m":7.16,"status":null},"geometry":{"type":"Polygon","coordinates":[[[4.1239912,50.9441474],[4.12393801,50.94411908],[4.12378771,50.94423173],[4.1238409,50.94426005],[4.1239912,50.9441474]]]}},{"type":"Feature","id":"gebouw/Gebouw.20146896/0","properties":{"source":"Digitaal Vlaanderen Gebouwenregister","source_id":"gebouw/Gebouw.20146896/0","kind":"building","height_m":5.0,"status":null},"geometry":{"type":"Polygon","coordinates":[[[4.12426042,50.94683953],[4.12422011,50.94681606],[4.12429319,50.94676598],[4.1243335,50.94678944],[4.12426042,50.94683953]]]}},{"type":"Feature","id":"gebouw/Gebouw.30642132/0","properties":{"source":"Digitaal Vlaanderen Gebouwenregister","source_id":"gebouw/Gebouw.30642132/0","kind":"building","height_m":7.16,"status":null},"geometry":{"type":"Polygon","coordinates":[[[4.12788573,50.94830216],[4.1279471,50.94832124],[4.1279097,50.94836927],[4.12784928,50.9483505],[4.12788573,50.94830216]]]}},{"type":"Feature","id":"gebouw/Gebouw.30642133/0","properties":{"source":"Digitaal Vlaanderen Gebouwenregister","source_id":"gebouw/Gebouw.30642133/0","kind":"building","height_m":7.88,"status":null},"geometry":{"type":"Polygon","coordinates":[[[4.12337621,50.94658949],[4.12342681,50.94655562],[4.1235009,50.94659979],[4.12351008,50.94659364],[4.12355101,50.94661804],[4.12349123,50.94665806],[4.12337621,50.94658949]]]}},{"type":"Feature","id":"gebouw/Gebouw.30642134/0","properties":{"source":"Digitaal Vlaanderen Gebouwenregister","source_id":"gebouw/Gebouw.30642134/0","kind":"building","height_m":8.6,"status":null},"geometry":{"type":"Polygon","coordinates":[[[4.12600998,50.94622121],[4.1260624,50.94625677],[4.12603653,50.94627199],[4.12598411,50.94623643],[4.12600998,50.94622121]]]}},{"type":"Feature","id":"gebouw/Gebouw.30642135/0","properties":{"source":"Digitaal Vlaanderen Gebouwenregister","source_id":"gebouw/Gebouw.30642135/0","kind":"building","height_m":9.32,"status":null},"geometry":{"type":"Polygon","coordinates":[[[4.12585829,50.94533513],[4.1259146,50.94537611],[4.12583343,50.94542075],[4.12577711,50.94537976],[4.12585829,50.94533513]]]}},{"type":"Feature","id":"gebouw/Gebouw.31144907/0","properties":{"source":"Digitaal Vlaanderen Gebouwenregister","source_id":"gebouw/Gebouw.31144907/0","kind":"building","height_m":7.16,"status":null},"geometry":{"type":"Polygon","coordinates":[[[4.12567373,50.9455187],[4.12569639,50.94550529],[4.12573207,50.94552937],[4.12564041,50.94558358],[4.12556298,50.94553132],[4.12563197,50.94549052],[4.12567373,50.9455187]]]}},{"type":"Feature","id":"gebouw/Gebouw.31806219/0","properties":{"source":"Digitaal Vlaanderen Gebouwenregister","source_id":"gebouw/Gebouw.31806219/0","kind":"building","height_m":7.88,"status":null},"geometry":{"type":"Polygon","coordinates":[[[4.12600641,50.94209533],[4.12597659,50.94207497],[4.12588262,50.94212994],[4.12590409,50.9421446],[4.12593917,50.94216854],[4.12603315,50.94211357],[4.12600641,50.94209533]]]}},{"type":"Feature","id":"gebouw/Gebouw.31806604/0","properties":{"source":"Digitaal Vlaanderen Gebouwenregister","source_id":"gebouw/Gebouw.31806604/0","kind":"building","height_m":7.88,"status":null},"geometry":{"type":"Polygon","coordinates":[[[4.12363704,50.94650964],[4.12355659,50.94645992],[4.12351698,50.94648487],[4.12359649,50.9465352],[4.12363704,50.94650964]]]}},{"type":"Feature","id":"gebouw/Gebouw.31806643/0","properties":{"source":"Digitaal Vlaanderen Gebouwenregister","source_id":"gebouw/Gebouw.31806643/0","kind":"building","height_m":5.72,"status":null},"geometry":{"type":"Polygon","coordinates":[[[4.12511135,50.94460607],[4.12522314,50.94460552],[4.12522701,50.94453881],[4.12511677,50.94453543],[4.12511135,50.94460607]]]}},{"type":"Feature","id":"way/28353788","properties":{"source":"OpenStreetMap","source_id":"way/28353788","kind":"vegetation","name":null,"waterway":null,"landuse":"forest"},"geometry":{"type":"Polygon","coordinates":[[[4.1276379,50.9484366],[4.1275495,50.9483991],[4.1264597,50.947936],[4.1252495,50.9470491],[4.1253594,50.946983],[4.1253215,50.9469574],[4.1251891,50.9470762],[4.1248855,50.9471702],[4.1246075,50.9473113],[4.1234479,50.9466164],[4.1232249,50.9466564],[4.1240154,50.9472908],[4.1237295,50.9474527],[4.1239459,50.9477671],[4.1237203,50.9478603],[4.123893,50.9479836],[4.1237719,50.9480865],[4.1247259,50.9487363],[4.1255155,50.9488769],[4.1259324,50.9490123],[4.1262614,50.9491129],[4.1259157,50.9496834],[4.1261027,50.9497176],[4.1266689,50.9498204],[4.1268289,50.9498494],[4.1270409,50.9496072],[4.126962,50.9494488],[4.126607,50.9493742],[4.1276379,50.9484366]]]}},{"type":"Feature","id":"way/28353819","properties":{"source":"OpenStreetMap","source_id":"way/28353819","kind":"vegetation","name":null,"waterway":null,"landuse":"forest"},"geometry":{"type":"Polygon","coordinates":[[[4.1323047,50.9484497],[4.1320215,50.9483581],[4.1321153,50.9482583],[4.1324077,50.947947],[4.1317083,50.9478694],[4.1315337,50.94785],[4.1311889,50.9484497],[4.1313005,50.9484875],[4.1312709,50.9485344],[4.1313861,50.9485694],[4.1316958,50.9486636],[4.1336476,50.9492937],[4.1337787,50.9491602],[4.1321874,50.9486674],[4.1323047,50.9484497]]]}},{"type":"Feature","id":"way/28353834","properties":{"source":"OpenStreetMap","source_id":"way/28353834","kind":"vegetation","name":null,"waterway":null,"landuse":"forest"},"geometry":{"type":"Polygon","coordinates":[[[4.1279722,50.943381],[4.1273821,50.9428296],[4.1284981,50.9420452],[4.1287433,50.9422019],[4.1279722,50.943381]]]}},{"type":"Feature","id":"way/28353881","properties":{"source":"OpenStreetMap","source_id":"way/28353881","kind":"vegetation","name":null,"waterway":null,"landuse":"forest"},"geometry":{"type":"Polygon","coordinates":[[[4.12355,50.9449725],[4.1238075,50.9448914],[4.1240822,50.945032],[4.1233183,50.9456701],[4.1224514,50.9451564],[4.1227775,50.9449184],[4.1224857,50.9447454],[4.122346,50.9448306],[4.1224548,50.9448967],[4.1223236,50.9449921],[4.1222231,50.9450651],[4.1217938,50.9448881],[4.1213965,50.9446564],[4.1226891,50.9437095],[4.1228548,50.9435881],[4.1230694,50.9433555],[4.1232239,50.9430419],[4.1229835,50.9425064],[4.1228376,50.9421765],[4.1226059,50.9418088],[4.1225645,50.9416719],[4.1221583,50.9412291],[4.1216046,50.9407372],[4.1216803,50.9405156],[4.1219387,50.9404258],[4.1220829,50.9403157],[4.1224342,50.9406568],[4.122782,50.9411056],[4.1228413,50.9412553],[4.1229749,50.9415925],[4.1231552,50.9419981],[4.1233083,50.9423359],[4.1233783,50.9424902],[4.1236873,50.9431068],[4.1238762,50.9431338],[4.1241766,50.9431338],[4.1244255,50.9432365],[4.1246916,50.9431879],[4.1249061,50.943296],[4.1250692,50.9434853],[4.1250846,50.9435183],[4.125155,50.9436692],[4.1254125,50.9438747],[4.125515,50.9439504],[4.1257611,50.9439576],[4.1259267,50.9443656],[4.1268483,50.9442211],[4.1270568,50.944419],[4.1264371,50.9447879],[4.126057,50.9450012],[4.12542,50.9445883],[4.1253706,50.9446147],[4.1249785,50.9443678],[4.124374,50.9447832],[4.123756,50.9444588],[4.1233011,50.9448211],[4.12355,50.9449725]]]}},{"type":"Feature","id":"way/160576089","properties":{"source":"OpenStreetMap","source_id":"way/160576089","kind":"vegetation","name":null,"waterway":null,"landuse":"forest"},"geometry":{"type":"Polygon","coordinates":[[[4.1292678,50.9451283],[4.1292432,50.9453551],[4.1290928,50.9455508],[4.1289301,50.9456626],[4.1288093,50.9456859],[4.1286293,50.9456424],[4.1285012,50.9456051],[4.1283927,50.9456082],[4.1282423,50.9455678],[4.1283483,50.9454638],[4.1279169,50.945251],[4.1278356,50.9452106],[4.1277074,50.945119],[4.1275989,50.9449605],[4.1273271,50.944914],[4.1271703,50.9448852],[4.1270113,50.94497],[4.1268692,50.944872],[4.1267115,50.9449668],[4.1264371,50.9447879],[4.126057,50.9450012],[4.1264742,50.9452557],[4.1271057,50.9456412],[4.126914,50.9457489],[4.12631,50.9453452],[4.1262553,50.9453786],[4.1268721,50.9458104],[4.1270186,50.945918],[4.1271336,50.9458697],[4.1273323,50.946041],[4.127409,50.9461794],[4.1271231,50.946309],[4.1274248,50.9465313],[4.1274927,50.9465813],[4.1277054,50.946779],[4.1269314,50.9473501],[4.1270848,50.947416],[4.1272103,50.947304],[4.1273498,50.9473589],[4.1284895,50.9466137],[4.1291009,50.9462161],[4.1293523,50.9462347],[4.1294805,50.9461726],[4.1296679,50.9460545],[4.1291748,50.9458371],[4.1294657,50.9455109],[4.1296265,50.9453554],[4.1301167,50.9445513],[4.1299269,50.9445109],[4.1294787,50.9451786],[4.1294561,50.9452122],[4.1292958,50.9451206],[4.1292678,50.9451283]]]}},{"type":"Feature","id":"way/160576095","properties":{"source":"OpenStreetMap","source_id":"way/160576095","kind":"vegetation","name":null,"waterway":null,"landuse":"forest"},"geometry":{"type":"Polygon","coordinates":[[[4.1298381,50.9451441],[4.1297223,50.9453134],[4.1297518,50.9454656],[4.1299786,50.945916],[4.1303593,50.9466174],[4.1306617,50.9465656],[4.1298381,50.9451441]]]}},{"type":"Feature","id":"way/160581495","properties":{"source":"OpenStreetMap","source_id":"way/160581495","kind":"vegetation","name":null,"waterway":null,"landuse":"forest"},"geometry":{"type":"Polygon","coordinates":[[[4.1306421,50.9434689],[4.1306717,50.9435543],[4.1306027,50.9435481],[4.1305238,50.9435202],[4.1293085,50.9426115],[4.1303956,50.9420259],[4.1305435,50.9421564],[4.1308862,50.9424764],[4.1312034,50.9427639],[4.1311746,50.943034],[4.1309641,50.9434044],[4.1309215,50.9434473],[4.1308788,50.9434767],[4.1307753,50.9435295],[4.1307383,50.9435279],[4.1306816,50.9434673],[4.1309158,50.9431085],[4.130265,50.9427839],[4.1299051,50.9429175],[4.1306421,50.9434689]]]}},{"type":"Feature","id":"way/160596690","properties":{"source":"OpenStreetMap","source_id":"way/160596690","kind":"vegetation","name":null,"waterway":null,"landuse":"forest"},"geometry":{"type":"Polygon","coordinates":[[[4.1267792,50.9468554],[4.1265358,50.9466321],[4.1258447,50.9469558],[4.1262586,50.9471167],[4.1267792,50.9468554]]]}},{"type":"Feature","id":"way/160596694","properties":{"source":"OpenStreetMap","source_id":"way/160596694","kind":"vegetation","name":null,"waterway":null,"landuse":"forest"},"geometry":{"type":"Polygon","coordinates":[[[4.1238911,50.9459899],[4.1237956,50.9460519],[4.1224176,50.9452617],[4.1224514,50.9451564],[4.1233183,50.9456701],[4.1238911,50.9459899]]]}},{"type":"Feature","id":"way/160624682","properties":{"source":"OpenStreetMap","source_id":"way/160624682","kind":"vegetation","name":null,"waterway":null,"landuse":"forest"},"geometry":{"type":"Polygon","coordinates":[[[4.1298255,50.9479553],[4.129983,50.9476929],[4.1296771,50.9476549],[4.1296021,50.9478968],[4.1298255,50.9479553]]]}},{"type":"Feature","id":"way/1030687181","properties":{"source":"OpenStreetMap","source_id":"way/1030687181","kind":"waterway","name":"Oliemeersbeek","waterway":"stream","landuse":null},"geometry":{"type":"LineString","coordinates":[[4.1340378,50.9428353],[4.1337267,50.9424516],[4.1337052,50.9421254],[4.1336569,50.9420562],[4.1335013,50.9419277],[4.1333458,50.9418128],[4.1332465,50.9416911]]}}]}