{"type":"FeatureCollection","features":[{"type":"Feature","id":"gebouw/Gebouw.12469312/0","properties":{"source":"Digitaal Vlaanderen Gebouwenregister","source_id":"gebouw/Gebouw.12469312/0","kind":"building","height_m":6.44,"status":null},"geometry":{"type":"Polygon","coordinates":[[[4.13102254,50.92112787],[4.13096623,50.92115728],[4.13096617,50.92115682],[4.13095959,50.92110589],[4.13086866,50.92110509],[4.13086786,50.9210688],[4.13085348,50.92106898],[4.13085449,50.92097517],[4.13102365,50.92097576],[4.13102268,50.92110467],[4.13102254,50.92112745],[4.13102254,50.92112787]]]}},{"type":"Feature","id":"gebouw/Gebouw.16566177/0","properties":{"source":"Digitaal Vlaanderen Gebouwenregister","source_id":"gebouw/Gebouw.16566177/0","kind":"building","height_m":8.6,"status":null},"geometry":{"type":"Polygon","coordinates":[[[4.13013787,50.92146264],[4.13008126,50.9214962],[4.12999076,50.9214331],[4.13000138,50.92142784],[4.12991258,50.9213651],[4.12987827,50.92134087],[4.12985277,50.92135529],[4.12989197,50.92138298],[4.12988007,50.92138971],[4.12991786,50.92141419],[4.12991016,50.92141573],[4.1299085,50.92141606],[4.12989764,50.92142221],[4.12994278,50.92145409],[4.12994511,50.92145574],[4.12997746,50.92147859],[4.12995212,50.92149288],[4.12991835,50.92146902],[4.12988699,50.92144685],[4.12975302,50.92135214],[4.12975456,50.92135127],[4.1297538,50.92135065],[4.12977392,50.92133954],[4.12973435,50.92131097],[4.12984103,50.92125051],[4.13003832,50.92138824],[4.13005543,50.92140103],[4.13013787,50.92146264]],[[4.13000869,50.92142421],[4.13004191,50.92144757],[4.1300621,50.92144553],[4.13007511,50.92143481],[4.13003864,50.92140936],[4.13000869,50.92142421]]]}},{"type":"Feature","id":"gebouw/Gebouw.16576935/0","properties":{"source":"Digitaal Vlaanderen Gebouwenregister","source_id":"gebouw/Gebouw.16576935/0","kind":"building","height_m":7.88,"status":null},"geometry":{"type":"Polygon","coordinates":[[[4.12952204,50.92146455],[4.12928866,50.92152411],[4.12937099,50.92162511],[4.12940597,50.92161357],[4.12943849,50.92165254],[4.1293185,50.92169172],[4.12914832,50.92148263],[4.12949815,50.92139766],[4.12952204,50.92146455]]]}},{"type":"Feature","id":"gebouw/Gebouw.16588270/0","properties":{"source":"Digitaal Vlaanderen Gebouwenregister","source_id":"gebouw/Gebouw.16588270/0","kind":"building","height_m":9.32,"status":null},"geometry":{"type":"Polygon","coordinates":[[[4.1302687,50.92154907],[4.13021203,50.92158114],[4.13016529,50.92154813],[4.13022032,50.9215153],[4.1302687,50.92154907]]]}},{"type":"Feature","id":"gebouw/Gebouw.16589159/0","properties":{"source":"Digitaal Vlaanderen Gebouwenregister","source_id":"gebouw/Gebouw.16589159/0","kind":"building","height_m":9.32,"status":null},"geometry":{"type":"Polygon","coordinates":[[[4.13033092,50.92151281],[4.1302687,50.92154907],[4.13022032,50.9215153],[4.13020737,50.92150626],[4.13017819,50.92148588],[4.13022799,50.92145783],[4.13025323,50.92147572],[4.13026698,50.92146796],[4.13032702,50.92150989],[4.13033092,50.92151281]]]}},{"type":"Feature","id":"gebouw/Gebouw.16604581/0","properties":{"source":"Digitaal Vlaanderen Gebouwenregister","source_id":"gebouw/Gebouw.16604581/0","kind":"building","height_m":5.0,"status":null},"geometry":{"type":"Polygon","coordinates":[[[4.12953904,50.92154258],[4.12956494,50.92157962],[4.12947058,50.92160598],[4.12944468,50.92156893],[4.12953904,50.92154258]]]}},{"type":"Feature","id":"gebouw/Gebouw.16606026/0","properties":{"source":"Digitaal Vlaanderen Gebouwenregister","source_id":"gebouw/Gebouw.16606026/0","kind":"building","height_m":7.16,"status":null},"geometry":{"type":"Polygon","coordinates":[[[4.13098504,50.92154434],[4.13089737,50.92161171],[4.13071381,50.92151084],[4.13077691,50.92146066],[4.13076521,50.92145423],[4.13076865,50.92145168],[4.13078537,50.92143925],[4.13090031,50.92149975],[4.13097991,50.92154164],[4.13098504,50.92154434]]]}},{"type":"Feature","id":"gebouw/Gebouw.16606389/0","properties":{"source":"Digitaal Vlaanderen Gebouwenregister","source_id":"gebouw/Gebouw.16606389/0","kind":"building","height_m":6.44,"status":null},"geometry":{"type":"Polygon","coordinates":[[[4.12989736,50.92110532],[4.12987121,50.92111783],[4.12987516,50.92112127],[4.12982251,50.92114531],[4.12975934,50.92109003],[4.12975097,50.92108271],[4.12980342,50.92105876],[4.12983584,50.92108701],[4.129861,50.92107496],[4.12989736,50.92110532]]]}},{"type":"Feature","id":"gebouw/Gebouw.16612631/0","properties":{"source":"Digitaal Vlaanderen Gebouwenregister","source_id":"gebouw/Gebouw.16612631/0","kind":"building","height_m":5.0,"status":null},"geometry":{"type":"Polygon","coordinates":[[[4.13031479,50.92166837],[4.13039396,50.92170601],[4.13025104,50.92183265],[4.13017091,50.92179653],[4.1302722,50.92170678],[4.13027017,50.92170586],[4.13031479,50.92166837]]]}},{"type":"Feature","id":"gebouw/Gebouw.16613099/0","properties":{"source":"Digitaal Vlaanderen Gebouwenregister","source_id":"gebouw/Gebouw.16613099/0","kind":"building","height_m":9.32,"status":null},"geometry":{"type":"Polygon","coordinates":[[[4.13010182,50.92135264],[4.13003832,50.92138824],[4.12984103,50.92125051],[4.12990465,50.92121496],[4.13010182,50.92135264]]]}},{"type":"Feature","id":"gebouw/Gebouw.16615534/0","properties":{"source":"Digitaal Vlaanderen Gebouwenregister","source_id":"gebouw/Gebouw.16615534/0","kind":"building","height_m":8.6,"status":null},"geometry":{"type":"Polygon","coordinates":[[[4.13015159,50.92111577],[4.13022137,50.92108142],[4.13027702,50.92112658],[4.13030453,50.92111304],[4.13035161,50.92115124],[4.13034673,50.92115364],[4.13038207,50.92118232],[4.13029045,50.92122743],[4.13015159,50.92111577]]]}},{"type":"Feature","id":"gebouw/Gebouw.16616955/0","properties":{"source":"Digitaal Vlaanderen Gebouwenregister","source_id":"gebouw/Gebouw.16616955/0","kind":"building","height_m":8.6,"status":null},"geometry":{"type":"Polygon","coordinates":[[[4.12896677,50.92126018],[4.12898665,50.92129691],[4.12891099,50.92131327],[4.12889111,50.92127654],[4.12896677,50.92126018]]]}},{"type":"Feature","id":"gebouw/Gebouw.16619351/0","properties":{"source":"Digitaal Vlaanderen Gebouwenregister","source_id":"gebouw/Gebouw.16619351/0","kind":"building","height_m":5.0,"status":null},"geometry":{"type":"Polygon","coordinates":[[[4.1311968,50.92128951],[4.13116486,50.92127089],[4.13109407,50.92131941],[4.13119271,50.92137692],[4.1313342,50.92127995],[4.13142204,50.92133115],[4.13122994,50.9214628],[4.1311301,50.9214046],[4.13112037,50.92141127],[4.13107742,50.92138624],[4.13111444,50.92136087],[4.13110319,50.92135431],[4.13107609,50.92137288],[4.13100929,50.92133394],[4.13120222,50.92120172],[4.13126851,50.92124036],[4.13121346,50.92127809],[4.13123299,50.92128947],[4.13123588,50.92128749],[4.13126895,50.92130676],[4.13123988,50.92132668],[4.13120721,50.92130764],[4.13121672,50.92130112],[4.1311968,50.92128951]]]}},{"type":"Feature","id":"gebouw/Gebouw.16619662/0","properties":{"source":"Digitaal Vlaanderen Gebouwenregister","source_id":"gebouw/Gebouw.16619662/0","kind":"building","height_m":7.16,"status":null},"geometry":{"type":"Polygon","coordinates":[[[4.13347523,50.92131892],[4.13341386,50.9213806],[4.13333788,50.92134319],[4.13331302,50.92136322],[4.13327842,50.92134606],[4.13330286,50.92132637],[4.13328908,50.92131953],[4.13330251,50.92130872],[4.1332755,50.92129532],[4.13324258,50.921279],[4.13318835,50.92132268],[4.13313611,50.92129677],[4.13336042,50.92110602],[4.13337072,50.92109772],[4.13332987,50.92107906],[4.13335667,50.92105852],[4.13335407,50.92105724],[4.13328694,50.9210243],[4.13332152,50.92099062],[4.13334661,50.9209662],[4.13335234,50.92096062],[4.13335368,50.92095932],[4.13336073,50.92095245],[4.13344716,50.92099038],[4.13347878,50.92100426],[4.13345067,50.92102884],[4.13343819,50.92102314],[4.13341916,50.92103947],[4.1335399,50.92109913],[4.13341693,50.9211982],[4.13340227,50.92119094],[4.13333173,50.92124776],[4.13347523,50.92131892]]]}},{"type":"Feature","id":"gebouw/Gebouw.16621648/0","properties":{"source":"Digitaal Vlaanderen Gebouwenregister","source_id":"gebouw/Gebouw.16621648/0","kind":"building","height_m":5.72,"status":null},"geometry":{"type":"Polygon","coordinates":[[[4.12931093,50.92176915],[4.12891134,50.92184901],[4.1288872,50.9218012],[4.12928847,50.92172101],[4.12931135,50.92176907],[4.12931093,50.92176915]]]}},{"type":"Feature","id":"gebouw/Gebouw.16621657/0","properties":{"source":"Digitaal Vlaanderen Gebouwenregister","source_id":"gebouw/Gebouw.16621657/0","kind":"building","height_m":7.16,"status":null},"geometry":{"type":"Polygon","coordinates":[[[4.12957849,50.92110253],[4.12958075,50.92113925],[4.12957865,50.9211393],[4.1295795,50.92115305],[4.12951571,50.92115461],[4.12951492,50.92114166],[4.12951299,50.9211417],[4.12951069,50.92110419],[4.12957849,50.92110253]]]}},{"type":"Feature","id":"gebouw/Gebouw.16630481/0","properties":{"source":"Digitaal Vlaanderen Gebouwenregister","source_id":"gebouw/Gebouw.16630481/0","kind":"building","height_m":5.0,"status":null},"geometry":{"type":"Polygon","coordinates":[[[4.13091592,50.92165421],[4.13095043,50.92167365],[4.13091163,50.92170116],[4.13087712,50.92168172],[4.13091592,50.92165421]]]}},{"type":"Feature","id":"gebouw/Gebouw.16630848/0","properties":{"source":"Digitaal Vlaanderen Gebouwenregister","source_id":"gebouw/Gebouw.16630848/0","kind":"building","height_m":7.16,"status":null},"geometry":{"type":"Polygon","coordinates":[[[4.13051913,50.92160841],[4.13062817,50.92165974],[4.13064146,50.921666],[4.13056559,50.92173671],[4.13055465,50.9217469],[4.13052466,50.9217327],[4.13035634,50.92165296],[4.13044819,50.92157501],[4.13051913,50.92160841]]]}},{"type":"Feature","id":"gebouw/Gebouw.16635411/0","properties":{"source":"Digitaal Vlaanderen Gebouwenregister","source_id":"gebouw/Gebouw.16635411/0","kind":"building","height_m":6.44,"status":null},"geometry":{"type":"Polygon","coordinates":[[[4.13088066,50.92120154],[4.13081464,50.92123576],[4.13081458,50.92122245],[4.13076875,50.92122299],[4.13076947,50.92114762],[4.13087883,50.92114953],[4.13088066,50.92120137],[4.13088066,50.92120154]]]}},{"type":"Feature","id":"gebouw/Gebouw.16635433/0","properties":{"source":"Digitaal Vlaanderen Gebouwenregister","source_id":"gebouw/Gebouw.16635433/0","kind":"building","height_m":7.16,"status":null},"geometry":{"type":"Polygon","coordinates":[[[4.13037102,50.92148397],[4.13032702,50.92150989],[4.13026698,50.92146796],[4.13031236,50.92144239],[4.13037102,50.92148397]]]}},{"type":"Feature","id":"gebouw/Gebouw.16637972/0","properties":{"source":"Digitaal Vlaanderen Gebouwenregister","source_id":"gebouw/Gebouw.16637972/0","kind":"building","height_m":5.72,"status":null},"geometry":{"type":"Polygon","coordinates":[[[4.1301372,50.92127993],[4.13010757,50.92129711],[4.13010712,50.92129678],[4.13000336,50.92122355],[4.12995591,50.92119005],[4.12998435,50.92117313],[4.13003205,50.92120645],[4.1301372,50.92127993]]]}},{"type":"Feature","id":"gebouw/Gebouw.16725989/0","properties":{"source":"Digitaal Vlaanderen Gebouwenregister","source_id":"gebouw/Gebouw.16725989/0","kind":"building","height_m":5.0,"status":null},"geometry":{"type":"Polygon","coordinates":[[[4.13368354,50.92131943],[4.13362635,50.92136585],[4.1335224,50.9213164],[4.1335801,50.92126962],[4.13366735,50.92131167],[4.13368354,50.92131943]]]}},{"type":"Feature","id":"gebouw/Gebouw.16726058/0","properties":{"source":"Digitaal Vlaanderen Gebouwenregister","source_id":"gebouw/Gebouw.16726058/0","kind":"building","height_m":9.32,"status":null},"geometry":{"type":"Polygon","coordinates":[[[4.13010757,50.9212971],[4.13014709,50.92132501],[4.1301449,50.92132626],[4.13017751,50.92134947],[4.13013302,50.92137442],[4.13012872,50.92137142],[4.13010182,50.92135264],[4.12990465,50.92121496],[4.12995296,50.92118806],[4.12995591,50.92119005],[4.13000336,50.92122355],[4.13010712,50.92129678],[4.13010757,50.9212971]]]}},{"type":"Feature","id":"gebouw/Gebouw.16730917/0","properties":{"source":"Digitaal Vlaanderen Gebouwenregister","source_id":"gebouw/Gebouw.16730917/0","kind":"building","height_m":5.0,"status":null},"geometry":{"type":"Polygon","coordinates":[[[4.13017751,50.92125522],[4.13032593,50.92136045],[4.13028524,50.92138338],[4.13026926,50.92137221],[4.1301372,50.92127993],[4.13014432,50.92127537],[4.13017151,50.92125799],[4.13016724,50.92124203],[4.1300967,50.92118556],[4.13010775,50.92118005],[4.13007513,50.92115395],[4.13015159,50.92111577],[4.13029045,50.92122743],[4.13025543,50.92124527],[4.13023243,50.92122724],[4.13017751,50.92125522]]]}},{"type":"Feature","id":"gebouw/Gebouw.16731398/0","properties":{"source":"Digitaal Vlaanderen Gebouwenregister","source_id":"gebouw/Gebouw.16731398/0","kind":"building","height_m":8.6,"status":null},"geometry":{"type":"Polygon","coordinates":[[[4.13279279,50.92159872],[4.13282952,50.92157188],[4.13290199,50.9216115],[4.13286527,50.92163834],[4.13279279,50.92159872]]]}},{"type":"Feature","id":"gebouw/Gebouw.16896449/0","properties":{"source":"Digitaal Vlaanderen Gebouwenregister","source_id":"gebouw/Gebouw.16896449/0","kind":"building","height_m":7.16,"status":null},"geometry":{"type":"Polygon","coordinates":[[[4.13051192,50.92120907],[4.13046966,50.92123022],[4.130399,50.92117382],[4.13044141,50.92115259],[4.13051192,50.92120907]]]}},{"type":"Feature","id":"gebouw/Gebouw.16915171/0","properties":{"source":"Digitaal Vlaanderen Gebouwenregister","source_id":"gebouw/Gebouw.16915171/0","kind":"building","height_m":5.0,"status":null},"geometry":{"type":"Polygon","coordinates":[[[4.12878337,50.92133721],[4.12878888,50.92134635],[4.12875329,50.92135597],[4.12872612,50.92131463],[4.12876266,50.9213059],[4.12884353,50.92128657],[4.12884613,50.92129119],[4.12888507,50.92128285],[4.12889848,50.92130786],[4.12886013,50.92131608],[4.12886403,50.92132301],[4.1288113,50.9213343],[4.12880991,50.9213317],[4.12878337,50.92133721]]]}},{"type":"Feature","id":"gebouw/Gebouw.16915244/0","properties":{"source":"Digitaal Vlaanderen Gebouwenregister","source_id":"gebouw/Gebouw.16915244/0","kind":"building","height_m":7.16,"status":null},"geometry":{"type":"Polygon","coordinates":[[[4.12906172,50.92127227],[4.12905431,50.9212618],[4.12904847,50.92125352],[4.12902272,50.92125954],[4.12901462,50.92124568],[4.12907955,50.92123126],[4.12923283,50.92119722],[4.12923723,50.92120742],[4.12924099,50.92121613],[4.12925794,50.9212111],[4.12925194,50.92120304],[4.1293769,50.92116589],[4.12938719,50.92117972],[4.12941647,50.92121907],[4.12926212,50.92126495],[4.12923293,50.92122572],[4.12919837,50.92123358],[4.12920126,50.92123968],[4.12906172,50.92127227]]]}},{"type":"Feature","id":"gebouw/Gebouw.16928881/0","properties":{"source":"Digitaal Vlaanderen Gebouwenregister","source_id":"gebouw/Gebouw.16928881/0","kind":"building","height_m":7.88,"status":null},"geometry":{"type":"Polygon","coordinates":[[[4.13360086,50.92119267],[4.13356128,50.92123244],[4.13351252,50.92121384],[4.13352519,50.92120057],[4.13351849,50.92119808],[4.13355959,50.92115165],[4.1336189,50.92117454],[4.13360086,50.92119267]]]}},{"type":"Feature","id":"gebouw/Gebouw.16928898/0","properties":{"source":"Digitaal Vlaanderen Gebouwenregister","source_id":"gebouw/Gebouw.16928898/0","kind":"building","height_m":5.0,"status":null},"geometry":{"type":"Polygon","coordinates":[[[4.13085442,50.92138604],[4.13097006,50.92144599],[4.13090031,50.92149975],[4.13078537,50.92143925],[4.13081126,50.9214193],[4.13085442,50.92138604]]]}},{"type":"Feature","id":"gebouw/Gebouw.18730323/0","properties":{"source":"Digitaal Vlaanderen Gebouwenregister","source_id":"gebouw/Gebouw.18730323/0","kind":"building","height_m":7.16,"status":null},"geometry":{"type":"Polygon","coordinates":[[[4.13062137,50.92121842],[4.13062325,50.92115711],[4.13069622,50.92115838],[4.13069626,50.92121873],[4.13062137,50.92121842]]]}},{"type":"Feature","id":"gebouw/Gebouw.18730324/0","properties":{"source":"Digitaal Vlaanderen Gebouwenregister","source_id":"gebouw/Gebouw.18730324/0","kind":"building","height_m":7.88,"status":null},"geometry":{"type":"Polygon","coordinates":[[[4.13046801,50.92142226],[4.13050462,50.92140118],[4.13045447,50.92136244],[4.13041721,50.9213851],[4.13038555,50.92140435],[4.13034796,50.9214272],[4.13040283,50.92146399],[4.13042332,50.92145122],[4.13044516,50.9214371],[4.13046801,50.92142226]]]}},{"type":"Feature","id":"gebouw/Gebouw.18730325/0","properties":{"source":"Digitaal Vlaanderen Gebouwenregister","source_id":"gebouw/Gebouw.18730325/0","kind":"building","height_m":8.6,"status":null},"geometry":{"type":"Polygon","coordinates":[[[4.13126138,50.9216357],[4.13127577,50.92164328],[4.13130178,50.92165698],[4.13126593,50.92168218],[4.13123505,50.92166479],[4.13122714,50.92166033],[4.13126007,50.92163664],[4.13126138,50.9216357]]]}},{"type":"Feature","id":"gebouw/Gebouw.18730326/0","properties":{"source":"Digitaal Vlaanderen Gebouwenregister","source_id":"gebouw/Gebouw.18730326/0","kind":"building","height_m":9.32,"status":null},"geometry":{"type":"Polygon","coordinates":[[[4.13156294,50.92143753],[4.13161522,50.92140006],[4.13170145,50.92145147],[4.13164616,50.92148799],[4.13156294,50.92143753]]]}},{"type":"Feature","id":"gebouw/Gebouw.18730327/0","properties":{"source":"Digitaal Vlaanderen Gebouwenregister","source_id":"gebouw/Gebouw.18730327/0","kind":"building","height_m":5.0,"status":null},"geometry":{"type":"Polygon","coordinates":[[[4.13163944,50.92139633],[4.13158664,50.92136456],[4.13157778,50.92135922],[4.13161771,50.92133387],[4.13163691,50.92134656],[4.13167596,50.92131985],[4.1316926,50.92132963],[4.1317152,50.92134292],[4.13163944,50.92139633]]]}},{"type":"Feature","id":"gebouw/Gebouw.18954410/0","properties":{"source":"Digitaal Vlaanderen Gebouwenregister","source_id":"gebouw/Gebouw.18954410/0","kind":"building","height_m":9.32,"status":null},"geometry":{"type":"Polygon","coordinates":[[[4.12928866,50.92130522],[4.12939761,50.92127443],[4.12940808,50.92128922],[4.12946415,50.92127311],[4.12951404,50.92134059],[4.12919657,50.92143436],[4.12915274,50.92137507],[4.12930604,50.92132979],[4.12928866,50.92130522]]]}},{"type":"Feature","id":"gebouw/Gebouw.18961744/0","properties":{"source":"Digitaal Vlaanderen Gebouwenregister","source_id":"gebouw/Gebouw.18961744/0","kind":"building","height_m":7.88,"status":null},"geometry":{"type":"Polygon","coordinates":[[[4.13345648,50.92145506],[4.13354744,50.92150789],[4.13349432,50.92154442],[4.13340407,50.921492],[4.13333744,50.92145331],[4.13339056,50.92141677],[4.13345648,50.92145506]]]}},{"type":"Feature","id":"gebouw/Gebouw.18978323/0","properties":{"source":"Digitaal Vlaanderen Gebouwenregister","source_id":"gebouw/Gebouw.18978323/0","kind":"building","height_m":5.0,"status":null},"geometry":{"type":"Polygon","coordinates":[[[4.1297734,50.92153812],[4.12982184,50.92165731],[4.1297018,50.92167681],[4.12967459,50.92160987],[4.12969364,50.92160664],[4.1296717,50.92155559],[4.1297734,50.92153812]]]}},{"type":"Feature","id":"gebouw/Gebouw.18998088/0","properties":{"source":"Digitaal Vlaanderen Gebouwenregister","source_id":"gebouw/Gebouw.18998088/0","kind":"building","height_m":7.88,"status":null},"geometry":{"type":"Polygon","coordinates":[[[4.1307535,50.92178598],[4.13071202,50.92182145],[4.13055465,50.9217469],[4.13056559,50.92173671],[4.13064146,50.921666],[4.13064585,50.92166227],[4.13066344,50.92164734],[4.13082457,50.92172522],[4.13081029,50.92173744],[4.13079051,50.92175434],[4.13081798,50.92176732],[4.130791,50.92178633],[4.13076649,50.92177488],[4.1307535,50.92178598]]]}},{"type":"Feature","id":"gebouw/Gebouw.19872382/0","properties":{"source":"Digitaal Vlaanderen Gebouwenregister","source_id":"gebouw/Gebouw.19872382/0","kind":"building","height_m":8.6,"status":null},"geometry":{"type":"Polygon","coordinates":[[[4.13003832,50.92138824],[4.13005543,50.92140103],[4.13013787,50.92146264],[4.13008126,50.9214962],[4.12999076,50.9214331],[4.13000138,50.92142784],[4.12991258,50.9213651],[4.12987827,50.92134087],[4.12985277,50.92135529],[4.12989197,50.92138298],[4.12988007,50.92138971],[4.12991786,50.92141419],[4.12991016,50.92141573],[4.1299085,50.92141606],[4.12989764,50.92142221],[4.12994278,50.92145409],[4.12994511,50.92145574],[4.12991835,50.92146902],[4.12988699,50.92144685],[4.12975302,50.92135214],[4.12975456,50.92135127],[4.1297538,50.92135065],[4.12977392,50.92133954],[4.12973435,50.92131097],[4.12984103,50.92125051],[4.13003832,50.92138824]]]}},{"type":"Feature","id":"gebouw/Gebouw.19872383/0","properties":{"source":"Digitaal Vlaanderen Gebouwenregister","source_id":"gebouw/Gebouw.19872383/0","kind":"building","height_m":9.32,"status":null},"geometry":{"type":"Polygon","coordinates":[[[4.12994511,50.92145574],[4.12997746,50.92147859],[4.12995212,50.92149288],[4.12991835,50.92146902],[4.12994511,50.92145574]]]}},{"type":"Feature","id":"gebouw/Gebouw.19872983/0","properties":{"source":"Digitaal Vlaanderen Gebouwenregister","source_id":"gebouw/Gebouw.19872983/0","kind":"building","height_m":7.88,"status":null},"geometry":{"type":"Polygon","coordinates":[[[4.12936149,50.9214681],[4.12937821,50.92150044],[4.12939246,50.92149747],[4.1294229,50.92155593],[4.12934728,50.92157142],[4.12934843,50.92157364],[4.12926014,50.92159187],[4.12921211,50.92149894],[4.12936149,50.9214681]]]}},{"type":"Feature","id":"gebouw/Gebouw.19872984/0","properties":{"source":"Digitaal Vlaanderen Gebouwenregister","source_id":"gebouw/Gebouw.19872984/0","kind":"building","height_m":8.6,"status":null},"geometry":{"type":"Polygon","coordinates":[[[4.12943757,50.9216125],[4.12945683,50.92164997],[4.12945287,50.92165079],[4.12946263,50.9216695],[4.12946673,50.92166864],[4.12948644,50.92170625],[4.12933287,50.9217384],[4.12930378,50.92168289],[4.1293369,50.92167596],[4.12931688,50.92163776],[4.12943757,50.9216125]]]}},{"type":"Feature","id":"gebouw/Gebouw.19874749/0","properties":{"source":"Digitaal Vlaanderen Gebouwenregister","source_id":"gebouw/Gebouw.19874749/0","kind":"building","height_m":9.32,"status":null},"geometry":{"type":"Polygon","coordinates":[[[4.12987516,50.92112127],[4.12982251,50.92114531],[4.12975934,50.92109003],[4.12975097,50.92108271],[4.12980342,50.92105876],[4.12983584,50.92108701],[4.12987121,50.92111783],[4.12987516,50.92112127]]]}},{"type":"Feature","id":"gebouw/Gebouw.19874750/0","properties":{"source":"Digitaal Vlaanderen Gebouwenregister","source_id":"gebouw/Gebouw.19874750/0","kind":"building","height_m":5.0,"status":null},"geometry":{"type":"Polygon","coordinates":[[[4.12983584,50.92108701],[4.129861,50.92107496],[4.12989736,50.92110532],[4.12987121,50.92111783],[4.12983584,50.92108701]]]}},{"type":"Feature","id":"gebouw/Gebouw.19875730/0","properties":{"source":"Digitaal Vlaanderen Gebouwenregister","source_id":"gebouw/Gebouw.19875730/0","kind":"building","height_m":5.0,"status":null},"geometry":{"type":"Polygon","coordinates":[[[4.12886558,50.92132576],[4.128766,50.9213471],[4.12874223,50.92131094],[4.12884409,50.92128756],[4.12884613,50.92129119],[4.12886013,50.92131608],[4.12886403,50.92132301],[4.12886558,50.92132576]]]}},{"type":"Feature","id":"gebouw/Gebouw.19875731/0","properties":{"source":"Digitaal Vlaanderen Gebouwenregister","source_id":"gebouw/Gebouw.19875731/0","kind":"building","height_m":5.72,"status":null},"geometry":{"type":"Polygon","coordinates":[[[4.12884613,50.92129119],[4.12888507,50.92128285],[4.12889848,50.92130786],[4.12886013,50.92131608],[4.12884613,50.92129119]]]}},{"type":"Feature","id":"gebouw/Gebouw.20145916/0","properties":{"source":"Digitaal Vlaanderen Gebouwenregister","source_id":"gebouw/Gebouw.20145916/0","kind":"building","height_m":5.0,"status":null},"geometry":{"type":"Polygon","coordinates":[[[4.12997856,50.92153824],[4.13001384,50.9215645],[4.12998105,50.92158209],[4.12994578,50.92155584],[4.12997856,50.92153824]]]}},{"type":"Feature","id":"gebouw/Gebouw.30642182/0","properties":{"source":"Digitaal Vlaanderen Gebouwenregister","source_id":"gebouw/Gebouw.30642182/0","kind":"building","height_m":7.88,"status":null},"geometry":{"type":"Polygon","coordinates":[[[4.12980614,50.9215341],[4.12985748,50.92152667],[4.12986631,50.92155105],[4.12981497,50.92155848],[4.12980614,50.9215341]]]}},{"type":"Feature","id":"gebouw/Gebouw.31144952/0","properties":{"source":"Digitaal Vlaanderen Gebouwenregister","source_id":"gebouw/Gebouw.31144952/0","kind":"building","height_m":9.32,"status":null},"geometry":{"type":"Polygon","coordinates":[[[4.13059382,50.92135005],[4.13056262,50.92132564],[4.13047455,50.92137441],[4.13050741,50.92139891],[4.13059382,50.92135005]]]}},{"type":"Feature","id":"gebouw/Gebouw.31805259/0","properties":{"source":"Digitaal Vlaanderen Gebouwenregister","source_id":"gebouw/Gebouw.31805259/0","kind":"building","height_m":7.16,"status":null},"geometry":{"type":"Polygon","coordinates":[[[4.12892609,50.92168679],[4.12905394,50.92166074],[4.1290391,50.92163164],[4.12888107,50.92166383],[4.12889591,50.92169294],[4.12892609,50.92168679]]]}},{"type":"Feature","id":"gebouw/Gebouw.31805270/0","properties":{"source":"Digitaal Vlaanderen Gebouwenregister","source_id":"gebouw/Gebouw.31805270/0","kind":"building","height_m":5.0,"status":null},"geometry":{"type":"Polygon","coordinates":[[[4.12893769,50.92178282],[4.12898017,50.92177448],[4.12893802,50.92168875],[4.12889555,50.92169709],[4.12893769,50.92178282]]]}},{"type":"Feature","id":"gebouw/Gebouw.31805534/0","properties":{"source":"Digitaal Vlaanderen Gebouwenregister","source_id":"gebouw/Gebouw.31805534/0","kind":"building","height_m":8.6,"status":null},"geometry":{"type":"Polygon","coordinates":[[[4.1291521,50.92164256],[4.12913773,50.92161369],[4.1290671,50.92162772],[4.12908138,50.9216564],[4.1291521,50.92164256]]]}},{"type":"Feature","id":"way/779135509","properties":{"source":"OpenStreetMap","source_id":"way/779135509","kind":"waterway","name":"Koudenbergbeek","waterway":"stream","landuse":null},"geometry":{"type":"LineString","coordinates":[[4.1276787,50.9214126],[4.127774,50.9215031]]}}]}