{"type":"FeatureCollection","features":[{"type":"Feature","id":"gebouw/Gebouw.13615703/0","properties":{"source":"Digitaal Vlaanderen Gebouwenregister","source_id":"gebouw/Gebouw.13615703/0","kind":"building","height_m":7.16,"status":null},"geometry":{"type":"Polygon","coordinates":[[[4.12493876,50.97268153],[4.12486223,50.97265339],[4.12488119,50.97263304],[4.1248543,50.97262352],[4.12485803,50.97261983],[4.12478606,50.9725875],[4.12475523,50.97257366],[4.12479116,50.97254629],[4.1248703,50.972486],[4.1248937,50.97249718],[4.12493389,50.97251638],[4.12500176,50.97246257],[4.12510211,50.97251369],[4.12502599,50.97257342],[4.12504082,50.97258057],[4.12496641,50.97266321],[4.12495851,50.97266042],[4.12493876,50.97268153]],[[4.1249467,50.97259023],[4.12498965,50.97255832],[4.12492256,50.97252439],[4.12487465,50.97256284],[4.12489964,50.97257532],[4.12490225,50.97257291],[4.1249467,50.97259023]]]}},{"type":"Feature","id":"gebouw/Gebouw.19790167/0","properties":{"source":"Digitaal Vlaanderen Gebouwenregister","source_id":"gebouw/Gebouw.19790167/0","kind":"building","height_m":8.6,"status":null},"geometry":{"type":"Polygon","coordinates":[[[4.124379,50.96927251],[4.12439452,50.9692487],[4.12445006,50.96926313],[4.12443454,50.96928695],[4.124379,50.96927251]]]}},{"type":"Feature","id":"way/82904941","properties":{"source":"OpenStreetMap","source_id":"way/82904941","kind":"waterway","name":"Steenbeek","waterway":"stream","landuse":null},"geometry":{"type":"LineString","coordinates":[[4.1340313,50.9671051],[4.1335806,50.9674227],[4.1330335,50.96772],[4.1326365,50.9680848],[4.1321966,50.9683213],[4.1318318,50.9685713],[4.1315314,50.9689091],[4.1313596,50.9690851],[4.1312203,50.9692199],[4.1308434,50.9694765],[4.1307273,50.9695131],[4.130618,50.9695576],[4.1304385,50.9695811],[4.1302154,50.9695777],[4.1299541,50.9696401],[4.1297162,50.9697403],[4.1295885,50.9698027],[4.1294972,50.9698133],[4.129352,50.9697941],[4.1287674,50.9700801],[4.1285474,50.9701657],[4.1285474,50.9702738],[4.1284723,50.9703886],[4.1284095,50.9704508]]}},{"type":"Feature","id":"way/83053024","properties":{"source":"OpenStreetMap","source_id":"way/83053024","kind":"waterway","name":"Schuurkensbeek","waterway":"stream","landuse":null},"geometry":{"type":"LineString","coordinates":[[4.1284095,50.9704508],[4.1281914,50.9706066],[4.1277636,50.9707721],[4.1273999,50.9708633],[4.1269954,50.9710941],[4.1266442,50.971221],[4.1263664,50.9713963],[4.1260937,50.9715811],[4.1254899,50.9723535]]}},{"type":"Feature","id":"way/160384643","properties":{"source":"OpenStreetMap","source_id":"way/160384643","kind":"vegetation","name":null,"waterway":null,"landuse":"forest"},"geometry":{"type":"Polygon","coordinates":[[[4.1288008,50.9703002],[4.1285659,50.9703762],[4.1284166,50.9704721],[4.1282579,50.970678],[4.1281468,50.970754],[4.1279563,50.970834],[4.1277245,50.970926],[4.1275182,50.9710119],[4.1273721,50.9709052],[4.1275111,50.9708449],[4.1280768,50.9705763],[4.1283911,50.9703981],[4.1286356,50.9702062],[4.1288546,50.9700823],[4.1289608,50.9701612],[4.1288008,50.9703002]]]}},{"type":"Feature","id":"way/190437233","properties":{"source":"OpenStreetMap","source_id":"way/190437233","kind":"waterway","name":"Schuurkensbeek","waterway":"stream","landuse":null},"geometry":{"type":"LineString","coordinates":[[4.1254899,50.9723535],[4.1254739,50.9723757],[4.1254584,50.9723972]]}},{"type":"Feature","id":"way/1091758807","properties":{"source":"OpenStreetMap","source_id":"way/1091758807","kind":"waterway","name":null,"waterway":"stream","landuse":null},"geometry":{"type":"LineString","coordinates":[[4.1223354,50.9675898],[4.1223354,50.9677064],[4.1223247,50.9678145],[4.1223783,50.9679428],[4.122389,50.9680104],[4.1223945,50.9680378],[4.1224427,50.9682807],[4.122507,50.9685239],[4.1224749,50.9686996],[4.1226251,50.9687942],[4.1228075,50.9688685],[4.1228289,50.9689225],[4.122904,50.9690104],[4.123022,50.9690374],[4.1230649,50.9690847],[4.1230542,50.9692063],[4.1231186,50.9693549],[4.1231937,50.9694293],[4.1232753,50.9694892],[4.1233868,50.9695711],[4.1240091,50.97024],[4.12417,50.9703211],[4.1243309,50.9704157],[4.124406,50.9704832],[4.1243953,50.9706454],[4.1243694,50.9706967],[4.1243202,50.970794],[4.1244168,50.9708481],[4.1245348,50.9710643],[4.1245884,50.9712061],[4.1246957,50.9714223],[4.1247923,50.9715912],[4.1248996,50.9716993],[4.1246528,50.9719763],[4.1247279,50.9720912],[4.1248352,50.972206],[4.1248245,50.9722736],[4.1248352,50.9724087],[4.1248137,50.9725776],[4.1249747,50.9726992],[4.1252858,50.9727195],[4.1253227,50.9727093]]}}]}