{"type":"FeatureCollection","features":[{"type":"Feature","id":"gebouw/Gebouw.13525326/0","properties":{"source":"Digitaal Vlaanderen Gebouwenregister","source_id":"gebouw/Gebouw.13525326/0","kind":"building","height_m":7.16,"status":null},"geometry":{"type":"Polygon","coordinates":[[[4.13665671,50.97149783],[4.13653922,50.97144911],[4.13657713,50.97141266],[4.13669463,50.97146138],[4.13665671,50.97149783]]]}},{"type":"Feature","id":"gebouw/Gebouw.15706070/0","properties":{"source":"Digitaal Vlaanderen Gebouwenregister","source_id":"gebouw/Gebouw.15706070/0","kind":"building","height_m":6.44,"status":null},"geometry":{"type":"Polygon","coordinates":[[[4.1398183,50.97071711],[4.13988161,50.97072617],[4.13985528,50.97079951],[4.13979065,50.97079026],[4.1398159,50.97072346],[4.1398183,50.97071711]]]}},{"type":"Feature","id":"way/189193938","properties":{"source":"OpenStreetMap","source_id":"way/189193938","kind":"vegetation","name":null,"waterway":null,"landuse":"orchard"},"geometry":{"type":"Polygon","coordinates":[[[4.1394321,50.9702967],[4.1403441,50.9705838],[4.140741,50.9701075],[4.1406928,50.9700062],[4.1402475,50.9696244],[4.140049,50.9695569],[4.1394321,50.9702967]]]}},{"type":"Feature","id":"way/189193940","properties":{"source":"OpenStreetMap","source_id":"way/189193940","kind":"vegetation","name":null,"waterway":null,"landuse":"orchard"},"geometry":{"type":"Polygon","coordinates":[[[4.1382431,50.9699663],[4.1379456,50.9704033],[4.1393128,50.9708457],[4.140671,50.9712602],[4.1408909,50.9708493],[4.1408963,50.9708075],[4.1408269,50.9707629],[4.1382431,50.9699663]]]}},{"type":"Feature","id":"way/189193944","properties":{"source":"OpenStreetMap","source_id":"way/189193944","kind":"vegetation","name":null,"waterway":null,"landuse":"orchard"},"geometry":{"type":"Polygon","coordinates":[[[4.1393785,50.9702764],[4.1400866,50.9694454],[4.1391585,50.9688441],[4.1382949,50.9699251],[4.1393785,50.9702764]]]}}]}