{"type":"FeatureCollection","features":[{"type":"Feature","id":"gebouw/Gebouw.12006156/0","properties":{"source":"Digitaal Vlaanderen Gebouwenregister","source_id":"gebouw/Gebouw.12006156/0","kind":"building","height_m":5.72,"status":null},"geometry":{"type":"Polygon","coordinates":[[[4.13467035,50.92101099],[4.13474982,50.92093262],[4.13479671,50.92095162],[4.13484422,50.92090485],[4.13491709,50.9209342],[4.13479173,50.9210591],[4.13467035,50.92101099]]]}},{"type":"Feature","id":"gebouw/Gebouw.12043120/0","properties":{"source":"Digitaal Vlaanderen Gebouwenregister","source_id":"gebouw/Gebouw.12043120/0","kind":"building","height_m":8.6,"status":null},"geometry":{"type":"Polygon","coordinates":[[[4.13833655,50.91941834],[4.13828599,50.9194094],[4.13827883,50.91940813],[4.13829757,50.91936581],[4.13825764,50.91935875],[4.13828889,50.91929027],[4.13832903,50.91929774],[4.13832497,50.91930661],[4.13833047,50.91930767],[4.13838915,50.91931897],[4.13835736,50.91938692],[4.13835096,50.91938578],[4.13833655,50.91941834]]]}},{"type":"Feature","id":"gebouw/Gebouw.12550873/0","properties":{"source":"Digitaal Vlaanderen Gebouwenregister","source_id":"gebouw/Gebouw.12550873/0","kind":"building","height_m":9.32,"status":null},"geometry":{"type":"Polygon","coordinates":[[[4.13809564,50.91985135],[4.13811844,50.91980491],[4.13818299,50.91981822],[4.13815943,50.91986515],[4.13809564,50.91985135]]]}},{"type":"Feature","id":"gebouw/Gebouw.16569814/0","properties":{"source":"Digitaal Vlaanderen Gebouwenregister","source_id":"gebouw/Gebouw.16569814/0","kind":"building","height_m":6.44,"status":null},"geometry":{"type":"Polygon","coordinates":[[[4.1375696,50.92167229],[4.13745659,50.92165115],[4.13744976,50.92166575],[4.13745804,50.9216673],[4.13743792,50.92171028],[4.13740185,50.92170353],[4.1374005,50.92170641],[4.13730929,50.92168935],[4.13735661,50.92158829],[4.13735828,50.9215886],[4.1375886,50.92163168],[4.1375696,50.92167229]]]}},{"type":"Feature","id":"gebouw/Gebouw.16570266/0","properties":{"source":"Digitaal Vlaanderen Gebouwenregister","source_id":"gebouw/Gebouw.16570266/0","kind":"building","height_m":9.32,"status":null},"geometry":{"type":"Polygon","coordinates":[[[4.13811314,50.92045997],[4.13807862,50.92045755],[4.13807725,50.92050817],[4.13802439,50.92050484],[4.13803312,50.92045678],[4.13804001,50.92045729],[4.1380487,50.9204086],[4.13796649,50.92040257],[4.13797753,50.92034167],[4.13810684,50.92035123],[4.13810783,50.92034955],[4.13815645,50.92035665],[4.13814624,50.92041219],[4.13815242,50.92041287],[4.1381336,50.9204614],[4.13811314,50.92045997]]]}},{"type":"Feature","id":"gebouw/Gebouw.16570428/0","properties":{"source":"Digitaal Vlaanderen Gebouwenregister","source_id":"gebouw/Gebouw.16570428/0","kind":"building","height_m":5.0,"status":null},"geometry":{"type":"Polygon","coordinates":[[[4.13714514,50.92119304],[4.13720255,50.92124553],[4.13721685,50.92123088],[4.1373662,50.92129058],[4.13732013,50.92133774],[4.13717614,50.92127952],[4.13710255,50.92121136],[4.13714514,50.92119304]]]}},{"type":"Feature","id":"gebouw/Gebouw.16570552/0","properties":{"source":"Digitaal Vlaanderen Gebouwenregister","source_id":"gebouw/Gebouw.16570552/0","kind":"building","height_m":8.6,"status":null},"geometry":{"type":"Polygon","coordinates":[[[4.13736894,50.92093584],[4.13744667,50.92096948],[4.13747335,50.92094485],[4.13753561,50.92097131],[4.13752862,50.92097788],[4.13757258,50.92099676],[4.13752235,50.92104314],[4.13722861,50.92091603],[4.13726699,50.9208806],[4.13737715,50.92092827],[4.13736894,50.92093584]]]}},{"type":"Feature","id":"gebouw/Gebouw.16577392/0","properties":{"source":"Digitaal Vlaanderen Gebouwenregister","source_id":"gebouw/Gebouw.16577392/0","kind":"building","height_m":9.32,"status":null},"geometry":{"type":"Polygon","coordinates":[[[4.13716109,50.92133129],[4.13714039,50.92134155],[4.13714219,50.92134304],[4.137123,50.92135266],[4.13712244,50.92135289],[4.13712175,50.92135314],[4.13712105,50.92135336],[4.13712032,50.92135356],[4.13711958,50.92135373],[4.13711882,50.92135387],[4.13711805,50.92135398],[4.13711728,50.92135407],[4.13711661,50.92135414],[4.13711556,50.92135422],[4.13711449,50.92135428],[4.1371139,50.9213543],[4.13711304,50.92135428],[4.13711218,50.92135423],[4.13711156,50.92135419],[4.13711062,50.9213541],[4.13710968,50.92135398],[4.13710512,50.92135279],[4.1371002,50.92134991],[4.13708678,50.92135672],[4.13709724,50.92136505],[4.13709764,50.92136537],[4.13709813,50.92136581],[4.13709858,50.92136626],[4.13709899,50.92136672],[4.13709936,50.9213672],[4.13709969,50.92136769],[4.13709997,50.92136819],[4.13710022,50.9213687],[4.13710042,50.92136922],[4.13710057,50.92136975],[4.1371007,50.92137035],[4.13710078,50.92137091],[4.13710081,50.92137147],[4.1371008,50.92137202],[4.13710075,50.92137258],[4.13710064,50.92137314],[4.13710049,50.92137371],[4.13710029,50.92137423],[4.13710005,50.92137476],[4.13709977,50.92137527],[4.13709944,50.92137577],[4.13709903,50.92137632],[4.13709861,50.92137681],[4.13709816,50.92137728],[4.13709766,50.92137775],[4.13709713,50.92137819],[4.13709656,50.92137862],[4.13709608,50.92137895],[4.13709544,50.92137936],[4.13709477,50.92137974],[4.13709407,50.9213801],[4.13709334,50.92138044],[4.1370926,50.92138075],[4.13709184,50.92138103],[4.13709105,50.92138129],[4.13709025,50.92138152],[4.13708942,50.92138173],[4.13708858,50.92138191],[4.13708268,50.92138225],[4.13708044,50.9213869],[4.13704841,50.92140302],[4.1368987,50.92128418],[4.13695877,50.92125395],[4.13696119,50.92125587],[4.13703815,50.92121713],[4.13707243,50.92124476],[4.13707575,50.92124311],[4.13713205,50.92128848],[4.13711714,50.92129587],[4.13716109,50.92133129]]]}},{"type":"Feature","id":"gebouw/Gebouw.16580706/0","properties":{"source":"Digitaal Vlaanderen Gebouwenregister","source_id":"gebouw/Gebouw.16580706/0","kind":"building","height_m":6.44,"status":null},"geometry":{"type":"Polygon","coordinates":[[[4.13610978,50.92172541],[4.13605649,50.92174878],[4.13602586,50.92172598],[4.13607908,50.92170184],[4.13610978,50.92172541]]]}},{"type":"Feature","id":"gebouw/Gebouw.16586613/0","properties":{"source":"Digitaal Vlaanderen Gebouwenregister","source_id":"gebouw/Gebouw.16586613/0","kind":"building","height_m":5.72,"status":null},"geometry":{"type":"Polygon","coordinates":[[[4.13738328,50.92174426],[4.13742633,50.92175313],[4.13740839,50.92178793],[4.13743871,50.92179417],[4.13743304,50.92180516],[4.13747155,50.92181309],[4.13745114,50.92185269],[4.13739003,50.92184032],[4.13723617,50.9218092],[4.13728425,50.92172387],[4.13728707,50.92172445],[4.13728804,50.92172465],[4.13738328,50.92174426]]]}},{"type":"Feature","id":"gebouw/Gebouw.16586693/0","properties":{"source":"Digitaal Vlaanderen Gebouwenregister","source_id":"gebouw/Gebouw.16586693/0","kind":"building","height_m":7.88,"status":null},"geometry":{"type":"Polygon","coordinates":[[[4.13785465,50.92102735],[4.13781532,50.92107092],[4.13768275,50.92103284],[4.13776172,50.92094591],[4.13788711,50.92099141],[4.13785465,50.92102735]]]}},{"type":"Feature","id":"gebouw/Gebouw.16603991/0","properties":{"source":"Digitaal Vlaanderen Gebouwenregister","source_id":"gebouw/Gebouw.16603991/0","kind":"building","height_m":8.6,"status":null},"geometry":{"type":"Polygon","coordinates":[[[4.1360576,50.92136041],[4.13608717,50.92138487],[4.13601743,50.92141856],[4.13598819,50.92139437],[4.1360576,50.92136041]]]}},{"type":"Feature","id":"gebouw/Gebouw.16604469/0","properties":{"source":"Digitaal Vlaanderen Gebouwenregister","source_id":"gebouw/Gebouw.16604469/0","kind":"building","height_m":5.0,"status":null},"geometry":{"type":"Polygon","coordinates":[[[4.13604733,50.92149086],[4.13579805,50.92158269],[4.1357508,50.92153224],[4.13594433,50.92145733],[4.13595535,50.9214687],[4.13600808,50.92144829],[4.13604733,50.92149086]]]}},{"type":"Feature","id":"gebouw/Gebouw.16605794/0","properties":{"source":"Digitaal Vlaanderen Gebouwenregister","source_id":"gebouw/Gebouw.16605794/0","kind":"building","height_m":6.44,"status":null},"geometry":{"type":"Polygon","coordinates":[[[4.1369844,50.92153399],[4.13704016,50.92150538],[4.13712436,50.92157094],[4.13702316,50.92162287],[4.13702802,50.92162651],[4.13697492,50.92165411],[4.13688264,50.92158319],[4.1369373,50.92155478],[4.13692265,50.92154352],[4.13696702,50.92152046],[4.1369844,50.92153399]]]}},{"type":"Feature","id":"gebouw/Gebouw.16606471/0","properties":{"source":"Digitaal Vlaanderen Gebouwenregister","source_id":"gebouw/Gebouw.16606471/0","kind":"building","height_m":5.0,"status":null},"geometry":{"type":"Polygon","coordinates":[[[4.1373009,50.92064942],[4.13726367,50.92068495],[4.13721553,50.92066479],[4.13725275,50.92062927],[4.1373009,50.92064942]]]}},{"type":"Feature","id":"gebouw/Gebouw.16606566/0","properties":{"source":"Digitaal Vlaanderen Gebouwenregister","source_id":"gebouw/Gebouw.16606566/0","kind":"building","height_m":7.88,"status":null},"geometry":{"type":"Polygon","coordinates":[[[4.1368044,50.92121392],[4.13675761,50.92117756],[4.13681528,50.92114792],[4.13686207,50.92118428],[4.1368044,50.92121392]]]}},{"type":"Feature","id":"gebouw/Gebouw.16610592/0","properties":{"source":"Digitaal Vlaanderen Gebouwenregister","source_id":"gebouw/Gebouw.16610592/0","kind":"building","height_m":8.6,"status":null},"geometry":{"type":"Polygon","coordinates":[[[4.13391483,50.92142899],[4.13386725,50.92146165],[4.13386714,50.92146172],[4.13383346,50.92144212],[4.13387818,50.92141142],[4.1338423,50.92139053],[4.13392106,50.92133648],[4.13387233,50.92130812],[4.13385657,50.92131893],[4.13378702,50.92127845],[4.13378805,50.9212684],[4.13387923,50.92120743],[4.13401357,50.92128769],[4.13407085,50.92132191],[4.13391483,50.92142899]]]}},{"type":"Feature","id":"gebouw/Gebouw.16610743/0","properties":{"source":"Digitaal Vlaanderen Gebouwenregister","source_id":"gebouw/Gebouw.16610743/0","kind":"building","height_m":6.44,"status":null},"geometry":{"type":"Polygon","coordinates":[[[4.13697088,50.92175943],[4.13692193,50.92172027],[4.13696416,50.92169918],[4.13701311,50.92173834],[4.13697088,50.92175943]]]}},{"type":"Feature","id":"gebouw/Gebouw.16614928/0","properties":{"source":"Digitaal Vlaanderen Gebouwenregister","source_id":"gebouw/Gebouw.16614928/0","kind":"building","height_m":5.72,"status":null},"geometry":{"type":"Polygon","coordinates":[[[4.13734805,50.92114662],[4.13737354,50.92115729],[4.13732146,50.92120667],[4.13712436,50.92112361],[4.13712812,50.92112004],[4.13717461,50.92107597],[4.13721259,50.92103996],[4.13738376,50.92111333],[4.13734805,50.92114662]]]}},{"type":"Feature","id":"gebouw/Gebouw.16615781/0","properties":{"source":"Digitaal Vlaanderen Gebouwenregister","source_id":"gebouw/Gebouw.16615781/0","kind":"building","height_m":5.0,"status":null},"geometry":{"type":"Polygon","coordinates":[[[4.13757296,50.92076141],[4.13758494,50.92074965],[4.13766869,50.92078375],[4.13764154,50.92081039],[4.13764685,50.92081253],[4.1376307,50.92082848],[4.13762532,50.92082631],[4.13759154,50.92085946],[4.13743368,50.9207936],[4.1374999,50.92072863],[4.13753513,50.92074297],[4.13753294,50.92074512],[4.13757296,50.92076141]]]}},{"type":"Feature","id":"gebouw/Gebouw.16617039/0","properties":{"source":"Digitaal Vlaanderen Gebouwenregister","source_id":"gebouw/Gebouw.16617039/0","kind":"building","height_m":8.6,"status":null},"geometry":{"type":"Polygon","coordinates":[[[4.13832678,50.92011367],[4.13853072,50.92013529],[4.13848937,50.92027572],[4.13842713,50.92026833],[4.13844294,50.92021426],[4.13830952,50.92019807],[4.13832678,50.92011367]]]}},{"type":"Feature","id":"gebouw/Gebouw.16617638/0","properties":{"source":"Digitaal Vlaanderen Gebouwenregister","source_id":"gebouw/Gebouw.16617638/0","kind":"building","height_m":6.44,"status":null},"geometry":{"type":"Polygon","coordinates":[[[4.13827522,50.9216933],[4.13824935,50.92176362],[4.13807873,50.92173576],[4.13811191,50.92166595],[4.13827522,50.9216933]]]}},{"type":"Feature","id":"gebouw/Gebouw.16619130/0","properties":{"source":"Digitaal Vlaanderen Gebouwenregister","source_id":"gebouw/Gebouw.16619130/0","kind":"building","height_m":7.16,"status":null},"geometry":{"type":"Polygon","coordinates":[[[4.13473006,50.92165306],[4.13476983,50.92160556],[4.13481408,50.92162036],[4.13477432,50.92166786],[4.13473006,50.92165306]]]}},{"type":"Feature","id":"gebouw/Gebouw.16619308/0","properties":{"source":"Digitaal Vlaanderen Gebouwenregister","source_id":"gebouw/Gebouw.16619308/0","kind":"building","height_m":9.32,"status":null},"geometry":{"type":"Polygon","coordinates":[[[4.13505375,50.92132502],[4.13504566,50.92132033],[4.13513068,50.92125979],[4.13513462,50.92125699],[4.13516667,50.921276],[4.13522864,50.92123426],[4.13519777,50.92121595],[4.13522126,50.92120012],[4.13520085,50.92118802],[4.13518001,50.92117566],[4.13516999,50.92116972],[4.13516918,50.92116924],[4.13514491,50.92118595],[4.13493955,50.92132741],[4.1349567,50.92133712],[4.13497857,50.92134951],[4.13500266,50.92136021],[4.13505375,50.92132502]]]}},{"type":"Feature","id":"gebouw/Gebouw.16619596/0","properties":{"source":"Digitaal Vlaanderen Gebouwenregister","source_id":"gebouw/Gebouw.16619596/0","kind":"building","height_m":5.0,"status":null},"geometry":{"type":"Polygon","coordinates":[[[4.13783985,50.92125442],[4.13786113,50.92122055],[4.13790077,50.92123051],[4.13787949,50.92126437],[4.13783985,50.92125442]]]}},{"type":"Feature","id":"gebouw/Gebouw.16619922/0","properties":{"source":"Digitaal Vlaanderen Gebouwenregister","source_id":"gebouw/Gebouw.16619922/0","kind":"building","height_m":7.88,"status":null},"geometry":{"type":"Polygon","coordinates":[[[4.13865949,50.92023211],[4.13876235,50.92024395],[4.13877478,50.92020078],[4.13867192,50.92018895],[4.13865949,50.92023211]]]}},{"type":"Feature","id":"gebouw/Gebouw.16619962/0","properties":{"source":"Digitaal Vlaanderen Gebouwenregister","source_id":"gebouw/Gebouw.16619962/0","kind":"building","height_m":6.44,"status":null},"geometry":{"type":"Polygon","coordinates":[[[4.136905,50.92098537],[4.13687177,50.92098347],[4.13684203,50.92095693],[4.13688785,50.92093801],[4.1369185,50.92094152],[4.136905,50.92098537]]]}},{"type":"Feature","id":"gebouw/Gebouw.16622348/0","properties":{"source":"Digitaal Vlaanderen Gebouwenregister","source_id":"gebouw/Gebouw.16622348/0","kind":"building","height_m":5.72,"status":null},"geometry":{"type":"Polygon","coordinates":[[[4.13768275,50.92103284],[4.13767528,50.92104394],[4.13768495,50.92105854],[4.13766231,50.92109097],[4.13766046,50.92109362],[4.13781885,50.92113292],[4.13783876,50.92110176],[4.13780166,50.92109229],[4.13781532,50.92107092],[4.13768275,50.92103284]]]}},{"type":"Feature","id":"gebouw/Gebouw.16624279/0","properties":{"source":"Digitaal Vlaanderen Gebouwenregister","source_id":"gebouw/Gebouw.16624279/0","kind":"building","height_m":5.0,"status":null},"geometry":{"type":"Polygon","coordinates":[[[4.13771376,50.9206061],[4.1377069,50.9206053],[4.13768606,50.9206705],[4.1375609,50.92065452],[4.13756154,50.92065254],[4.13759469,50.92054882],[4.13772669,50.9205657],[4.13771376,50.9206061]]]}},{"type":"Feature","id":"gebouw/Gebouw.16626583/0","properties":{"source":"Digitaal Vlaanderen Gebouwenregister","source_id":"gebouw/Gebouw.16626583/0","kind":"building","height_m":5.72,"status":null},"geometry":{"type":"Polygon","coordinates":[[[4.13777237,50.92049872],[4.13772832,50.92047869],[4.13775959,50.92045121],[4.13780364,50.92047124],[4.13777237,50.92049872]]]}},{"type":"Feature","id":"gebouw/Gebouw.16626774/0","properties":{"source":"Digitaal Vlaanderen Gebouwenregister","source_id":"gebouw/Gebouw.16626774/0","kind":"building","height_m":7.16,"status":null},"geometry":{"type":"Polygon","coordinates":[[[4.135005,50.92166431],[4.13503382,50.92168152],[4.13503881,50.92167818],[4.13505298,50.9216687],[4.13510232,50.92169817],[4.13508872,50.92170726],[4.13504229,50.92173833],[4.1350529,50.92174466],[4.13497843,50.92179448],[4.13496751,50.92178795],[4.13496365,50.92179053],[4.1349152,50.92176161],[4.13492879,50.92175252],[4.13494562,50.92174125],[4.13491413,50.92172245],[4.1348928,50.92173726],[4.13487079,50.92172437],[4.13487585,50.92172074],[4.13484416,50.92170181],[4.13495435,50.92162809],[4.13498695,50.92164756],[4.13499266,50.92164374],[4.13501543,50.92165733],[4.135005,50.92166431]]]}},{"type":"Feature","id":"gebouw/Gebouw.16628049/0","properties":{"source":"Digitaal Vlaanderen Gebouwenregister","source_id":"gebouw/Gebouw.16628049/0","kind":"building","height_m":7.88,"status":null},"geometry":{"type":"Polygon","coordinates":[[[4.14086069,50.92118469],[4.14083238,50.92123892],[4.14079914,50.92123178],[4.14079835,50.92123325],[4.14073641,50.92121995],[4.14076515,50.92116649],[4.14078869,50.92117154],[4.14078988,50.92116863],[4.14086069,50.92118469]]]}},{"type":"Feature","id":"gebouw/Gebouw.16628188/0","properties":{"source":"Digitaal Vlaanderen Gebouwenregister","source_id":"gebouw/Gebouw.16628188/0","kind":"building","height_m":7.16,"status":null},"geometry":{"type":"Polygon","coordinates":[[[4.13740999,50.92148493],[4.13753284,50.92150759],[4.13752333,50.9215282],[4.13760286,50.92154476],[4.13757792,50.92159849],[4.13737136,50.92156175],[4.1373687,50.92156127],[4.13738934,50.92151681],[4.13739485,50.92151771],[4.13740999,50.92148493]]]}},{"type":"Feature","id":"gebouw/Gebouw.16630336/0","properties":{"source":"Digitaal Vlaanderen Gebouwenregister","source_id":"gebouw/Gebouw.16630336/0","kind":"building","height_m":6.44,"status":null},"geometry":{"type":"Polygon","coordinates":[[[4.13472811,50.92127515],[4.1347259,50.92127731],[4.13476277,50.9212924],[4.13473867,50.92131593],[4.1347018,50.92130084],[4.13469874,50.92130382],[4.13465313,50.92128516],[4.1346825,50.92125649],[4.13472811,50.92127515]]]}},{"type":"Feature","id":"gebouw/Gebouw.16630417/0","properties":{"source":"Digitaal Vlaanderen Gebouwenregister","source_id":"gebouw/Gebouw.16630417/0","kind":"building","height_m":9.32,"status":null},"geometry":{"type":"Polygon","coordinates":[[[4.13682337,50.92136922],[4.13687894,50.92133913],[4.13680925,50.92128303],[4.13675368,50.92131245],[4.13682337,50.92136922]]]}},{"type":"Feature","id":"gebouw/Gebouw.16630670/0","properties":{"source":"Digitaal Vlaanderen Gebouwenregister","source_id":"gebouw/Gebouw.16630670/0","kind":"building","height_m":5.0,"status":null},"geometry":{"type":"Polygon","coordinates":[[[4.13638138,50.92086492],[4.13635019,50.92081614],[4.13638204,50.920808],[4.13641323,50.92085678],[4.13638138,50.92086492]]]}},{"type":"Feature","id":"gebouw/Gebouw.16630795/0","properties":{"source":"Digitaal Vlaanderen Gebouwenregister","source_id":"gebouw/Gebouw.16630795/0","kind":"building","height_m":9.32,"status":null},"geometry":{"type":"Polygon","coordinates":[[[4.13711872,50.92086871],[4.13708935,50.92084088],[4.13712854,50.92082435],[4.13715792,50.92085219],[4.13711872,50.92086871]]]}},{"type":"Feature","id":"gebouw/Gebouw.16632570/0","properties":{"source":"Digitaal Vlaanderen Gebouwenregister","source_id":"gebouw/Gebouw.16632570/0","kind":"building","height_m":7.16,"status":null},"geometry":{"type":"Polygon","coordinates":[[[4.13653785,50.92157657],[4.13651537,50.92154831],[4.13656024,50.92153405],[4.13658272,50.92156231],[4.13653785,50.92157657]]]}},{"type":"Feature","id":"gebouw/Gebouw.16637164/0","properties":{"source":"Digitaal Vlaanderen Gebouwenregister","source_id":"gebouw/Gebouw.16637164/0","kind":"building","height_m":8.6,"status":null},"geometry":{"type":"Polygon","coordinates":[[[4.13640531,50.92138608],[4.13636308,50.92135248],[4.13640634,50.92133075],[4.13644858,50.92136435],[4.13640531,50.92138608]]]}},{"type":"Feature","id":"gebouw/Gebouw.16638882/0","properties":{"source":"Digitaal Vlaanderen Gebouwenregister","source_id":"gebouw/Gebouw.16638882/0","kind":"building","height_m":5.72,"status":null},"geometry":{"type":"Polygon","coordinates":[[[4.13591947,50.92142799],[4.13588842,50.92140232],[4.13575194,50.92146826],[4.1356881,50.92141546],[4.13587308,50.92132273],[4.13593816,50.92137648],[4.13604415,50.92132528],[4.13607584,50.92135149],[4.1360576,50.92136041],[4.13598819,50.92139437],[4.13591947,50.92142799]]]}},{"type":"Feature","id":"gebouw/Gebouw.16714633/0","properties":{"source":"Digitaal Vlaanderen Gebouwenregister","source_id":"gebouw/Gebouw.16714633/0","kind":"building","height_m":8.6,"status":null},"geometry":{"type":"Polygon","coordinates":[[[4.13440681,50.92115594],[4.13436376,50.92119577],[4.13431456,50.92117453],[4.13435761,50.92113469],[4.13440681,50.92115594]]]}},{"type":"Feature","id":"gebouw/Gebouw.16725761/0","properties":{"source":"Digitaal Vlaanderen Gebouwenregister","source_id":"gebouw/Gebouw.16725761/0","kind":"building","height_m":7.16,"status":null},"geometry":{"type":"Polygon","coordinates":[[[4.13649824,50.92160896],[4.13645527,50.9216311],[4.13647729,50.9216482],[4.13640314,50.92168637],[4.13636339,50.92165522],[4.13638489,50.92164416],[4.13637585,50.92163714],[4.13641037,50.92161934],[4.13641734,50.92162474],[4.13647867,50.92159315],[4.13649824,50.92160896]]]}},{"type":"Feature","id":"gebouw/Gebouw.16726475/0","properties":{"source":"Digitaal Vlaanderen Gebouwenregister","source_id":"gebouw/Gebouw.16726475/0","kind":"building","height_m":7.16,"status":null},"geometry":{"type":"Polygon","coordinates":[[[4.13833511,50.92064738],[4.1382463,50.92070924],[4.13818032,50.9206714],[4.13823453,50.92063363],[4.13824291,50.92063833],[4.13827543,50.92061595],[4.13825453,50.92060379],[4.13833286,50.92054854],[4.13842677,50.92060174],[4.13842249,50.92060476],[4.13835179,50.92065462],[4.13835006,50.92065585],[4.13833511,50.92064738]]]}},{"type":"Feature","id":"gebouw/Gebouw.16730661/0","properties":{"source":"Digitaal Vlaanderen Gebouwenregister","source_id":"gebouw/Gebouw.16730661/0","kind":"building","height_m":7.16,"status":null},"geometry":{"type":"Polygon","coordinates":[[[4.13413523,50.92113181],[4.13411092,50.92115573],[4.13405315,50.92113198],[4.13407724,50.92110827],[4.13413523,50.92113181]]]}},{"type":"Feature","id":"gebouw/Gebouw.16730767/0","properties":{"source":"Digitaal Vlaanderen Gebouwenregister","source_id":"gebouw/Gebouw.16730767/0","kind":"building","height_m":7.88,"status":null},"geometry":{"type":"Polygon","coordinates":[[[4.13377666,50.92115632],[4.13370261,50.92123229],[4.13360086,50.92119267],[4.1336189,50.92117454],[4.1336778,50.92111534],[4.13377841,50.92115452],[4.13377666,50.92115632]]]}},{"type":"Feature","id":"gebouw/Gebouw.16731145/0","properties":{"source":"Digitaal Vlaanderen Gebouwenregister","source_id":"gebouw/Gebouw.16731145/0","kind":"building","height_m":7.88,"status":null},"geometry":{"type":"Polygon","coordinates":[[[4.13706299,50.92078012],[4.13705402,50.92079145],[4.13707312,50.9207975],[4.13706195,50.9208116],[4.13699437,50.92078882],[4.13701288,50.92076426],[4.13706299,50.92078012]]]}},{"type":"Feature","id":"gebouw/Gebouw.16876811/0","properties":{"source":"Digitaal Vlaanderen Gebouwenregister","source_id":"gebouw/Gebouw.16876811/0","kind":"building","height_m":5.0,"status":null},"geometry":{"type":"Polygon","coordinates":[[[4.13815242,50.92041287],[4.13819716,50.92041806],[4.13821714,50.92035857],[4.13836582,50.92037627],[4.13835584,50.92041187],[4.13830873,50.92042516],[4.13827076,50.92042074],[4.13826581,50.92043691],[4.13819335,50.92046865],[4.1381336,50.9204614],[4.13815242,50.92041287]]]}},{"type":"Feature","id":"gebouw/Gebouw.16876917/0","properties":{"source":"Digitaal Vlaanderen Gebouwenregister","source_id":"gebouw/Gebouw.16876917/0","kind":"building","height_m":5.72,"status":null},"geometry":{"type":"Polygon","coordinates":[[[4.13566895,50.92124142],[4.13562461,50.92125658],[4.13557916,50.92120819],[4.13553025,50.92122655],[4.1354949,50.92118732],[4.13562523,50.9211429],[4.13566419,50.92118922],[4.13570551,50.92117507],[4.13574121,50.92121672],[4.13566895,50.92124142]]]}},{"type":"Feature","id":"gebouw/Gebouw.16896369/0","properties":{"source":"Digitaal Vlaanderen Gebouwenregister","source_id":"gebouw/Gebouw.16896369/0","kind":"building","height_m":5.0,"status":null},"geometry":{"type":"Polygon","coordinates":[[[4.13720206,50.92071983],[4.13716525,50.92070573],[4.13719135,50.92067851],[4.13722816,50.9206926],[4.13720206,50.92071983]]]}},{"type":"Feature","id":"gebouw/Gebouw.16915241/0","properties":{"source":"Digitaal Vlaanderen Gebouwenregister","source_id":"gebouw/Gebouw.16915241/0","kind":"building","height_m":5.0,"status":null},"geometry":{"type":"Polygon","coordinates":[[[4.13375062,50.9212911],[4.13371038,50.92133229],[4.13380728,50.92137888],[4.13372775,50.92143328],[4.13370657,50.92142312],[4.13362113,50.92138215],[4.13361202,50.92137778],[4.13362635,50.92136585],[4.13368354,50.92131943],[4.13366735,50.92131167],[4.13370272,50.92127348],[4.13375062,50.9212911]]]}},{"type":"Feature","id":"gebouw/Gebouw.16915646/0","properties":{"source":"Digitaal Vlaanderen Gebouwenregister","source_id":"gebouw/Gebouw.16915646/0","kind":"building","height_m":9.32,"status":null},"geometry":{"type":"Polygon","coordinates":[[[4.13704786,50.92107251],[4.13698898,50.92109886],[4.13694182,50.9210518],[4.13694442,50.92104928],[4.13690354,50.92101146],[4.13694853,50.92099092],[4.13697805,50.92101676],[4.13699236,50.92102928],[4.13699806,50.92102668],[4.13704786,50.92107251]]]}},{"type":"Feature","id":"gebouw/Gebouw.16928842/0","properties":{"source":"Digitaal Vlaanderen Gebouwenregister","source_id":"gebouw/Gebouw.16928842/0","kind":"building","height_m":5.0,"status":null},"geometry":{"type":"Polygon","coordinates":[[[4.13644294,50.92096085],[4.13640757,50.92090451],[4.13643561,50.92089747],[4.13647098,50.92095381],[4.13644294,50.92096085]]]}},{"type":"Feature","id":"gebouw/Gebouw.16928857/0","properties":{"source":"Digitaal Vlaanderen Gebouwenregister","source_id":"gebouw/Gebouw.16928857/0","kind":"building","height_m":5.72,"status":null},"geometry":{"type":"Polygon","coordinates":[[[4.13701396,50.92095364],[4.13696079,50.92090638],[4.13701559,50.92088175],[4.13706875,50.92092901],[4.13701396,50.92095364]]]}},{"type":"Feature","id":"gebouw/Gebouw.16929679/0","properties":{"source":"Digitaal Vlaanderen Gebouwenregister","source_id":"gebouw/Gebouw.16929679/0","kind":"building","height_m":7.88,"status":null},"geometry":{"type":"Polygon","coordinates":[[[4.13996936,50.92041218],[4.13988671,50.92053797],[4.13923391,50.9203666],[4.13931656,50.92024081],[4.13996936,50.92041218]]]}},{"type":"Feature","id":"gebouw/Gebouw.16929778/0","properties":{"source":"Digitaal Vlaanderen Gebouwenregister","source_id":"gebouw/Gebouw.16929778/0","kind":"building","height_m":8.6,"status":null},"geometry":{"type":"Polygon","coordinates":[[[4.13609649,50.92175244],[4.13610719,50.92175369],[4.13609233,50.92180454],[4.13604437,50.92179894],[4.13605915,50.92174839],[4.13606451,50.92174902],[4.13606561,50.92174525],[4.13609765,50.92174848],[4.13609649,50.92175244]]]}},{"type":"Feature","id":"gebouw/Gebouw.17683639/0","properties":{"source":"Digitaal Vlaanderen Gebouwenregister","source_id":"gebouw/Gebouw.17683639/0","kind":"building","height_m":5.72,"status":null},"geometry":{"type":"Polygon","coordinates":[[[4.1350709,50.92176866],[4.13506402,50.92177336],[4.13499474,50.92182079],[4.13498326,50.92181371],[4.13506139,50.92176254],[4.1350709,50.92176866]]]}},{"type":"Feature","id":"gebouw/Gebouw.18730328/0","properties":{"source":"Digitaal Vlaanderen Gebouwenregister","source_id":"gebouw/Gebouw.18730328/0","kind":"building","height_m":5.72,"status":null},"geometry":{"type":"Polygon","coordinates":[[[4.13380928,50.92106729],[4.13383548,50.92104212],[4.13388931,50.92106528],[4.13386097,50.92109073],[4.13380928,50.92106729]]]}},{"type":"Feature","id":"gebouw/Gebouw.18730329/0","properties":{"source":"Digitaal Vlaanderen Gebouwenregister","source_id":"gebouw/Gebouw.18730329/0","kind":"building","height_m":6.44,"status":null},"geometry":{"type":"Polygon","coordinates":[[[4.13860749,50.92011017],[4.13878042,50.9201331],[4.13876665,50.9201746],[4.13859372,50.92015166],[4.13860749,50.92011017]]]}},{"type":"Feature","id":"gebouw/Gebouw.18954025/0","properties":{"source":"Digitaal Vlaanderen Gebouwenregister","source_id":"gebouw/Gebouw.18954025/0","kind":"building","height_m":9.32,"status":null},"geometry":{"type":"Polygon","coordinates":[[[4.13439504,50.92170247],[4.13433223,50.92166833],[4.13437992,50.92163341],[4.13434464,50.92161416],[4.1342917,50.92165292],[4.13426006,50.92167608],[4.13415151,50.92161685],[4.13416833,50.92160453],[4.13411844,50.9215773],[4.13412461,50.92157279],[4.13422083,50.92150235],[4.13431307,50.92155269],[4.13432202,50.92154614],[4.13438076,50.92157819],[4.13442798,50.92154362],[4.13453154,50.92160014],[4.13439504,50.92170247]]]}},{"type":"Feature","id":"gebouw/Gebouw.18961822/0","properties":{"source":"Digitaal Vlaanderen Gebouwenregister","source_id":"gebouw/Gebouw.18961822/0","kind":"building","height_m":8.6,"status":null},"geometry":{"type":"Polygon","coordinates":[[[4.13431142,50.92132874],[4.13436132,50.92128267],[4.13429507,50.92125242],[4.13429411,50.92125317],[4.1342848,50.92126048],[4.13425813,50.92124981],[4.13422145,50.92128132],[4.13422512,50.92128303],[4.13420427,50.92130094],[4.13422687,50.92131145],[4.13422254,50.92131512],[4.13429049,50.92134715],[4.13431142,50.92132874]]]}},{"type":"Feature","id":"gebouw/Gebouw.18978362/0","properties":{"source":"Digitaal Vlaanderen Gebouwenregister","source_id":"gebouw/Gebouw.18978362/0","kind":"building","height_m":7.88,"status":null},"geometry":{"type":"Polygon","coordinates":[[[4.1365065,50.92154086],[4.13643638,50.92148531],[4.13646924,50.92146874],[4.13653936,50.92152429],[4.1365065,50.92154086]]]}},{"type":"Feature","id":"gebouw/Gebouw.18978924/0","properties":{"source":"Digitaal Vlaanderen Gebouwenregister","source_id":"gebouw/Gebouw.18978924/0","kind":"building","height_m":9.32,"status":null},"geometry":{"type":"Polygon","coordinates":[[[4.13854262,50.92173473],[4.13833751,50.92169577],[4.13840014,50.921564],[4.13843058,50.92156979],[4.13845199,50.92152474],[4.13862667,50.92155791],[4.13854262,50.92173473]]]}},{"type":"Feature","id":"gebouw/Gebouw.18978953/0","properties":{"source":"Digitaal Vlaanderen Gebouwenregister","source_id":"gebouw/Gebouw.18978953/0","kind":"building","height_m":5.0,"status":null},"geometry":{"type":"Polygon","coordinates":[[[4.13438256,50.92126614],[4.13438051,50.92126517],[4.13436132,50.92128267],[4.13431142,50.92132874],[4.13441028,50.92137537],[4.13448447,50.92131437],[4.13438256,50.92126614]]]}},{"type":"Feature","id":"gebouw/Gebouw.18987592/0","properties":{"source":"Digitaal Vlaanderen Gebouwenregister","source_id":"gebouw/Gebouw.18987592/0","kind":"building","height_m":5.72,"status":null},"geometry":{"type":"Polygon","coordinates":[[[4.13807466,50.92087624],[4.13803559,50.92091429],[4.13803977,50.92091601],[4.13800773,50.92094721],[4.13788661,50.9208974],[4.13791846,50.92086646],[4.13792257,50.92086825],[4.13801525,50.92077797],[4.13812805,50.92082423],[4.13812559,50.92082663],[4.13807466,50.92087624]]]}},{"type":"Feature","id":"gebouw/Gebouw.18987685/0","properties":{"source":"Digitaal Vlaanderen Gebouwenregister","source_id":"gebouw/Gebouw.18987685/0","kind":"building","height_m":7.16,"status":null},"geometry":{"type":"Polygon","coordinates":[[[4.1345536,50.9212528],[4.13458809,50.92121928],[4.13463928,50.92124032],[4.13460479,50.92127384],[4.1345536,50.9212528]]]}},{"type":"Feature","id":"gebouw/Gebouw.18997419/0","properties":{"source":"Digitaal Vlaanderen Gebouwenregister","source_id":"gebouw/Gebouw.18997419/0","kind":"building","height_m":5.0,"status":null},"geometry":{"type":"Polygon","coordinates":[[[4.13825972,50.92136561],[4.13826596,50.92135367],[4.13835426,50.92137214],[4.13832647,50.92142523],[4.13823817,50.92140677],[4.13824171,50.92140002],[4.1382277,50.92139709],[4.13824571,50.92136268],[4.13825972,50.92136561]]]}},{"type":"Feature","id":"gebouw/Gebouw.18997704/0","properties":{"source":"Digitaal Vlaanderen Gebouwenregister","source_id":"gebouw/Gebouw.18997704/0","kind":"building","height_m":8.6,"status":null},"geometry":{"type":"Polygon","coordinates":[[[4.13503188,50.92152472],[4.1351565,50.92156924],[4.13512655,50.92160274],[4.13505003,50.92157541],[4.13503862,50.92158816],[4.1349733,50.92156483],[4.13503188,50.92152472]]]}},{"type":"Feature","id":"gebouw/Gebouw.18997720/0","properties":{"source":"Digitaal Vlaanderen Gebouwenregister","source_id":"gebouw/Gebouw.18997720/0","kind":"building","height_m":5.0,"status":null},"geometry":{"type":"Polygon","coordinates":[[[4.13737518,50.92058403],[4.13737907,50.92058017],[4.13749066,50.92062513],[4.13746034,50.92065522],[4.1373174,50.92059674],[4.13734322,50.92057115],[4.13737518,50.92058403]]]}},{"type":"Feature","id":"gebouw/Gebouw.18997874/0","properties":{"source":"Digitaal Vlaanderen Gebouwenregister","source_id":"gebouw/Gebouw.18997874/0","kind":"building","height_m":5.0,"status":null},"geometry":{"type":"Polygon","coordinates":[[[4.13492109,50.92111956],[4.13494363,50.92109701],[4.13501701,50.92112658],[4.13497418,50.92116893],[4.13496336,50.92116466],[4.13492347,50.92120441],[4.13491115,50.92120005],[4.13487962,50.92123118],[4.13478262,50.92119199],[4.13483186,50.9211433],[4.13484916,50.92115012],[4.13489104,50.9211077],[4.13492109,50.92111956]]]}},{"type":"Feature","id":"gebouw/Gebouw.19003460/0","properties":{"source":"Digitaal Vlaanderen Gebouwenregister","source_id":"gebouw/Gebouw.19003460/0","kind":"building","height_m":5.0,"status":null},"geometry":{"type":"Polygon","coordinates":[[[4.13503188,50.92152472],[4.1349733,50.92156483],[4.134921,50.92154614],[4.13496392,50.92151277],[4.13483815,50.92146784],[4.13489494,50.92140432],[4.1350419,50.92145682],[4.13499346,50.921511],[4.13503188,50.92152472]]]}},{"type":"Feature","id":"gebouw/Gebouw.19286529/0","properties":{"source":"Digitaal Vlaanderen Gebouwenregister","source_id":"gebouw/Gebouw.19286529/0","kind":"building","height_m":7.16,"status":null},"geometry":{"type":"Polygon","coordinates":[[[4.13821008,50.92013886],[4.13817029,50.92024419],[4.13815358,50.92024157],[4.13815469,50.92023836],[4.13802765,50.92021883],[4.13803508,50.92019953],[4.13801322,50.92019627],[4.13801835,50.9201827],[4.13804436,50.92011384],[4.13821008,50.92013886]]]}},{"type":"Feature","id":"gebouw/Gebouw.19649458/0","properties":{"source":"Digitaal Vlaanderen Gebouwenregister","source_id":"gebouw/Gebouw.19649458/0","kind":"building","height_m":7.16,"status":null},"geometry":{"type":"Polygon","coordinates":[[[4.13832497,50.91930661],[4.13833047,50.91930767],[4.13838915,50.91931897],[4.13835736,50.91938692],[4.13835096,50.91938578],[4.13833655,50.91941834],[4.13828165,50.91940863],[4.13829967,50.91936618],[4.13832497,50.91930661]]]}},{"type":"Feature","id":"gebouw/Gebouw.19875819/0","properties":{"source":"Digitaal Vlaanderen Gebouwenregister","source_id":"gebouw/Gebouw.19875819/0","kind":"building","height_m":8.6,"status":null},"geometry":{"type":"Polygon","coordinates":[[[4.13699811,50.92102672],[4.13704786,50.92107251],[4.13698898,50.92109886],[4.13694182,50.9210518],[4.13694541,50.9210502],[4.13699236,50.92102928],[4.13699811,50.92102672]]]}},{"type":"Feature","id":"gebouw/Gebouw.19875820/0","properties":{"source":"Digitaal Vlaanderen Gebouwenregister","source_id":"gebouw/Gebouw.19875820/0","kind":"building","height_m":9.32,"status":null},"geometry":{"type":"Polygon","coordinates":[[[4.13699236,50.92102928],[4.13694541,50.9210502],[4.13690354,50.92101146],[4.13694853,50.92099092],[4.13697805,50.92101676],[4.13699236,50.92102928]]]}},{"type":"Feature","id":"gebouw/Gebouw.20145660/0","properties":{"source":"Digitaal Vlaanderen Gebouwenregister","source_id":"gebouw/Gebouw.20145660/0","kind":"building","height_m":7.16,"status":null},"geometry":{"type":"Polygon","coordinates":[[[4.13611357,50.92100304],[4.13609046,50.92097408],[4.13616876,50.92094911],[4.13619188,50.92097807],[4.13611357,50.92100304]]]}},{"type":"Feature","id":"gebouw/Gebouw.20145915/0","properties":{"source":"Digitaal Vlaanderen Gebouwenregister","source_id":"gebouw/Gebouw.20145915/0","kind":"building","height_m":9.32,"status":null},"geometry":{"type":"Polygon","coordinates":[[[4.13992811,50.92044526],[4.13993927,50.92042864],[4.13983958,50.92040192],[4.13985604,50.92037738],[4.14003558,50.92042551],[4.14000797,50.92046667],[4.13992811,50.92044526]]]}},{"type":"Feature","id":"gebouw/Gebouw.31144951/0","properties":{"source":"Digitaal Vlaanderen Gebouwenregister","source_id":"gebouw/Gebouw.31144951/0","kind":"building","height_m":8.6,"status":null},"geometry":{"type":"Polygon","coordinates":[[[4.13802968,50.92057965],[4.13802889,50.9205283],[4.13807376,50.92052803],[4.13807455,50.92057938],[4.13802968,50.92057965]]]}},{"type":"Feature","id":"gebouw/Gebouw.32035921/0","properties":{"source":"Digitaal Vlaanderen Gebouwenregister","source_id":"gebouw/Gebouw.32035921/0","kind":"building","height_m":5.72,"status":null},"geometry":{"type":"Polygon","coordinates":[[[4.13615262,50.92132115],[4.13610197,50.92128015],[4.1360954,50.92128341],[4.13603328,50.92131428],[4.13604415,50.92132528],[4.13607584,50.92135149],[4.13608,50.92135468],[4.13614593,50.92132424],[4.13615262,50.92132115]]]}},{"type":"Feature","id":"way/160934821","properties":{"source":"OpenStreetMap","source_id":"way/160934821","kind":"vegetation","name":null,"waterway":null,"landuse":null},"geometry":{"type":"Polygon","coordinates":[[[4.140368,50.9206553],[4.1409327,50.9207352],[4.1410047,50.9206467],[4.1415604,50.9207887],[4.1414928,50.9208007],[4.1413723,50.9208083],[4.1412212,50.9208085],[4.1410019,50.9208004],[4.1406507,50.9207627],[4.140224,50.9207095],[4.1403349,50.92046],[4.1404488,50.9204904],[4.140368,50.9206553]]]}},{"type":"Feature","id":"way/690446687","properties":{"source":"OpenStreetMap","source_id":"way/690446687","kind":"waterway","name":"Semelaardbeek","waterway":"stream","landuse":null},"geometry":{"type":"LineString","coordinates":[[4.1397097,50.920706],[4.1396912,50.9207641],[4.1396651,50.9208146],[4.1396407,50.9208617],[4.1396305,50.9208814],[4.1396007,50.920889],[4.1395688,50.9208969],[4.1395075,50.9209212],[4.1394357,50.9209692],[4.139415,50.920977],[4.1392446,50.9211165],[4.1392205,50.9211401],[4.1391896,50.9211824],[4.1391159,50.9213342],[4.1390797,50.9214081],[4.1390361,50.9214436],[4.1389563,50.9214994]]}},{"type":"Feature","id":"way/1270203602","properties":{"source":"OpenStreetMap","source_id":"way/1270203602","kind":"water","name":null,"waterway":null,"landuse":null},"geometry":{"type":"Polygon","coordinates":[[[4.1381742,50.9210682],[4.1381811,50.9210741],[4.1381895,50.921078],[4.1382235,50.9210855],[4.1382347,50.9210865],[4.1382419,50.9210857],[4.1382472,50.9210829],[4.1382613,50.9210737],[4.1382669,50.9210715],[4.1382759,50.9210706],[4.1382912,50.9210727],[4.1382993,50.9210768],[4.1383111,50.9210896],[4.1383211,50.9210972],[4.1383275,50.9210983],[4.1383379,50.9210962],[4.1383436,50.9210926],[4.1383472,50.9210868],[4.1383454,50.9210821],[4.138335,50.9210737],[4.1383109,50.9210632],[4.1382836,50.9210454],[4.1382697,50.9210304],[4.1382665,50.9210281],[4.1382558,50.9210249],[4.1382158,50.9210172],[4.1382024,50.9210162],[4.138186,50.9210177],[4.1381767,50.9210223],[4.1381714,50.9210255],[4.1381696,50.9210327],[4.1381687,50.9210441],[4.1381742,50.9210682]]]}}]}