{"type":"FeatureCollection","features":[{"type":"Feature","id":"gebouw/Gebouw.5840100/0","properties":{"source":"Digitaal Vlaanderen Gebouwenregister","source_id":"gebouw/Gebouw.5840100/0","kind":"building","height_m":5.0,"status":null},"geometry":{"type":"Polygon","coordinates":[[[4.14670961,50.96907648],[4.14678776,50.96913736],[4.14695933,50.96927101],[4.14682734,50.96933857],[4.14655185,50.9691256],[4.14664093,50.96908002],[4.14668512,50.9690574],[4.14670961,50.96907648]]]}},{"type":"Feature","id":"gebouw/Gebouw.5929083/0","properties":{"source":"Digitaal Vlaanderen Gebouwenregister","source_id":"gebouw/Gebouw.5929083/0","kind":"building","height_m":9.32,"status":null},"geometry":{"type":"Polygon","coordinates":[[[4.14659729,50.96924532],[4.1465292,50.96927982],[4.14641752,50.96919196],[4.14648561,50.96915746],[4.14659729,50.96924532]]]}},{"type":"Feature","id":"gebouw/Gebouw.6077220/0","properties":{"source":"Digitaal Vlaanderen Gebouwenregister","source_id":"gebouw/Gebouw.6077220/0","kind":"building","height_m":6.44,"status":null},"geometry":{"type":"Polygon","coordinates":[[[4.14698355,50.96917752],[4.1471177,50.9691089],[4.14733862,50.96928109],[4.14720302,50.9693486],[4.14698355,50.96917752]]]}}]}