{"type":"FeatureCollection","features":[{"type":"Feature","id":"gebouw/Gebouw.7198224/0","properties":{"source":"Digitaal Vlaanderen Gebouwenregister","source_id":"gebouw/Gebouw.7198224/0","kind":"building","height_m":8.6,"status":null},"geometry":{"type":"Polygon","coordinates":[[[4.15323925,50.92443977],[4.15322738,50.92450529],[4.15258978,50.92445463],[4.15260557,50.92438811],[4.15274944,50.9243995],[4.15285458,50.9243929],[4.15317596,50.92441814],[4.15324226,50.9244231],[4.15324222,50.92442334],[4.15323925,50.92443977]]]}},{"type":"Feature","id":"gebouw/Gebouw.7274299/0","properties":{"source":"Digitaal Vlaanderen Gebouwenregister","source_id":"gebouw/Gebouw.7274299/0","kind":"building","height_m":7.88,"status":null},"geometry":{"type":"Polygon","coordinates":[[[4.15310228,50.92461714],[4.15311938,50.9246195],[4.15310707,50.92467834],[4.15276774,50.92464867],[4.15263861,50.92463738],[4.15265005,50.92458392],[4.15293535,50.92460748],[4.15294782,50.92460851],[4.15294848,50.92460425],[4.15294943,50.92459815],[4.15295162,50.92458411],[4.15310724,50.92459353],[4.1531043,50.92460753],[4.15310228,50.92461714]]]}},{"type":"Feature","id":"gebouw/Gebouw.7274600/0","properties":{"source":"Digitaal Vlaanderen Gebouwenregister","source_id":"gebouw/Gebouw.7274600/0","kind":"building","height_m":7.88,"status":null},"geometry":{"type":"Polygon","coordinates":[[[4.15306796,50.92518528],[4.15295269,50.92517406],[4.15297051,50.9250897],[4.15308842,50.92510143],[4.15306796,50.92518528]]]}},{"type":"Feature","id":"gebouw/Gebouw.7274601/0","properties":{"source":"Digitaal Vlaanderen Gebouwenregister","source_id":"gebouw/Gebouw.7274601/0","kind":"building","height_m":8.6,"status":null},"geometry":{"type":"Polygon","coordinates":[[[4.15321576,50.92516445],[4.15312057,50.92515339],[4.1531352,50.92509429],[4.15322889,50.92510425],[4.15321576,50.92516445]]]}},{"type":"Feature","id":"gebouw/Gebouw.7274603/0","properties":{"source":"Digitaal Vlaanderen Gebouwenregister","source_id":"gebouw/Gebouw.7274603/0","kind":"building","height_m":5.0,"status":null},"geometry":{"type":"Polygon","coordinates":[[[4.15324727,50.92470308],[4.15320898,50.92469898],[4.15322588,50.92463564],[4.1532653,50.92464035],[4.15324727,50.92470308]]]}},{"type":"Feature","id":"gebouw/Gebouw.7373296/0","properties":{"source":"Digitaal Vlaanderen Gebouwenregister","source_id":"gebouw/Gebouw.7373296/0","kind":"building","height_m":5.0,"status":null},"geometry":{"type":"Polygon","coordinates":[[[4.15269034,50.92496884],[4.15268088,50.92496828],[4.15269841,50.92489734],[4.15281129,50.92490945],[4.15281257,50.92490251],[4.15286353,50.92490816],[4.15285198,50.92495675],[4.15282465,50.92495382],[4.15280379,50.92503401],[4.15267712,50.92501976],[4.15268761,50.92497936],[4.15269034,50.92496884]]]}},{"type":"Feature","id":"gebouw/Gebouw.16559943/0","properties":{"source":"Digitaal Vlaanderen Gebouwenregister","source_id":"gebouw/Gebouw.16559943/0","kind":"building","height_m":5.72,"status":null},"geometry":{"type":"Polygon","coordinates":[[[4.14891862,50.92527744],[4.14887098,50.92521533],[4.14901409,50.92517149],[4.14906172,50.92523359],[4.14891862,50.92527744]]]}},{"type":"Feature","id":"gebouw/Gebouw.16559946/0","properties":{"source":"Digitaal Vlaanderen Gebouwenregister","source_id":"gebouw/Gebouw.16559946/0","kind":"building","height_m":7.88,"status":null},"geometry":{"type":"Polygon","coordinates":[[[4.14507911,50.92707212],[4.14505847,50.92709773],[4.14518735,50.92713847],[4.14520688,50.9271134],[4.14507911,50.92707212]]]}},{"type":"Feature","id":"gebouw/Gebouw.16559947/0","properties":{"source":"Digitaal Vlaanderen Gebouwenregister","source_id":"gebouw/Gebouw.16559947/0","kind":"building","height_m":8.6,"status":null},"geometry":{"type":"Polygon","coordinates":[[[4.14675924,50.92521405],[4.14723553,50.92494317],[4.14739143,50.92505268],[4.1469137,50.92532336],[4.14675924,50.92521405]]]}},{"type":"Feature","id":"gebouw/Gebouw.16560239/0","properties":{"source":"Digitaal Vlaanderen Gebouwenregister","source_id":"gebouw/Gebouw.16560239/0","kind":"building","height_m":7.16,"status":null},"geometry":{"type":"Polygon","coordinates":[[[4.14774243,50.92504962],[4.14761549,50.92496526],[4.14777565,50.92486907],[4.14790259,50.92495343],[4.14774243,50.92504962]]]}},{"type":"Feature","id":"gebouw/Gebouw.16560380/0","properties":{"source":"Digitaal Vlaanderen Gebouwenregister","source_id":"gebouw/Gebouw.16560380/0","kind":"building","height_m":7.88,"status":null},"geometry":{"type":"Polygon","coordinates":[[[4.14991946,50.92713365],[4.14985119,50.92707897],[4.14998597,50.92701175],[4.15005424,50.92706643],[4.14991946,50.92713365]]]}},{"type":"Feature","id":"gebouw/Gebouw.16560516/0","properties":{"source":"Digitaal Vlaanderen Gebouwenregister","source_id":"gebouw/Gebouw.16560516/0","kind":"building","height_m":5.0,"status":null},"geometry":{"type":"Polygon","coordinates":[[[4.14552061,50.92721344],[4.14553882,50.92719211],[4.14560114,50.92721341],[4.14558379,50.92723366],[4.14552061,50.92721344]]]}},{"type":"Feature","id":"gebouw/Gebouw.16560604/0","properties":{"source":"Digitaal Vlaanderen Gebouwenregister","source_id":"gebouw/Gebouw.16560604/0","kind":"building","height_m":7.88,"status":null},"geometry":{"type":"Polygon","coordinates":[[[4.14758573,50.92517318],[4.1477117,50.92511108],[4.14789479,50.92525944],[4.14776882,50.92532154],[4.14758573,50.92517318]]]}},{"type":"Feature","id":"gebouw/Gebouw.16560856/0","properties":{"source":"Digitaal Vlaanderen Gebouwenregister","source_id":"gebouw/Gebouw.16560856/0","kind":"building","height_m":7.88,"status":null},"geometry":{"type":"Polygon","coordinates":[[[4.14779323,50.92455902],[4.14732091,50.92490307],[4.14719088,50.92483176],[4.1476632,50.92448771],[4.14779323,50.92455902]]]}},{"type":"Feature","id":"gebouw/Gebouw.16563895/0","properties":{"source":"Digitaal Vlaanderen Gebouwenregister","source_id":"gebouw/Gebouw.16563895/0","kind":"building","height_m":8.6,"status":null},"geometry":{"type":"Polygon","coordinates":[[[4.14584346,50.92741566],[4.14562437,50.92734651],[4.14565443,50.92730847],[4.14587352,50.92737763],[4.14584346,50.92741566]]]}},{"type":"Feature","id":"gebouw/Gebouw.16565057/0","properties":{"source":"Digitaal Vlaanderen Gebouwenregister","source_id":"gebouw/Gebouw.16565057/0","kind":"building","height_m":8.6,"status":null},"geometry":{"type":"Polygon","coordinates":[[[4.1470121,50.92657643],[4.14718158,50.9265219],[4.1471464,50.9264786],[4.14713841,50.92646877],[4.14713211,50.92646102],[4.14703825,50.92634551],[4.14703456,50.92634098],[4.14696278,50.92636454],[4.14705243,50.92647363],[4.14695888,50.92650351],[4.14693908,50.92647876],[4.14690691,50.92648904],[4.14690279,50.92649035],[4.14696006,50.92656197],[4.14699205,50.92655175],[4.1469923,50.92655167],[4.1470121,50.92657643]]]}},{"type":"Feature","id":"gebouw/Gebouw.16565060/0","properties":{"source":"Digitaal Vlaanderen Gebouwenregister","source_id":"gebouw/Gebouw.16565060/0","kind":"building","height_m":5.72,"status":null},"geometry":{"type":"Polygon","coordinates":[[[4.15070061,50.92527323],[4.15069966,50.92527421],[4.15066823,50.92530411],[4.15061562,50.92528201],[4.15062534,50.92527276],[4.15061203,50.92526717],[4.15063375,50.9252465],[4.15064186,50.9252499],[4.15064208,50.92524969],[4.15069208,50.92520204],[4.15070109,50.92520581],[4.15075847,50.92515113],[4.15080165,50.92516926],[4.15074548,50.92522269],[4.15074852,50.92522397],[4.15070061,50.92527323]]]}},{"type":"Feature","id":"gebouw/Gebouw.16565218/0","properties":{"source":"Digitaal Vlaanderen Gebouwenregister","source_id":"gebouw/Gebouw.16565218/0","kind":"building","height_m":8.6,"status":null},"geometry":{"type":"Polygon","coordinates":[[[4.14868423,50.9265563],[4.14872129,50.9265973],[4.1486374,50.92662759],[4.14860033,50.92658659],[4.14868423,50.9265563]]]}},{"type":"Feature","id":"gebouw/Gebouw.16601013/0","properties":{"source":"Digitaal Vlaanderen Gebouwenregister","source_id":"gebouw/Gebouw.16601013/0","kind":"building","height_m":6.44,"status":null},"geometry":{"type":"Polygon","coordinates":[[[4.15033288,50.9272699],[4.15016008,50.92723303],[4.15017738,50.92720065],[4.15035018,50.92723751],[4.15033288,50.9272699]]]}},{"type":"Feature","id":"gebouw/Gebouw.16601071/0","properties":{"source":"Digitaal Vlaanderen Gebouwenregister","source_id":"gebouw/Gebouw.16601071/0","kind":"building","height_m":7.88,"status":null},"geometry":{"type":"Polygon","coordinates":[[[4.14725769,50.92546123],[4.147531,50.92531914],[4.14754001,50.92532539],[4.14759961,50.92529468],[4.14767439,50.92535459],[4.14761741,50.92538618],[4.14762691,50.92539378],[4.14734861,50.92553287],[4.14725769,50.92546123]]]}},{"type":"Feature","id":"gebouw/Gebouw.16601072/0","properties":{"source":"Digitaal Vlaanderen Gebouwenregister","source_id":"gebouw/Gebouw.16601072/0","kind":"building","height_m":8.6,"status":null},"geometry":{"type":"Polygon","coordinates":[[[4.14515598,50.92715863],[4.14512284,50.92720033],[4.14523353,50.92723508],[4.14519358,50.9272859],[4.14519118,50.92728896],[4.14501078,50.92723231],[4.14501397,50.92722843],[4.14509013,50.92713602],[4.14515598,50.92715863]]]}},{"type":"Feature","id":"gebouw/Gebouw.16604131/0","properties":{"source":"Digitaal Vlaanderen Gebouwenregister","source_id":"gebouw/Gebouw.16604131/0","kind":"building","height_m":8.6,"status":null},"geometry":{"type":"Polygon","coordinates":[[[4.15063375,50.9252465],[4.15061203,50.92526717],[4.1506014,50.92527239],[4.15055217,50.92523238],[4.15052678,50.92524486],[4.15046966,50.92519844],[4.15049489,50.92518638],[4.15042264,50.92511922],[4.15063722,50.92507115],[4.15062601,50.9250498],[4.15074677,50.92502267],[4.15080401,50.92512401],[4.15065843,50.92515763],[4.15065703,50.92515502],[4.15060805,50.92516927],[4.15060546,50.92516464],[4.15057919,50.92517087],[4.15054986,50.92514072],[4.15053576,50.92514375],[4.15053653,50.92516749],[4.15055406,50.92518174],[4.15063375,50.9252465]]]}},{"type":"Feature","id":"gebouw/Gebouw.16606409/0","properties":{"source":"Digitaal Vlaanderen Gebouwenregister","source_id":"gebouw/Gebouw.16606409/0","kind":"building","height_m":5.72,"status":null},"geometry":{"type":"Polygon","coordinates":[[[4.14694764,50.9253469],[4.14725142,50.92549692],[4.14725907,50.92549009],[4.14735066,50.92553838],[4.14726474,50.92560952],[4.14731246,50.9256486],[4.14728559,50.92566171],[4.14747305,50.92581526],[4.14737644,50.92586237],[4.14729542,50.92579601],[4.14723985,50.9258231],[4.14720722,50.92579638],[4.14723983,50.92578048],[4.1472156,50.92576064],[4.14723178,50.92575275],[4.14718303,50.92571283],[4.14718988,50.92570949],[4.14715955,50.92568465],[4.14719349,50.9256681],[4.14716909,50.92564811],[4.14718298,50.92564134],[4.14717085,50.92563141],[4.14719676,50.92561877],[4.14721016,50.92562975],[4.14721971,50.92562509],[4.1471428,50.92558914],[4.14713895,50.92559211],[4.14654501,50.92529676],[4.14668229,50.9251836],[4.14659564,50.92512352],[4.14704392,50.92486863],[4.14716025,50.92495115],[4.1467328,50.92519376],[4.14675895,50.92521193],[4.14672674,50.92523781],[4.14691741,50.92533197],[4.14694764,50.9253469]]]}},{"type":"Feature","id":"gebouw/Gebouw.16612835/0","properties":{"source":"Digitaal Vlaanderen Gebouwenregister","source_id":"gebouw/Gebouw.16612835/0","kind":"building","height_m":5.72,"status":null},"geometry":{"type":"Polygon","coordinates":[[[4.14905459,50.92518368],[4.14900177,50.92511587],[4.1491614,50.92506621],[4.14921422,50.92513401],[4.14905459,50.92518368]]]}},{"type":"Feature","id":"gebouw/Gebouw.16731463/0","properties":{"source":"Digitaal Vlaanderen Gebouwenregister","source_id":"gebouw/Gebouw.16731463/0","kind":"building","height_m":5.0,"status":null},"geometry":{"type":"Polygon","coordinates":[[[4.14688788,50.92659142],[4.1467904,50.92662256],[4.14668723,50.92649354],[4.14665346,50.92650433],[4.14663452,50.92650061],[4.14660606,50.92646558],[4.14661326,50.92645261],[4.14664437,50.92644267],[4.14663519,50.92643119],[4.14666141,50.92642281],[4.14660547,50.92635396],[4.14670947,50.92632074],[4.14675765,50.92630535],[4.14683112,50.92628188],[4.14691697,50.92638923],[4.14684459,50.92641235],[4.14682306,50.92638585],[4.14673122,50.92641518],[4.14679595,50.92649612],[4.14680847,50.92649212],[4.14688788,50.92659142]]]}},{"type":"Feature","id":"gebouw/Gebouw.18215812/0","properties":{"source":"Digitaal Vlaanderen Gebouwenregister","source_id":"gebouw/Gebouw.18215812/0","kind":"building","height_m":9.32,"status":null},"geometry":{"type":"Polygon","coordinates":[[[4.15269959,50.92453353],[4.15270781,50.92449704],[4.152824,50.9245075],[4.15281577,50.92454399],[4.15269959,50.92453353]]]}},{"type":"Feature","id":"gebouw/Gebouw.18730902/0","properties":{"source":"Digitaal Vlaanderen Gebouwenregister","source_id":"gebouw/Gebouw.18730902/0","kind":"building","height_m":5.72,"status":null},"geometry":{"type":"Polygon","coordinates":[[[4.14656757,50.9250111],[4.14638824,50.924883],[4.14642774,50.92485941],[4.14640758,50.92484692],[4.14730246,50.92433959],[4.1475277,50.92449483],[4.14662767,50.92500352],[4.14661222,50.92498914],[4.14656757,50.9250111]]]}},{"type":"Feature","id":"gebouw/Gebouw.18961993/0","properties":{"source":"Digitaal Vlaanderen Gebouwenregister","source_id":"gebouw/Gebouw.18961993/0","kind":"building","height_m":5.72,"status":null},"geometry":{"type":"Polygon","coordinates":[[[4.14487162,50.92704619],[4.14493542,50.92706653],[4.14487003,50.92714845],[4.14460961,50.92706542],[4.144675,50.9269835],[4.14468054,50.92698527],[4.14487162,50.92704619]]]}},{"type":"Feature","id":"gebouw/Gebouw.19231733/0","properties":{"source":"Digitaal Vlaanderen Gebouwenregister","source_id":"gebouw/Gebouw.19231733/0","kind":"building","height_m":7.16,"status":null},"geometry":{"type":"Polygon","coordinates":[[[4.15269862,50.92453289],[4.15270643,50.92449606],[4.15282212,50.92450586],[4.15281431,50.92454269],[4.15269862,50.92453289]]]}},{"type":"Feature","id":"gebouw/Gebouw.19872275/0","properties":{"source":"Digitaal Vlaanderen Gebouwenregister","source_id":"gebouw/Gebouw.19872275/0","kind":"building","height_m":7.16,"status":null},"geometry":{"type":"Polygon","coordinates":[[[4.1475189,50.92516294],[4.14762463,50.92523792],[4.14721626,50.92546515],[4.14700174,50.92531859],[4.14694764,50.9253469],[4.14691741,50.92533197],[4.14749001,50.92500593],[4.14755694,50.92505342],[4.14745087,50.9251147],[4.1475189,50.92516294]]]}},{"type":"Feature","id":"gebouw/Gebouw.19872351/0","properties":{"source":"Digitaal Vlaanderen Gebouwenregister","source_id":"gebouw/Gebouw.19872351/0","kind":"building","height_m":6.44,"status":null},"geometry":{"type":"Polygon","coordinates":[[[4.14703825,50.92634551],[4.14705558,50.92633989],[4.14711489,50.92641288],[4.14712171,50.92641066],[4.14717055,50.92647076],[4.1471464,50.9264786],[4.14713841,50.92646877],[4.14713211,50.92646102],[4.14703825,50.92634551]]]}},{"type":"Feature","id":"gebouw/Gebouw.20147070/0","properties":{"source":"Digitaal Vlaanderen Gebouwenregister","source_id":"gebouw/Gebouw.20147070/0","kind":"building","height_m":9.32,"status":null},"geometry":{"type":"Polygon","coordinates":[[[4.14708142,50.92541342],[4.14696602,50.92550612],[4.14654501,50.92529676],[4.14668229,50.9251836],[4.14659564,50.92512352],[4.14704392,50.92486863],[4.14716025,50.92495115],[4.1467328,50.92519376],[4.14675895,50.92521193],[4.14672674,50.92523781],[4.14691741,50.92533197],[4.14694764,50.9253469],[4.14708142,50.92541342]]]}},{"type":"Feature","id":"gebouw/Gebouw.20147071/0","properties":{"source":"Digitaal Vlaanderen Gebouwenregister","source_id":"gebouw/Gebouw.20147071/0","kind":"building","height_m":5.0,"status":null},"geometry":{"type":"Polygon","coordinates":[[[4.14714156,50.92558738],[4.14725907,50.92549009],[4.14735066,50.92553838],[4.14726474,50.92560952],[4.14731246,50.9256486],[4.14728559,50.92566171],[4.14747305,50.92581526],[4.14737644,50.92586237],[4.14729542,50.92579601],[4.14723985,50.9258231],[4.14720722,50.92579638],[4.14723983,50.92578048],[4.1472156,50.92576064],[4.14723178,50.92575275],[4.14718303,50.92571283],[4.14718988,50.92570949],[4.14715955,50.92568465],[4.14719349,50.9256681],[4.14716909,50.92564811],[4.14718298,50.92564134],[4.14717085,50.92563141],[4.14719676,50.92561877],[4.14721016,50.92562975],[4.14721971,50.92562509],[4.14714156,50.92558738]]]}},{"type":"Feature","id":"gebouw/Gebouw.31536863/0","properties":{"source":"Digitaal Vlaanderen Gebouwenregister","source_id":"gebouw/Gebouw.31536863/0","kind":"building","height_m":5.72,"status":null},"geometry":{"type":"Polygon","coordinates":[[[4.14435032,50.92683377],[4.14436563,50.92684953],[4.14440858,50.92683286],[4.14439327,50.9268171],[4.14435032,50.92683377]]]}},{"type":"Feature","id":"way/46486173","properties":{"source":"OpenStreetMap","source_id":"way/46486173","kind":"water","name":null,"waterway":null,"landuse":null},"geometry":{"type":"Polygon","coordinates":[[[4.1527603,50.9261642],[4.1527344,50.9263099],[4.1528541,50.9264122],[4.1530324,50.9264998],[4.1531122,50.9265641],[4.1531259,50.9266801],[4.1531924,50.9267771],[4.1531534,50.9269511],[4.1531407,50.9271822],[4.1530768,50.9272686],[4.1530218,50.9273617],[4.1529124,50.9274264],[4.152839,50.9274982],[4.1527464,50.9276188],[4.1527872,50.9277304],[4.1528012,50.9278228],[4.1528114,50.927875],[4.1528675,50.9279225],[4.1529824,50.9279191],[4.1530941,50.9278865],[4.1532993,50.9278225],[4.1533976,50.9277687],[4.1534928,50.9277113],[4.1536014,50.9276437],[4.153711,50.9274522],[4.1536916,50.9273497],[4.1537391,50.927259],[4.1537264,50.9271303],[4.1537435,50.9269204],[4.1537175,50.9268137],[4.1535766,50.926672],[4.1535127,50.9265026],[4.1535049,50.9263855],[4.1534507,50.9261923],[4.153376,50.9261078],[4.1533513,50.926026],[4.153437,50.9259079],[4.1534044,50.9258487],[4.1533393,50.9257868],[4.1533953,50.9257353],[4.1533613,50.9257155],[4.1532733,50.9257268],[4.1532435,50.9257535],[4.1532384,50.9258442],[4.1531678,50.9260084],[4.1529667,50.9260358],[4.1528596,50.9260914],[4.1527603,50.9261642]]]}},{"type":"Feature","id":"way/779123299","properties":{"source":"OpenStreetMap","source_id":"way/779123299","kind":"waterway","name":"Graadbeek","waterway":"stream","landuse":null},"geometry":{"type":"LineString","coordinates":[[4.1501909,50.9285906],[4.1499915,50.928545],[4.1495111,50.9283874],[4.1491321,50.9282534],[4.1485642,50.9280605],[4.1485346,50.9280198],[4.1485884,50.9279644],[4.1485762,50.9279445],[4.1477486,50.9275646],[4.1472213,50.9273079],[4.1468351,50.9271746],[4.1464773,50.9269722],[4.1462594,50.9269739]]}},{"type":"Feature","id":"way/779123302","properties":{"source":"OpenStreetMap","source_id":"way/779123302","kind":"waterway","name":null,"waterway":"stream","landuse":null},"geometry":{"type":"LineString","coordinates":[[4.1462594,50.9269739],[4.1459699,50.9269762]]}},{"type":"Feature","id":"way/779127182","properties":{"source":"OpenStreetMap","source_id":"way/779127182","kind":"waterway","name":null,"waterway":"stream","landuse":null},"geometry":{"type":"LineString","coordinates":[[4.1446848,50.9269463],[4.1446735,50.9269596]]}},{"type":"Feature","id":"way/779127183","properties":{"source":"OpenStreetMap","source_id":"way/779127183","kind":"waterway","name":null,"waterway":"stream","landuse":null},"geometry":{"type":"LineString","coordinates":[[4.1447521,50.9268669],[4.1446848,50.9269463]]}},{"type":"Feature","id":"way/779127188","properties":{"source":"OpenStreetMap","source_id":"way/779127188","kind":"waterway","name":null,"waterway":"stream","landuse":null},"geometry":{"type":"LineString","coordinates":[[4.1517962,50.9234405],[4.1515035,50.9235197],[4.1514572,50.9235907]]}},{"type":"Feature","id":"way/779127190","properties":{"source":"OpenStreetMap","source_id":"way/779127190","kind":"waterway","name":null,"waterway":"stream","landuse":null},"geometry":{"type":"LineString","coordinates":[[4.1514572,50.9235907],[4.1512669,50.9236636],[4.1511319,50.9237559],[4.1510864,50.9237992]]}},{"type":"Feature","id":"way/779127192","properties":{"source":"OpenStreetMap","source_id":"way/779127192","kind":"waterway","name":null,"waterway":"stream","landuse":null},"geometry":{"type":"LineString","coordinates":[[4.1520019,50.9234333],[4.1517962,50.9234405]]}},{"type":"Feature","id":"way/779127193","properties":{"source":"OpenStreetMap","source_id":"way/779127193","kind":"waterway","name":null,"waterway":"stream","landuse":null},"geometry":{"type":"LineString","coordinates":[[4.1520608,50.9232972],[4.1520019,50.9234333]]}},{"type":"Feature","id":"way/779127194","properties":{"source":"OpenStreetMap","source_id":"way/779127194","kind":"waterway","name":null,"waterway":"stream","landuse":null},"geometry":{"type":"LineString","coordinates":[[4.1510643,50.9239493],[4.1510375,50.9240272],[4.1510188,50.9242068],[4.151019,50.9243256],[4.1510927,50.9244428],[4.1509327,50.9245416],[4.1509866,50.9248082],[4.1507807,50.9249434],[4.1506331,50.9251781],[4.1503045,50.9250712]]}},{"type":"Feature","id":"way/779127195","properties":{"source":"OpenStreetMap","source_id":"way/779127195","kind":"waterway","name":null,"waterway":"stream","landuse":null},"geometry":{"type":"LineString","coordinates":[[4.1510864,50.9237992],[4.1510643,50.9239493]]}},{"type":"Feature","id":"way/779127199","properties":{"source":"OpenStreetMap","source_id":"way/779127199","kind":"waterway","name":null,"waterway":"stream","landuse":null},"geometry":{"type":"LineString","coordinates":[[4.1503045,50.9250712],[4.1501529,50.9250534]]}},{"type":"Feature","id":"way/1030014784","properties":{"source":"OpenStreetMap","source_id":"way/1030014784","kind":"waterway","name":null,"waterway":"stream","landuse":null},"geometry":{"type":"LineString","coordinates":[[4.1526888,50.9232767],[4.1525528,50.9232831],[4.1523997,50.9232554],[4.1521421,50.9232489],[4.1520608,50.9232972]]}},{"type":"Feature","id":"way/1030014785","properties":{"source":"OpenStreetMap","source_id":"way/1030014785","kind":"waterway","name":"Graadbeek","waterway":"stream","landuse":null},"geometry":{"type":"LineString","coordinates":[[4.1459699,50.9269762],[4.1457921,50.9269479],[4.1456276,50.926985],[4.1454672,50.9270163],[4.1452861,50.9270183],[4.1450751,50.9270246],[4.1449193,50.9270591],[4.1448101,50.9270153],[4.1446735,50.9269596]]}}]}