{"type":"FeatureCollection","features":[{"type":"Feature","id":"gebouw/Gebouw.16560022/0","properties":{"source":"Digitaal Vlaanderen Gebouwenregister","source_id":"gebouw/Gebouw.16560022/0","kind":"building","height_m":7.16,"status":null},"geometry":{"type":"Polygon","coordinates":[[[4.14912846,50.93473294],[4.14904832,50.93480847],[4.14877031,50.93469068],[4.14885044,50.93461516],[4.14912846,50.93473294]]]}},{"type":"Feature","id":"gebouw/Gebouw.16560237/0","properties":{"source":"Digitaal Vlaanderen Gebouwenregister","source_id":"gebouw/Gebouw.16560237/0","kind":"building","height_m":5.72,"status":null},"geometry":{"type":"Polygon","coordinates":[[[4.14806212,50.93484712],[4.14794132,50.93479834],[4.14794482,50.93479487],[4.14790894,50.93478038],[4.14798705,50.93470315],[4.14814373,50.93476643],[4.14806212,50.93484712]]]}},{"type":"Feature","id":"gebouw/Gebouw.16560518/0","properties":{"source":"Digitaal Vlaanderen Gebouwenregister","source_id":"gebouw/Gebouw.16560518/0","kind":"building","height_m":6.44,"status":null},"geometry":{"type":"Polygon","coordinates":[[[4.14603518,50.93447148],[4.14611738,50.93451315],[4.14609498,50.9345308],[4.14601277,50.93448913],[4.14603518,50.93447148]]]}},{"type":"Feature","id":"gebouw/Gebouw.16560605/0","properties":{"source":"Digitaal Vlaanderen Gebouwenregister","source_id":"gebouw/Gebouw.16560605/0","kind":"building","height_m":8.6,"status":null},"geometry":{"type":"Polygon","coordinates":[[[4.14581888,50.93465194],[4.14584028,50.9346311],[4.1458966,50.93465418],[4.1458752,50.93467503],[4.14581888,50.93465194]]]}},{"type":"Feature","id":"gebouw/Gebouw.16563415/0","properties":{"source":"Digitaal Vlaanderen Gebouwenregister","source_id":"gebouw/Gebouw.16563415/0","kind":"building","height_m":5.72,"status":null},"geometry":{"type":"Polygon","coordinates":[[[4.15039411,50.93457418],[4.15037761,50.93458848],[4.15022319,50.93451735],[4.15023969,50.93450304],[4.15039411,50.93457418]]]}},{"type":"Feature","id":"gebouw/Gebouw.16565949/0","properties":{"source":"Digitaal Vlaanderen Gebouwenregister","source_id":"gebouw/Gebouw.16565949/0","kind":"building","height_m":5.72,"status":null},"geometry":{"type":"Polygon","coordinates":[[[4.14923913,50.93459283],[4.14914849,50.93467834],[4.14882296,50.93454057],[4.14891361,50.93445506],[4.14923913,50.93459283]]]}},{"type":"Feature","id":"gebouw/Gebouw.16566772/0","properties":{"source":"Digitaal Vlaanderen Gebouwenregister","source_id":"gebouw/Gebouw.16566772/0","kind":"building","height_m":8.6,"status":null},"geometry":{"type":"Polygon","coordinates":[[[4.15350547,50.93487383],[4.15342622,50.93493128],[4.15328475,50.93485337],[4.15336401,50.93479591],[4.15350547,50.93487383]]]}},{"type":"Feature","id":"gebouw/Gebouw.16566901/0","properties":{"source":"Digitaal Vlaanderen Gebouwenregister","source_id":"gebouw/Gebouw.16566901/0","kind":"building","height_m":5.72,"status":null},"geometry":{"type":"Polygon","coordinates":[[[4.14616734,50.93444116],[4.14609652,50.93441223],[4.14611175,50.93439735],[4.14618256,50.93442628],[4.14616734,50.93444116]]]}},{"type":"Feature","id":"gebouw/Gebouw.16566997/0","properties":{"source":"Digitaal Vlaanderen Gebouwenregister","source_id":"gebouw/Gebouw.16566997/0","kind":"building","height_m":9.32,"status":null},"geometry":{"type":"Polygon","coordinates":[[[4.14616786,50.93445605],[4.14611679,50.93449849],[4.14603653,50.93445993],[4.1460876,50.93441749],[4.14616786,50.93445605]]]}},{"type":"Feature","id":"gebouw/Gebouw.16600496/0","properties":{"source":"Digitaal Vlaanderen Gebouwenregister","source_id":"gebouw/Gebouw.16600496/0","kind":"building","height_m":7.16,"status":null},"geometry":{"type":"Polygon","coordinates":[[[4.14606022,50.93454701],[4.14600999,50.93459376],[4.14593894,50.93456328],[4.14598917,50.93451653],[4.14606022,50.93454701]]]}},{"type":"Feature","id":"gebouw/Gebouw.16600718/0","properties":{"source":"Digitaal Vlaanderen Gebouwenregister","source_id":"gebouw/Gebouw.16600718/0","kind":"building","height_m":5.72,"status":null},"geometry":{"type":"Polygon","coordinates":[[[4.14577399,50.93473278],[4.14574397,50.93472196],[4.14578719,50.93467407],[4.14581721,50.93468489],[4.14577399,50.93473278]]]}},{"type":"Feature","id":"gebouw/Gebouw.16601260/0","properties":{"source":"Digitaal Vlaanderen Gebouwenregister","source_id":"gebouw/Gebouw.16601260/0","kind":"building","height_m":7.88,"status":null},"geometry":{"type":"Polygon","coordinates":[[[4.14511374,50.934158],[4.14507642,50.93418735],[4.14501908,50.93415832],[4.14505522,50.93412862],[4.14511374,50.934158]]]}},{"type":"Feature","id":"gebouw/Gebouw.16725683/0","properties":{"source":"Digitaal Vlaanderen Gebouwenregister","source_id":"gebouw/Gebouw.16725683/0","kind":"building","height_m":6.44,"status":null},"geometry":{"type":"Polygon","coordinates":[[[4.15013386,50.93441117],[4.15004161,50.93448926],[4.14996286,50.93445212],[4.14998619,50.93443237],[4.14970709,50.93430073],[4.1497503,50.93426415],[4.14978795,50.93428191],[4.14979507,50.93427589],[4.14983921,50.93429671],[4.14982989,50.9343046],[4.15002751,50.93439781],[4.15005543,50.93437417],[4.15013386,50.93441117]]]}},{"type":"Feature","id":"gebouw/Gebouw.18730572/0","properties":{"source":"Digitaal Vlaanderen Gebouwenregister","source_id":"gebouw/Gebouw.18730572/0","kind":"building","height_m":5.0,"status":null},"geometry":{"type":"Polygon","coordinates":[[[4.149075,50.93481959],[4.14915233,50.9347442],[4.14942788,50.93485984],[4.14934884,50.93493306],[4.149075,50.93481959]]]}},{"type":"Feature","id":"gebouw/Gebouw.18730573/0","properties":{"source":"Digitaal Vlaanderen Gebouwenregister","source_id":"gebouw/Gebouw.18730573/0","kind":"building","height_m":5.72,"status":null},"geometry":{"type":"Polygon","coordinates":[[[4.14604068,50.93515842],[4.14606796,50.9351336],[4.14611002,50.93515315],[4.14608446,50.93517783],[4.14604068,50.93515842]]]}},{"type":"Feature","id":"gebouw/Gebouw.18730574/0","properties":{"source":"Digitaal Vlaanderen Gebouwenregister","source_id":"gebouw/Gebouw.18730574/0","kind":"building","height_m":6.44,"status":null},"geometry":{"type":"Polygon","coordinates":[[[4.14635536,50.9351916],[4.14636374,50.93518564],[4.14637467,50.93519101],[4.14640217,50.93516896],[4.14643844,50.93518797],[4.14640386,50.93521495],[4.14635536,50.9351916]]]}},{"type":"Feature","id":"gebouw/Gebouw.18730575/0","properties":{"source":"Digitaal Vlaanderen Gebouwenregister","source_id":"gebouw/Gebouw.18730575/0","kind":"building","height_m":7.16,"status":null},"geometry":{"type":"Polygon","coordinates":[[[4.14627974,50.935267],[4.14631199,50.93523928],[4.14635536,50.93525942],[4.14632311,50.93528714],[4.14627974,50.935267]]]}},{"type":"Feature","id":"gebouw/Gebouw.18972626/0","properties":{"source":"Digitaal Vlaanderen Gebouwenregister","source_id":"gebouw/Gebouw.18972626/0","kind":"building","height_m":5.72,"status":null},"geometry":{"type":"Polygon","coordinates":[[[4.1506093,50.93470278],[4.15058899,50.93471979],[4.15047452,50.93466287],[4.15049198,50.93464758],[4.15043664,50.93462233],[4.15050409,50.93456328],[4.15051198,50.93456688],[4.15053663,50.93454766],[4.15066135,50.93460575],[4.15065534,50.93461233],[4.15077165,50.93466538],[4.15071441,50.93471549],[4.15063654,50.93467997],[4.1506093,50.93470278]]]}},{"type":"Feature","id":"gebouw/Gebouw.20145608/0","properties":{"source":"Digitaal Vlaanderen Gebouwenregister","source_id":"gebouw/Gebouw.20145608/0","kind":"building","height_m":5.0,"status":null},"geometry":{"type":"Polygon","coordinates":[[[4.14618855,50.93510046],[4.14615018,50.93507896],[4.14618706,50.93505268],[4.14622542,50.93507419],[4.14618855,50.93510046]]]}},{"type":"Feature","id":"gebouw/Gebouw.30642197/0","properties":{"source":"Digitaal Vlaanderen Gebouwenregister","source_id":"gebouw/Gebouw.30642197/0","kind":"building","height_m":8.6,"status":null},"geometry":{"type":"Polygon","coordinates":[[[4.14448194,50.93442902],[4.14450436,50.93444577],[4.14437022,50.93451743],[4.14434781,50.93450068],[4.14448194,50.93442902]]]}},{"type":"Feature","id":"gebouw/Gebouw.30642198/0","properties":{"source":"Digitaal Vlaanderen Gebouwenregister","source_id":"gebouw/Gebouw.30642198/0","kind":"building","height_m":9.32,"status":null},"geometry":{"type":"Polygon","coordinates":[[[4.14848557,50.93459962],[4.14881197,50.93473558],[4.14872441,50.93481951],[4.14839801,50.93468355],[4.14848557,50.93459962]]]}},{"type":"Feature","id":"gebouw/Gebouw.30642199/0","properties":{"source":"Digitaal Vlaanderen Gebouwenregister","source_id":"gebouw/Gebouw.30642199/0","kind":"building","height_m":5.0,"status":null},"geometry":{"type":"Polygon","coordinates":[[[4.14849894,50.93457752],[4.14857869,50.93450167],[4.14885714,50.93461857],[4.14877739,50.93469442],[4.14849894,50.93457752]]]}},{"type":"Feature","id":"gebouw/Gebouw.30643781/0","properties":{"source":"Digitaal Vlaanderen Gebouwenregister","source_id":"gebouw/Gebouw.30643781/0","kind":"building","height_m":5.0,"status":null},"geometry":{"type":"Polygon","coordinates":[[[4.14910632,50.93453938],[4.14956337,50.93473168],[4.14951386,50.9347814],[4.14947397,50.93481779],[4.14947255,50.93481922],[4.14901051,50.93463552],[4.14902108,50.93462491],[4.14905798,50.93458793],[4.14910632,50.93453938]]]}},{"type":"Feature","id":"gebouw/Gebouw.31144917/0","properties":{"source":"Digitaal Vlaanderen Gebouwenregister","source_id":"gebouw/Gebouw.31144917/0","kind":"building","height_m":9.32,"status":null},"geometry":{"type":"Polygon","coordinates":[[[4.14943055,50.93486167],[4.14934843,50.93493983],[4.14906886,50.93482255],[4.14915098,50.93474439],[4.14943055,50.93486167]]]}},{"type":"Feature","id":"gebouw/Gebouw.31806016/0","properties":{"source":"Digitaal Vlaanderen Gebouwenregister","source_id":"gebouw/Gebouw.31806016/0","kind":"building","height_m":7.88,"status":null},"geometry":{"type":"Polygon","coordinates":[[[4.14777596,50.93423291],[4.1477727,50.93423278],[4.14776935,50.93423277],[4.1477659,50.93423288],[4.14776236,50.93423312],[4.14775877,50.93423351],[4.14775513,50.93423406],[4.14775147,50.93423476],[4.14774782,50.93423564],[4.14774419,50.93423668],[4.14774063,50.9342379],[4.14773715,50.9342393],[4.1477338,50.93424086],[4.1477306,50.93424258],[4.14772757,50.93424446],[4.14772475,50.93424648],[4.14772217,50.93424863],[4.14771983,50.9342509],[4.14771777,50.93425325],[4.14771598,50.93425568],[4.14771449,50.93425817],[4.14771329,50.93426069],[4.14771238,50.93426323],[4.14771177,50.93426576],[4.14771143,50.93426827],[4.14771135,50.93427074],[4.14771153,50.93427315],[4.14771194,50.9342755],[4.14771257,50.93427777],[4.14771339,50.93427995],[4.14771438,50.93428205],[4.14771554,50.93428404],[4.14771682,50.93428593],[4.14771827,50.93428777],[4.14771993,50.93428962],[4.1477218,50.93429145],[4.14772391,50.93429326],[4.14772624,50.93429503],[4.14772881,50.93429675],[4.1477316,50.9342984],[4.14773463,50.93429997],[4.14773788,50.93430143],[4.14774133,50.93430277],[4.14774497,50.93430397],[4.14774879,50.93430503],[4.14775276,50.93430592],[4.14775684,50.93430663],[4.14776102,50.93430716],[4.14776526,50.9343075],[4.14776953,50.93430765],[4.14777379,50.9343076],[4.14777802,50.93430736],[4.14778217,50.93430694],[4.14778623,50.93430633],[4.14779015,50.93430556],[4.14779393,50.93430463],[4.14779754,50.93430357],[4.14780096,50.93430237],[4.14780418,50.93430107],[4.1478072,50.93429967],[4.14781,50.93429819],[4.14781258,50.93429665],[4.14781495,50.93429506],[4.1478171,50.93429343],[4.14781905,50.93429178],[4.14782085,50.93429007],[4.14782255,50.93428824],[4.14782413,50.93428629],[4.14782556,50.93428424],[4.14782682,50.93428207],[4.14782789,50.93427981],[4.14782875,50.93427745],[4.14782938,50.93427502],[4.14782976,50.93427251],[4.14782987,50.93426995],[4.1478297,50.93426735],[4.14782924,50.93426474],[4.14782848,50.93426212],[4.14782741,50.93425953],[4.14782605,50.93425698],[4.1478244,50.93425448],[4.14782246,50.93425208],[4.14782027,50.93424977],[4.14781783,50.93424758],[4.14781517,50.93424552],[4.14781231,50.9342436],[4.14780929,50.93424183],[4.14780613,50.93424023],[4.14780286,50.93423879],[4.14779952,50.93423751],[4.14779612,50.9342364],[4.14779269,50.93423546],[4.14778927,50.93423466],[4.14778586,50.93423402],[4.1477825,50.93423352],[4.14777919,50.93423315],[4.14777596,50.93423291]]]}},{"type":"Feature","id":"gebouw/Gebouw.31806207/0","properties":{"source":"Digitaal Vlaanderen Gebouwenregister","source_id":"gebouw/Gebouw.31806207/0","kind":"building","height_m":9.32,"status":null},"geometry":{"type":"Polygon","coordinates":[[[4.14751576,50.93465723],[4.14756614,50.93467695],[4.14762149,50.93462205],[4.14757046,50.93460196],[4.14751576,50.93465723]]]}},{"type":"Feature","id":"gebouw/Gebouw.31806270/0","properties":{"source":"Digitaal Vlaanderen Gebouwenregister","source_id":"gebouw/Gebouw.31806270/0","kind":"building","height_m":9.32,"status":null},"geometry":{"type":"Polygon","coordinates":[[[4.14872424,50.93482318],[4.14904539,50.93496124],[4.14913587,50.9348772],[4.14881472,50.93473914],[4.14872424,50.93482318]]]}},{"type":"Feature","id":"gebouw/Gebouw.31806656/0","properties":{"source":"Digitaal Vlaanderen Gebouwenregister","source_id":"gebouw/Gebouw.31806656/0","kind":"building","height_m":5.0,"status":null},"geometry":{"type":"Polygon","coordinates":[[[4.14851128,50.93441594],[4.1486071,50.93432758],[4.14815244,50.9341307],[4.14809815,50.93418076],[4.14807957,50.93417271],[4.14803803,50.93421101],[4.14851128,50.93441594]]]}},{"type":"Feature","id":"way/27048725","properties":{"source":"OpenStreetMap","source_id":"way/27048725","kind":"vegetation","name":null,"waterway":null,"landuse":"forest"},"geometry":{"type":"Polygon","coordinates":[[[4.1434884,50.9330138],[4.1437149,50.932867],[4.1445106,50.9333541],[4.1449088,50.9331181],[4.1454964,50.9335119],[4.1465312,50.93284],[4.1472046,50.9330385],[4.1478375,50.9333844],[4.1477564,50.9334506],[4.1487052,50.9339726],[4.1486805,50.9340017],[4.1486553,50.9340314],[4.1478435,50.9336497],[4.1476608,50.9338549],[4.148328,50.9343054],[4.147625,50.9349612],[4.1472875,50.9348135],[4.1465849,50.9353782],[4.1462556,50.935224],[4.1462085,50.9352019],[4.1466114,50.9346617],[4.1466417,50.9345987],[4.1469345,50.9342623],[4.1461031,50.9337147],[4.1454039,50.9340845],[4.1447112,50.9337224],[4.1434884,50.9330138]]]}},{"type":"Feature","id":"way/160784460","properties":{"source":"OpenStreetMap","source_id":"way/160784460","kind":"vegetation","name":null,"waterway":null,"landuse":"forest"},"geometry":{"type":"Polygon","coordinates":[[[4.1462074,50.929349],[4.1454341,50.9302059],[4.1453298,50.9301628],[4.1453693,50.9301016],[4.1440133,50.9293671],[4.1439846,50.9292969],[4.1439953,50.9292719],[4.1438838,50.9292356],[4.1438714,50.9292096],[4.1441319,50.9293209],[4.1446391,50.929628],[4.1454305,50.9300563],[4.1461175,50.9293218],[4.1462074,50.929349]]]}},{"type":"Feature","id":"way/160784520","properties":{"source":"OpenStreetMap","source_id":"way/160784520","kind":"vegetation","name":null,"waterway":null,"landuse":"forest"},"geometry":{"type":"Polygon","coordinates":[[[4.150509,50.9343555],[4.1508362,50.9344843],[4.1507175,50.9345908],[4.1511185,50.9347914],[4.1510034,50.9348968],[4.1502733,50.9345942],[4.150509,50.9343555]]]}},{"type":"Feature","id":"way/160784539","properties":{"source":"OpenStreetMap","source_id":"way/160784539","kind":"vegetation","name":null,"waterway":null,"landuse":"forest"},"geometry":{"type":"Polygon","coordinates":[[[4.1518806,50.9348899],[4.1516711,50.9350553],[4.1513707,50.9349171],[4.1512702,50.935006],[4.1512317,50.93504],[4.1516499,50.9352036],[4.1518063,50.9350705],[4.1519729,50.9349337],[4.1518806,50.9348899]]]}},{"type":"Feature","id":"way/779123295","properties":{"source":"OpenStreetMap","source_id":"way/779123295","kind":"waterway","name":null,"waterway":"stream","landuse":null},"geometry":{"type":"LineString","coordinates":[[4.1528779,50.9292564],[4.1528967,50.9292223]]}},{"type":"Feature","id":"way/779123296","properties":{"source":"OpenStreetMap","source_id":"way/779123296","kind":"waterway","name":null,"waterway":"stream","landuse":null},"geometry":{"type":"LineString","coordinates":[[4.152852,50.9293219],[4.1528779,50.9292564]]}},{"type":"Feature","id":"way/779123297","properties":{"source":"OpenStreetMap","source_id":"way/779123297","kind":"waterway","name":"Graadbeek","waterway":"stream","landuse":null},"geometry":{"type":"LineString","coordinates":[[4.1528291,50.9292146],[4.1527858,50.9292412],[4.1526344,50.9292188],[4.1524762,50.9291922],[4.1523231,50.9291895],[4.1518943,50.9291599],[4.1515325,50.9291339],[4.1514296,50.9291239],[4.1510553,50.928953],[4.1508802,50.9288991],[4.1506241,50.9287915],[4.1503286,50.9286545]]}},{"type":"Feature","id":"way/779123298","properties":{"source":"OpenStreetMap","source_id":"way/779123298","kind":"waterway","name":null,"waterway":"stream","landuse":null},"geometry":{"type":"LineString","coordinates":[[4.1528967,50.9292223],[4.1528291,50.9292146]]}},{"type":"Feature","id":"way/779123300","properties":{"source":"OpenStreetMap","source_id":"way/779123300","kind":"waterway","name":null,"waterway":"stream","landuse":null},"geometry":{"type":"LineString","coordinates":[[4.1503286,50.9286545],[4.1501909,50.9285906]]}},{"type":"Feature","id":"way/779133440","properties":{"source":"OpenStreetMap","source_id":"way/779133440","kind":"waterway","name":null,"waterway":"stream","landuse":null},"geometry":{"type":"LineString","coordinates":[[4.1537499,50.9343522],[4.153445,50.9338379],[4.1526423,50.9332311],[4.1520949,50.9328959],[4.1513266,50.9326873],[4.1512203,50.9326418],[4.1509883,50.9325335],[4.1505133,50.9322872],[4.1499278,50.9320363],[4.1490242,50.9316761],[4.1489645,50.9317274]]}},{"type":"Feature","id":"way/779133443","properties":{"source":"OpenStreetMap","source_id":"way/779133443","kind":"waterway","name":null,"waterway":"stream","landuse":null},"geometry":{"type":"LineString","coordinates":[[4.1488154,50.9317608],[4.1484167,50.931602],[4.1476662,50.9312884],[4.147325,50.9311317],[4.1470419,50.9310975],[4.1469582,50.931015],[4.146879,50.930957],[4.1466029,50.9307683],[4.1463265,50.9305856],[4.1460469,50.9304345],[4.1458062,50.9303074],[4.1456423,50.930221],[4.1454325,50.9301077],[4.1453769,50.9300769],[4.1452833,50.9300303],[4.1451596,50.9299608],[4.1449792,50.9298608],[4.1447929,50.9297557],[4.1445994,50.9296472],[4.1444765,50.9295769],[4.1442973,50.9294477],[4.1440786,50.9293098],[4.1439338,50.929271],[4.1438415,50.9292436]]}},{"type":"Feature","id":"way/779133444","properties":{"source":"OpenStreetMap","source_id":"way/779133444","kind":"waterway","name":null,"waterway":"stream","landuse":null},"geometry":{"type":"LineString","coordinates":[[4.1489645,50.9317274],[4.1488154,50.9317608]]}}]}