{"type":"FeatureCollection","features":[{"type":"Feature","id":"gebouw/Gebouw.16559956/0","properties":{"source":"Digitaal Vlaanderen Gebouwenregister","source_id":"gebouw/Gebouw.16559956/0","kind":"building","height_m":5.0,"status":null},"geometry":{"type":"Polygon","coordinates":[[[4.14724077,50.94273093],[4.14728113,50.94274319],[4.14724769,50.94278714],[4.14724239,50.94279411],[4.14720204,50.94278186],[4.14724077,50.94273093]]]}},{"type":"Feature","id":"gebouw/Gebouw.16560384/0","properties":{"source":"Digitaal Vlaanderen Gebouwenregister","source_id":"gebouw/Gebouw.16560384/0","kind":"building","height_m":5.72,"status":null},"geometry":{"type":"Polygon","coordinates":[[[4.14477694,50.94433324],[4.14484086,50.9443469],[4.14481579,50.94438472],[4.14475438,50.944369],[4.14477694,50.94433324]]]}},{"type":"Feature","id":"gebouw/Gebouw.16560449/0","properties":{"source":"Digitaal Vlaanderen Gebouwenregister","source_id":"gebouw/Gebouw.16560449/0","kind":"building","height_m":7.16,"status":null},"geometry":{"type":"Polygon","coordinates":[[[4.14747336,50.94269516],[4.14743107,50.94275343],[4.14730972,50.94271827],[4.14735201,50.94266],[4.14747336,50.94269516]]]}},{"type":"Feature","id":"gebouw/Gebouw.16563413/0","properties":{"source":"Digitaal Vlaanderen Gebouwenregister","source_id":"gebouw/Gebouw.16563413/0","kind":"building","height_m":9.32,"status":null},"geometry":{"type":"Polygon","coordinates":[[[4.1505212,50.94398142],[4.15058362,50.94400428],[4.15054725,50.9440447],[4.15048689,50.94401881],[4.1505212,50.94398142]]]}},{"type":"Feature","id":"gebouw/Gebouw.16564404/0","properties":{"source":"Digitaal Vlaanderen Gebouwenregister","source_id":"gebouw/Gebouw.16564404/0","kind":"building","height_m":7.16,"status":null},"geometry":{"type":"Polygon","coordinates":[[[4.14729245,50.9422612],[4.14737788,50.94228382],[4.14734671,50.94233081],[4.14725952,50.94230772],[4.14729245,50.9422612]]]}},{"type":"Feature","id":"gebouw/Gebouw.16565059/0","properties":{"source":"Digitaal Vlaanderen Gebouwenregister","source_id":"gebouw/Gebouw.16565059/0","kind":"building","height_m":5.0,"status":null},"geometry":{"type":"Polygon","coordinates":[[[4.15436613,50.94446159],[4.15443787,50.94449091],[4.15436782,50.94455932],[4.15429608,50.94453001],[4.15436613,50.94446159]]]}},{"type":"Feature","id":"gebouw/Gebouw.16565376/0","properties":{"source":"Digitaal Vlaanderen Gebouwenregister","source_id":"gebouw/Gebouw.16565376/0","kind":"building","height_m":6.44,"status":null},"geometry":{"type":"Polygon","coordinates":[[[4.15288405,50.94831461],[4.15291787,50.94832853],[4.1528431,50.94840104],[4.15281029,50.94838754],[4.15279592,50.94838163],[4.15287027,50.94830894],[4.15288405,50.94831461]]]}},{"type":"Feature","id":"gebouw/Gebouw.16565817/0","properties":{"source":"Digitaal Vlaanderen Gebouwenregister","source_id":"gebouw/Gebouw.16565817/0","kind":"building","height_m":6.44,"status":null},"geometry":{"type":"Polygon","coordinates":[[[4.14788948,50.94758234],[4.14808676,50.94762411],[4.14763458,50.94847638],[4.14743729,50.94843461],[4.14758326,50.9481595],[4.14788948,50.94758234]]]}},{"type":"Feature","id":"gebouw/Gebouw.16565943/0","properties":{"source":"Digitaal Vlaanderen Gebouwenregister","source_id":"gebouw/Gebouw.16565943/0","kind":"building","height_m":6.44,"status":null},"geometry":{"type":"Polygon","coordinates":[[[4.15438266,50.94429312],[4.15442538,50.944252],[4.15449421,50.94428053],[4.15445149,50.94432166],[4.15438266,50.94429312]]]}},{"type":"Feature","id":"gebouw/Gebouw.16565977/0","properties":{"source":"Digitaal Vlaanderen Gebouwenregister","source_id":"gebouw/Gebouw.16565977/0","kind":"building","height_m":5.72,"status":null},"geometry":{"type":"Polygon","coordinates":[[[4.14869997,50.94202977],[4.14876872,50.94194961],[4.14885144,50.94197793],[4.14878269,50.94205809],[4.14869997,50.94202977]]]}},{"type":"Feature","id":"gebouw/Gebouw.16566704/0","properties":{"source":"Digitaal Vlaanderen Gebouwenregister","source_id":"gebouw/Gebouw.16566704/0","kind":"building","height_m":5.0,"status":null},"geometry":{"type":"Polygon","coordinates":[[[4.14611826,50.94375178],[4.14607951,50.94379903],[4.14603068,50.94378305],[4.14606944,50.9437358],[4.14611826,50.94375178]]]}},{"type":"Feature","id":"gebouw/Gebouw.16600489/0","properties":{"source":"Digitaal Vlaanderen Gebouwenregister","source_id":"gebouw/Gebouw.16600489/0","kind":"building","height_m":7.16,"status":null},"geometry":{"type":"Polygon","coordinates":[[[4.14742636,50.9427601],[4.14742484,50.9427621],[4.14736619,50.9428392],[4.14727288,50.94281087],[4.14728281,50.94279781],[4.14724769,50.94278714],[4.14728113,50.94274319],[4.14729793,50.9427211],[4.14742636,50.9427601]]]}},{"type":"Feature","id":"gebouw/Gebouw.16604215/0","properties":{"source":"Digitaal Vlaanderen Gebouwenregister","source_id":"gebouw/Gebouw.16604215/0","kind":"building","height_m":8.6,"status":null},"geometry":{"type":"Polygon","coordinates":[[[4.14795915,50.94321458],[4.14793104,50.94324238],[4.14791361,50.94325962],[4.14787362,50.94324374],[4.14784351,50.94327572],[4.14781692,50.9432656],[4.14759609,50.94318157],[4.14764599,50.94312958],[4.14786355,50.94321437],[4.14788745,50.94318762],[4.14795915,50.94321458]]]}},{"type":"Feature","id":"gebouw/Gebouw.16626654/0","properties":{"source":"Digitaal Vlaanderen Gebouwenregister","source_id":"gebouw/Gebouw.16626654/0","kind":"building","height_m":6.44,"status":null},"geometry":{"type":"Polygon","coordinates":[[[4.14618661,50.94360462],[4.14642506,50.94367684],[4.14635572,50.94374434],[4.14607255,50.94366329],[4.14609439,50.94363335],[4.14603647,50.9436159],[4.14606915,50.9435736],[4.14604728,50.94356678],[4.14605988,50.94354941],[4.14599975,50.94353042],[4.14605277,50.94345259],[4.14611292,50.94347133],[4.14614165,50.94348028],[4.14614715,50.94347341],[4.14619337,50.94341566],[4.14633569,50.94346103],[4.1462924,50.94351275],[4.14628253,50.94352455],[4.14626781,50.94354214],[4.14621902,50.94360045],[4.14619674,50.94359232],[4.14618661,50.94360462]]]}},{"type":"Feature","id":"gebouw/Gebouw.16628764/0","properties":{"source":"Digitaal Vlaanderen Gebouwenregister","source_id":"gebouw/Gebouw.16628764/0","kind":"building","height_m":8.6,"status":null},"geometry":{"type":"Polygon","coordinates":[[[4.14754143,50.94260471],[4.14751309,50.94264269],[4.14731266,50.942583],[4.14737026,50.9425058],[4.1473314,50.94249423],[4.14735058,50.94246852],[4.14745486,50.94249958],[4.14744293,50.94251558],[4.1474729,50.94252451],[4.1474682,50.9425308],[4.14746573,50.94253411],[4.14757076,50.94256539],[4.14754143,50.94260471]]]}},{"type":"Feature","id":"gebouw/Gebouw.16730631/0","properties":{"source":"Digitaal Vlaanderen Gebouwenregister","source_id":"gebouw/Gebouw.16730631/0","kind":"building","height_m":5.72,"status":null},"geometry":{"type":"Polygon","coordinates":[[[4.1474678,50.94331521],[4.14746336,50.94331361],[4.14728059,50.94324748],[4.14725352,50.94327687],[4.14716469,50.94324388],[4.14723908,50.94316252],[4.14729358,50.94318267],[4.14732462,50.94314604],[4.14733251,50.94314884],[4.1473446,50.94313599],[4.14721032,50.94308681],[4.14727235,50.9430192],[4.14730122,50.94298774],[4.14738523,50.94301853],[4.14764698,50.94311438],[4.14765705,50.94311807],[4.14764599,50.94312958],[4.14759609,50.94318157],[4.1474678,50.94331521]]]}},{"type":"Feature","id":"gebouw/Gebouw.18250459/0","properties":{"source":"Digitaal Vlaanderen Gebouwenregister","source_id":"gebouw/Gebouw.18250459/0","kind":"building","height_m":7.16,"status":null},"geometry":{"type":"Polygon","coordinates":[[[4.14737076,50.94859125],[4.14757296,50.94863473],[4.14748397,50.94880308],[4.14728108,50.9487597],[4.14737076,50.94859125]]]}},{"type":"Feature","id":"gebouw/Gebouw.18953662/0","properties":{"source":"Digitaal Vlaanderen Gebouwenregister","source_id":"gebouw/Gebouw.18953662/0","kind":"building","height_m":5.0,"status":null},"geometry":{"type":"Polygon","coordinates":[[[4.14705483,50.94858911],[4.14696626,50.94875429],[4.1468439,50.94872811],[4.1469329,50.94856214],[4.14705483,50.94858911]]]}},{"type":"Feature","id":"gebouw/Gebouw.19872376/0","properties":{"source":"Digitaal Vlaanderen Gebouwenregister","source_id":"gebouw/Gebouw.19872376/0","kind":"building","height_m":9.32,"status":null},"geometry":{"type":"Polygon","coordinates":[[[4.14756526,50.94831605],[4.14795164,50.94759381],[4.14829451,50.94766658],[4.1478381,50.94851976],[4.14704573,50.94835171],[4.14750153,50.94749766],[4.14784354,50.94757058],[4.14741159,50.94837903],[4.14751906,50.94840241],[4.1475479,50.9483485],[4.14756526,50.94831605]]]}},{"type":"Feature","id":"gebouw/Gebouw.20145596/0","properties":{"source":"Digitaal Vlaanderen Gebouwenregister","source_id":"gebouw/Gebouw.20145596/0","kind":"building","height_m":6.44,"status":null},"geometry":{"type":"Polygon","coordinates":[[[4.15434571,50.94438899],[4.15430945,50.94437495],[4.15434693,50.9443363],[4.1543832,50.94435034],[4.15434571,50.94438899]]]}},{"type":"Feature","id":"gebouw/Gebouw.20146255/0","properties":{"source":"Digitaal Vlaanderen Gebouwenregister","source_id":"gebouw/Gebouw.20146255/0","kind":"building","height_m":7.16,"status":null},"geometry":{"type":"Polygon","coordinates":[[[4.15298451,50.94816448],[4.15296622,50.94817865],[4.15293147,50.94820555],[4.15279145,50.94813337],[4.15282485,50.94810752],[4.1528445,50.94809231],[4.15298451,50.94816448]]]}},{"type":"Feature","id":"gebouw/Gebouw.20146257/0","properties":{"source":"Digitaal Vlaanderen Gebouwenregister","source_id":"gebouw/Gebouw.20146257/0","kind":"building","height_m":8.6,"status":null},"geometry":{"type":"Polygon","coordinates":[[[4.14448466,50.94479305],[4.14445103,50.9448384],[4.14440868,50.94482586],[4.14442839,50.94479928],[4.14442057,50.94479696],[4.14443449,50.9447782],[4.14448466,50.94479305]]]}},{"type":"Feature","id":"gebouw/Gebouw.20146899/0","properties":{"source":"Digitaal Vlaanderen Gebouwenregister","source_id":"gebouw/Gebouw.20146899/0","kind":"building","height_m":7.16,"status":null},"geometry":{"type":"Polygon","coordinates":[[[4.15061147,50.94387358],[4.15068996,50.94389824],[4.15065619,50.94394114],[4.15058037,50.94403747],[4.15049053,50.94400925],[4.15053181,50.94395679],[4.15060011,50.94387001],[4.15061147,50.94387358]]]}},{"type":"Feature","id":"gebouw/Gebouw.31144919/0","properties":{"source":"Digitaal Vlaanderen Gebouwenregister","source_id":"gebouw/Gebouw.31144919/0","kind":"building","height_m":5.72,"status":null},"geometry":{"type":"Polygon","coordinates":[[[4.15274607,50.94812993],[4.1526964,50.94810393],[4.15275032,50.94806283],[4.15279999,50.94808883],[4.15274607,50.94812993]]]}},{"type":"Feature","id":"gebouw/Gebouw.31144920/0","properties":{"source":"Digitaal Vlaanderen Gebouwenregister","source_id":"gebouw/Gebouw.31144920/0","kind":"building","height_m":6.44,"status":null},"geometry":{"type":"Polygon","coordinates":[[[4.14768999,50.94322802],[4.1476664,50.94325149],[4.14760002,50.94322485],[4.14762361,50.94320139],[4.14768999,50.94322802]]]}},{"type":"Feature","id":"way/28510701","properties":{"source":"OpenStreetMap","source_id":"way/28510701","kind":"vegetation","name":null,"waterway":null,"landuse":"forest"},"geometry":{"type":"Polygon","coordinates":[[[4.1515135,50.9442985],[4.153316,50.9448988],[4.1528181,50.9453909],[4.1539854,50.9458722],[4.1541743,50.9456667],[4.1542858,50.9457045],[4.1538824,50.946175],[4.1537006,50.946132],[4.1531872,50.9465103],[4.1537365,50.9466401],[4.1537709,50.9467158],[4.1538567,50.9467212],[4.1539683,50.946759],[4.1540198,50.9468131],[4.1540884,50.9468348],[4.1541571,50.9469213],[4.1542172,50.9469213],[4.1543116,50.9469375],[4.1543717,50.9470078],[4.1544146,50.9470943],[4.1543974,50.9471268],[4.1539597,50.9475702],[4.1530585,50.9471214],[4.1525091,50.9476838],[4.1511187,50.946878],[4.1513333,50.9467104],[4.149731,50.9463952],[4.1497111,50.9463913],[4.1493677,50.9467645],[4.1488969,50.9470543],[4.1475354,50.9467925],[4.1474795,50.9468348],[4.1473765,50.9468131],[4.1476425,50.9463643],[4.1473851,50.9462832],[4.1477759,50.9454622],[4.1469919,50.9453804],[4.1474709,50.9450069],[4.1467242,50.9446879],[4.1467363,50.9446758],[4.1468272,50.9445851],[4.1481489,50.9451421],[4.14893,50.944412],[4.1507668,50.945061],[4.1515135,50.9442985]]]}},{"type":"Feature","id":"way/160640816","properties":{"source":"OpenStreetMap","source_id":"way/160640816","kind":"vegetation","name":null,"waterway":null,"landuse":"forest"},"geometry":{"type":"Polygon","coordinates":[[[4.1492219,50.9423771],[4.1488916,50.9426737],[4.1483366,50.9424935],[4.1482316,50.9426341],[4.1481323,50.9426008],[4.1479419,50.9428188],[4.1471219,50.9425321],[4.1472988,50.9422943],[4.1473602,50.9422117],[4.1481648,50.9424145],[4.1483958,50.9421371],[4.1492219,50.9423771]]]}},{"type":"Feature","id":"way/160640915","properties":{"source":"OpenStreetMap","source_id":"way/160640915","kind":"vegetation","name":null,"waterway":null,"landuse":"forest"},"geometry":{"type":"Polygon","coordinates":[[[4.147991,50.9434786],[4.1479352,50.9435292],[4.1476641,50.9437754],[4.1474315,50.9436962],[4.1474664,50.9436605],[4.1476166,50.943704],[4.1477959,50.9435183],[4.1472633,50.9433532],[4.1473388,50.9432832],[4.147991,50.9434786]]]}},{"type":"Feature","id":"way/871888974","properties":{"source":"OpenStreetMap","source_id":"way/871888974","kind":"waterway","name":null,"waterway":"ditch","landuse":null},"geometry":{"type":"LineString","coordinates":[[4.1534394,50.9433244],[4.1532029,50.9432598],[4.1533102,50.9431123],[4.1521154,50.9427267],[4.1520057,50.9423841],[4.1516204,50.9421767],[4.1507987,50.941748],[4.1504183,50.9416712],[4.1500428,50.9416251],[4.1500242,50.941619]]}},{"type":"Feature","id":"way/1396287204","properties":{"source":"OpenStreetMap","source_id":"way/1396287204","kind":"water","name":null,"waterway":null,"landuse":null},"geometry":{"type":"Polygon","coordinates":[[[4.1547783,50.9440915],[4.1547807,50.9441062],[4.1547886,50.9441227],[4.1548125,50.9441357],[4.1548457,50.9441451],[4.1549009,50.9441513],[4.1549532,50.944151],[4.1549766,50.944148],[4.1549902,50.9441369],[4.1549977,50.9441262],[4.1549967,50.9441103],[4.1549878,50.9440924],[4.1549738,50.9440756],[4.1549392,50.9440558],[4.1548915,50.9440381],[4.1548616,50.9440381],[4.1548181,50.9440502],[4.1547994,50.9440591],[4.1547863,50.9440711],[4.1547783,50.9440915]]]}},{"type":"Feature","id":"way/1396287555","properties":{"source":"OpenStreetMap","source_id":"way/1396287555","kind":"water","name":null,"waterway":null,"landuse":null},"geometry":{"type":"Polygon","coordinates":[[[4.1550271,50.9445342],[4.1549919,50.9445335],[4.1549638,50.9445158],[4.1549789,50.9444955],[4.154999,50.9444924],[4.1550341,50.9445019],[4.1550422,50.9445221],[4.1550271,50.9445342]]]}},{"type":"Feature","id":"way/1533909686","properties":{"source":"OpenStreetMap","source_id":"way/1533909686","kind":"vegetation","name":null,"waterway":null,"landuse":null},"geometry":{"type":"Polygon","coordinates":[[[4.1513801,50.9485862],[4.1527066,50.9492639],[4.1531778,50.9488282],[4.1518461,50.9481474],[4.1513801,50.9485862]]]}},{"type":"Feature","id":"way/1533909687","properties":{"source":"OpenStreetMap","source_id":"way/1533909687","kind":"vegetation","name":null,"waterway":null,"landuse":null},"geometry":{"type":"Polygon","coordinates":[[[4.1452149,50.9428739],[4.1465375,50.9432608],[4.1468144,50.9428858],[4.1466294,50.942837],[4.1462526,50.9427347],[4.1460367,50.9426798],[4.1459092,50.942668],[4.1457966,50.9426654],[4.1456598,50.9426908],[4.1455281,50.9427264],[4.1452869,50.942802],[4.1452149,50.9428739]]]}}]}