{"type":"FeatureCollection","features":[{"type":"Feature","id":"gebouw/Gebouw.16559945/0","properties":{"source":"Digitaal Vlaanderen Gebouwenregister","source_id":"gebouw/Gebouw.16559945/0","kind":"building","height_m":7.16,"status":null},"geometry":{"type":"Polygon","coordinates":[[[4.14810333,50.93683903],[4.14819461,50.93688413],[4.1480392,50.93701388],[4.14789348,50.93713553],[4.14786836,50.93712347],[4.14798949,50.93702369],[4.14796256,50.93701038],[4.14805845,50.93693291],[4.14805256,50.93693],[4.14811197,50.936882],[4.14807361,50.93686305],[4.14810333,50.93683903]]]}},{"type":"Feature","id":"gebouw/Gebouw.16559955/0","properties":{"source":"Digitaal Vlaanderen Gebouwenregister","source_id":"gebouw/Gebouw.16559955/0","kind":"building","height_m":9.32,"status":null},"geometry":{"type":"Polygon","coordinates":[[[4.14546985,50.93571928],[4.14545043,50.93573663],[4.1454015,50.93571592],[4.14546331,50.93565802],[4.14548131,50.93566571],[4.14543801,50.93570523],[4.14546985,50.93571928]]]}},{"type":"Feature","id":"gebouw/Gebouw.16560145/0","properties":{"source":"Digitaal Vlaanderen Gebouwenregister","source_id":"gebouw/Gebouw.16560145/0","kind":"building","height_m":5.0,"status":null},"geometry":{"type":"Polygon","coordinates":[[[4.14871952,50.93701142],[4.14873849,50.93701672],[4.14872509,50.93703588],[4.14869887,50.93702856],[4.14866056,50.93701786],[4.14867397,50.9369987],[4.14871952,50.93701142]]]}},{"type":"Feature","id":"gebouw/Gebouw.16560404/0","properties":{"source":"Digitaal Vlaanderen Gebouwenregister","source_id":"gebouw/Gebouw.16560404/0","kind":"building","height_m":5.0,"status":null},"geometry":{"type":"Polygon","coordinates":[[[4.14596242,50.93725155],[4.14590737,50.93730684],[4.14586295,50.93728918],[4.145918,50.93723389],[4.14596242,50.93725155]]]}},{"type":"Feature","id":"gebouw/Gebouw.16560410/0","properties":{"source":"Digitaal Vlaanderen Gebouwenregister","source_id":"gebouw/Gebouw.16560410/0","kind":"building","height_m":9.32,"status":null},"geometry":{"type":"Polygon","coordinates":[[[4.14458257,50.93801103],[4.14452586,50.93798788],[4.1445837,50.93793131],[4.14464041,50.93795446],[4.14458257,50.93801103]]]}},{"type":"Feature","id":"gebouw/Gebouw.16560524/0","properties":{"source":"Digitaal Vlaanderen Gebouwenregister","source_id":"gebouw/Gebouw.16560524/0","kind":"building","height_m":5.72,"status":null},"geometry":{"type":"Polygon","coordinates":[[[4.14598131,50.93716587],[4.14592918,50.93721434],[4.14586392,50.93718625],[4.14591514,50.9371366],[4.14598131,50.93716587]]]}},{"type":"Feature","id":"gebouw/Gebouw.16560532/0","properties":{"source":"Digitaal Vlaanderen Gebouwenregister","source_id":"gebouw/Gebouw.16560532/0","kind":"building","height_m":6.44,"status":null},"geometry":{"type":"Polygon","coordinates":[[[4.15138131,50.93538134],[4.15135239,50.93541002],[4.15126607,50.93537527],[4.15130217,50.93533947],[4.15133626,50.9353532],[4.15132909,50.93536031],[4.15138131,50.93538134]]]}},{"type":"Feature","id":"gebouw/Gebouw.16560900/0","properties":{"source":"Digitaal Vlaanderen Gebouwenregister","source_id":"gebouw/Gebouw.16560900/0","kind":"building","height_m":9.32,"status":null},"geometry":{"type":"Polygon","coordinates":[[[4.14582836,50.93614632],[4.14577012,50.93619286],[4.14571115,50.93616483],[4.14576753,50.93611658],[4.14582836,50.93614632]]]}},{"type":"Feature","id":"gebouw/Gebouw.16560901/0","properties":{"source":"Digitaal Vlaanderen Gebouwenregister","source_id":"gebouw/Gebouw.16560901/0","kind":"building","height_m":5.0,"status":null},"geometry":{"type":"Polygon","coordinates":[[[4.14525573,50.93598139],[4.14523537,50.93599903],[4.1451571,50.93596297],[4.14517745,50.93594533],[4.14525573,50.93598139]]]}},{"type":"Feature","id":"gebouw/Gebouw.16560902/0","properties":{"source":"Digitaal Vlaanderen Gebouwenregister","source_id":"gebouw/Gebouw.16560902/0","kind":"building","height_m":5.72,"status":null},"geometry":{"type":"Polygon","coordinates":[[[4.1445161,50.93646301],[4.14445233,50.93642763],[4.14447599,50.93641021],[4.14454005,50.93644567],[4.1445161,50.93646301]]]}},{"type":"Feature","id":"gebouw/Gebouw.16562974/0","properties":{"source":"Digitaal Vlaanderen Gebouwenregister","source_id":"gebouw/Gebouw.16562974/0","kind":"building","height_m":5.72,"status":null},"geometry":{"type":"Polygon","coordinates":[[[4.14688248,50.93891254],[4.14686056,50.93892659],[4.1468042,50.93889151],[4.14682612,50.93887745],[4.14688248,50.93891254]]]}},{"type":"Feature","id":"gebouw/Gebouw.16563080/0","properties":{"source":"Digitaal Vlaanderen Gebouwenregister","source_id":"gebouw/Gebouw.16563080/0","kind":"building","height_m":6.44,"status":null},"geometry":{"type":"Polygon","coordinates":[[[4.14658748,50.93627246],[4.14665589,50.93621387],[4.14660807,50.93619158],[4.14653966,50.93625017],[4.14658748,50.93627246]]]}},{"type":"Feature","id":"gebouw/Gebouw.16563104/0","properties":{"source":"Digitaal Vlaanderen Gebouwenregister","source_id":"gebouw/Gebouw.16563104/0","kind":"building","height_m":8.6,"status":null},"geometry":{"type":"Polygon","coordinates":[[[4.14710002,50.93772994],[4.14712374,50.93770984],[4.14713105,50.93771329],[4.14716712,50.93773029],[4.14714335,50.93775043],[4.14717862,50.93776706],[4.14719202,50.93775571],[4.14722242,50.93777003],[4.14717789,50.93780775],[4.14717487,50.93780633],[4.14715136,50.93782625],[4.1471333,50.93781774],[4.1471279,50.93782231],[4.147055,50.93778795],[4.14709637,50.9377529],[4.14709295,50.93775129],[4.14711167,50.93773543],[4.14710749,50.93773346],[4.14710002,50.93772994]]]}},{"type":"Feature","id":"gebouw/Gebouw.16563105/0","properties":{"source":"Digitaal Vlaanderen Gebouwenregister","source_id":"gebouw/Gebouw.16563105/0","kind":"building","height_m":9.32,"status":null},"geometry":{"type":"Polygon","coordinates":[[[4.146682,50.93707186],[4.14657404,50.93719127],[4.14649842,50.93716536],[4.14660252,50.93705021],[4.14660732,50.93704491],[4.14662966,50.93705297],[4.146682,50.93707186]]]}},{"type":"Feature","id":"gebouw/Gebouw.16563711/0","properties":{"source":"Digitaal Vlaanderen Gebouwenregister","source_id":"gebouw/Gebouw.16563711/0","kind":"building","height_m":7.16,"status":null},"geometry":{"type":"Polygon","coordinates":[[[4.14737768,50.93764575],[4.14733868,50.93767814],[4.14730456,50.93766174],[4.14734356,50.93762935],[4.14737768,50.93764575]]]}},{"type":"Feature","id":"gebouw/Gebouw.16563721/0","properties":{"source":"Digitaal Vlaanderen Gebouwenregister","source_id":"gebouw/Gebouw.16563721/0","kind":"building","height_m":9.32,"status":null},"geometry":{"type":"Polygon","coordinates":[[[4.14684505,50.93746486],[4.14680822,50.9374992],[4.14677989,50.93748707],[4.14681669,50.93745274],[4.14684505,50.93746486]]]}},{"type":"Feature","id":"gebouw/Gebouw.16563789/0","properties":{"source":"Digitaal Vlaanderen Gebouwenregister","source_id":"gebouw/Gebouw.16563789/0","kind":"building","height_m":7.88,"status":null},"geometry":{"type":"Polygon","coordinates":[[[4.14703322,50.93795768],[4.14701687,50.93797167],[4.14699586,50.9379621],[4.14701339,50.93795024],[4.14696763,50.93792419],[4.14699227,50.93790483],[4.14695859,50.93788925],[4.14696167,50.93788676],[4.14695043,50.93788208],[4.14701271,50.93782725],[4.14705823,50.9378479],[4.14702094,50.93787953],[4.14703124,50.93788555],[4.1470217,50.93789283],[4.14704018,50.93790333],[4.14705434,50.93789279],[4.14707768,50.93790543],[4.14702101,50.93795085],[4.14703322,50.93795768]]]}},{"type":"Feature","id":"gebouw/Gebouw.16563890/0","properties":{"source":"Digitaal Vlaanderen Gebouwenregister","source_id":"gebouw/Gebouw.16563890/0","kind":"building","height_m":5.0,"status":null},"geometry":{"type":"Polygon","coordinates":[[[4.14554578,50.9360575],[4.14550403,50.93609578],[4.14549272,50.93610616],[4.14549659,50.93610789],[4.14558148,50.93614584],[4.14559176,50.9361362],[4.14559325,50.93613688],[4.14561635,50.93614752],[4.14566043,50.93610876],[4.14563718,50.93609837],[4.14555023,50.93605949],[4.14554578,50.9360575]]]}},{"type":"Feature","id":"gebouw/Gebouw.16565939/0","properties":{"source":"Digitaal Vlaanderen Gebouwenregister","source_id":"gebouw/Gebouw.16565939/0","kind":"building","height_m":8.6,"status":null},"geometry":{"type":"Polygon","coordinates":[[[4.14591769,50.93630684],[4.14587522,50.93628865],[4.14594945,50.93621948],[4.14599191,50.93623768],[4.14591769,50.93630684]]]}},{"type":"Feature","id":"gebouw/Gebouw.16565948/0","properties":{"source":"Digitaal Vlaanderen Gebouwenregister","source_id":"gebouw/Gebouw.16565948/0","kind":"building","height_m":5.0,"status":null},"geometry":{"type":"Polygon","coordinates":[[[4.14534332,50.93650881],[4.14538213,50.93653216],[4.14533504,50.93656342],[4.14529366,50.93654177],[4.14534332,50.93650881]]]}},{"type":"Feature","id":"gebouw/Gebouw.16565963/0","properties":{"source":"Digitaal Vlaanderen Gebouwenregister","source_id":"gebouw/Gebouw.16565963/0","kind":"building","height_m":5.72,"status":null},"geometry":{"type":"Polygon","coordinates":[[[4.14576636,50.93719886],[4.14573911,50.93722541],[4.14567362,50.93719858],[4.14570087,50.93717203],[4.14576636,50.93719886]]]}},{"type":"Feature","id":"gebouw/Gebouw.16565976/0","properties":{"source":"Digitaal Vlaanderen Gebouwenregister","source_id":"gebouw/Gebouw.16565976/0","kind":"building","height_m":5.0,"status":null},"geometry":{"type":"Polygon","coordinates":[[[4.14530701,50.93658645],[4.14521771,50.93665908],[4.14520346,50.93665113],[4.145244,50.93661943],[4.14517644,50.93658443],[4.14523172,50.93654261],[4.1453103,50.93658408],[4.14530701,50.93658645]]]}},{"type":"Feature","id":"gebouw/Gebouw.16566769/0","properties":{"source":"Digitaal Vlaanderen Gebouwenregister","source_id":"gebouw/Gebouw.16566769/0","kind":"building","height_m":6.44,"status":null},"geometry":{"type":"Polygon","coordinates":[[[4.14540572,50.93595699],[4.14532516,50.93591929],[4.14526127,50.93597268],[4.14531274,50.93599428],[4.1453111,50.93599573],[4.14534156,50.93601037],[4.14534656,50.93601277],[4.14541666,50.93604644],[4.14547723,50.93599045],[4.14540572,50.93595699]]]}},{"type":"Feature","id":"gebouw/Gebouw.16567039/0","properties":{"source":"Digitaal Vlaanderen Gebouwenregister","source_id":"gebouw/Gebouw.16567039/0","kind":"building","height_m":9.32,"status":null},"geometry":{"type":"Polygon","coordinates":[[[4.1465154,50.93634045],[4.14644687,50.93630925],[4.14648758,50.93627355],[4.14655611,50.93630474],[4.1465154,50.93634045]]]}},{"type":"Feature","id":"gebouw/Gebouw.16580345/0","properties":{"source":"Digitaal Vlaanderen Gebouwenregister","source_id":"gebouw/Gebouw.16580345/0","kind":"building","height_m":8.6,"status":null},"geometry":{"type":"Polygon","coordinates":[[[4.14493198,50.9364314],[4.14492978,50.9364331],[4.14491142,50.93642411],[4.14491759,50.93641925],[4.14489784,50.93640938],[4.14489079,50.93641488],[4.14485601,50.93639722],[4.14486344,50.93639125],[4.14484256,50.93638169],[4.14483664,50.93638688],[4.14481987,50.93637836],[4.1448234,50.93637554],[4.14471852,50.93632316],[4.14470614,50.93631698],[4.14487658,50.9362048],[4.1448929,50.93619406],[4.14494971,50.93622852],[4.14487618,50.9362767],[4.1448963,50.93628667],[4.14487414,50.93630387],[4.14489974,50.93631551],[4.14490962,50.93630768],[4.14491519,50.93631045],[4.14502059,50.93636288],[4.14493198,50.9364314]]]}},{"type":"Feature","id":"gebouw/Gebouw.16597973/0","properties":{"source":"Digitaal Vlaanderen Gebouwenregister","source_id":"gebouw/Gebouw.16597973/0","kind":"building","height_m":5.0,"status":null},"geometry":{"type":"Polygon","coordinates":[[[4.14686919,50.93712201],[4.14689201,50.93712932],[4.14689299,50.93712964],[4.14686378,50.93716578],[4.14685528,50.93716317],[4.14679762,50.93714546],[4.14682722,50.93710857],[4.14686919,50.93712201]]]}},{"type":"Feature","id":"gebouw/Gebouw.16600113/0","properties":{"source":"Digitaal Vlaanderen Gebouwenregister","source_id":"gebouw/Gebouw.16600113/0","kind":"building","height_m":8.6,"status":null},"geometry":{"type":"Polygon","coordinates":[[[4.145471,50.93597429],[4.14541016,50.93594746],[4.14541006,50.93594742],[4.14540708,50.93595028],[4.14535019,50.93592576],[4.14556044,50.93572786],[4.14561967,50.93575533],[4.14561598,50.93575871],[4.14566695,50.93578353],[4.14560638,50.93583484],[4.14555939,50.93581061],[4.14555081,50.93580619],[4.14550114,50.93585832],[4.14550526,50.93586025],[4.14551016,50.93586253],[4.14548438,50.93589033],[4.14547628,50.93588683],[4.14547376,50.93588574],[4.14546033,50.93589643],[4.14546414,50.93589796],[4.14550632,50.93591484],[4.14549895,50.93592289],[4.14552041,50.93593104],[4.145471,50.93597429]]]}},{"type":"Feature","id":"gebouw/Gebouw.16600286/0","properties":{"source":"Digitaal Vlaanderen Gebouwenregister","source_id":"gebouw/Gebouw.16600286/0","kind":"building","height_m":7.16,"status":null},"geometry":{"type":"Polygon","coordinates":[[[4.15260905,50.9388862],[4.15266299,50.93889798],[4.15264153,50.93893721],[4.15258759,50.93892544],[4.15260905,50.9388862]]]}},{"type":"Feature","id":"gebouw/Gebouw.16600586/0","properties":{"source":"Digitaal Vlaanderen Gebouwenregister","source_id":"gebouw/Gebouw.16600586/0","kind":"building","height_m":6.44,"status":null},"geometry":{"type":"Polygon","coordinates":[[[4.14546019,50.93578818],[4.14543613,50.9358092],[4.14537948,50.93578341],[4.14535435,50.93580674],[4.14531851,50.93579167],[4.14533658,50.93577447],[4.14534279,50.93576857],[4.14535454,50.93577329],[4.14537983,50.93574864],[4.1453856,50.93575174],[4.14540571,50.93573468],[4.14542903,50.93574401],[4.14540819,50.93576399],[4.14546019,50.93578818]]]}},{"type":"Feature","id":"gebouw/Gebouw.16600716/0","properties":{"source":"Digitaal Vlaanderen Gebouwenregister","source_id":"gebouw/Gebouw.16600716/0","kind":"building","height_m":9.32,"status":null},"geometry":{"type":"Polygon","coordinates":[[[4.14911585,50.93888519],[4.14898341,50.93889573],[4.1489752,50.93885459],[4.14910764,50.93884404],[4.14911585,50.93888519]]]}},{"type":"Feature","id":"gebouw/Gebouw.16601076/0","properties":{"source":"Digitaal Vlaanderen Gebouwenregister","source_id":"gebouw/Gebouw.16601076/0","kind":"building","height_m":6.44,"status":null},"geometry":{"type":"Polygon","coordinates":[[[4.14680416,50.93743299],[4.14669545,50.93754148],[4.14664717,50.9375203],[4.1466998,50.93746701],[4.14662992,50.93743656],[4.14668639,50.93738322],[4.14680416,50.93743299]]]}},{"type":"Feature","id":"gebouw/Gebouw.16601077/0","properties":{"source":"Digitaal Vlaanderen Gebouwenregister","source_id":"gebouw/Gebouw.16601077/0","kind":"building","height_m":7.16,"status":null},"geometry":{"type":"Polygon","coordinates":[[[4.14729314,50.93753339],[4.14732731,50.93750381],[4.14732745,50.9375037],[4.14735294,50.93748163],[4.14738959,50.93749853],[4.14736396,50.93752072],[4.14735885,50.93751836],[4.14735129,50.93751487],[4.14731712,50.93754445],[4.14729314,50.93753339]]]}},{"type":"Feature","id":"gebouw/Gebouw.16601079/0","properties":{"source":"Digitaal Vlaanderen Gebouwenregister","source_id":"gebouw/Gebouw.16601079/0","kind":"building","height_m":8.6,"status":null},"geometry":{"type":"Polygon","coordinates":[[[4.14694816,50.93739607],[4.14688353,50.93745089],[4.14684096,50.93743083],[4.14687661,50.93739862],[4.14690297,50.9373748],[4.14694816,50.93739607]]]}},{"type":"Feature","id":"gebouw/Gebouw.16601157/0","properties":{"source":"Digitaal Vlaanderen Gebouwenregister","source_id":"gebouw/Gebouw.16601157/0","kind":"building","height_m":9.32,"status":null},"geometry":{"type":"Polygon","coordinates":[[[4.14733776,50.93731959],[4.14727001,50.93737749],[4.14721683,50.93735294],[4.14728479,50.93729485],[4.14733776,50.93731959]]]}},{"type":"Feature","id":"gebouw/Gebouw.16601271/0","properties":{"source":"Digitaal Vlaanderen Gebouwenregister","source_id":"gebouw/Gebouw.16601271/0","kind":"building","height_m":5.72,"status":null},"geometry":{"type":"Polygon","coordinates":[[[4.14612582,50.93655469],[4.14611271,50.93654858],[4.14609353,50.93656497],[4.1460532,50.93654614],[4.14617554,50.93644156],[4.14622465,50.93646451],[4.14614727,50.93653512],[4.14612582,50.93655469]]]}},{"type":"Feature","id":"gebouw/Gebouw.16601273/0","properties":{"source":"Digitaal Vlaanderen Gebouwenregister","source_id":"gebouw/Gebouw.16601273/0","kind":"building","height_m":7.16,"status":null},"geometry":{"type":"Polygon","coordinates":[[[4.15111026,50.93726762],[4.151088,50.93725821],[4.15105896,50.93728562],[4.15102629,50.9372718],[4.15099083,50.93730527],[4.15097344,50.93729791],[4.15093983,50.93729791],[4.15094316,50.93727602],[4.15089436,50.93725382],[4.15092075,50.9372289],[4.15096373,50.93724708],[4.15103607,50.93717879],[4.15115075,50.93722729],[4.15111026,50.93726762]]]}},{"type":"Feature","id":"gebouw/Gebouw.16610301/0","properties":{"source":"Digitaal Vlaanderen Gebouwenregister","source_id":"gebouw/Gebouw.16610301/0","kind":"building","height_m":5.72,"status":null},"geometry":{"type":"Polygon","coordinates":[[[4.14771368,50.93704457],[4.14779459,50.93708258],[4.14783547,50.93704784],[4.14784258,50.93705118],[4.14787639,50.93702245],[4.14793899,50.93705187],[4.1479044,50.93708126],[4.14790915,50.93708349],[4.14786647,50.93711976],[4.14784959,50.93711183],[4.14773292,50.93720973],[4.14767956,50.93718434],[4.14770763,50.93716074],[4.14768067,50.93714837],[4.14767253,50.93715509],[4.14766429,50.93715148],[4.14766752,50.9371486],[4.14761841,50.93712553],[4.14771368,50.93704457]]]}},{"type":"Feature","id":"gebouw/Gebouw.16610671/0","properties":{"source":"Digitaal Vlaanderen Gebouwenregister","source_id":"gebouw/Gebouw.16610671/0","kind":"building","height_m":5.0,"status":null},"geometry":{"type":"Polygon","coordinates":[[[4.14526005,50.93616654],[4.14516816,50.93623765],[4.14498144,50.93614675],[4.14508336,50.93606317],[4.14513671,50.93608914],[4.14521618,50.93612783],[4.14520364,50.93613918],[4.14526005,50.93616654]]]}},{"type":"Feature","id":"gebouw/Gebouw.16612498/0","properties":{"source":"Digitaal Vlaanderen Gebouwenregister","source_id":"gebouw/Gebouw.16612498/0","kind":"building","height_m":5.0,"status":null},"geometry":{"type":"Polygon","coordinates":[[[4.14783683,50.93765712],[4.14776995,50.93762114],[4.14766566,50.93769853],[4.14759694,50.93766155],[4.1477584,50.93754101],[4.14789457,50.93761428],[4.14783683,50.93765712]]]}},{"type":"Feature","id":"gebouw/Gebouw.16612597/0","properties":{"source":"Digitaal Vlaanderen Gebouwenregister","source_id":"gebouw/Gebouw.16612597/0","kind":"building","height_m":5.72,"status":null},"geometry":{"type":"Polygon","coordinates":[[[4.15140044,50.93699369],[4.15146914,50.93702234],[4.15144842,50.93704217],[4.15155996,50.93708871],[4.15141648,50.937226],[4.1512301,50.93714824],[4.15136966,50.93700922],[4.15137959,50.93701337],[4.15140044,50.93699369]]]}},{"type":"Feature","id":"gebouw/Gebouw.16615491/0","properties":{"source":"Digitaal Vlaanderen Gebouwenregister","source_id":"gebouw/Gebouw.16615491/0","kind":"building","height_m":7.88,"status":null},"geometry":{"type":"Polygon","coordinates":[[[4.14656392,50.93743721],[4.14655965,50.93743556],[4.14653454,50.93742586],[4.14653284,50.93742814],[4.14648012,50.93740689],[4.14648928,50.93739837],[4.14644407,50.93737886],[4.1464646,50.93735991],[4.14645522,50.93735602],[4.14650341,50.93731354],[4.14657013,50.93734089],[4.14660532,50.93731003],[4.14658698,50.93730168],[4.1466836,50.93721696],[4.14662977,50.93719244],[4.14669221,50.93713769],[4.14681985,50.93719581],[4.1468261,50.93719866],[4.14678726,50.93725098],[4.14677959,50.93724853],[4.14656392,50.93743721]]]}},{"type":"Feature","id":"gebouw/Gebouw.16617442/0","properties":{"source":"Digitaal Vlaanderen Gebouwenregister","source_id":"gebouw/Gebouw.16617442/0","kind":"building","height_m":6.44,"status":null},"geometry":{"type":"Polygon","coordinates":[[[4.14718998,50.93743041],[4.14717355,50.93742325],[4.14718166,50.93741582],[4.14716378,50.93740803],[4.14714724,50.93742317],[4.14704811,50.93737997],[4.14704648,50.93738146],[4.147015,50.93736774],[4.14702356,50.93735989],[4.14700116,50.93735013],[4.14701307,50.93733922],[4.1469762,50.93732315],[4.14700113,50.93730032],[4.14710513,50.93720506],[4.14718141,50.93723831],[4.14711049,50.93730327],[4.14721683,50.93735294],[4.14727001,50.93737749],[4.14723617,50.93740641],[4.14721135,50.93742763],[4.14719893,50.93742222],[4.14718998,50.93743041]]]}},{"type":"Feature","id":"gebouw/Gebouw.16617837/0","properties":{"source":"Digitaal Vlaanderen Gebouwenregister","source_id":"gebouw/Gebouw.16617837/0","kind":"building","height_m":8.6,"status":null},"geometry":{"type":"Polygon","coordinates":[[[4.14759384,50.93747956],[4.14773521,50.93755134],[4.14755358,50.93768917],[4.14752617,50.93767442],[4.14748594,50.93770427],[4.1474453,50.9376824],[4.14750295,50.93763962],[4.14751782,50.93763878],[4.14757024,50.93759862],[4.14760333,50.93757327],[4.1475621,50.93755248],[4.14757976,50.93753926],[4.14756165,50.9375304],[4.14754358,50.93754532],[4.14752705,50.93753684],[4.14759384,50.93747956]]]}},{"type":"Feature","id":"gebouw/Gebouw.16619976/0","properties":{"source":"Digitaal Vlaanderen Gebouwenregister","source_id":"gebouw/Gebouw.16619976/0","kind":"building","height_m":6.44,"status":null},"geometry":{"type":"Polygon","coordinates":[[[4.14553817,50.93641019],[4.14551841,50.93642816],[4.1454292,50.93638828],[4.14543268,50.93638517],[4.14561947,50.93621836],[4.1457087,50.93625513],[4.14565546,50.93630354],[4.14553817,50.93641019]]]}},{"type":"Feature","id":"gebouw/Gebouw.16622410/0","properties":{"source":"Digitaal Vlaanderen Gebouwenregister","source_id":"gebouw/Gebouw.16622410/0","kind":"building","height_m":5.0,"status":null},"geometry":{"type":"Polygon","coordinates":[[[4.14517989,50.9365401],[4.14514201,50.93656469],[4.14510219,50.93653755],[4.1451393,50.93651426],[4.14515693,50.93652549],[4.14517989,50.9365401]]]}},{"type":"Feature","id":"gebouw/Gebouw.16624615/0","properties":{"source":"Digitaal Vlaanderen Gebouwenregister","source_id":"gebouw/Gebouw.16624615/0","kind":"building","height_m":5.0,"status":null},"geometry":{"type":"Polygon","coordinates":[[[4.15011338,50.93937985],[4.15000218,50.93927772],[4.15013308,50.93922082],[4.1501163,50.9392054],[4.15019812,50.93916984],[4.15021559,50.93918589],[4.1502274,50.93918076],[4.15031525,50.93926144],[4.15026226,50.93928447],[4.1502676,50.93928938],[4.1501823,50.93932645],[4.15019962,50.93934236],[4.15011338,50.93937985]]]}},{"type":"Feature","id":"gebouw/Gebouw.16624621/0","properties":{"source":"Digitaal Vlaanderen Gebouwenregister","source_id":"gebouw/Gebouw.16624621/0","kind":"building","height_m":9.32,"status":null},"geometry":{"type":"Polygon","coordinates":[[[4.14541531,50.93635034],[4.14541075,50.93635443],[4.14528202,50.93629937],[4.14528565,50.93629605],[4.14539011,50.93620025],[4.14542843,50.93616512],[4.14551742,50.93620599],[4.14558148,50.93614584],[4.14559176,50.9361362],[4.14559325,50.93613688],[4.14561635,50.93614752],[4.14563052,50.93615406],[4.14552038,50.93625578],[4.14547425,50.93629729],[4.14541531,50.93635034]]]}},{"type":"Feature","id":"gebouw/Gebouw.16625825/0","properties":{"source":"Digitaal Vlaanderen Gebouwenregister","source_id":"gebouw/Gebouw.16625825/0","kind":"building","height_m":9.32,"status":null},"geometry":{"type":"Polygon","coordinates":[[[4.14791082,50.9378116],[4.14773464,50.93787739],[4.14767595,50.93781295],[4.14778946,50.93777366],[4.14784586,50.93775414],[4.14785496,50.93775099],[4.14785764,50.93775401],[4.14783945,50.93776076],[4.14786299,50.93778661],[4.14788141,50.93777969],[4.14788431,50.93778281],[4.14786601,50.93778953],[4.14788945,50.93781532],[4.14790813,50.93780851],[4.14791082,50.9378116]]]}},{"type":"Feature","id":"gebouw/Gebouw.16626205/0","properties":{"source":"Digitaal Vlaanderen Gebouwenregister","source_id":"gebouw/Gebouw.16626205/0","kind":"building","height_m":5.72,"status":null},"geometry":{"type":"Polygon","coordinates":[[[4.14744972,50.93760315],[4.14741233,50.93763521],[4.14734449,50.93760597],[4.14741194,50.93754349],[4.14739069,50.93753433],[4.14742902,50.93749882],[4.1474007,50.93748661],[4.14736694,50.93747206],[4.14746264,50.93738357],[4.14762312,50.93745286],[4.14759384,50.93747956],[4.14752705,50.93753684],[4.14749194,50.93756695],[4.14744972,50.93760315]]]}},{"type":"Feature","id":"gebouw/Gebouw.16628735/0","properties":{"source":"Digitaal Vlaanderen Gebouwenregister","source_id":"gebouw/Gebouw.16628735/0","kind":"building","height_m":7.88,"status":null},"geometry":{"type":"Polygon","coordinates":[[[4.15125283,50.93741724],[4.15126866,50.93740287],[4.15130708,50.93741976],[4.15129069,50.93743464],[4.15138052,50.93747412],[4.15124185,50.93760006],[4.15100451,50.93749573],[4.15114374,50.93736929],[4.15125283,50.93741724]]]}},{"type":"Feature","id":"gebouw/Gebouw.16635675/0","properties":{"source":"Digitaal Vlaanderen Gebouwenregister","source_id":"gebouw/Gebouw.16635675/0","kind":"building","height_m":5.0,"status":null},"geometry":{"type":"Polygon","coordinates":[[[4.14436527,50.93631132],[4.14433325,50.93629251],[4.14431001,50.93627667],[4.14429686,50.93628638],[4.14422752,50.9362438],[4.14429834,50.93619791],[4.14430393,50.93619428],[4.14443552,50.93610888],[4.14445541,50.93612098],[4.14448444,50.93609933],[4.14447957,50.93609694],[4.14455091,50.93604017],[4.14459255,50.93606156],[4.14472388,50.93612903],[4.14465457,50.9361829],[4.1446487,50.93618746],[4.14467159,50.9361998],[4.14464791,50.9362189],[4.14462672,50.93620841],[4.14458612,50.93623965],[4.14462193,50.9362574],[4.14457761,50.93629155],[4.14454435,50.93627538],[4.14450187,50.93630756],[4.14443155,50.93627049],[4.1445474,50.93617784],[4.14453185,50.93616874],[4.1444864,50.93619861],[4.14445711,50.93619166],[4.14444587,50.93619085],[4.14439876,50.93622392],[4.14444748,50.93625222],[4.14442676,50.93626763],[4.14437637,50.93623754],[4.14437129,50.93624075],[4.14442309,50.93627241],[4.14436527,50.93631132]]]}},{"type":"Feature","id":"gebouw/Gebouw.16637974/0","properties":{"source":"Digitaal Vlaanderen Gebouwenregister","source_id":"gebouw/Gebouw.16637974/0","kind":"building","height_m":7.16,"status":null},"geometry":{"type":"Polygon","coordinates":[[[4.14703872,50.93725216],[4.14696327,50.93722786],[4.14691244,50.93729095],[4.14678726,50.93725098],[4.1468261,50.93719866],[4.14683437,50.93720273],[4.14684413,50.93719046],[4.14686378,50.93716578],[4.14689299,50.93712964],[4.1468975,50.93712427],[4.14710593,50.93719144],[4.14703872,50.93725216]]]}},{"type":"Feature","id":"gebouw/Gebouw.16638969/0","properties":{"source":"Digitaal Vlaanderen Gebouwenregister","source_id":"gebouw/Gebouw.16638969/0","kind":"building","height_m":7.88,"status":null},"geometry":{"type":"Polygon","coordinates":[[[4.14505068,50.9364843],[4.14504278,50.93648944],[4.14493198,50.9364314],[4.14502059,50.93636288],[4.14503517,50.93635161],[4.1451119,50.93639246],[4.14517921,50.9363468],[4.14522231,50.93637289],[4.14506545,50.93647472],[4.14505068,50.9364843]]]}},{"type":"Feature","id":"gebouw/Gebouw.16639329/0","properties":{"source":"Digitaal Vlaanderen Gebouwenregister","source_id":"gebouw/Gebouw.16639329/0","kind":"building","height_m":5.0,"status":null},"geometry":{"type":"Polygon","coordinates":[[[4.14641093,50.93712117],[4.14637188,50.93715713],[4.14638504,50.93716413],[4.1463064,50.93723307],[4.14625171,50.93720917],[4.14626228,50.93720117],[4.14626189,50.93719075],[4.14621624,50.93717118],[4.14633989,50.93705622],[4.14639872,50.93708154],[4.14638416,50.93709508],[4.14637353,50.93710496],[4.14641093,50.93712117]]]}},{"type":"Feature","id":"gebouw/Gebouw.16639469/0","properties":{"source":"Digitaal Vlaanderen Gebouwenregister","source_id":"gebouw/Gebouw.16639469/0","kind":"building","height_m":5.0,"status":null},"geometry":{"type":"Polygon","coordinates":[[[4.14482047,50.93617692],[4.14477901,50.93620998],[4.1447901,50.93621544],[4.14475695,50.93624231],[4.14475431,50.93624088],[4.14472904,50.93625904],[4.14464774,50.93621881],[4.14467821,50.93619451],[4.14474662,50.93613995],[4.14482047,50.93617692]]]}},{"type":"Feature","id":"gebouw/Gebouw.16704773/0","properties":{"source":"Digitaal Vlaanderen Gebouwenregister","source_id":"gebouw/Gebouw.16704773/0","kind":"building","height_m":5.72,"status":null},"geometry":{"type":"Polygon","coordinates":[[[4.14539011,50.93620025],[4.14528565,50.93629605],[4.14516816,50.93623765],[4.14526005,50.93616654],[4.14527382,50.93615589],[4.14528212,50.93614946],[4.14535015,50.936183],[4.1453609,50.93617369],[4.14537899,50.93615801],[4.14539624,50.93614306],[4.14543531,50.9361588],[4.14542843,50.93616512],[4.14539011,50.93620025]]]}},{"type":"Feature","id":"gebouw/Gebouw.16705536/0","properties":{"source":"Digitaal Vlaanderen Gebouwenregister","source_id":"gebouw/Gebouw.16705536/0","kind":"building","height_m":5.72,"status":null},"geometry":{"type":"Polygon","coordinates":[[[4.14504249,50.93652305],[4.14501532,50.93650726],[4.14504278,50.93648944],[4.14506545,50.93647472],[4.14522231,50.93637289],[4.14533422,50.93643991],[4.14533028,50.93644247],[4.14524651,50.93649686],[4.14518983,50.93646347],[4.14517789,50.93647123],[4.14516437,50.93646241],[4.14510882,50.93649848],[4.14509155,50.93648901],[4.14504249,50.93652305]]]}},{"type":"Feature","id":"gebouw/Gebouw.16714012/0","properties":{"source":"Digitaal Vlaanderen Gebouwenregister","source_id":"gebouw/Gebouw.16714012/0","kind":"building","height_m":5.0,"status":null},"geometry":{"type":"Polygon","coordinates":[[[4.14778813,50.93771802],[4.14776588,50.93773489],[4.14771262,50.93777529],[4.14769723,50.93776718],[4.1476572,50.93774612],[4.1477327,50.93768885],[4.14778813,50.93771802]]]}},{"type":"Feature","id":"gebouw/Gebouw.16896141/0","properties":{"source":"Digitaal Vlaanderen Gebouwenregister","source_id":"gebouw/Gebouw.16896141/0","kind":"building","height_m":7.16,"status":null},"geometry":{"type":"Polygon","coordinates":[[[4.14635042,50.93648757],[4.14611541,50.93669494],[4.14603293,50.93665706],[4.14610467,50.93659469],[4.14615014,50.93661392],[4.14619429,50.93657511],[4.14619735,50.93657242],[4.14624376,50.93652877],[4.14623015,50.93652183],[4.14626115,50.93649415],[4.14629661,50.93646249],[4.14635042,50.93648757]]]}},{"type":"Feature","id":"gebouw/Gebouw.16896359/0","properties":{"source":"Digitaal Vlaanderen Gebouwenregister","source_id":"gebouw/Gebouw.16896359/0","kind":"building","height_m":7.88,"status":null},"geometry":{"type":"Polygon","coordinates":[[[4.15200077,50.938886],[4.15197272,50.93893772],[4.15197007,50.93893729],[4.15191347,50.93892809],[4.15194307,50.93887351],[4.15200077,50.938886]]]}},{"type":"Feature","id":"gebouw/Gebouw.16896408/0","properties":{"source":"Digitaal Vlaanderen Gebouwenregister","source_id":"gebouw/Gebouw.16896408/0","kind":"building","height_m":7.88,"status":null},"geometry":{"type":"Polygon","coordinates":[[[4.14621624,50.93717118],[4.14633989,50.93705622],[4.14628809,50.93703392],[4.14627848,50.93704278],[4.14621263,50.93701445],[4.14607385,50.93714322],[4.14612595,50.93716556],[4.14609401,50.9371953],[4.1461599,50.93722355],[4.14619498,50.93719093],[4.14621624,50.93717118]]]}},{"type":"Feature","id":"gebouw/Gebouw.16915032/0","properties":{"source":"Digitaal Vlaanderen Gebouwenregister","source_id":"gebouw/Gebouw.16915032/0","kind":"building","height_m":5.72,"status":null},"geometry":{"type":"Polygon","coordinates":[[[4.14565546,50.93630354],[4.1456709,50.93630997],[4.14568916,50.93629335],[4.1457563,50.93632366],[4.14575261,50.93634415],[4.1457417,50.9363671],[4.14573504,50.93637391],[4.14572742,50.93637102],[4.14564868,50.93644064],[4.14563878,50.93644059],[4.1456321,50.93643993],[4.14562494,50.93643853],[4.14561853,50.93643678],[4.14561371,50.93643496],[4.14560003,50.93642854],[4.14559243,50.93643492],[4.14553817,50.93641019],[4.14565546,50.93630354]]]}},{"type":"Feature","id":"gebouw/Gebouw.16915079/0","properties":{"source":"Digitaal Vlaanderen Gebouwenregister","source_id":"gebouw/Gebouw.16915079/0","kind":"building","height_m":9.32,"status":null},"geometry":{"type":"Polygon","coordinates":[[[4.14575923,50.93642778],[4.14578207,50.93643815],[4.14578033,50.93645319],[4.14578334,50.93645467],[4.14577051,50.93646639],[4.14582677,50.93649181],[4.14582754,50.93649108],[4.14582985,50.93649207],[4.1459378,50.93639133],[4.14588265,50.93636723],[4.14587492,50.93637452],[4.1458643,50.93637037],[4.14583925,50.93639385],[4.14581087,50.93638237],[4.14575923,50.93642778]]]}},{"type":"Feature","id":"gebouw/Gebouw.16915449/0","properties":{"source":"Digitaal Vlaanderen Gebouwenregister","source_id":"gebouw/Gebouw.16915449/0","kind":"building","height_m":8.6,"status":null},"geometry":{"type":"Polygon","coordinates":[[[4.14541455,50.93666827],[4.1453773,50.93664886],[4.14530103,50.93670551],[4.14522143,50.93666115],[4.14521771,50.93665908],[4.14520415,50.93665152],[4.14529809,50.93658176],[4.14530691,50.93658652],[4.1453689,50.93661996],[4.1454323,50.93657181],[4.14549562,50.93660341],[4.14541455,50.93666827]]]}},{"type":"Feature","id":"gebouw/Gebouw.18730576/0","properties":{"source":"Digitaal Vlaanderen Gebouwenregister","source_id":"gebouw/Gebouw.18730576/0","kind":"building","height_m":7.88,"status":null},"geometry":{"type":"Polygon","coordinates":[[[4.14650571,50.93537124],[4.14653901,50.93534616],[4.14657828,50.93536489],[4.14654541,50.93538984],[4.14650571,50.93537124]]]}},{"type":"Feature","id":"gebouw/Gebouw.18730577/0","properties":{"source":"Digitaal Vlaanderen Gebouwenregister","source_id":"gebouw/Gebouw.18730577/0","kind":"building","height_m":8.6,"status":null},"geometry":{"type":"Polygon","coordinates":[[[4.1463964,50.93544202],[4.14645224,50.93540039],[4.14648143,50.93541356],[4.14642451,50.93545708],[4.1463964,50.93544202]]]}},{"type":"Feature","id":"gebouw/Gebouw.18730578/0","properties":{"source":"Digitaal Vlaanderen Gebouwenregister","source_id":"gebouw/Gebouw.18730578/0","kind":"building","height_m":9.32,"status":null},"geometry":{"type":"Polygon","coordinates":[[[4.1463006,50.93551917],[4.14635573,50.9354795],[4.1463882,50.93549573],[4.14633214,50.93553559],[4.1463006,50.93551917]]]}},{"type":"Feature","id":"gebouw/Gebouw.18730580/0","properties":{"source":"Digitaal Vlaanderen Gebouwenregister","source_id":"gebouw/Gebouw.18730580/0","kind":"building","height_m":5.72,"status":null},"geometry":{"type":"Polygon","coordinates":[[[4.14539283,50.93543779],[4.14543708,50.93539223],[4.14548752,50.93541259],[4.14544433,50.93545748],[4.14539283,50.93543779]]]}},{"type":"Feature","id":"gebouw/Gebouw.18730581/0","properties":{"source":"Digitaal Vlaanderen Gebouwenregister","source_id":"gebouw/Gebouw.18730581/0","kind":"building","height_m":6.44,"status":null},"geometry":{"type":"Polygon","coordinates":[[[4.14519239,50.9359342],[4.14521688,50.93591345],[4.14526774,50.9359353],[4.14524003,50.935957],[4.14519239,50.9359342]]]}},{"type":"Feature","id":"gebouw/Gebouw.18730582/0","properties":{"source":"Digitaal Vlaanderen Gebouwenregister","source_id":"gebouw/Gebouw.18730582/0","kind":"building","height_m":7.16,"status":null},"geometry":{"type":"Polygon","coordinates":[[[4.14748096,50.93734183],[4.14742718,50.93738691],[4.1473701,50.93735814],[4.14741972,50.93731406],[4.14747482,50.93733905],[4.14748096,50.93734183]]]}},{"type":"Feature","id":"gebouw/Gebouw.18730583/0","properties":{"source":"Digitaal Vlaanderen Gebouwenregister","source_id":"gebouw/Gebouw.18730583/0","kind":"building","height_m":7.88,"status":null},"geometry":{"type":"Polygon","coordinates":[[[4.14651669,50.93747514],[4.14648163,50.93750744],[4.14646592,50.93752192],[4.14644301,50.93751265],[4.14646142,50.93749715],[4.14649714,50.93746709],[4.14651669,50.93747514]]]}},{"type":"Feature","id":"gebouw/Gebouw.18730584/0","properties":{"source":"Digitaal Vlaanderen Gebouwenregister","source_id":"gebouw/Gebouw.18730584/0","kind":"building","height_m":8.6,"status":null},"geometry":{"type":"Polygon","coordinates":[[[4.14444107,50.93675747],[4.14447458,50.93673686],[4.14455526,50.93678572],[4.14452562,50.9368066],[4.14449171,50.93678679],[4.14448871,50.93678909],[4.14444107,50.93675747]]]}},{"type":"Feature","id":"gebouw/Gebouw.18730901/0","properties":{"source":"Digitaal Vlaanderen Gebouwenregister","source_id":"gebouw/Gebouw.18730901/0","kind":"building","height_m":5.0,"status":null},"geometry":{"type":"Polygon","coordinates":[[[4.15077204,50.93827062],[4.15075729,50.93830777],[4.15068368,50.93829182],[4.15070037,50.9382586],[4.15077204,50.93827062]]]}},{"type":"Feature","id":"gebouw/Gebouw.18954221/0","properties":{"source":"Digitaal Vlaanderen Gebouwenregister","source_id":"gebouw/Gebouw.18954221/0","kind":"building","height_m":9.32,"status":null},"geometry":{"type":"Polygon","coordinates":[[[4.14577229,50.93690025],[4.1456255,50.93700612],[4.14554857,50.93696369],[4.14555915,50.93695553],[4.14554799,50.93694775],[4.14552916,50.9369341],[4.1455168,50.93692126],[4.14551043,50.93690972],[4.14550706,50.9368974],[4.14550741,50.93688777],[4.14550897,50.93688225],[4.14539995,50.93682373],[4.14544321,50.9367944],[4.14543501,50.93678856],[4.145507,50.9367366],[4.14562063,50.93679945],[4.14561306,50.93680491],[4.14565359,50.93682748],[4.14566098,50.93682208],[4.14567719,50.93683095],[4.14569191,50.93681983],[4.14575211,50.93685339],[4.14572405,50.93687355],[4.14577229,50.93690025]]]}},{"type":"Feature","id":"gebouw/Gebouw.18978274/0","properties":{"source":"Digitaal Vlaanderen Gebouwenregister","source_id":"gebouw/Gebouw.18978274/0","kind":"building","height_m":5.0,"status":null},"geometry":{"type":"Polygon","coordinates":[[[4.14794326,50.93794715],[4.14792419,50.9379065],[4.1478024,50.9379293],[4.14774608,50.93793985],[4.14775285,50.93795352],[4.14770499,50.93796299],[4.14770904,50.93797116],[4.1476543,50.93798199],[4.14768169,50.93803728],[4.14782306,50.93801022],[4.1479322,50.93798933],[4.14792227,50.93796823],[4.14792341,50.93796784],[4.14791648,50.93795308],[4.14791971,50.93795243],[4.14791938,50.93795165],[4.14794326,50.93794715]]]}},{"type":"Feature","id":"gebouw/Gebouw.18978707/0","properties":{"source":"Digitaal Vlaanderen Gebouwenregister","source_id":"gebouw/Gebouw.18978707/0","kind":"building","height_m":9.32,"status":null},"geometry":{"type":"Polygon","coordinates":[[[4.14608536,50.93701598],[4.14594457,50.93695556],[4.14586914,50.93702573],[4.14586464,50.93702381],[4.14581812,50.93706709],[4.14588605,50.93709607],[4.14589713,50.93708571],[4.14593424,50.93710154],[4.14596886,50.93706914],[4.14600955,50.93708651],[4.14608536,50.93701598]]]}},{"type":"Feature","id":"gebouw/Gebouw.18997355/0","properties":{"source":"Digitaal Vlaanderen Gebouwenregister","source_id":"gebouw/Gebouw.18997355/0","kind":"building","height_m":9.32,"status":null},"geometry":{"type":"Polygon","coordinates":[[[4.15204273,50.93722318],[4.15211601,50.93725579],[4.15206908,50.93729789],[4.1520945,50.9373092],[4.15205778,50.93734215],[4.15195908,50.93729823],[4.15204273,50.93722318]]]}},{"type":"Feature","id":"gebouw/Gebouw.19790173/0","properties":{"source":"Digitaal Vlaanderen Gebouwenregister","source_id":"gebouw/Gebouw.19790173/0","kind":"building","height_m":7.88,"status":null},"geometry":{"type":"Polygon","coordinates":[[[4.14742062,50.93731536],[4.14747765,50.93734241],[4.14742675,50.93738515],[4.14736977,50.93735806],[4.14742062,50.93731536]]]}},{"type":"Feature","id":"gebouw/Gebouw.19872239/0","properties":{"source":"Digitaal Vlaanderen Gebouwenregister","source_id":"gebouw/Gebouw.19872239/0","kind":"building","height_m":6.44,"status":null},"geometry":{"type":"Polygon","coordinates":[[[4.14541402,50.93594916],[4.14541102,50.93595199],[4.14535019,50.93592576],[4.14556044,50.93572786],[4.1456196,50.9357553],[4.14561598,50.93575871],[4.14556039,50.93581113],[4.14555081,50.93580619],[4.14550114,50.93585832],[4.1455073,50.9358612],[4.14547891,50.93588797],[4.14547376,50.93588574],[4.14546033,50.93589643],[4.14546708,50.93589913],[4.14541402,50.93594916]]]}},{"type":"Feature","id":"gebouw/Gebouw.19872242/0","properties":{"source":"Digitaal Vlaanderen Gebouwenregister","source_id":"gebouw/Gebouw.19872242/0","kind":"building","height_m":8.6,"status":null},"geometry":{"type":"Polygon","coordinates":[[[4.14546708,50.93589913],[4.14550632,50.93591484],[4.14549895,50.93592289],[4.14552041,50.93593104],[4.145471,50.93597429],[4.14541402,50.93594916],[4.14546708,50.93589913]]]}},{"type":"Feature","id":"gebouw/Gebouw.19872244/0","properties":{"source":"Digitaal Vlaanderen Gebouwenregister","source_id":"gebouw/Gebouw.19872244/0","kind":"building","height_m":5.0,"status":null},"geometry":{"type":"Polygon","coordinates":[[[4.14566695,50.93578353],[4.14558063,50.93585904],[4.14553276,50.93583719],[4.14556039,50.93581113],[4.14561598,50.93575871],[4.14566695,50.93578353]]]}},{"type":"Feature","id":"gebouw/Gebouw.19872363/0","properties":{"source":"Digitaal Vlaanderen Gebouwenregister","source_id":"gebouw/Gebouw.19872363/0","kind":"building","height_m":5.0,"status":null},"geometry":{"type":"Polygon","coordinates":[[[4.14522143,50.93666115],[4.14517313,50.93669319],[4.14509204,50.93664671],[4.14523182,50.93654516],[4.14529809,50.93658176],[4.14520415,50.93665152],[4.14521771,50.93665908],[4.14522143,50.93666115]]]}},{"type":"Feature","id":"gebouw/Gebouw.19873723/0","properties":{"source":"Digitaal Vlaanderen Gebouwenregister","source_id":"gebouw/Gebouw.19873723/0","kind":"building","height_m":6.44,"status":null},"geometry":{"type":"Polygon","coordinates":[[[4.14439876,50.93622392],[4.14444748,50.93625222],[4.14442676,50.93626763],[4.14429903,50.93619794],[4.1443043,50.9361945],[4.14443552,50.93610888],[4.14445541,50.93612098],[4.14448444,50.93609933],[4.14458946,50.93615092],[4.14455067,50.93617976],[4.14453185,50.93616874],[4.1444864,50.93619861],[4.14445711,50.93619166],[4.14444587,50.93619085],[4.14439876,50.93622392]]]}},{"type":"Feature","id":"gebouw/Gebouw.19873724/0","properties":{"source":"Digitaal Vlaanderen Gebouwenregister","source_id":"gebouw/Gebouw.19873724/0","kind":"building","height_m":7.16,"status":null},"geometry":{"type":"Polygon","coordinates":[[[4.14464774,50.93621881],[4.14462672,50.93620841],[4.14461453,50.93621779],[4.14458612,50.93623965],[4.14462193,50.9362574],[4.14457761,50.93629155],[4.14454435,50.93627538],[4.14450187,50.93630756],[4.14443155,50.93627049],[4.14455067,50.93617976],[4.14458946,50.93615092],[4.14465457,50.9361829],[4.14467821,50.93619451],[4.14464774,50.93621881]]]}},{"type":"Feature","id":"gebouw/Gebouw.19873725/0","properties":{"source":"Digitaal Vlaanderen Gebouwenregister","source_id":"gebouw/Gebouw.19873725/0","kind":"building","height_m":7.88,"status":null},"geometry":{"type":"Polygon","coordinates":[[[4.14472388,50.93612903],[4.14465457,50.9361829],[4.14458946,50.93615092],[4.14448444,50.93609933],[4.14447957,50.93609694],[4.14455091,50.93604017],[4.14459255,50.93606156],[4.14472388,50.93612903]]]}},{"type":"Feature","id":"gebouw/Gebouw.19874826/0","properties":{"source":"Digitaal Vlaanderen Gebouwenregister","source_id":"gebouw/Gebouw.19874826/0","kind":"building","height_m":9.32,"status":null},"geometry":{"type":"Polygon","coordinates":[[[4.14749194,50.93756695],[4.14753889,50.93758796],[4.147494,50.93762214],[4.14744972,50.93760315],[4.14749194,50.93756695]]]}},{"type":"Feature","id":"gebouw/Gebouw.19875481/0","properties":{"source":"Digitaal Vlaanderen Gebouwenregister","source_id":"gebouw/Gebouw.19875481/0","kind":"building","height_m":7.16,"status":null},"geometry":{"type":"Polygon","coordinates":[[[4.14565546,50.93630354],[4.14553817,50.93641019],[4.14545741,50.93637406],[4.1454607,50.9363711],[4.14541556,50.93635111],[4.14541841,50.93634855],[4.14542255,50.93635037],[4.14548096,50.93629727],[4.14552525,50.93631672],[4.14558016,50.93626679],[4.1456582,50.93630105],[4.14565546,50.93630354]]]}},{"type":"Feature","id":"gebouw/Gebouw.19875649/0","properties":{"source":"Digitaal Vlaanderen Gebouwenregister","source_id":"gebouw/Gebouw.19875649/0","kind":"building","height_m":7.16,"status":null},"geometry":{"type":"Polygon","coordinates":[[[4.145202,50.93647063],[4.14511517,50.93652524],[4.14505068,50.9364843],[4.14506545,50.93647472],[4.14522231,50.93637289],[4.14533422,50.93643991],[4.14533028,50.93644247],[4.14524651,50.93649686],[4.145202,50.93647063]]]}},{"type":"Feature","id":"gebouw/Gebouw.19875650/0","properties":{"source":"Digitaal Vlaanderen Gebouwenregister","source_id":"gebouw/Gebouw.19875650/0","kind":"building","height_m":7.88,"status":null},"geometry":{"type":"Polygon","coordinates":[[[4.14509155,50.93648901],[4.14504249,50.93652305],[4.14501532,50.93650726],[4.14504278,50.93648944],[4.14506545,50.93647472],[4.14509155,50.93648901]]]}},{"type":"Feature","id":"gebouw/Gebouw.20145597/0","properties":{"source":"Digitaal Vlaanderen Gebouwenregister","source_id":"gebouw/Gebouw.20145597/0","kind":"building","height_m":7.16,"status":null},"geometry":{"type":"Polygon","coordinates":[[[4.15057617,50.93953613],[4.15053141,50.93962731],[4.14999868,50.93952293],[4.15003214,50.93945475],[4.15004343,50.93943175],[4.15057617,50.93953613]]]}},{"type":"Feature","id":"gebouw/Gebouw.20145598/0","properties":{"source":"Digitaal Vlaanderen Gebouwenregister","source_id":"gebouw/Gebouw.20145598/0","kind":"building","height_m":7.88,"status":null},"geometry":{"type":"Polygon","coordinates":[[[4.15099507,50.93952093],[4.15097462,50.93956387],[4.15084811,50.93953981],[4.15085018,50.93953547],[4.15085958,50.93951573],[4.15086322,50.93951643],[4.1508722,50.93949756],[4.15090281,50.93950338],[4.15099507,50.93952093]]]}},{"type":"Feature","id":"gebouw/Gebouw.20145603/0","properties":{"source":"Digitaal Vlaanderen Gebouwenregister","source_id":"gebouw/Gebouw.20145603/0","kind":"building","height_m":6.44,"status":null},"geometry":{"type":"Polygon","coordinates":[[[4.14455403,50.93648224],[4.14452506,50.936468],[4.14460817,50.93640051],[4.14463714,50.93641475],[4.14455403,50.93648224]]]}},{"type":"Feature","id":"gebouw/Gebouw.20145607/0","properties":{"source":"Digitaal Vlaanderen Gebouwenregister","source_id":"gebouw/Gebouw.20145607/0","kind":"building","height_m":9.32,"status":null},"geometry":{"type":"Polygon","coordinates":[[[4.14578773,50.9359664],[4.14580467,50.93597361],[4.14576006,50.93601546],[4.14574102,50.93600735],[4.14572344,50.93599987],[4.14576805,50.93595802],[4.14578773,50.9359664]]]}},{"type":"Feature","id":"gebouw/Gebouw.20146346/0","properties":{"source":"Digitaal Vlaanderen Gebouwenregister","source_id":"gebouw/Gebouw.20146346/0","kind":"building","height_m":7.16,"status":null},"geometry":{"type":"Polygon","coordinates":[[[4.14614891,50.93587129],[4.14617285,50.93584741],[4.14621155,50.9358629],[4.1461876,50.93588678],[4.14614891,50.93587129]]]}},{"type":"Feature","id":"gebouw/Gebouw.20146347/0","properties":{"source":"Digitaal Vlaanderen Gebouwenregister","source_id":"gebouw/Gebouw.20146347/0","kind":"building","height_m":7.88,"status":null},"geometry":{"type":"Polygon","coordinates":[[[4.14601515,50.93573145],[4.14604213,50.9357434],[4.14605367,50.93574851],[4.14610101,50.9357056],[4.14606242,50.9356886],[4.14601515,50.93573145]]]}},{"type":"Feature","id":"gebouw/Gebouw.20146352/0","properties":{"source":"Digitaal Vlaanderen Gebouwenregister","source_id":"gebouw/Gebouw.20146352/0","kind":"building","height_m":6.44,"status":null},"geometry":{"type":"Polygon","coordinates":[[[4.15208906,50.93751289],[4.15204399,50.93749062],[4.15208637,50.93745637],[4.15213145,50.93747863],[4.15208906,50.93751289]]]}},{"type":"Feature","id":"gebouw/Gebouw.20146353/0","properties":{"source":"Digitaal Vlaanderen Gebouwenregister","source_id":"gebouw/Gebouw.20146353/0","kind":"building","height_m":7.16,"status":null},"geometry":{"type":"Polygon","coordinates":[[[4.1503538,50.93712145],[4.15037538,50.93708276],[4.15046445,50.9371026],[4.15044287,50.93714128],[4.1503538,50.93712145]]]}},{"type":"Feature","id":"gebouw/Gebouw.20146901/0","properties":{"source":"Digitaal Vlaanderen Gebouwenregister","source_id":"gebouw/Gebouw.20146901/0","kind":"building","height_m":8.6,"status":null},"geometry":{"type":"Polygon","coordinates":[[[4.1474007,50.93748661],[4.1472967,50.93758554],[4.14727814,50.93757775],[4.14727401,50.93757602],[4.14731044,50.93754137],[4.14729942,50.93753628],[4.14736694,50.93747206],[4.1474007,50.93748661]]]}},{"type":"Feature","id":"gebouw/Gebouw.20146902/0","properties":{"source":"Digitaal Vlaanderen Gebouwenregister","source_id":"gebouw/Gebouw.20146902/0","kind":"building","height_m":9.32,"status":null},"geometry":{"type":"Polygon","coordinates":[[[4.14706086,50.9379366],[4.14709399,50.93790819],[4.14710602,50.93789787],[4.14703956,50.93786616],[4.14697206,50.93792269],[4.14692861,50.93788899],[4.14690631,50.93790743],[4.14692402,50.93792159],[4.14698432,50.93796977],[4.14705003,50.93793104],[4.14706086,50.9379366]]]}},{"type":"Feature","id":"gebouw/Gebouw.20980635/0","properties":{"source":"Digitaal Vlaanderen Gebouwenregister","source_id":"gebouw/Gebouw.20980635/0","kind":"building","height_m":7.88,"status":null},"geometry":{"type":"Polygon","coordinates":[[[4.14623461,50.93658976],[4.14611542,50.93669494],[4.14611525,50.93669508],[4.14611558,50.93669523],[4.14623455,50.93674921],[4.14635413,50.93664399],[4.14623466,50.93658978],[4.14623461,50.93658976]]]}},{"type":"Feature","id":"gebouw/Gebouw.20983906/0","properties":{"source":"Digitaal Vlaanderen Gebouwenregister","source_id":"gebouw/Gebouw.20983906/0","kind":"building","height_m":9.32,"status":null},"geometry":{"type":"Polygon","coordinates":[[[4.14623461,50.93658976],[4.14615709,50.93655459],[4.14616913,50.93654393],[4.14614858,50.93653461],[4.14611527,50.93651949],[4.14605343,50.9365744],[4.14605,50.93657286],[4.14598357,50.93663152],[4.14601972,50.93664831],[4.14603468,50.93665526],[4.14603196,50.93665759],[4.14611525,50.93669508],[4.14611542,50.93669494],[4.14623461,50.93658976]]]}},{"type":"Feature","id":"gebouw/Gebouw.30642158/0","properties":{"source":"Digitaal Vlaanderen Gebouwenregister","source_id":"gebouw/Gebouw.30642158/0","kind":"building","height_m":5.72,"status":null},"geometry":{"type":"Polygon","coordinates":[[[4.14586649,50.94149615],[4.14589544,50.94150853],[4.14584491,50.94155571],[4.14581596,50.94154334],[4.14586649,50.94149615]]]}},{"type":"Feature","id":"gebouw/Gebouw.30642159/0","properties":{"source":"Digitaal Vlaanderen Gebouwenregister","source_id":"gebouw/Gebouw.30642159/0","kind":"building","height_m":6.44,"status":null},"geometry":{"type":"Polygon","coordinates":[[[4.15250483,50.94007737],[4.15259284,50.94012453],[4.15257047,50.9401412],[4.15248246,50.94009404],[4.15250483,50.94007737]]]}},{"type":"Feature","id":"gebouw/Gebouw.30642183/0","properties":{"source":"Digitaal Vlaanderen Gebouwenregister","source_id":"gebouw/Gebouw.30642183/0","kind":"building","height_m":8.6,"status":null},"geometry":{"type":"Polygon","coordinates":[[[4.14767865,50.93782222],[4.14772929,50.93787826],[4.14769345,50.93788929],[4.14765971,50.93785071],[4.14767865,50.93782222]]]}},{"type":"Feature","id":"gebouw/Gebouw.30642184/0","properties":{"source":"Digitaal Vlaanderen Gebouwenregister","source_id":"gebouw/Gebouw.30642184/0","kind":"building","height_m":9.32,"status":null},"geometry":{"type":"Polygon","coordinates":[[[4.14577975,50.9360224],[4.14582036,50.93604011],[4.14574013,50.93611357],[4.14569857,50.93609544],[4.14569192,50.93609255],[4.14577215,50.93601908],[4.14577975,50.9360224]]]}},{"type":"Feature","id":"gebouw/Gebouw.31144918/0","properties":{"source":"Digitaal Vlaanderen Gebouwenregister","source_id":"gebouw/Gebouw.31144918/0","kind":"building","height_m":5.0,"status":null},"geometry":{"type":"Polygon","coordinates":[[[4.14565821,50.93595439],[4.14568007,50.93596558],[4.14561644,50.93601521],[4.14560069,50.93600714],[4.14557797,50.93599551],[4.14564159,50.93594589],[4.14565821,50.93595439]]]}},{"type":"Feature","id":"gebouw/Gebouw.31144921/0","properties":{"source":"Digitaal Vlaanderen Gebouwenregister","source_id":"gebouw/Gebouw.31144921/0","kind":"building","height_m":7.16,"status":null},"geometry":{"type":"Polygon","coordinates":[[[4.14626605,50.9373862],[4.14623811,50.93741268],[4.14616622,50.9373824],[4.14619416,50.93735592],[4.14626605,50.9373862]]]}},{"type":"Feature","id":"gebouw/Gebouw.31150510/0","properties":{"source":"Digitaal Vlaanderen Gebouwenregister","source_id":"gebouw/Gebouw.31150510/0","kind":"building","height_m":9.32,"status":null},"geometry":{"type":"Polygon","coordinates":[[[4.14554578,50.9360575],[4.14556034,50.93604414],[4.14550114,50.93601767],[4.14544481,50.9360685],[4.14543278,50.93607936],[4.14549272,50.93610616],[4.14550403,50.93609578],[4.14554578,50.9360575]]]}},{"type":"Feature","id":"gebouw/Gebouw.31531607/0","properties":{"source":"Digitaal Vlaanderen Gebouwenregister","source_id":"gebouw/Gebouw.31531607/0","kind":"building","height_m":6.44,"status":null},"geometry":{"type":"Polygon","coordinates":[[[4.14451838,50.9358297],[4.14449776,50.93581597],[4.14448834,50.93582162],[4.14447595,50.93582904],[4.14448073,50.93583223],[4.14449657,50.93584278],[4.14451838,50.9358297]]]}},{"type":"Feature","id":"gebouw/Gebouw.31805216/0","properties":{"source":"Digitaal Vlaanderen Gebouwenregister","source_id":"gebouw/Gebouw.31805216/0","kind":"building","height_m":6.44,"status":null},"geometry":{"type":"Polygon","coordinates":[[[4.14766644,50.937646],[4.14758259,50.93771103],[4.14766166,50.93775114],[4.14770394,50.93771713],[4.1478014,50.93768427],[4.1477475,50.9376193],[4.14766644,50.937646]]]}},{"type":"Feature","id":"gebouw/Gebouw.31805601/0","properties":{"source":"Digitaal Vlaanderen Gebouwenregister","source_id":"gebouw/Gebouw.31805601/0","kind":"building","height_m":6.44,"status":null},"geometry":{"type":"Polygon","coordinates":[[[4.14561598,50.93575871],[4.14560421,50.93575325],[4.14562453,50.93573576],[4.14556378,50.93570759],[4.14548443,50.93577591],[4.14556039,50.93581113],[4.14561598,50.93575871]]]}},{"type":"Feature","id":"gebouw/Gebouw.31805609/0","properties":{"source":"Digitaal Vlaanderen Gebouwenregister","source_id":"gebouw/Gebouw.31805609/0","kind":"building","height_m":7.16,"status":null},"geometry":{"type":"Polygon","coordinates":[[[4.14748811,50.93807805],[4.1475776,50.938038],[4.14753839,50.93800303],[4.14744989,50.93804738],[4.14748811,50.93807805]]]}},{"type":"Feature","id":"gebouw/Gebouw.31805918/0","properties":{"source":"Digitaal Vlaanderen Gebouwenregister","source_id":"gebouw/Gebouw.31805918/0","kind":"building","height_m":7.88,"status":null},"geometry":{"type":"Polygon","coordinates":[[[4.14551445,50.93534414],[4.14556464,50.9352918],[4.14552728,50.93527749],[4.14547709,50.93532984],[4.14551445,50.93534414]]]}},{"type":"Feature","id":"gebouw/Gebouw.31806440/0","properties":{"source":"Digitaal Vlaanderen Gebouwenregister","source_id":"gebouw/Gebouw.31806440/0","kind":"building","height_m":5.72,"status":null},"geometry":{"type":"Polygon","coordinates":[[[4.14490367,50.93678007],[4.14497365,50.93682008],[4.14503365,50.93677888],[4.14496323,50.93673937],[4.14490367,50.93678007]]]}},{"type":"Feature","id":"gebouw/Gebouw.31806483/0","properties":{"source":"Digitaal Vlaanderen Gebouwenregister","source_id":"gebouw/Gebouw.31806483/0","kind":"building","height_m":6.44,"status":null},"geometry":{"type":"Polygon","coordinates":[[[4.14535435,50.93580674],[4.14535972,50.93580196],[4.14537055,50.93580587],[4.14537836,50.93579833],[4.14536957,50.93579435],[4.14538074,50.93578449],[4.14537049,50.93577986],[4.14539329,50.93575849],[4.1453683,50.93574881],[4.14531851,50.93579167],[4.14535435,50.93580674]]]}},{"type":"Feature","id":"gebouw/Gebouw.32035739/0","properties":{"source":"Digitaal Vlaanderen Gebouwenregister","source_id":"gebouw/Gebouw.32035739/0","kind":"building","height_m":5.72,"status":null},"geometry":{"type":"Polygon","coordinates":[[[4.14692585,50.9360241],[4.14696358,50.93604166],[4.14704523,50.9359716],[4.1470075,50.93595404],[4.14692585,50.9360241]]]}},{"type":"Feature","id":"gebouw/Gebouw.32035768/0","properties":{"source":"Digitaal Vlaanderen Gebouwenregister","source_id":"gebouw/Gebouw.32035768/0","kind":"building","height_m":6.44,"status":null},"geometry":{"type":"Polygon","coordinates":[[[4.14563491,50.93588866],[4.14574685,50.9358281],[4.1456762,50.93579019],[4.14558865,50.93586224],[4.14563491,50.93588866]]]}},{"type":"Feature","id":"gebouw/Gebouw.32035899/0","properties":{"source":"Digitaal Vlaanderen Gebouwenregister","source_id":"gebouw/Gebouw.32035899/0","kind":"building","height_m":5.0,"status":null},"geometry":{"type":"Polygon","coordinates":[[[4.1445565,50.9365876],[4.14461461,50.9366216],[4.14464491,50.93660093],[4.1445868,50.93656692],[4.1445565,50.9365876]]]}},{"type":"Feature","id":"way/160640873","properties":{"source":"OpenStreetMap","source_id":"way/160640873","kind":"vegetation","name":null,"waterway":null,"landuse":"forest"},"geometry":{"type":"Polygon","coordinates":[[[4.1500159,50.9415861],[4.1494297,50.9422829],[4.149753,50.9424143],[4.1503286,50.9416723],[4.1500159,50.9415861]]]}},{"type":"Feature","id":"way/160722827","properties":{"source":"OpenStreetMap","source_id":"way/160722827","kind":"vegetation","name":null,"waterway":null,"landuse":"forest"},"geometry":{"type":"Polygon","coordinates":[[[4.151548,50.9373533],[4.1516314,50.9375098],[4.1516115,50.9375611],[4.1515778,50.9375886],[4.1515222,50.9375848],[4.1514547,50.9375723],[4.1514209,50.9375823],[4.1514368,50.9376074],[4.1514626,50.9376186],[4.1516056,50.9376449],[4.1518458,50.9376537],[4.1519034,50.9376724],[4.1519749,50.9377],[4.1519451,50.9377412],[4.15183,50.9376987],[4.151548,50.9376774],[4.151413,50.9376824],[4.1513455,50.9377162],[4.1512303,50.9377663],[4.1511151,50.9378526],[4.1509622,50.9380591],[4.1496636,50.9379715],[4.1496914,50.9379214],[4.149743,50.9378489],[4.1497947,50.93779],[4.1498642,50.9377137],[4.1499019,50.9376837],[4.1499615,50.9376774],[4.1500568,50.9376799],[4.1501084,50.9376774],[4.1501342,50.9376524],[4.1501422,50.9375873],[4.1501322,50.9374447],[4.1501183,50.9373596],[4.1501064,50.9372858],[4.1501541,50.9372545],[4.1502732,50.9371994],[4.1503606,50.9371744],[4.1504062,50.9372019],[4.1503745,50.9372407],[4.1503387,50.9372808],[4.1503506,50.9373283],[4.1504182,50.9373684],[4.1505969,50.9374484],[4.1506783,50.9374947],[4.1507398,50.9375373],[4.1507875,50.9376049],[4.1508292,50.9376637],[4.1508927,50.9377012],[4.1509265,50.9377025],[4.1509523,50.9375673],[4.1510178,50.9375323],[4.1511112,50.9375035],[4.1511846,50.9374972],[4.1512065,50.9374247],[4.1512243,50.9373934],[4.1512601,50.9373684],[4.1513018,50.9373346],[4.1513713,50.9373659],[4.1514269,50.9373821],[4.1514507,50.9373909],[4.151548,50.9373533]]]}},{"type":"Feature","id":"way/160784430","properties":{"source":"OpenStreetMap","source_id":"way/160784430","kind":"vegetation","name":null,"waterway":null,"landuse":"forest"},"geometry":{"type":"Polygon","coordinates":[[[4.1449335,50.9376897],[4.1446889,50.9375559],[4.1445342,50.9376738],[4.1442609,50.9375446],[4.1439947,50.9377803],[4.1440882,50.9378143],[4.1443004,50.9376194],[4.144528,50.937737],[4.1450436,50.9380034],[4.1452464,50.9378574],[4.1449335,50.9376897]]]}},{"type":"Feature","id":"way/160784431","properties":{"source":"OpenStreetMap","source_id":"way/160784431","kind":"vegetation","name":null,"waterway":null,"landuse":"forest"},"geometry":{"type":"Polygon","coordinates":[[[4.1465906,50.9375547],[4.1457886,50.9382913],[4.1460366,50.9383698],[4.1459681,50.9384339],[4.1457739,50.9383614],[4.1456192,50.9385019],[4.1448027,50.9381823],[4.1449145,50.9380964],[4.145285,50.9382369],[4.1462705,50.9374074],[4.1465906,50.9375547]]]}},{"type":"Feature","id":"way/160784510","properties":{"source":"OpenStreetMap","source_id":"way/160784510","kind":"vegetation","name":null,"waterway":null,"landuse":"forest"},"geometry":{"type":"Polygon","coordinates":[[[4.1500103,50.9356197],[4.1501141,50.9355459],[4.1492723,50.9351596],[4.1488018,50.9349666],[4.148762,50.9350022],[4.1500103,50.9356197]]]}},{"type":"Feature","id":"way/160784528","properties":{"source":"OpenStreetMap","source_id":"way/160784528","kind":"vegetation","name":null,"waterway":null,"landuse":"forest"},"geometry":{"type":"Polygon","coordinates":[[[4.1485369,50.9364087],[4.1476449,50.9371839],[4.1473068,50.9370524],[4.1478751,50.9365492],[4.1475406,50.9364042],[4.1479039,50.9360823],[4.1485369,50.9364087]]]}},{"type":"Feature","id":"way/160784549","properties":{"source":"OpenStreetMap","source_id":"way/160784549","kind":"vegetation","name":null,"waterway":null,"landuse":"forest"},"geometry":{"type":"Polygon","coordinates":[[[4.145473,50.9373497],[4.1456082,50.9372558],[4.1453107,50.9370362],[4.14542,50.9369705],[4.1458439,50.9372122],[4.1458902,50.9372386],[4.1458326,50.9372813],[4.1457456,50.9372382],[4.1455354,50.9373853],[4.145473,50.9373497]]]}},{"type":"Feature","id":"way/779127205","properties":{"source":"OpenStreetMap","source_id":"way/779127205","kind":"waterway","name":"Kuipermeersbeek","waterway":"stream","landuse":null},"geometry":{"type":"LineString","coordinates":[[4.1528776,50.9386724],[4.1527193,50.9386723],[4.1524568,50.9386088],[4.1518608,50.9384858],[4.151414,50.938417],[4.1510483,50.9383561],[4.1504744,50.9382859],[4.1500028,50.9381615],[4.1498146,50.9380743],[4.1497676,50.9380752],[4.1496626,50.9380864],[4.1494613,50.9381234],[4.1492616,50.9381788]]}},{"type":"Feature","id":"way/779127206","properties":{"source":"OpenStreetMap","source_id":"way/779127206","kind":"waterway","name":"Kuipermeersbeek","waterway":"stream","landuse":null},"geometry":{"type":"LineString","coordinates":[[4.1531342,50.9387091],[4.1528776,50.9386724]]}},{"type":"Feature","id":"way/779127209","properties":{"source":"OpenStreetMap","source_id":"way/779127209","kind":"waterway","name":"Kuipermeersbeek","waterway":"stream","landuse":null},"geometry":{"type":"LineString","coordinates":[[4.1492616,50.9381788],[4.1491681,50.9382134],[4.1491331,50.9382233]]}},{"type":"Feature","id":"way/779127213","properties":{"source":"OpenStreetMap","source_id":"way/779127213","kind":"waterway","name":"Kuipermeersbeek","waterway":"stream","landuse":null},"geometry":{"type":"LineString","coordinates":[[4.1466953,50.9393089],[4.1465312,50.9395539],[4.1464553,50.9396197],[4.1463336,50.9397678],[4.1462578,50.9398361],[4.1461829,50.9398995],[4.1460273,50.9400001],[4.1459024,50.94009],[4.145724,50.9402335],[4.1455202,50.9403875],[4.1452793,50.9405501],[4.145043,50.9407259],[4.1445002,50.9406576],[4.1443112,50.9406228],[4.1439136,50.9405779],[4.1438428,50.9405636],[4.143724,50.940588],[4.1434716,50.9406019],[4.1432805,50.9405993],[4.1430534,50.9405863],[4.1428061,50.9405185],[4.1427609,50.940519],[4.1425932,50.9405042]]}},{"type":"Feature","id":"way/779127214","properties":{"source":"OpenStreetMap","source_id":"way/779127214","kind":"waterway","name":"Kuipermeersbeek","waterway":"stream","landuse":null},"geometry":{"type":"LineString","coordinates":[[4.1467488,50.9392583],[4.1466953,50.9393089]]}},{"type":"Feature","id":"way/779127217","properties":{"source":"OpenStreetMap","source_id":"way/779127217","kind":"waterway","name":"Kuipermeersbeek","waterway":"stream","landuse":null},"geometry":{"type":"LineString","coordinates":[[4.1489997,50.9382699],[4.1489353,50.9382847],[4.1487066,50.9383274],[4.1484196,50.9383849],[4.1482865,50.9384239],[4.1483878,50.938551],[4.1483635,50.9385705],[4.1482706,50.9385984],[4.1482283,50.9385974],[4.1482044,50.9386257],[4.1480897,50.9386791],[4.1480367,50.938677],[4.1479474,50.9387029],[4.1477832,50.9388021],[4.1477438,50.9388146],[4.1476626,50.9388578],[4.1475559,50.938886],[4.147487,50.9388885],[4.1474012,50.938878],[4.1473401,50.9388866],[4.1469598,50.939088],[4.1468395,50.9391637],[4.1467488,50.9392583]]}},{"type":"Feature","id":"way/779127218","properties":{"source":"OpenStreetMap","source_id":"way/779127218","kind":"waterway","name":"Kuipermeersbeek","waterway":"stream","landuse":null},"geometry":{"type":"LineString","coordinates":[[4.1491331,50.9382233],[4.1489997,50.9382699]]}},{"type":"Feature","id":"way/871888971","properties":{"source":"OpenStreetMap","source_id":"way/871888971","kind":"waterway","name":null,"waterway":"ditch","landuse":null},"geometry":{"type":"LineString","coordinates":[[4.1549486,50.9376915],[4.1546641,50.9379029],[4.154367,50.9378253],[4.1540995,50.9378226],[4.153675,50.9376139],[4.1536452,50.9374427],[4.1535433,50.9373972],[4.1534415,50.9372126],[4.1533863,50.9370682],[4.1531952,50.9369558],[4.1529023,50.9368943],[4.1524712,50.9368532],[4.1523712,50.93693],[4.1521322,50.936907],[4.1519372,50.9368793],[4.1517933,50.9368394],[4.1516787,50.9369008],[4.1513471,50.9368102],[4.1512105,50.936804],[4.151152,50.9368532],[4.1509716,50.9369008],[4.1507741,50.9369515],[4.1506302,50.9370268],[4.1505619,50.937116],[4.1504278,50.9371667],[4.1502157,50.937285],[4.1501889,50.9373772],[4.1502254,50.937474],[4.1502742,50.9375431],[4.1500669,50.9377321],[4.1499085,50.9379119],[4.1498681,50.9379555]]}},{"type":"Feature","id":"way/871888972","properties":{"source":"OpenStreetMap","source_id":"way/871888972","kind":"waterway","name":null,"waterway":"ditch","landuse":null},"geometry":{"type":"LineString","coordinates":[[4.1498681,50.9379555],[4.1497676,50.9380752]]}},{"type":"Feature","id":"way/871888973","properties":{"source":"OpenStreetMap","source_id":"way/871888973","kind":"waterway","name":null,"waterway":"ditch","landuse":null},"geometry":{"type":"LineString","coordinates":[[4.1498975,50.9415772],[4.149777,50.9415375],[4.1489943,50.9414668],[4.1486163,50.9413454],[4.1482359,50.9412268],[4.1478921,50.9411196],[4.1478141,50.9412425],[4.1471387,50.9410627],[4.1468461,50.9413577],[4.1460983,50.9410482],[4.1459868,50.9410073],[4.1458649,50.9409467],[4.1456679,50.9408897],[4.1454547,50.9407933],[4.1450976,50.9407386],[4.145043,50.9407259]]}},{"type":"Feature","id":"way/871888975","properties":{"source":"OpenStreetMap","source_id":"way/871888975","kind":"waterway","name":null,"waterway":"ditch","landuse":null},"geometry":{"type":"LineString","coordinates":[[4.1500242,50.941619],[4.1498975,50.9415772]]}},{"type":"Feature","id":"way/903710968","properties":{"source":"OpenStreetMap","source_id":"way/903710968","kind":"waterway","name":null,"waterway":"ditch","landuse":null},"geometry":{"type":"LineString","coordinates":[[4.1479337,50.9372937],[4.1481229,50.9373355],[4.1484038,50.9374436]]}},{"type":"Feature","id":"way/903710969","properties":{"source":"OpenStreetMap","source_id":"way/903710969","kind":"waterway","name":null,"waterway":"ditch","landuse":null},"geometry":{"type":"LineString","coordinates":[[4.1487198,50.9375961],[4.1489777,50.9377427],[4.1490341,50.9377835],[4.1490949,50.9378863],[4.1491353,50.9380263]]}},{"type":"Feature","id":"way/1304769413","properties":{"source":"OpenStreetMap","source_id":"way/1304769413","kind":"water","name":null,"waterway":null,"landuse":null},"geometry":{"type":"Polygon","coordinates":[[[4.1520863,50.9373401],[4.1522075,50.9373921],[4.1523211,50.9372886],[4.1523378,50.9372246],[4.1522507,50.9371897],[4.1520863,50.9373401]]]}},{"type":"Feature","id":"way/1304769414","properties":{"source":"OpenStreetMap","source_id":"way/1304769414","kind":"water","name":null,"waterway":null,"landuse":null},"geometry":{"type":"Polygon","coordinates":[[[4.146918,50.9359006],[4.1469576,50.9359155],[4.1471596,50.9357246],[4.1471279,50.9357097],[4.146918,50.9359006]]]}},{"type":"Feature","id":"way/1396250192","properties":{"source":"OpenStreetMap","source_id":"way/1396250192","kind":"water","name":null,"waterway":null,"landuse":null},"geometry":{"type":"Polygon","coordinates":[[[4.1456916,50.9376645],[4.1457237,50.9376847],[4.1457861,50.9376915],[4.1458325,50.9376769],[4.1458611,50.9376521],[4.1458611,50.9376206],[4.1458325,50.9375858],[4.1457701,50.9375768],[4.1457165,50.9375858],[4.1456773,50.9376161],[4.1456916,50.9376645]]]}},{"type":"Feature","id":"way/1396257106","properties":{"source":"OpenStreetMap","source_id":"way/1396257106","kind":"vegetation","name":null,"waterway":null,"landuse":"forest"},"geometry":{"type":"Polygon","coordinates":[[[4.1495433,50.9401528],[4.1500356,50.9399206],[4.1505996,50.9399098],[4.1501604,50.9387289],[4.1491023,50.9384658],[4.1495433,50.9401528]]]}},{"type":"Feature","id":"way/1533909688","properties":{"source":"OpenStreetMap","source_id":"way/1533909688","kind":"vegetation","name":null,"waterway":null,"landuse":null},"geometry":{"type":"Polygon","coordinates":[[[4.1466734,50.9420974],[4.1472988,50.9422943],[4.1482359,50.9412268],[4.1478921,50.9411196],[4.1478141,50.9412425],[4.1471387,50.9410627],[4.1468461,50.9413577],[4.1466453,50.9414566],[4.1466921,50.9416338],[4.146978,50.9417312],[4.1466734,50.9420974]]]}}]}