{"type":"FeatureCollection","features":[{"type":"Feature","id":"gebouw/Gebouw.7579428/0","properties":{"source":"Digitaal Vlaanderen Gebouwenregister","source_id":"gebouw/Gebouw.7579428/0","kind":"building","height_m":7.16,"status":null},"geometry":{"type":"Polygon","coordinates":[[[4.16338194,50.9487006],[4.16335123,50.94874403],[4.16334578,50.94875174],[4.16330062,50.948739],[4.16330618,50.94873112],[4.16333709,50.94868743],[4.16338194,50.9487006]]]}},{"type":"Feature","id":"gebouw/Gebouw.16563079/0","properties":{"source":"Digitaal Vlaanderen Gebouwenregister","source_id":"gebouw/Gebouw.16563079/0","kind":"building","height_m":5.72,"status":null},"geometry":{"type":"Polygon","coordinates":[[[4.15620454,50.94608341],[4.15623589,50.94604834],[4.15631465,50.94607644],[4.1562833,50.9461115],[4.15620454,50.94608341]]]}},{"type":"Feature","id":"gebouw/Gebouw.16563797/0","properties":{"source":"Digitaal Vlaanderen Gebouwenregister","source_id":"gebouw/Gebouw.16563797/0","kind":"building","height_m":8.6,"status":null},"geometry":{"type":"Polygon","coordinates":[[[4.15884911,50.94391533],[4.15879766,50.94389606],[4.15882509,50.94386683],[4.15883885,50.94387198],[4.15884765,50.94386261],[4.1588728,50.94387203],[4.15886435,50.94388103],[4.15887689,50.94388573],[4.15884911,50.94391533]]]}},{"type":"Feature","id":"gebouw/Gebouw.16566711/0","properties":{"source":"Digitaal Vlaanderen Gebouwenregister","source_id":"gebouw/Gebouw.16566711/0","kind":"building","height_m":5.0,"status":null},"geometry":{"type":"Polygon","coordinates":[[[4.15578487,50.94611856],[4.155741,50.94609988],[4.15576917,50.94607348],[4.15581304,50.94609216],[4.15578487,50.94611856]]]}},{"type":"Feature","id":"gebouw/Gebouw.16599666/0","properties":{"source":"Digitaal Vlaanderen Gebouwenregister","source_id":"gebouw/Gebouw.16599666/0","kind":"building","height_m":9.32,"status":null},"geometry":{"type":"Polygon","coordinates":[[[4.15821066,50.94334001],[4.1581508,50.94331901],[4.15816951,50.94329773],[4.15818345,50.94330262],[4.15819742,50.94328672],[4.15824334,50.94330284],[4.15821066,50.94334001]]]}},{"type":"Feature","id":"gebouw/Gebouw.18358245/0","properties":{"source":"Digitaal Vlaanderen Gebouwenregister","source_id":"gebouw/Gebouw.18358245/0","kind":"building","height_m":7.16,"status":null},"geometry":{"type":"Polygon","coordinates":[[[4.16141715,50.94229533],[4.16136124,50.94234411],[4.16137089,50.9423478],[4.16134782,50.94237192],[4.16131097,50.94235784],[4.16133152,50.94233636],[4.16126887,50.94231244],[4.16133438,50.94225747],[4.16141715,50.94229533]]]}},{"type":"Feature","id":"gebouw/Gebouw.18358359/0","properties":{"source":"Digitaal Vlaanderen Gebouwenregister","source_id":"gebouw/Gebouw.18358359/0","kind":"building","height_m":8.6,"status":null},"geometry":{"type":"Polygon","coordinates":[[[4.16243877,50.94846144],[4.16258308,50.94850131],[4.16253459,50.94857136],[4.16239028,50.94853149],[4.16243877,50.94846144]]]}},{"type":"Feature","id":"way/27160603","properties":{"source":"OpenStreetMap","source_id":"way/27160603","kind":"vegetation","name":null,"waterway":null,"landuse":null},"geometry":{"type":"Polygon","coordinates":[[[4.1565209,50.9457521],[4.156169,50.9456115],[4.1555682,50.9461739],[4.1558858,50.9463361],[4.1565209,50.9457521]]]}}]}