{"type":"FeatureCollection","features":[{"type":"Feature","id":"gebouw/Gebouw.20146354/0","properties":{"source":"Digitaal Vlaanderen Gebouwenregister","source_id":"gebouw/Gebouw.20146354/0","kind":"building","height_m":7.88,"status":null},"geometry":{"type":"Polygon","coordinates":[[[4.15630954,50.93385832],[4.15635741,50.93382425],[4.15640007,50.93384818],[4.15635219,50.93388225],[4.15630954,50.93385832]]]}},{"type":"Feature","id":"way/160722830","properties":{"source":"OpenStreetMap","source_id":"way/160722830","kind":"vegetation","name":null,"waterway":null,"landuse":"orchard"},"geometry":{"type":"Polygon","coordinates":[[[4.1569068,50.9363308],[4.1570452,50.9362323],[4.1597982,50.9342725],[4.1575332,50.9330881],[4.1560191,50.9340692],[4.1552323,50.9345779],[4.1542572,50.9347834],[4.1545013,50.9349784],[4.155097,50.9353638],[4.1569068,50.9363308]]]}},{"type":"Feature","id":"way/779123292","properties":{"source":"OpenStreetMap","source_id":"way/779123292","kind":"waterway","name":null,"waterway":"stream","landuse":null},"geometry":{"type":"LineString","coordinates":[[4.1572593,50.9306048],[4.1570429,50.9304371],[4.1567878,50.9303091],[4.1567247,50.9302795],[4.1566141,50.9302278],[4.1564643,50.9300624],[4.1558715,50.9298032],[4.1558049,50.9298868],[4.1557344,50.9299753],[4.155681,50.9300099],[4.1555962,50.930065],[4.1552953,50.9300829],[4.1550839,50.929983],[4.1549457,50.92986],[4.1548136,50.929795],[4.1546286,50.9297007],[4.1541609,50.9294954],[4.1537952,50.9294424],[4.153161,50.9293655],[4.152852,50.9293219]]}},{"type":"Feature","id":"way/779123294","properties":{"source":"OpenStreetMap","source_id":"way/779123294","kind":"water","name":null,"waterway":null,"landuse":null},"geometry":{"type":"Polygon","coordinates":[[[4.1550797,50.9300015],[4.1550262,50.9300723],[4.1550429,50.9301637],[4.1551293,50.9302048],[4.1552395,50.9302079],[4.1555194,50.9301675],[4.1555962,50.930065],[4.1558049,50.9298868],[4.1553204,50.9299235],[4.1550839,50.929983],[4.1550797,50.9300015]]]}},{"type":"Feature","id":"way/871888968","properties":{"source":"OpenStreetMap","source_id":"way/871888968","kind":"waterway","name":null,"waterway":"ditch","landuse":null},"geometry":{"type":"LineString","coordinates":[[4.1548287,50.930677],[4.1549285,50.9308028],[4.1550615,50.9308447],[4.1554163,50.9309193],[4.1557711,50.9309495],[4.1560372,50.9309798],[4.1561998,50.9308494],[4.1563255,50.9306793],[4.1564807,50.9305582],[4.1565473,50.9304394],[4.1564068,50.9303975],[4.1563255,50.9302903],[4.1561961,50.9302088],[4.1561592,50.9301366],[4.155967,50.9300644],[4.1557859,50.9300178],[4.155681,50.9300099]]}},{"type":"Feature","id":"way/871888969","properties":{"source":"OpenStreetMap","source_id":"way/871888969","kind":"waterway","name":null,"waterway":"ditch","landuse":null},"geometry":{"type":"LineString","coordinates":[[4.1546333,50.9307857],[4.1548881,50.9309195],[4.1552022,50.9310399],[4.1555419,50.931088],[4.155907,50.9311228],[4.1563145,50.9310131],[4.1564801,50.9308472],[4.1566966,50.9306599],[4.1568028,50.9304994],[4.1567306,50.9303415],[4.1567247,50.9302795]]}},{"type":"Feature","id":"way/871888970","properties":{"source":"OpenStreetMap","source_id":"way/871888970","kind":"waterway","name":null,"waterway":"stream","landuse":null},"geometry":{"type":"LineString","coordinates":[[4.1583676,50.9321088],[4.1585035,50.9320419],[4.1585502,50.9319777],[4.1586691,50.9318493],[4.1586563,50.9317583],[4.15872,50.9316085],[4.1586578,50.9314751],[4.1586196,50.9314082],[4.1585092,50.9313386],[4.1583097,50.9311914],[4.1581908,50.9311058],[4.1580151,50.9309951],[4.1576828,50.9308516],[4.1576198,50.9307164],[4.1572593,50.9306048]]}}]}