{"type":"FeatureCollection","features":[{"type":"Feature","id":"gebouw/Gebouw.16736731/0","properties":{"source":"Digitaal Vlaanderen Gebouwenregister","source_id":"gebouw/Gebouw.16736731/0","kind":"building","height_m":7.88,"status":null},"geometry":{"type":"Polygon","coordinates":[[[3.98658091,50.92288712],[3.98657872,50.9228868],[3.98629642,50.92284221],[3.98632942,50.92276462],[3.98639615,50.92277595],[3.98638503,50.9228021],[3.98647888,50.92281805],[3.98647206,50.92283299],[3.98649632,50.92283742],[3.98651897,50.92278778],[3.98661866,50.92280595],[3.98658091,50.92288712]]]}},{"type":"Feature","id":"gebouw/Gebouw.16736830/0","properties":{"source":"Digitaal Vlaanderen Gebouwenregister","source_id":"gebouw/Gebouw.16736830/0","kind":"building","height_m":8.6,"status":null},"geometry":{"type":"Polygon","coordinates":[[[3.98563706,50.92497062],[3.98557578,50.92493928],[3.98560725,50.9249163],[3.98566699,50.92494555],[3.98572925,50.92497603],[3.98569864,50.92500211],[3.98563706,50.92497062]]]}},{"type":"Feature","id":"gebouw/Gebouw.16737174/0","properties":{"source":"Digitaal Vlaanderen Gebouwenregister","source_id":"gebouw/Gebouw.16737174/0","kind":"building","height_m":9.32,"status":null},"geometry":{"type":"Polygon","coordinates":[[[3.98718781,50.92221611],[3.9871506,50.92229956],[3.98713291,50.92229641],[3.98709509,50.92236456],[3.9868743,50.9223125],[3.98689456,50.92227595],[3.98689081,50.92227503],[3.98689236,50.92227262],[3.9868961,50.92227339],[3.98691712,50.92223732],[3.98690541,50.9222346],[3.98690822,50.92222981],[3.98701805,50.92225556],[3.98705083,50.92219248],[3.98714241,50.92220828],[3.98718781,50.92221611]]]}},{"type":"Feature","id":"gebouw/Gebouw.16737221/0","properties":{"source":"Digitaal Vlaanderen Gebouwenregister","source_id":"gebouw/Gebouw.16737221/0","kind":"building","height_m":7.88,"status":null},"geometry":{"type":"Polygon","coordinates":[[[3.98530559,50.92467168],[3.98526327,50.92472759],[3.98507824,50.92467294],[3.98512733,50.9246061],[3.98513938,50.92460963],[3.98514974,50.92460063],[3.98521864,50.92463418],[3.98520837,50.92464228],[3.98530559,50.92467168]]]}},{"type":"Feature","id":"gebouw/Gebouw.16737594/0","properties":{"source":"Digitaal Vlaanderen Gebouwenregister","source_id":"gebouw/Gebouw.16737594/0","kind":"building","height_m":9.32,"status":null},"geometry":{"type":"Polygon","coordinates":[[[3.98616742,50.92360715],[3.98616968,50.92361201],[3.98613816,50.92361787],[3.98615087,50.92365115],[3.98608084,50.92366601],[3.98606335,50.92363052],[3.98613083,50.92360612],[3.98616406,50.92359994],[3.98616742,50.92360715]]]}},{"type":"Feature","id":"gebouw/Gebouw.16745730/0","properties":{"source":"Digitaal Vlaanderen Gebouwenregister","source_id":"gebouw/Gebouw.16745730/0","kind":"building","height_m":5.72,"status":null},"geometry":{"type":"Polygon","coordinates":[[[3.98549788,50.92434624],[3.98561466,50.92439824],[3.98559445,50.92441627],[3.98556606,50.92444161],[3.98534958,50.92434473],[3.98538228,50.92431554],[3.98538992,50.92431896],[3.98540807,50.92430261],[3.98533797,50.92426856],[3.98539217,50.92422019],[3.98552624,50.92428019],[3.98552035,50.92428545],[3.98555076,50.92429906],[3.98549788,50.92434624]]]}},{"type":"Feature","id":"gebouw/Gebouw.16745733/0","properties":{"source":"Digitaal Vlaanderen Gebouwenregister","source_id":"gebouw/Gebouw.16745733/0","kind":"building","height_m":7.88,"status":null},"geometry":{"type":"Polygon","coordinates":[[[3.98651785,50.92405336],[3.98656779,50.92407169],[3.98652252,50.92412095],[3.98647258,50.92410261],[3.98651785,50.92405336]]]}},{"type":"Feature","id":"gebouw/Gebouw.16746037/0","properties":{"source":"Digitaal Vlaanderen Gebouwenregister","source_id":"gebouw/Gebouw.16746037/0","kind":"building","height_m":5.0,"status":null},"geometry":{"type":"Polygon","coordinates":[[[3.9867972,50.92427913],[3.98678578,50.92427508],[3.98674655,50.92431919],[3.98671391,50.92430759],[3.98674,50.92427564],[3.98677808,50.92422901],[3.9868393,50.92415404],[3.98692441,50.92418712],[3.98683307,50.92429187],[3.9867972,50.92427913]]]}},{"type":"Feature","id":"gebouw/Gebouw.16746283/0","properties":{"source":"Digitaal Vlaanderen Gebouwenregister","source_id":"gebouw/Gebouw.16746283/0","kind":"building","height_m":5.72,"status":null},"geometry":{"type":"Polygon","coordinates":[[[3.98659003,50.92386114],[3.98661981,50.92387326],[3.98654504,50.92394665],[3.98647052,50.92391632],[3.98647545,50.92391152],[3.98653771,50.92385098],[3.98654274,50.92384609],[3.9865476,50.92384136],[3.98652229,50.92383106],[3.98658996,50.92376464],[3.98662631,50.92377943],[3.9866866,50.92380397],[3.98672978,50.92376158],[3.98676467,50.92377088],[3.98677974,50.9237749],[3.98682403,50.9237867],[3.98679039,50.92381944],[3.98675316,50.92380429],[3.98670073,50.92385051],[3.98663013,50.92382178],[3.98659003,50.92386114]]]}},{"type":"Feature","id":"gebouw/Gebouw.16746322/0","properties":{"source":"Digitaal Vlaanderen Gebouwenregister","source_id":"gebouw/Gebouw.16746322/0","kind":"building","height_m":8.6,"status":null},"geometry":{"type":"Polygon","coordinates":[[[3.98680594,50.92295831],[3.98679424,50.92298775],[3.98676731,50.92305548],[3.98672216,50.92305132],[3.98673645,50.92301318],[3.98672941,50.92301182],[3.98674487,50.92297664],[3.98668364,50.92296571],[3.98669848,50.92292532],[3.98681121,50.92294505],[3.98680594,50.92295831]]]}},{"type":"Feature","id":"gebouw/Gebouw.16751565/0","properties":{"source":"Digitaal Vlaanderen Gebouwenregister","source_id":"gebouw/Gebouw.16751565/0","kind":"building","height_m":8.6,"status":null},"geometry":{"type":"Polygon","coordinates":[[[3.98543727,50.92497134],[3.98560797,50.92503148],[3.985523,50.92512782],[3.98544797,50.92510139],[3.98535229,50.92506768],[3.98543727,50.92497134]]]}},{"type":"Feature","id":"gebouw/Gebouw.16752120/0","properties":{"source":"Digitaal Vlaanderen Gebouwenregister","source_id":"gebouw/Gebouw.16752120/0","kind":"building","height_m":5.0,"status":null},"geometry":{"type":"Polygon","coordinates":[[[3.98576864,50.92346953],[3.98582532,50.92339854],[3.9858266,50.92339693],[3.98589553,50.92341902],[3.98587975,50.92343869],[3.98597501,50.92346921],[3.98593261,50.92352207],[3.98576864,50.92346953]]]}},{"type":"Feature","id":"gebouw/Gebouw.16752205/0","properties":{"source":"Digitaal Vlaanderen Gebouwenregister","source_id":"gebouw/Gebouw.16752205/0","kind":"building","height_m":5.72,"status":null},"geometry":{"type":"Polygon","coordinates":[[[3.98618017,50.92418926],[3.98625419,50.92421903],[3.98617865,50.92429406],[3.98610463,50.92426429],[3.98618017,50.92418926]]]}},{"type":"Feature","id":"gebouw/Gebouw.16752209/0","properties":{"source":"Digitaal Vlaanderen Gebouwenregister","source_id":"gebouw/Gebouw.16752209/0","kind":"building","height_m":8.6,"status":null},"geometry":{"type":"Polygon","coordinates":[[[3.99028125,50.92235323],[3.99035789,50.92225358],[3.9905013,50.92230121],[3.99041992,50.92239891],[3.99028125,50.92235323]]]}},{"type":"Feature","id":"gebouw/Gebouw.16754275/0","properties":{"source":"Digitaal Vlaanderen Gebouwenregister","source_id":"gebouw/Gebouw.16754275/0","kind":"building","height_m":9.32,"status":null},"geometry":{"type":"Polygon","coordinates":[[[3.98624483,50.92229855],[3.98623427,50.92231384],[3.98616662,50.9222954],[3.98617728,50.92227995],[3.98624483,50.92229855]]]}},{"type":"Feature","id":"gebouw/Gebouw.16754425/0","properties":{"source":"Digitaal Vlaanderen Gebouwenregister","source_id":"gebouw/Gebouw.16754425/0","kind":"building","height_m":6.44,"status":null},"geometry":{"type":"Polygon","coordinates":[[[3.98620045,50.92199309],[3.98627118,50.9219598],[3.98627536,50.92196364],[3.98628624,50.92197367],[3.98616689,50.9220283],[3.98615156,50.9220161],[3.98620045,50.92199309]]]}},{"type":"Feature","id":"gebouw/Gebouw.16754933/0","properties":{"source":"Digitaal Vlaanderen Gebouwenregister","source_id":"gebouw/Gebouw.16754933/0","kind":"building","height_m":9.32,"status":null},"geometry":{"type":"Polygon","coordinates":[[[3.98767046,50.92190052],[3.9876305,50.92196071],[3.98746565,50.92191693],[3.9875081,50.92185746],[3.98767046,50.92190052]]]}},{"type":"Feature","id":"gebouw/Gebouw.16754999/0","properties":{"source":"Digitaal Vlaanderen Gebouwenregister","source_id":"gebouw/Gebouw.16754999/0","kind":"building","height_m":6.44,"status":null},"geometry":{"type":"Polygon","coordinates":[[[3.98636509,50.92263344],[3.98633847,50.92262682],[3.98628112,50.92261256],[3.98624307,50.92260052],[3.98628449,50.92253828],[3.9863217,50.92254813],[3.98638033,50.92256365],[3.98642014,50.92250356],[3.98661252,50.9225544],[3.98657164,50.92261609],[3.98651899,50.92260188],[3.98651172,50.92261271],[3.98647085,50.92260174],[3.98647707,50.92259248],[3.98644398,50.9225836],[3.98644552,50.9225813],[3.986411,50.92257204],[3.98638774,50.92260946],[3.98638095,50.92260778],[3.98636509,50.92263344]]]}},{"type":"Feature","id":"gebouw/Gebouw.16758299/0","properties":{"source":"Digitaal Vlaanderen Gebouwenregister","source_id":"gebouw/Gebouw.16758299/0","kind":"building","height_m":8.6,"status":null},"geometry":{"type":"Polygon","coordinates":[[[3.98584849,50.92403926],[3.9857807,50.92411046],[3.98557381,50.92403086],[3.98564159,50.92396011],[3.98584849,50.92403926]]]}},{"type":"Feature","id":"gebouw/Gebouw.16758386/0","properties":{"source":"Digitaal Vlaanderen Gebouwenregister","source_id":"gebouw/Gebouw.16758386/0","kind":"building","height_m":5.72,"status":null},"geometry":{"type":"Polygon","coordinates":[[[3.98690271,50.92462376],[3.98693911,50.92463502],[3.98690306,50.92468159],[3.9868718,50.92467192],[3.98686665,50.92467033],[3.98690271,50.92462376]]]}},{"type":"Feature","id":"gebouw/Gebouw.16758487/0","properties":{"source":"Digitaal Vlaanderen Gebouwenregister","source_id":"gebouw/Gebouw.16758487/0","kind":"building","height_m":7.88,"status":null},"geometry":{"type":"Polygon","coordinates":[[[3.98718029,50.92212513],[3.98706482,50.92210486],[3.98702871,50.92218867],[3.98687922,50.92216289],[3.98691542,50.92207885],[3.98692662,50.92205285],[3.98693077,50.92204323],[3.98719674,50.92208901],[3.98718029,50.92212513]]]}},{"type":"Feature","id":"gebouw/Gebouw.16758492/0","properties":{"source":"Digitaal Vlaanderen Gebouwenregister","source_id":"gebouw/Gebouw.16758492/0","kind":"building","height_m":6.44,"status":null},"geometry":{"type":"Polygon","coordinates":[[[3.99053605,50.92187728],[3.99049477,50.9218627],[3.99049666,50.92186057],[3.99048047,50.92185483],[3.99049448,50.92183845],[3.99063489,50.92167405],[3.99063511,50.92167412],[3.99070046,50.92169722],[3.99056946,50.9218499],[3.99056245,50.92184743],[3.99053605,50.92187728]]]}},{"type":"Feature","id":"gebouw/Gebouw.16758839/0","properties":{"source":"Digitaal Vlaanderen Gebouwenregister","source_id":"gebouw/Gebouw.16758839/0","kind":"building","height_m":9.32,"status":null},"geometry":{"type":"Polygon","coordinates":[[[3.98709417,50.92440339],[3.98719224,50.92429139],[3.98715224,50.9242761],[3.9871401,50.92427146],[3.9870807,50.92424876],[3.98702208,50.9243149],[3.98695768,50.92438756],[3.98706216,50.9244272],[3.98708726,50.92440077],[3.98709417,50.92440339]]]}},{"type":"Feature","id":"gebouw/Gebouw.16758909/0","properties":{"source":"Digitaal Vlaanderen Gebouwenregister","source_id":"gebouw/Gebouw.16758909/0","kind":"building","height_m":9.32,"status":null},"geometry":{"type":"Polygon","coordinates":[[[3.98782973,50.92200438],[3.98776126,50.92198622],[3.98775526,50.92199527],[3.98770804,50.92198275],[3.98770687,50.92198434],[3.98767986,50.92197651],[3.98768139,50.9219742],[3.9876305,50.92196071],[3.98767046,50.92190052],[3.98772513,50.92191583],[3.98775086,50.92187879],[3.98777875,50.92188653],[3.98778815,50.92188914],[3.98779578,50.92187815],[3.98778677,50.92187562],[3.98782118,50.9218288],[3.98783323,50.92183215],[3.98785355,50.92180291],[3.98795228,50.92183031],[3.98788173,50.92193052],[3.98781138,50.921911],[3.98777953,50.92195685],[3.98785002,50.92197556],[3.98782973,50.92200438]]]}},{"type":"Feature","id":"gebouw/Gebouw.16759090/0","properties":{"source":"Digitaal Vlaanderen Gebouwenregister","source_id":"gebouw/Gebouw.16759090/0","kind":"building","height_m":8.6,"status":null},"geometry":{"type":"Polygon","coordinates":[[[3.98598686,50.9251522],[3.98597717,50.92516109],[3.98592632,50.92513977],[3.98593803,50.92512973],[3.98596598,50.92510577],[3.98602243,50.92513041],[3.98599905,50.92515315],[3.9859901,50.92514922],[3.98598686,50.9251522]]]}},{"type":"Feature","id":"gebouw/Gebouw.16760053/0","properties":{"source":"Digitaal Vlaanderen Gebouwenregister","source_id":"gebouw/Gebouw.16760053/0","kind":"building","height_m":6.44,"status":null},"geometry":{"type":"Polygon","coordinates":[[[3.98538081,50.92381639],[3.98536078,50.92384241],[3.9852759,50.92381638],[3.98529444,50.92379223],[3.98538081,50.92381639]]]}},{"type":"Feature","id":"gebouw/Gebouw.16760236/0","properties":{"source":"Digitaal Vlaanderen Gebouwenregister","source_id":"gebouw/Gebouw.16760236/0","kind":"building","height_m":7.16,"status":null},"geometry":{"type":"Polygon","coordinates":[[[3.9864401,50.92358649],[3.98645864,50.92359182],[3.98641152,50.92365731],[3.98639845,50.92365356],[3.98635938,50.92364233],[3.98633049,50.92363402],[3.98631435,50.92362938],[3.98635239,50.92357792],[3.98636253,50.9235642],[3.9864401,50.92358649]]]}},{"type":"Feature","id":"gebouw/Gebouw.16760361/0","properties":{"source":"Digitaal Vlaanderen Gebouwenregister","source_id":"gebouw/Gebouw.16760361/0","kind":"building","height_m":6.44,"status":null},"geometry":{"type":"Polygon","coordinates":[[[3.98606689,50.92373529],[3.98601547,50.92378072],[3.98601427,50.92378178],[3.98596386,50.92375897],[3.9859234,50.92374066],[3.98589018,50.92372563],[3.98594,50.92367998],[3.98606689,50.92373529]]]}},{"type":"Feature","id":"gebouw/Gebouw.16760529/0","properties":{"source":"Digitaal Vlaanderen Gebouwenregister","source_id":"gebouw/Gebouw.16760529/0","kind":"building","height_m":6.44,"status":null},"geometry":{"type":"Polygon","coordinates":[[[3.98637065,50.92207456],[3.98639031,50.92209274],[3.9862738,50.92214606],[3.98620115,50.92211487],[3.98651089,50.92197552],[3.98653051,50.9219673],[3.98663322,50.92206222],[3.98654308,50.92210119],[3.98653341,50.92209226],[3.98650724,50.92206807],[3.98647177,50.9220834],[3.98643302,50.9220476],[3.98637065,50.92207456]]]}},{"type":"Feature","id":"gebouw/Gebouw.16760574/0","properties":{"source":"Digitaal Vlaanderen Gebouwenregister","source_id":"gebouw/Gebouw.16760574/0","kind":"building","height_m":8.6,"status":null},"geometry":{"type":"Polygon","coordinates":[[[3.99005041,50.92210362],[3.98997904,50.92220832],[3.98990603,50.92218843],[3.9899774,50.92208374],[3.99005041,50.92210362]]]}},{"type":"Feature","id":"gebouw/Gebouw.16760578/0","properties":{"source":"Digitaal Vlaanderen Gebouwenregister","source_id":"gebouw/Gebouw.16760578/0","kind":"building","height_m":6.44,"status":null},"geometry":{"type":"Polygon","coordinates":[[[3.99146105,50.92332031],[3.99149577,50.92326589],[3.99158197,50.92328719],[3.99154778,50.92334242],[3.99146105,50.92332031]]]}},{"type":"Feature","id":"gebouw/Gebouw.16761587/0","properties":{"source":"Digitaal Vlaanderen Gebouwenregister","source_id":"gebouw/Gebouw.16761587/0","kind":"building","height_m":7.16,"status":null},"geometry":{"type":"Polygon","coordinates":[[[3.98713987,50.92302722],[3.98711464,50.92308749],[3.98692408,50.9230621],[3.98694992,50.92299711],[3.98713987,50.92302722]]]}},{"type":"Feature","id":"gebouw/Gebouw.16761724/0","properties":{"source":"Digitaal Vlaanderen Gebouwenregister","source_id":"gebouw/Gebouw.16761724/0","kind":"building","height_m":5.0,"status":null},"geometry":{"type":"Polygon","coordinates":[[[3.98579824,50.92264767],[3.98582341,50.92260345],[3.98587841,50.92261596],[3.98585324,50.92266018],[3.98579824,50.92264767]]]}},{"type":"Feature","id":"gebouw/Gebouw.16761810/0","properties":{"source":"Digitaal Vlaanderen Gebouwenregister","source_id":"gebouw/Gebouw.16761810/0","kind":"building","height_m":6.44,"status":null},"geometry":{"type":"Polygon","coordinates":[[[3.98679399,50.92373284],[3.98678408,50.9237306],[3.98678242,50.92373291],[3.98673432,50.92372041],[3.98675495,50.92368825],[3.98670976,50.92367666],[3.98671309,50.92367147],[3.98651967,50.92362189],[3.98648265,50.92367958],[3.98667406,50.92372865],[3.98667733,50.92372355],[3.98677165,50.92374773],[3.98677304,50.92374556],[3.98677752,50.92374683],[3.98676467,50.92377088],[3.98677974,50.9237749],[3.98682402,50.9237867],[3.98688327,50.92380249],[3.98687058,50.92382175],[3.98686803,50.92382562],[3.98697124,50.9238512],[3.98699008,50.92382431],[3.98701145,50.92383049],[3.98704556,50.92378033],[3.98696213,50.92375937],[3.98696638,50.92375292],[3.98687265,50.92372823],[3.98686729,50.92373635],[3.98680998,50.92372125],[3.98680071,50.92373436],[3.98679399,50.92373284]]]}},{"type":"Feature","id":"gebouw/Gebouw.16761877/0","properties":{"source":"Digitaal Vlaanderen Gebouwenregister","source_id":"gebouw/Gebouw.16761877/0","kind":"building","height_m":9.32,"status":null},"geometry":{"type":"Polygon","coordinates":[[[3.98589243,50.92209776],[3.98588194,50.92208948],[3.98591844,50.92207101],[3.98595708,50.92210153],[3.98592188,50.92211933],[3.98591213,50.92211164],[3.98588524,50.92212524],[3.98586684,50.9221107],[3.98589243,50.92209776]]]}},{"type":"Feature","id":"gebouw/Gebouw.16761891/0","properties":{"source":"Digitaal Vlaanderen Gebouwenregister","source_id":"gebouw/Gebouw.16761891/0","kind":"building","height_m":9.32,"status":null},"geometry":{"type":"Polygon","coordinates":[[[3.986737,50.9235431],[3.98676906,50.92348948],[3.98677444,50.92348049],[3.98665499,50.92345359],[3.98670388,50.92333347],[3.98680068,50.92335004],[3.98677408,50.92340374],[3.98681197,50.92341196],[3.98683748,50.92336052],[3.98686316,50.92336483],[3.98687961,50.92332562],[3.98662833,50.92328352],[3.98659899,50.92335831],[3.98657853,50.92341049],[3.9865664,50.92344143],[3.98656166,50.92344072],[3.9865238,50.92350404],[3.98653431,50.92350655],[3.98654226,50.92350845],[3.98658102,50.92351771],[3.98659006,50.92351987],[3.98661002,50.92352464],[3.98661366,50.92351855],[3.98673442,50.9235474],[3.986737,50.9235431]]]}},{"type":"Feature","id":"gebouw/Gebouw.16762076/0","properties":{"source":"Digitaal Vlaanderen Gebouwenregister","source_id":"gebouw/Gebouw.16762076/0","kind":"building","height_m":6.44,"status":null},"geometry":{"type":"Polygon","coordinates":[[[3.98733479,50.92217473],[3.9873493,50.92215155],[3.98742818,50.92216765],[3.98741811,50.92219086],[3.98737337,50.92218378],[3.98733479,50.92217473]]]}},{"type":"Feature","id":"gebouw/Gebouw.16762086/0","properties":{"source":"Digitaal Vlaanderen Gebouwenregister","source_id":"gebouw/Gebouw.16762086/0","kind":"building","height_m":8.6,"status":null},"geometry":{"type":"Polygon","coordinates":[[[3.98722625,50.92272208],[3.98717397,50.9228346],[3.98699368,50.92280329],[3.98692586,50.92279151],[3.98678325,50.92276675],[3.98675524,50.92276188],[3.98678501,50.92269471],[3.98680362,50.92269787],[3.98680669,50.92269097],[3.98694376,50.92271536],[3.98694261,50.92271795],[3.98701617,50.92273104],[3.98703798,50.92268207],[3.98722625,50.92272208]]]}},{"type":"Feature","id":"gebouw/Gebouw.16762317/0","properties":{"source":"Digitaal Vlaanderen Gebouwenregister","source_id":"gebouw/Gebouw.16762317/0","kind":"building","height_m":8.6,"status":null},"geometry":{"type":"Polygon","coordinates":[[[3.98620813,50.92239228],[3.98619224,50.92241654],[3.98611684,50.92239582],[3.98613218,50.92237237],[3.98620813,50.92239228]]]}},{"type":"Feature","id":"gebouw/Gebouw.16762376/0","properties":{"source":"Digitaal Vlaanderen Gebouwenregister","source_id":"gebouw/Gebouw.16762376/0","kind":"building","height_m":5.72,"status":null},"geometry":{"type":"Polygon","coordinates":[[[3.98589766,50.9238773],[3.98586913,50.92386454],[3.9859251,50.92381206],[3.98596413,50.92382869],[3.98597891,50.9238143],[3.98592794,50.92379245],[3.98588692,50.92377486],[3.9858519,50.92375985],[3.98584638,50.92376478],[3.98577141,50.92383174],[3.98574332,50.92385683],[3.98585137,50.92389818],[3.98586727,50.92390426],[3.98589766,50.9238773]]]}},{"type":"Feature","id":"gebouw/Gebouw.16773077/0","properties":{"source":"Digitaal Vlaanderen Gebouwenregister","source_id":"gebouw/Gebouw.16773077/0","kind":"building","height_m":9.32,"status":null},"geometry":{"type":"Polygon","coordinates":[[[3.98656958,50.92357558],[3.98660062,50.92352624],[3.98677749,50.92357069],[3.98674645,50.92362003],[3.98656958,50.92357558]]]}},{"type":"Feature","id":"gebouw/Gebouw.16773104/0","properties":{"source":"Digitaal Vlaanderen Gebouwenregister","source_id":"gebouw/Gebouw.16773104/0","kind":"building","height_m":8.6,"status":null},"geometry":{"type":"Polygon","coordinates":[[[3.98556155,50.92371927],[3.9854999,50.92377846],[3.98541028,50.92374494],[3.9854198,50.92373288],[3.98534032,50.92370502],[3.98539717,50.92363634],[3.98557987,50.92370039],[3.98556155,50.92371927]]]}},{"type":"Feature","id":"gebouw/Gebouw.16773167/0","properties":{"source":"Digitaal Vlaanderen Gebouwenregister","source_id":"gebouw/Gebouw.16773167/0","kind":"building","height_m":8.6,"status":null},"geometry":{"type":"Polygon","coordinates":[[[3.98601992,50.92278063],[3.9860813,50.92279611],[3.98606972,50.92281445],[3.98600834,50.92279897],[3.98601992,50.92278063]]]}},{"type":"Feature","id":"gebouw/Gebouw.16773358/0","properties":{"source":"Digitaal Vlaanderen Gebouwenregister","source_id":"gebouw/Gebouw.16773358/0","kind":"building","height_m":5.0,"status":null},"geometry":{"type":"Polygon","coordinates":[[[3.98627118,50.9219598],[3.98620045,50.92199309],[3.98614438,50.92194539],[3.98613969,50.92194774],[3.98611224,50.92192725],[3.98618558,50.92189117],[3.98632396,50.9218231],[3.98640829,50.92189264],[3.98629123,50.92195036],[3.98627118,50.9219598]]]}},{"type":"Feature","id":"gebouw/Gebouw.16773361/0","properties":{"source":"Digitaal Vlaanderen Gebouwenregister","source_id":"gebouw/Gebouw.16773361/0","kind":"building","height_m":7.16,"status":null},"geometry":{"type":"Polygon","coordinates":[[[3.98555631,50.92390324],[3.98550291,50.92395975],[3.98525418,50.92388057],[3.98528786,50.92383817],[3.98533488,50.92385082],[3.98533631,50.92384901],[3.98539344,50.92386697],[3.98539841,50.92385981],[3.98549688,50.92389169],[3.98550446,50.92388367],[3.98555631,50.92390324]]]}},{"type":"Feature","id":"gebouw/Gebouw.16773374/0","properties":{"source":"Digitaal Vlaanderen Gebouwenregister","source_id":"gebouw/Gebouw.16773374/0","kind":"building","height_m":6.44,"status":null},"geometry":{"type":"Polygon","coordinates":[[[3.98732581,50.92350319],[3.98741103,50.92352554],[3.98738855,50.92355979],[3.98730333,50.92353745],[3.98732581,50.92350319]]]}},{"type":"Feature","id":"gebouw/Gebouw.16774534/0","properties":{"source":"Digitaal Vlaanderen Gebouwenregister","source_id":"gebouw/Gebouw.16774534/0","kind":"building","height_m":5.0,"status":null},"geometry":{"type":"Polygon","coordinates":[[[3.98526113,50.9241733],[3.98519729,50.92423144],[3.98501028,50.92414819],[3.98504674,50.92411498],[3.98500254,50.92409816],[3.98500535,50.9240952],[3.98498302,50.92408671],[3.98500049,50.92406833],[3.98507669,50.92409902],[3.98526113,50.9241733]]]}},{"type":"Feature","id":"gebouw/Gebouw.16774564/0","properties":{"source":"Digitaal Vlaanderen Gebouwenregister","source_id":"gebouw/Gebouw.16774564/0","kind":"building","height_m":6.44,"status":null},"geometry":{"type":"Polygon","coordinates":[[[3.98624713,50.92379552],[3.98618487,50.92385415],[3.98612429,50.92382845],[3.98611657,50.92382518],[3.98601427,50.92378178],[3.98601547,50.92378072],[3.98606689,50.92373529],[3.98617155,50.92378092],[3.98619069,50.92378926],[3.98620388,50.92377717],[3.98624713,50.92379552]]]}},{"type":"Feature","id":"gebouw/Gebouw.16774638/0","properties":{"source":"Digitaal Vlaanderen Gebouwenregister","source_id":"gebouw/Gebouw.16774638/0","kind":"building","height_m":9.32,"status":null},"geometry":{"type":"Polygon","coordinates":[[[3.98686063,50.9232155],[3.98685023,50.92325896],[3.9867433,50.92324874],[3.98674546,50.92323971],[3.9866523,50.9232308],[3.98665796,50.92320712],[3.9866486,50.92320639],[3.98665782,50.92316679],[3.98686752,50.92318673],[3.98686063,50.9232155]]]}},{"type":"Feature","id":"gebouw/Gebouw.16774790/0","properties":{"source":"Digitaal Vlaanderen Gebouwenregister","source_id":"gebouw/Gebouw.16774790/0","kind":"building","height_m":7.88,"status":null},"geometry":{"type":"Polygon","coordinates":[[[3.9874789,50.92178052],[3.98753583,50.92179717],[3.9875095,50.92183315],[3.98745257,50.9218165],[3.9874789,50.92178052]]]}},{"type":"Feature","id":"gebouw/Gebouw.16774880/0","properties":{"source":"Digitaal Vlaanderen Gebouwenregister","source_id":"gebouw/Gebouw.16774880/0","kind":"building","height_m":7.16,"status":null},"geometry":{"type":"Polygon","coordinates":[[[3.98656546,50.92291605],[3.98653568,50.92298176],[3.98643773,50.9229638],[3.98646718,50.92289874],[3.98656546,50.92291605]]]}},{"type":"Feature","id":"gebouw/Gebouw.16774925/0","properties":{"source":"Digitaal Vlaanderen Gebouwenregister","source_id":"gebouw/Gebouw.16774925/0","kind":"building","height_m":9.32,"status":null},"geometry":{"type":"Polygon","coordinates":[[[3.98633346,50.92542259],[3.98629941,50.92545477],[3.98622882,50.92542581],[3.98626231,50.9253929],[3.98633346,50.92542259]]]}},{"type":"Feature","id":"gebouw/Gebouw.16775262/0","properties":{"source":"Digitaal Vlaanderen Gebouwenregister","source_id":"gebouw/Gebouw.16775262/0","kind":"building","height_m":5.0,"status":null},"geometry":{"type":"Polygon","coordinates":[[[3.98532514,50.92411475],[3.98526113,50.9241733],[3.98507669,50.92409902],[3.9851315,50.92404158],[3.98532514,50.92411475]]]}},{"type":"Feature","id":"gebouw/Gebouw.16775272/0","properties":{"source":"Digitaal Vlaanderen Gebouwenregister","source_id":"gebouw/Gebouw.16775272/0","kind":"building","height_m":7.16,"status":null},"geometry":{"type":"Polygon","coordinates":[[[3.98670034,50.92249043],[3.98666283,50.92254585],[3.98639276,50.92247164],[3.98641997,50.92243142],[3.9864822,50.92244825],[3.98648328,50.92244666],[3.98655805,50.92246689],[3.98656659,50.92245426],[3.98670034,50.92249043]]]}},{"type":"Feature","id":"gebouw/Gebouw.16775280/0","properties":{"source":"Digitaal Vlaanderen Gebouwenregister","source_id":"gebouw/Gebouw.16775280/0","kind":"building","height_m":7.88,"status":null},"geometry":{"type":"Polygon","coordinates":[[[3.98571991,50.92208058],[3.98568924,50.92205439],[3.9857265,50.92203695],[3.98575717,50.92206315],[3.98571991,50.92208058]]]}},{"type":"Feature","id":"gebouw/Gebouw.16775371/0","properties":{"source":"Digitaal Vlaanderen Gebouwenregister","source_id":"gebouw/Gebouw.16775371/0","kind":"building","height_m":7.88,"status":null},"geometry":{"type":"Polygon","coordinates":[[[3.98662959,50.92269137],[3.98658831,50.92276595],[3.98642993,50.92273092],[3.98644294,50.92270743],[3.98645738,50.92271062],[3.98647203,50.92268415],[3.98650637,50.92269174],[3.98651988,50.92266734],[3.98662959,50.92269137]]]}},{"type":"Feature","id":"gebouw/Gebouw.16775486/0","properties":{"source":"Digitaal Vlaanderen Gebouwenregister","source_id":"gebouw/Gebouw.16775486/0","kind":"building","height_m":5.0,"status":null},"geometry":{"type":"Polygon","coordinates":[[[3.98650908,50.92403553],[3.98638299,50.92417751],[3.986367,50.92417152],[3.98638915,50.9241479],[3.98631072,50.92411851],[3.98641358,50.92399975],[3.98650908,50.92403553]]]}},{"type":"Feature","id":"gebouw/Gebouw.16775512/0","properties":{"source":"Digitaal Vlaanderen Gebouwenregister","source_id":"gebouw/Gebouw.16775512/0","kind":"building","height_m":8.6,"status":null},"geometry":{"type":"Polygon","coordinates":[[[3.98692213,50.92314176],[3.98692353,50.92313591],[3.98690422,50.92313403],[3.98667106,50.92311141],[3.98665782,50.92316679],[3.98686752,50.92318673],[3.98691038,50.92319081],[3.98692213,50.92314176]]]}},{"type":"Feature","id":"gebouw/Gebouw.16781803/0","properties":{"source":"Digitaal Vlaanderen Gebouwenregister","source_id":"gebouw/Gebouw.16781803/0","kind":"building","height_m":7.16,"status":null},"geometry":{"type":"Polygon","coordinates":[[[3.98540901,50.92403944],[3.98534135,50.92409969],[3.98517578,50.92404606],[3.98522408,50.92398057],[3.98540901,50.92403944]]]}},{"type":"Feature","id":"gebouw/Gebouw.16781840/0","properties":{"source":"Digitaal Vlaanderen Gebouwenregister","source_id":"gebouw/Gebouw.16781840/0","kind":"building","height_m":8.6,"status":null},"geometry":{"type":"Polygon","coordinates":[[[3.98650605,50.92320545],[3.98647913,50.92329147],[3.98620207,50.92323715],[3.98621555,50.92320894],[3.9862845,50.92322222],[3.98630254,50.92318069],[3.98650605,50.92320545]]]}},{"type":"Feature","id":"gebouw/Gebouw.16781863/0","properties":{"source":"Digitaal Vlaanderen Gebouwenregister","source_id":"gebouw/Gebouw.16781863/0","kind":"building","height_m":5.0,"status":null},"geometry":{"type":"Polygon","coordinates":[[[3.98701083,50.92422071],[3.98693801,50.9243013],[3.98689863,50.9243449],[3.9868601,50.92433121],[3.98681327,50.92431457],[3.98683307,50.92429187],[3.98692441,50.92418712],[3.98701083,50.92422071]]]}},{"type":"Feature","id":"gebouw/Gebouw.16781936/0","properties":{"source":"Digitaal Vlaanderen Gebouwenregister","source_id":"gebouw/Gebouw.16781936/0","kind":"building","height_m":7.16,"status":null},"geometry":{"type":"Polygon","coordinates":[[[3.98737794,50.92178942],[3.98742703,50.92181027],[3.98734838,50.92188425],[3.98734005,50.92189209],[3.98718493,50.92182881],[3.98713295,50.92180137],[3.98714174,50.921793],[3.98720157,50.92173662],[3.98729607,50.92177744],[3.98733045,50.92174325],[3.98739735,50.92177011],[3.98737794,50.92178942]]]}},{"type":"Feature","id":"gebouw/Gebouw.16782017/0","properties":{"source":"Digitaal Vlaanderen Gebouwenregister","source_id":"gebouw/Gebouw.16782017/0","kind":"building","height_m":5.0,"status":null},"geometry":{"type":"Polygon","coordinates":[[[3.98555829,50.92404574],[3.98566946,50.92409573],[3.98564283,50.9241194],[3.98570887,50.92414909],[3.98566314,50.92418966],[3.98548437,50.92411141],[3.98555829,50.92404574]]]}},{"type":"Feature","id":"gebouw/Gebouw.16782156/0","properties":{"source":"Digitaal Vlaanderen Gebouwenregister","source_id":"gebouw/Gebouw.16782156/0","kind":"building","height_m":9.32,"status":null},"geometry":{"type":"Polygon","coordinates":[[[3.98632248,50.92292006],[3.9863211,50.92292341],[3.98640995,50.92294017],[3.98640248,50.92295494],[3.98639717,50.92296545],[3.98630699,50.92294896],[3.98623356,50.92293423],[3.98622904,50.92293324],[3.986191,50.92292487],[3.98616559,50.92291901],[3.98617493,50.92290155],[3.98620033,50.92290415],[3.98620225,50.92289737],[3.98632248,50.92292006]]]}},{"type":"Feature","id":"gebouw/Gebouw.16782358/0","properties":{"source":"Digitaal Vlaanderen Gebouwenregister","source_id":"gebouw/Gebouw.16782358/0","kind":"building","height_m":8.6,"status":null},"geometry":{"type":"Polygon","coordinates":[[[3.98547525,50.92397725],[3.98540901,50.92403944],[3.98522408,50.92398057],[3.98517034,50.92396346],[3.98519153,50.92393468],[3.98526903,50.92395868],[3.98526694,50.92396137],[3.98528236,50.92396614],[3.98530971,50.92392893],[3.98533942,50.92393835],[3.98534269,50.92393516],[3.98547525,50.92397725]]]}},{"type":"Feature","id":"gebouw/Gebouw.16782426/0","properties":{"source":"Digitaal Vlaanderen Gebouwenregister","source_id":"gebouw/Gebouw.16782426/0","kind":"building","height_m":7.16,"status":null},"geometry":{"type":"Polygon","coordinates":[[[3.98807989,50.92209051],[3.98804973,50.92215227],[3.9879988,50.92214233],[3.98802895,50.92208057],[3.98807989,50.92209051]]]}},{"type":"Feature","id":"gebouw/Gebouw.16782459/0","properties":{"source":"Digitaal Vlaanderen Gebouwenregister","source_id":"gebouw/Gebouw.16782459/0","kind":"building","height_m":5.72,"status":null},"geometry":{"type":"Polygon","coordinates":[[[3.98577221,50.92479145],[3.98573974,50.92482178],[3.9856889,50.92480003],[3.98572137,50.92476971],[3.98577221,50.92479145]]]}},{"type":"Feature","id":"gebouw/Gebouw.16783566/0","properties":{"source":"Digitaal Vlaanderen Gebouwenregister","source_id":"gebouw/Gebouw.16783566/0","kind":"building","height_m":6.44,"status":null},"geometry":{"type":"Polygon","coordinates":[[[3.98563406,50.92223892],[3.98561889,50.92225828],[3.98556418,50.92224115],[3.98557935,50.92222179],[3.98563406,50.92223892]]]}},{"type":"Feature","id":"gebouw/Gebouw.16783718/0","properties":{"source":"Digitaal Vlaanderen Gebouwenregister","source_id":"gebouw/Gebouw.16783718/0","kind":"building","height_m":5.0,"status":null},"geometry":{"type":"Polygon","coordinates":[[[3.98673655,50.92233433],[3.98673769,50.92233024],[3.98673594,50.92233003],[3.98674667,50.92227862],[3.98674813,50.92227872],[3.98674896,50.92227472],[3.98665989,50.92223791],[3.98670456,50.92219181],[3.98672121,50.92219611],[3.98673264,50.92214298],[3.98669572,50.92211651],[3.98669524,50.92211689],[3.98662062,50.92217624],[3.9866544,50.92219321],[3.9865988,50.92223593],[3.98655984,50.92226586],[3.98661265,50.92228665],[3.98663941,50.92229719],[3.98673175,50.92233354],[3.98673426,50.92233453],[3.98673655,50.92233433]]]}},{"type":"Feature","id":"gebouw/Gebouw.16783808/0","properties":{"source":"Digitaal Vlaanderen Gebouwenregister","source_id":"gebouw/Gebouw.16783808/0","kind":"building","height_m":9.32,"status":null},"geometry":{"type":"Polygon","coordinates":[[[3.98719901,50.92366868],[3.9872472,50.92359891],[3.98729932,50.92361329],[3.98725114,50.92368306],[3.98719901,50.92366868]]]}},{"type":"Feature","id":"gebouw/Gebouw.16783990/0","properties":{"source":"Digitaal Vlaanderen Gebouwenregister","source_id":"gebouw/Gebouw.16783990/0","kind":"building","height_m":9.32,"status":null},"geometry":{"type":"Polygon","coordinates":[[[3.9873842,50.92445818],[3.98734462,50.92450263],[3.98730127,50.92448721],[3.9873005,50.92448694],[3.98731679,50.92446863],[3.98725804,50.92444773],[3.98722887,50.92448049],[3.98720256,50.92447113],[3.98723328,50.92443663],[3.98724993,50.92441793],[3.98726023,50.92441284],[3.98732025,50.92434543],[3.98740253,50.92437469],[3.98738145,50.92439838],[3.98738136,50.92439848],[3.98734126,50.9244429],[3.9873842,50.92445818]]]}},{"type":"Feature","id":"gebouw/Gebouw.16784007/0","properties":{"source":"Digitaal Vlaanderen Gebouwenregister","source_id":"gebouw/Gebouw.16784007/0","kind":"building","height_m":6.44,"status":null},"geometry":{"type":"Polygon","coordinates":[[[3.9870583,50.92382136],[3.98711097,50.92382657],[3.98710451,50.92385268],[3.98705184,50.92384747],[3.9870583,50.92382136]]]}},{"type":"Feature","id":"gebouw/Gebouw.16784172/0","properties":{"source":"Digitaal Vlaanderen Gebouwenregister","source_id":"gebouw/Gebouw.16784172/0","kind":"building","height_m":9.32,"status":null},"geometry":{"type":"Polygon","coordinates":[[[3.98715963,50.92249203],[3.9871277,50.92254755],[3.98709946,50.92254106],[3.98709581,50.92254741],[3.98700157,50.92252576],[3.98701891,50.9224956],[3.98701239,50.9224941],[3.98702845,50.92246143],[3.98715963,50.92249203]]]}},{"type":"Feature","id":"gebouw/Gebouw.16784306/0","properties":{"source":"Digitaal Vlaanderen Gebouwenregister","source_id":"gebouw/Gebouw.16784306/0","kind":"building","height_m":5.0,"status":null},"geometry":{"type":"Polygon","coordinates":[[[3.99063813,50.92197961],[3.99057537,50.92204066],[3.99051419,50.92201554],[3.99056916,50.92195129],[3.99063813,50.92197961]]]}},{"type":"Feature","id":"gebouw/Gebouw.16784319/0","properties":{"source":"Digitaal Vlaanderen Gebouwenregister","source_id":"gebouw/Gebouw.16784319/0","kind":"building","height_m":9.32,"status":null},"geometry":{"type":"Polygon","coordinates":[[[3.98573449,50.92325562],[3.98579449,50.92327276],[3.98576297,50.92332177],[3.98570224,50.92330482],[3.98570141,50.92329915],[3.98573449,50.92325562]]]}},{"type":"Feature","id":"gebouw/Gebouw.16784369/0","properties":{"source":"Digitaal Vlaanderen Gebouwenregister","source_id":"gebouw/Gebouw.16784369/0","kind":"building","height_m":5.0,"status":null},"geometry":{"type":"Polygon","coordinates":[[[3.98572286,50.92365814],[3.98568337,50.92364097],[3.98570896,50.92361745],[3.98566053,50.92360165],[3.9857062,50.92354573],[3.98578518,50.92357014],[3.98588457,50.92361387],[3.98583607,50.9236586],[3.98583449,50.92365792],[3.98575512,50.92373087],[3.9856795,50.923698],[3.98572286,50.92365814]]]}},{"type":"Feature","id":"gebouw/Gebouw.16784400/0","properties":{"source":"Digitaal Vlaanderen Gebouwenregister","source_id":"gebouw/Gebouw.16784400/0","kind":"building","height_m":7.16,"status":null},"geometry":{"type":"Polygon","coordinates":[[[3.98695768,50.92438756],[3.98693547,50.92441262],[3.98686126,50.92438626],[3.98689863,50.9243449],[3.98693801,50.9243013],[3.98701083,50.92422071],[3.98706972,50.92424359],[3.98700632,50.92430878],[3.98702208,50.9243149],[3.98695768,50.92438756]]]}},{"type":"Feature","id":"gebouw/Gebouw.16785487/0","properties":{"source":"Digitaal Vlaanderen Gebouwenregister","source_id":"gebouw/Gebouw.16785487/0","kind":"building","height_m":8.6,"status":null},"geometry":{"type":"Polygon","coordinates":[[[3.98654955,50.92313452],[3.98652837,50.92313256],[3.98625874,50.92311507],[3.98620924,50.92311176],[3.98610699,50.92310492],[3.98611184,50.92310174],[3.98608111,50.92309694],[3.98609145,50.92302585],[3.98622011,50.92303247],[3.98622358,50.92300714],[3.98630925,50.92301352],[3.98630179,50.92308477],[3.9864061,50.9230893],[3.98642876,50.9230908],[3.98644795,50.92309207],[3.98645384,50.92305405],[3.98646017,50.92301328],[3.98651729,50.92301683],[3.98656642,50.92303097],[3.98654955,50.92313452]]]}},{"type":"Feature","id":"gebouw/Gebouw.16785656/0","properties":{"source":"Digitaal Vlaanderen Gebouwenregister","source_id":"gebouw/Gebouw.16785656/0","kind":"building","height_m":9.32,"status":null},"geometry":{"type":"Polygon","coordinates":[[[3.98891623,50.92264424],[3.98886128,50.92263032],[3.9888778,50.92260428],[3.98893274,50.9226182],[3.98891623,50.92264424]]]}},{"type":"Feature","id":"gebouw/Gebouw.16785791/0","properties":{"source":"Digitaal Vlaanderen Gebouwenregister","source_id":"gebouw/Gebouw.16785791/0","kind":"building","height_m":5.72,"status":null},"geometry":{"type":"Polygon","coordinates":[[[3.98629953,50.92333149],[3.98628643,50.92334867],[3.98634589,50.92336655],[3.98634054,50.92337366],[3.98635798,50.92337913],[3.98636014,50.92337858],[3.98637145,50.92338195],[3.98637073,50.92338291],[3.98639478,50.92339026],[3.98636375,50.92343037],[3.98617314,50.92337336],[3.98615392,50.92336761],[3.98619527,50.92330667],[3.98629953,50.92333149]]]}},{"type":"Feature","id":"gebouw/Gebouw.16785841/0","properties":{"source":"Digitaal Vlaanderen Gebouwenregister","source_id":"gebouw/Gebouw.16785841/0","kind":"building","height_m":6.44,"status":null},"geometry":{"type":"Polygon","coordinates":[[[3.98556764,50.92475365],[3.98558464,50.92476399],[3.98558343,50.92476502],[3.98563129,50.92478604],[3.98559933,50.9248169],[3.98555027,50.92479353],[3.98554833,50.9247952],[3.98541505,50.92473328],[3.98545274,50.92470077],[3.98556764,50.92475365]]]}},{"type":"Feature","id":"gebouw/Gebouw.16786013/0","properties":{"source":"Digitaal Vlaanderen Gebouwenregister","source_id":"gebouw/Gebouw.16786013/0","kind":"building","height_m":9.32,"status":null},"geometry":{"type":"Polygon","coordinates":[[[3.98889254,50.92198589],[3.98886612,50.92204698],[3.98881506,50.92203816],[3.98884148,50.92197706],[3.98889254,50.92198589]]]}},{"type":"Feature","id":"gebouw/Gebouw.16786188/0","properties":{"source":"Digitaal Vlaanderen Gebouwenregister","source_id":"gebouw/Gebouw.16786188/0","kind":"building","height_m":9.32,"status":null},"geometry":{"type":"Polygon","coordinates":[[[3.98770525,50.92449289],[3.98758092,50.92468677],[3.98755677,50.92472443],[3.98747539,50.92470359],[3.9874995,50.92466599],[3.98749252,50.9246642],[3.98751111,50.92463512],[3.98750752,50.92463421],[3.98756297,50.92454744],[3.9875513,50.92454446],[3.9875623,50.92452586],[3.98755376,50.92452384],[3.98756952,50.92449721],[3.98758239,50.92450026],[3.98760344,50.92446689],[3.98770525,50.92449289]]]}},{"type":"Feature","id":"gebouw/Gebouw.16794253/0","properties":{"source":"Digitaal Vlaanderen Gebouwenregister","source_id":"gebouw/Gebouw.16794253/0","kind":"building","height_m":5.0,"status":null},"geometry":{"type":"Polygon","coordinates":[[[3.98735984,50.92387434],[3.98737817,50.9238327],[3.98747322,50.92384942],[3.98745489,50.92389106],[3.98735984,50.92387434]]]}},{"type":"Feature","id":"gebouw/Gebouw.16794497/0","properties":{"source":"Digitaal Vlaanderen Gebouwenregister","source_id":"gebouw/Gebouw.16794497/0","kind":"building","height_m":9.32,"status":null},"geometry":{"type":"Polygon","coordinates":[[[3.98693545,50.92331495],[3.98694965,50.92331724],[3.98700708,50.92332648],[3.98702858,50.92332994],[3.98706225,50.92333536],[3.98707637,50.92327362],[3.98694723,50.92326181],[3.98693545,50.92331495]]]}},{"type":"Feature","id":"gebouw/Gebouw.16794842/0","properties":{"source":"Digitaal Vlaanderen Gebouwenregister","source_id":"gebouw/Gebouw.16794842/0","kind":"building","height_m":5.72,"status":null},"geometry":{"type":"Polygon","coordinates":[[[3.98729952,50.92433241],[3.98716246,50.9244912],[3.98710047,50.92446768],[3.98710472,50.92446321],[3.98708339,50.92445512],[3.98712236,50.92441409],[3.98709417,50.92440339],[3.98719224,50.92429139],[3.98729952,50.92433241]]]}},{"type":"Feature","id":"gebouw/Gebouw.16794850/0","properties":{"source":"Digitaal Vlaanderen Gebouwenregister","source_id":"gebouw/Gebouw.16794850/0","kind":"building","height_m":6.44,"status":null},"geometry":{"type":"Polygon","coordinates":[[[3.98768259,50.92258384],[3.98771045,50.92253933],[3.98776925,50.92255404],[3.98774139,50.92259854],[3.98768259,50.92258384]]]}},{"type":"Feature","id":"gebouw/Gebouw.16794996/0","properties":{"source":"Digitaal Vlaanderen Gebouwenregister","source_id":"gebouw/Gebouw.16794996/0","kind":"building","height_m":5.72,"status":null},"geometry":{"type":"Polygon","coordinates":[[[3.98842057,50.92196557],[3.98879344,50.922027],[3.98875439,50.92212169],[3.98879371,50.92212816],[3.98876187,50.92220539],[3.98886054,50.92222164],[3.98878726,50.92239937],[3.98821653,50.92230535],[3.98825889,50.92220261],[3.98826723,50.92218238],[3.9883607,50.92195571],[3.98837834,50.92195862],[3.98842057,50.92196557]]]}},{"type":"Feature","id":"gebouw/Gebouw.16796772/0","properties":{"source":"Digitaal Vlaanderen Gebouwenregister","source_id":"gebouw/Gebouw.16796772/0","kind":"building","height_m":9.32,"status":null},"geometry":{"type":"Polygon","coordinates":[[[3.98630699,50.92294896],[3.98629171,50.92297857],[3.98622909,50.92296688],[3.98622353,50.92296584],[3.98621502,50.92296425],[3.9862271,50.9229447],[3.98623356,50.92293423],[3.98630699,50.92294896]]]}},{"type":"Feature","id":"gebouw/Gebouw.16797034/0","properties":{"source":"Digitaal Vlaanderen Gebouwenregister","source_id":"gebouw/Gebouw.16797034/0","kind":"building","height_m":6.44,"status":null},"geometry":{"type":"Polygon","coordinates":[[[3.98658127,50.92244445],[3.98650313,50.92242327],[3.98649722,50.9224329],[3.98623189,50.92236118],[3.98625981,50.9223208],[3.98628078,50.92229045],[3.98642711,50.92233015],[3.98649446,50.92234842],[3.98649763,50.92234354],[3.98650094,50.92234454],[3.98651658,50.92232053],[3.98648547,50.92231139],[3.98652513,50.92225219],[3.98655267,50.92226304],[3.98653427,50.9222929],[3.98662859,50.92231376],[3.98663941,50.92229719],[3.98673175,50.92233354],[3.98666723,50.92243185],[3.98660227,50.92241414],[3.98658127,50.92244445]]]}},{"type":"Feature","id":"gebouw/Gebouw.16797045/0","properties":{"source":"Digitaal Vlaanderen Gebouwenregister","source_id":"gebouw/Gebouw.16797045/0","kind":"building","height_m":9.32,"status":null},"geometry":{"type":"Polygon","coordinates":[[[3.98820495,50.92286077],[3.9882209,50.9228646],[3.98819581,50.92290626],[3.9881817,50.92290286],[3.98816497,50.92289884],[3.98819006,50.92285718],[3.98820495,50.92286077]]]}},{"type":"Feature","id":"gebouw/Gebouw.16797122/0","properties":{"source":"Digitaal Vlaanderen Gebouwenregister","source_id":"gebouw/Gebouw.16797122/0","kind":"building","height_m":9.32,"status":null},"geometry":{"type":"Polygon","coordinates":[[[3.98667652,50.92425449],[3.98665008,50.92428985],[3.98659698,50.92427228],[3.98662653,50.92423766],[3.98667652,50.92425449]]]}},{"type":"Feature","id":"gebouw/Gebouw.16797240/0","properties":{"source":"Digitaal Vlaanderen Gebouwenregister","source_id":"gebouw/Gebouw.16797240/0","kind":"building","height_m":8.6,"status":null},"geometry":{"type":"Polygon","coordinates":[[[3.98608196,50.92416208],[3.98613369,50.92418377],[3.98609775,50.924218],[3.98604603,50.92419631],[3.98608196,50.92416208]]]}},{"type":"Feature","id":"gebouw/Gebouw.16797293/0","properties":{"source":"Digitaal Vlaanderen Gebouwenregister","source_id":"gebouw/Gebouw.16797293/0","kind":"building","height_m":6.44,"status":null},"geometry":{"type":"Polygon","coordinates":[[[3.98576864,50.92346953],[3.98564078,50.92342874],[3.98570739,50.92334532],[3.98576189,50.92336271],[3.98575196,50.92337514],[3.98582532,50.92339854],[3.98576864,50.92346953]]]}},{"type":"Feature","id":"gebouw/Gebouw.16797419/0","properties":{"source":"Digitaal Vlaanderen Gebouwenregister","source_id":"gebouw/Gebouw.16797419/0","kind":"building","height_m":6.44,"status":null},"geometry":{"type":"Polygon","coordinates":[[[3.98531744,50.92450914],[3.98522318,50.92446516],[3.98529925,50.92440004],[3.98547214,50.92448072],[3.98541098,50.92453307],[3.98543798,50.92454567],[3.98536508,50.92460807],[3.98525946,50.92455878],[3.98531744,50.92450914]]]}},{"type":"Feature","id":"gebouw/Gebouw.16797675/0","properties":{"source":"Digitaal Vlaanderen Gebouwenregister","source_id":"gebouw/Gebouw.16797675/0","kind":"building","height_m":9.32,"status":null},"geometry":{"type":"Polygon","coordinates":[[[3.99247945,50.92360507],[3.99251688,50.92353684],[3.9925608,50.92354381],[3.99252323,50.92361048],[3.99247945,50.92360507]]]}},{"type":"Feature","id":"gebouw/Gebouw.16797717/0","properties":{"source":"Digitaal Vlaanderen Gebouwenregister","source_id":"gebouw/Gebouw.16797717/0","kind":"building","height_m":9.32,"status":null},"geometry":{"type":"Polygon","coordinates":[[[3.98728481,50.92272494],[3.98728074,50.92273231],[3.98722625,50.92272208],[3.98703798,50.92268207],[3.98694807,50.92266297],[3.98695141,50.92265546],[3.98692807,50.9226513],[3.98693099,50.92264478],[3.98690077,50.92263917],[3.98690341,50.92263426],[3.98690236,50.92263409],[3.98690321,50.92263214],[3.98690426,50.92263238],[3.98691471,50.9226115],[3.98690045,50.92260903],[3.9869136,50.92258219],[3.98692695,50.92258461],[3.98693061,50.92257826],[3.98695576,50.92258293],[3.98695627,50.92258206],[3.98697111,50.92258485],[3.9869736,50.92258637],[3.98701127,50.9225935],[3.9870119,50.92259227],[3.98702672,50.92259508],[3.98702901,50.9225967],[3.98703935,50.92259866],[3.98710649,50.92261137],[3.98708886,50.92264856],[3.9872393,50.92267812],[3.98724552,50.92266547],[3.98722717,50.92266187],[3.98724702,50.9226215],[3.98733265,50.92263832],[3.98728481,50.92272494]]]}},{"type":"Feature","id":"gebouw/Gebouw.16800978/0","properties":{"source":"Digitaal Vlaanderen Gebouwenregister","source_id":"gebouw/Gebouw.16800978/0","kind":"building","height_m":8.6,"status":null},"geometry":{"type":"Polygon","coordinates":[[[3.98715269,50.92299283],[3.98714383,50.92301681],[3.98707142,50.92300663],[3.98708261,50.92298239],[3.98714711,50.922992],[3.98715269,50.92299283]]]}},{"type":"Feature","id":"gebouw/Gebouw.16801097/0","properties":{"source":"Digitaal Vlaanderen Gebouwenregister","source_id":"gebouw/Gebouw.16801097/0","kind":"building","height_m":8.6,"status":null},"geometry":{"type":"Polygon","coordinates":[[[3.98649501,50.92275298],[3.98647375,50.92279052],[3.98633592,50.92275932],[3.98635718,50.92272179],[3.98649501,50.92275298]]]}},{"type":"Feature","id":"gebouw/Gebouw.16801307/0","properties":{"source":"Digitaal Vlaanderen Gebouwenregister","source_id":"gebouw/Gebouw.16801307/0","kind":"building","height_m":8.6,"status":null},"geometry":{"type":"Polygon","coordinates":[[[3.98566314,50.92418966],[3.98568555,50.92420355],[3.98571513,50.92421792],[3.98566175,50.92426181],[3.9856725,50.92426703],[3.98563617,50.92429951],[3.98559954,50.92428172],[3.98551939,50.92424279],[3.98552964,50.92423409],[3.98555401,50.92424559],[3.98560309,50.92420406],[3.98555315,50.92418284],[3.98550712,50.92422455],[3.98540782,50.92418078],[3.98548437,50.92411141],[3.98566314,50.92418966]]]}},{"type":"Feature","id":"gebouw/Gebouw.16801325/0","properties":{"source":"Digitaal Vlaanderen Gebouwenregister","source_id":"gebouw/Gebouw.16801325/0","kind":"building","height_m":6.44,"status":null},"geometry":{"type":"Polygon","coordinates":[[[3.98599424,50.9219074],[3.98596535,50.92188343],[3.98597144,50.92188043],[3.98601851,50.92185727],[3.98623335,50.92175159],[3.98632396,50.9218231],[3.98618558,50.92189117],[3.98613075,50.921846],[3.98605485,50.9218844],[3.98601578,50.92190416],[3.98601031,50.92189979],[3.98599424,50.9219074]]]}},{"type":"Feature","id":"gebouw/Gebouw.16801604/0","properties":{"source":"Digitaal Vlaanderen Gebouwenregister","source_id":"gebouw/Gebouw.16801604/0","kind":"building","height_m":5.72,"status":null},"geometry":{"type":"Polygon","coordinates":[[[3.98528958,50.92481573],[3.98525398,50.92486736],[3.985115,50.92482323],[3.98508934,50.92485729],[3.98496994,50.92482258],[3.98503028,50.92473966],[3.98521842,50.92479485],[3.98528958,50.92481573]]]}},{"type":"Feature","id":"gebouw/Gebouw.16801646/0","properties":{"source":"Digitaal Vlaanderen Gebouwenregister","source_id":"gebouw/Gebouw.16801646/0","kind":"building","height_m":5.72,"status":null},"geometry":{"type":"Polygon","coordinates":[[[3.98527482,50.924731],[3.98524326,50.92477432],[3.98523251,50.92477158],[3.98521842,50.92479485],[3.98503028,50.92473966],[3.98507824,50.92467294],[3.98526327,50.92472759],[3.98527482,50.924731]]]}},{"type":"Feature","id":"gebouw/Gebouw.16801669/0","properties":{"source":"Digitaal Vlaanderen Gebouwenregister","source_id":"gebouw/Gebouw.16801669/0","kind":"building","height_m":7.16,"status":null},"geometry":{"type":"Polygon","coordinates":[[[3.98550431,50.92357036],[3.98544758,50.92363909],[3.98539794,50.92362273],[3.98545466,50.923554],[3.98550431,50.92357036]]]}},{"type":"Feature","id":"gebouw/Gebouw.16801755/0","properties":{"source":"Digitaal Vlaanderen Gebouwenregister","source_id":"gebouw/Gebouw.16801755/0","kind":"building","height_m":8.6,"status":null},"geometry":{"type":"Polygon","coordinates":[[[3.98740812,50.9239106],[3.98759746,50.92394576],[3.98756664,50.92401206],[3.98741267,50.92398356],[3.98742427,50.92395757],[3.98738796,50.92395018],[3.98740812,50.9239106]]]}},{"type":"Feature","id":"gebouw/Gebouw.16801776/0","properties":{"source":"Digitaal Vlaanderen Gebouwenregister","source_id":"gebouw/Gebouw.16801776/0","kind":"building","height_m":8.6,"status":null},"geometry":{"type":"Polygon","coordinates":[[[3.98701962,50.92293824],[3.98710423,50.92295394],[3.98709767,50.92296805],[3.9870912,50.92298198],[3.98696523,50.9229586],[3.98694062,50.92295403],[3.98694405,50.92294663],[3.98687256,50.92293244],[3.98684456,50.92293183],[3.98693955,50.92294892],[3.98692413,50.9229805],[3.98680594,50.92295831],[3.98681121,50.92294505],[3.98669848,50.92292532],[3.98671331,50.92288493],[3.9867245,50.92288721],[3.98687556,50.92292002],[3.98687581,50.92292007],[3.98687593,50.9229201],[3.98695064,50.92293129],[3.98695315,50.9229259],[3.98701962,50.92293824]]]}},{"type":"Feature","id":"gebouw/Gebouw.16812087/0","properties":{"source":"Digitaal Vlaanderen Gebouwenregister","source_id":"gebouw/Gebouw.16812087/0","kind":"building","height_m":8.6,"status":null},"geometry":{"type":"Polygon","coordinates":[[[3.98652837,50.92313256],[3.98652821,50.92313309],[3.98650605,50.92320545],[3.98630254,50.92318069],[3.98628297,50.92317831],[3.98626899,50.92317661],[3.98627647,50.9231492],[3.98625523,50.92314726],[3.98625874,50.92311507],[3.98652837,50.92313256]]]}},{"type":"Feature","id":"gebouw/Gebouw.16812363/0","properties":{"source":"Digitaal Vlaanderen Gebouwenregister","source_id":"gebouw/Gebouw.16812363/0","kind":"building","height_m":5.72,"status":null},"geometry":{"type":"Polygon","coordinates":[[[3.98772246,50.92488444],[3.98779081,50.92485944],[3.98783471,50.92491268],[3.98776345,50.92493493],[3.98772246,50.92488444]]]}},{"type":"Feature","id":"gebouw/Gebouw.16812528/0","properties":{"source":"Digitaal Vlaanderen Gebouwenregister","source_id":"gebouw/Gebouw.16812528/0","kind":"building","height_m":8.6,"status":null},"geometry":{"type":"Polygon","coordinates":[[[3.98657872,50.9228868],[3.98656546,50.92291605],[3.98646718,50.92289874],[3.98635353,50.92288041],[3.98634106,50.92290496],[3.98626655,50.9228923],[3.98627359,50.92287574],[3.98621616,50.92286598],[3.98622231,50.92285152],[3.98621992,50.92285112],[3.9862283,50.9228314],[3.98629642,50.92284221],[3.98657872,50.9228868]]]}},{"type":"Feature","id":"gebouw/Gebouw.16812530/0","properties":{"source":"Digitaal Vlaanderen Gebouwenregister","source_id":"gebouw/Gebouw.16812530/0","kind":"building","height_m":5.0,"status":null},"geometry":{"type":"Polygon","coordinates":[[[3.98510781,50.92515979],[3.9851573,50.9251042],[3.98529114,50.92515179],[3.98528822,50.92515507],[3.98531444,50.92516439],[3.98526752,50.92521675],[3.98510781,50.92515979]]]}},{"type":"Feature","id":"gebouw/Gebouw.16812554/0","properties":{"source":"Digitaal Vlaanderen Gebouwenregister","source_id":"gebouw/Gebouw.16812554/0","kind":"building","height_m":7.16,"status":null},"geometry":{"type":"Polygon","coordinates":[[[3.98667454,50.9241814],[3.98665666,50.92417508],[3.98664448,50.92418878],[3.98662921,50.92418335],[3.98659982,50.92421641],[3.98661291,50.92422106],[3.98656413,50.92427591],[3.98646807,50.92424179],[3.98661787,50.92407332],[3.98673214,50.92411391],[3.98669665,50.92415549],[3.98667454,50.9241814]]]}},{"type":"Feature","id":"gebouw/Gebouw.16813778/0","properties":{"source":"Digitaal Vlaanderen Gebouwenregister","source_id":"gebouw/Gebouw.16813778/0","kind":"building","height_m":6.44,"status":null},"geometry":{"type":"Polygon","coordinates":[[[3.98677324,50.9241293],[3.9868393,50.92415404],[3.98677808,50.92422901],[3.98671444,50.92420639],[3.98671122,50.92420525],[3.98668909,50.92419739],[3.98671729,50.92416284],[3.98669665,50.92415549],[3.98673214,50.92411391],[3.98677324,50.9241293]]]}},{"type":"Feature","id":"gebouw/Gebouw.16813983/0","properties":{"source":"Digitaal Vlaanderen Gebouwenregister","source_id":"gebouw/Gebouw.16813983/0","kind":"building","height_m":7.88,"status":null},"geometry":{"type":"Polygon","coordinates":[[[3.98523805,50.92359283],[3.98521628,50.92362462],[3.98520018,50.92362021],[3.98517413,50.92361309],[3.98514915,50.92360625],[3.98516052,50.92358591],[3.98514948,50.92358289],[3.98513846,50.92359899],[3.98512479,50.92361894],[3.98508133,50.92360705],[3.98509454,50.92358775],[3.98513475,50.92352531],[3.98516871,50.92353383],[3.98517486,50.92352403],[3.9851798,50.92351616],[3.9851687,50.92351338],[3.98518719,50.92348393],[3.98520578,50.9234886],[3.98523256,50.92344595],[3.98532023,50.92346794],[3.98523805,50.92359283]]]}},{"type":"Feature","id":"gebouw/Gebouw.16820878/0","properties":{"source":"Digitaal Vlaanderen Gebouwenregister","source_id":"gebouw/Gebouw.16820878/0","kind":"building","height_m":7.88,"status":null},"geometry":{"type":"Polygon","coordinates":[[[3.98570325,50.92389575],[3.98581058,50.92393683],[3.98578179,50.92396411],[3.98588579,50.92400392],[3.98584849,50.92403926],[3.98564159,50.92396011],[3.98570325,50.92389575]]]}},{"type":"Feature","id":"gebouw/Gebouw.16820987/0","properties":{"source":"Digitaal Vlaanderen Gebouwenregister","source_id":"gebouw/Gebouw.16820987/0","kind":"building","height_m":5.72,"status":null},"geometry":{"type":"Polygon","coordinates":[[[3.98651089,50.92197552],[3.98620115,50.92211487],[3.98616268,50.92208145],[3.98628138,50.92202695],[3.98628415,50.92202936],[3.98634822,50.92199994],[3.9862957,50.92195425],[3.98629123,50.92195036],[3.98631155,50.92194693],[3.98632277,50.92194539],[3.98642712,50.92189947],[3.98651089,50.92197552]]]}},{"type":"Feature","id":"gebouw/Gebouw.16820988/0","properties":{"source":"Digitaal Vlaanderen Gebouwenregister","source_id":"gebouw/Gebouw.16820988/0","kind":"building","height_m":6.44,"status":null},"geometry":{"type":"Polygon","coordinates":[[[3.99010998,50.92232064],[3.99021066,50.92220336],[3.9903379,50.92224699],[3.99023722,50.92236428],[3.99010998,50.92232064]]]}},{"type":"Feature","id":"gebouw/Gebouw.16821152/0","properties":{"source":"Digitaal Vlaanderen Gebouwenregister","source_id":"gebouw/Gebouw.16821152/0","kind":"building","height_m":8.6,"status":null},"geometry":{"type":"Polygon","coordinates":[[[3.9858224,50.92487092],[3.98577539,50.92491305],[3.98572908,50.92489168],[3.98576576,50.92485955],[3.98577423,50.92486353],[3.98578511,50.92485425],[3.9858224,50.92487092]]]}},{"type":"Feature","id":"gebouw/Gebouw.16821207/0","properties":{"source":"Digitaal Vlaanderen Gebouwenregister","source_id":"gebouw/Gebouw.16821207/0","kind":"building","height_m":7.88,"status":null},"geometry":{"type":"Polygon","coordinates":[[[3.98847657,50.92178154],[3.98851393,50.92178653],[3.98849783,50.9218347],[3.98846046,50.9218297],[3.98847657,50.92178154]]]}},{"type":"Feature","id":"gebouw/Gebouw.16821296/0","properties":{"source":"Digitaal Vlaanderen Gebouwenregister","source_id":"gebouw/Gebouw.16821296/0","kind":"building","height_m":6.44,"status":null},"geometry":{"type":"Polygon","coordinates":[[[3.98676636,50.92431449],[3.98679489,50.92432464],[3.98676456,50.92435869],[3.98673653,50.92434871],[3.98676636,50.92431449]]]}},{"type":"Feature","id":"gebouw/Gebouw.16829342/0","properties":{"source":"Digitaal Vlaanderen Gebouwenregister","source_id":"gebouw/Gebouw.16829342/0","kind":"building","height_m":8.6,"status":null},"geometry":{"type":"Polygon","coordinates":[[[3.98627148,50.92369084],[3.98629554,50.92366347],[3.98633368,50.92367685],[3.98630963,50.92370423],[3.98627148,50.92369084]]]}},{"type":"Feature","id":"gebouw/Gebouw.16847976/0","properties":{"source":"Digitaal Vlaanderen Gebouwenregister","source_id":"gebouw/Gebouw.16847976/0","kind":"building","height_m":8.6,"status":null},"geometry":{"type":"Polygon","coordinates":[[[3.98671391,50.92430759],[3.98670891,50.92431372],[3.98665582,50.92429487],[3.98668902,50.92425754],[3.98674,50.92427564],[3.98671391,50.92430759]]]}},{"type":"Feature","id":"gebouw/Gebouw.16847978/0","properties":{"source":"Digitaal Vlaanderen Gebouwenregister","source_id":"gebouw/Gebouw.16847978/0","kind":"building","height_m":5.0,"status":null},"geometry":{"type":"Polygon","coordinates":[[[3.98627526,50.92398749],[3.98631009,50.92400171],[3.98626659,50.92404428],[3.98623176,50.92403006],[3.98627526,50.92398749]]]}},{"type":"Feature","id":"gebouw/Gebouw.17042352/0","properties":{"source":"Digitaal Vlaanderen Gebouwenregister","source_id":"gebouw/Gebouw.17042352/0","kind":"building","height_m":8.6,"status":null},"geometry":{"type":"Polygon","coordinates":[[[3.98590214,50.92399408],[3.98594674,50.92394767],[3.98603973,50.92398338],[3.98599512,50.92402978],[3.98590214,50.92399408]]]}},{"type":"Feature","id":"gebouw/Gebouw.17042682/0","properties":{"source":"Digitaal Vlaanderen Gebouwenregister","source_id":"gebouw/Gebouw.17042682/0","kind":"building","height_m":9.32,"status":null},"geometry":{"type":"Polygon","coordinates":[[[3.98674536,50.9218173],[3.98685539,50.92184364],[3.98679881,50.92193629],[3.98679408,50.92193538],[3.9867962,50.92193204],[3.98665106,50.92189662],[3.98664872,50.92189996],[3.9866452,50.92189883],[3.98669666,50.92180564],[3.98670603,50.92180788],[3.98674536,50.9218173]]]}},{"type":"Feature","id":"gebouw/Gebouw.17042767/0","properties":{"source":"Digitaal Vlaanderen Gebouwenregister","source_id":"gebouw/Gebouw.17042767/0","kind":"building","height_m":5.0,"status":null},"geometry":{"type":"Polygon","coordinates":[[[3.98652346,50.92479216],[3.98657505,50.92481232],[3.98653692,50.92485135],[3.98648836,50.92482814],[3.98652346,50.92479216]]]}},{"type":"Feature","id":"gebouw/Gebouw.17042812/0","properties":{"source":"Digitaal Vlaanderen Gebouwenregister","source_id":"gebouw/Gebouw.17042812/0","kind":"building","height_m":7.16,"status":null},"geometry":{"type":"Polygon","coordinates":[[[3.98647913,50.92329147],[3.98645409,50.92334249],[3.98633381,50.92331891],[3.9863246,50.92333746],[3.98629953,50.92333149],[3.98619527,50.92330667],[3.98616717,50.92329998],[3.98615678,50.92329751],[3.9861694,50.92327795],[3.98618179,50.92328115],[3.98618953,50.92326916],[3.9862762,50.92328679],[3.98628151,50.92327766],[3.98628645,50.92326918],[3.98618792,50.92324982],[3.98619359,50.92323549],[3.98620207,50.92323715],[3.98647913,50.92329147]]]}},{"type":"Feature","id":"gebouw/Gebouw.17058298/0","properties":{"source":"Digitaal Vlaanderen Gebouwenregister","source_id":"gebouw/Gebouw.17058298/0","kind":"building","height_m":8.6,"status":null},"geometry":{"type":"Polygon","coordinates":[[[3.98654608,50.92451975],[3.9865704,50.92449141],[3.98661517,50.92450676],[3.98659085,50.9245351],[3.98654608,50.92451975]]]}},{"type":"Feature","id":"gebouw/Gebouw.17058580/0","properties":{"source":"Digitaal Vlaanderen Gebouwenregister","source_id":"gebouw/Gebouw.17058580/0","kind":"building","height_m":5.0,"status":null},"geometry":{"type":"Polygon","coordinates":[[[3.98534126,50.92356012],[3.98530922,50.92355143],[3.98527597,50.92360321],[3.98525114,50.92359641],[3.98523805,50.92359283],[3.98532023,50.92346794],[3.9853875,50.92348635],[3.98534126,50.92356012]]]}},{"type":"Feature","id":"gebouw/Gebouw.17058647/0","properties":{"source":"Digitaal Vlaanderen Gebouwenregister","source_id":"gebouw/Gebouw.17058647/0","kind":"building","height_m":7.88,"status":null},"geometry":{"type":"Polygon","coordinates":[[[3.98689426,50.92288104],[3.98687552,50.92292098],[3.98682525,50.92290973],[3.9867245,50.92288721],[3.98678325,50.92276675],[3.98692586,50.92279151],[3.98688506,50.92287933],[3.98689426,50.92288104]]]}},{"type":"Feature","id":"gebouw/Gebouw.17058726/0","properties":{"source":"Digitaal Vlaanderen Gebouwenregister","source_id":"gebouw/Gebouw.17058726/0","kind":"building","height_m":9.32,"status":null},"geometry":{"type":"Polygon","coordinates":[[[3.99037158,50.92183983],[3.99031649,50.92190413],[3.99028305,50.92194317],[3.9902486,50.92198338],[3.99014016,50.92194771],[3.99022872,50.92183406],[3.99025415,50.92180439],[3.9902563,50.92180188],[3.99037158,50.92183983]]]}},{"type":"Feature","id":"gebouw/Gebouw.17058792/0","properties":{"source":"Digitaal Vlaanderen Gebouwenregister","source_id":"gebouw/Gebouw.17058792/0","kind":"building","height_m":6.44,"status":null},"geometry":{"type":"Polygon","coordinates":[[[3.98636375,50.92343037],[3.98633851,50.923463],[3.98631287,50.92345522],[3.98628787,50.92348768],[3.98614182,50.92344278],[3.98616917,50.92340723],[3.9861513,50.92340174],[3.98617314,50.92337336],[3.98636375,50.92343037]]]}},{"type":"Feature","id":"gebouw/Gebouw.17058841/0","properties":{"source":"Digitaal Vlaanderen Gebouwenregister","source_id":"gebouw/Gebouw.17058841/0","kind":"building","height_m":6.44,"status":null},"geometry":{"type":"Polygon","coordinates":[[[3.99074206,50.92201691],[3.99067049,50.92198721],[3.99069387,50.9219647],[3.99064574,50.92194457],[3.99076649,50.92182924],[3.99083157,50.92185646],[3.99084108,50.92184756],[3.99090413,50.92187374],[3.99077453,50.92199847],[3.99076523,50.92199461],[3.99074206,50.92201691]]]}},{"type":"Feature","id":"gebouw/Gebouw.17058995/0","properties":{"source":"Digitaal Vlaanderen Gebouwenregister","source_id":"gebouw/Gebouw.17058995/0","kind":"building","height_m":6.44,"status":null},"geometry":{"type":"Polygon","coordinates":[[[3.98564904,50.9245171],[3.98564643,50.92451941],[3.98563232,50.92453193],[3.98562806,50.92453572],[3.98554789,50.92450232],[3.98555429,50.92449628],[3.98556863,50.92448271],[3.98564904,50.9245171]]]}},{"type":"Feature","id":"gebouw/Gebouw.17059105/0","properties":{"source":"Digitaal Vlaanderen Gebouwenregister","source_id":"gebouw/Gebouw.17059105/0","kind":"building","height_m":5.0,"status":null},"geometry":{"type":"Polygon","coordinates":[[[3.98668172,50.92306668],[3.98691502,50.9230889],[3.98690422,50.92313403],[3.98667106,50.92311141],[3.98668172,50.92306668]]]}},{"type":"Feature","id":"gebouw/Gebouw.17059232/0","properties":{"source":"Digitaal Vlaanderen Gebouwenregister","source_id":"gebouw/Gebouw.17059232/0","kind":"building","height_m":5.72,"status":null},"geometry":{"type":"Polygon","coordinates":[[[3.99006846,50.92202112],[3.99003449,50.92206077],[3.98996174,50.92203779],[3.9899951,50.92199715],[3.99006846,50.92202112]]]}},{"type":"Feature","id":"gebouw/Gebouw.17071604/0","properties":{"source":"Digitaal Vlaanderen Gebouwenregister","source_id":"gebouw/Gebouw.17071604/0","kind":"building","height_m":7.88,"status":null},"geometry":{"type":"Polygon","coordinates":[[[3.98838982,50.92343048],[3.98837427,50.92346439],[3.98830658,50.923452],[3.98832213,50.92341809],[3.98838982,50.92343048]]]}},{"type":"Feature","id":"gebouw/Gebouw.17071658/0","properties":{"source":"Digitaal Vlaanderen Gebouwenregister","source_id":"gebouw/Gebouw.17071658/0","kind":"building","height_m":6.44,"status":null},"geometry":{"type":"Polygon","coordinates":[[[3.98646272,50.92473352],[3.98651708,50.92475189],[3.98647284,50.92480431],[3.98641849,50.92478605],[3.98646272,50.92473352]]]}},{"type":"Feature","id":"gebouw/Gebouw.17120829/0","properties":{"source":"Digitaal Vlaanderen Gebouwenregister","source_id":"gebouw/Gebouw.17120829/0","kind":"building","height_m":8.6,"status":null},"geometry":{"type":"Polygon","coordinates":[[[3.98722507,50.9223952],[3.98717587,50.92249203],[3.98715963,50.92249203],[3.98702845,50.92246143],[3.98704677,50.92242508],[3.98703896,50.92242328],[3.98705375,50.92239758],[3.98701895,50.92238959],[3.9870147,50.92239697],[3.98695146,50.92238244],[3.98693885,50.92240438],[3.98683366,50.92238316],[3.9868743,50.9223125],[3.98709509,50.92236456],[3.98717923,50.9223844],[3.98722507,50.9223952]]]}},{"type":"Feature","id":"gebouw/Gebouw.17189356/0","properties":{"source":"Digitaal Vlaanderen Gebouwenregister","source_id":"gebouw/Gebouw.17189356/0","kind":"building","height_m":6.44,"status":null},"geometry":{"type":"Polygon","coordinates":[[[3.98763064,50.92179747],[3.98756352,50.92178118],[3.98756269,50.92178098],[3.98755286,50.92179475],[3.98755121,50.92179705],[3.98761772,50.92181579],[3.98763064,50.92179747]]]}},{"type":"Feature","id":"gebouw/Gebouw.18491362/0","properties":{"source":"Digitaal Vlaanderen Gebouwenregister","source_id":"gebouw/Gebouw.18491362/0","kind":"building","height_m":5.72,"status":null},"geometry":{"type":"Polygon","coordinates":[[[3.98598686,50.9251522],[3.98596475,50.92517208],[3.9859129,50.92514949],[3.98593573,50.92512867],[3.98593803,50.92512973],[3.98598686,50.9251522]]]}},{"type":"Feature","id":"gebouw/Gebouw.18511077/0","properties":{"source":"Digitaal Vlaanderen Gebouwenregister","source_id":"gebouw/Gebouw.18511077/0","kind":"building","height_m":7.88,"status":null},"geometry":{"type":"Polygon","coordinates":[[[3.98567163,50.92490504],[3.98562901,50.92494286],[3.98567238,50.92496268],[3.98564965,50.92498416],[3.98555841,50.92494341],[3.98562226,50.92488398],[3.98567163,50.92490504]]]}},{"type":"Feature","id":"gebouw/Gebouw.18729096/0","properties":{"source":"Digitaal Vlaanderen Gebouwenregister","source_id":"gebouw/Gebouw.18729096/0","kind":"building","height_m":5.72,"status":null},"geometry":{"type":"Polygon","coordinates":[[[3.98723712,50.92368271],[3.98721395,50.92371963],[3.98717633,50.92371047],[3.98720088,50.92367406],[3.98723712,50.92368271]]]}},{"type":"Feature","id":"gebouw/Gebouw.18729689/0","properties":{"source":"Digitaal Vlaanderen Gebouwenregister","source_id":"gebouw/Gebouw.18729689/0","kind":"building","height_m":9.32,"status":null},"geometry":{"type":"Polygon","coordinates":[[[3.98548756,50.92466824],[3.98555172,50.92469612],[3.98558056,50.92467406],[3.98563276,50.92469848],[3.98556764,50.92475365],[3.98545274,50.92470077],[3.98548756,50.92466824]]]}},{"type":"Feature","id":"gebouw/Gebouw.19298616/0","properties":{"source":"Digitaal Vlaanderen Gebouwenregister","source_id":"gebouw/Gebouw.19298616/0","kind":"building","height_m":5.72,"status":null},"geometry":{"type":"Polygon","coordinates":[[[3.99026621,50.92785709],[3.9902944,50.92781697],[3.99034034,50.92782972],[3.99031191,50.92787028],[3.99026621,50.92785709]]]}},{"type":"Feature","id":"gebouw/Gebouw.19790089/0","properties":{"source":"Digitaal Vlaanderen Gebouwenregister","source_id":"gebouw/Gebouw.19790089/0","kind":"building","height_m":7.88,"status":null},"geometry":{"type":"Polygon","coordinates":[[[3.98831188,50.92355716],[3.9883413,50.92350309],[3.98839383,50.92351446],[3.98836528,50.92356896],[3.98831188,50.92355716]]]}},{"type":"Feature","id":"gebouw/Gebouw.19879247/0","properties":{"source":"Digitaal Vlaanderen Gebouwenregister","source_id":"gebouw/Gebouw.19879247/0","kind":"building","height_m":7.16,"status":null},"geometry":{"type":"Polygon","coordinates":[[[3.98701962,50.92293824],[3.98715999,50.92296429],[3.98715144,50.92298268],[3.98714711,50.922992],[3.98696524,50.92295856],[3.98694062,50.92295403],[3.98694405,50.92294663],[3.98687256,50.92293244],[3.98684456,50.92293183],[3.98693955,50.92294892],[3.98692413,50.9229805],[3.98680594,50.92295831],[3.98681121,50.92294505],[3.98682525,50.92290973],[3.98687552,50.92292098],[3.98694792,50.92293716],[3.98695065,50.92293129],[3.98695315,50.9229259],[3.98701962,50.92293824]]]}},{"type":"Feature","id":"gebouw/Gebouw.19879248/0","properties":{"source":"Digitaal Vlaanderen Gebouwenregister","source_id":"gebouw/Gebouw.19879248/0","kind":"building","height_m":7.88,"status":null},"geometry":{"type":"Polygon","coordinates":[[[3.98682525,50.92290973],[3.98681121,50.92294505],[3.98669848,50.92292532],[3.98671331,50.92288493],[3.9867245,50.92288721],[3.98682525,50.92290973]]]}},{"type":"Feature","id":"gebouw/Gebouw.19879262/0","properties":{"source":"Digitaal Vlaanderen Gebouwenregister","source_id":"gebouw/Gebouw.19879262/0","kind":"building","height_m":7.88,"status":null},"geometry":{"type":"Polygon","coordinates":[[[3.98564904,50.9245171],[3.98568715,50.92453477],[3.98572534,50.92450188],[3.98560659,50.92444681],[3.98556863,50.92448271],[3.98564904,50.9245171]]]}},{"type":"Feature","id":"gebouw/Gebouw.19879681/0","properties":{"source":"Digitaal Vlaanderen Gebouwenregister","source_id":"gebouw/Gebouw.19879681/0","kind":"building","height_m":7.16,"status":null},"geometry":{"type":"Polygon","coordinates":[[[3.98675316,50.92380429],[3.98670073,50.92385051],[3.98663013,50.92382178],[3.98659003,50.92386114],[3.98661981,50.92387326],[3.98654504,50.92394665],[3.98647052,50.92391632],[3.98647545,50.92391152],[3.98653771,50.92385098],[3.98654274,50.92384609],[3.9865476,50.92384136],[3.98661571,50.92377512],[3.9866263,50.92377943],[3.9866866,50.92380397],[3.98672978,50.92376158],[3.98676467,50.92377088],[3.98677974,50.9237749],[3.98675316,50.92380429]]]}},{"type":"Feature","id":"gebouw/Gebouw.19879682/0","properties":{"source":"Digitaal Vlaanderen Gebouwenregister","source_id":"gebouw/Gebouw.19879682/0","kind":"building","height_m":7.88,"status":null},"geometry":{"type":"Polygon","coordinates":[[[3.98661571,50.92377512],[3.9865476,50.92384136],[3.98652229,50.92383106],[3.98658996,50.92376464],[3.98661571,50.92377512]]]}},{"type":"Feature","id":"gebouw/Gebouw.19879683/0","properties":{"source":"Digitaal Vlaanderen Gebouwenregister","source_id":"gebouw/Gebouw.19879683/0","kind":"building","height_m":8.6,"status":null},"geometry":{"type":"Polygon","coordinates":[[[3.98682402,50.9237867],[3.98679039,50.92381944],[3.98675316,50.92380429],[3.98677974,50.9237749],[3.98682402,50.9237867]]]}},{"type":"Feature","id":"gebouw/Gebouw.19879700/0","properties":{"source":"Digitaal Vlaanderen Gebouwenregister","source_id":"gebouw/Gebouw.19879700/0","kind":"building","height_m":5.72,"status":null},"geometry":{"type":"Polygon","coordinates":[[[3.98734838,50.92188425],[3.98734005,50.92189209],[3.98718493,50.92182881],[3.98714028,50.92180524],[3.98714853,50.921796],[3.98734838,50.92188425]]]}},{"type":"Feature","id":"gebouw/Gebouw.19880886/0","properties":{"source":"Digitaal Vlaanderen Gebouwenregister","source_id":"gebouw/Gebouw.19880886/0","kind":"building","height_m":7.88,"status":null},"geometry":{"type":"Polygon","coordinates":[[[3.98785002,50.92197556],[3.98782973,50.92200438],[3.98776126,50.92198622],[3.98775526,50.92199527],[3.98770804,50.92198275],[3.98770687,50.92198434],[3.98767986,50.92197651],[3.98768139,50.9219742],[3.98772513,50.92191583],[3.98775254,50.92187926],[3.98777875,50.92188653],[3.98778815,50.92188914],[3.98779578,50.92187815],[3.98778677,50.92187562],[3.98782118,50.9218288],[3.98783323,50.92183215],[3.98785355,50.92180291],[3.98795228,50.92183031],[3.98788173,50.92193052],[3.98781138,50.921911],[3.98777953,50.92195685],[3.98785002,50.92197556]]]}},{"type":"Feature","id":"gebouw/Gebouw.19880887/0","properties":{"source":"Digitaal Vlaanderen Gebouwenregister","source_id":"gebouw/Gebouw.19880887/0","kind":"building","height_m":8.6,"status":null},"geometry":{"type":"Polygon","coordinates":[[[3.98772513,50.92191583],[3.98768139,50.9219742],[3.9876305,50.92196071],[3.98767046,50.92190052],[3.98772513,50.92191583]]]}},{"type":"Feature","id":"gebouw/Gebouw.19881170/0","properties":{"source":"Digitaal Vlaanderen Gebouwenregister","source_id":"gebouw/Gebouw.19881170/0","kind":"building","height_m":5.72,"status":null},"geometry":{"type":"Polygon","coordinates":[[[3.98654955,50.92313452],[3.98656642,50.92303097],[3.98651729,50.92301683],[3.98646017,50.92301328],[3.98645384,50.92305405],[3.98644795,50.92309207],[3.98630179,50.92308477],[3.98630503,50.92305378],[3.98630925,50.92301352],[3.98621912,50.92300744],[3.98620806,50.92307285],[3.98615035,50.92306895],[3.98612484,50.92306723],[3.9861308,50.92303201],[3.98608829,50.92302914],[3.98607713,50.92309515],[3.98611207,50.92310016],[3.98611127,50.92310511],[3.98612734,50.9231062],[3.98625874,50.92311507],[3.98652837,50.92313256],[3.98654955,50.92313452]]]}},{"type":"Feature","id":"gebouw/Gebouw.19881171/0","properties":{"source":"Digitaal Vlaanderen Gebouwenregister","source_id":"gebouw/Gebouw.19881171/0","kind":"building","height_m":6.44,"status":null},"geometry":{"type":"Polygon","coordinates":[[[3.98612379,50.92302751],[3.98611184,50.92310174],[3.98608111,50.92309694],[3.98609145,50.92302585],[3.98612379,50.92302751]]]}},{"type":"Feature","id":"gebouw/Gebouw.19881259/0","properties":{"source":"Digitaal Vlaanderen Gebouwenregister","source_id":"gebouw/Gebouw.19881259/0","kind":"building","height_m":9.32,"status":null},"geometry":{"type":"Polygon","coordinates":[[[3.98661846,50.92233938],[3.98671185,50.92236387],[3.98666723,50.92243185],[3.98660227,50.92241414],[3.98639317,50.92235715],[3.98625981,50.9223208],[3.98628078,50.92229045],[3.98642711,50.92233015],[3.98645598,50.92233798],[3.98650014,50.92227206],[3.9865103,50.9222569],[3.98651632,50.9222592],[3.9865196,50.92226045],[3.98654766,50.92227116],[3.98663471,50.9223044],[3.98664094,50.92230678],[3.98661846,50.92233938]]]}},{"type":"Feature","id":"gebouw/Gebouw.19881260/0","properties":{"source":"Digitaal Vlaanderen Gebouwenregister","source_id":"gebouw/Gebouw.19881260/0","kind":"building","height_m":5.0,"status":null},"geometry":{"type":"Polygon","coordinates":[[[3.98660227,50.92241414],[3.98658127,50.92244445],[3.98650313,50.92242327],[3.98649722,50.9224329],[3.98623189,50.92236118],[3.98625981,50.9223208],[3.98639317,50.92235715],[3.98660227,50.92241414]]]}},{"type":"Feature","id":"gebouw/Gebouw.20145744/0","properties":{"source":"Digitaal Vlaanderen Gebouwenregister","source_id":"gebouw/Gebouw.20145744/0","kind":"building","height_m":7.16,"status":null},"geometry":{"type":"Polygon","coordinates":[[[3.99400816,50.92766457],[3.99397459,50.92766845],[3.9939596,50.92767019],[3.99395694,50.92766101],[3.99395123,50.92764133],[3.9939998,50.92763571],[3.99400816,50.92766457]]]}},{"type":"Feature","id":"gebouw/Gebouw.20145756/0","properties":{"source":"Digitaal Vlaanderen Gebouwenregister","source_id":"gebouw/Gebouw.20145756/0","kind":"building","height_m":5.72,"status":null},"geometry":{"type":"Polygon","coordinates":[[[3.98633066,50.92276133],[3.98620305,50.9227312],[3.98622291,50.92269759],[3.98635052,50.92272772],[3.98633066,50.92276133]]]}},{"type":"Feature","id":"gebouw/Gebouw.20145757/0","properties":{"source":"Digitaal Vlaanderen Gebouwenregister","source_id":"gebouw/Gebouw.20145757/0","kind":"building","height_m":6.44,"status":null},"geometry":{"type":"Polygon","coordinates":[[[3.99002309,50.92297678],[3.99004021,50.92298129],[3.99001496,50.92301956],[3.98999892,50.92301533],[3.98998518,50.92301171],[3.99001043,50.92297345],[3.99002309,50.92297678]]]}},{"type":"Feature","id":"gebouw/Gebouw.20145758/0","properties":{"source":"Digitaal Vlaanderen Gebouwenregister","source_id":"gebouw/Gebouw.20145758/0","kind":"building","height_m":7.16,"status":null},"geometry":{"type":"Polygon","coordinates":[[[3.98598431,50.92330737],[3.98601453,50.92326667],[3.98605014,50.92327723],[3.98601992,50.92331793],[3.98598431,50.92330737]]]}},{"type":"Feature","id":"gebouw/Gebouw.20146150/0","properties":{"source":"Digitaal Vlaanderen Gebouwenregister","source_id":"gebouw/Gebouw.20146150/0","kind":"building","height_m":7.16,"status":null},"geometry":{"type":"Polygon","coordinates":[[[3.99075419,50.92218577],[3.99069039,50.92215998],[3.99073001,50.92212082],[3.99079381,50.92214662],[3.99075419,50.92218577]]]}},{"type":"Feature","id":"gebouw/Gebouw.20146153/0","properties":{"source":"Digitaal Vlaanderen Gebouwenregister","source_id":"gebouw/Gebouw.20146153/0","kind":"building","height_m":9.32,"status":null},"geometry":{"type":"Polygon","coordinates":[[[3.98663309,50.92269214],[3.98660786,50.92273819],[3.98660139,50.92273677],[3.98658508,50.92276654],[3.98643056,50.92273272],[3.98644422,50.92270779],[3.98645933,50.9227111],[3.98647395,50.92268442],[3.98650723,50.92269171],[3.9865205,50.92266748],[3.98662959,50.92269137],[3.98663309,50.92269214]]]}},{"type":"Feature","id":"gebouw/Gebouw.20146154/0","properties":{"source":"Digitaal Vlaanderen Gebouwenregister","source_id":"gebouw/Gebouw.20146154/0","kind":"building","height_m":5.0,"status":null},"geometry":{"type":"Polygon","coordinates":[[[3.98642699,50.92365274],[3.98646854,50.9236087],[3.98650976,50.92362424],[3.9864682,50.92366828],[3.98642699,50.92365274]]]}},{"type":"Feature","id":"gebouw/Gebouw.20146245/0","properties":{"source":"Digitaal Vlaanderen Gebouwenregister","source_id":"gebouw/Gebouw.20146245/0","kind":"building","height_m":5.0,"status":null},"geometry":{"type":"Polygon","coordinates":[[[3.98634842,50.92460164],[3.98642331,50.9246278],[3.98640071,50.92465363],[3.98632582,50.92462747],[3.98634842,50.92460164]]]}},{"type":"Feature","id":"gebouw/Gebouw.20146935/0","properties":{"source":"Digitaal Vlaanderen Gebouwenregister","source_id":"gebouw/Gebouw.20146935/0","kind":"building","height_m":7.88,"status":null},"geometry":{"type":"Polygon","coordinates":[[[3.98670891,50.92431372],[3.9867038,50.9243119],[3.98669039,50.92432699],[3.9866593,50.92431595],[3.9867059,50.92426353],[3.98674,50.92427564],[3.98671391,50.92430759],[3.98670891,50.92431372]]]}},{"type":"Feature","id":"gebouw/Gebouw.20147166/0","properties":{"source":"Digitaal Vlaanderen Gebouwenregister","source_id":"gebouw/Gebouw.20147166/0","kind":"building","height_m":7.88,"status":null},"geometry":{"type":"Polygon","coordinates":[[[3.98671309,50.92367147],[3.9867245,50.92365369],[3.98676558,50.92366422],[3.98676766,50.92366098],[3.98682988,50.92367693],[3.98679399,50.92373284],[3.98678408,50.9237306],[3.98678242,50.92373291],[3.98673432,50.92372041],[3.98675495,50.92368825],[3.98670976,50.92367666],[3.98671309,50.92367147]]]}},{"type":"Feature","id":"gebouw/Gebouw.30642518/0","properties":{"source":"Digitaal Vlaanderen Gebouwenregister","source_id":"gebouw/Gebouw.30642518/0","kind":"building","height_m":7.88,"status":null},"geometry":{"type":"Polygon","coordinates":[[[3.98597978,50.9257076],[3.98600169,50.92571488],[3.98604173,50.92566676],[3.98601982,50.92565948],[3.98597978,50.9257076]]]}},{"type":"Feature","id":"gebouw/Gebouw.30642519/0","properties":{"source":"Digitaal Vlaanderen Gebouwenregister","source_id":"gebouw/Gebouw.30642519/0","kind":"building","height_m":8.6,"status":null},"geometry":{"type":"Polygon","coordinates":[[[3.98608004,50.92540105],[3.98606809,50.92541418],[3.98606402,50.92541865],[3.98605904,50.92541684],[3.98600269,50.92539636],[3.98601341,50.92538458],[3.98601871,50.92537875],[3.98608004,50.92540105]]]}},{"type":"Feature","id":"gebouw/Gebouw.30642520/0","properties":{"source":"Digitaal Vlaanderen Gebouwenregister","source_id":"gebouw/Gebouw.30642520/0","kind":"building","height_m":9.32,"status":null},"geometry":{"type":"Polygon","coordinates":[[[3.98593573,50.92512867],[3.98597479,50.92509476],[3.986041,50.92512523],[3.98601252,50.9251598],[3.98598996,50.92514951],[3.98598686,50.9251522],[3.98593803,50.92512973],[3.98593573,50.92512867]]]}},{"type":"Feature","id":"gebouw/Gebouw.30642521/0","properties":{"source":"Digitaal Vlaanderen Gebouwenregister","source_id":"gebouw/Gebouw.30642521/0","kind":"building","height_m":5.0,"status":null},"geometry":{"type":"Polygon","coordinates":[[[3.98592324,50.92429428],[3.9859586,50.92426043],[3.98599105,50.92427397],[3.98598566,50.92427912],[3.9860159,50.92429174],[3.98599035,50.9243162],[3.98596069,50.92430382],[3.98595626,50.92430806],[3.98592324,50.92429428]]]}},{"type":"Feature","id":"gebouw/Gebouw.30644365/0","properties":{"source":"Digitaal Vlaanderen Gebouwenregister","source_id":"gebouw/Gebouw.30644365/0","kind":"building","height_m":7.16,"status":null},"geometry":{"type":"Polygon","coordinates":[[[3.98770525,50.92449289],[3.98763652,50.92460007],[3.98753836,50.92457686],[3.98755975,50.92454071],[3.98755428,50.92453942],[3.9875623,50.92452586],[3.98755376,50.92452384],[3.98756952,50.92449721],[3.98758239,50.92450026],[3.98760344,50.92446689],[3.98770525,50.92449289]]]}},{"type":"Feature","id":"gebouw/Gebouw.30644367/0","properties":{"source":"Digitaal Vlaanderen Gebouwenregister","source_id":"gebouw/Gebouw.30644367/0","kind":"building","height_m":8.6,"status":null},"geometry":{"type":"Polygon","coordinates":[[[3.98759937,50.92465801],[3.98758092,50.92468677],[3.98755677,50.92472443],[3.98747539,50.92470359],[3.98751799,50.92463716],[3.98759937,50.92465801]]]}},{"type":"Feature","id":"gebouw/Gebouw.31151006/0","properties":{"source":"Digitaal Vlaanderen Gebouwenregister","source_id":"gebouw/Gebouw.31151006/0","kind":"building","height_m":8.6,"status":null},"geometry":{"type":"Polygon","coordinates":[[[3.98701962,50.92293824],[3.98715999,50.92296429],[3.98715144,50.92298268],[3.98714711,50.922992],[3.98696524,50.92295856],[3.98694062,50.92295403],[3.98694393,50.9229466],[3.98694811,50.92293721],[3.98695315,50.9229259],[3.98701962,50.92293824]]]}},{"type":"Feature","id":"gebouw/Gebouw.31151007/0","properties":{"source":"Digitaal Vlaanderen Gebouwenregister","source_id":"gebouw/Gebouw.31151007/0","kind":"building","height_m":9.32,"status":null},"geometry":{"type":"Polygon","coordinates":[[[3.98694393,50.9229466],[3.98687256,50.92293244],[3.98684456,50.92293183],[3.98693955,50.92294892],[3.98692413,50.9229805],[3.98680594,50.92295831],[3.98681121,50.92294505],[3.98682525,50.92290973],[3.98687552,50.92292098],[3.98694792,50.92293716],[3.98694811,50.92293721],[3.98694393,50.9229466]]]}},{"type":"Feature","id":"gebouw/Gebouw.31205463/0","properties":{"source":"Digitaal Vlaanderen Gebouwenregister","source_id":"gebouw/Gebouw.31205463/0","kind":"building","height_m":6.44,"status":null},"geometry":{"type":"Polygon","coordinates":[[[3.98680594,50.92295831],[3.98692413,50.9229805],[3.9869089,50.92301166],[3.98683756,50.92299774],[3.98682171,50.9230302],[3.98689206,50.92304393],[3.98688178,50.92306603],[3.98681246,50.92305964],[3.98676731,50.92305548],[3.98679424,50.92298775],[3.98680594,50.92295831]]]}},{"type":"Feature","id":"gebouw/Gebouw.31494706/0","properties":{"source":"Digitaal Vlaanderen Gebouwenregister","source_id":"gebouw/Gebouw.31494706/0","kind":"building","height_m":8.6,"status":null},"geometry":{"type":"Polygon","coordinates":[[[3.9865476,50.92384136],[3.98645064,50.92380153],[3.98637345,50.92387922],[3.98647052,50.92391632],[3.98647545,50.92391152],[3.98653771,50.92385098],[3.98654274,50.92384609],[3.9865476,50.92384136]]]}},{"type":"Feature","id":"gebouw/Gebouw.31531619/0","properties":{"source":"Digitaal Vlaanderen Gebouwenregister","source_id":"gebouw/Gebouw.31531619/0","kind":"building","height_m":5.0,"status":null},"geometry":{"type":"Polygon","coordinates":[[[3.98657955,50.92352005],[3.98653991,50.9235107],[3.9865286,50.92352986],[3.9865264,50.92353358],[3.98657237,50.92354442],[3.98658588,50.92352155],[3.98657955,50.92352005]]]}},{"type":"Feature","id":"gebouw/Gebouw.31582545/0","properties":{"source":"Digitaal Vlaanderen Gebouwenregister","source_id":"gebouw/Gebouw.31582545/0","kind":"building","height_m":5.72,"status":null},"geometry":{"type":"Polygon","coordinates":[[[3.98622676,50.92372539],[3.98612347,50.92368437],[3.98605173,50.92375655],[3.9861551,50.92379747],[3.98617155,50.92378092],[3.98622676,50.92372539]]]}},{"type":"Feature","id":"gebouw/Gebouw.31582546/0","properties":{"source":"Digitaal Vlaanderen Gebouwenregister","source_id":"gebouw/Gebouw.31582546/0","kind":"building","height_m":6.44,"status":null},"geometry":{"type":"Polygon","coordinates":[[[3.98622676,50.92372539],[3.98617155,50.92378092],[3.9861551,50.92379747],[3.98625701,50.92383776],[3.98632833,50.92376571],[3.98622676,50.92372539]]]}},{"type":"Feature","id":"gebouw/Gebouw.31805294/0","properties":{"source":"Digitaal Vlaanderen Gebouwenregister","source_id":"gebouw/Gebouw.31805294/0","kind":"building","height_m":7.16,"status":null},"geometry":{"type":"Polygon","coordinates":[[[3.99076266,50.92220354],[3.99068564,50.92217348],[3.99064923,50.92221075],[3.99072625,50.92224081],[3.99076266,50.92220354]]]}},{"type":"Feature","id":"gebouw/Gebouw.31805520/0","properties":{"source":"Digitaal Vlaanderen Gebouwenregister","source_id":"gebouw/Gebouw.31805520/0","kind":"building","height_m":8.6,"status":null},"geometry":{"type":"Polygon","coordinates":[[[3.98663597,50.92489413],[3.98666037,50.92487085],[3.98658704,50.92484014],[3.98656264,50.92486342],[3.98663597,50.92489413]]]}},{"type":"Feature","id":"gebouw/Gebouw.31806449/0","properties":{"source":"Digitaal Vlaanderen Gebouwenregister","source_id":"gebouw/Gebouw.31806449/0","kind":"building","height_m":7.16,"status":null},"geometry":{"type":"Polygon","coordinates":[[[3.9860315,50.92334187],[3.98601225,50.92336619],[3.98608689,50.92338712],[3.9861043,50.92336218],[3.9860315,50.92334187]]]}},{"type":"Feature","id":"gebouw/Gebouw.32032033/0","properties":{"source":"Digitaal Vlaanderen Gebouwenregister","source_id":"gebouw/Gebouw.32032033/0","kind":"building","height_m":8.6,"status":null},"geometry":{"type":"Polygon","coordinates":[[[3.98509552,50.92397133],[3.98514232,50.92398602],[3.98515959,50.92396404],[3.98511279,50.92394935],[3.98509552,50.92397133]]]}},{"type":"Feature","id":"gebouw/Gebouw.32032320/0","properties":{"source":"Digitaal Vlaanderen Gebouwenregister","source_id":"gebouw/Gebouw.32032320/0","kind":"building","height_m":8.6,"status":null},"geometry":{"type":"Polygon","coordinates":[[[3.98593537,50.92330225],[3.98591974,50.92332162],[3.98597076,50.92333802],[3.98598701,50.92331783],[3.98593537,50.92330225]]]}},{"type":"Feature","id":"gebouw/Gebouw.32032356/0","properties":{"source":"Digitaal Vlaanderen Gebouwenregister","source_id":"gebouw/Gebouw.32032356/0","kind":"building","height_m":9.32,"status":null},"geometry":{"type":"Polygon","coordinates":[[[3.98551064,50.92181368],[3.9855421,50.92183351],[3.98557469,50.92181286],[3.98554322,50.92179303],[3.98551064,50.92181368]]]}},{"type":"Feature","id":"gebouw/Gebouw.32033409/0","properties":{"source":"Digitaal Vlaanderen Gebouwenregister","source_id":"gebouw/Gebouw.32033409/0","kind":"building","height_m":6.44,"status":null},"geometry":{"type":"Polygon","coordinates":[[[3.98700708,50.92332648],[3.98694965,50.92331724],[3.98693861,50.92334466],[3.98699604,50.9233539],[3.98700708,50.92332648]]]}},{"type":"Feature","id":"gebouw/Gebouw.32033783/0","properties":{"source":"Digitaal Vlaanderen Gebouwenregister","source_id":"gebouw/Gebouw.32033783/0","kind":"building","height_m":8.6,"status":null},"geometry":{"type":"Polygon","coordinates":[[[3.98719914,50.92382218],[3.98724383,50.92382843],[3.98725375,50.9238001],[3.98720906,50.92379384],[3.98719914,50.92382218]]]}},{"type":"Feature","id":"way/163221341","properties":{"source":"OpenStreetMap","source_id":"way/163221341","kind":"vegetation","name":null,"waterway":null,"landuse":"forest"},"geometry":{"type":"Polygon","coordinates":[[[3.9860623,50.9218216],[3.9858134,50.9226423],[3.9857469,50.9228955],[3.9859297,50.9229239],[3.9860651,50.922699],[3.9864046,50.9227346],[3.9864996,50.9225032],[3.9863961,50.9224437],[3.9863298,50.9223534],[3.98673,50.9222567],[3.9866776,50.9221993],[3.9867436,50.9221721],[3.9866048,50.9220573],[3.9864296,50.9219598],[3.986227,50.9218837],[3.9860623,50.9218216]]]}},{"type":"Feature","id":"way/163221343","properties":{"source":"OpenStreetMap","source_id":"way/163221343","kind":"vegetation","name":null,"waterway":null,"landuse":"forest"},"geometry":{"type":"Polygon","coordinates":[[[3.9921968,50.9227478],[3.9935143,50.9230725],[3.9937447,50.9228294],[3.9939207,50.9229159],[3.9940863,50.9230073],[3.9943685,50.9233303],[3.994441,50.923407],[3.9944228,50.9234543],[3.9943685,50.9234869],[3.9941951,50.9234967],[3.993856,50.9234592],[3.993843,50.9233874],[3.9932788,50.9233858],[3.9930147,50.9238426],[3.9925669,50.9237431],[3.9927714,50.9233466],[3.9924971,50.9232634],[3.9923392,50.9231867],[3.9922382,50.9230464],[3.9922822,50.9229746],[3.9920182,50.9228947],[3.9921968,50.9227478]]]}},{"type":"Feature","id":"way/163243347","properties":{"source":"OpenStreetMap","source_id":"way/163243347","kind":"vegetation","name":null,"waterway":null,"landuse":"forest"},"geometry":{"type":"Polygon","coordinates":[[[3.9914774,50.9263062],[3.9915062,50.9263443],[3.9914371,50.9263825],[3.9912325,50.9264369],[3.9909328,50.9264715],[3.9907398,50.9264696],[3.9905957,50.9264678],[3.9905294,50.9264787],[3.9904026,50.9265278],[3.9903248,50.9265296],[3.9902758,50.9265096],[3.9902701,50.9264715],[3.9903364,50.9264133],[3.9903911,50.926308],[3.9904274,50.9263432],[3.9904804,50.926374],[3.9905232,50.9263933],[3.9905925,50.9263971],[3.9907371,50.9264023],[3.9908981,50.9264074],[3.9910407,50.9263997],[3.9911711,50.9263805],[3.9914774,50.9263062]]]}}]}