{"type":"FeatureCollection","features":[{"type":"Feature","id":"gebouw/Gebouw.18729278/0","properties":{"source":"Digitaal Vlaanderen Gebouwenregister","source_id":"gebouw/Gebouw.18729278/0","kind":"building","height_m":5.72,"status":null},"geometry":{"type":"Polygon","coordinates":[[[3.99286363,50.93529361],[3.99285608,50.93531473],[3.9927804,50.93530563],[3.99278602,50.9352835],[3.99286363,50.93529361]]]}},{"type":"Feature","id":"way/161463190","properties":{"source":"OpenStreetMap","source_id":"way/161463190","kind":"vegetation","name":null,"waterway":null,"landuse":"forest"},"geometry":{"type":"Polygon","coordinates":[[[3.9944004,50.9352677],[3.9946451,50.9356335],[3.9943167,50.935623],[3.9940991,50.9352218],[3.9943347,50.935163],[3.9944004,50.9352677]]]}}]}