{"type":"FeatureCollection","features":[{"type":"Feature","id":"gebouw/Gebouw.16736747/0","properties":{"source":"Digitaal Vlaanderen Gebouwenregister","source_id":"gebouw/Gebouw.16736747/0","kind":"building","height_m":9.32,"status":null},"geometry":{"type":"Polygon","coordinates":[[[3.98959953,50.91241325],[3.9896647,50.91229857],[3.98972628,50.91231256],[3.98972425,50.91231591],[3.98974318,50.9123203],[3.98975397,50.91230177],[3.98982051,50.91231699],[3.98972199,50.91248907],[3.98960476,50.91246339],[3.98962972,50.91242011],[3.98959953,50.91241325]]]}},{"type":"Feature","id":"gebouw/Gebouw.16737388/0","properties":{"source":"Digitaal Vlaanderen Gebouwenregister","source_id":"gebouw/Gebouw.16737388/0","kind":"building","height_m":7.16,"status":null},"geometry":{"type":"Polygon","coordinates":[[[3.98949928,50.91147707],[3.98948687,50.91151565],[3.98943455,50.91150892],[3.98944695,50.91147034],[3.98949928,50.91147707]]]}},{"type":"Feature","id":"gebouw/Gebouw.16745770/0","properties":{"source":"Digitaal Vlaanderen Gebouwenregister","source_id":"gebouw/Gebouw.16745770/0","kind":"building","height_m":9.32,"status":null},"geometry":{"type":"Polygon","coordinates":[[[3.99375715,50.91333022],[3.99380702,50.91334912],[3.99370004,50.91345778],[3.99361337,50.91342367],[3.99362549,50.91341126],[3.99363872,50.91339771],[3.99359728,50.91338154],[3.99366942,50.91330646],[3.99373332,50.91333074],[3.99374069,50.91332398],[3.99375715,50.91333022]]]}},{"type":"Feature","id":"gebouw/Gebouw.16746167/0","properties":{"source":"Digitaal Vlaanderen Gebouwenregister","source_id":"gebouw/Gebouw.16746167/0","kind":"building","height_m":7.88,"status":null},"geometry":{"type":"Polygon","coordinates":[[[3.99131391,50.91236282],[3.99139467,50.91239464],[3.99130589,50.91248829],[3.99122205,50.91245489],[3.99125998,50.91241688],[3.99131391,50.91236282]]]}},{"type":"Feature","id":"gebouw/Gebouw.16746196/0","properties":{"source":"Digitaal Vlaanderen Gebouwenregister","source_id":"gebouw/Gebouw.16746196/0","kind":"building","height_m":8.6,"status":null},"geometry":{"type":"Polygon","coordinates":[[[3.99359728,50.91306926],[3.99354823,50.9131134],[3.99351058,50.91309667],[3.99355852,50.91305375],[3.99359728,50.91306926]]]}},{"type":"Feature","id":"gebouw/Gebouw.16746467/0","properties":{"source":"Digitaal Vlaanderen Gebouwenregister","source_id":"gebouw/Gebouw.16746467/0","kind":"building","height_m":7.16,"status":null},"geometry":{"type":"Polygon","coordinates":[[[3.99309112,50.91211163],[3.99313995,50.9120842],[3.99319731,50.91212501],[3.99314848,50.91215244],[3.99309112,50.91211163]]]}},{"type":"Feature","id":"gebouw/Gebouw.16746600/0","properties":{"source":"Digitaal Vlaanderen Gebouwenregister","source_id":"gebouw/Gebouw.16746600/0","kind":"building","height_m":7.16,"status":null},"geometry":{"type":"Polygon","coordinates":[[[3.98765911,50.91387025],[3.98772159,50.91385015],[3.98775169,50.91388475],[3.98784366,50.91385005],[3.98783054,50.91384312],[3.98772974,50.91378987],[3.98751223,50.91385738],[3.98755052,50.91390519],[3.98765911,50.91387025]]]}},{"type":"Feature","id":"gebouw/Gebouw.16751662/0","properties":{"source":"Digitaal Vlaanderen Gebouwenregister","source_id":"gebouw/Gebouw.16751662/0","kind":"building","height_m":7.88,"status":null},"geometry":{"type":"Polygon","coordinates":[[[3.98856041,50.91479571],[3.98860404,50.91480675],[3.98855745,50.91487502],[3.98851523,50.91486333],[3.98856041,50.91479571]]]}},{"type":"Feature","id":"gebouw/Gebouw.16751850/0","properties":{"source":"Digitaal Vlaanderen Gebouwenregister","source_id":"gebouw/Gebouw.16751850/0","kind":"building","height_m":7.16,"status":null},"geometry":{"type":"Polygon","coordinates":[[[3.99135823,50.91288801],[3.99142176,50.91291182],[3.9913786,50.91296257],[3.99131609,50.91294012],[3.99135646,50.91290029],[3.99130451,50.91287903],[3.99126205,50.91291776],[3.99120287,50.91289411],[3.99134343,50.91275348],[3.99142491,50.91278603],[3.99141167,50.91279914],[3.99141715,50.91280115],[3.99141706,50.91280124],[3.99140013,50.91281627],[3.99141902,50.91282378],[3.9914198,50.91282409],[3.99135823,50.91288801]]]}},{"type":"Feature","id":"gebouw/Gebouw.16751922/0","properties":{"source":"Digitaal Vlaanderen Gebouwenregister","source_id":"gebouw/Gebouw.16751922/0","kind":"building","height_m":8.6,"status":null},"geometry":{"type":"Polygon","coordinates":[[[3.99450286,50.91407284],[3.99460031,50.91410447],[3.99451301,50.91421198],[3.99442059,50.91418199],[3.99450286,50.91407284]]]}},{"type":"Feature","id":"gebouw/Gebouw.16751925/0","properties":{"source":"Digitaal Vlaanderen Gebouwenregister","source_id":"gebouw/Gebouw.16751925/0","kind":"building","height_m":5.72,"status":null},"geometry":{"type":"Polygon","coordinates":[[[3.99374953,50.91485566],[3.9937846,50.91481761],[3.99383191,50.91483526],[3.99382887,50.91483877],[3.99385213,50.91484646],[3.9938435,50.91486958],[3.99383176,50.91488456],[3.99379271,50.91487083],[3.99376864,50.9148959],[3.99371531,50.91487628],[3.99373788,50.91485174],[3.99374953,50.91485566]]]}},{"type":"Feature","id":"gebouw/Gebouw.16752102/0","properties":{"source":"Digitaal Vlaanderen Gebouwenregister","source_id":"gebouw/Gebouw.16752102/0","kind":"building","height_m":7.16,"status":null},"geometry":{"type":"Polygon","coordinates":[[[3.98802528,50.9146887],[3.98817422,50.9146659],[3.98818429,50.91469542],[3.98822761,50.91468854],[3.98824883,50.91474456],[3.98821052,50.91475069],[3.98821191,50.9147533],[3.98802389,50.91478121],[3.98801284,50.91475147],[3.98804727,50.91474611],[3.98802528,50.9146887]]]}},{"type":"Feature","id":"gebouw/Gebouw.16752151/0","properties":{"source":"Digitaal Vlaanderen Gebouwenregister","source_id":"gebouw/Gebouw.16752151/0","kind":"building","height_m":7.16,"status":null},"geometry":{"type":"Polygon","coordinates":[[[3.99009096,50.91215812],[3.99000664,50.91213436],[3.99000573,50.91213583],[3.99000434,50.91213559],[3.99006987,50.91203292],[3.99007825,50.91202019],[3.99008262,50.91202147],[3.99014495,50.91203975],[3.99016986,50.91200705],[3.99015351,50.91200245],[3.99020053,50.91193695],[3.99019624,50.91193565],[3.99022468,50.91189474],[3.99025175,50.91190263],[3.99022242,50.91194211],[3.99023643,50.91194603],[3.99025245,50.91195051],[3.990234,50.91197564],[3.99021901,50.91197143],[3.9901502,50.91207175],[3.99009096,50.91215812]]]}},{"type":"Feature","id":"gebouw/Gebouw.16752364/0","properties":{"source":"Digitaal Vlaanderen Gebouwenregister","source_id":"gebouw/Gebouw.16752364/0","kind":"building","height_m":9.32,"status":null},"geometry":{"type":"Polygon","coordinates":[[[3.99443916,50.91354493],[3.99448017,50.91356112],[3.9944335,50.91361025],[3.99439276,50.91359335],[3.99443916,50.91354493]]]}},{"type":"Feature","id":"gebouw/Gebouw.16752466/0","properties":{"source":"Digitaal Vlaanderen Gebouwenregister","source_id":"gebouw/Gebouw.16752466/0","kind":"building","height_m":7.16,"status":null},"geometry":{"type":"Polygon","coordinates":[[[3.98888693,50.91262529],[3.98886485,50.91261775],[3.98883528,50.91260765],[3.98887689,50.91253467],[3.98888197,50.91253585],[3.98895287,50.91240677],[3.98900763,50.91241846],[3.9889577,50.91250444],[3.98900158,50.9125138],[3.98895577,50.91259269],[3.98891095,50.9125825],[3.98888693,50.91262529]]]}},{"type":"Feature","id":"gebouw/Gebouw.16754277/0","properties":{"source":"Digitaal Vlaanderen Gebouwenregister","source_id":"gebouw/Gebouw.16754277/0","kind":"building","height_m":5.72,"status":null},"geometry":{"type":"Polygon","coordinates":[[[3.98803281,50.91404816],[3.98803493,50.91405161],[3.98804792,50.9140531],[3.98806299,50.91407457],[3.98805535,50.91408321],[3.98809098,50.91413624],[3.9880273,50.91415395],[3.98797597,50.9141417],[3.98795568,50.91410699],[3.98785939,50.91413227],[3.98781518,50.91406497],[3.9880115,50.91401343],[3.98803281,50.91404816]]]}},{"type":"Feature","id":"gebouw/Gebouw.16754291/0","properties":{"source":"Digitaal Vlaanderen Gebouwenregister","source_id":"gebouw/Gebouw.16754291/0","kind":"building","height_m":5.72,"status":null},"geometry":{"type":"Polygon","coordinates":[[[3.99374275,50.91278843],[3.99371108,50.91281957],[3.99376699,50.9128423],[3.99379866,50.91281116],[3.99374275,50.91278843]]]}},{"type":"Feature","id":"gebouw/Gebouw.16754445/0","properties":{"source":"Digitaal Vlaanderen Gebouwenregister","source_id":"gebouw/Gebouw.16754445/0","kind":"building","height_m":5.72,"status":null},"geometry":{"type":"Polygon","coordinates":[[[3.98943604,50.91466814],[3.98938061,50.91474793],[3.98934296,50.91473795],[3.98939639,50.9146576],[3.98943604,50.91466814]]]}},{"type":"Feature","id":"gebouw/Gebouw.16754452/0","properties":{"source":"Digitaal Vlaanderen Gebouwenregister","source_id":"gebouw/Gebouw.16754452/0","kind":"building","height_m":5.72,"status":null},"geometry":{"type":"Polygon","coordinates":[[[3.98952451,50.91186204],[3.98952657,50.91186236],[3.98951383,50.91189243],[3.98953231,50.9119112],[3.98953608,50.91191172],[3.98950454,50.91200032],[3.98950308,50.91200442],[3.98941788,50.9119923],[3.98941956,50.91198708],[3.98945964,50.9118749],[3.98946747,50.91185298],[3.98951823,50.91186104],[3.98952451,50.91186204]]]}},{"type":"Feature","id":"gebouw/Gebouw.16754718/0","properties":{"source":"Digitaal Vlaanderen Gebouwenregister","source_id":"gebouw/Gebouw.16754718/0","kind":"building","height_m":5.72,"status":null},"geometry":{"type":"Polygon","coordinates":[[[3.99284809,50.91399475],[3.99278424,50.91405915],[3.99272834,50.91403816],[3.99279826,50.91397305],[3.99283031,50.91398725],[3.9928438,50.91397499],[3.99286274,50.91398286],[3.99284809,50.91399475]]]}},{"type":"Feature","id":"gebouw/Gebouw.16758511/0","properties":{"source":"Digitaal Vlaanderen Gebouwenregister","source_id":"gebouw/Gebouw.16758511/0","kind":"building","height_m":5.0,"status":null},"geometry":{"type":"Polygon","coordinates":[[[3.99137006,50.91318164],[3.99141544,50.91319542],[3.9913881,50.91323142],[3.99134271,50.91321764],[3.99137006,50.91318164]]]}},{"type":"Feature","id":"gebouw/Gebouw.16758564/0","properties":{"source":"Digitaal Vlaanderen Gebouwenregister","source_id":"gebouw/Gebouw.16758564/0","kind":"building","height_m":7.88,"status":null},"geometry":{"type":"Polygon","coordinates":[[[3.99450286,50.91407284],[3.99442059,50.91418199],[3.99435009,50.91415923],[3.99435421,50.91415465],[3.99431843,50.91414343],[3.99436935,50.91407774],[3.99438342,50.9140821],[3.99441364,50.91404424],[3.99450286,50.91407284]]]}},{"type":"Feature","id":"gebouw/Gebouw.16758634/0","properties":{"source":"Digitaal Vlaanderen Gebouwenregister","source_id":"gebouw/Gebouw.16758634/0","kind":"building","height_m":7.88,"status":null},"geometry":{"type":"Polygon","coordinates":[[[3.99035808,50.912235],[3.99026854,50.91220757],[3.99031522,50.91214645],[3.99037179,50.91207237],[3.99039397,50.91204332],[3.99040782,50.9120477],[3.99038661,50.9120765],[3.99038314,50.91208121],[3.99045885,50.91210549],[3.9904378,50.91213321],[3.99045362,50.91213821],[3.99042082,50.91218052],[3.99040383,50.91217529],[3.99035808,50.912235]]]}},{"type":"Feature","id":"gebouw/Gebouw.16759035/0","properties":{"source":"Digitaal Vlaanderen Gebouwenregister","source_id":"gebouw/Gebouw.16759035/0","kind":"building","height_m":9.32,"status":null},"geometry":{"type":"Polygon","coordinates":[[[3.98840698,50.91414596],[3.98837274,50.91417156],[3.98834298,50.91415565],[3.98837722,50.91413005],[3.98840698,50.91414596]]]}},{"type":"Feature","id":"gebouw/Gebouw.16759127/0","properties":{"source":"Digitaal Vlaanderen Gebouwenregister","source_id":"gebouw/Gebouw.16759127/0","kind":"building","height_m":5.0,"status":null},"geometry":{"type":"Polygon","coordinates":[[[3.99265945,50.91357435],[3.99259986,50.91363722],[3.99250075,50.91360008],[3.99255988,50.91353703],[3.99265945,50.91357435]]]}},{"type":"Feature","id":"gebouw/Gebouw.16759151/0","properties":{"source":"Digitaal Vlaanderen Gebouwenregister","source_id":"gebouw/Gebouw.16759151/0","kind":"building","height_m":7.16,"status":null},"geometry":{"type":"Polygon","coordinates":[[[3.99082281,50.91281287],[3.99081083,50.91282756],[3.99080653,50.91282611],[3.99090596,50.91270197],[3.99091359,50.91270441],[3.99089502,50.91272737],[3.9909697,50.91275323],[3.99097889,50.91274226],[3.99104939,50.91276619],[3.99104738,50.91276857],[3.99103748,50.91276521],[3.99090839,50.91292309],[3.99080816,50.91288884],[3.99086013,50.91282662],[3.99082281,50.91281287]]]}},{"type":"Feature","id":"gebouw/Gebouw.16760456/0","properties":{"source":"Digitaal Vlaanderen Gebouwenregister","source_id":"gebouw/Gebouw.16760456/0","kind":"building","height_m":9.32,"status":null},"geometry":{"type":"Polygon","coordinates":[[[3.99330273,50.91308299],[3.99315189,50.91321336],[3.99309446,50.91318805],[3.99311398,50.91317057],[3.99306388,50.9131481],[3.99317441,50.9130496],[3.9932125,50.91306709],[3.99323068,50.91305003],[3.99330273,50.91308299]]]}},{"type":"Feature","id":"gebouw/Gebouw.16760635/0","properties":{"source":"Digitaal Vlaanderen Gebouwenregister","source_id":"gebouw/Gebouw.16760635/0","kind":"building","height_m":7.16,"status":null},"geometry":{"type":"Polygon","coordinates":[[[3.99195984,50.91374583],[3.99194748,50.91374078],[3.99194431,50.91374385],[3.99190798,50.91373021],[3.9918688,50.9137155],[3.99179007,50.91368595],[3.99177476,50.9136802],[3.99181207,50.91364125],[3.99182427,50.91364566],[3.99190631,50.91367526],[3.99194372,50.91368877],[3.99198342,50.9137031],[3.9919672,50.91371997],[3.99198004,50.91372494],[3.99195984,50.91374583]]]}},{"type":"Feature","id":"gebouw/Gebouw.16760779/0","properties":{"source":"Digitaal Vlaanderen Gebouwenregister","source_id":"gebouw/Gebouw.16760779/0","kind":"building","height_m":5.0,"status":null},"geometry":{"type":"Polygon","coordinates":[[[3.99075938,50.91272296],[3.99073088,50.91275506],[3.99072099,50.91275134],[3.99071358,50.91275924],[3.9906432,50.9127358],[3.99065664,50.91272082],[3.99058064,50.91269479],[3.99065353,50.91260776],[3.99073494,50.91263501],[3.99074641,50.91262131],[3.99082915,50.91264914],[3.99076667,50.91272557],[3.99075938,50.91272296]]]}},{"type":"Feature","id":"gebouw/Gebouw.16760848/0","properties":{"source":"Digitaal Vlaanderen Gebouwenregister","source_id":"gebouw/Gebouw.16760848/0","kind":"building","height_m":9.32,"status":null},"geometry":{"type":"Polygon","coordinates":[[[3.99423396,50.91417187],[3.9941891,50.91423139],[3.99414192,50.91421695],[3.9941935,50.91414921],[3.99424044,50.91416328],[3.99423396,50.91417187]]]}},{"type":"Feature","id":"gebouw/Gebouw.16760853/0","properties":{"source":"Digitaal Vlaanderen Gebouwenregister","source_id":"gebouw/Gebouw.16760853/0","kind":"building","height_m":7.88,"status":null},"geometry":{"type":"Polygon","coordinates":[[[3.99174854,50.91306378],[3.99164745,50.91316371],[3.99168357,50.91317738],[3.99161293,50.91326099],[3.99153896,50.91323946],[3.99154974,50.91322474],[3.99149425,50.91320924],[3.99148518,50.91322275],[3.99146427,50.91321717],[3.99144883,50.91323888],[3.9914027,50.91322754],[3.99147197,50.91313707],[3.99151083,50.91314964],[3.99153371,50.91312019],[3.99152619,50.91311715],[3.99155386,50.91308981],[3.99156547,50.91309451],[3.99164067,50.91302017],[3.9916679,50.91303118],[3.99174854,50.91306378]]]}},{"type":"Feature","id":"gebouw/Gebouw.16761576/0","properties":{"source":"Digitaal Vlaanderen Gebouwenregister","source_id":"gebouw/Gebouw.16761576/0","kind":"building","height_m":9.32,"status":null},"geometry":{"type":"Polygon","coordinates":[[[3.99418883,50.91330418],[3.99427277,50.9133365],[3.99409121,50.91352604],[3.99407243,50.9135189],[3.99403313,50.91356018],[3.99396593,50.91353462],[3.99399323,50.9135047],[3.99400487,50.91350862],[3.9940155,50.91349599],[3.99396296,50.9134783],[3.99413638,50.91328534],[3.99418883,50.91330418]]]}},{"type":"Feature","id":"gebouw/Gebouw.16761777/0","properties":{"source":"Digitaal Vlaanderen Gebouwenregister","source_id":"gebouw/Gebouw.16761777/0","kind":"building","height_m":7.88,"status":null},"geometry":{"type":"Polygon","coordinates":[[[3.99016959,50.91269277],[3.99029986,50.91273312],[3.99032048,50.9127395],[3.99026795,50.91281027],[3.99025628,50.91282599],[3.99023647,50.91281957],[3.99010674,50.91277754],[3.99005356,50.91276031],[3.99006973,50.91274032],[3.99012049,50.91267756],[3.99016959,50.91269277]]]}},{"type":"Feature","id":"gebouw/Gebouw.16761806/0","properties":{"source":"Digitaal Vlaanderen Gebouwenregister","source_id":"gebouw/Gebouw.16761806/0","kind":"building","height_m":8.6,"status":null},"geometry":{"type":"Polygon","coordinates":[[[3.99330273,50.91308299],[3.99336636,50.91311208],[3.9933468,50.91312825],[3.99338838,50.91314605],[3.99327645,50.91324423],[3.99322637,50.9132214],[3.99320663,50.9132389],[3.99315189,50.91321336],[3.99330273,50.91308299]]]}},{"type":"Feature","id":"gebouw/Gebouw.16761849/0","properties":{"source":"Digitaal Vlaanderen Gebouwenregister","source_id":"gebouw/Gebouw.16761849/0","kind":"building","height_m":9.32,"status":null},"geometry":{"type":"Polygon","coordinates":[[[3.98829464,50.91408631],[3.98835495,50.91411753],[3.98832383,50.91414156],[3.98826352,50.91411033],[3.98829464,50.91408631]]]}},{"type":"Feature","id":"gebouw/Gebouw.16762167/0","properties":{"source":"Digitaal Vlaanderen Gebouwenregister","source_id":"gebouw/Gebouw.16762167/0","kind":"building","height_m":6.44,"status":null},"geometry":{"type":"Polygon","coordinates":[[[3.9896334,50.91256762],[3.98972413,50.91258877],[3.98969538,50.91263846],[3.98960659,50.9126183],[3.9896334,50.91256762]]]}},{"type":"Feature","id":"gebouw/Gebouw.16762295/0","properties":{"source":"Digitaal Vlaanderen Gebouwenregister","source_id":"gebouw/Gebouw.16762295/0","kind":"building","height_m":7.88,"status":null},"geometry":{"type":"Polygon","coordinates":[[[3.99047374,50.91389197],[3.99052647,50.91390714],[3.99047421,50.91397475],[3.9904224,50.91395747],[3.99047374,50.91389197]]]}},{"type":"Feature","id":"gebouw/Gebouw.16772835/0","properties":{"source":"Digitaal Vlaanderen Gebouwenregister","source_id":"gebouw/Gebouw.16772835/0","kind":"building","height_m":6.44,"status":null},"geometry":{"type":"Polygon","coordinates":[[[3.99424482,50.91497724],[3.99428468,50.91498995],[3.99426359,50.91501639],[3.99422372,50.91500369],[3.99424482,50.91497724]]]}},{"type":"Feature","id":"gebouw/Gebouw.16773049/0","properties":{"source":"Digitaal Vlaanderen Gebouwenregister","source_id":"gebouw/Gebouw.16773049/0","kind":"building","height_m":9.32,"status":null},"geometry":{"type":"Polygon","coordinates":[[[3.99453333,50.91435831],[3.99448427,50.9143426],[3.99454646,50.91426502],[3.99459551,50.91428074],[3.99453333,50.91435831]]]}},{"type":"Feature","id":"gebouw/Gebouw.16773063/0","properties":{"source":"Digitaal Vlaanderen Gebouwenregister","source_id":"gebouw/Gebouw.16773063/0","kind":"building","height_m":9.32,"status":null},"geometry":{"type":"Polygon","coordinates":[[[3.98752114,50.9143236],[3.98760539,50.91434869],[3.98759623,50.91440221],[3.98759287,50.91440146],[3.98748203,50.91437662],[3.98752114,50.9143236]]]}},{"type":"Feature","id":"gebouw/Gebouw.16773078/0","properties":{"source":"Digitaal Vlaanderen Gebouwenregister","source_id":"gebouw/Gebouw.16773078/0","kind":"building","height_m":5.0,"status":null},"geometry":{"type":"Polygon","coordinates":[[[3.99343488,50.91252925],[3.99348597,50.91248536],[3.99357197,50.91253003],[3.99355899,50.91254081],[3.99359867,50.91255927],[3.99356162,50.91259029],[3.99350924,50.91263414],[3.99338198,50.91257467],[3.99343488,50.91252925]]]}},{"type":"Feature","id":"gebouw/Gebouw.16773218/0","properties":{"source":"Digitaal Vlaanderen Gebouwenregister","source_id":"gebouw/Gebouw.16773218/0","kind":"building","height_m":5.0,"status":null},"geometry":{"type":"Polygon","coordinates":[[[3.99192066,50.91314943],[3.99186939,50.91313246],[3.99184444,50.91316258],[3.9917991,50.91314756],[3.99175718,50.91319815],[3.99171969,50.91318572],[3.99182051,50.91306659],[3.99187415,50.91308436],[3.99190545,50.91304658],[3.99192205,50.91305208],[3.99196276,50.91300295],[3.99202671,50.91302413],[3.99192595,50.91314318],[3.99192066,50.91314943]]]}},{"type":"Feature","id":"gebouw/Gebouw.16773360/0","properties":{"source":"Digitaal Vlaanderen Gebouwenregister","source_id":"gebouw/Gebouw.16773360/0","kind":"building","height_m":6.44,"status":null},"geometry":{"type":"Polygon","coordinates":[[[3.99118939,50.91226352],[3.99111432,50.91223193],[3.99113496,50.91220903],[3.99113,50.91220708],[3.9911075,50.91222999],[3.99098012,50.9123597],[3.99103003,50.91237934],[3.99103652,50.91237299],[3.99107113,50.91238631],[3.99118939,50.91226352]]]}},{"type":"Feature","id":"gebouw/Gebouw.16773387/0","properties":{"source":"Digitaal Vlaanderen Gebouwenregister","source_id":"gebouw/Gebouw.16773387/0","kind":"building","height_m":5.72,"status":null},"geometry":{"type":"Polygon","coordinates":[[[3.98752114,50.9143236],[3.987535,50.91430481],[3.98750084,50.91429483],[3.98752965,50.91425563],[3.98751674,50.91425212],[3.98754208,50.91421697],[3.98745418,50.914191],[3.98741996,50.91423566],[3.98739904,50.91426296],[3.98737887,50.91425764],[3.98734529,50.91430227],[3.9874127,50.91432254],[3.9874186,50.91431469],[3.98743078,50.91431835],[3.98745307,50.91428873],[3.9874927,50.91430031],[3.98746025,50.91434726],[3.98745077,50.91434441],[3.98743454,50.91436597],[3.98748203,50.91437662],[3.98752114,50.9143236]]]}},{"type":"Feature","id":"gebouw/Gebouw.16773496/0","properties":{"source":"Digitaal Vlaanderen Gebouwenregister","source_id":"gebouw/Gebouw.16773496/0","kind":"building","height_m":8.6,"status":null},"geometry":{"type":"Polygon","coordinates":[[[3.99009164,50.91179769],[3.99014094,50.91180619],[3.99012727,50.9118375],[3.99007688,50.9118287],[3.99009164,50.91179769]]]}},{"type":"Feature","id":"gebouw/Gebouw.16773580/0","properties":{"source":"Digitaal Vlaanderen Gebouwenregister","source_id":"gebouw/Gebouw.16773580/0","kind":"building","height_m":8.6,"status":null},"geometry":{"type":"Polygon","coordinates":[[[3.98802716,50.9146085],[3.98800726,50.91460841],[3.98790319,50.91462331],[3.98787551,50.91454605],[3.98796381,50.91453341],[3.98797091,50.91450624],[3.98803495,50.91452037],[3.98807331,50.91452884],[3.98805261,50.91456456],[3.98802716,50.9146085]]]}},{"type":"Feature","id":"gebouw/Gebouw.16773613/0","properties":{"source":"Digitaal Vlaanderen Gebouwenregister","source_id":"gebouw/Gebouw.16773613/0","kind":"building","height_m":7.16,"status":null},"geometry":{"type":"Polygon","coordinates":[[[3.99307025,50.91398783],[3.99315043,50.91402143],[3.99317547,50.91399755],[3.99309528,50.91396395],[3.99307025,50.91398783]]]}},{"type":"Feature","id":"gebouw/Gebouw.16773617/0","properties":{"source":"Digitaal Vlaanderen Gebouwenregister","source_id":"gebouw/Gebouw.16773617/0","kind":"building","height_m":5.0,"status":null},"geometry":{"type":"Polygon","coordinates":[[[3.989483,50.91158609],[3.98949278,50.9115589],[3.98954384,50.91156624],[3.98953406,50.91159343],[3.989483,50.91158609]]]}},{"type":"Feature","id":"gebouw/Gebouw.16774960/0","properties":{"source":"Digitaal Vlaanderen Gebouwenregister","source_id":"gebouw/Gebouw.16774960/0","kind":"building","height_m":9.32,"status":null},"geometry":{"type":"Polygon","coordinates":[[[3.99415552,50.91446252],[3.99410791,50.91452093],[3.99405034,50.91450218],[3.99409794,50.91444376],[3.99415552,50.91446252]]]}},{"type":"Feature","id":"gebouw/Gebouw.16775103/0","properties":{"source":"Digitaal Vlaanderen Gebouwenregister","source_id":"gebouw/Gebouw.16775103/0","kind":"building","height_m":6.44,"status":null},"geometry":{"type":"Polygon","coordinates":[[[3.99437466,50.9144321],[3.99439497,50.91440687],[3.99433029,50.91438607],[3.99430998,50.9144113],[3.99437466,50.9144321]]]}},{"type":"Feature","id":"gebouw/Gebouw.16775175/0","properties":{"source":"Digitaal Vlaanderen Gebouwenregister","source_id":"gebouw/Gebouw.16775175/0","kind":"building","height_m":7.88,"status":null},"geometry":{"type":"Polygon","coordinates":[[[3.99051133,50.9116806],[3.99051757,50.91164172],[3.99057898,50.91164566],[3.99057274,50.91168454],[3.99051133,50.9116806]]]}},{"type":"Feature","id":"gebouw/Gebouw.16775397/0","properties":{"source":"Digitaal Vlaanderen Gebouwenregister","source_id":"gebouw/Gebouw.16775397/0","kind":"building","height_m":6.44,"status":null},"geometry":{"type":"Polygon","coordinates":[[[3.99238591,50.91386371],[3.99242893,50.91381992],[3.9924961,50.91384629],[3.99245308,50.91389008],[3.99238591,50.91386371]]]}},{"type":"Feature","id":"gebouw/Gebouw.16775419/0","properties":{"source":"Digitaal Vlaanderen Gebouwenregister","source_id":"gebouw/Gebouw.16775419/0","kind":"building","height_m":7.16,"status":null},"geometry":{"type":"Polygon","coordinates":[[[3.99157568,50.91296605],[3.99143904,50.91312584],[3.9913864,50.91310784],[3.99137761,50.91311812],[3.9912759,50.91308335],[3.99132225,50.91302884],[3.99135744,50.91304079],[3.99145442,50.91292674],[3.9915169,50.91294798],[3.99151812,50.91294638],[3.99157568,50.91296605]]]}},{"type":"Feature","id":"gebouw/Gebouw.16781796/0","properties":{"source":"Digitaal Vlaanderen Gebouwenregister","source_id":"gebouw/Gebouw.16781796/0","kind":"building","height_m":7.16,"status":null},"geometry":{"type":"Polygon","coordinates":[[[3.98850258,50.91463689],[3.98847866,50.91467354],[3.98845306,50.91466756],[3.98845057,50.91467133],[3.98839937,50.9146598],[3.9884181,50.91462783],[3.9884656,50.9146393],[3.98847141,50.91462941],[3.98850258,50.91463689]]]}},{"type":"Feature","id":"gebouw/Gebouw.16782099/0","properties":{"source":"Digitaal Vlaanderen Gebouwenregister","source_id":"gebouw/Gebouw.16782099/0","kind":"building","height_m":8.6,"status":null},"geometry":{"type":"Polygon","coordinates":[[[3.98774258,50.91401328],[3.98772155,50.91398163],[3.98767195,50.91399419],[3.98766677,50.9139858],[3.9876112,50.91399994],[3.98757005,50.91393569],[3.98755052,50.91390519],[3.98772159,50.91385015],[3.98775169,50.91388475],[3.98769454,50.9139063],[3.98770871,50.91392891],[3.98777274,50.91391307],[3.98789375,50.91397313],[3.98774258,50.91401328]]]}},{"type":"Feature","id":"gebouw/Gebouw.16782414/0","properties":{"source":"Digitaal Vlaanderen Gebouwenregister","source_id":"gebouw/Gebouw.16782414/0","kind":"building","height_m":8.6,"status":null},"geometry":{"type":"Polygon","coordinates":[[[3.99013479,50.91295697],[3.99013436,50.91295744],[3.99006468,50.913032],[3.98998821,50.9130034],[3.99005839,50.9129284],[3.99013479,50.91295697]]]}},{"type":"Feature","id":"gebouw/Gebouw.16783555/0","properties":{"source":"Digitaal Vlaanderen Gebouwenregister","source_id":"gebouw/Gebouw.16783555/0","kind":"building","height_m":8.6,"status":null},"geometry":{"type":"Polygon","coordinates":[[[3.99189988,50.91413879],[3.99196751,50.91415585],[3.99193241,50.91421143],[3.99186478,50.91419437],[3.99189988,50.91413879]]]}},{"type":"Feature","id":"gebouw/Gebouw.16784242/0","properties":{"source":"Digitaal Vlaanderen Gebouwenregister","source_id":"gebouw/Gebouw.16784242/0","kind":"building","height_m":9.32,"status":null},"geometry":{"type":"Polygon","coordinates":[[[3.98738257,50.91392116],[3.98736548,50.91394551],[3.987413,50.91396086],[3.98740093,50.91397636],[3.98742102,50.91398274],[3.98740784,50.91399962],[3.98744432,50.91401123],[3.98739577,50.91407303],[3.98733733,50.91414743],[3.98732393,50.91414334],[3.98723047,50.91411479],[3.98738029,50.91391795],[3.98738257,50.91392116]]]}},{"type":"Feature","id":"gebouw/Gebouw.16785293/0","properties":{"source":"Digitaal Vlaanderen Gebouwenregister","source_id":"gebouw/Gebouw.16785293/0","kind":"building","height_m":5.0,"status":null},"geometry":{"type":"Polygon","coordinates":[[[3.99385115,50.91306334],[3.99377147,50.91313856],[3.99356521,50.91305124],[3.99363676,50.91298402],[3.99364379,50.91297741],[3.9937345,50.91301582],[3.99398235,50.91278183],[3.99399711,50.9127679],[3.99411917,50.91281944],[3.99409896,50.91283835],[3.99397596,50.91295343],[3.99385115,50.91306334]]]}},{"type":"Feature","id":"gebouw/Gebouw.16786161/0","properties":{"source":"Digitaal Vlaanderen Gebouwenregister","source_id":"gebouw/Gebouw.16786161/0","kind":"building","height_m":5.0,"status":null},"geometry":{"type":"Polygon","coordinates":[[[3.98817923,50.91491253],[3.98818469,50.91493199],[3.98817623,50.91493239],[3.98819317,50.9149881],[3.98810628,50.91499818],[3.98809752,50.914968],[3.98806074,50.91497203],[3.98803711,50.9148911],[3.98808099,50.91488578],[3.98807787,50.91487582],[3.9881535,50.91486636],[3.98815562,50.91487412],[3.98816147,50.91487326],[3.98816598,50.91489419],[3.98817388,50.91489347],[3.98817923,50.91491253]]]}},{"type":"Feature","id":"gebouw/Gebouw.16786162/0","properties":{"source":"Digitaal Vlaanderen Gebouwenregister","source_id":"gebouw/Gebouw.16786162/0","kind":"building","height_m":5.72,"status":null},"geometry":{"type":"Polygon","coordinates":[[[3.9920602,50.91265162],[3.99206421,50.91265318],[3.99196952,50.91274916],[3.99183599,50.91269652],[3.99191436,50.91261707],[3.99196878,50.91263792],[3.99198439,50.9126221],[3.99199337,50.9126256],[3.9920602,50.91265162]]]}},{"type":"Feature","id":"gebouw/Gebouw.16794222/0","properties":{"source":"Digitaal Vlaanderen Gebouwenregister","source_id":"gebouw/Gebouw.16794222/0","kind":"building","height_m":7.88,"status":null},"geometry":{"type":"Polygon","coordinates":[[[3.99285198,50.91345183],[3.99290644,50.91347325],[3.99292169,50.91345819],[3.99300642,50.91349079],[3.99286977,50.91363272],[3.9928613,50.91363879],[3.99285176,50.91364088],[3.99284225,50.91364054],[3.99283242,50.91363785],[3.99280932,50.9136285],[3.99280068,50.91363352],[3.992788,50.91363595],[3.99277268,50.91363595],[3.99276172,50.91363121],[3.99275505,50.91362545],[3.99275215,50.9136162],[3.99275665,50.91360822],[3.99272732,50.91359591],[3.99272262,50.91359178],[3.99272049,50.91358553],[3.99272184,50.91357908],[3.99277685,50.9135197],[3.99276195,50.91351384],[3.99280072,50.91347324],[3.99282251,50.91348176],[3.99285198,50.91345183]]]}},{"type":"Feature","id":"gebouw/Gebouw.16794827/0","properties":{"source":"Digitaal Vlaanderen Gebouwenregister","source_id":"gebouw/Gebouw.16794827/0","kind":"building","height_m":5.0,"status":null},"geometry":{"type":"Polygon","coordinates":[[[3.98916665,50.91216572],[3.98924115,50.91218318],[3.98923619,50.9121915],[3.98930859,50.91220848],[3.98920119,50.91239149],[3.98910764,50.91236851],[3.98911231,50.91236142],[3.98906329,50.91235013],[3.98908902,50.9123063],[3.98908485,50.91230527],[3.98916665,50.91216572]]]}},{"type":"Feature","id":"gebouw/Gebouw.16796754/0","properties":{"source":"Digitaal Vlaanderen Gebouwenregister","source_id":"gebouw/Gebouw.16796754/0","kind":"building","height_m":6.44,"status":null},"geometry":{"type":"Polygon","coordinates":[[[3.99392364,50.91274],[3.99388984,50.91266866],[3.99397715,50.91264987],[3.99401397,50.91272408],[3.99392364,50.91274]]]}},{"type":"Feature","id":"gebouw/Gebouw.16797040/0","properties":{"source":"Digitaal Vlaanderen Gebouwenregister","source_id":"gebouw/Gebouw.16797040/0","kind":"building","height_m":5.72,"status":null},"geometry":{"type":"Polygon","coordinates":[[[3.99418519,50.91401164],[3.99422304,50.91402353],[3.99421137,50.91403903],[3.9942652,50.91405609],[3.99426728,50.91405353],[3.99427175,50.91405501],[3.99420429,50.91413593],[3.99405754,50.91408789],[3.99413091,50.91399458],[3.99418519,50.91401164]]]}},{"type":"Feature","id":"gebouw/Gebouw.16797075/0","properties":{"source":"Digitaal Vlaanderen Gebouwenregister","source_id":"gebouw/Gebouw.16797075/0","kind":"building","height_m":5.72,"status":null},"geometry":{"type":"Polygon","coordinates":[[[3.9879474,50.91436381],[3.98781128,50.91433139],[3.98778518,50.91437308],[3.98778474,50.91437379],[3.98778414,50.91437475],[3.98778512,50.91437498],[3.98788998,50.91439888],[3.98799112,50.91442378],[3.98801531,50.91438091],[3.9879474,50.91436381]]]}},{"type":"Feature","id":"gebouw/Gebouw.16797174/0","properties":{"source":"Digitaal Vlaanderen Gebouwenregister","source_id":"gebouw/Gebouw.16797174/0","kind":"building","height_m":6.44,"status":null},"geometry":{"type":"Polygon","coordinates":[[[3.99032693,50.91213111],[3.9903686,50.91207655],[3.99037179,50.91207237],[3.99039398,50.91204332],[3.99038348,50.91204001],[3.99037936,50.91203871],[3.99039035,50.91202999],[3.99027652,50.91199879],[3.99026712,50.9120125],[3.99024593,50.91204339],[3.99024169,50.91204957],[3.99025034,50.91205216],[3.99016377,50.91217837],[3.99024992,50.91220176],[3.9903088,50.91212513],[3.99032693,50.91213111]]]}},{"type":"Feature","id":"gebouw/Gebouw.16797706/0","properties":{"source":"Digitaal Vlaanderen Gebouwenregister","source_id":"gebouw/Gebouw.16797706/0","kind":"building","height_m":6.44,"status":null},"geometry":{"type":"Polygon","coordinates":[[[3.98733206,50.91384988],[3.98716236,50.91389341],[3.98711215,50.91382058],[3.98726884,50.91377428],[3.98727308,50.91377301],[3.98733206,50.91384988]]]}},{"type":"Feature","id":"gebouw/Gebouw.16800872/0","properties":{"source":"Digitaal Vlaanderen Gebouwenregister","source_id":"gebouw/Gebouw.16800872/0","kind":"building","height_m":7.88,"status":null},"geometry":{"type":"Polygon","coordinates":[[[3.99354082,50.91368406],[3.99366543,50.91373073],[3.99353613,50.91386869],[3.99341212,50.91382138],[3.99354082,50.91368406]]]}},{"type":"Feature","id":"gebouw/Gebouw.16800878/0","properties":{"source":"Digitaal Vlaanderen Gebouwenregister","source_id":"gebouw/Gebouw.16800878/0","kind":"building","height_m":7.16,"status":null},"geometry":{"type":"Polygon","coordinates":[[[3.99391617,50.91394104],[3.99394856,50.91395115],[3.99395712,50.91394019],[3.99405071,50.91396939],[3.99396903,50.91407344],[3.9938432,50.91403567],[3.99386646,50.91400551],[3.99389963,50.91401439],[3.99391734,50.91399153],[3.9938847,50.91398135],[3.99391617,50.91394104]]]}},{"type":"Feature","id":"gebouw/Gebouw.16801494/0","properties":{"source":"Digitaal Vlaanderen Gebouwenregister","source_id":"gebouw/Gebouw.16801494/0","kind":"building","height_m":7.16,"status":null},"geometry":{"type":"Polygon","coordinates":[[[3.98942005,50.91222493],[3.98956704,50.91225881],[3.98952527,50.91233126],[3.98950463,50.91232617],[3.98944555,50.91242546],[3.98943082,50.91242216],[3.98938192,50.91241123],[3.98932054,50.9123975],[3.98942005,50.91222493]]]}},{"type":"Feature","id":"gebouw/Gebouw.16801641/0","properties":{"source":"Digitaal Vlaanderen Gebouwenregister","source_id":"gebouw/Gebouw.16801641/0","kind":"building","height_m":7.16,"status":null},"geometry":{"type":"Polygon","coordinates":[[[3.99008054,50.91237762],[3.98998466,50.91250588],[3.98996209,50.91253608],[3.98984111,50.91250285],[3.98986171,50.91247217],[3.9898474,50.91246846],[3.98989702,50.91239359],[3.98992375,50.91240024],[3.98995938,50.91234617],[3.99008054,50.91237762]]]}},{"type":"Feature","id":"gebouw/Gebouw.16811892/0","properties":{"source":"Digitaal Vlaanderen Gebouwenregister","source_id":"gebouw/Gebouw.16811892/0","kind":"building","height_m":9.32,"status":null},"geometry":{"type":"Polygon","coordinates":[[[3.9876886,50.91367857],[3.98777804,50.91359666],[3.98774574,50.91357453],[3.98781751,50.91352151],[3.98776978,50.91349359],[3.98760299,50.91364512],[3.98760832,50.91364734],[3.98768363,50.91367871],[3.98768592,50.91367966],[3.98768674,50.91368],[3.9876886,50.91367857]]]}},{"type":"Feature","id":"gebouw/Gebouw.16811998/0","properties":{"source":"Digitaal Vlaanderen Gebouwenregister","source_id":"gebouw/Gebouw.16811998/0","kind":"building","height_m":5.0,"status":null},"geometry":{"type":"Polygon","coordinates":[[[3.99307459,50.91278151],[3.9931212,50.91280011],[3.99304485,50.91286809],[3.99297104,50.91293381],[3.99292502,50.91291078],[3.99300263,50.9128437],[3.99307459,50.91278151]]]}},{"type":"Feature","id":"gebouw/Gebouw.16812067/0","properties":{"source":"Digitaal Vlaanderen Gebouwenregister","source_id":"gebouw/Gebouw.16812067/0","kind":"building","height_m":9.32,"status":null},"geometry":{"type":"Polygon","coordinates":[[[3.98974154,50.9118044],[3.98986557,50.91183555],[3.98983344,50.91189325],[3.98962309,50.91184224],[3.98963728,50.911812],[3.98965146,50.91178177],[3.98967106,50.91173998],[3.98969982,50.91174504],[3.98971242,50.91171971],[3.98974315,50.91172458],[3.98976052,50.91169026],[3.98979201,50.9116969],[3.98974154,50.9118044]]]}},{"type":"Feature","id":"gebouw/Gebouw.16812072/0","properties":{"source":"Digitaal Vlaanderen Gebouwenregister","source_id":"gebouw/Gebouw.16812072/0","kind":"building","height_m":7.88,"status":null},"geometry":{"type":"Polygon","coordinates":[[[3.99288014,50.91400827],[3.99281266,50.91406617],[3.99278424,50.91405915],[3.99284809,50.91399475],[3.99288014,50.91400827]]]}},{"type":"Feature","id":"gebouw/Gebouw.16812281/0","properties":{"source":"Digitaal Vlaanderen Gebouwenregister","source_id":"gebouw/Gebouw.16812281/0","kind":"building","height_m":7.16,"status":null},"geometry":{"type":"Polygon","coordinates":[[[3.99436875,50.91356839],[3.99425789,50.91368383],[3.99417296,50.91365104],[3.9941882,50.91363492],[3.99409735,50.91359991],[3.99422947,50.91346297],[3.99428103,50.91348129],[3.99424548,50.91352075],[3.99436875,50.91356839]]]}},{"type":"Feature","id":"gebouw/Gebouw.16812372/0","properties":{"source":"Digitaal Vlaanderen Gebouwenregister","source_id":"gebouw/Gebouw.16812372/0","kind":"building","height_m":7.16,"status":null},"geometry":{"type":"Polygon","coordinates":[[[3.99397596,50.91295343],[3.99409292,50.91300091],[3.99397451,50.91311512],[3.99385115,50.91306334],[3.99397596,50.91295343]]]}},{"type":"Feature","id":"gebouw/Gebouw.16812381/0","properties":{"source":"Digitaal Vlaanderen Gebouwenregister","source_id":"gebouw/Gebouw.16812381/0","kind":"building","height_m":8.6,"status":null},"geometry":{"type":"Polygon","coordinates":[[[3.99226799,50.91378278],[3.9922148,50.91376381],[3.99226731,50.91370495],[3.9923205,50.91372391],[3.99226799,50.91378278]]]}},{"type":"Feature","id":"gebouw/Gebouw.16812553/0","properties":{"source":"Digitaal Vlaanderen Gebouwenregister","source_id":"gebouw/Gebouw.16812553/0","kind":"building","height_m":6.44,"status":null},"geometry":{"type":"Polygon","coordinates":[[[3.99131391,50.91236282],[3.99125998,50.91241688],[3.99122205,50.91245489],[3.99113751,50.91242122],[3.99123587,50.91232175],[3.99132038,50.91235633],[3.99131391,50.91236282]]]}},{"type":"Feature","id":"gebouw/Gebouw.16812607/0","properties":{"source":"Digitaal Vlaanderen Gebouwenregister","source_id":"gebouw/Gebouw.16812607/0","kind":"building","height_m":5.0,"status":null},"geometry":{"type":"Polygon","coordinates":[[[3.99358288,50.91273957],[3.99362349,50.91270497],[3.99368091,50.9127319],[3.99364029,50.91276651],[3.99358288,50.91273957]]]}},{"type":"Feature","id":"gebouw/Gebouw.16814289/0","properties":{"source":"Digitaal Vlaanderen Gebouwenregister","source_id":"gebouw/Gebouw.16814289/0","kind":"building","height_m":6.44,"status":null},"geometry":{"type":"Polygon","coordinates":[[[3.99451331,50.91364335],[3.99447332,50.91362795],[3.99444235,50.91366011],[3.99441603,50.91364997],[3.99439136,50.91367559],[3.99437076,50.91366954],[3.99433129,50.91371156],[3.99434203,50.9137156],[3.99431264,50.91374643],[3.99438658,50.9137749],[3.99451331,50.91364335]]]}},{"type":"Feature","id":"gebouw/Gebouw.16814381/0","properties":{"source":"Digitaal Vlaanderen Gebouwenregister","source_id":"gebouw/Gebouw.16814381/0","kind":"building","height_m":7.16,"status":null},"geometry":{"type":"Polygon","coordinates":[[[3.99026712,50.9120125],[3.99024593,50.91204339],[3.99024169,50.91204957],[3.99025034,50.91205216],[3.99016377,50.91217837],[3.99009096,50.91215812],[3.9901502,50.91207175],[3.99017733,50.9120787],[3.9902096,50.91203386],[3.99018148,50.91202615],[3.99020291,50.9119949],[3.99026712,50.9120125]]]}},{"type":"Feature","id":"gebouw/Gebouw.16814411/0","properties":{"source":"Digitaal Vlaanderen Gebouwenregister","source_id":"gebouw/Gebouw.16814411/0","kind":"building","height_m":8.6,"status":null},"geometry":{"type":"Polygon","coordinates":[[[3.989286,50.91268863],[3.98935644,50.91270478],[3.98932838,50.91275369],[3.98925794,50.91273754],[3.989286,50.91268863]]]}},{"type":"Feature","id":"gebouw/Gebouw.16820824/0","properties":{"source":"Digitaal Vlaanderen Gebouwenregister","source_id":"gebouw/Gebouw.16820824/0","kind":"building","height_m":9.32,"status":null},"geometry":{"type":"Polygon","coordinates":[[[3.99159914,50.91352931],[3.99154766,50.91359014],[3.99145707,50.91355724],[3.99149722,50.9135136],[3.99155567,50.9135344],[3.99156959,50.91351862],[3.99159914,50.91352931]]]}},{"type":"Feature","id":"gebouw/Gebouw.16820885/0","properties":{"source":"Digitaal Vlaanderen Gebouwenregister","source_id":"gebouw/Gebouw.16820885/0","kind":"building","height_m":7.88,"status":null},"geometry":{"type":"Polygon","coordinates":[[[3.990074,50.91203404],[3.99000434,50.91213559],[3.98988266,50.91210234],[3.98988705,50.91209594],[3.98995222,50.91200094],[3.990074,50.91203404]]]}},{"type":"Feature","id":"gebouw/Gebouw.16821014/0","properties":{"source":"Digitaal Vlaanderen Gebouwenregister","source_id":"gebouw/Gebouw.16821014/0","kind":"building","height_m":5.0,"status":null},"geometry":{"type":"Polygon","coordinates":[[[3.99383726,50.91440387],[3.99379219,50.91446555],[3.99373384,50.91444851],[3.99377892,50.91438683],[3.99383726,50.91440387]]]}},{"type":"Feature","id":"gebouw/Gebouw.16821070/0","properties":{"source":"Digitaal Vlaanderen Gebouwenregister","source_id":"gebouw/Gebouw.16821070/0","kind":"building","height_m":5.0,"status":null},"geometry":{"type":"Polygon","coordinates":[[[3.98945605,50.91500082],[3.98950129,50.91501438],[3.98948228,50.91504083],[3.98944861,50.91503082],[3.98944622,50.91503404],[3.98943488,50.91503065],[3.98945605,50.91500082]]]}},{"type":"Feature","id":"gebouw/Gebouw.16821072/0","properties":{"source":"Digitaal Vlaanderen Gebouwenregister","source_id":"gebouw/Gebouw.16821072/0","kind":"building","height_m":6.44,"status":null},"geometry":{"type":"Polygon","coordinates":[[[3.99319624,50.91400286],[3.99324978,50.91401942],[3.99322015,50.91405771],[3.99316661,50.91404116],[3.99319624,50.91400286]]]}},{"type":"Feature","id":"gebouw/Gebouw.16821336/0","properties":{"source":"Digitaal Vlaanderen Gebouwenregister","source_id":"gebouw/Gebouw.16821336/0","kind":"building","height_m":5.0,"status":null},"geometry":{"type":"Polygon","coordinates":[[[3.98741996,50.91423566],[3.98738091,50.91422502],[3.98737796,50.91422838],[3.98733611,50.91421519],[3.98729114,50.91427766],[3.98724672,50.91426279],[3.98733733,50.91414743],[3.98739577,50.91407303],[3.98748237,50.91410075],[3.98741977,50.91417892],[3.98745542,50.91418938],[3.98745418,50.914191],[3.98741996,50.91423566]]]}},{"type":"Feature","id":"gebouw/Gebouw.16821615/0","properties":{"source":"Digitaal Vlaanderen Gebouwenregister","source_id":"gebouw/Gebouw.16821615/0","kind":"building","height_m":9.32,"status":null},"geometry":{"type":"Polygon","coordinates":[[[3.98776978,50.91349359],[3.98777322,50.91349032],[3.98773237,50.91347393],[3.98767726,50.91352529],[3.98766176,50.913519],[3.98762247,50.91355496],[3.98759755,50.9135431],[3.98752313,50.91360619],[3.98760299,50.91364512],[3.98776978,50.91349359]]]}},{"type":"Feature","id":"gebouw/Gebouw.16821638/0","properties":{"source":"Digitaal Vlaanderen Gebouwenregister","source_id":"gebouw/Gebouw.16821638/0","kind":"building","height_m":5.72,"status":null},"geometry":{"type":"Polygon","coordinates":[[[3.99288134,50.91311306],[3.99290201,50.91309493],[3.99282386,50.91305906],[3.99291435,50.91298028],[3.99297773,50.91300817],[3.99299115,50.91299721],[3.99305999,50.91302741],[3.99293438,50.9131373],[3.99288134,50.91311306]]]}},{"type":"Feature","id":"gebouw/Gebouw.16828942/0","properties":{"source":"Digitaal Vlaanderen Gebouwenregister","source_id":"gebouw/Gebouw.16828942/0","kind":"building","height_m":7.88,"status":null},"geometry":{"type":"Polygon","coordinates":[[[3.99328882,50.91361059],[3.99338153,50.91364539],[3.99339616,50.91362986],[3.99345057,50.91365002],[3.99336439,50.91374297],[3.99321534,50.9136888],[3.99328882,50.91361059]]]}},{"type":"Feature","id":"gebouw/Gebouw.16829328/0","properties":{"source":"Digitaal Vlaanderen Gebouwenregister","source_id":"gebouw/Gebouw.16829328/0","kind":"building","height_m":8.6,"status":null},"geometry":{"type":"Polygon","coordinates":[[[3.99398302,50.91438539],[3.99400405,50.9143592],[3.99406658,50.91437926],[3.99404555,50.91440546],[3.99398302,50.91438539]]]}},{"type":"Feature","id":"gebouw/Gebouw.16847462/0","properties":{"source":"Digitaal Vlaanderen Gebouwenregister","source_id":"gebouw/Gebouw.16847462/0","kind":"building","height_m":6.44,"status":null},"geometry":{"type":"Polygon","coordinates":[[[3.98965146,50.91178177],[3.98963728,50.911812],[3.98957048,50.91179843],[3.98962052,50.91169325],[3.98968776,50.9117044],[3.98967106,50.91173998],[3.98965146,50.91178177]]]}},{"type":"Feature","id":"gebouw/Gebouw.16847655/0","properties":{"source":"Digitaal Vlaanderen Gebouwenregister","source_id":"gebouw/Gebouw.16847655/0","kind":"building","height_m":9.32,"status":null},"geometry":{"type":"Polygon","coordinates":[[[3.9904825,50.91319049],[3.99051464,50.91315994],[3.99056386,50.91318268],[3.99055421,50.91319022],[3.99063754,50.91322854],[3.99062126,50.91324508],[3.9904825,50.91319049]]]}},{"type":"Feature","id":"gebouw/Gebouw.16847839/0","properties":{"source":"Digitaal Vlaanderen Gebouwenregister","source_id":"gebouw/Gebouw.16847839/0","kind":"building","height_m":5.72,"status":null},"geometry":{"type":"Polygon","coordinates":[[[3.99109576,50.91329519],[3.99102749,50.91337547],[3.99098431,50.91336076],[3.99102062,50.91331863],[3.99105315,50.91328091],[3.99109576,50.91329519]]]}},{"type":"Feature","id":"gebouw/Gebouw.17043054/0","properties":{"source":"Digitaal Vlaanderen Gebouwenregister","source_id":"gebouw/Gebouw.17043054/0","kind":"building","height_m":5.0,"status":null},"geometry":{"type":"Polygon","coordinates":[[[3.98803779,50.91451574],[3.9879717,50.91450321],[3.98795998,50.91450044],[3.98797247,50.91448007],[3.98785694,50.91445048],[3.98788998,50.91439888],[3.98799112,50.91442378],[3.98808067,50.91444582],[3.98818847,50.91447236],[3.988168,50.91450771],[3.98805824,50.9144824],[3.98803779,50.91451574]]]}},{"type":"Feature","id":"gebouw/Gebouw.17058326/0","properties":{"source":"Digitaal Vlaanderen Gebouwenregister","source_id":"gebouw/Gebouw.17058326/0","kind":"building","height_m":8.6,"status":null},"geometry":{"type":"Polygon","coordinates":[[[3.98791382,50.9143173],[3.98792878,50.91429373],[3.98798832,50.91430885],[3.98804915,50.91432429],[3.98807199,50.91429],[3.98801314,50.91427551],[3.9878192,50.91422777],[3.98781809,50.91422987],[3.98782704,50.91423207],[3.98777404,50.91431995],[3.98777793,50.91432114],[3.98781128,50.91433139],[3.9879474,50.91436381],[3.98801531,50.91438091],[3.98803255,50.91435033],[3.98796862,50.91433531],[3.98797171,50.91433116],[3.98791382,50.9143173]]]}},{"type":"Feature","id":"gebouw/Gebouw.17058357/0","properties":{"source":"Digitaal Vlaanderen Gebouwenregister","source_id":"gebouw/Gebouw.17058357/0","kind":"building","height_m":5.72,"status":null},"geometry":{"type":"Polygon","coordinates":[[[3.98965265,50.91283859],[3.98968574,50.91284977],[3.98969884,50.91283103],[3.98975375,50.91284596],[3.98973474,50.91287251],[3.98975125,50.91287866],[3.9897311,50.9129048],[3.98962956,50.91287343],[3.9896272,50.91287647],[3.98958137,50.91286231],[3.98959657,50.91284264],[3.98963932,50.91285585],[3.98965265,50.91283859]]]}},{"type":"Feature","id":"gebouw/Gebouw.17058506/0","properties":{"source":"Digitaal Vlaanderen Gebouwenregister","source_id":"gebouw/Gebouw.17058506/0","kind":"building","height_m":7.16,"status":null},"geometry":{"type":"Polygon","coordinates":[[[3.99347716,50.91335575],[3.99335679,50.91330588],[3.99341102,50.91325356],[3.99342244,50.91325829],[3.99350044,50.91318305],[3.99360939,50.91322818],[3.99347716,50.91335575]]]}},{"type":"Feature","id":"gebouw/Gebouw.17058667/0","properties":{"source":"Digitaal Vlaanderen Gebouwenregister","source_id":"gebouw/Gebouw.17058667/0","kind":"building","height_m":7.16,"status":null},"geometry":{"type":"Polygon","coordinates":[[[3.98772974,50.91378987],[3.98752696,50.91367382],[3.98748107,50.91368865],[3.98755463,50.91377983],[3.9875208,50.91378926],[3.98752707,50.91379825],[3.98747749,50.91381334],[3.98751223,50.91385738],[3.98772974,50.91378987]]]}},{"type":"Feature","id":"gebouw/Gebouw.17058668/0","properties":{"source":"Digitaal Vlaanderen Gebouwenregister","source_id":"gebouw/Gebouw.17058668/0","kind":"building","height_m":7.88,"status":null},"geometry":{"type":"Polygon","coordinates":[[[3.98732994,50.91393221],[3.98721325,50.91396524],[3.98716236,50.91389341],[3.98733206,50.91384988],[3.98738029,50.91391795],[3.98734593,50.91392768],[3.98732994,50.91393221]]]}},{"type":"Feature","id":"gebouw/Gebouw.17059034/0","properties":{"source":"Digitaal Vlaanderen Gebouwenregister","source_id":"gebouw/Gebouw.17059034/0","kind":"building","height_m":9.32,"status":null},"geometry":{"type":"Polygon","coordinates":[[[3.98791768,50.91375916],[3.987992,50.91379092],[3.98795269,50.91382769],[3.98787917,50.91379626],[3.98791768,50.91375916]]]}},{"type":"Feature","id":"gebouw/Gebouw.17071062/0","properties":{"source":"Digitaal Vlaanderen Gebouwenregister","source_id":"gebouw/Gebouw.17071062/0","kind":"building","height_m":5.72,"status":null},"geometry":{"type":"Polygon","coordinates":[[[3.99423396,50.91417187],[3.99428515,50.91418824],[3.99422206,50.91427029],[3.99417085,50.9142556],[3.9941891,50.91423139],[3.99423396,50.91417187]]]}},{"type":"Feature","id":"gebouw/Gebouw.17120456/0","properties":{"source":"Digitaal Vlaanderen Gebouwenregister","source_id":"gebouw/Gebouw.17120456/0","kind":"building","height_m":7.16,"status":null},"geometry":{"type":"Polygon","coordinates":[[[3.99079988,50.91462812],[3.990897,50.91464839],[3.99087161,50.91469702],[3.99077448,50.91467675],[3.99079988,50.91462812]]]}},{"type":"Feature","id":"gebouw/Gebouw.17120616/0","properties":{"source":"Digitaal Vlaanderen Gebouwenregister","source_id":"gebouw/Gebouw.17120616/0","kind":"building","height_m":6.44,"status":null},"geometry":{"type":"Polygon","coordinates":[[[3.99309353,50.91357749],[3.99313133,50.91353999],[3.99322125,50.91357623],[3.99303575,50.91376021],[3.99299196,50.91374256],[3.99305584,50.91367921],[3.99295638,50.91363913],[3.99302257,50.91357348],[3.99305748,50.91358755],[3.99307511,50.91357007],[3.99309353,50.91357749]]]}},{"type":"Feature","id":"gebouw/Gebouw.17120795/0","properties":{"source":"Digitaal Vlaanderen Gebouwenregister","source_id":"gebouw/Gebouw.17120795/0","kind":"building","height_m":9.32,"status":null},"geometry":{"type":"Polygon","coordinates":[[[3.99477797,50.91420355],[3.9946771,50.91417108],[3.99461551,50.91424756],[3.99471477,50.91427989],[3.99471932,50.91428137],[3.99477797,50.91420355]]]}},{"type":"Feature","id":"gebouw/Gebouw.17120938/0","properties":{"source":"Digitaal Vlaanderen Gebouwenregister","source_id":"gebouw/Gebouw.17120938/0","kind":"building","height_m":6.44,"status":null},"geometry":{"type":"Polygon","coordinates":[[[3.99276619,50.91339602],[3.99265017,50.91352013],[3.99252102,50.91347043],[3.99262187,50.91336297],[3.99264203,50.91337053],[3.99265966,50.91335111],[3.99266751,50.91335393],[3.99266383,50.91335777],[3.9927101,50.91337506],[3.99276152,50.91339427],[3.99276619,50.91339602]]]}},{"type":"Feature","id":"gebouw/Gebouw.17120984/0","properties":{"source":"Digitaal Vlaanderen Gebouwenregister","source_id":"gebouw/Gebouw.17120984/0","kind":"building","height_m":9.32,"status":null},"geometry":{"type":"Polygon","coordinates":[[[3.98889896,50.9146167],[3.98888319,50.91464295],[3.98895258,50.91465961],[3.98896835,50.91463335],[3.98889896,50.9146167]]]}},{"type":"Feature","id":"gebouw/Gebouw.17121021/0","properties":{"source":"Digitaal Vlaanderen Gebouwenregister","source_id":"gebouw/Gebouw.17121021/0","kind":"building","height_m":5.72,"status":null},"geometry":{"type":"Polygon","coordinates":[[[3.99237744,50.91387189],[3.99248115,50.91391213],[3.99245746,50.91393648],[3.99240134,50.91391541],[3.99235328,50.91389737],[3.99237744,50.91387189]]]}},{"type":"Feature","id":"gebouw/Gebouw.18115016/0","properties":{"source":"Digitaal Vlaanderen Gebouwenregister","source_id":"gebouw/Gebouw.18115016/0","kind":"building","height_m":7.16,"status":null},"geometry":{"type":"Polygon","coordinates":[[[3.99063762,50.91225544],[3.99076421,50.91209626],[3.99086477,50.91212822],[3.99083975,50.91215968],[3.99085433,50.91216432],[3.99078108,50.91225643],[3.9907648,50.91225122],[3.99074379,50.91225534],[3.99074291,50.91225671],[3.9907219,50.91228224],[3.99063762,50.91225544]]]}},{"type":"Feature","id":"gebouw/Gebouw.18115055/0","properties":{"source":"Digitaal Vlaanderen Gebouwenregister","source_id":"gebouw/Gebouw.18115055/0","kind":"building","height_m":5.0,"status":null},"geometry":{"type":"Polygon","coordinates":[[[3.99156558,50.91252296],[3.99151755,50.91257156],[3.99146135,50.91254936],[3.99137627,50.91251576],[3.99142752,50.9124639],[3.99145806,50.91247596],[3.99151988,50.9124134],[3.9916591,50.91246839],[3.99159406,50.91253421],[3.99156558,50.91252296]]]}},{"type":"Feature","id":"gebouw/Gebouw.18115056/0","properties":{"source":"Digitaal Vlaanderen Gebouwenregister","source_id":"gebouw/Gebouw.18115056/0","kind":"building","height_m":5.72,"status":null},"geometry":{"type":"Polygon","coordinates":[[[3.99176656,50.91246844],[3.99189546,50.91251942],[3.99175199,50.91266437],[3.99165549,50.9126262],[3.99166565,50.91261594],[3.99163325,50.91260312],[3.99176656,50.91246844]]]}},{"type":"Feature","id":"gebouw/Gebouw.18729038/0","properties":{"source":"Digitaal Vlaanderen Gebouwenregister","source_id":"gebouw/Gebouw.18729038/0","kind":"building","height_m":9.32,"status":null},"geometry":{"type":"Polygon","coordinates":[[[3.99083596,50.91306724],[3.99080057,50.91310927],[3.99075047,50.91309199],[3.99078739,50.91305016],[3.99083596,50.91306724]]]}},{"type":"Feature","id":"gebouw/Gebouw.18729039/0","properties":{"source":"Digitaal Vlaanderen Gebouwenregister","source_id":"gebouw/Gebouw.18729039/0","kind":"building","height_m":5.0,"status":null},"geometry":{"type":"Polygon","coordinates":[[[3.9897328,50.91276634],[3.98971845,50.91278643],[3.98965124,50.91276785],[3.98966471,50.9127487],[3.9897328,50.91276634]]]}},{"type":"Feature","id":"gebouw/Gebouw.18729161/0","properties":{"source":"Digitaal Vlaanderen Gebouwenregister","source_id":"gebouw/Gebouw.18729161/0","kind":"building","height_m":7.16,"status":null},"geometry":{"type":"Polygon","coordinates":[[[3.99249033,50.91228663],[3.99245244,50.91232552],[3.99241394,50.91230907],[3.99245247,50.91227032],[3.99249033,50.91228663]]]}},{"type":"Feature","id":"gebouw/Gebouw.18729162/0","properties":{"source":"Digitaal Vlaanderen Gebouwenregister","source_id":"gebouw/Gebouw.18729162/0","kind":"building","height_m":7.88,"status":null},"geometry":{"type":"Polygon","coordinates":[[[3.99239923,50.91214402],[3.99234754,50.91212191],[3.99229875,50.91216743],[3.99235043,50.91218956],[3.99239923,50.91214402]]]}},{"type":"Feature","id":"gebouw/Gebouw.19879148/0","properties":{"source":"Digitaal Vlaanderen Gebouwenregister","source_id":"gebouw/Gebouw.19879148/0","kind":"building","height_m":6.44,"status":null},"geometry":{"type":"Polygon","coordinates":[[[3.98808067,50.91444582],[3.98805824,50.9144824],[3.98798185,50.91446478],[3.98797248,50.91448007],[3.98785694,50.91445048],[3.98788998,50.91439888],[3.98799112,50.91442378],[3.98808067,50.91444582]]]}},{"type":"Feature","id":"gebouw/Gebouw.19879149/0","properties":{"source":"Digitaal Vlaanderen Gebouwenregister","source_id":"gebouw/Gebouw.19879149/0","kind":"building","height_m":7.16,"status":null},"geometry":{"type":"Polygon","coordinates":[[[3.98805824,50.9144824],[3.98808067,50.91444582],[3.98818847,50.91447236],[3.988168,50.91450771],[3.98805824,50.9144824]]]}},{"type":"Feature","id":"gebouw/Gebouw.19879150/0","properties":{"source":"Digitaal Vlaanderen Gebouwenregister","source_id":"gebouw/Gebouw.19879150/0","kind":"building","height_m":7.88,"status":null},"geometry":{"type":"Polygon","coordinates":[[[3.98805824,50.9144824],[3.98803495,50.91452037],[3.98797091,50.91450624],[3.98795815,50.91450342],[3.98797248,50.91448007],[3.98798185,50.91446478],[3.98805824,50.9144824]]]}},{"type":"Feature","id":"gebouw/Gebouw.19880110/0","properties":{"source":"Digitaal Vlaanderen Gebouwenregister","source_id":"gebouw/Gebouw.19880110/0","kind":"building","height_m":8.6,"status":null},"geometry":{"type":"Polygon","coordinates":[[[3.98789375,50.91397313],[3.98777274,50.91391307],[3.98770871,50.91392891],[3.98769454,50.9139063],[3.98768632,50.91390824],[3.98757005,50.91393569],[3.9876112,50.91399993],[3.98766677,50.9139858],[3.98767195,50.91399419],[3.98772155,50.91398163],[3.98774258,50.91401328],[3.98789375,50.91397313]]]}},{"type":"Feature","id":"gebouw/Gebouw.19880111/0","properties":{"source":"Digitaal Vlaanderen Gebouwenregister","source_id":"gebouw/Gebouw.19880111/0","kind":"building","height_m":9.32,"status":null},"geometry":{"type":"Polygon","coordinates":[[[3.98768632,50.91390824],[3.98765911,50.91387025],[3.98755052,50.91390519],[3.98757005,50.91393569],[3.98768632,50.91390824]]]}},{"type":"Feature","id":"gebouw/Gebouw.19880618/0","properties":{"source":"Digitaal Vlaanderen Gebouwenregister","source_id":"gebouw/Gebouw.19880618/0","kind":"building","height_m":6.44,"status":null},"geometry":{"type":"Polygon","coordinates":[[[3.9901502,50.91207175],[3.99009096,50.91215812],[3.99000664,50.91213436],[3.99000573,50.91213583],[3.99000434,50.91213559],[3.990074,50.91203404],[3.99008262,50.91202147],[3.99014495,50.91203975],[3.99016986,50.91200705],[3.99015351,50.91200245],[3.99020053,50.91193695],[3.99023643,50.91194603],[3.99021901,50.91197143],[3.99020291,50.9119949],[3.99018148,50.91202615],[3.9901502,50.91207175]]]}},{"type":"Feature","id":"gebouw/Gebouw.19880619/0","properties":{"source":"Digitaal Vlaanderen Gebouwenregister","source_id":"gebouw/Gebouw.19880619/0","kind":"building","height_m":7.16,"status":null},"geometry":{"type":"Polygon","coordinates":[[[3.99023643,50.91194603],[3.99025245,50.91195051],[3.990234,50.91197564],[3.99021901,50.91197143],[3.99023643,50.91194603]]]}},{"type":"Feature","id":"gebouw/Gebouw.19880884/0","properties":{"source":"Digitaal Vlaanderen Gebouwenregister","source_id":"gebouw/Gebouw.19880884/0","kind":"building","height_m":6.44,"status":null},"geometry":{"type":"Polygon","coordinates":[[[3.99045884,50.91210549],[3.99038314,50.91208121],[3.9903686,50.91207655],[3.99032693,50.91213111],[3.99031522,50.91214645],[3.99026854,50.91220757],[3.99035808,50.912235],[3.99040383,50.91217529],[3.99042082,50.91218052],[3.99045362,50.91213821],[3.9904378,50.91213321],[3.99045884,50.91210549]]]}},{"type":"Feature","id":"gebouw/Gebouw.19880885/0","properties":{"source":"Digitaal Vlaanderen Gebouwenregister","source_id":"gebouw/Gebouw.19880885/0","kind":"building","height_m":7.16,"status":null},"geometry":{"type":"Polygon","coordinates":[[[3.99039398,50.91204332],[3.99040782,50.9120477],[3.99038661,50.9120765],[3.99038314,50.91208121],[3.9903686,50.91207655],[3.99037179,50.91207237],[3.99039398,50.91204332]]]}},{"type":"Feature","id":"gebouw/Gebouw.19881373/0","properties":{"source":"Digitaal Vlaanderen Gebouwenregister","source_id":"gebouw/Gebouw.19881373/0","kind":"building","height_m":5.72,"status":null},"geometry":{"type":"Polygon","coordinates":[[[3.98967106,50.91173998],[3.98969982,50.91174504],[3.98971242,50.91171971],[3.98974315,50.91172458],[3.98976052,50.91169026],[3.98979201,50.9116969],[3.98974154,50.9118044],[3.98965146,50.91178177],[3.98967106,50.91173998]]]}},{"type":"Feature","id":"gebouw/Gebouw.19881374/0","properties":{"source":"Digitaal Vlaanderen Gebouwenregister","source_id":"gebouw/Gebouw.19881374/0","kind":"building","height_m":6.44,"status":null},"geometry":{"type":"Polygon","coordinates":[[[3.98986557,50.91183555],[3.98983344,50.91189325],[3.98962309,50.91184224],[3.98963728,50.911812],[3.98965146,50.91178177],[3.98974154,50.9118044],[3.98986557,50.91183555]]]}},{"type":"Feature","id":"gebouw/Gebouw.20145765/0","properties":{"source":"Digitaal Vlaanderen Gebouwenregister","source_id":"gebouw/Gebouw.20145765/0","kind":"building","height_m":7.16,"status":null},"geometry":{"type":"Polygon","coordinates":[[[3.99286116,50.91387149],[3.99291586,50.91389233],[3.99289421,50.91391506],[3.9928395,50.91389422],[3.99286116,50.91387149]]]}},{"type":"Feature","id":"gebouw/Gebouw.20145766/0","properties":{"source":"Digitaal Vlaanderen Gebouwenregister","source_id":"gebouw/Gebouw.20145766/0","kind":"building","height_m":7.88,"status":null},"geometry":{"type":"Polygon","coordinates":[[[3.99300174,50.91479916],[3.99294115,50.91477508],[3.99297857,50.91473746],[3.99303915,50.91476154],[3.99300174,50.91479916]]]}},{"type":"Feature","id":"gebouw/Gebouw.20145767/0","properties":{"source":"Digitaal Vlaanderen Gebouwenregister","source_id":"gebouw/Gebouw.20145767/0","kind":"building","height_m":8.6,"status":null},"geometry":{"type":"Polygon","coordinates":[[[3.99380644,50.91425344],[3.99387263,50.91416585],[3.99391883,50.9141798],[3.99385264,50.91426739],[3.99380644,50.91425344]]]}},{"type":"Feature","id":"gebouw/Gebouw.20146136/0","properties":{"source":"Digitaal Vlaanderen Gebouwenregister","source_id":"gebouw/Gebouw.20146136/0","kind":"building","height_m":7.16,"status":null},"geometry":{"type":"Polygon","coordinates":[[[3.99374622,50.91278231],[3.99379007,50.91274056],[3.99386193,50.91277072],[3.99381808,50.91281247],[3.99374622,50.91278231]]]}},{"type":"Feature","id":"gebouw/Gebouw.20146137/0","properties":{"source":"Digitaal Vlaanderen Gebouwenregister","source_id":"gebouw/Gebouw.20146137/0","kind":"building","height_m":7.88,"status":null},"geometry":{"type":"Polygon","coordinates":[[[3.9920726,50.91237463],[3.99206749,50.91237974],[3.99199412,50.91245317],[3.99196041,50.91243971],[3.99203376,50.91236631],[3.9920389,50.91236117],[3.9920726,50.91237463]]]}},{"type":"Feature","id":"gebouw/Gebouw.20146138/0","properties":{"source":"Digitaal Vlaanderen Gebouwenregister","source_id":"gebouw/Gebouw.20146138/0","kind":"building","height_m":8.6,"status":null},"geometry":{"type":"Polygon","coordinates":[[[3.99261875,50.91183249],[3.99252045,50.91178595],[3.9924972,50.91180732],[3.99251781,50.91181803],[3.99252046,50.91181514],[3.99259712,50.91185098],[3.99261875,50.91183249]]]}},{"type":"Feature","id":"gebouw/Gebouw.20146139/0","properties":{"source":"Digitaal Vlaanderen Gebouwenregister","source_id":"gebouw/Gebouw.20146139/0","kind":"building","height_m":9.32,"status":null},"geometry":{"type":"Polygon","coordinates":[[[3.99139614,50.91211955],[3.99144087,50.91213661],[3.99140913,50.91216987],[3.9913644,50.91215281],[3.99139614,50.91211955]]]}},{"type":"Feature","id":"gebouw/Gebouw.20146140/0","properties":{"source":"Digitaal Vlaanderen Gebouwenregister","source_id":"gebouw/Gebouw.20146140/0","kind":"building","height_m":5.0,"status":null},"geometry":{"type":"Polygon","coordinates":[[[3.99127153,50.91210914],[3.99134172,50.91213869],[3.99136513,50.91211646],[3.99136194,50.91211512],[3.99137574,50.91210202],[3.99131516,50.91207652],[3.99130136,50.91208962],[3.99129494,50.91208691],[3.99127153,50.91210914]]]}},{"type":"Feature","id":"gebouw/Gebouw.20146141/0","properties":{"source":"Digitaal Vlaanderen Gebouwenregister","source_id":"gebouw/Gebouw.20146141/0","kind":"building","height_m":5.72,"status":null},"geometry":{"type":"Polygon","coordinates":[[[3.99060772,50.9114775],[3.99054733,50.91146853],[3.99056345,50.91142515],[3.99062385,50.91143412],[3.99060772,50.9114775]]]}},{"type":"Feature","id":"gebouw/Gebouw.20146143/0","properties":{"source":"Digitaal Vlaanderen Gebouwenregister","source_id":"gebouw/Gebouw.20146143/0","kind":"building","height_m":7.16,"status":null},"geometry":{"type":"Polygon","coordinates":[[[3.98978124,50.91319925],[3.98980418,50.91316482],[3.98985132,50.91317738],[3.98982838,50.9132118],[3.98978124,50.91319925]]]}},{"type":"Feature","id":"gebouw/Gebouw.20146144/0","properties":{"source":"Digitaal Vlaanderen Gebouwenregister","source_id":"gebouw/Gebouw.20146144/0","kind":"building","height_m":7.88,"status":null},"geometry":{"type":"Polygon","coordinates":[[[3.98934964,50.91479252],[3.98926748,50.91491078],[3.9892515,50.91490637],[3.98930805,50.91482445],[3.98929166,50.91481993],[3.989302,50.91480496],[3.98931967,50.91480984],[3.98933451,50.91478834],[3.98934964,50.91479252]]]}},{"type":"Feature","id":"gebouw/Gebouw.20980606/0","properties":{"source":"Digitaal Vlaanderen Gebouwenregister","source_id":"gebouw/Gebouw.20980606/0","kind":"building","height_m":7.16,"status":null},"geometry":{"type":"Polygon","coordinates":[[[3.99225812,50.91313429],[3.99215444,50.91325653],[3.99218617,50.91326724],[3.99216873,50.91328788],[3.9922251,50.9133069],[3.99234557,50.91316368],[3.99225812,50.91313429]]]}},{"type":"Feature","id":"gebouw/Gebouw.20980642/0","properties":{"source":"Digitaal Vlaanderen Gebouwenregister","source_id":"gebouw/Gebouw.20980642/0","kind":"building","height_m":7.88,"status":null},"geometry":{"type":"Polygon","coordinates":[[[3.99225812,50.91313429],[3.99221369,50.91311961],[3.99221237,50.91312121],[3.99217015,50.91310696],[3.99206838,50.91322749],[3.99215444,50.91325653],[3.99225812,50.91313429]]]}},{"type":"Feature","id":"gebouw/Gebouw.30642734/0","properties":{"source":"Digitaal Vlaanderen Gebouwenregister","source_id":"gebouw/Gebouw.30642734/0","kind":"building","height_m":7.16,"status":null},"geometry":{"type":"Polygon","coordinates":[[[3.99061868,50.91293673],[3.99057058,50.91292068],[3.99062611,50.91285417],[3.9906742,50.91287021],[3.99061868,50.91293673]]]}},{"type":"Feature","id":"gebouw/Gebouw.30642735/0","properties":{"source":"Digitaal Vlaanderen Gebouwenregister","source_id":"gebouw/Gebouw.30642735/0","kind":"building","height_m":7.88,"status":null},"geometry":{"type":"Polygon","coordinates":[[[3.99386764,50.91319296],[3.99395238,50.91322502],[3.99389809,50.91328237],[3.99384089,50.91326073],[3.99386698,50.91323317],[3.99383945,50.91322275],[3.99386764,50.91319296]]]}},{"type":"Feature","id":"gebouw/Gebouw.30642736/0","properties":{"source":"Digitaal Vlaanderen Gebouwenregister","source_id":"gebouw/Gebouw.30642736/0","kind":"building","height_m":8.6,"status":null},"geometry":{"type":"Polygon","coordinates":[[[3.98852347,50.91464108],[3.98853723,50.91461486],[3.98855752,50.91461912],[3.98856044,50.91461354],[3.98860637,50.91462317],[3.98858969,50.91465496],[3.98852347,50.91464108]]]}},{"type":"Feature","id":"gebouw/Gebouw.30909696/0","properties":{"source":"Digitaal Vlaanderen Gebouwenregister","source_id":"gebouw/Gebouw.30909696/0","kind":"building","height_m":9.32,"status":null},"geometry":{"type":"Polygon","coordinates":[[[3.99202671,50.91302413],[3.99211412,50.91305315],[3.99203312,50.91315067],[3.99200542,50.9131415],[3.99198721,50.91316347],[3.99192595,50.91314318],[3.99202671,50.91302413]]]}},{"type":"Feature","id":"gebouw/Gebouw.31144633/0","properties":{"source":"Digitaal Vlaanderen Gebouwenregister","source_id":"gebouw/Gebouw.31144633/0","kind":"building","height_m":6.44,"status":null},"geometry":{"type":"Polygon","coordinates":[[[3.99139991,50.91210133],[3.99141931,50.91208261],[3.99145097,50.91209567],[3.99146924,50.91207514],[3.99143913,50.91206349],[3.9914429,50.91205986],[3.99135117,50.91202185],[3.99130818,50.91206331],[3.99139991,50.91210133]]]}},{"type":"Feature","id":"gebouw/Gebouw.31144635/0","properties":{"source":"Digitaal Vlaanderen Gebouwenregister","source_id":"gebouw/Gebouw.31144635/0","kind":"building","height_m":7.88,"status":null},"geometry":{"type":"Polygon","coordinates":[[[3.99202826,50.91321522],[3.99201982,50.91322519],[3.99201155,50.91323494],[3.99195167,50.91330562],[3.99198882,50.91331808],[3.99206482,50.91322748],[3.99202826,50.91321522]]]}},{"type":"Feature","id":"gebouw/Gebouw.31525010/0","properties":{"source":"Digitaal Vlaanderen Gebouwenregister","source_id":"gebouw/Gebouw.31525010/0","kind":"building","height_m":9.32,"status":null},"geometry":{"type":"Polygon","coordinates":[[[3.99390066,50.91354761],[3.9938979,50.91354648],[3.99388255,50.91356145],[3.9938867,50.91356315],[3.99392147,50.91357739],[3.99393681,50.91356242],[3.99390066,50.91354761]]]}},{"type":"Feature","id":"gebouw/Gebouw.31601808/0","properties":{"source":"Digitaal Vlaanderen Gebouwenregister","source_id":"gebouw/Gebouw.31601808/0","kind":"building","height_m":5.0,"status":null},"geometry":{"type":"Polygon","coordinates":[[[3.98793054,50.91365592],[3.98784155,50.91361825],[3.98782295,50.91363581],[3.98779797,50.91362523],[3.98781488,50.91361006],[3.98777804,50.91359666],[3.9876886,50.91367857],[3.98769229,50.91367993],[3.9877307,50.9136432],[3.98779064,50.9136682],[3.98775448,50.91370281],[3.9877526,50.91370202],[3.98775023,50.91370435],[3.9877491,50.91370546],[3.98784,50.91374319],[3.98793054,50.91365592]]]}},{"type":"Feature","id":"gebouw/Gebouw.31805051/0","properties":{"source":"Digitaal Vlaanderen Gebouwenregister","source_id":"gebouw/Gebouw.31805051/0","kind":"building","height_m":8.6,"status":null},"geometry":{"type":"Polygon","coordinates":[[[3.99451716,50.91346391],[3.99447386,50.91344726],[3.9944283,50.91349463],[3.99447157,50.91351126],[3.99451716,50.91346391]]]}},{"type":"Feature","id":"gebouw/Gebouw.31805232/0","properties":{"source":"Digitaal Vlaanderen Gebouwenregister","source_id":"gebouw/Gebouw.31805232/0","kind":"building","height_m":7.88,"status":null},"geometry":{"type":"Polygon","coordinates":[[[3.99382019,50.9143057],[3.99384704,50.91427138],[3.99381023,50.91425987],[3.99378338,50.91429419],[3.99382019,50.9143057]]]}},{"type":"Feature","id":"gebouw/Gebouw.31805481/0","properties":{"source":"Digitaal Vlaanderen Gebouwenregister","source_id":"gebouw/Gebouw.31805481/0","kind":"building","height_m":5.72,"status":null},"geometry":{"type":"Polygon","coordinates":[[[3.99151948,50.91226121],[3.99155933,50.91227679],[3.99161333,50.91222161],[3.99157349,50.91220603],[3.99151948,50.91226121]]]}},{"type":"Feature","id":"gebouw/Gebouw.31805744/0","properties":{"source":"Digitaal Vlaanderen Gebouwenregister","source_id":"gebouw/Gebouw.31805744/0","kind":"building","height_m":8.6,"status":null},"geometry":{"type":"Polygon","coordinates":[[[3.99104824,50.91171746],[3.99097445,50.91181764],[3.99102593,50.9118328],[3.99109973,50.91173262],[3.99104824,50.91171746]]]}},{"type":"Feature","id":"gebouw/Gebouw.31805767/0","properties":{"source":"Digitaal Vlaanderen Gebouwenregister","source_id":"gebouw/Gebouw.31805767/0","kind":"building","height_m":5.0,"status":null},"geometry":{"type":"Polygon","coordinates":[[[3.98710156,50.91426204],[3.98701524,50.91424659],[3.98700424,50.91427114],[3.98709056,50.91428659],[3.98710156,50.91426204]]]}},{"type":"Feature","id":"gebouw/Gebouw.31805866/0","properties":{"source":"Digitaal Vlaanderen Gebouwenregister","source_id":"gebouw/Gebouw.31805866/0","kind":"building","height_m":5.72,"status":null},"geometry":{"type":"Polygon","coordinates":[[[3.99201982,50.91322519],[3.99196875,50.91320803],[3.99190102,50.91328861],[3.99195167,50.91330562],[3.99201155,50.91323494],[3.99201982,50.91322519]]]}},{"type":"Feature","id":"gebouw/Gebouw.31806419/0","properties":{"source":"Digitaal Vlaanderen Gebouwenregister","source_id":"gebouw/Gebouw.31806419/0","kind":"building","height_m":5.72,"status":null},"geometry":{"type":"Polygon","coordinates":[[[3.98887851,50.91463903],[3.98889566,50.91461242],[3.98882719,50.91459479],[3.98881004,50.9146214],[3.98887851,50.91463903]]]}},{"type":"Feature","id":"gebouw/Gebouw.31806496/0","properties":{"source":"Digitaal Vlaanderen Gebouwenregister","source_id":"gebouw/Gebouw.31806496/0","kind":"building","height_m":5.72,"status":null},"geometry":{"type":"Polygon","coordinates":[[[3.99135324,50.91377927],[3.99140484,50.91379474],[3.99144142,50.91374598],[3.99138982,50.91373051],[3.99135324,50.91377927]]]}},{"type":"Feature","id":"gebouw/Gebouw.31806767/0","properties":{"source":"Digitaal Vlaanderen Gebouwenregister","source_id":"gebouw/Gebouw.31806767/0","kind":"building","height_m":9.32,"status":null},"geometry":{"type":"Polygon","coordinates":[[[3.99009612,50.9119282],[3.99012308,50.91193471],[3.99016815,50.91186013],[3.99014119,50.91185362],[3.99009612,50.9119282]]]}},{"type":"Feature","id":"gebouw/Gebouw.32046830/0","properties":{"source":"Digitaal Vlaanderen Gebouwenregister","source_id":"gebouw/Gebouw.32046830/0","kind":"building","height_m":7.88,"status":null},"geometry":{"type":"Polygon","coordinates":[[[3.9911075,50.91222999],[3.99101045,50.91219197],[3.99088326,50.91232172],[3.99098012,50.9123597],[3.9911075,50.91222999]]]}},{"type":"Feature","id":"way/677024036","properties":{"source":"OpenStreetMap","source_id":"way/677024036","kind":"waterway","name":"Zuidbeek","waterway":"stream","landuse":null},"geometry":{"type":"LineString","coordinates":[[3.9891261,50.9142114],[3.9891864,50.9142402]]}},{"type":"Feature","id":"way/677024037","properties":{"source":"OpenStreetMap","source_id":"way/677024037","kind":"waterway","name":"Zuidbeek","waterway":"stream","landuse":null},"geometry":{"type":"LineString","coordinates":[[3.9889222,50.9141133],[3.9891261,50.9142114]]}},{"type":"Feature","id":"way/677024039","properties":{"source":"OpenStreetMap","source_id":"way/677024039","kind":"waterway","name":"Zuidbeek","waterway":"stream","landuse":null},"geometry":{"type":"LineString","coordinates":[[3.990663,50.9149606],[3.99073,50.9149732]]}},{"type":"Feature","id":"way/677024073","properties":{"source":"OpenStreetMap","source_id":"way/677024073","kind":"waterway","name":"Zuidbeek","waterway":"stream","landuse":null},"geometry":{"type":"LineString","coordinates":[[3.9891864,50.9142402],[3.9892387,50.9142503],[3.9893688,50.9143137],[3.9896813,50.9144803],[3.989747,50.9145167],[3.9901118,50.9146469],[3.9902057,50.9146798],[3.9901239,50.9148134],[3.9904042,50.9148836],[3.9904551,50.914898],[3.990663,50.9149606]]}}]}