{"type":"FeatureCollection","features":[{"type":"Feature","id":"gebouw/Gebouw.16736726/0","properties":{"source":"Digitaal Vlaanderen Gebouwenregister","source_id":"gebouw/Gebouw.16736726/0","kind":"building","height_m":9.32,"status":null},"geometry":{"type":"Polygon","coordinates":[[[3.99495159,50.91458675],[3.99480108,50.91453692],[3.99488431,50.91443646],[3.9949177,50.91444751],[3.99496788,50.91438695],[3.99507972,50.91442398],[3.99507562,50.91442871],[3.99512148,50.91444395],[3.99517349,50.91446122],[3.99518041,50.91445303],[3.99518602,50.91445452],[3.99518478,50.91445594],[3.99524527,50.91447595],[3.99524693,50.91447432],[3.99525173,50.91447593],[3.99517834,50.91456345],[3.99505479,50.91452254],[3.99505709,50.91451982],[3.99501782,50.91450682],[3.99495159,50.91458675]]]}},{"type":"Feature","id":"gebouw/Gebouw.16737004/0","properties":{"source":"Digitaal Vlaanderen Gebouwenregister","source_id":"gebouw/Gebouw.16737004/0","kind":"building","height_m":7.88,"status":null},"geometry":{"type":"Polygon","coordinates":[[[3.99536919,50.91475475],[3.99544467,50.91478232],[3.99538755,50.91484479],[3.99531208,50.91481721],[3.99536919,50.91475475]]]}},{"type":"Feature","id":"gebouw/Gebouw.16745977/0","properties":{"source":"Digitaal Vlaanderen Gebouwenregister","source_id":"gebouw/Gebouw.16745977/0","kind":"building","height_m":7.16,"status":null},"geometry":{"type":"Polygon","coordinates":[[[4.00304206,50.91413083],[4.00297216,50.91429636],[4.00290193,50.91428639],[4.00296695,50.91411255],[4.00297235,50.9140981],[4.00302287,50.91410533],[4.00301829,50.91412002],[4.00304519,50.91412341],[4.00304206,50.91413083]]]}},{"type":"Feature","id":"gebouw/Gebouw.16746613/0","properties":{"source":"Digitaal Vlaanderen Gebouwenregister","source_id":"gebouw/Gebouw.16746613/0","kind":"building","height_m":6.44,"status":null},"geometry":{"type":"Polygon","coordinates":[[[3.99610521,50.9148921],[3.99603179,50.9149701],[3.99593749,50.91493205],[3.99601407,50.91485561],[3.99610521,50.9148921]]]}},{"type":"Feature","id":"gebouw/Gebouw.16751872/0","properties":{"source":"Digitaal Vlaanderen Gebouwenregister","source_id":"gebouw/Gebouw.16751872/0","kind":"building","height_m":7.88,"status":null},"geometry":{"type":"Polygon","coordinates":[[[3.99603586,50.9150266],[3.99604936,50.91503245],[3.99596576,50.91511828],[3.99592337,50.91516181],[3.99587135,50.91514052],[3.99591085,50.91509857],[3.99603179,50.9149701],[3.99610521,50.9148921],[3.99614137,50.91490667],[3.99617855,50.91492166],[3.99618723,50.91492516],[3.99610989,50.91500183],[3.99607643,50.91498838],[3.99603586,50.9150266]]]}},{"type":"Feature","id":"gebouw/Gebouw.16752126/0","properties":{"source":"Digitaal Vlaanderen Gebouwenregister","source_id":"gebouw/Gebouw.16752126/0","kind":"building","height_m":9.32,"status":null},"geometry":{"type":"Polygon","coordinates":[[[4.00218698,50.91473294],[4.002184,50.91478743],[4.00211091,50.91478609],[4.00211116,50.91478091],[4.00206558,50.91478009],[4.00206546,50.91478172],[4.00204433,50.91478081],[4.00204482,50.91475674],[4.00205168,50.9147567],[4.00205213,50.91474599],[4.00204312,50.91474595],[4.00204303,50.9147347],[4.00218698,50.91473294]]]}},{"type":"Feature","id":"gebouw/Gebouw.16754283/0","properties":{"source":"Digitaal Vlaanderen Gebouwenregister","source_id":"gebouw/Gebouw.16754283/0","kind":"building","height_m":5.0,"status":null},"geometry":{"type":"Polygon","coordinates":[[[4.00282096,50.91222208],[4.00287679,50.91221958],[4.00288018,50.91224988],[4.00282435,50.91225238],[4.00282096,50.91222208]]]}},{"type":"Feature","id":"gebouw/Gebouw.16754352/0","properties":{"source":"Digitaal Vlaanderen Gebouwenregister","source_id":"gebouw/Gebouw.16754352/0","kind":"building","height_m":9.32,"status":null},"geometry":{"type":"Polygon","coordinates":[[[4.00306405,50.9148169],[4.00289136,50.91485525],[4.00289543,50.91485145],[4.00286179,50.91478842],[4.00294572,50.91476978],[4.00302771,50.91475157],[4.00306405,50.9148169]]]}},{"type":"Feature","id":"gebouw/Gebouw.16760634/0","properties":{"source":"Digitaal Vlaanderen Gebouwenregister","source_id":"gebouw/Gebouw.16760634/0","kind":"building","height_m":6.44,"status":null},"geometry":{"type":"Polygon","coordinates":[[[4.00159207,50.91273919],[4.00160604,50.91269737],[4.00169429,50.91270916],[4.00168032,50.91275097],[4.00159207,50.91273919]]]}},{"type":"Feature","id":"gebouw/Gebouw.16762428/0","properties":{"source":"Digitaal Vlaanderen Gebouwenregister","source_id":"gebouw/Gebouw.16762428/0","kind":"building","height_m":7.88,"status":null},"geometry":{"type":"Polygon","coordinates":[[[3.99807974,50.9149888],[3.99808342,50.91499024],[3.9980541,50.91502382],[3.99795812,50.91498793],[3.99798763,50.91495399],[3.997998,50.91495795],[3.99800679,50.91494803],[3.99805591,50.91496584],[3.99806031,50.91496047],[3.99809294,50.91497282],[3.99807974,50.9149888]]]}},{"type":"Feature","id":"gebouw/Gebouw.16773012/0","properties":{"source":"Digitaal Vlaanderen Gebouwenregister","source_id":"gebouw/Gebouw.16773012/0","kind":"building","height_m":7.88,"status":null},"geometry":{"type":"Polygon","coordinates":[[[3.99634946,50.91438372],[3.99633855,50.91439161],[3.99615418,50.91429175],[3.99616418,50.91428519],[3.99603229,50.91421473],[3.99614541,50.91413156],[3.99627804,50.91420199],[3.99628615,50.91419627],[3.99647079,50.91429596],[3.99645853,50.91430482],[3.99634946,50.91438372]]]}},{"type":"Feature","id":"gebouw/Gebouw.16773152/0","properties":{"source":"Digitaal Vlaanderen Gebouwenregister","source_id":"gebouw/Gebouw.16773152/0","kind":"building","height_m":7.88,"status":null},"geometry":{"type":"Polygon","coordinates":[[[4.00366776,50.91479035],[4.00368503,50.91471371],[4.00377603,50.91472191],[4.00375875,50.91479855],[4.00366776,50.91479035]]]}},{"type":"Feature","id":"gebouw/Gebouw.16774720/0","properties":{"source":"Digitaal Vlaanderen Gebouwenregister","source_id":"gebouw/Gebouw.16774720/0","kind":"building","height_m":7.88,"status":null},"geometry":{"type":"Polygon","coordinates":[[[3.99753951,50.91478599],[3.99746357,50.91487142],[3.9972759,50.91480037],[3.99735983,50.91471142],[3.99745031,50.91474458],[3.99754593,50.91463926],[3.9976049,50.91466067],[3.99750057,50.91477125],[3.99753951,50.91478599]]]}},{"type":"Feature","id":"gebouw/Gebouw.16774780/0","properties":{"source":"Digitaal Vlaanderen Gebouwenregister","source_id":"gebouw/Gebouw.16774780/0","kind":"building","height_m":5.72,"status":null},"geometry":{"type":"Polygon","coordinates":[[[4.00266188,50.9149482],[4.00260798,50.91496018],[4.00258391,50.91492353],[4.00263793,50.91491154],[4.00266188,50.9149482]]]}},{"type":"Feature","id":"gebouw/Gebouw.16775395/0","properties":{"source":"Digitaal Vlaanderen Gebouwenregister","source_id":"gebouw/Gebouw.16775395/0","kind":"building","height_m":5.0,"status":null},"geometry":{"type":"Polygon","coordinates":[[[4.00324116,50.91291297],[4.00323991,50.91295461],[4.00318285,50.91295393],[4.0031841,50.91291228],[4.00324116,50.91291297]]]}},{"type":"Feature","id":"gebouw/Gebouw.16775511/0","properties":{"source":"Digitaal Vlaanderen Gebouwenregister","source_id":"gebouw/Gebouw.16775511/0","kind":"building","height_m":7.88,"status":null},"geometry":{"type":"Polygon","coordinates":[[[4.00312884,50.9143836],[4.00314179,50.91433838],[4.00317844,50.91434143],[4.00316517,50.91438776],[4.00312884,50.9143836]]]}},{"type":"Feature","id":"gebouw/Gebouw.16781916/0","properties":{"source":"Digitaal Vlaanderen Gebouwenregister","source_id":"gebouw/Gebouw.16781916/0","kind":"building","height_m":7.88,"status":null},"geometry":{"type":"Polygon","coordinates":[[[3.99477797,50.91420355],[3.99487833,50.91423612],[3.99481602,50.91431285],[3.99471932,50.91428137],[3.99477797,50.91420355]]]}},{"type":"Feature","id":"gebouw/Gebouw.16782012/0","properties":{"source":"Digitaal Vlaanderen Gebouwenregister","source_id":"gebouw/Gebouw.16782012/0","kind":"building","height_m":6.44,"status":null},"geometry":{"type":"Polygon","coordinates":[[[4.00297235,50.9140981],[4.00296695,50.91411255],[4.00290193,50.91428639],[4.00290049,50.91428596],[4.00290105,50.91428442],[4.00289908,50.91427984],[4.00291434,50.9142421],[4.00288231,50.91423686],[4.00287715,50.91423815],[4.00287441,50.914232],[4.00287824,50.91422791],[4.00287102,50.91422639],[4.00282717,50.91414319],[4.00283946,50.91414049],[4.00290185,50.91412682],[4.00288461,50.91409238],[4.00288267,50.9140885],[4.00297641,50.91407188],[4.00297235,50.9140981]]]}},{"type":"Feature","id":"gebouw/Gebouw.16782209/0","properties":{"source":"Digitaal Vlaanderen Gebouwenregister","source_id":"gebouw/Gebouw.16782209/0","kind":"building","height_m":7.16,"status":null},"geometry":{"type":"Polygon","coordinates":[[[3.99636107,50.91501962],[3.99623997,50.91514068],[3.99614418,50.91510326],[3.99621821,50.91502791],[3.99622072,50.91502872],[3.99622835,50.91503118],[3.99627404,50.91498551],[3.99635277,50.91501637],[3.99636107,50.91501962]]]}},{"type":"Feature","id":"gebouw/Gebouw.16782255/0","properties":{"source":"Digitaal Vlaanderen Gebouwenregister","source_id":"gebouw/Gebouw.16782255/0","kind":"building","height_m":5.0,"status":null},"geometry":{"type":"Polygon","coordinates":[[[3.99778458,50.91483103],[3.99776397,50.91485192],[3.99772949,50.91488687],[3.99766384,50.91486097],[3.99769886,50.91482647],[3.99771906,50.91480657],[3.99778458,50.91483103]]]}},{"type":"Feature","id":"gebouw/Gebouw.16782259/0","properties":{"source":"Digitaal Vlaanderen Gebouwenregister","source_id":"gebouw/Gebouw.16782259/0","kind":"building","height_m":7.88,"status":null},"geometry":{"type":"Polygon","coordinates":[[[4.00287327,50.91458154],[4.0029085,50.91464473],[4.00278228,50.91467285],[4.00278596,50.91467966],[4.0027578,50.9146855],[4.00275444,50.9146787],[4.00274681,50.91468029],[4.00275226,50.91469151],[4.00273377,50.91469509],[4.00274872,50.91472065],[4.00263343,50.91474719],[4.0026105,50.91470545],[4.00265674,50.91469664],[4.0026477,50.91467951],[4.00268682,50.91467264],[4.00266458,50.91462819],[4.00271126,50.91461529],[4.00273839,50.91460964],[4.00287327,50.91458154]]]}},{"type":"Feature","id":"gebouw/Gebouw.16785762/0","properties":{"source":"Digitaal Vlaanderen Gebouwenregister","source_id":"gebouw/Gebouw.16785762/0","kind":"building","height_m":5.0,"status":null},"geometry":{"type":"Polygon","coordinates":[[[3.99582319,50.91502478],[3.99586243,50.91498396],[3.99590699,50.91500107],[3.99586775,50.9150419],[3.99582319,50.91502478]]]}},{"type":"Feature","id":"gebouw/Gebouw.16785963/0","properties":{"source":"Digitaal Vlaanderen Gebouwenregister","source_id":"gebouw/Gebouw.16785963/0","kind":"building","height_m":8.6,"status":null},"geometry":{"type":"Polygon","coordinates":[[[4.00343524,50.91463384],[4.00341774,50.91471874],[4.00341449,50.91473452],[4.00340173,50.91479641],[4.0032665,50.91478527],[4.00327121,50.91476162],[4.00323425,50.91475866],[4.00323809,50.91473944],[4.00321749,50.91473722],[4.0032221,50.91471656],[4.00322547,50.91470144],[4.00324298,50.91462295],[4.00330071,50.91462809],[4.0033019,50.91462275],[4.00343524,50.91463384]]]}},{"type":"Feature","id":"gebouw/Gebouw.16797017/0","properties":{"source":"Digitaal Vlaanderen Gebouwenregister","source_id":"gebouw/Gebouw.16797017/0","kind":"building","height_m":9.32,"status":null},"geometry":{"type":"Polygon","coordinates":[[[4.00285315,50.91479034],[4.00286179,50.91478842],[4.00294572,50.91476978],[4.00293467,50.91474945],[4.00292807,50.91475089],[4.00292167,50.91473911],[4.00300981,50.91471995],[4.00300894,50.91471836],[4.00299183,50.91468689],[4.00299097,50.91468531],[4.00274221,50.91474056],[4.00276099,50.91477334],[4.00271369,50.91478361],[4.00273281,50.91481706],[4.00285315,50.91479034]]]}},{"type":"Feature","id":"gebouw/Gebouw.16801063/0","properties":{"source":"Digitaal Vlaanderen Gebouwenregister","source_id":"gebouw/Gebouw.16801063/0","kind":"building","height_m":9.32,"status":null},"geometry":{"type":"Polygon","coordinates":[[[3.99775955,50.91495721],[3.99781412,50.91497662],[3.99779334,50.91499997],[3.99773879,50.91498057],[3.99771898,50.91497352],[3.99773976,50.91495017],[3.99775955,50.91495721]]]}},{"type":"Feature","id":"gebouw/Gebouw.16801135/0","properties":{"source":"Digitaal Vlaanderen Gebouwenregister","source_id":"gebouw/Gebouw.16801135/0","kind":"building","height_m":5.72,"status":null},"geometry":{"type":"Polygon","coordinates":[[[3.99512757,50.91395552],[3.99508468,50.91393658],[3.99494771,50.91387605],[3.99501322,50.9138168],[3.99500015,50.91381027],[3.99506738,50.91374838],[3.99512153,50.91377186],[3.99516084,50.91373475],[3.99526302,50.91377846],[3.99522103,50.91381521],[3.99524424,50.91382481],[3.99525535,50.91381486],[3.99528497,50.91382704],[3.99528903,50.91382384],[3.99535199,50.91385092],[3.9953333,50.91386676],[3.99530181,50.91385373],[3.99527688,50.91387616],[3.99524941,50.91386365],[3.99520794,50.9139016],[3.99519387,50.91389552],[3.99512757,50.91395552]]]}},{"type":"Feature","id":"gebouw/Gebouw.16801342/0","properties":{"source":"Digitaal Vlaanderen Gebouwenregister","source_id":"gebouw/Gebouw.16801342/0","kind":"building","height_m":8.6,"status":null},"geometry":{"type":"Polygon","coordinates":[[[4.00312536,50.91412293],[4.00312528,50.91412314],[4.00312202,50.91413185],[4.00311116,50.91416089],[4.00305608,50.91430816],[4.00297216,50.91429636],[4.00304206,50.91413083],[4.00308044,50.91413608],[4.00308705,50.91411748],[4.00312536,50.91412293]]]}},{"type":"Feature","id":"gebouw/Gebouw.16801721/0","properties":{"source":"Digitaal Vlaanderen Gebouwenregister","source_id":"gebouw/Gebouw.16801721/0","kind":"building","height_m":9.32,"status":null},"geometry":{"type":"Polygon","coordinates":[[[4.00293898,50.91505869],[4.00288597,50.91507316],[4.00285833,50.9150327],[4.00291068,50.91501841],[4.00293898,50.91505869]]]}},{"type":"Feature","id":"gebouw/Gebouw.16811868/0","properties":{"source":"Digitaal Vlaanderen Gebouwenregister","source_id":"gebouw/Gebouw.16811868/0","kind":"building","height_m":7.16,"status":null},"geometry":{"type":"Polygon","coordinates":[[[4.00287327,50.91458154],[4.00273839,50.91460964],[4.00271874,50.91457359],[4.00269862,50.91453668],[4.00269735,50.91453435],[4.00283073,50.91450481],[4.00287327,50.91458154]]]}},{"type":"Feature","id":"gebouw/Gebouw.16811908/0","properties":{"source":"Digitaal Vlaanderen Gebouwenregister","source_id":"gebouw/Gebouw.16811908/0","kind":"building","height_m":5.72,"status":null},"geometry":{"type":"Polygon","coordinates":[[[4.00380432,50.91490282],[4.00380753,50.91489045],[4.0038492,50.91489478],[4.00384604,50.91490694],[4.00383374,50.91495431],[4.00378045,50.91494878],[4.0037927,50.91490161],[4.00380432,50.91490282]]]}},{"type":"Feature","id":"gebouw/Gebouw.16812206/0","properties":{"source":"Digitaal Vlaanderen Gebouwenregister","source_id":"gebouw/Gebouw.16812206/0","kind":"building","height_m":8.6,"status":null},"geometry":{"type":"Polygon","coordinates":[[[4.00202672,50.91475002],[4.00202066,50.91480712],[4.00199042,50.91480577],[4.00199706,50.91474924],[4.00202672,50.91475002]]]}},{"type":"Feature","id":"gebouw/Gebouw.16820893/0","properties":{"source":"Digitaal Vlaanderen Gebouwenregister","source_id":"gebouw/Gebouw.16820893/0","kind":"building","height_m":8.6,"status":null},"geometry":{"type":"Polygon","coordinates":[[[4.00261049,50.9143923],[4.00253864,50.91438172],[4.00252734,50.91441699],[4.0025158,50.91445298],[4.00265634,50.91447369],[4.00266804,50.91444196],[4.00259609,50.91443136],[4.00259729,50.9144281],[4.00261049,50.9143923]]]}},{"type":"Feature","id":"gebouw/Gebouw.16820931/0","properties":{"source":"Digitaal Vlaanderen Gebouwenregister","source_id":"gebouw/Gebouw.16820931/0","kind":"building","height_m":5.72,"status":null},"geometry":{"type":"Polygon","coordinates":[[[4.00373531,50.91469859],[4.00369173,50.91469475],[4.00369896,50.91466196],[4.00374254,50.9146658],[4.00373531,50.91469859]]]}},{"type":"Feature","id":"gebouw/Gebouw.16821335/0","properties":{"source":"Digitaal Vlaanderen Gebouwenregister","source_id":"gebouw/Gebouw.16821335/0","kind":"building","height_m":9.32,"status":null},"geometry":{"type":"Polygon","coordinates":[[[3.99570299,50.91503825],[3.99574184,50.91499516],[3.9957883,50.9150119],[3.99575056,50.91505539],[3.99570299,50.91503825]]]}},{"type":"Feature","id":"gebouw/Gebouw.16847721/0","properties":{"source":"Digitaal Vlaanderen Gebouwenregister","source_id":"gebouw/Gebouw.16847721/0","kind":"building","height_m":6.44,"status":null},"geometry":{"type":"Polygon","coordinates":[[[4.00348595,50.91505751],[4.00349977,50.91499785],[4.00366138,50.91501282],[4.00364202,50.91509635],[4.00349472,50.9150827],[4.00350026,50.91505884],[4.00348595,50.91505751]]]}},{"type":"Feature","id":"gebouw/Gebouw.17058482/0","properties":{"source":"Digitaal Vlaanderen Gebouwenregister","source_id":"gebouw/Gebouw.17058482/0","kind":"building","height_m":5.0,"status":null},"geometry":{"type":"Polygon","coordinates":[[[3.99588343,50.91487958],[3.99583077,50.9148603],[3.99580595,50.91488738],[3.99573752,50.91486231],[3.99583264,50.91475917],[3.99590275,50.91478501],[3.99591708,50.91476959],[3.99596736,50.91478801],[3.99588343,50.91487958]]]}},{"type":"Feature","id":"gebouw/Gebouw.17058488/0","properties":{"source":"Digitaal Vlaanderen Gebouwenregister","source_id":"gebouw/Gebouw.17058488/0","kind":"building","height_m":9.32,"status":null},"geometry":{"type":"Polygon","coordinates":[[[4.00308483,50.91485427],[4.00291195,50.91489267],[4.00289136,50.91485525],[4.00306405,50.9148169],[4.00308483,50.91485427]]]}},{"type":"Feature","id":"gebouw/Gebouw.17071977/0","properties":{"source":"Digitaal Vlaanderen Gebouwenregister","source_id":"gebouw/Gebouw.17071977/0","kind":"building","height_m":9.32,"status":null},"geometry":{"type":"Polygon","coordinates":[[[3.99548326,50.9146375],[3.99544749,50.91467635],[3.99528017,50.91461478],[3.99532608,50.91456492],[3.99544706,50.91460944],[3.99543692,50.91462045],[3.99548326,50.9146375]]]}},{"type":"Feature","id":"gebouw/Gebouw.17120736/0","properties":{"source":"Digitaal Vlaanderen Gebouwenregister","source_id":"gebouw/Gebouw.17120736/0","kind":"building","height_m":7.16,"status":null},"geometry":{"type":"Polygon","coordinates":[[[4.00308941,50.91437962],[4.00310329,50.91433422],[4.00314075,50.91433879],[4.00312687,50.9143842],[4.00308941,50.91437962]]]}},{"type":"Feature","id":"gebouw/Gebouw.17120897/0","properties":{"source":"Digitaal Vlaanderen Gebouwenregister","source_id":"gebouw/Gebouw.17120897/0","kind":"building","height_m":7.16,"status":null},"geometry":{"type":"Polygon","coordinates":[[[4.00359475,50.91482947],[4.00349618,50.9148204],[4.00350569,50.91477912],[4.00360426,50.91478819],[4.00359475,50.91482947]]]}},{"type":"Feature","id":"gebouw/Gebouw.18729037/0","properties":{"source":"Digitaal Vlaanderen Gebouwenregister","source_id":"gebouw/Gebouw.18729037/0","kind":"building","height_m":8.6,"status":null},"geometry":{"type":"Polygon","coordinates":[[[3.99470132,50.91442901],[3.99475968,50.9144467],[3.99480195,50.914391],[3.99474359,50.91437331],[3.99470132,50.91442901]]]}},{"type":"Feature","id":"gebouw/Gebouw.18729159/0","properties":{"source":"Digitaal Vlaanderen Gebouwenregister","source_id":"gebouw/Gebouw.18729159/0","kind":"building","height_m":5.72,"status":null},"geometry":{"type":"Polygon","coordinates":[[[3.99908674,50.91502718],[3.99907208,50.91502145],[3.99909015,50.91500298],[3.99910481,50.91500871],[3.99912279,50.91499034],[3.99915237,50.91500135],[3.99911793,50.91503905],[3.99908674,50.91502718]]]}},{"type":"Feature","id":"gebouw/Gebouw.18729376/0","properties":{"source":"Digitaal Vlaanderen Gebouwenregister","source_id":"gebouw/Gebouw.18729376/0","kind":"building","height_m":5.72,"status":null},"geometry":{"type":"Polygon","coordinates":[[[3.99866528,50.91450891],[3.99862108,50.9145624],[3.99857487,50.91454508],[3.99861991,50.9144924],[3.99866528,50.91450891]]]}},{"type":"Feature","id":"gebouw/Gebouw.18729377/0","properties":{"source":"Digitaal Vlaanderen Gebouwenregister","source_id":"gebouw/Gebouw.18729377/0","kind":"building","height_m":6.44,"status":null},"geometry":{"type":"Polygon","coordinates":[[[4.00165961,50.91275868],[4.00163086,50.91284583],[4.00155673,50.91283774],[4.00158376,50.9127491],[4.00165961,50.91275868]]]}},{"type":"Feature","id":"gebouw/Gebouw.18729378/0","properties":{"source":"Digitaal Vlaanderen Gebouwenregister","source_id":"gebouw/Gebouw.18729378/0","kind":"building","height_m":7.16,"status":null},"geometry":{"type":"Polygon","coordinates":[[[4.00314745,50.91388123],[4.00313236,50.91391695],[4.00305867,50.91390486],[4.00307129,50.91387016],[4.00314745,50.91388123]]]}},{"type":"Feature","id":"gebouw/Gebouw.18729379/0","properties":{"source":"Digitaal Vlaanderen Gebouwenregister","source_id":"gebouw/Gebouw.18729379/0","kind":"building","height_m":7.88,"status":null},"geometry":{"type":"Polygon","coordinates":[[[4.00347493,50.91482079],[4.00341881,50.91481547],[4.00342336,50.91479314],[4.00344115,50.91479445],[4.00344536,50.91478389],[4.00348307,50.91478706],[4.00347493,50.91482079]]]}},{"type":"Feature","id":"gebouw/Gebouw.19879397/0","properties":{"source":"Digitaal Vlaanderen Gebouwenregister","source_id":"gebouw/Gebouw.19879397/0","kind":"building","height_m":9.32,"status":null},"geometry":{"type":"Polygon","coordinates":[[[3.99548326,50.9146375],[3.99536919,50.91475475],[3.99544467,50.91478232],[3.99538755,50.91484479],[3.99531208,50.91481721],[3.99534765,50.91477831],[3.99532182,50.91476882],[3.99535611,50.91472813],[3.99531799,50.91471399],[3.99535106,50.91467648],[3.9952572,50.91464203],[3.99532608,50.91456492],[3.99544706,50.91460944],[3.99543692,50.91462045],[3.99548326,50.9146375]]]}},{"type":"Feature","id":"gebouw/Gebouw.19880265/0","properties":{"source":"Digitaal Vlaanderen Gebouwenregister","source_id":"gebouw/Gebouw.19880265/0","kind":"building","height_m":9.32,"status":null},"geometry":{"type":"Polygon","coordinates":[[[3.997702,50.91482337],[3.99776757,50.91484827],[3.99776397,50.91485192],[3.99772949,50.91488687],[3.99766384,50.91486097],[3.99769887,50.91482647],[3.997702,50.91482337]]]}},{"type":"Feature","id":"gebouw/Gebouw.19880266/0","properties":{"source":"Digitaal Vlaanderen Gebouwenregister","source_id":"gebouw/Gebouw.19880266/0","kind":"building","height_m":5.0,"status":null},"geometry":{"type":"Polygon","coordinates":[[[3.997702,50.91482337],[3.99771906,50.91480657],[3.99778458,50.91483103],[3.99776757,50.91484827],[3.997702,50.91482337]]]}},{"type":"Feature","id":"gebouw/Gebouw.19880842/0","properties":{"source":"Digitaal Vlaanderen Gebouwenregister","source_id":"gebouw/Gebouw.19880842/0","kind":"building","height_m":6.44,"status":null},"geometry":{"type":"Polygon","coordinates":[[[3.99596947,50.91511448],[3.99591561,50.91509352],[3.99598431,50.91502053],[3.99603179,50.9149701],[3.99610521,50.9148921],[3.99614137,50.91490667],[3.99617855,50.91492166],[3.99618079,50.91492256],[3.99618723,50.91492516],[3.99610015,50.91501149],[3.99611054,50.91501568],[3.99608348,50.91504251],[3.99607777,50.91504021],[3.99606575,50.91505212],[3.99606452,50.91505334],[3.99604078,50.91504377],[3.99596947,50.91511448]]]}},{"type":"Feature","id":"gebouw/Gebouw.20145774/0","properties":{"source":"Digitaal Vlaanderen Gebouwenregister","source_id":"gebouw/Gebouw.20145774/0","kind":"building","height_m":8.6,"status":null},"geometry":{"type":"Polygon","coordinates":[[[4.00350909,50.91466786],[4.00350463,50.91468692],[4.00349638,50.91472223],[4.00345562,50.91471825],[4.0034689,50.91466394],[4.00350909,50.91466786]]]}},{"type":"Feature","id":"gebouw/Gebouw.20145786/0","properties":{"source":"Digitaal Vlaanderen Gebouwenregister","source_id":"gebouw/Gebouw.20145786/0","kind":"building","height_m":7.16,"status":null},"geometry":{"type":"Polygon","coordinates":[[[4.00394311,50.9147526],[4.00390164,50.91474869],[4.00391252,50.9147025],[4.00395398,50.9147064],[4.00394311,50.9147526]]]}},{"type":"Feature","id":"gebouw/Gebouw.20146126/0","properties":{"source":"Digitaal Vlaanderen Gebouwenregister","source_id":"gebouw/Gebouw.20146126/0","kind":"building","height_m":5.0,"status":null},"geometry":{"type":"Polygon","coordinates":[[[4.00304765,50.91389678],[4.00297056,50.91388714],[4.00296703,50.91389842],[4.00290645,50.91389084],[4.00291977,50.91384832],[4.00304031,50.91386384],[4.0030577,50.91386608],[4.00305005,50.91388945],[4.00304765,50.91389678]]]}},{"type":"Feature","id":"gebouw/Gebouw.20146127/0","properties":{"source":"Digitaal Vlaanderen Gebouwenregister","source_id":"gebouw/Gebouw.20146127/0","kind":"building","height_m":5.72,"status":null},"geometry":{"type":"Polygon","coordinates":[[[4.0044966,50.91359339],[4.0045161,50.9135424],[4.00456703,50.91355018],[4.00454753,50.91360117],[4.0044966,50.91359339]]]}},{"type":"Feature","id":"gebouw/Gebouw.20146128/0","properties":{"source":"Digitaal Vlaanderen Gebouwenregister","source_id":"gebouw/Gebouw.20146128/0","kind":"building","height_m":6.44,"status":null},"geometry":{"type":"Polygon","coordinates":[[[4.00169049,50.91271115],[4.00167738,50.91275109],[4.00159301,50.91274003],[4.00160611,50.91270009],[4.00169049,50.91271115]]]}},{"type":"Feature","id":"gebouw/Gebouw.20146133/0","properties":{"source":"Digitaal Vlaanderen Gebouwenregister","source_id":"gebouw/Gebouw.20146133/0","kind":"building","height_m":5.0,"status":null},"geometry":{"type":"Polygon","coordinates":[[[3.99475967,50.91466936],[3.99469872,50.91465023],[3.99474896,50.91458629],[3.9948099,50.91460542],[3.99475967,50.91466936]]]}},{"type":"Feature","id":"gebouw/Gebouw.20146134/0","properties":{"source":"Digitaal Vlaanderen Gebouwenregister","source_id":"gebouw/Gebouw.20146134/0","kind":"building","height_m":5.72,"status":null},"geometry":{"type":"Polygon","coordinates":[[[3.99509579,50.91500781],[3.99507467,50.91503302],[3.9949908,50.91500494],[3.99499336,50.91500189],[3.99498377,50.91499868],[3.99500234,50.91497652],[3.99509579,50.91500781]]]}},{"type":"Feature","id":"gebouw/Gebouw.20146135/0","properties":{"source":"Digitaal Vlaanderen Gebouwenregister","source_id":"gebouw/Gebouw.20146135/0","kind":"building","height_m":6.44,"status":null},"geometry":{"type":"Polygon","coordinates":[[[3.99569103,50.9139058],[3.99565689,50.91393557],[3.99560632,50.91391238],[3.99564046,50.91388262],[3.99569103,50.9139058]]]}},{"type":"Feature","id":"gebouw/Gebouw.20146912/0","properties":{"source":"Digitaal Vlaanderen Gebouwenregister","source_id":"gebouw/Gebouw.20146912/0","kind":"building","height_m":6.44,"status":null},"geometry":{"type":"Polygon","coordinates":[[[3.99576137,50.91505303],[3.99571519,50.91503627],[3.9957406,50.91500829],[3.99573106,50.91500483],[3.99577848,50.91495261],[3.99583421,50.91497283],[3.99576137,50.91505303]]]}},{"type":"Feature","id":"gebouw/Gebouw.30642719/0","properties":{"source":"Digitaal Vlaanderen Gebouwenregister","source_id":"gebouw/Gebouw.30642719/0","kind":"building","height_m":6.44,"status":null},"geometry":{"type":"Polygon","coordinates":[[[4.00318516,50.91285905],[4.00322037,50.91285828],[4.00322296,50.91290549],[4.00318776,50.91290626],[4.00318516,50.91285905]]]}},{"type":"Feature","id":"gebouw/Gebouw.30642722/0","properties":{"source":"Digitaal Vlaanderen Gebouwenregister","source_id":"gebouw/Gebouw.30642722/0","kind":"building","height_m":8.6,"status":null},"geometry":{"type":"Polygon","coordinates":[[[4.00222169,50.91500398],[4.00217547,50.91501424],[4.00216084,50.91498861],[4.00220692,50.91497809],[4.00222169,50.91500398]]]}},{"type":"Feature","id":"gebouw/Gebouw.30642723/0","properties":{"source":"Digitaal Vlaanderen Gebouwenregister","source_id":"gebouw/Gebouw.30642723/0","kind":"building","height_m":9.32,"status":null},"geometry":{"type":"Polygon","coordinates":[[[4.00462495,50.91487471],[4.00452932,50.91486883],[4.00454318,50.91477862],[4.00463881,50.91478449],[4.00462495,50.91487471]]]}},{"type":"Feature","id":"gebouw/Gebouw.31144644/0","properties":{"source":"Digitaal Vlaanderen Gebouwenregister","source_id":"gebouw/Gebouw.31144644/0","kind":"building","height_m":9.32,"status":null},"geometry":{"type":"Polygon","coordinates":[[[4.0032122,50.91389072],[4.00319145,50.9139462],[4.00312523,50.91393657],[4.00313236,50.91391695],[4.00314745,50.91388123],[4.0032122,50.91389072]]]}},{"type":"Feature","id":"gebouw/Gebouw.31558084/0","properties":{"source":"Digitaal Vlaanderen Gebouwenregister","source_id":"gebouw/Gebouw.31558084/0","kind":"building","height_m":8.6,"status":null},"geometry":{"type":"Polygon","coordinates":[[[3.99550925,50.91480758],[3.99563702,50.91485467],[3.99576672,50.91471462],[3.99570949,50.91469313],[3.99570216,50.91470093],[3.99563313,50.914675],[3.99550925,50.91480758]]]}},{"type":"Feature","id":"gebouw/Gebouw.31805605/0","properties":{"source":"Digitaal Vlaanderen Gebouwenregister","source_id":"gebouw/Gebouw.31805605/0","kind":"building","height_m":9.32,"status":null},"geometry":{"type":"Polygon","coordinates":[[[3.99547504,50.91498245],[3.99552693,50.91500174],[3.99560123,50.91492188],[3.99554934,50.91490259],[3.99547504,50.91498245]]]}},{"type":"Feature","id":"gebouw/Gebouw.31805667/0","properties":{"source":"Digitaal Vlaanderen Gebouwenregister","source_id":"gebouw/Gebouw.31805667/0","kind":"building","height_m":8.6,"status":null},"geometry":{"type":"Polygon","coordinates":[[[3.99525548,50.91392676],[3.99529876,50.91388765],[3.99525826,50.91386974],[3.99521498,50.91390884],[3.99525548,50.91392676]]]}},{"type":"Feature","id":"gebouw/Gebouw.31805930/0","properties":{"source":"Digitaal Vlaanderen Gebouwenregister","source_id":"gebouw/Gebouw.31805930/0","kind":"building","height_m":6.44,"status":null},"geometry":{"type":"Polygon","coordinates":[[[4.00416888,50.91476295],[4.00417723,50.91472493],[4.00413843,50.91472134],[4.00413003,50.91475954],[4.00416888,50.91476295]]]}},{"type":"Feature","id":"gebouw/Gebouw.31806666/0","properties":{"source":"Digitaal Vlaanderen Gebouwenregister","source_id":"gebouw/Gebouw.31806666/0","kind":"building","height_m":7.16,"status":null},"geometry":{"type":"Polygon","coordinates":[[[4.00274664,50.9139694],[4.00280749,50.91395941],[4.00279824,50.91393619],[4.00273636,50.91394817],[4.00274664,50.9139694]]]}},{"type":"Feature","id":"gebouw/Gebouw.32021681/0","properties":{"source":"Digitaal Vlaanderen Gebouwenregister","source_id":"gebouw/Gebouw.32021681/0","kind":"building","height_m":9.32,"status":null},"geometry":{"type":"Polygon","coordinates":[[[4.00259764,50.9149197],[4.00263332,50.91491035],[4.00261277,50.91487902],[4.00257709,50.91488837],[4.00259764,50.9149197]]]}},{"type":"Feature","id":"way/161327609","properties":{"source":"OpenStreetMap","source_id":"way/161327609","kind":"vegetation","name":null,"waterway":null,"landuse":"forest"},"geometry":{"type":"Polygon","coordinates":[[[4.004411,50.9135427],[4.0055268,50.9137062],[4.0052822,50.9144036],[4.0057471,50.9144899],[4.0056835,50.9146072],[4.0043327,50.9143449],[4.0044061,50.914166],[4.003649,50.914045],[4.0036148,50.913954],[4.0035683,50.9137334],[4.0042901,50.913829],[4.004411,50.9135427]]]}},{"type":"Feature","id":"way/161327672","properties":{"source":"OpenStreetMap","source_id":"way/161327672","kind":"vegetation","name":null,"waterway":null,"landuse":"forest"},"geometry":{"type":"Polygon","coordinates":[[[4.0035708,50.9146469],[4.0034914,50.914909],[4.0031828,50.9148962],[4.0031655,50.9149638],[4.0029629,50.9149583],[4.0030595,50.9145603],[4.0035708,50.9146469]]]}},{"type":"Feature","id":"way/677076060","properties":{"source":"OpenStreetMap","source_id":"way/677076060","kind":"waterway","name":"Laarbeek","waterway":"stream","landuse":null},"geometry":{"type":"LineString","coordinates":[[4.0009714,50.9145412],[4.0010317,50.9145585]]}}]}