{"type":"FeatureCollection","features":[{"type":"Feature","id":"way/152642216","properties":{"source":"OpenStreetMap","source_id":"way/152642216","kind":"vegetation","name":null,"waterway":null,"landuse":"forest"},"geometry":{"type":"Polygon","coordinates":[[[4.0148607,50.9856047],[4.0148842,50.9855745],[4.0151866,50.9851861],[4.0169249,50.9860661],[4.016597,50.9863614],[4.0148607,50.9856047]]]}},{"type":"Feature","id":"way/398065453","properties":{"source":"OpenStreetMap","source_id":"way/398065453","kind":"waterway","name":"Grootebeek - Porrebeek","waterway":"stream","landuse":null},"geometry":{"type":"LineString","coordinates":[[4.0118617,50.9866273],[4.0124494,50.9867411],[4.0133313,50.9869259],[4.0133947,50.9869391],[4.0134891,50.9869587],[4.0136177,50.9869681],[4.0139829,50.9870292],[4.0143473,50.9870811],[4.0146986,50.9871194],[4.0149353,50.9871374],[4.0152086,50.9871703],[4.0153713,50.9871694],[4.0153832,50.9871731],[4.0156327,50.9872513],[4.0166894,50.9875529],[4.0168984,50.9875848],[4.0178337,50.9879002],[4.0180452,50.987982],[4.0180527,50.9882037],[4.0180744,50.9882374],[4.0181235,50.9882395],[4.0200836,50.9881175],[4.0201789,50.9880772],[4.020255,50.9880331]]}},{"type":"Feature","id":"way/398065511","properties":{"source":"OpenStreetMap","source_id":"way/398065511","kind":"waterway","name":null,"waterway":"stream","landuse":null},"geometry":{"type":"LineString","coordinates":[[4.0145883,50.9834335],[4.0146765,50.9834811],[4.0147803,50.9833733],[4.0148924,50.9832587],[4.0152512,50.9829935],[4.0155869,50.9828401],[4.0156981,50.9827671],[4.0158801,50.9827057],[4.016582,50.9827057],[4.017471,50.9826034]]}},{"type":"Feature","id":"way/1320611414","properties":{"source":"OpenStreetMap","source_id":"way/1320611414","kind":"waterway","name":null,"waterway":"stream","landuse":null},"geometry":{"type":"LineString","coordinates":[[4.0141523,50.9855282],[4.0142428,50.9857119],[4.0144899,50.9860295],[4.0147964,50.9862527],[4.0150812,50.9865567],[4.0153264,50.9868678],[4.0153773,50.987018],[4.0153832,50.9871731]]}}]}