{"type":"FeatureCollection","features":[{"type":"Feature","id":"gebouw/Gebouw.15675936/0","properties":{"source":"Digitaal Vlaanderen Gebouwenregister","source_id":"gebouw/Gebouw.15675936/0","kind":"building","height_m":7.16,"status":null},"geometry":{"type":"Polygon","coordinates":[[[4.01577083,50.9288793],[4.01577237,50.9288801],[4.01577948,50.92888378],[4.01573197,50.92892404],[4.01572817,50.92892725],[4.015727,50.92892823],[4.01566765,50.92897835],[4.01557852,50.92903834],[4.0155485,50.9290205],[4.01569681,50.92890361],[4.01574476,50.92886583],[4.01577083,50.9288793]]]}},{"type":"Feature","id":"gebouw/Gebouw.15681301/0","properties":{"source":"Digitaal Vlaanderen Gebouwenregister","source_id":"gebouw/Gebouw.15681301/0","kind":"building","height_m":9.32,"status":null},"geometry":{"type":"Polygon","coordinates":[[[4.01478058,50.92933108],[4.01486714,50.92936047],[4.01483402,50.92939908],[4.01474745,50.9293697],[4.01478058,50.92933108]]]}},{"type":"Feature","id":"gebouw/Gebouw.15700116/0","properties":{"source":"Digitaal Vlaanderen Gebouwenregister","source_id":"gebouw/Gebouw.15700116/0","kind":"building","height_m":8.6,"status":null},"geometry":{"type":"Polygon","coordinates":[[[4.01395436,50.93423867],[4.01391102,50.93423665],[4.01390159,50.93423621],[4.01390327,50.93421786],[4.01390664,50.93421787],[4.0139087,50.93419611],[4.01391826,50.93419639],[4.01395985,50.9341976],[4.01395837,50.93422008],[4.01395586,50.93422005],[4.01395436,50.93423867]]]}},{"type":"Feature","id":"gebouw/Gebouw.15706932/0","properties":{"source":"Digitaal Vlaanderen Gebouwenregister","source_id":"gebouw/Gebouw.15706932/0","kind":"building","height_m":7.16,"status":null},"geometry":{"type":"Polygon","coordinates":[[[4.01566154,50.92881876],[4.01563629,50.92883671],[4.01545431,50.92896601],[4.01540967,50.92893968],[4.01550089,50.92887843],[4.01557083,50.92883146],[4.01559774,50.92881414],[4.01562429,50.92879705],[4.01566154,50.92881876]]]}},{"type":"Feature","id":"gebouw/Gebouw.15709421/0","properties":{"source":"Digitaal Vlaanderen Gebouwenregister","source_id":"gebouw/Gebouw.15709421/0","kind":"building","height_m":5.0,"status":null},"geometry":{"type":"Polygon","coordinates":[[[4.01485312,50.9292419],[4.01494272,50.92927128],[4.01489663,50.92932742],[4.01480704,50.92929804],[4.01485312,50.9292419]]]}},{"type":"Feature","id":"gebouw/Gebouw.15716612/0","properties":{"source":"Digitaal Vlaanderen Gebouwenregister","source_id":"gebouw/Gebouw.15716612/0","kind":"building","height_m":6.44,"status":null},"geometry":{"type":"Polygon","coordinates":[[[4.01574949,50.92880791],[4.01580941,50.92876127],[4.01584169,50.92877783],[4.01578177,50.92882448],[4.01574949,50.92880791]]]}},{"type":"Feature","id":"gebouw/Gebouw.15720855/0","properties":{"source":"Digitaal Vlaanderen Gebouwenregister","source_id":"gebouw/Gebouw.15720855/0","kind":"building","height_m":7.16,"status":null},"geometry":{"type":"Polygon","coordinates":[[[4.0058928,50.93398589],[4.00591889,50.93399081],[4.00593446,50.93395778],[4.00603726,50.93397713],[4.00598022,50.93409815],[4.00585128,50.93407388],[4.0058928,50.93398589]]]}},{"type":"Feature","id":"gebouw/Gebouw.15749906/0","properties":{"source":"Digitaal Vlaanderen Gebouwenregister","source_id":"gebouw/Gebouw.15749906/0","kind":"building","height_m":7.88,"status":null},"geometry":{"type":"Polygon","coordinates":[[[4.01569681,50.92890361],[4.0155485,50.9290205],[4.01551425,50.92900074],[4.01549688,50.92899071],[4.01565955,50.92888059],[4.01569681,50.92890361]]]}},{"type":"Feature","id":"gebouw/Gebouw.15777189/0","properties":{"source":"Digitaal Vlaanderen Gebouwenregister","source_id":"gebouw/Gebouw.15777189/0","kind":"building","height_m":5.72,"status":null},"geometry":{"type":"Polygon","coordinates":[[[4.01523421,50.92967041],[4.01531072,50.92969508],[4.01528531,50.92972655],[4.01520861,50.92970181],[4.01523421,50.92967041]]]}},{"type":"Feature","id":"gebouw/Gebouw.15798814/0","properties":{"source":"Digitaal Vlaanderen Gebouwenregister","source_id":"gebouw/Gebouw.15798814/0","kind":"building","height_m":7.16,"status":null},"geometry":{"type":"Polygon","coordinates":[[[4.01204425,50.92879939],[4.01206816,50.92876981],[4.01211657,50.92878543],[4.01209256,50.92881515],[4.01209012,50.92881436],[4.01208305,50.92882311],[4.01203707,50.92880827],[4.01204425,50.92879939]]]}},{"type":"Feature","id":"gebouw/Gebouw.15800602/0","properties":{"source":"Digitaal Vlaanderen Gebouwenregister","source_id":"gebouw/Gebouw.15800602/0","kind":"building","height_m":9.32,"status":null},"geometry":{"type":"Polygon","coordinates":[[[4.0158613,50.92877397],[4.01588756,50.92878608],[4.01582935,50.9288336],[4.01580528,50.9288225],[4.0158613,50.92877397]]]}},{"type":"Feature","id":"gebouw/Gebouw.15820907/0","properties":{"source":"Digitaal Vlaanderen Gebouwenregister","source_id":"gebouw/Gebouw.15820907/0","kind":"building","height_m":7.88,"status":null},"geometry":{"type":"Polygon","coordinates":[[[4.01540145,50.93021867],[4.01544006,50.930232],[4.01543257,50.93024066],[4.01544338,50.9302444],[4.01542979,50.93026011],[4.01538037,50.93024304],[4.01540145,50.93021867]]]}},{"type":"Feature","id":"gebouw/Gebouw.15826030/0","properties":{"source":"Digitaal Vlaanderen Gebouwenregister","source_id":"gebouw/Gebouw.15826030/0","kind":"building","height_m":7.16,"status":null},"geometry":{"type":"Polygon","coordinates":[[[4.01459446,50.92943472],[4.0145565,50.92948376],[4.01446675,50.92945535],[4.01450545,50.92940654],[4.01459446,50.92943472]]]}},{"type":"Feature","id":"gebouw/Gebouw.15859669/0","properties":{"source":"Digitaal Vlaanderen Gebouwenregister","source_id":"gebouw/Gebouw.15859669/0","kind":"building","height_m":5.0,"status":null},"geometry":{"type":"Polygon","coordinates":[[[4.0152785,50.92972989],[4.01526434,50.92974743],[4.01524223,50.92977482],[4.01516847,50.92975103],[4.01519084,50.9297236],[4.01520503,50.92970619],[4.0152785,50.92972989]]]}},{"type":"Feature","id":"gebouw/Gebouw.15870900/0","properties":{"source":"Digitaal Vlaanderen Gebouwenregister","source_id":"gebouw/Gebouw.15870900/0","kind":"building","height_m":7.16,"status":null},"geometry":{"type":"Polygon","coordinates":[[[4.01202737,50.92907755],[4.0120568,50.92908696],[4.01201185,50.92914312],[4.01198198,50.92913351],[4.01185874,50.92909386],[4.01190345,50.92903809],[4.01202737,50.92907755]]]}},{"type":"Feature","id":"gebouw/Gebouw.15873632/0","properties":{"source":"Digitaal Vlaanderen Gebouwenregister","source_id":"gebouw/Gebouw.15873632/0","kind":"building","height_m":8.6,"status":null},"geometry":{"type":"Polygon","coordinates":[[[4.0155653,50.93018391],[4.01562126,50.9302029],[4.01559777,50.93022943],[4.01554255,50.93021069],[4.0155653,50.93018391]]]}},{"type":"Feature","id":"gebouw/Gebouw.15883986/0","properties":{"source":"Digitaal Vlaanderen Gebouwenregister","source_id":"gebouw/Gebouw.15883986/0","kind":"building","height_m":9.32,"status":null},"geometry":{"type":"Polygon","coordinates":[[[4.0154254,50.92883727],[4.01542782,50.92883564],[4.01549823,50.92878822],[4.01546445,50.9287681],[4.01542176,50.92874267],[4.01541718,50.92874722],[4.01538158,50.9287826],[4.0152675,50.92885654],[4.01533665,50.92889704],[4.0154254,50.92883727]]]}},{"type":"Feature","id":"gebouw/Gebouw.15900719/0","properties":{"source":"Digitaal Vlaanderen Gebouwenregister","source_id":"gebouw/Gebouw.15900719/0","kind":"building","height_m":6.44,"status":null},"geometry":{"type":"Polygon","coordinates":[[[4.01572955,50.92958895],[4.01581018,50.92961544],[4.01581322,50.92961175],[4.01589273,50.929637],[4.01578786,50.92976505],[4.01573133,50.92974719],[4.01577656,50.92969262],[4.01569588,50.9296661],[4.01570052,50.92966046],[4.01564918,50.92964358],[4.01564401,50.92964987],[4.01558164,50.92962937],[4.01562939,50.92957134],[4.01568541,50.92958976],[4.0157049,50.92956607],[4.01573912,50.92957731],[4.01572955,50.92958895]]]}},{"type":"Feature","id":"gebouw/Gebouw.15924487/0","properties":{"source":"Digitaal Vlaanderen Gebouwenregister","source_id":"gebouw/Gebouw.15924487/0","kind":"building","height_m":8.6,"status":null},"geometry":{"type":"Polygon","coordinates":[[[4.00578829,50.93410879],[4.00589192,50.93413015],[4.00586294,50.9341863],[4.00575931,50.93416494],[4.00578829,50.93410879]]]}},{"type":"Feature","id":"gebouw/Gebouw.15950300/0","properties":{"source":"Digitaal Vlaanderen Gebouwenregister","source_id":"gebouw/Gebouw.15950300/0","kind":"building","height_m":6.44,"status":null},"geometry":{"type":"Polygon","coordinates":[[[4.00906977,50.93512895],[4.00909695,50.93508532],[4.00917351,50.93510428],[4.00914633,50.9351479],[4.00906977,50.93512895]]]}},{"type":"Feature","id":"gebouw/Gebouw.15952863/0","properties":{"source":"Digitaal Vlaanderen Gebouwenregister","source_id":"gebouw/Gebouw.15952863/0","kind":"building","height_m":7.16,"status":null},"geometry":{"type":"Polygon","coordinates":[[[4.01231056,50.92930441],[4.0122597,50.92928669],[4.01229845,50.92924225],[4.01232576,50.92925177],[4.01232708,50.92925222],[4.01233586,50.92924215],[4.01223318,50.92920638],[4.0127301,50.92863661],[4.01285221,50.92867915],[4.01242732,50.92916632],[4.0131134,50.9294053],[4.01307903,50.92944471],[4.01311009,50.92945553],[4.01307137,50.92949992],[4.01304031,50.9294891],[4.01299586,50.92954007],[4.01311678,50.92958219],[4.01308846,50.92961466],[4.01296128,50.92957036],[4.01298673,50.92954118],[4.01240308,50.92933788],[4.01237638,50.9293685],[4.01228302,50.92933598],[4.01231056,50.92930441]]]}},{"type":"Feature","id":"gebouw/Gebouw.15963639/0","properties":{"source":"Digitaal Vlaanderen Gebouwenregister","source_id":"gebouw/Gebouw.15963639/0","kind":"building","height_m":9.32,"status":null},"geometry":{"type":"Polygon","coordinates":[[[4.01544049,50.92932839],[4.01531947,50.92928936],[4.01525634,50.92936754],[4.01526417,50.92937007],[4.0152513,50.929386],[4.01530082,50.92940198],[4.01524295,50.92947328],[4.01525426,50.92947664],[4.01514278,50.92961678],[4.01519118,50.92963239],[4.01510726,50.92973631],[4.01516522,50.92975501],[4.01516847,50.92975103],[4.01519084,50.9297236],[4.01520503,50.92970619],[4.01520707,50.92970369],[4.01520861,50.92970181],[4.01523421,50.92967041],[4.015307,50.92958114],[4.01529294,50.92957661],[4.01546613,50.92936212],[4.01542418,50.92934859],[4.01544049,50.92932839]]]}},{"type":"Feature","id":"gebouw/Gebouw.15974212/0","properties":{"source":"Digitaal Vlaanderen Gebouwenregister","source_id":"gebouw/Gebouw.15974212/0","kind":"building","height_m":6.44,"status":null},"geometry":{"type":"Polygon","coordinates":[[[4.01557852,50.92903834],[4.01566765,50.92897835],[4.01568299,50.92898728],[4.01570344,50.92899918],[4.01577311,50.92895137],[4.01580616,50.92896911],[4.01564711,50.92907826],[4.01557852,50.92903834]]]}},{"type":"Feature","id":"gebouw/Gebouw.15976670/0","properties":{"source":"Digitaal Vlaanderen Gebouwenregister","source_id":"gebouw/Gebouw.15976670/0","kind":"building","height_m":7.16,"status":null},"geometry":{"type":"Polygon","coordinates":[[[4.01573937,50.92990113],[4.01578268,50.92991485],[4.01574932,50.9299569],[4.01566511,50.92993023],[4.0156818,50.92990917],[4.01569845,50.92988816],[4.01573937,50.92990113]]]}},{"type":"Feature","id":"gebouw/Gebouw.15979014/0","properties":{"source":"Digitaal Vlaanderen Gebouwenregister","source_id":"gebouw/Gebouw.15979014/0","kind":"building","height_m":6.44,"status":null},"geometry":{"type":"Polygon","coordinates":[[[4.01557083,50.92883146],[4.01550089,50.92887843],[4.01540967,50.92893968],[4.01533665,50.92889704],[4.01542782,50.92883564],[4.01549823,50.92878822],[4.01557083,50.92883146]]]}},{"type":"Feature","id":"gebouw/Gebouw.15983991/0","properties":{"source":"Digitaal Vlaanderen Gebouwenregister","source_id":"gebouw/Gebouw.15983991/0","kind":"building","height_m":6.44,"status":null},"geometry":{"type":"Polygon","coordinates":[[[4.00852296,50.93245707],[4.00856298,50.93239252],[4.00859104,50.93239848],[4.0086258,50.93233965],[4.00869293,50.93235265],[4.00861542,50.9324789],[4.00852296,50.93245707]]]}},{"type":"Feature","id":"gebouw/Gebouw.16011100/0","properties":{"source":"Digitaal Vlaanderen Gebouwenregister","source_id":"gebouw/Gebouw.16011100/0","kind":"building","height_m":5.0,"status":null},"geometry":{"type":"Polygon","coordinates":[[[4.01558235,50.93003466],[4.01563135,50.93005271],[4.01559935,50.93008715],[4.01555253,50.93007229],[4.01558235,50.93003466]]]}},{"type":"Feature","id":"gebouw/Gebouw.16035473/0","properties":{"source":"Digitaal Vlaanderen Gebouwenregister","source_id":"gebouw/Gebouw.16035473/0","kind":"building","height_m":9.32,"status":null},"geometry":{"type":"Polygon","coordinates":[[[4.00747667,50.93311799],[4.00748872,50.93309426],[4.00760031,50.93311689],[4.00758826,50.93314062],[4.00747667,50.93311799]]]}},{"type":"Feature","id":"gebouw/Gebouw.16038206/0","properties":{"source":"Digitaal Vlaanderen Gebouwenregister","source_id":"gebouw/Gebouw.16038206/0","kind":"building","height_m":6.44,"status":null},"geometry":{"type":"Polygon","coordinates":[[[4.01153904,50.92972976],[4.01145924,50.92971013],[4.01147815,50.92967943],[4.01155795,50.92969907],[4.01153904,50.92972976]]]}},{"type":"Feature","id":"gebouw/Gebouw.16042932/0","properties":{"source":"Digitaal Vlaanderen Gebouwenregister","source_id":"gebouw/Gebouw.16042932/0","kind":"building","height_m":7.16,"status":null},"geometry":{"type":"Polygon","coordinates":[[[4.01522947,50.92866093],[4.01531169,50.92871232],[4.01519397,50.92881292],[4.01508913,50.928752],[4.01509105,50.92875113],[4.01509075,50.92875095],[4.01503777,50.92871848],[4.0151767,50.92862795],[4.01522947,50.92866093]]]}},{"type":"Feature","id":"gebouw/Gebouw.16050339/0","properties":{"source":"Digitaal Vlaanderen Gebouwenregister","source_id":"gebouw/Gebouw.16050339/0","kind":"building","height_m":7.88,"status":null},"geometry":{"type":"Polygon","coordinates":[[[4.01468976,50.93128109],[4.01466291,50.93131073],[4.01457858,50.93128192],[4.01460596,50.93125298],[4.01468976,50.93128109]]]}},{"type":"Feature","id":"gebouw/Gebouw.16108234/0","properties":{"source":"Digitaal Vlaanderen Gebouwenregister","source_id":"gebouw/Gebouw.16108234/0","kind":"building","height_m":6.44,"status":null},"geometry":{"type":"Polygon","coordinates":[[[4.01409582,50.92906872],[4.01404179,50.92906843],[4.01404225,50.92903394],[4.01409628,50.92903423],[4.01409582,50.92906872]]]}},{"type":"Feature","id":"gebouw/Gebouw.16125329/0","properties":{"source":"Digitaal Vlaanderen Gebouwenregister","source_id":"gebouw/Gebouw.16125329/0","kind":"building","height_m":7.16,"status":null},"geometry":{"type":"Polygon","coordinates":[[[4.01226727,50.92865973],[4.01228948,50.92863448],[4.01234312,50.928651],[4.01232292,50.92867696],[4.01226727,50.92865973]]]}},{"type":"Feature","id":"gebouw/Gebouw.16135707/0","properties":{"source":"Digitaal Vlaanderen Gebouwenregister","source_id":"gebouw/Gebouw.16135707/0","kind":"building","height_m":5.0,"status":null},"geometry":{"type":"Polygon","coordinates":[[[4.01397922,50.93333607],[4.01398506,50.93335722],[4.01389157,50.93336754],[4.0138856,50.93334979],[4.01390349,50.93334693],[4.01390282,50.9333445],[4.01397922,50.93333607]]]}},{"type":"Feature","id":"gebouw/Gebouw.16140955/0","properties":{"source":"Digitaal Vlaanderen Gebouwenregister","source_id":"gebouw/Gebouw.16140955/0","kind":"building","height_m":8.6,"status":null},"geometry":{"type":"Polygon","coordinates":[[[4.01106395,50.92866456],[4.01129092,50.92840118],[4.0112567,50.92838903],[4.01109722,50.92833242],[4.0109374,50.92851994],[4.01091729,50.9285131],[4.01084757,50.92859041],[4.01086877,50.92859763],[4.01086622,50.92860059],[4.01102886,50.92865657],[4.01103158,50.92865342],[4.01106395,50.92866456]]]}},{"type":"Feature","id":"gebouw/Gebouw.16143244/0","properties":{"source":"Digitaal Vlaanderen Gebouwenregister","source_id":"gebouw/Gebouw.16143244/0","kind":"building","height_m":8.6,"status":null},"geometry":{"type":"Polygon","coordinates":[[[4.01470161,50.92897316],[4.01474771,50.92898854],[4.01472566,50.92901493],[4.01470451,50.92904025],[4.01469689,50.92904938],[4.01477665,50.92907598],[4.01487967,50.92895263],[4.01475382,50.92891064],[4.01470161,50.92897316]]]}},{"type":"Feature","id":"gebouw/Gebouw.16145110/0","properties":{"source":"Digitaal Vlaanderen Gebouwenregister","source_id":"gebouw/Gebouw.16145110/0","kind":"building","height_m":6.44,"status":null},"geometry":{"type":"Polygon","coordinates":[[[4.0064511,50.93356022],[4.00633991,50.933515],[4.00639299,50.93345999],[4.00654393,50.93352457],[4.006515,50.93354858],[4.00647666,50.93353119],[4.00647568,50.93353241],[4.00647922,50.93353407],[4.0064511,50.93356022]]]}},{"type":"Feature","id":"gebouw/Gebouw.16165237/0","properties":{"source":"Digitaal Vlaanderen Gebouwenregister","source_id":"gebouw/Gebouw.16165237/0","kind":"building","height_m":7.88,"status":null},"geometry":{"type":"Polygon","coordinates":[[[4.01607736,50.92919551],[4.01606206,50.92920814],[4.01598304,50.92927337],[4.01597859,50.92927116],[4.01594201,50.92925294],[4.01584051,50.92920241],[4.0159286,50.92913175],[4.01592115,50.92912803],[4.01593115,50.92911959],[4.01599056,50.92907483],[4.01604389,50.92910108],[4.01600031,50.92913631],[4.01609134,50.92918036],[4.01613279,50.92914614],[4.01613555,50.92914748],[4.01607736,50.92919551]]]}},{"type":"Feature","id":"gebouw/Gebouw.16179053/0","properties":{"source":"Digitaal Vlaanderen Gebouwenregister","source_id":"gebouw/Gebouw.16179053/0","kind":"building","height_m":6.44,"status":null},"geometry":{"type":"Polygon","coordinates":[[[4.01613283,50.92964844],[4.01613802,50.92965039],[4.01608975,50.92970806],[4.0160251,50.92978462],[4.01597517,50.92976779],[4.01598392,50.92975743],[4.01589914,50.92972865],[4.01592863,50.92969395],[4.0159681,50.92964751],[4.01597693,50.92965051],[4.01600774,50.92961426],[4.01612738,50.92965487],[4.01613283,50.92964844]]]}},{"type":"Feature","id":"gebouw/Gebouw.16181448/0","properties":{"source":"Digitaal Vlaanderen Gebouwenregister","source_id":"gebouw/Gebouw.16181448/0","kind":"building","height_m":7.16,"status":null},"geometry":{"type":"Polygon","coordinates":[[[4.01511534,50.92955515],[4.01503444,50.9296564],[4.01497305,50.9296368],[4.01505323,50.92953645],[4.01511534,50.92955515]]]}},{"type":"Feature","id":"gebouw/Gebouw.16185201/0","properties":{"source":"Digitaal Vlaanderen Gebouwenregister","source_id":"gebouw/Gebouw.16185201/0","kind":"building","height_m":7.88,"status":null},"geometry":{"type":"Polygon","coordinates":[[[4.01573197,50.92892404],[4.01577948,50.92888378],[4.0158057,50.92889733],[4.01575929,50.92893785],[4.01573197,50.92892404]]]}},{"type":"Feature","id":"gebouw/Gebouw.16203695/0","properties":{"source":"Digitaal Vlaanderen Gebouwenregister","source_id":"gebouw/Gebouw.16203695/0","kind":"building","height_m":7.88,"status":null},"geometry":{"type":"Polygon","coordinates":[[[4.01570642,50.92879351],[4.01572643,50.928805],[4.01566795,50.92885525],[4.01568097,50.92886288],[4.01565955,50.92888059],[4.01549688,50.92899071],[4.01545431,50.92896601],[4.01563629,50.92883671],[4.01566154,50.92881876],[4.01570206,50.928791],[4.01570642,50.92879351]]]}},{"type":"Feature","id":"gebouw/Gebouw.16237072/0","properties":{"source":"Digitaal Vlaanderen Gebouwenregister","source_id":"gebouw/Gebouw.16237072/0","kind":"building","height_m":8.6,"status":null},"geometry":{"type":"Polygon","coordinates":[[[4.01388835,50.9285555],[4.01374895,50.92871869],[4.01374639,50.92872169],[4.01351721,50.92864349],[4.0135217,50.92863824],[4.01365917,50.92847731],[4.01388835,50.9285555]]]}},{"type":"Feature","id":"gebouw/Gebouw.16260759/0","properties":{"source":"Digitaal Vlaanderen Gebouwenregister","source_id":"gebouw/Gebouw.16260759/0","kind":"building","height_m":7.88,"status":null},"geometry":{"type":"Polygon","coordinates":[[[4.00959026,50.92899477],[4.00966506,50.92903311],[4.00961412,50.92907341],[4.0095401,50.92903528],[4.00959026,50.92899477]]]}},{"type":"Feature","id":"gebouw/Gebouw.16295422/0","properties":{"source":"Digitaal Vlaanderen Gebouwenregister","source_id":"gebouw/Gebouw.16295422/0","kind":"building","height_m":7.16,"status":null},"geometry":{"type":"Polygon","coordinates":[[[4.01561552,50.9323722],[4.01541685,50.9323104],[4.01547407,50.93223695],[4.01567274,50.93229875],[4.01561552,50.9323722]]]}},{"type":"Feature","id":"gebouw/Gebouw.16315542/0","properties":{"source":"Digitaal Vlaanderen Gebouwenregister","source_id":"gebouw/Gebouw.16315542/0","kind":"building","height_m":8.6,"status":null},"geometry":{"type":"Polygon","coordinates":[[[4.01591002,50.92857054],[4.01593105,50.92858236],[4.01590581,50.92861703],[4.01587344,50.92859908],[4.01591002,50.92857054]]]}},{"type":"Feature","id":"gebouw/Gebouw.16334107/0","properties":{"source":"Digitaal Vlaanderen Gebouwenregister","source_id":"gebouw/Gebouw.16334107/0","kind":"building","height_m":9.32,"status":null},"geometry":{"type":"Polygon","coordinates":[[[4.01565423,50.92939756],[4.01561505,50.92938544],[4.01562471,50.9293732],[4.01553272,50.92934272],[4.01545142,50.92944072],[4.01546975,50.92944679],[4.01542907,50.92949582],[4.01554926,50.92953302],[4.01565423,50.92939756]]]}},{"type":"Feature","id":"gebouw/Gebouw.16352227/0","properties":{"source":"Digitaal Vlaanderen Gebouwenregister","source_id":"gebouw/Gebouw.16352227/0","kind":"building","height_m":7.16,"status":null},"geometry":{"type":"Polygon","coordinates":[[[4.014966,50.92916344],[4.01485189,50.92912521],[4.0148563,50.92911996],[4.01483774,50.92911374],[4.01486767,50.92907806],[4.01489301,50.92908655],[4.01493919,50.9290315],[4.01504652,50.92906745],[4.014966,50.92916344]]]}},{"type":"Feature","id":"gebouw/Gebouw.16385171/0","properties":{"source":"Digitaal Vlaanderen Gebouwenregister","source_id":"gebouw/Gebouw.16385171/0","kind":"building","height_m":8.6,"status":null},"geometry":{"type":"Polygon","coordinates":[[[4.01554552,50.92863473],[4.0157063,50.92849427],[4.01577974,50.92852785],[4.01569803,50.92859923],[4.01568191,50.9285921],[4.01560317,50.92866098],[4.01554552,50.92863473]]]}},{"type":"Feature","id":"gebouw/Gebouw.16401122/0","properties":{"source":"Digitaal Vlaanderen Gebouwenregister","source_id":"gebouw/Gebouw.16401122/0","kind":"building","height_m":7.16,"status":null},"geometry":{"type":"Polygon","coordinates":[[[4.01593115,50.92911959],[4.01587954,50.9290939],[4.01579624,50.92916141],[4.0157434,50.92913537],[4.01574614,50.9291333],[4.01570932,50.92911511],[4.01579419,50.92904667],[4.01584839,50.92907344],[4.01586585,50.92905932],[4.01589939,50.92907589],[4.01593485,50.92904722],[4.01599056,50.92907483],[4.01593115,50.92911959]]]}},{"type":"Feature","id":"gebouw/Gebouw.16406054/0","properties":{"source":"Digitaal Vlaanderen Gebouwenregister","source_id":"gebouw/Gebouw.16406054/0","kind":"building","height_m":5.0,"status":null},"geometry":{"type":"Polygon","coordinates":[[[4.01441589,50.92884505],[4.01434211,50.92882105],[4.01435562,50.92880446],[4.01427993,50.92877983],[4.0143247,50.92871226],[4.01432968,50.92871357],[4.01434519,50.92869536],[4.01443082,50.92872407],[4.01444732,50.92870468],[4.01451287,50.928726],[4.01441589,50.92884505]]]}},{"type":"Feature","id":"gebouw/Gebouw.16424406/0","properties":{"source":"Digitaal Vlaanderen Gebouwenregister","source_id":"gebouw/Gebouw.16424406/0","kind":"building","height_m":8.6,"status":null},"geometry":{"type":"Polygon","coordinates":[[[4.01564041,50.93028804],[4.01565507,50.93026821],[4.01571106,50.93028473],[4.0156964,50.93030457],[4.01564041,50.93028804]]]}},{"type":"Feature","id":"gebouw/Gebouw.16427854/0","properties":{"source":"Digitaal Vlaanderen Gebouwenregister","source_id":"gebouw/Gebouw.16427854/0","kind":"building","height_m":6.44,"status":null},"geometry":{"type":"Polygon","coordinates":[[[4.01332176,50.92872856],[4.01377093,50.92888009],[4.01352655,50.92916402],[4.01346115,50.9291435],[4.01350059,50.92909829],[4.01340019,50.92906331],[4.01336598,50.92910213],[4.01324235,50.92905923],[4.01327811,50.92902079],[4.01311663,50.92896454],[4.01332176,50.92872856]]]}},{"type":"Feature","id":"gebouw/Gebouw.16451127/0","properties":{"source":"Digitaal Vlaanderen Gebouwenregister","source_id":"gebouw/Gebouw.16451127/0","kind":"building","height_m":5.0,"status":null},"geometry":{"type":"Polygon","coordinates":[[[4.01454065,50.9289696],[4.0145673,50.9289382],[4.01447308,50.92890627],[4.01453317,50.92883547],[4.01462698,50.92886727],[4.01465662,50.92883288],[4.01470612,50.9288491],[4.01459278,50.92898728],[4.01454065,50.9289696]]]}},{"type":"Feature","id":"gebouw/Gebouw.16451761/0","properties":{"source":"Digitaal Vlaanderen Gebouwenregister","source_id":"gebouw/Gebouw.16451761/0","kind":"building","height_m":7.88,"status":null},"geometry":{"type":"Polygon","coordinates":[[[4.01434337,50.92912731],[4.01430189,50.92916779],[4.01426229,50.92915158],[4.01427232,50.9291418],[4.01425438,50.92913446],[4.01428584,50.92910376],[4.01434337,50.92912731]]]}},{"type":"Feature","id":"gebouw/Gebouw.16479276/0","properties":{"source":"Digitaal Vlaanderen Gebouwenregister","source_id":"gebouw/Gebouw.16479276/0","kind":"building","height_m":6.44,"status":null},"geometry":{"type":"Polygon","coordinates":[[[4.01544584,50.9286594],[4.01540113,50.92863589],[4.01532258,50.92870302],[4.01531169,50.92871232],[4.01519397,50.92881292],[4.0152675,50.92885654],[4.01538158,50.9287826],[4.01541718,50.92874722],[4.01540361,50.9287398],[4.01537122,50.9287221],[4.01544584,50.9286594]]]}},{"type":"Feature","id":"gebouw/Gebouw.16500513/0","properties":{"source":"Digitaal Vlaanderen Gebouwenregister","source_id":"gebouw/Gebouw.16500513/0","kind":"building","height_m":5.72,"status":null},"geometry":{"type":"Polygon","coordinates":[[[4.01276859,50.93476585],[4.01274602,50.93478872],[4.01266098,50.9347606],[4.01268361,50.93473397],[4.01276859,50.93476585]]]}},{"type":"Feature","id":"gebouw/Gebouw.16737334/0","properties":{"source":"Digitaal Vlaanderen Gebouwenregister","source_id":"gebouw/Gebouw.16737334/0","kind":"building","height_m":8.6,"status":null},"geometry":{"type":"Polygon","coordinates":[[[4.01601948,50.92870159],[4.0160656,50.92872437],[4.01602329,50.92875859],[4.01597717,50.92873581],[4.01601948,50.92870159]]]}},{"type":"Feature","id":"gebouw/Gebouw.16797599/0","properties":{"source":"Digitaal Vlaanderen Gebouwenregister","source_id":"gebouw/Gebouw.16797599/0","kind":"building","height_m":5.0,"status":null},"geometry":{"type":"Polygon","coordinates":[[[4.01607555,50.92887564],[4.01606797,50.92890305],[4.01601271,50.92889695],[4.01602029,50.92886954],[4.01607555,50.92887564]]]}},{"type":"Feature","id":"gebouw/Gebouw.16870847/0","properties":{"source":"Digitaal Vlaanderen Gebouwenregister","source_id":"gebouw/Gebouw.16870847/0","kind":"building","height_m":5.0,"status":null},"geometry":{"type":"Polygon","coordinates":[[[4.00614099,50.93313453],[4.00618932,50.93305338],[4.00630949,50.93308252],[4.00626312,50.93316228],[4.00614099,50.93313453]]]}},{"type":"Feature","id":"gebouw/Gebouw.18729286/0","properties":{"source":"Digitaal Vlaanderen Gebouwenregister","source_id":"gebouw/Gebouw.18729286/0","kind":"building","height_m":6.44,"status":null},"geometry":{"type":"Polygon","coordinates":[[[4.00764098,50.93224179],[4.00763929,50.93224849],[4.00763613,50.93226095],[4.00756822,50.93225376],[4.00756928,50.93224928],[4.00757293,50.93223374],[4.00764098,50.93224179]]]}},{"type":"Feature","id":"gebouw/Gebouw.18729657/0","properties":{"source":"Digitaal Vlaanderen Gebouwenregister","source_id":"gebouw/Gebouw.18729657/0","kind":"building","height_m":6.44,"status":null},"geometry":{"type":"Polygon","coordinates":[[[4.00663875,50.93329361],[4.0066201,50.93332706],[4.00657282,50.93331531],[4.00659292,50.93328176],[4.00663875,50.93329361]]]}},{"type":"Feature","id":"gebouw/Gebouw.18729839/0","properties":{"source":"Digitaal Vlaanderen Gebouwenregister","source_id":"gebouw/Gebouw.18729839/0","kind":"building","height_m":6.44,"status":null},"geometry":{"type":"Polygon","coordinates":[[[4.01013772,50.92895771],[4.01009259,50.92898405],[4.01006828,50.9289685],[4.01011493,50.92894179],[4.01013772,50.92895771]]]}},{"type":"Feature","id":"gebouw/Gebouw.18729840/0","properties":{"source":"Digitaal Vlaanderen Gebouwenregister","source_id":"gebouw/Gebouw.18729840/0","kind":"building","height_m":7.16,"status":null},"geometry":{"type":"Polygon","coordinates":[[[4.01465308,50.92931775],[4.01467039,50.92933319],[4.01465955,50.92935181],[4.01462149,50.92935724],[4.0145932,50.92934375],[4.01459871,50.92932359],[4.01462205,50.92931387],[4.01465308,50.92931775]]]}},{"type":"Feature","id":"gebouw/Gebouw.18729841/0","properties":{"source":"Digitaal Vlaanderen Gebouwenregister","source_id":"gebouw/Gebouw.18729841/0","kind":"building","height_m":7.88,"status":null},"geometry":{"type":"Polygon","coordinates":[[[4.01469038,50.92922273],[4.01465369,50.9292718],[4.01460014,50.92925556],[4.01463791,50.92920622],[4.01469038,50.92922273]]]}},{"type":"Feature","id":"gebouw/Gebouw.18964032/0","properties":{"source":"Digitaal Vlaanderen Gebouwenregister","source_id":"gebouw/Gebouw.18964032/0","kind":"building","height_m":7.16,"status":null},"geometry":{"type":"Polygon","coordinates":[[[4.01517732,50.9292931],[4.01505657,50.92925353],[4.01508643,50.92921714],[4.01505632,50.92920727],[4.01510128,50.92915247],[4.01510916,50.92915505],[4.01515148,50.92910348],[4.01524836,50.92913522],[4.01520696,50.92918609],[4.01525252,50.92920145],[4.01517732,50.9292931]]]}},{"type":"Feature","id":"gebouw/Gebouw.19837195/0","properties":{"source":"Digitaal Vlaanderen Gebouwenregister","source_id":"gebouw/Gebouw.19837195/0","kind":"building","height_m":5.0,"status":null},"geometry":{"type":"Polygon","coordinates":[[[4.01549856,50.92887999],[4.01540967,50.92893968],[4.01533665,50.92889704],[4.0154254,50.92883727],[4.01549856,50.92887999]]]}},{"type":"Feature","id":"gebouw/Gebouw.19837196/0","properties":{"source":"Digitaal Vlaanderen Gebouwenregister","source_id":"gebouw/Gebouw.19837196/0","kind":"building","height_m":5.72,"status":null},"geometry":{"type":"Polygon","coordinates":[[[4.01557083,50.92883146],[4.01550089,50.92887843],[4.01549856,50.92887999],[4.0154254,50.92883727],[4.01542782,50.92883564],[4.01549823,50.92878822],[4.01557083,50.92883146]]]}},{"type":"Feature","id":"gebouw/Gebouw.19837197/0","properties":{"source":"Digitaal Vlaanderen Gebouwenregister","source_id":"gebouw/Gebouw.19837197/0","kind":"building","height_m":6.44,"status":null},"geometry":{"type":"Polygon","coordinates":[[[4.01563629,50.92883671],[4.01545431,50.92896601],[4.01540967,50.92893968],[4.01549856,50.92887999],[4.01550089,50.92887843],[4.01557083,50.92883146],[4.01559774,50.92881414],[4.01563629,50.92883671]]]}},{"type":"Feature","id":"gebouw/Gebouw.19837198/0","properties":{"source":"Digitaal Vlaanderen Gebouwenregister","source_id":"gebouw/Gebouw.19837198/0","kind":"building","height_m":7.16,"status":null},"geometry":{"type":"Polygon","coordinates":[[[4.01566154,50.92881876],[4.01563629,50.92883671],[4.01559774,50.92881414],[4.01562429,50.92879705],[4.01566154,50.92881876]]]}},{"type":"Feature","id":"gebouw/Gebouw.19864399/0","properties":{"source":"Digitaal Vlaanderen Gebouwenregister","source_id":"gebouw/Gebouw.19864399/0","kind":"building","height_m":6.44,"status":null},"geometry":{"type":"Polygon","coordinates":[[[4.01564635,50.9288426],[4.01566795,50.92885525],[4.01568097,50.92886288],[4.01565955,50.92888059],[4.01549688,50.92899071],[4.01545431,50.92896601],[4.01563629,50.92883671],[4.01564635,50.9288426]]]}},{"type":"Feature","id":"gebouw/Gebouw.19864402/0","properties":{"source":"Digitaal Vlaanderen Gebouwenregister","source_id":"gebouw/Gebouw.19864402/0","kind":"building","height_m":8.6,"status":null},"geometry":{"type":"Polygon","coordinates":[[[4.01566574,50.92882104],[4.01566154,50.92881876],[4.01563629,50.92883671],[4.01564635,50.9288426],[4.01566795,50.92885525],[4.01568097,50.92886288],[4.0157049,50.92884309],[4.01566988,50.92882337],[4.01566574,50.92882104]]]}},{"type":"Feature","id":"gebouw/Gebouw.20145731/0","properties":{"source":"Digitaal Vlaanderen Gebouwenregister","source_id":"gebouw/Gebouw.20145731/0","kind":"building","height_m":7.88,"status":null},"geometry":{"type":"Polygon","coordinates":[[[4.01504956,50.92935352],[4.01511775,50.92937538],[4.01505908,50.92944845],[4.0149909,50.92942659],[4.01504956,50.92935352]]]}},{"type":"Feature","id":"gebouw/Gebouw.30706091/0","properties":{"source":"Digitaal Vlaanderen Gebouwenregister","source_id":"gebouw/Gebouw.30706091/0","kind":"building","height_m":7.16,"status":null},"geometry":{"type":"Polygon","coordinates":[[[4.01231056,50.92930441],[4.01228302,50.92933598],[4.01237638,50.9293685],[4.01240308,50.92933788],[4.01299299,50.92954336],[4.01304031,50.9294891],[4.01307137,50.92949992],[4.01311009,50.92945553],[4.01307903,50.92944471],[4.0131134,50.9294053],[4.01242732,50.92916632],[4.01285221,50.92867915],[4.0127301,50.92863661],[4.01223318,50.92920638],[4.01233586,50.92924215],[4.01232708,50.92925222],[4.01232576,50.92925177],[4.01229845,50.92924225],[4.0122597,50.92928669],[4.01231056,50.92930441]]]}},{"type":"Feature","id":"gebouw/Gebouw.31145051/0","properties":{"source":"Digitaal Vlaanderen Gebouwenregister","source_id":"gebouw/Gebouw.31145051/0","kind":"building","height_m":5.0,"status":null},"geometry":{"type":"Polygon","coordinates":[[[4.0157742,50.93032384],[4.01570508,50.93030141],[4.01571919,50.93028405],[4.01578831,50.93030648],[4.0157742,50.93032384]]]}},{"type":"Feature","id":"gebouw/Gebouw.31145052/0","properties":{"source":"Digitaal Vlaanderen Gebouwenregister","source_id":"gebouw/Gebouw.31145052/0","kind":"building","height_m":5.72,"status":null},"geometry":{"type":"Polygon","coordinates":[[[4.01568471,50.92990323],[4.01568029,50.92990868],[4.01554869,50.93007107],[4.0155112,50.93005918],[4.01548206,50.93004993],[4.01561565,50.92988087],[4.01568471,50.92990323]]]}},{"type":"Feature","id":"gebouw/Gebouw.31145053/0","properties":{"source":"Digitaal Vlaanderen Gebouwenregister","source_id":"gebouw/Gebouw.31145053/0","kind":"building","height_m":6.44,"status":null},"geometry":{"type":"Polygon","coordinates":[[[4.01510356,50.92865767],[4.0150518,50.92862925],[4.01508903,50.92860216],[4.01514079,50.92863058],[4.01510356,50.92865767]]]}},{"type":"Feature","id":"gebouw/Gebouw.31155961/0","properties":{"source":"Digitaal Vlaanderen Gebouwenregister","source_id":"gebouw/Gebouw.31155961/0","kind":"building","height_m":7.88,"status":null},"geometry":{"type":"Polygon","coordinates":[[[4.01531169,50.92871232],[4.01519397,50.92881292],[4.01508913,50.928752],[4.01509075,50.92875095],[4.01522947,50.92866093],[4.01531169,50.92871232]]]}},{"type":"Feature","id":"gebouw/Gebouw.31155963/0","properties":{"source":"Digitaal Vlaanderen Gebouwenregister","source_id":"gebouw/Gebouw.31155963/0","kind":"building","height_m":9.32,"status":null},"geometry":{"type":"Polygon","coordinates":[[[4.01522947,50.92866093],[4.01509075,50.92875095],[4.01503777,50.92871848],[4.0151767,50.92862795],[4.01522947,50.92866093]]]}},{"type":"Feature","id":"way/161458841","properties":{"source":"OpenStreetMap","source_id":"way/161458841","kind":"vegetation","name":null,"waterway":null,"landuse":"forest"},"geometry":{"type":"Polygon","coordinates":[[[4.0153664,50.9339551],[4.0155714,50.9332905],[4.0150053,50.9333734],[4.0149081,50.933204],[4.0136101,50.9335572],[4.013267,50.933604],[4.0128839,50.933586],[4.0126552,50.933622],[4.0122549,50.9339536],[4.012558,50.9342554],[4.0127138,50.9341529],[4.0127256,50.9340331],[4.0134944,50.9337185],[4.0136777,50.9339335],[4.0148513,50.9337044],[4.01531,50.9335273],[4.0152314,50.9338968],[4.0153664,50.9339551]]]}},{"type":"Feature","id":"way/575543395","properties":{"source":"OpenStreetMap","source_id":"way/575543395","kind":"waterway","name":"Ediksveldebeek","waterway":"stream","landuse":null},"geometry":{"type":"LineString","coordinates":[[4.0106562,50.9291183],[4.0117701,50.9297692],[4.0119002,50.9299075],[4.0121929,50.9300357],[4.0127133,50.9302919],[4.0134125,50.9306557],[4.0142907,50.9311118],[4.0149086,50.9314705],[4.0159372,50.9319952]]}},{"type":"Feature","id":"way/575543398","properties":{"source":"OpenStreetMap","source_id":"way/575543398","kind":"waterway","name":"Ediksveldebeek","waterway":"stream","landuse":null},"geometry":{"type":"LineString","coordinates":[[4.009035,50.928675],[4.0096631,50.9288556],[4.0102404,50.9289927],[4.0106562,50.9291183]]}},{"type":"Feature","id":"way/575545622","properties":{"source":"OpenStreetMap","source_id":"way/575545622","kind":"waterway","name":"Siezegembeek","waterway":"stream","landuse":null},"geometry":{"type":"LineString","coordinates":[[4.0153198,50.93334],[4.0165557,50.9331926]]}},{"type":"Feature","id":"way/575545624","properties":{"source":"OpenStreetMap","source_id":"way/575545624","kind":"waterway","name":"Siezegembeek","waterway":"stream","landuse":null},"geometry":{"type":"LineString","coordinates":[[4.0112823,50.9352809],[4.0115508,50.9351678]]}},{"type":"Feature","id":"way/575545625","properties":{"source":"OpenStreetMap","source_id":"way/575545625","kind":"waterway","name":"Siezegembeek","waterway":"stream","landuse":null},"geometry":{"type":"LineString","coordinates":[[4.0115508,50.9351678],[4.0118145,50.9349256],[4.0119371,50.9348307],[4.012041,50.9346799],[4.012558,50.9342554],[4.0127138,50.9341529],[4.0127256,50.9340331],[4.0134944,50.9337185],[4.0143279,50.9335552],[4.0149763,50.9333899],[4.0153198,50.93334]]}}]}