{"type":"FeatureCollection","features":[{"type":"Feature","id":"gebouw/Gebouw.9761399/0","properties":{"source":"Digitaal Vlaanderen Gebouwenregister","source_id":"gebouw/Gebouw.9761399/0","kind":"building","height_m":7.88,"status":null},"geometry":{"type":"Polygon","coordinates":[[[4.00798342,50.95549311],[4.00795884,50.95552393],[4.00791421,50.95550771],[4.00793995,50.95547802],[4.00798342,50.95549311]]]}},{"type":"Feature","id":"gebouw/Gebouw.15706514/0","properties":{"source":"Digitaal Vlaanderen Gebouwenregister","source_id":"gebouw/Gebouw.15706514/0","kind":"building","height_m":8.6,"status":null},"geometry":{"type":"Polygon","coordinates":[[[4.01332044,50.96207871],[4.01328364,50.96210878],[4.01321868,50.96207698],[4.0132531,50.96204586],[4.01332044,50.96207871]]]}},{"type":"Feature","id":"gebouw/Gebouw.15882111/0","properties":{"source":"Digitaal Vlaanderen Gebouwenregister","source_id":"gebouw/Gebouw.15882111/0","kind":"building","height_m":5.0,"status":null},"geometry":{"type":"Polygon","coordinates":[[[4.01603796,50.96120193],[4.01596771,50.96119009],[4.01602089,50.96107852],[4.01609189,50.96108961],[4.01603796,50.96120193]]]}},{"type":"Feature","id":"gebouw/Gebouw.15945666/0","properties":{"source":"Digitaal Vlaanderen Gebouwenregister","source_id":"gebouw/Gebouw.15945666/0","kind":"building","height_m":6.44,"status":null},"geometry":{"type":"Polygon","coordinates":[[[4.01293336,50.95879132],[4.01288948,50.95875677],[4.01293206,50.95873606],[4.01294097,50.95874356],[4.01295117,50.95873839],[4.01295993,50.95874528],[4.01297094,50.9587397],[4.01299872,50.95876157],[4.0129652,50.95877855],[4.0129626,50.9587765],[4.01293336,50.95879132]]]}},{"type":"Feature","id":"gebouw/Gebouw.15979569/0","properties":{"source":"Digitaal Vlaanderen Gebouwenregister","source_id":"gebouw/Gebouw.15979569/0","kind":"building","height_m":7.88,"status":null},"geometry":{"type":"Polygon","coordinates":[[[4.01370473,50.9619664],[4.01373734,50.96197852],[4.01370077,50.96202097],[4.01366281,50.96200792],[4.01370473,50.9619664]]]}},{"type":"Feature","id":"gebouw/Gebouw.18491251/0","properties":{"source":"Digitaal Vlaanderen Gebouwenregister","source_id":"gebouw/Gebouw.18491251/0","kind":"building","height_m":6.44,"status":null},"geometry":{"type":"Polygon","coordinates":[[[4.01328154,50.96206462],[4.01324488,50.96209665],[4.01321463,50.96208268],[4.01325042,50.96205092],[4.01328154,50.96206462]]]}},{"type":"Feature","id":"gebouw/Gebouw.19847819/0","properties":{"source":"Digitaal Vlaanderen Gebouwenregister","source_id":"gebouw/Gebouw.19847819/0","kind":"building","height_m":8.6,"status":null},"geometry":{"type":"Polygon","coordinates":[[[4.00881857,50.95544983],[4.00883041,50.95545232],[4.0088274,50.95545846],[4.00892334,50.9554772],[4.00905361,50.95550265],[4.00902086,50.95556954],[4.00889158,50.95554428],[4.00874191,50.95551505],[4.00877807,50.9554412],[4.00881857,50.95544983]]]}},{"type":"Feature","id":"gebouw/Gebouw.20146511/0","properties":{"source":"Digitaal Vlaanderen Gebouwenregister","source_id":"gebouw/Gebouw.20146511/0","kind":"building","height_m":5.0,"status":null},"geometry":{"type":"Polygon","coordinates":[[[4.01300685,50.958847],[4.01305233,50.95882038],[4.01303581,50.95880912],[4.01306157,50.95879404],[4.01308424,50.95880949],[4.01306779,50.95881912],[4.01318106,50.9588963],[4.01312627,50.95892837],[4.01300685,50.958847]]]}},{"type":"Feature","id":"gebouw/Gebouw.30589851/0","properties":{"source":"Digitaal Vlaanderen Gebouwenregister","source_id":"gebouw/Gebouw.30589851/0","kind":"building","height_m":8.6,"status":null},"geometry":{"type":"Polygon","coordinates":[[[4.01079686,50.95759978],[4.01065931,50.95765169],[4.01056946,50.95755672],[4.01070701,50.95750481],[4.01079686,50.95759978]]]}},{"type":"Feature","id":"gebouw/Gebouw.30642416/0","properties":{"source":"Digitaal Vlaanderen Gebouwenregister","source_id":"gebouw/Gebouw.30642416/0","kind":"building","height_m":5.0,"status":null},"geometry":{"type":"Polygon","coordinates":[[[4.01209507,50.95600159],[4.0120065,50.9560329],[4.01201005,50.95603796],[4.01193343,50.95607487],[4.01188248,50.95609941],[4.01185627,50.95607771],[4.01198461,50.95601045],[4.01199985,50.95600403],[4.01207412,50.95597276],[4.01209507,50.95600159]]]}},{"type":"Feature","id":"gebouw/Gebouw.31806601/0","properties":{"source":"Digitaal Vlaanderen Gebouwenregister","source_id":"gebouw/Gebouw.31806601/0","kind":"building","height_m":5.72,"status":null},"geometry":{"type":"Polygon","coordinates":[[[4.0131242,50.95892774],[4.01317515,50.95889828],[4.01306111,50.9588196],[4.01301016,50.95884906],[4.0131242,50.95892774]]]}},{"type":"Feature","id":"way/133025309","properties":{"source":"OpenStreetMap","source_id":"way/133025309","kind":"vegetation","name":null,"waterway":null,"landuse":"forest"},"geometry":{"type":"Polygon","coordinates":[[[4.0104909,50.9567436],[4.0112186,50.9555643],[4.011621,50.9556318],[4.0123361,50.9548415],[4.0128366,50.9546788],[4.0121842,50.9555953],[4.0130637,50.9560031],[4.0112928,50.9569453],[4.0104909,50.9567436]]]}},{"type":"Feature","id":"way/152670007","properties":{"source":"OpenStreetMap","source_id":"way/152670007","kind":"vegetation","name":null,"waterway":null,"landuse":"forest"},"geometry":{"type":"Polygon","coordinates":[[[4.0157089,50.9621525],[4.0156191,50.9622293],[4.0152643,50.9620634],[4.0150394,50.9618664],[4.0149773,50.9616978],[4.0148251,50.9612845],[4.0149748,50.9612349],[4.0150976,50.9616303],[4.0153084,50.961918],[4.0157089,50.9621525]]]}},{"type":"Feature","id":"way/152746207","properties":{"source":"OpenStreetMap","source_id":"way/152746207","kind":"vegetation","name":null,"waterway":null,"landuse":"forest"},"geometry":{"type":"Polygon","coordinates":[[[4.0078229,50.9559611],[4.0074526,50.9557934],[4.0071633,50.955675],[4.0069434,50.9555419],[4.006981,50.9554745],[4.0070794,50.9554763],[4.0072298,50.9555583],[4.0074092,50.9555565],[4.0074931,50.9556531],[4.0075625,50.9557078],[4.0077708,50.9557479],[4.0078634,50.9556877],[4.0080023,50.9557716],[4.0080283,50.9558372],[4.0078229,50.9559611]]]}},{"type":"Feature","id":"way/790538153","properties":{"source":"OpenStreetMap","source_id":"way/790538153","kind":"waterway","name":"Torensbeek","waterway":"stream","landuse":null},"geometry":{"type":"LineString","coordinates":[[4.0128142,50.9563079],[4.0128369,50.9563158],[4.0128697,50.9563203],[4.0131117,50.9561991],[4.0131533,50.9561982],[4.0136468,50.9561847],[4.013907,50.9561374],[4.0141243,50.9561307],[4.014304,50.9560276],[4.0143657,50.9559904],[4.0147009,50.9562219],[4.0150014,50.9563773],[4.0153232,50.9564804],[4.0155646,50.9565733],[4.0159535,50.9567372],[4.0160233,50.9567693],[4.0163988,50.9569721]]}},{"type":"Feature","id":"way/790538154","properties":{"source":"OpenStreetMap","source_id":"way/790538154","kind":"waterway","name":"Torensbeek","waterway":"stream","landuse":null},"geometry":{"type":"LineString","coordinates":[[4.0126975,50.9562355],[4.0128142,50.9563079]]}},{"type":"Feature","id":"way/790538155","properties":{"source":"OpenStreetMap","source_id":"way/790538155","kind":"waterway","name":"Torensbeek","waterway":"stream","landuse":null},"geometry":{"type":"LineString","coordinates":[[4.0096913,50.9558603],[4.0098039,50.9558743],[4.0102002,50.9559693],[4.0104369,50.9560555],[4.0108003,50.9561484],[4.0110753,50.9562037],[4.0117069,50.9562147],[4.0121656,50.9562498],[4.0123634,50.9562363],[4.0125404,50.956194],[4.0126116,50.9562018],[4.0126975,50.9562355]]}},{"type":"Feature","id":"way/790538157","properties":{"source":"OpenStreetMap","source_id":"way/790538157","kind":"waterway","name":"Torensbeek","waterway":"stream","landuse":null},"geometry":{"type":"LineString","coordinates":[[4.0094918,50.9558176],[4.0095511,50.9558308]]}},{"type":"Feature","id":"way/790840057","properties":{"source":"OpenStreetMap","source_id":"way/790840057","kind":"waterway","name":"IJsbroekbeek","waterway":"stream","landuse":null},"geometry":{"type":"LineString","coordinates":[[4.0134681,50.9596222],[4.013502,50.9596664],[4.0135929,50.9597548],[4.0138467,50.9598982],[4.0140854,50.9600701]]}},{"type":"Feature","id":"way/790840058","properties":{"source":"OpenStreetMap","source_id":"way/790840058","kind":"waterway","name":"IJsbroekbeek","waterway":"stream","landuse":null},"geometry":{"type":"LineString","coordinates":[[4.0140854,50.9600701],[4.0143838,50.9603219],[4.0145903,50.9604524]]}},{"type":"Feature","id":"way/790840061","properties":{"source":"OpenStreetMap","source_id":"way/790840061","kind":"waterway","name":"IJsbroekbeek","waterway":"stream","landuse":null},"geometry":{"type":"LineString","coordinates":[[4.0149055,50.9612029],[4.014941,50.9612455]]}},{"type":"Feature","id":"way/790840063","properties":{"source":"OpenStreetMap","source_id":"way/790840063","kind":"waterway","name":"IJsbroekbeek","waterway":"stream","landuse":null},"geometry":{"type":"LineString","coordinates":[[4.0157457,50.9621291],[4.0158074,50.962146]]}},{"type":"Feature","id":"way/790840064","properties":{"source":"OpenStreetMap","source_id":"way/790840064","kind":"waterway","name":"IJsbroekbeek","waterway":"stream","landuse":null},"geometry":{"type":"LineString","coordinates":[[4.014941,50.9612455],[4.0149672,50.9612709],[4.0149772,50.961322],[4.0150376,50.9615412],[4.0151683,50.9617464],[4.0151891,50.961776],[4.0153735,50.9619677],[4.0157457,50.9621291]]}}]}