{"type":"FeatureCollection","features":[{"type":"Feature","id":"gebouw/Gebouw.9419620/0","properties":{"source":"Digitaal Vlaanderen Gebouwenregister","source_id":"gebouw/Gebouw.9419620/0","kind":"building","height_m":5.0,"status":null},"geometry":{"type":"Polygon","coordinates":[[[4.01470816,50.96885668],[4.01470391,50.96885945],[4.01465606,50.96889057],[4.01458383,50.96893753],[4.01452993,50.96890448],[4.01460697,50.96885438],[4.01465426,50.96882363],[4.01470816,50.96885668]]]}},{"type":"Feature","id":"gebouw/Gebouw.9443999/0","properties":{"source":"Digitaal Vlaanderen Gebouwenregister","source_id":"gebouw/Gebouw.9443999/0","kind":"building","height_m":8.6,"status":null},"geometry":{"type":"Polygon","coordinates":[[[4.01275213,50.9674331],[4.01271194,50.96745761],[4.01259626,50.96738235],[4.01262749,50.96736403],[4.01254668,50.96730936],[4.0125723,50.96729426],[4.01255547,50.96728279],[4.01260165,50.96725657],[4.01280832,50.96740173],[4.01275773,50.96743227],[4.01275599,50.96743075],[4.01275213,50.9674331]]]}},{"type":"Feature","id":"gebouw/Gebouw.9462497/0","properties":{"source":"Digitaal Vlaanderen Gebouwenregister","source_id":"gebouw/Gebouw.9462497/0","kind":"building","height_m":6.44,"status":null},"geometry":{"type":"Polygon","coordinates":[[[4.01268372,50.96755582],[4.01262574,50.96750686],[4.01268439,50.96747773],[4.01273761,50.96752701],[4.01268372,50.96755582]]]}},{"type":"Feature","id":"gebouw/Gebouw.9841643/0","properties":{"source":"Digitaal Vlaanderen Gebouwenregister","source_id":"gebouw/Gebouw.9841643/0","kind":"building","height_m":5.0,"status":null},"geometry":{"type":"Polygon","coordinates":[[[4.01478396,50.96852959],[4.0144589,50.9683094],[4.0144078,50.96834208],[4.01442687,50.96835397],[4.01428126,50.96844099],[4.0142967,50.96845109],[4.01409434,50.96857485],[4.01408912,50.96857804],[4.01413922,50.96861156],[4.01413388,50.96861496],[4.01411829,50.9686249],[4.01400606,50.96869644],[4.01436495,50.96893452],[4.0144807,50.96886178],[4.01450411,50.96884708],[4.01446166,50.96881737],[4.01443558,50.96879912],[4.01439303,50.96876935],[4.01459535,50.96864527],[4.01464827,50.96861281],[4.01478396,50.96852959]]]}},{"type":"Feature","id":"gebouw/Gebouw.15664949/0","properties":{"source":"Digitaal Vlaanderen Gebouwenregister","source_id":"gebouw/Gebouw.15664949/0","kind":"building","height_m":9.32,"status":null},"geometry":{"type":"Polygon","coordinates":[[[4.01517009,50.96481315],[4.01523729,50.96478125],[4.01530559,50.96483863],[4.01528447,50.96484865],[4.01531233,50.96487223],[4.01528531,50.96488466],[4.01529294,50.96489139],[4.01523895,50.96491651],[4.01521392,50.96489505],[4.01516287,50.9648513],[4.01519651,50.96483534],[4.01517009,50.96481315]]]}},{"type":"Feature","id":"gebouw/Gebouw.15702152/0","properties":{"source":"Digitaal Vlaanderen Gebouwenregister","source_id":"gebouw/Gebouw.15702152/0","kind":"building","height_m":7.88,"status":null},"geometry":{"type":"Polygon","coordinates":[[[4.01236015,50.96394775],[4.01223866,50.96391373],[4.01248066,50.96356909],[4.01240519,50.9635528],[4.01233951,50.96353863],[4.01235468,50.96351234],[4.01237812,50.96351774],[4.01245306,50.96338789],[4.01262259,50.96342691],[4.01259821,50.96346914],[4.01258348,50.96349467],[4.01257749,50.96350505],[4.01264595,50.96352042],[4.01267602,50.96352717],[4.01263599,50.96358419],[4.01254481,50.96371403],[4.01257602,50.96372277],[4.01250951,50.96381748],[4.01247831,50.96380874],[4.0124773,50.96381018],[4.01246013,50.96380537],[4.01236015,50.96394775]]]}},{"type":"Feature","id":"gebouw/Gebouw.15729978/0","properties":{"source":"Digitaal Vlaanderen Gebouwenregister","source_id":"gebouw/Gebouw.15729978/0","kind":"building","height_m":8.6,"status":null},"geometry":{"type":"Polygon","coordinates":[[[4.01213388,50.964395],[4.01205513,50.96436395],[4.01207307,50.9643458],[4.01215182,50.96437685],[4.01213388,50.964395]]]}},{"type":"Feature","id":"gebouw/Gebouw.15734640/0","properties":{"source":"Digitaal Vlaanderen Gebouwenregister","source_id":"gebouw/Gebouw.15734640/0","kind":"building","height_m":8.6,"status":null},"geometry":{"type":"Polygon","coordinates":[[[4.01482413,50.96368875],[4.01480579,50.96370843],[4.01494065,50.96375485],[4.01488266,50.96382204],[4.01466623,50.96374754],[4.01472422,50.96368035],[4.01473485,50.96368401],[4.01475455,50.96366288],[4.01482413,50.96368875]]]}},{"type":"Feature","id":"gebouw/Gebouw.15738752/0","properties":{"source":"Digitaal Vlaanderen Gebouwenregister","source_id":"gebouw/Gebouw.15738752/0","kind":"building","height_m":5.72,"status":null},"geometry":{"type":"Polygon","coordinates":[[[4.01540283,50.96439641],[4.01530877,50.96441594],[4.01518109,50.96434009],[4.01524716,50.9642935],[4.015249,50.96429235],[4.01534358,50.96435098],[4.01535377,50.96435781],[4.01540283,50.96439641]]]}},{"type":"Feature","id":"gebouw/Gebouw.15741967/0","properties":{"source":"Digitaal Vlaanderen Gebouwenregister","source_id":"gebouw/Gebouw.15741967/0","kind":"building","height_m":7.16,"status":null},"geometry":{"type":"Polygon","coordinates":[[[4.01578236,50.96505191],[4.0157634,50.96504225],[4.01572207,50.96507459],[4.01571864,50.96507727],[4.01571382,50.96507481],[4.0157084,50.96507906],[4.01566463,50.96505676],[4.01566805,50.96505408],[4.01557587,50.96500695],[4.0156362,50.96496016],[4.01566979,50.96497742],[4.01568524,50.96496666],[4.01571558,50.96498223],[4.01572365,50.96497618],[4.01576405,50.96494592],[4.01585716,50.96499336],[4.01578236,50.96505191]]]}},{"type":"Feature","id":"gebouw/Gebouw.15755288/0","properties":{"source":"Digitaal Vlaanderen Gebouwenregister","source_id":"gebouw/Gebouw.15755288/0","kind":"building","height_m":7.16,"status":null},"geometry":{"type":"Polygon","coordinates":[[[4.01296881,50.96254657],[4.01299423,50.96255682],[4.01296922,50.96258158],[4.01294403,50.96257142],[4.01285138,50.96266435],[4.01274524,50.96262111],[4.01294947,50.96241946],[4.01312798,50.9624885],[4.0130943,50.96252285],[4.01302235,50.96249287],[4.01296881,50.96254657]]]}},{"type":"Feature","id":"gebouw/Gebouw.15793172/0","properties":{"source":"Digitaal Vlaanderen Gebouwenregister","source_id":"gebouw/Gebouw.15793172/0","kind":"building","height_m":7.16,"status":null},"geometry":{"type":"Polygon","coordinates":[[[4.01468188,50.96311904],[4.01464367,50.96310508],[4.01467432,50.96307163],[4.01471253,50.96308559],[4.01468188,50.96311904]]]}},{"type":"Feature","id":"gebouw/Gebouw.15808592/0","properties":{"source":"Digitaal Vlaanderen Gebouwenregister","source_id":"gebouw/Gebouw.15808592/0","kind":"building","height_m":6.44,"status":null},"geometry":{"type":"Polygon","coordinates":[[[4.01462963,50.96320594],[4.01460512,50.9632397],[4.01455344,50.96322487],[4.01457778,50.96319105],[4.01462963,50.96320594]]]}},{"type":"Feature","id":"gebouw/Gebouw.15820859/0","properties":{"source":"Digitaal Vlaanderen Gebouwenregister","source_id":"gebouw/Gebouw.15820859/0","kind":"building","height_m":8.6,"status":null},"geometry":{"type":"Polygon","coordinates":[[[4.01321507,50.96358646],[4.0132644,50.96360046],[4.01326201,50.96360379],[4.01328138,50.9636093],[4.01329347,50.96359263],[4.01336406,50.96361265],[4.0133349,50.96365365],[4.01325893,50.96376047],[4.01322866,50.96375188],[4.01323902,50.96373732],[4.0131842,50.96372177],[4.01318867,50.96371549],[4.01314448,50.96370295],[4.01318992,50.96363907],[4.01317968,50.96363617],[4.01318589,50.96362745],[4.01321507,50.96358646]]]}},{"type":"Feature","id":"gebouw/Gebouw.15826471/0","properties":{"source":"Digitaal Vlaanderen Gebouwenregister","source_id":"gebouw/Gebouw.15826471/0","kind":"building","height_m":7.16,"status":null},"geometry":{"type":"Polygon","coordinates":[[[4.01383471,50.96258622],[4.01385951,50.96259463],[4.01384323,50.96261364],[4.01382602,50.96263373],[4.01379855,50.96262431],[4.01381746,50.96260439],[4.01383471,50.96258622]]]}},{"type":"Feature","id":"gebouw/Gebouw.15836750/0","properties":{"source":"Digitaal Vlaanderen Gebouwenregister","source_id":"gebouw/Gebouw.15836750/0","kind":"building","height_m":9.32,"status":null},"geometry":{"type":"Polygon","coordinates":[[[4.01312263,50.96352377],[4.01304352,50.96363106],[4.0129146,50.96359315],[4.0129937,50.96348586],[4.01312263,50.96352377]]]}},{"type":"Feature","id":"gebouw/Gebouw.15844014/0","properties":{"source":"Digitaal Vlaanderen Gebouwenregister","source_id":"gebouw/Gebouw.15844014/0","kind":"building","height_m":7.88,"status":null},"geometry":{"type":"Polygon","coordinates":[[[4.01392075,50.96341022],[4.01399526,50.96330934],[4.01405415,50.96332669],[4.01404815,50.96333481],[4.01411685,50.96335504],[4.01410334,50.96337333],[4.01415283,50.96338791],[4.01408993,50.96347437],[4.01403053,50.96345714],[4.01403912,50.96344509],[4.01392075,50.96341022]]]}},{"type":"Feature","id":"gebouw/Gebouw.15854483/0","properties":{"source":"Digitaal Vlaanderen Gebouwenregister","source_id":"gebouw/Gebouw.15854483/0","kind":"building","height_m":5.72,"status":null},"geometry":{"type":"Polygon","coordinates":[[[4.01212375,50.96286399],[4.01205162,50.9629638],[4.01197703,50.96294293],[4.01199958,50.9629105],[4.01198649,50.96290698],[4.01202376,50.96285165],[4.01206072,50.96286158],[4.01207178,50.96284515],[4.01207707,50.96284657],[4.01209325,50.96282255],[4.01214387,50.96283615],[4.01212375,50.96286399]]]}},{"type":"Feature","id":"gebouw/Gebouw.15856828/0","properties":{"source":"Digitaal Vlaanderen Gebouwenregister","source_id":"gebouw/Gebouw.15856828/0","kind":"building","height_m":5.72,"status":null},"geometry":{"type":"Polygon","coordinates":[[[4.01187491,50.96321694],[4.01183118,50.96327662],[4.01179195,50.96326494],[4.0118015,50.96325214],[4.01179778,50.96325103],[4.01184124,50.96319284],[4.01179407,50.96317879],[4.01178971,50.9631775],[4.01180005,50.96316325],[4.01184585,50.96310013],[4.01188801,50.96311233],[4.01188591,50.96311516],[4.01193846,50.96313018],[4.01187491,50.96321694]]]}},{"type":"Feature","id":"gebouw/Gebouw.15894253/0","properties":{"source":"Digitaal Vlaanderen Gebouwenregister","source_id":"gebouw/Gebouw.15894253/0","kind":"building","height_m":7.88,"status":null},"geometry":{"type":"Polygon","coordinates":[[[4.01559066,50.96546717],[4.01558112,50.96547498],[4.01557445,50.96548044],[4.01560786,50.96549671],[4.01553047,50.96556008],[4.0153929,50.96549236],[4.01547738,50.96542317],[4.01548593,50.96541617],[4.01559066,50.96546717]]]}},{"type":"Feature","id":"gebouw/Gebouw.15905861/0","properties":{"source":"Digitaal Vlaanderen Gebouwenregister","source_id":"gebouw/Gebouw.15905861/0","kind":"building","height_m":9.32,"status":null},"geometry":{"type":"Polygon","coordinates":[[[4.01366281,50.96276727],[4.01363343,50.96279822],[4.01357765,50.96277779],[4.01360633,50.96274657],[4.01366281,50.96276727]]]}},{"type":"Feature","id":"gebouw/Gebouw.15914652/0","properties":{"source":"Digitaal Vlaanderen Gebouwenregister","source_id":"gebouw/Gebouw.15914652/0","kind":"building","height_m":8.6,"status":null},"geometry":{"type":"Polygon","coordinates":[[[4.0152932,50.96357069],[4.01518427,50.96365748],[4.01513647,50.96363378],[4.01513156,50.96363135],[4.01516493,50.96360737],[4.01507991,50.96355935],[4.01508413,50.96355635],[4.01516454,50.96349917],[4.0152932,50.96357069]]]}},{"type":"Feature","id":"gebouw/Gebouw.15922809/0","properties":{"source":"Digitaal Vlaanderen Gebouwenregister","source_id":"gebouw/Gebouw.15922809/0","kind":"building","height_m":5.0,"status":null},"geometry":{"type":"Polygon","coordinates":[[[4.01417322,50.96314246],[4.01413121,50.96313027],[4.0141669,50.96308122],[4.01420891,50.96309341],[4.01417322,50.96314246]]]}},{"type":"Feature","id":"gebouw/Gebouw.15932259/0","properties":{"source":"Digitaal Vlaanderen Gebouwenregister","source_id":"gebouw/Gebouw.15932259/0","kind":"building","height_m":5.0,"status":null},"geometry":{"type":"Polygon","coordinates":[[[4.01248517,50.96292216],[4.01239603,50.96289055],[4.01236619,50.96287996],[4.01225812,50.96300148],[4.01232306,50.96302451],[4.01233035,50.96301681],[4.01238836,50.96303748],[4.0124899,50.96292384],[4.01248517,50.96292216]]]}},{"type":"Feature","id":"gebouw/Gebouw.15934611/0","properties":{"source":"Digitaal Vlaanderen Gebouwenregister","source_id":"gebouw/Gebouw.15934611/0","kind":"building","height_m":5.0,"status":null},"geometry":{"type":"Polygon","coordinates":[[[4.01272573,50.96293586],[4.01259113,50.96306914],[4.01252934,50.96304459],[4.01256095,50.96301295],[4.01253424,50.963002],[4.01259151,50.96294634],[4.01263383,50.96296307],[4.01269662,50.96289972],[4.01274352,50.96291824],[4.01272573,50.96293586]]]}},{"type":"Feature","id":"gebouw/Gebouw.15938052/0","properties":{"source":"Digitaal Vlaanderen Gebouwenregister","source_id":"gebouw/Gebouw.15938052/0","kind":"building","height_m":7.88,"status":null},"geometry":{"type":"Polygon","coordinates":[[[4.01446918,50.96501287],[4.01448399,50.96502499],[4.01450249,50.96504012],[4.01450697,50.96503794],[4.01460261,50.96511421],[4.01454824,50.96514121],[4.01445498,50.96506285],[4.01443714,50.96504786],[4.01442257,50.96503562],[4.01446918,50.96501287]]]}},{"type":"Feature","id":"gebouw/Gebouw.15968877/0","properties":{"source":"Digitaal Vlaanderen Gebouwenregister","source_id":"gebouw/Gebouw.15968877/0","kind":"building","height_m":5.72,"status":null},"geometry":{"type":"Polygon","coordinates":[[[4.01416698,50.96492477],[4.01411374,50.96495788],[4.0140811,50.96493619],[4.01413268,50.96490331],[4.01416698,50.96492477]]]}},{"type":"Feature","id":"gebouw/Gebouw.15974582/0","properties":{"source":"Digitaal Vlaanderen Gebouwenregister","source_id":"gebouw/Gebouw.15974582/0","kind":"building","height_m":5.72,"status":null},"geometry":{"type":"Polygon","coordinates":[[[4.0144054,50.96359588],[4.01447666,50.96349757],[4.01458508,50.96352891],[4.01451382,50.96362722],[4.01449538,50.96362189],[4.01442536,50.96360165],[4.0144054,50.96359588]]]}},{"type":"Feature","id":"gebouw/Gebouw.15981704/0","properties":{"source":"Digitaal Vlaanderen Gebouwenregister","source_id":"gebouw/Gebouw.15981704/0","kind":"building","height_m":7.88,"status":null},"geometry":{"type":"Polygon","coordinates":[[[4.01541027,50.9637442],[4.0154375,50.96375704],[4.01539643,50.96379177],[4.01536691,50.96377785],[4.01541027,50.9637442]]]}},{"type":"Feature","id":"gebouw/Gebouw.15995299/0","properties":{"source":"Digitaal Vlaanderen Gebouwenregister","source_id":"gebouw/Gebouw.15995299/0","kind":"building","height_m":8.6,"status":null},"geometry":{"type":"Polygon","coordinates":[[[4.01199623,50.96399549],[4.01195503,50.96398549],[4.01194892,50.96398401],[4.01194767,50.96398607],[4.01193197,50.96398144],[4.01192982,50.96397949],[4.01195318,50.9639436],[4.01197279,50.96394824],[4.01197417,50.96394589],[4.01197969,50.96394719],[4.01201678,50.96395589],[4.01199623,50.96399549]]]}},{"type":"Feature","id":"gebouw/Gebouw.16019580/0","properties":{"source":"Digitaal Vlaanderen Gebouwenregister","source_id":"gebouw/Gebouw.16019580/0","kind":"building","height_m":7.16,"status":null},"geometry":{"type":"Polygon","coordinates":[[[4.01399045,50.96399045],[4.01399216,50.96398884],[4.01383466,50.9639219],[4.01385937,50.96389872],[4.01385377,50.96389634],[4.0139153,50.96383861],[4.01413982,50.96393403],[4.01405187,50.96401656],[4.01399045,50.96399045]]]}},{"type":"Feature","id":"gebouw/Gebouw.16027616/0","properties":{"source":"Digitaal Vlaanderen Gebouwenregister","source_id":"gebouw/Gebouw.16027616/0","kind":"building","height_m":7.16,"status":null},"geometry":{"type":"Polygon","coordinates":[[[4.01209069,50.96396877],[4.01210248,50.96395025],[4.0121087,50.96395193],[4.01212442,50.96393219],[4.01218222,50.96394936],[4.01221171,50.96390618],[4.01236799,50.96367735],[4.01224607,50.96364284],[4.0120868,50.96387121],[4.01203045,50.96395202],[4.01209069,50.96396877]]]}},{"type":"Feature","id":"gebouw/Gebouw.16030365/0","properties":{"source":"Digitaal Vlaanderen Gebouwenregister","source_id":"gebouw/Gebouw.16030365/0","kind":"building","height_m":5.72,"status":null},"geometry":{"type":"Polygon","coordinates":[[[4.01387661,50.96328832],[4.01379802,50.96340364],[4.01370922,50.96337951],[4.0137294,50.96335056],[4.01366966,50.96333413],[4.01372894,50.96324819],[4.01379226,50.9632654],[4.01387661,50.96328832]]]}},{"type":"Feature","id":"gebouw/Gebouw.16037859/0","properties":{"source":"Digitaal Vlaanderen Gebouwenregister","source_id":"gebouw/Gebouw.16037859/0","kind":"building","height_m":8.6,"status":null},"geometry":{"type":"Polygon","coordinates":[[[4.01423267,50.9648638],[4.01420355,50.96484827],[4.01423225,50.96482377],[4.01427122,50.96484253],[4.01423267,50.9648638]]]}},{"type":"Feature","id":"gebouw/Gebouw.16045086/0","properties":{"source":"Digitaal Vlaanderen Gebouwenregister","source_id":"gebouw/Gebouw.16045086/0","kind":"building","height_m":5.72,"status":null},"geometry":{"type":"Polygon","coordinates":[[[4.01518109,50.96434009],[4.01524716,50.9642935],[4.0151152,50.96421387],[4.01503255,50.96426848],[4.01504309,50.96427484],[4.01515861,50.96434456],[4.01516732,50.96434981],[4.01518109,50.96434009]]]}},{"type":"Feature","id":"gebouw/Gebouw.16047692/0","properties":{"source":"Digitaal Vlaanderen Gebouwenregister","source_id":"gebouw/Gebouw.16047692/0","kind":"building","height_m":7.16,"status":null},"geometry":{"type":"Polygon","coordinates":[[[4.01579809,50.96558335],[4.01568202,50.96552509],[4.01572079,50.96549429],[4.01583686,50.96555256],[4.01579809,50.96558335]]]}},{"type":"Feature","id":"gebouw/Gebouw.16048063/0","properties":{"source":"Digitaal Vlaanderen Gebouwenregister","source_id":"gebouw/Gebouw.16048063/0","kind":"building","height_m":7.16,"status":null},"geometry":{"type":"Polygon","coordinates":[[[4.01513112,50.96371419],[4.01512698,50.96371777],[4.01503853,50.96379411],[4.01503645,50.9637959],[4.01499205,50.96377545],[4.01507645,50.96369631],[4.0150687,50.96369225],[4.01512977,50.96363956],[4.01513647,50.96363378],[4.01518427,50.96365748],[4.01519225,50.96366143],[4.01514438,50.96370275],[4.01513112,50.96371419]]]}},{"type":"Feature","id":"gebouw/Gebouw.16056604/0","properties":{"source":"Digitaal Vlaanderen Gebouwenregister","source_id":"gebouw/Gebouw.16056604/0","kind":"building","height_m":7.88,"status":null},"geometry":{"type":"Polygon","coordinates":[[[4.01446988,50.96428945],[4.01442512,50.96425096],[4.01450438,50.9642142],[4.01454914,50.96425269],[4.01446988,50.96428945]]]}},{"type":"Feature","id":"gebouw/Gebouw.16064603/0","properties":{"source":"Digitaal Vlaanderen Gebouwenregister","source_id":"gebouw/Gebouw.16064603/0","kind":"building","height_m":6.44,"status":null},"geometry":{"type":"Polygon","coordinates":[[[4.01575461,50.96301851],[4.01573851,50.96303418],[4.01572033,50.96305187],[4.01568494,50.96303718],[4.0157039,50.96301897],[4.01572218,50.9630014],[4.01575461,50.96301851]]]}},{"type":"Feature","id":"gebouw/Gebouw.16066946/0","properties":{"source":"Digitaal Vlaanderen Gebouwenregister","source_id":"gebouw/Gebouw.16066946/0","kind":"building","height_m":5.0,"status":null},"geometry":{"type":"Polygon","coordinates":[[[4.01594142,50.96495323],[4.01595335,50.96494379],[4.01580298,50.96486804],[4.01586776,50.96481676],[4.01596371,50.96486509],[4.01596266,50.96486592],[4.01597003,50.96486963],[4.01595272,50.96488334],[4.0159757,50.96489492],[4.01597903,50.96489228],[4.01600319,50.96490445],[4.01602626,50.96488618],[4.01609736,50.964922],[4.01606565,50.9649471],[4.01608855,50.96495863],[4.01603551,50.96500062],[4.01594142,50.96495323]]]}},{"type":"Feature","id":"gebouw/Gebouw.16072688/0","properties":{"source":"Digitaal Vlaanderen Gebouwenregister","source_id":"gebouw/Gebouw.16072688/0","kind":"building","height_m":6.44,"status":null},"geometry":{"type":"Polygon","coordinates":[[[4.0133706,50.96307503],[4.01339892,50.96308556],[4.01336755,50.96311918],[4.01333882,50.9631085],[4.0133706,50.96307503]]]}},{"type":"Feature","id":"gebouw/Gebouw.16084203/0","properties":{"source":"Digitaal Vlaanderen Gebouwenregister","source_id":"gebouw/Gebouw.16084203/0","kind":"building","height_m":6.44,"status":null},"geometry":{"type":"Polygon","coordinates":[[[4.01340309,50.9632138],[4.0133302,50.96329192],[4.01320788,50.9632464],[4.01328172,50.96316864],[4.01335681,50.96319658],[4.01340309,50.9632138]]]}},{"type":"Feature","id":"gebouw/Gebouw.16111311/0","properties":{"source":"Digitaal Vlaanderen Gebouwenregister","source_id":"gebouw/Gebouw.16111311/0","kind":"building","height_m":9.32,"status":null},"geometry":{"type":"Polygon","coordinates":[[[4.01483318,50.96521732],[4.01479621,50.96519302],[4.01479392,50.96519619],[4.01476108,50.96519632],[4.01475865,50.96519308],[4.01472516,50.96521356],[4.01464192,50.96515927],[4.01470835,50.96511866],[4.01469869,50.96511227],[4.01470065,50.96510263],[4.01472028,50.96509082],[4.01472488,50.96508806],[4.01474313,50.96508926],[4.0147976,50.96512385],[4.01488731,50.96518439],[4.01488215,50.96518753],[4.01483318,50.96521732]]]}},{"type":"Feature","id":"gebouw/Gebouw.16116690/0","properties":{"source":"Digitaal Vlaanderen Gebouwenregister","source_id":"gebouw/Gebouw.16116690/0","kind":"building","height_m":6.44,"status":null},"geometry":{"type":"Polygon","coordinates":[[[4.01491738,50.96488332],[4.01495534,50.96491493],[4.01490532,50.96493825],[4.01486883,50.96490742],[4.01485188,50.96489309],[4.01489991,50.96486877],[4.01491738,50.96488332]]]}},{"type":"Feature","id":"gebouw/Gebouw.16121902/0","properties":{"source":"Digitaal Vlaanderen Gebouwenregister","source_id":"gebouw/Gebouw.16121902/0","kind":"building","height_m":9.32,"status":null},"geometry":{"type":"Polygon","coordinates":[[[4.01527272,50.96400529],[4.01520419,50.9639721],[4.01521132,50.96396681],[4.01515824,50.9639398],[4.0151725,50.96392874],[4.01512098,50.96390189],[4.01510725,50.96391312],[4.01497254,50.96385106],[4.01503645,50.9637959],[4.01503853,50.96379411],[4.01512698,50.96371777],[4.01513112,50.96371419],[4.01518064,50.96373866],[4.01509426,50.96381406],[4.01523196,50.96388259],[4.01528009,50.96390655],[4.01530727,50.96388389],[4.01530969,50.96388505],[4.01532937,50.96386864],[4.01530702,50.96385795],[4.01537293,50.96380299],[4.01549859,50.9638631],[4.01540739,50.96393914],[4.01537558,50.96392393],[4.01527272,50.96400529]]]}},{"type":"Feature","id":"gebouw/Gebouw.16124968/0","properties":{"source":"Digitaal Vlaanderen Gebouwenregister","source_id":"gebouw/Gebouw.16124968/0","kind":"building","height_m":9.32,"status":null},"geometry":{"type":"Polygon","coordinates":[[[4.01342312,50.96393089],[4.01338536,50.96391447],[4.01332367,50.96397106],[4.01336143,50.96398748],[4.01342312,50.96393089]]]}},{"type":"Feature","id":"gebouw/Gebouw.16135765/0","properties":{"source":"Digitaal Vlaanderen Gebouwenregister","source_id":"gebouw/Gebouw.16135765/0","kind":"building","height_m":6.44,"status":null},"geometry":{"type":"Polygon","coordinates":[[[4.01198591,50.96323201],[4.01200031,50.96321002],[4.01202083,50.96317871],[4.01202478,50.96317749],[4.01203952,50.96315721],[4.01195755,50.9631339],[4.0119565,50.96313532],[4.01193846,50.96313018],[4.01187491,50.96321694],[4.0119263,50.96323223],[4.01193612,50.96321908],[4.01198314,50.96323308],[4.01198487,50.9632336],[4.01198591,50.96323201]]]}},{"type":"Feature","id":"gebouw/Gebouw.16136198/0","properties":{"source":"Digitaal Vlaanderen Gebouwenregister","source_id":"gebouw/Gebouw.16136198/0","kind":"building","height_m":5.72,"status":null},"geometry":{"type":"Polygon","coordinates":[[[4.01429432,50.96473252],[4.01425846,50.96470374],[4.01421682,50.96472439],[4.01425301,50.96475344],[4.01425252,50.96475369],[4.01424678,50.96475654],[4.01428421,50.96478657],[4.01428943,50.96478398],[4.01433205,50.9647628],[4.01429432,50.96473252]]]}},{"type":"Feature","id":"gebouw/Gebouw.16138501/0","properties":{"source":"Digitaal Vlaanderen Gebouwenregister","source_id":"gebouw/Gebouw.16138501/0","kind":"building","height_m":5.72,"status":null},"geometry":{"type":"Polygon","coordinates":[[[4.01458217,50.96327132],[4.01450886,50.9633723],[4.01445753,50.96335737],[4.0145311,50.96325646],[4.01458217,50.96327132]]]}},{"type":"Feature","id":"gebouw/Gebouw.16142565/0","properties":{"source":"Digitaal Vlaanderen Gebouwenregister","source_id":"gebouw/Gebouw.16142565/0","kind":"building","height_m":8.6,"status":null},"geometry":{"type":"Polygon","coordinates":[[[4.01498884,50.96511892],[4.0149918,50.96512086],[4.01488731,50.96518439],[4.0147976,50.96512385],[4.0148264,50.96510624],[4.01469367,50.96501649],[4.01476687,50.96497333],[4.01485102,50.96502852],[4.01487123,50.96501624],[4.01491262,50.96504338],[4.01489241,50.96505567],[4.01498884,50.96511892]]]}},{"type":"Feature","id":"gebouw/Gebouw.16147755/0","properties":{"source":"Digitaal Vlaanderen Gebouwenregister","source_id":"gebouw/Gebouw.16147755/0","kind":"building","height_m":5.72,"status":null},"geometry":{"type":"Polygon","coordinates":[[[4.01566121,50.96516886],[4.01562626,50.96519625],[4.01565793,50.96521268],[4.01559076,50.96526859],[4.0154872,50.96521701],[4.0155117,50.96519704],[4.01548833,50.96518515],[4.01547897,50.96519249],[4.01536623,50.96513513],[4.01545623,50.96506458],[4.01566121,50.96516886]]]}},{"type":"Feature","id":"gebouw/Gebouw.16154946/0","properties":{"source":"Digitaal Vlaanderen Gebouwenregister","source_id":"gebouw/Gebouw.16154946/0","kind":"building","height_m":7.16,"status":null},"geometry":{"type":"Polygon","coordinates":[[[4.01499259,50.96418041],[4.01474858,50.96429447],[4.01467594,50.9642325],[4.01491994,50.96411844],[4.01499259,50.96418041]]]}},{"type":"Feature","id":"gebouw/Gebouw.16158049/0","properties":{"source":"Digitaal Vlaanderen Gebouwenregister","source_id":"gebouw/Gebouw.16158049/0","kind":"building","height_m":8.6,"status":null},"geometry":{"type":"Polygon","coordinates":[[[4.01591806,50.96530929],[4.0158645,50.96528627],[4.01588757,50.96526487],[4.01594112,50.96528788],[4.01591806,50.96530929]]]}},{"type":"Feature","id":"gebouw/Gebouw.16158132/0","properties":{"source":"Digitaal Vlaanderen Gebouwenregister","source_id":"gebouw/Gebouw.16158132/0","kind":"building","height_m":7.88,"status":null},"geometry":{"type":"Polygon","coordinates":[[[4.01357676,50.96308109],[4.01352364,50.96306219],[4.01345757,50.96313623],[4.01351069,50.96315513],[4.01357676,50.96308109]]]}},{"type":"Feature","id":"gebouw/Gebouw.16165120/0","properties":{"source":"Digitaal Vlaanderen Gebouwenregister","source_id":"gebouw/Gebouw.16165120/0","kind":"building","height_m":9.32,"status":null},"geometry":{"type":"Polygon","coordinates":[[[4.01533833,50.9646061],[4.01531155,50.96458596],[4.01527166,50.96460396],[4.01529701,50.96462464],[4.01529517,50.96463527],[4.01530861,50.96464669],[4.01526379,50.96466772],[4.01538623,50.96477178],[4.01543409,50.96474933],[4.01541884,50.96473637],[4.01544623,50.96472342],[4.01545387,50.96473004],[4.01552709,50.96469576],[4.01541331,50.96459884],[4.01536888,50.96461965],[4.0153548,50.96460765],[4.01533833,50.9646061]]]}},{"type":"Feature","id":"gebouw/Gebouw.16170731/0","properties":{"source":"Digitaal Vlaanderen Gebouwenregister","source_id":"gebouw/Gebouw.16170731/0","kind":"building","height_m":7.16,"status":null},"geometry":{"type":"Polygon","coordinates":[[[4.01450158,50.96304306],[4.01441405,50.96301641],[4.01442961,50.96299604],[4.0144641,50.96300655],[4.0144703,50.96299844],[4.01452332,50.96301458],[4.01450158,50.96304306]]]}},{"type":"Feature","id":"gebouw/Gebouw.16176070/0","properties":{"source":"Digitaal Vlaanderen Gebouwenregister","source_id":"gebouw/Gebouw.16176070/0","kind":"building","height_m":5.72,"status":null},"geometry":{"type":"Polygon","coordinates":[[[4.01517881,50.96499578],[4.0151236,50.96502862],[4.01498549,50.96491949],[4.01504473,50.96488965],[4.01517679,50.96499417],[4.01517768,50.96499488],[4.01517881,50.96499578]]]}},{"type":"Feature","id":"gebouw/Gebouw.16191860/0","properties":{"source":"Digitaal Vlaanderen Gebouwenregister","source_id":"gebouw/Gebouw.16191860/0","kind":"building","height_m":9.32,"status":null},"geometry":{"type":"Polygon","coordinates":[[[4.01539218,50.96440863],[4.01531365,50.96442542],[4.01530243,50.96443677],[4.01533499,50.96446358],[4.01539218,50.96440863]]]}},{"type":"Feature","id":"gebouw/Gebouw.16197767/0","properties":{"source":"Digitaal Vlaanderen Gebouwenregister","source_id":"gebouw/Gebouw.16197767/0","kind":"building","height_m":8.6,"status":null},"geometry":{"type":"Polygon","coordinates":[[[4.01446178,50.96429864],[4.01446389,50.96430046],[4.01440253,50.96432915],[4.01442108,50.96434496],[4.01448219,50.96431638],[4.01450935,50.96433954],[4.01459344,50.96430054],[4.01454588,50.96425964],[4.01446178,50.96429864]]]}},{"type":"Feature","id":"gebouw/Gebouw.16217277/0","properties":{"source":"Digitaal Vlaanderen Gebouwenregister","source_id":"gebouw/Gebouw.16217277/0","kind":"building","height_m":9.32,"status":null},"geometry":{"type":"Polygon","coordinates":[[[4.01268625,50.96255835],[4.0127306,50.96257559],[4.01252417,50.96275549],[4.0125071,50.96277036],[4.0124574,50.96281367],[4.0124217,50.96279753],[4.01240924,50.96279189],[4.01247566,50.96273424],[4.01268078,50.96255622],[4.01268625,50.96255835]]]}},{"type":"Feature","id":"gebouw/Gebouw.16229565/0","properties":{"source":"Digitaal Vlaanderen Gebouwenregister","source_id":"gebouw/Gebouw.16229565/0","kind":"building","height_m":6.44,"status":null},"geometry":{"type":"Polygon","coordinates":[[[4.01517297,50.96467289],[4.01522656,50.96471965],[4.01515181,50.96475382],[4.01509821,50.96470706],[4.01517297,50.96467289]]]}},{"type":"Feature","id":"gebouw/Gebouw.16242710/0","properties":{"source":"Digitaal Vlaanderen Gebouwenregister","source_id":"gebouw/Gebouw.16242710/0","kind":"building","height_m":5.72,"status":null},"geometry":{"type":"Polygon","coordinates":[[[4.01328172,50.96316864],[4.01320788,50.9632464],[4.01314823,50.96322402],[4.01328541,50.96307345],[4.01331351,50.96308391],[4.01337734,50.96301549],[4.01341412,50.96302919],[4.0133706,50.96307503],[4.01333882,50.9631085],[4.01332229,50.96312591],[4.01330064,50.96314871],[4.01329237,50.96315743],[4.01328172,50.96316864]]]}},{"type":"Feature","id":"gebouw/Gebouw.16247909/0","properties":{"source":"Digitaal Vlaanderen Gebouwenregister","source_id":"gebouw/Gebouw.16247909/0","kind":"building","height_m":9.32,"status":null},"geometry":{"type":"Polygon","coordinates":[[[4.01414791,50.96466785],[4.01417247,50.96465599],[4.01421283,50.96469111],[4.01418949,50.96470197],[4.01414791,50.96466785]]]}},{"type":"Feature","id":"gebouw/Gebouw.16248134/0","properties":{"source":"Digitaal Vlaanderen Gebouwenregister","source_id":"gebouw/Gebouw.16248134/0","kind":"building","height_m":5.0,"status":null},"geometry":{"type":"Polygon","coordinates":[[[4.01212375,50.96286399],[4.01218805,50.96288129],[4.01219276,50.9628743],[4.01221477,50.96288022],[4.01223606,50.96284861],[4.01232239,50.9628718],[4.01226527,50.96292324],[4.01219574,50.96290379],[4.01216255,50.96295111],[4.01215836,50.96294994],[4.0121321,50.96298633],[4.01205162,50.9629638],[4.01212375,50.96286399]]]}},{"type":"Feature","id":"gebouw/Gebouw.16263582/0","properties":{"source":"Digitaal Vlaanderen Gebouwenregister","source_id":"gebouw/Gebouw.16263582/0","kind":"building","height_m":9.32,"status":null},"geometry":{"type":"Polygon","coordinates":[[[4.01621873,50.96415549],[4.01635171,50.96427497],[4.0162394,50.96431841],[4.01620121,50.96433317],[4.01619165,50.96432508],[4.01611796,50.96426269],[4.0159894,50.96415383],[4.01589992,50.96421536],[4.01585421,50.9641888],[4.01579269,50.96415305],[4.0158057,50.96414301],[4.01574916,50.96411132],[4.01582089,50.96405916],[4.01566247,50.96396318],[4.0158415,50.96384533],[4.01589909,50.96387904],[4.01582375,50.96393038],[4.01597644,50.96401973],[4.01601444,50.96404196],[4.01608372,50.96400689],[4.01608112,50.96400485],[4.01612458,50.96398284],[4.0162987,50.96412],[4.01621873,50.96415549]]]}},{"type":"Feature","id":"gebouw/Gebouw.16273604/0","properties":{"source":"Digitaal Vlaanderen Gebouwenregister","source_id":"gebouw/Gebouw.16273604/0","kind":"building","height_m":7.88,"status":null},"geometry":{"type":"Polygon","coordinates":[[[4.01542882,50.9652485],[4.01532279,50.96533035],[4.01524404,50.96528967],[4.01527794,50.9652635],[4.01515887,50.96520199],[4.01523101,50.96514631],[4.01542882,50.9652485]]]}},{"type":"Feature","id":"gebouw/Gebouw.16276516/0","properties":{"source":"Digitaal Vlaanderen Gebouwenregister","source_id":"gebouw/Gebouw.16276516/0","kind":"building","height_m":7.88,"status":null},"geometry":{"type":"Polygon","coordinates":[[[4.01481358,50.96392064],[4.01475708,50.96398889],[4.01453059,50.96391411],[4.0145871,50.96384586],[4.01459862,50.96384967],[4.01481358,50.96392064]]]}},{"type":"Feature","id":"gebouw/Gebouw.16282086/0","properties":{"source":"Digitaal Vlaanderen Gebouwenregister","source_id":"gebouw/Gebouw.16282086/0","kind":"building","height_m":6.44,"status":null},"geometry":{"type":"Polygon","coordinates":[[[4.01412959,50.9630291],[4.01409564,50.96307856],[4.01405459,50.96306732],[4.01409026,50.96301787],[4.01412959,50.9630291]]]}},{"type":"Feature","id":"gebouw/Gebouw.16282316/0","properties":{"source":"Digitaal Vlaanderen Gebouwenregister","source_id":"gebouw/Gebouw.16282316/0","kind":"building","height_m":5.72,"status":null},"geometry":{"type":"Polygon","coordinates":[[[4.01533791,50.96449265],[4.015304,50.96450894],[4.01524565,50.9644605],[4.01528004,50.96444523],[4.01533791,50.96449265]]]}},{"type":"Feature","id":"gebouw/Gebouw.16285443/0","properties":{"source":"Digitaal Vlaanderen Gebouwenregister","source_id":"gebouw/Gebouw.16285443/0","kind":"building","height_m":9.32,"status":null},"geometry":{"type":"Polygon","coordinates":[[[4.01197238,50.96405612],[4.01199023,50.96403042],[4.01210338,50.96406175],[4.01208554,50.96408745],[4.01197238,50.96405612]]]}},{"type":"Feature","id":"gebouw/Gebouw.16313618/0","properties":{"source":"Digitaal Vlaanderen Gebouwenregister","source_id":"gebouw/Gebouw.16313618/0","kind":"building","height_m":9.32,"status":null},"geometry":{"type":"Polygon","coordinates":[[[4.0150395,50.96360795],[4.0149561,50.96370176],[4.01473406,50.96362232],[4.01484051,50.96353827],[4.0150395,50.96360795]]]}},{"type":"Feature","id":"gebouw/Gebouw.16320786/0","properties":{"source":"Digitaal Vlaanderen Gebouwenregister","source_id":"gebouw/Gebouw.16320786/0","kind":"building","height_m":9.32,"status":null},"geometry":{"type":"Polygon","coordinates":[[[4.01470771,50.96412513],[4.01481558,50.96407398],[4.01477542,50.96404021],[4.01480939,50.9640244],[4.01476459,50.9639864],[4.01466333,50.96403337],[4.01462174,50.96405266],[4.01466397,50.9640882],[4.01463044,50.9641041],[4.01465098,50.96412137],[4.01465617,50.96411891],[4.01468345,50.96414185],[4.01471168,50.96412847],[4.01470771,50.96412513]]]}},{"type":"Feature","id":"gebouw/Gebouw.16339383/0","properties":{"source":"Digitaal Vlaanderen Gebouwenregister","source_id":"gebouw/Gebouw.16339383/0","kind":"building","height_m":7.88,"status":null},"geometry":{"type":"Polygon","coordinates":[[[4.01471294,50.96440923],[4.01467811,50.96437973],[4.01473985,50.96435066],[4.01477468,50.96438016],[4.01471294,50.96440923]]]}},{"type":"Feature","id":"gebouw/Gebouw.16339414/0","properties":{"source":"Digitaal Vlaanderen Gebouwenregister","source_id":"gebouw/Gebouw.16339414/0","kind":"building","height_m":5.0,"status":null},"geometry":{"type":"Polygon","coordinates":[[[4.0119518,50.9643499],[4.01187383,50.96433054],[4.01189465,50.96429709],[4.01197263,50.96431645],[4.0119518,50.9643499]]]}},{"type":"Feature","id":"gebouw/Gebouw.16341165/0","properties":{"source":"Digitaal Vlaanderen Gebouwenregister","source_id":"gebouw/Gebouw.16341165/0","kind":"building","height_m":5.72,"status":null},"geometry":{"type":"Polygon","coordinates":[[[4.0136405,50.9657556],[4.01360022,50.96573221],[4.0136587,50.96569435],[4.0136979,50.96571698],[4.0136405,50.9657556]]]}},{"type":"Feature","id":"gebouw/Gebouw.16362770/0","properties":{"source":"Digitaal Vlaanderen Gebouwenregister","source_id":"gebouw/Gebouw.16362770/0","kind":"building","height_m":7.88,"status":null},"geometry":{"type":"Polygon","coordinates":[[[4.01562872,50.96408609],[4.0156032,50.96410497],[4.01555245,50.96407762],[4.01557797,50.96405874],[4.01562872,50.96408609]]]}},{"type":"Feature","id":"gebouw/Gebouw.16367986/0","properties":{"source":"Digitaal Vlaanderen Gebouwenregister","source_id":"gebouw/Gebouw.16367986/0","kind":"building","height_m":8.6,"status":null},"geometry":{"type":"Polygon","coordinates":[[[4.01520081,50.96365405],[4.01527031,50.96368642],[4.01521359,50.96373499],[4.01514438,50.96370275],[4.01519225,50.96366143],[4.01519289,50.96366088],[4.01520081,50.96365405]]]}},{"type":"Feature","id":"gebouw/Gebouw.16381566/0","properties":{"source":"Digitaal Vlaanderen Gebouwenregister","source_id":"gebouw/Gebouw.16381566/0","kind":"building","height_m":8.6,"status":null},"geometry":{"type":"Polygon","coordinates":[[[4.01458851,50.96330791],[4.01460904,50.96327792],[4.01465994,50.96329181],[4.01463941,50.96332181],[4.01458851,50.96330791]]]}},{"type":"Feature","id":"gebouw/Gebouw.16384638/0","properties":{"source":"Digitaal Vlaanderen Gebouwenregister","source_id":"gebouw/Gebouw.16384638/0","kind":"building","height_m":7.88,"status":null},"geometry":{"type":"Polygon","coordinates":[[[4.01463951,50.96502131],[4.0146016,50.96504013],[4.01455507,50.96500195],[4.0145589,50.96500005],[4.01454626,50.9649899],[4.01450628,50.96496191],[4.01448033,50.96494062],[4.01452948,50.96491586],[4.01454459,50.96492688],[4.01453315,50.9649329],[4.01458064,50.96497283],[4.0145703,50.96497796],[4.01458392,50.9649889],[4.01459333,50.96498422],[4.01463951,50.96502131]]]}},{"type":"Feature","id":"gebouw/Gebouw.16397576/0","properties":{"source":"Digitaal Vlaanderen Gebouwenregister","source_id":"gebouw/Gebouw.16397576/0","kind":"building","height_m":9.32,"status":null},"geometry":{"type":"Polygon","coordinates":[[[4.0143948,50.96345504],[4.01444443,50.96338335],[4.01432207,50.96334928],[4.01430389,50.9633746],[4.01429783,50.96337286],[4.01422069,50.96348248],[4.01425916,50.96349327],[4.01423937,50.96352114],[4.01432892,50.96354679],[4.0143948,50.96345504]]]}},{"type":"Feature","id":"gebouw/Gebouw.16400649/0","properties":{"source":"Digitaal Vlaanderen Gebouwenregister","source_id":"gebouw/Gebouw.16400649/0","kind":"building","height_m":9.32,"status":null},"geometry":{"type":"Polygon","coordinates":[[[4.01430627,50.96324032],[4.01423037,50.96321832],[4.01425583,50.96318329],[4.01433172,50.96320529],[4.01430627,50.96324032]]]}},{"type":"Feature","id":"gebouw/Gebouw.16400799/0","properties":{"source":"Digitaal Vlaanderen Gebouwenregister","source_id":"gebouw/Gebouw.16400799/0","kind":"building","height_m":6.44,"status":null},"geometry":{"type":"Polygon","coordinates":[[[4.01292839,50.96316813],[4.01284653,50.96313753],[4.01293034,50.9630481],[4.01311395,50.96311682],[4.01303737,50.96319842],[4.01297027,50.96317331],[4.01297346,50.9631696],[4.01293906,50.96315674],[4.01292839,50.96316813]]]}},{"type":"Feature","id":"gebouw/Gebouw.16466348/0","properties":{"source":"Digitaal Vlaanderen Gebouwenregister","source_id":"gebouw/Gebouw.16466348/0","kind":"building","height_m":7.16,"status":null},"geometry":{"type":"Polygon","coordinates":[[[4.01371579,50.96303803],[4.01366646,50.96302144],[4.01369955,50.96298219],[4.01374888,50.96299878],[4.01371579,50.96303803]]]}},{"type":"Feature","id":"gebouw/Gebouw.16515622/0","properties":{"source":"Digitaal Vlaanderen Gebouwenregister","source_id":"gebouw/Gebouw.16515622/0","kind":"building","height_m":7.88,"status":null},"geometry":{"type":"Polygon","coordinates":[[[4.0161413,50.96434594],[4.01608475,50.96428898],[4.01604721,50.96430384],[4.016048,50.96429187],[4.01604203,50.96428228],[4.01602873,50.96427817],[4.01601209,50.96428106],[4.01599833,50.96428344],[4.01599202,50.96429385],[4.01599203,50.96430603],[4.01595125,50.96429162],[4.01589988,50.96434847],[4.01594188,50.9643636],[4.01598704,50.9643713],[4.0160406,50.96437103],[4.01605616,50.96437095],[4.01609113,50.9643658],[4.0161413,50.96434594]]]}},{"type":"Feature","id":"gebouw/Gebouw.16679981/0","properties":{"source":"Digitaal Vlaanderen Gebouwenregister","source_id":"gebouw/Gebouw.16679981/0","kind":"building","height_m":7.16,"status":null},"geometry":{"type":"Polygon","coordinates":[[[4.01360852,50.96282445],[4.01363405,50.96283411],[4.01360135,50.9628686],[4.01359838,50.96286748],[4.01357119,50.96289616],[4.01354856,50.9628876],[4.01360852,50.96282445]]]}},{"type":"Feature","id":"gebouw/Gebouw.16680011/0","properties":{"source":"Digitaal Vlaanderen Gebouwenregister","source_id":"gebouw/Gebouw.16680011/0","kind":"building","height_m":8.6,"status":null},"geometry":{"type":"Polygon","coordinates":[[[4.01561581,50.96453146],[4.01552558,50.96447953],[4.01558591,50.96443772],[4.01568996,50.96449761],[4.01568142,50.96450334],[4.01570125,50.96451514],[4.01570998,50.9645091],[4.01577502,50.96454654],[4.01565,50.96463265],[4.01555182,50.96457581],[4.01561581,50.96453146]]]}},{"type":"Feature","id":"gebouw/Gebouw.16687893/0","properties":{"source":"Digitaal Vlaanderen Gebouwenregister","source_id":"gebouw/Gebouw.16687893/0","kind":"building","height_m":8.6,"status":null},"geometry":{"type":"Polygon","coordinates":[[[4.01331243,50.96291826],[4.01333754,50.96292782],[4.01336707,50.96293908],[4.01329377,50.96301579],[4.01326424,50.96300453],[4.01323913,50.96299496],[4.01331243,50.96291826]]]}},{"type":"Feature","id":"gebouw/Gebouw.16734148/0","properties":{"source":"Digitaal Vlaanderen Gebouwenregister","source_id":"gebouw/Gebouw.16734148/0","kind":"building","height_m":7.88,"status":null},"geometry":{"type":"Polygon","coordinates":[[[4.01487823,50.96434666],[4.01482587,50.96430168],[4.01490903,50.96426306],[4.01495709,50.96430839],[4.01487823,50.96434666]]]}},{"type":"Feature","id":"gebouw/Gebouw.16778209/0","properties":{"source":"Digitaal Vlaanderen Gebouwenregister","source_id":"gebouw/Gebouw.16778209/0","kind":"building","height_m":5.0,"status":null},"geometry":{"type":"Polygon","coordinates":[[[4.01462174,50.96405266],[4.01466333,50.96403337],[4.01459983,50.96397679],[4.01454719,50.96400035],[4.01453441,50.96398896],[4.01438354,50.96405916],[4.01446255,50.96412651],[4.01462174,50.96405266]]]}},{"type":"Feature","id":"gebouw/Gebouw.16882048/0","properties":{"source":"Digitaal Vlaanderen Gebouwenregister","source_id":"gebouw/Gebouw.16882048/0","kind":"building","height_m":5.72,"status":null},"geometry":{"type":"Polygon","coordinates":[[[4.01272573,50.96293586],[4.01274319,50.96294278],[4.01270184,50.9629845],[4.01280977,50.96302717],[4.01275609,50.96308132],[4.01271832,50.96311942],[4.01259113,50.96306914],[4.01272573,50.96293586]]]}},{"type":"Feature","id":"gebouw/Gebouw.17173182/0","properties":{"source":"Digitaal Vlaanderen Gebouwenregister","source_id":"gebouw/Gebouw.17173182/0","kind":"building","height_m":8.6,"status":null},"geometry":{"type":"Polygon","coordinates":[[[4.01477968,50.96414456],[4.01470911,50.96417785],[4.01468894,50.96416075],[4.01475958,50.96412752],[4.01477968,50.96414456]]]}},{"type":"Feature","id":"gebouw/Gebouw.18729455/0","properties":{"source":"Digitaal Vlaanderen Gebouwenregister","source_id":"gebouw/Gebouw.18729455/0","kind":"building","height_m":7.16,"status":null},"geometry":{"type":"Polygon","coordinates":[[[4.01606301,50.96525143],[4.01601168,50.96529069],[4.01592696,50.96524489],[4.01597807,50.96520644],[4.01606301,50.96525143]]]}},{"type":"Feature","id":"gebouw/Gebouw.18729636/0","properties":{"source":"Digitaal Vlaanderen Gebouwenregister","source_id":"gebouw/Gebouw.18729636/0","kind":"building","height_m":6.44,"status":null},"geometry":{"type":"Polygon","coordinates":[[[4.01407911,50.96467159],[4.01411094,50.96469342],[4.0140596,50.96471752],[4.01403055,50.96469313],[4.01407065,50.9646749],[4.01407864,50.96467127],[4.01407911,50.96467159]]]}},{"type":"Feature","id":"gebouw/Gebouw.18729637/0","properties":{"source":"Digitaal Vlaanderen Gebouwenregister","source_id":"gebouw/Gebouw.18729637/0","kind":"building","height_m":7.16,"status":null},"geometry":{"type":"Polygon","coordinates":[[[4.01409177,50.96466759],[4.01407917,50.96464918],[4.0141596,50.96462937],[4.01417051,50.9646477],[4.01409177,50.96466759]]]}},{"type":"Feature","id":"gebouw/Gebouw.18729638/0","properties":{"source":"Digitaal Vlaanderen Gebouwenregister","source_id":"gebouw/Gebouw.18729638/0","kind":"building","height_m":7.88,"status":null},"geometry":{"type":"Polygon","coordinates":[[[4.01495957,50.96405967],[4.01489787,50.96408864],[4.0148905,50.96409211],[4.01485657,50.96406417],[4.01492454,50.96403055],[4.01495957,50.96405967]]]}},{"type":"Feature","id":"gebouw/Gebouw.18974962/0","properties":{"source":"Digitaal Vlaanderen Gebouwenregister","source_id":"gebouw/Gebouw.18974962/0","kind":"building","height_m":9.32,"status":null},"geometry":{"type":"Polygon","coordinates":[[[4.01360321,50.96368078],[4.01357343,50.9637216],[4.01352408,50.96378927],[4.01339166,50.96375075],[4.01343547,50.963689],[4.01346458,50.96364798],[4.01354023,50.96366939],[4.01354431,50.96366365],[4.01360321,50.96368078]]]}},{"type":"Feature","id":"gebouw/Gebouw.19316682/0","properties":{"source":"Digitaal Vlaanderen Gebouwenregister","source_id":"gebouw/Gebouw.19316682/0","kind":"building","height_m":5.0,"status":null},"geometry":{"type":"Polygon","coordinates":[[[4.0143349,50.96482129],[4.01430416,50.96483615],[4.01429365,50.9648282],[4.01426724,50.96484211],[4.01426354,50.96483931],[4.01423422,50.96485477],[4.01420728,50.96483297],[4.01428569,50.96478091],[4.0143349,50.96482129]]]}},{"type":"Feature","id":"gebouw/Gebouw.19827584/0","properties":{"source":"Digitaal Vlaanderen Gebouwenregister","source_id":"gebouw/Gebouw.19827584/0","kind":"building","height_m":5.0,"status":null},"geometry":{"type":"Polygon","coordinates":[[[4.01236015,50.96394775],[4.01246013,50.96380537],[4.0124773,50.96381018],[4.01247831,50.96380874],[4.01254481,50.96371403],[4.01263599,50.96358419],[4.01267602,50.96352717],[4.01264595,50.96352042],[4.01257749,50.96350505],[4.01258348,50.96349467],[4.01259821,50.96346914],[4.01262259,50.96342691],[4.01245306,50.96338789],[4.01237812,50.96351774],[4.01235468,50.96351234],[4.01233951,50.96353863],[4.0123142,50.96358249],[4.01242274,50.96360747],[4.01244909,50.96356182],[4.01248066,50.96356909],[4.01223866,50.96391373],[4.01236015,50.96394775]]]}},{"type":"Feature","id":"gebouw/Gebouw.19827585/0","properties":{"source":"Digitaal Vlaanderen Gebouwenregister","source_id":"gebouw/Gebouw.19827585/0","kind":"building","height_m":5.72,"status":null},"geometry":{"type":"Polygon","coordinates":[[[4.01254481,50.96371403],[4.01257602,50.96372277],[4.01250951,50.96381748],[4.01247831,50.96380874],[4.01254481,50.96371403]]]}},{"type":"Feature","id":"gebouw/Gebouw.19864809/0","properties":{"source":"Digitaal Vlaanderen Gebouwenregister","source_id":"gebouw/Gebouw.19864809/0","kind":"building","height_m":9.32,"status":null},"geometry":{"type":"Polygon","coordinates":[[[4.01247884,50.96273419],[4.01268078,50.96255622],[4.01268625,50.96255835],[4.0127306,50.96257559],[4.01252459,50.96275512],[4.01247884,50.96273419]]]}},{"type":"Feature","id":"gebouw/Gebouw.19864810/0","properties":{"source":"Digitaal Vlaanderen Gebouwenregister","source_id":"gebouw/Gebouw.19864810/0","kind":"building","height_m":5.0,"status":null},"geometry":{"type":"Polygon","coordinates":[[[4.01252459,50.96275512],[4.0125071,50.96277036],[4.0124574,50.96281367],[4.01241482,50.96279442],[4.01247884,50.96273419],[4.01252459,50.96275512]]]}},{"type":"Feature","id":"gebouw/Gebouw.20145427/0","properties":{"source":"Digitaal Vlaanderen Gebouwenregister","source_id":"gebouw/Gebouw.20145427/0","kind":"building","height_m":5.72,"status":null},"geometry":{"type":"Polygon","coordinates":[[[4.01514608,50.96307659],[4.01520469,50.96309452],[4.01515628,50.96315761],[4.01509768,50.96313969],[4.01514608,50.96307659]]]}},{"type":"Feature","id":"gebouw/Gebouw.20145428/0","properties":{"source":"Digitaal Vlaanderen Gebouwenregister","source_id":"gebouw/Gebouw.20145428/0","kind":"building","height_m":6.44,"status":null},"geometry":{"type":"Polygon","coordinates":[[[4.01402179,50.96457341],[4.01398656,50.9645881],[4.0139449,50.96454824],[4.01398014,50.96453356],[4.01402179,50.96457341]]]}},{"type":"Feature","id":"gebouw/Gebouw.20145429/0","properties":{"source":"Digitaal Vlaanderen Gebouwenregister","source_id":"gebouw/Gebouw.20145429/0","kind":"building","height_m":7.16,"status":null},"geometry":{"type":"Polygon","coordinates":[[[4.01316704,50.9637998],[4.01322249,50.96381539],[4.01318775,50.96386465],[4.01313229,50.96384906],[4.01316704,50.9637998]]]}},{"type":"Feature","id":"gebouw/Gebouw.20145430/0","properties":{"source":"Digitaal Vlaanderen Gebouwenregister","source_id":"gebouw/Gebouw.20145430/0","kind":"building","height_m":7.88,"status":null},"geometry":{"type":"Polygon","coordinates":[[[4.01359879,50.96409358],[4.01363936,50.96411065],[4.0136041,50.96414405],[4.01356327,50.96412686],[4.01355716,50.96412429],[4.01359242,50.96409089],[4.01359879,50.96409358]]]}},{"type":"Feature","id":"gebouw/Gebouw.20145433/0","properties":{"source":"Digitaal Vlaanderen Gebouwenregister","source_id":"gebouw/Gebouw.20145433/0","kind":"building","height_m":5.0,"status":null},"geometry":{"type":"Polygon","coordinates":[[[4.01554725,50.96370413],[4.01551764,50.96368929],[4.01555192,50.96366201],[4.01558153,50.96367684],[4.01554725,50.96370413]]]}},{"type":"Feature","id":"gebouw/Gebouw.20146513/0","properties":{"source":"Digitaal Vlaanderen Gebouwenregister","source_id":"gebouw/Gebouw.20146513/0","kind":"building","height_m":6.44,"status":null},"geometry":{"type":"Polygon","coordinates":[[[4.01191242,50.96364133],[4.01188979,50.96367604],[4.01196579,50.96369567],[4.01198829,50.96366093],[4.01191242,50.96364133]]]}},{"type":"Feature","id":"gebouw/Gebouw.20146514/0","properties":{"source":"Digitaal Vlaanderen Gebouwenregister","source_id":"gebouw/Gebouw.20146514/0","kind":"building","height_m":7.16,"status":null},"geometry":{"type":"Polygon","coordinates":[[[4.01518144,50.96296462],[4.01508984,50.96293276],[4.015141,50.96286605],[4.01523499,50.96289479],[4.01518144,50.96296462]]]}},{"type":"Feature","id":"gebouw/Gebouw.30642412/0","properties":{"source":"Digitaal Vlaanderen Gebouwenregister","source_id":"gebouw/Gebouw.30642412/0","kind":"building","height_m":7.16,"status":null},"geometry":{"type":"Polygon","coordinates":[[[4.01528103,50.96373142],[4.01533241,50.96369005],[4.01538475,50.96371598],[4.01533337,50.96375735],[4.01528103,50.96373142]]]}},{"type":"Feature","id":"gebouw/Gebouw.30642413/0","properties":{"source":"Digitaal Vlaanderen Gebouwenregister","source_id":"gebouw/Gebouw.30642413/0","kind":"building","height_m":7.88,"status":null},"geometry":{"type":"Polygon","coordinates":[[[4.01461649,50.96369393],[4.01461457,50.96369707],[4.01460119,50.96371885],[4.01459529,50.96371741],[4.0145552,50.96370759],[4.0145705,50.96368267],[4.01461649,50.96369393]]]}},{"type":"Feature","id":"gebouw/Gebouw.30642414/0","properties":{"source":"Digitaal Vlaanderen Gebouwenregister","source_id":"gebouw/Gebouw.30642414/0","kind":"building","height_m":8.6,"status":null},"geometry":{"type":"Polygon","coordinates":[[[4.01360818,50.96282481],[4.01357676,50.9628579],[4.01360239,50.96286788],[4.01363446,50.96283504],[4.01360818,50.96282481]]]}},{"type":"Feature","id":"gebouw/Gebouw.30642415/0","properties":{"source":"Digitaal Vlaanderen Gebouwenregister","source_id":"gebouw/Gebouw.30642415/0","kind":"building","height_m":9.32,"status":null},"geometry":{"type":"Polygon","coordinates":[[[4.01322688,50.9624396],[4.01325745,50.96245127],[4.01322965,50.96248032],[4.01319797,50.96246822],[4.01319139,50.96246571],[4.01321919,50.96243666],[4.01322688,50.9624396]]]}},{"type":"Feature","id":"gebouw/Gebouw.30870332/0","properties":{"source":"Digitaal Vlaanderen Gebouwenregister","source_id":"gebouw/Gebouw.30870332/0","kind":"building","height_m":7.16,"status":null},"geometry":{"type":"Polygon","coordinates":[[[4.01215954,50.96327319],[4.01215131,50.96328491],[4.01222942,50.96330679],[4.01228588,50.9632272],[4.01214263,50.96318668],[4.01209248,50.9632544],[4.01215954,50.96327319]]]}},{"type":"Feature","id":"gebouw/Gebouw.31145074/0","properties":{"source":"Digitaal Vlaanderen Gebouwenregister","source_id":"gebouw/Gebouw.31145074/0","kind":"building","height_m":6.44,"status":null},"geometry":{"type":"Polygon","coordinates":[[[4.01478396,50.96852959],[4.0144589,50.9683094],[4.0144078,50.96834208],[4.01433427,50.96829281],[4.01446402,50.96821975],[4.01485678,50.96848661],[4.01478396,50.96852959]]]}},{"type":"Feature","id":"gebouw/Gebouw.31804751/0","properties":{"source":"Digitaal Vlaanderen Gebouwenregister","source_id":"gebouw/Gebouw.31804751/0","kind":"building","height_m":9.32,"status":null},"geometry":{"type":"Polygon","coordinates":[[[4.01428339,50.96506669],[4.01432094,50.96504358],[4.0142283,50.96498353],[4.01419074,50.96500664],[4.01428339,50.96506669]]]}},{"type":"Feature","id":"gebouw/Gebouw.31804829/0","properties":{"source":"Digitaal Vlaanderen Gebouwenregister","source_id":"gebouw/Gebouw.31804829/0","kind":"building","height_m":5.0,"status":null},"geometry":{"type":"Polygon","coordinates":[[[4.01326057,50.96402033],[4.01326795,50.96402345],[4.01325228,50.96403824],[4.01328995,50.96405416],[4.01335647,50.96399139],[4.01331142,50.96397235],[4.01326057,50.96402033]]]}},{"type":"Feature","id":"gebouw/Gebouw.31804934/0","properties":{"source":"Digitaal Vlaanderen Gebouwenregister","source_id":"gebouw/Gebouw.31804934/0","kind":"building","height_m":5.0,"status":null},"geometry":{"type":"Polygon","coordinates":[[[4.01423658,50.96471295],[4.01417259,50.96465906],[4.01415015,50.96466969],[4.01411677,50.9646855],[4.01418077,50.96473939],[4.01421521,50.96472307],[4.01423658,50.96471295]]]}},{"type":"Feature","id":"gebouw/Gebouw.31805883/0","properties":{"source":"Digitaal Vlaanderen Gebouwenregister","source_id":"gebouw/Gebouw.31805883/0","kind":"building","height_m":7.88,"status":null},"geometry":{"type":"Polygon","coordinates":[[[4.01197867,50.96394876],[4.01194905,50.96394055],[4.01190836,50.96399925],[4.01194046,50.96400813],[4.01198089,50.96401931],[4.01199623,50.96399549],[4.01201909,50.96395997],[4.01197867,50.96394876]]]}},{"type":"Feature","id":"gebouw/Gebouw.32028208/0","properties":{"source":"Digitaal Vlaanderen Gebouwenregister","source_id":"gebouw/Gebouw.32028208/0","kind":"building","height_m":6.44,"status":null},"geometry":{"type":"Polygon","coordinates":[[[4.01425846,50.96470374],[4.01429432,50.96473252],[4.01435547,50.96470213],[4.01431967,50.9646734],[4.01425846,50.96470374]]]}},{"type":"Feature","id":"gebouw/Gebouw.32032230/0","properties":{"source":"Digitaal Vlaanderen Gebouwenregister","source_id":"gebouw/Gebouw.32032230/0","kind":"building","height_m":9.32,"status":null},"geometry":{"type":"Polygon","coordinates":[[[4.0142568,50.96486195],[4.01421017,50.96482672],[4.01418792,50.96483847],[4.01418126,50.96484198],[4.01422789,50.96487721],[4.01423166,50.96487522],[4.0142568,50.96486195]]]}},{"type":"Feature","id":"way/152632772","properties":{"source":"OpenStreetMap","source_id":"way/152632772","kind":"vegetation","name":null,"waterway":null,"landuse":"forest"},"geometry":{"type":"Polygon","coordinates":[[[4.0146359,50.9646718],[4.014699,50.9646275],[4.0144584,50.9645069],[4.0146024,50.9643772],[4.0146377,50.9643438],[4.0147302,50.9642627],[4.0149931,50.9639287],[4.0147748,50.963881],[4.0145341,50.9641476],[4.01424,50.9644086],[4.0138746,50.9642402],[4.0135136,50.9645181],[4.0131928,50.9644367],[4.0131839,50.9643637],[4.0132507,50.9643104],[4.0133488,50.9642515],[4.0132284,50.9642318],[4.0130234,50.9645069],[4.0128987,50.9644732],[4.0124976,50.9650654],[4.0122391,50.9651131],[4.0119406,50.9650541],[4.0117628,50.9650416],[4.0115439,50.9650261],[4.0110723,50.9650312],[4.0110085,50.9652415],[4.0111734,50.9652864],[4.0114051,50.9652668],[4.012889,50.9651882],[4.012996,50.9652752],[4.0137447,50.9647335],[4.0146359,50.9646718]]]}},{"type":"Feature","id":"way/1236728095","properties":{"source":"OpenStreetMap","source_id":"way/1236728095","kind":"water","name":null,"waterway":null,"landuse":null},"geometry":{"type":"Polygon","coordinates":[[[4.0134229,50.9647128],[4.0134449,50.964725],[4.0135161,50.9647233],[4.0135756,50.9647038],[4.0136092,50.9646867],[4.0136415,50.9646598],[4.0139119,50.9644732],[4.0139261,50.9644561],[4.0139236,50.9644366],[4.0139029,50.9644146],[4.0138369,50.9643803],[4.0138045,50.9643812],[4.0137618,50.9643918],[4.0134333,50.9646394],[4.0134177,50.9646834],[4.0134229,50.9647128]]]}},{"type":"Feature","id":"way/1236728096","properties":{"source":"OpenStreetMap","source_id":"way/1236728096","kind":"water","name":null,"waterway":null,"landuse":null},"geometry":{"type":"Polygon","coordinates":[[[4.0143012,50.9646193],[4.0143018,50.9646318],[4.0143106,50.9646407],[4.0143247,50.9646444],[4.0144403,50.9646481],[4.0145847,50.9646792],[4.0146275,50.9646829],[4.0146416,50.9646795],[4.0146487,50.9646699],[4.0146452,50.9646581],[4.0146322,50.9646514],[4.0145771,50.9646292],[4.0144597,50.9646126],[4.0143252,50.9646089],[4.0143059,50.9646119],[4.0143012,50.9646193]]]}},{"type":"Feature","id":"way/1236728097","properties":{"source":"OpenStreetMap","source_id":"way/1236728097","kind":"water","name":null,"waterway":null,"landuse":null},"geometry":{"type":"Polygon","coordinates":[[[4.0132188,50.9643794],[4.013218,50.9644007],[4.0132245,50.9644204],[4.013243,50.9644341],[4.0134548,50.9645066],[4.0134966,50.9645061],[4.0135474,50.9644843],[4.0137559,50.9643388],[4.0137696,50.9643068],[4.0137656,50.9642764],[4.0138388,50.9642009],[4.0139314,50.9640797],[4.0139314,50.9640634],[4.013921,50.9640513],[4.0139032,50.9640401],[4.0138195,50.9640218],[4.0137366,50.9640178],[4.0136971,50.9640213],[4.0136601,50.9640315],[4.0136166,50.9640812],[4.0136029,50.9640933],[4.0135514,50.9641263],[4.0135079,50.9641557],[4.0134749,50.9641958],[4.0134378,50.9642232],[4.0133034,50.9643074],[4.0132365,50.9643469],[4.0132188,50.9643794]]]}},{"type":"Feature","id":"way/1236728098","properties":{"source":"OpenStreetMap","source_id":"way/1236728098","kind":"water","name":null,"waterway":null,"landuse":null},"geometry":{"type":"Polygon","coordinates":[[[4.011521,50.9652212],[4.011529,50.9652278],[4.0115441,50.9652323],[4.0116589,50.9652506],[4.0116689,50.9652493],[4.0116714,50.9652471],[4.0116629,50.9652405],[4.0116629,50.9652351],[4.0116804,50.9652338],[4.0117035,50.9652398],[4.0117481,50.9652401],[4.01178,50.9652463],[4.0118014,50.9652469],[4.0118423,50.9652389],[4.0118755,50.96523],[4.0118884,50.9652291],[4.0119512,50.9652332],[4.0119943,50.9652449],[4.0120217,50.9652465],[4.0120399,50.9652408],[4.0120566,50.9652309],[4.0120689,50.9652225],[4.0120963,50.9652103],[4.0121165,50.9651929],[4.0121199,50.9651797],[4.0121067,50.9651686],[4.012084,50.9651642],[4.012016,50.965163],[4.0119941,50.9651613],[4.0119512,50.9651502],[4.0119255,50.9651471],[4.0118347,50.9651463],[4.011763,50.9651441],[4.0117217,50.9651349],[4.0116988,50.9651342],[4.0116834,50.9651349],[4.0116697,50.9651403],[4.0116598,50.9651479],[4.0116391,50.965166],[4.0116275,50.9651736],[4.0116108,50.9651806],[4.0115677,50.9651921],[4.011541,50.9651989],[4.0115289,50.9652047],[4.0115234,50.9652093],[4.0115212,50.9652167],[4.011521,50.9652212]]]}}]}