{"type":"FeatureCollection","features":[{"type":"Feature","id":"gebouw/Gebouw.15852019/0","properties":{"source":"Digitaal Vlaanderen Gebouwenregister","source_id":"gebouw/Gebouw.15852019/0","kind":"building","height_m":5.72,"status":null},"geometry":{"type":"Polygon","coordinates":[[[4.01437472,50.97124929],[4.01435723,50.97127583],[4.01440128,50.9712881],[4.01442253,50.97126224],[4.01437472,50.97124929]]]}},{"type":"Feature","id":"gebouw/Gebouw.15986723/0","properties":{"source":"Digitaal Vlaanderen Gebouwenregister","source_id":"gebouw/Gebouw.15986723/0","kind":"building","height_m":7.88,"status":null},"geometry":{"type":"Polygon","coordinates":[[[4.0158677,50.96928867],[4.01591355,50.96932712],[4.01586264,50.96935132],[4.01581679,50.96931288],[4.0158677,50.96928867]]]}},{"type":"Feature","id":"gebouw/Gebouw.16013969/0","properties":{"source":"Digitaal Vlaanderen Gebouwenregister","source_id":"gebouw/Gebouw.16013969/0","kind":"building","height_m":9.32,"status":null},"geometry":{"type":"Polygon","coordinates":[[[4.01305328,50.97273945],[4.0130583,50.97266554],[4.01306484,50.97256935],[4.01305348,50.972569],[4.01305994,50.97248318],[4.01313413,50.97248541],[4.01313568,50.97245247],[4.01315608,50.97245335],[4.01315711,50.97244783],[4.01318432,50.97244873],[4.01318429,50.97245302],[4.01320632,50.97245411],[4.01320087,50.97253146],[4.01318693,50.97253142],[4.01317529,50.97274129],[4.01305328,50.97273945]]]}},{"type":"Feature","id":"gebouw/Gebouw.16261078/0","properties":{"source":"Digitaal Vlaanderen Gebouwenregister","source_id":"gebouw/Gebouw.16261078/0","kind":"building","height_m":5.72,"status":null},"geometry":{"type":"Polygon","coordinates":[[[4.01584552,50.9704394],[4.01579075,50.97047488],[4.0157371,50.97044187],[4.01569733,50.97046763],[4.01572232,50.97048301],[4.01572745,50.97047969],[4.01574978,50.97049343],[4.0156111,50.97057404],[4.0155374,50.970527],[4.01543884,50.97058856],[4.01547607,50.97061232],[4.01545521,50.97062535],[4.01548191,50.97064239],[4.01535026,50.97072462],[4.01524698,50.9706587],[4.01537801,50.97057686],[4.01549818,50.97050181],[4.01572285,50.97036148],[4.01575941,50.97033864],[4.01578107,50.97035247],[4.01587834,50.97029172],[4.01600079,50.97036912],[4.01589708,50.97043534],[4.01585103,50.97040699],[4.01582269,50.97042535],[4.01584552,50.9704394]]]}},{"type":"Feature","id":"gebouw/Gebouw.16296118/0","properties":{"source":"Digitaal Vlaanderen Gebouwenregister","source_id":"gebouw/Gebouw.16296118/0","kind":"building","height_m":9.32,"status":null},"geometry":{"type":"Polygon","coordinates":[[[4.01601578,50.97017875],[4.01598052,50.97020074],[4.01590926,50.97024853],[4.01597088,50.97028698],[4.01607319,50.97022056],[4.01601578,50.97017875]]]}},{"type":"Feature","id":"gebouw/Gebouw.16354879/0","properties":{"source":"Digitaal Vlaanderen Gebouwenregister","source_id":"gebouw/Gebouw.16354879/0","kind":"building","height_m":6.44,"status":null},"geometry":{"type":"Polygon","coordinates":[[[4.01594716,50.96972125],[4.01577882,50.96966319],[4.01580927,50.96962799],[4.01584819,50.96964142],[4.01586047,50.96962722],[4.01594576,50.96965663],[4.01593796,50.96966565],[4.0159821,50.96968087],[4.01594716,50.96972125]]]}},{"type":"Feature","id":"gebouw/Gebouw.16419604/0","properties":{"source":"Digitaal Vlaanderen Gebouwenregister","source_id":"gebouw/Gebouw.16419604/0","kind":"building","height_m":8.6,"status":null},"geometry":{"type":"Polygon","coordinates":[[[4.0155953,50.96938711],[4.01562988,50.96941316],[4.01559299,50.96943271],[4.01555841,50.96940666],[4.0155953,50.96938711]]]}},{"type":"Feature","id":"gebouw/Gebouw.16767237/0","properties":{"source":"Digitaal Vlaanderen Gebouwenregister","source_id":"gebouw/Gebouw.16767237/0","kind":"building","height_m":7.88,"status":null},"geometry":{"type":"Polygon","coordinates":[[[4.01595213,50.97057959],[4.01605884,50.97051971],[4.01597322,50.97045888],[4.01586652,50.97051876],[4.01582773,50.9704912],[4.01579594,50.97050905],[4.01579417,50.97051004],[4.01584763,50.97054789],[4.01584837,50.97054842],[4.01585015,50.97054744],[4.01588286,50.97052947],[4.01595213,50.97057959]]]}},{"type":"Feature","id":"gebouw/Gebouw.16910035/0","properties":{"source":"Digitaal Vlaanderen Gebouwenregister","source_id":"gebouw/Gebouw.16910035/0","kind":"building","height_m":6.44,"status":null},"geometry":{"type":"Polygon","coordinates":[[[4.01570398,50.97067834],[4.01579174,50.97062811],[4.0158057,50.97063822],[4.015867,50.97060269],[4.01581622,50.97056631],[4.01584837,50.97054842],[4.01584763,50.97054789],[4.01579417,50.97051004],[4.01559823,50.97062002],[4.01559814,50.97062007],[4.01559762,50.97062037],[4.0155922,50.97062341],[4.01559225,50.97062344],[4.0156151,50.97063936],[4.01563318,50.97062902],[4.01570398,50.97067834]]]}},{"type":"Feature","id":"gebouw/Gebouw.18729451/0","properties":{"source":"Digitaal Vlaanderen Gebouwenregister","source_id":"gebouw/Gebouw.18729451/0","kind":"building","height_m":9.32,"status":null},"geometry":{"type":"Polygon","coordinates":[[[4.01555131,50.97073437],[4.01546295,50.97078508],[4.01541962,50.97075385],[4.01550367,50.97070501],[4.01555131,50.97073437]]]}},{"type":"Feature","id":"gebouw/Gebouw.19790073/0","properties":{"source":"Digitaal Vlaanderen Gebouwenregister","source_id":"gebouw/Gebouw.19790073/0","kind":"building","height_m":6.44,"status":null},"geometry":{"type":"Polygon","coordinates":[[[4.01469762,50.97454123],[4.01476507,50.9745692],[4.01473537,50.97460215],[4.01466323,50.97457429],[4.01469762,50.97454123]]]}},{"type":"Feature","id":"gebouw/Gebouw.20980674/0","properties":{"source":"Digitaal Vlaanderen Gebouwenregister","source_id":"gebouw/Gebouw.20980674/0","kind":"building","height_m":5.72,"status":null},"geometry":{"type":"Polygon","coordinates":[[[4.01619252,50.97003233],[4.01603942,50.97012586],[4.01591107,50.97004209],[4.01604785,50.96995853],[4.01611912,50.97000504],[4.01613542,50.96999493],[4.01619252,50.97003233]]]}},{"type":"Feature","id":"gebouw/Gebouw.30585097/0","properties":{"source":"Digitaal Vlaanderen Gebouwenregister","source_id":"gebouw/Gebouw.30585097/0","kind":"building","height_m":7.88,"status":null},"geometry":{"type":"Polygon","coordinates":[[[4.01464389,50.96897706],[4.01461645,50.96895989],[4.014677,50.96892133],[4.01470444,50.96893851],[4.01464389,50.96897706]]]}},{"type":"Feature","id":"gebouw/Gebouw.30642211/0","properties":{"source":"Digitaal Vlaanderen Gebouwenregister","source_id":"gebouw/Gebouw.30642211/0","kind":"building","height_m":8.6,"status":null},"geometry":{"type":"Polygon","coordinates":[[[4.01601023,50.96911133],[4.01605058,50.96908664],[4.01609053,50.96911268],[4.01605017,50.96913736],[4.01601023,50.96911133]]]}},{"type":"Feature","id":"gebouw/Gebouw.31805325/0","properties":{"source":"Digitaal Vlaanderen Gebouwenregister","source_id":"gebouw/Gebouw.31805325/0","kind":"building","height_m":9.32,"status":null},"geometry":{"type":"Polygon","coordinates":[[[4.01595543,50.97021457],[4.01597863,50.97019959],[4.01597939,50.97020005],[4.01598052,50.97020074],[4.01601578,50.97017875],[4.01601517,50.97017837],[4.01597235,50.97015193],[4.0158752,50.97021466],[4.01591487,50.97023915],[4.01591614,50.97023994],[4.01595543,50.97021457]]]}},{"type":"Feature","id":"gebouw/Gebouw.31806447/0","properties":{"source":"Digitaal Vlaanderen Gebouwenregister","source_id":"gebouw/Gebouw.31806447/0","kind":"building","height_m":5.72,"status":null},"geometry":{"type":"Polygon","coordinates":[[[4.01584652,50.96935791],[4.01579154,50.96931488],[4.01575176,50.96933495],[4.01580645,50.96937814],[4.01584652,50.96935791]]]}},{"type":"Feature","id":"way/152632789","properties":{"source":"OpenStreetMap","source_id":"way/152632789","kind":"vegetation","name":null,"waterway":null,"landuse":"forest"},"geometry":{"type":"Polygon","coordinates":[[[4.0152522,50.9724221],[4.0151787,50.9724897],[4.0158746,50.9728874],[4.0161913,50.972697],[4.015914,50.9725333],[4.0156871,50.9726722],[4.0152522,50.9724221]]]}},{"type":"Feature","id":"way/152632806","properties":{"source":"OpenStreetMap","source_id":"way/152632806","kind":"vegetation","name":null,"waterway":null,"landuse":"forest"},"geometry":{"type":"Polygon","coordinates":[[[4.0147079,50.9732496],[4.0150833,50.9735774],[4.015207,50.9737224],[4.0130439,50.9739589],[4.0130521,50.9737329],[4.0130567,50.9736042],[4.0146311,50.9735613],[4.0145927,50.9733786],[4.0146353,50.9733033],[4.0147079,50.9732496]]]}},{"type":"Feature","id":"way/266667498","properties":{"source":"OpenStreetMap","source_id":"way/266667498","kind":"waterway","name":null,"waterway":"stream","landuse":null},"geometry":{"type":"LineString","coordinates":[[4.0131138,50.9724764],[4.0130923,50.972847],[4.0130646,50.9732682],[4.0130334,50.9736617],[4.0130295,50.9737322],[4.0129766,50.9746919],[4.0129701,50.9749564],[4.0133308,50.9749607]]}},{"type":"Feature","id":"way/1236728091","properties":{"source":"OpenStreetMap","source_id":"way/1236728091","kind":"water","name":null,"waterway":null,"landuse":null},"geometry":{"type":"Polygon","coordinates":[[[4.0140076,50.9735976],[4.0139952,50.9736087],[4.0140236,50.9736165],[4.0146642,50.9736065],[4.0147369,50.9736244],[4.0148505,50.9736221],[4.0148949,50.9735998],[4.0149073,50.9735506],[4.0148345,50.9734914],[4.0148079,50.9734523],[4.0147494,50.9733875],[4.0146819,50.9733484],[4.0146464,50.9733551],[4.0146127,50.9733663],[4.0145808,50.9733864],[4.0145879,50.9734344],[4.0145737,50.9734612],[4.0146127,50.9735506],[4.0145879,50.9735707],[4.0140324,50.9735875],[4.0140076,50.9735976]]]}}]}