{"type":"FeatureCollection","features":[{"type":"Feature","id":"gebouw/Gebouw.15681798/0","properties":{"source":"Digitaal Vlaanderen Gebouwenregister","source_id":"gebouw/Gebouw.15681798/0","kind":"building","height_m":9.32,"status":null},"geometry":{"type":"Polygon","coordinates":[[[4.02515091,50.97688932],[4.02516851,50.97690699],[4.02513965,50.97691845],[4.02501846,50.97696656],[4.02492936,50.97687711],[4.02494894,50.97686934],[4.02495244,50.97687394],[4.02501739,50.97685672],[4.0250053,50.97683827],[4.02500177,50.97683289],[4.02500526,50.97683202],[4.0250087,50.97683685],[4.02502038,50.9768532],[4.025061,50.97684239],[4.02507435,50.97683884],[4.02505911,50.97682386],[4.0251572,50.97678303],[4.02524992,50.97687184],[4.02523703,50.97687695],[4.02522145,50.97686132],[4.02515091,50.97688932]]]}},{"type":"Feature","id":"gebouw/Gebouw.15689393/0","properties":{"source":"Digitaal Vlaanderen Gebouwenregister","source_id":"gebouw/Gebouw.15689393/0","kind":"building","height_m":9.32,"status":null},"geometry":{"type":"Polygon","coordinates":[[[4.02281814,50.97676254],[4.02260512,50.97681707],[4.02241769,50.97652528],[4.02263071,50.97647074],[4.02281814,50.97676254]]]}},{"type":"Feature","id":"gebouw/Gebouw.15706711/0","properties":{"source":"Digitaal Vlaanderen Gebouwenregister","source_id":"gebouw/Gebouw.15706711/0","kind":"building","height_m":9.32,"status":null},"geometry":{"type":"Polygon","coordinates":[[[4.02095326,50.97774881],[4.02102984,50.97771961],[4.02103238,50.97772228],[4.02108112,50.97770304],[4.02110784,50.9776925],[4.02107528,50.97765955],[4.02112091,50.97764268],[4.02108508,50.9776048],[4.02101222,50.97763327],[4.02096374,50.97765222],[4.02095545,50.97764377],[4.02088127,50.97767277],[4.02090283,50.97769478],[4.02074914,50.97776028],[4.02081277,50.97782223],[4.02096029,50.97775666],[4.02095326,50.97774881]]]}},{"type":"Feature","id":"gebouw/Gebouw.15715954/0","properties":{"source":"Digitaal Vlaanderen Gebouwenregister","source_id":"gebouw/Gebouw.15715954/0","kind":"building","height_m":6.44,"status":null},"geometry":{"type":"Polygon","coordinates":[[[4.02503112,50.97660861],[4.02501602,50.976594],[4.02494641,50.97662311],[4.02488892,50.97656829],[4.02493504,50.97654901],[4.02488907,50.97650212],[4.02493196,50.97648536],[4.02492971,50.97648307],[4.02494637,50.97647655],[4.0249188,50.97644843],[4.0249611,50.9764319],[4.02498926,50.97646058],[4.02509502,50.97656828],[4.0251057,50.97657916],[4.02503112,50.97660861]]]}},{"type":"Feature","id":"gebouw/Gebouw.15721347/0","properties":{"source":"Digitaal Vlaanderen Gebouwenregister","source_id":"gebouw/Gebouw.15721347/0","kind":"building","height_m":8.6,"status":null},"geometry":{"type":"Polygon","coordinates":[[[4.0254879,50.97702961],[4.02543965,50.97698424],[4.02532475,50.9770286],[4.02539687,50.97710068],[4.02546316,50.97707351],[4.0254879,50.97702961]]]}},{"type":"Feature","id":"gebouw/Gebouw.15784473/0","properties":{"source":"Digitaal Vlaanderen Gebouwenregister","source_id":"gebouw/Gebouw.15784473/0","kind":"building","height_m":8.6,"status":null},"geometry":{"type":"Polygon","coordinates":[[[4.02354248,50.97704319],[4.02344927,50.97706553],[4.02339277,50.97697155],[4.02357824,50.97692734],[4.02363678,50.97702808],[4.02357477,50.97704244],[4.0235709,50.97703602],[4.02354608,50.97704169],[4.0235477,50.97704453],[4.02354352,50.97704536],[4.02354248,50.97704319]]]}},{"type":"Feature","id":"gebouw/Gebouw.15792445/0","properties":{"source":"Digitaal Vlaanderen Gebouwenregister","source_id":"gebouw/Gebouw.15792445/0","kind":"building","height_m":7.88,"status":null},"geometry":{"type":"Polygon","coordinates":[[[4.02524354,50.9757747],[4.02529494,50.97582275],[4.02513026,50.97589295],[4.02522182,50.97597856],[4.02514731,50.97601032],[4.02501521,50.97588681],[4.02508461,50.97585723],[4.02507474,50.975848],[4.02503501,50.97581086],[4.02520481,50.97573848],[4.02524354,50.9757747]]]}},{"type":"Feature","id":"gebouw/Gebouw.15798353/0","properties":{"source":"Digitaal Vlaanderen Gebouwenregister","source_id":"gebouw/Gebouw.15798353/0","kind":"building","height_m":7.88,"status":null},"geometry":{"type":"Polygon","coordinates":[[[4.02657748,50.97660579],[4.02673972,50.97675383],[4.02667039,50.97678412],[4.02650815,50.97663607],[4.02657748,50.97660579]]]}},{"type":"Feature","id":"gebouw/Gebouw.15798441/0","properties":{"source":"Digitaal Vlaanderen Gebouwenregister","source_id":"gebouw/Gebouw.15798441/0","kind":"building","height_m":5.72,"status":null},"geometry":{"type":"Polygon","coordinates":[[[4.02446831,50.977296],[4.02441807,50.97731682],[4.02433095,50.97723305],[4.02425717,50.97726363],[4.0241706,50.97718038],[4.02429674,50.9771281],[4.02443571,50.97726409],[4.02446831,50.977296]]]}},{"type":"Feature","id":"gebouw/Gebouw.15831887/0","properties":{"source":"Digitaal Vlaanderen Gebouwenregister","source_id":"gebouw/Gebouw.15831887/0","kind":"building","height_m":5.72,"status":null},"geometry":{"type":"Polygon","coordinates":[[[4.02667744,50.976276],[4.02672376,50.9762592],[4.02674569,50.97628329],[4.02669936,50.97630009],[4.02667744,50.976276]]]}},{"type":"Feature","id":"gebouw/Gebouw.15843862/0","properties":{"source":"Digitaal Vlaanderen Gebouwenregister","source_id":"gebouw/Gebouw.15843862/0","kind":"building","height_m":9.32,"status":null},"geometry":{"type":"Polygon","coordinates":[[[4.02359477,50.97673808],[4.0235544,50.97668696],[4.0236357,50.9766614],[4.02367596,50.9767124],[4.02359477,50.97673808]]]}},{"type":"Feature","id":"gebouw/Gebouw.15848683/0","properties":{"source":"Digitaal Vlaanderen Gebouwenregister","source_id":"gebouw/Gebouw.15848683/0","kind":"building","height_m":7.88,"status":null},"geometry":{"type":"Polygon","coordinates":[[[4.02402214,50.97673365],[4.02399109,50.97669285],[4.02403763,50.97667873],[4.02406869,50.97671953],[4.02402214,50.97673365]]]}},{"type":"Feature","id":"gebouw/Gebouw.15922779/0","properties":{"source":"Digitaal Vlaanderen Gebouwenregister","source_id":"gebouw/Gebouw.15922779/0","kind":"building","height_m":8.6,"status":null},"geometry":{"type":"Polygon","coordinates":[[[4.0200667,50.97711642],[4.02002715,50.97713571],[4.0199947,50.97710918],[4.02003425,50.9770899],[4.0200667,50.97711642]]]}},{"type":"Feature","id":"gebouw/Gebouw.15938173/0","properties":{"source":"Digitaal Vlaanderen Gebouwenregister","source_id":"gebouw/Gebouw.15938173/0","kind":"building","height_m":9.32,"status":null},"geometry":{"type":"Polygon","coordinates":[[[4.02536433,50.976027],[4.02542907,50.97609736],[4.02538757,50.97611278],[4.02535426,50.97607711],[4.02536475,50.97607321],[4.02533461,50.97604094],[4.02533236,50.97603853],[4.02536203,50.9760245],[4.02536433,50.976027]]]}},{"type":"Feature","id":"gebouw/Gebouw.15955334/0","properties":{"source":"Digitaal Vlaanderen Gebouwenregister","source_id":"gebouw/Gebouw.15955334/0","kind":"building","height_m":7.16,"status":null},"geometry":{"type":"Polygon","coordinates":[[[4.02342934,50.97686408],[4.02336766,50.97676296],[4.02348021,50.97673526],[4.02354177,50.97683671],[4.02342934,50.97686408]]]}},{"type":"Feature","id":"gebouw/Gebouw.15955802/0","properties":{"source":"Digitaal Vlaanderen Gebouwenregister","source_id":"gebouw/Gebouw.15955802/0","kind":"building","height_m":6.44,"status":null},"geometry":{"type":"Polygon","coordinates":[[[4.02575854,50.9762343],[4.02578439,50.97622288],[4.02567978,50.9761285],[4.02574707,50.97609878],[4.02580999,50.97615425],[4.02580437,50.97615679],[4.0259381,50.97627469],[4.02584747,50.97631566],[4.02575854,50.9762343]]]}},{"type":"Feature","id":"gebouw/Gebouw.15971511/0","properties":{"source":"Digitaal Vlaanderen Gebouwenregister","source_id":"gebouw/Gebouw.15971511/0","kind":"building","height_m":7.16,"status":null},"geometry":{"type":"Polygon","coordinates":[[[4.02071493,50.9770945],[4.02066704,50.97705627],[4.02060775,50.97708587],[4.02055424,50.97704315],[4.02061352,50.97701355],[4.0205302,50.97694703],[4.02087194,50.97677807],[4.02100538,50.97688564],[4.02105556,50.97692609],[4.02071493,50.9770945]]]}},{"type":"Feature","id":"gebouw/Gebouw.15981856/0","properties":{"source":"Digitaal Vlaanderen Gebouwenregister","source_id":"gebouw/Gebouw.15981856/0","kind":"building","height_m":6.44,"status":null},"geometry":{"type":"Polygon","coordinates":[[[4.02252873,50.97683678],[4.02229917,50.97689603],[4.02215125,50.97666758],[4.0223808,50.97660834],[4.02252873,50.97683678]]]}},{"type":"Feature","id":"gebouw/Gebouw.15981950/0","properties":{"source":"Digitaal Vlaanderen Gebouwenregister","source_id":"gebouw/Gebouw.15981950/0","kind":"building","height_m":8.6,"status":null},"geometry":{"type":"Polygon","coordinates":[[[4.02667847,50.97655092],[4.02664936,50.97652726],[4.02665153,50.97652624],[4.02662379,50.97650499],[4.02667017,50.97648325],[4.0267263,50.97645696],[4.0267778,50.97650055],[4.02672196,50.97652684],[4.02672493,50.97652935],[4.02667847,50.97655092]]]}},{"type":"Feature","id":"gebouw/Gebouw.15984322/0","properties":{"source":"Digitaal Vlaanderen Gebouwenregister","source_id":"gebouw/Gebouw.15984322/0","kind":"building","height_m":7.88,"status":null},"geometry":{"type":"Polygon","coordinates":[[[4.02669457,50.97658715],[4.02674844,50.97663371],[4.0267175,50.97664798],[4.02666363,50.97660142],[4.02669457,50.97658715]]]}},{"type":"Feature","id":"gebouw/Gebouw.16003838/0","properties":{"source":"Digitaal Vlaanderen Gebouwenregister","source_id":"gebouw/Gebouw.16003838/0","kind":"building","height_m":7.88,"status":null},"geometry":{"type":"Polygon","coordinates":[[[4.02440848,50.97608995],[4.02443813,50.97612827],[4.02439985,50.97614008],[4.0243702,50.97610175],[4.02440848,50.97608995]]]}},{"type":"Feature","id":"gebouw/Gebouw.16011952/0","properties":{"source":"Digitaal Vlaanderen Gebouwenregister","source_id":"gebouw/Gebouw.16011952/0","kind":"building","height_m":8.6,"status":null},"geometry":{"type":"Polygon","coordinates":[[[4.02487474,50.97697169],[4.02476975,50.97687022],[4.02484136,50.97684069],[4.02499659,50.97699073],[4.02486605,50.97704456],[4.0248158,50.976996],[4.02487474,50.97697169]]]}},{"type":"Feature","id":"gebouw/Gebouw.16016993/0","properties":{"source":"Digitaal Vlaanderen Gebouwenregister","source_id":"gebouw/Gebouw.16016993/0","kind":"building","height_m":9.32,"status":null},"geometry":{"type":"Polygon","coordinates":[[[4.02187544,50.97724763],[4.02195355,50.97721369],[4.0219813,50.97723896],[4.02206645,50.97720217],[4.02209216,50.97722466],[4.02209953,50.97722162],[4.02217453,50.97729071],[4.02208078,50.97733127],[4.02209136,50.97734137],[4.02201465,50.97737457],[4.02187544,50.97724763]]]}},{"type":"Feature","id":"gebouw/Gebouw.16048371/0","properties":{"source":"Digitaal Vlaanderen Gebouwenregister","source_id":"gebouw/Gebouw.16048371/0","kind":"building","height_m":7.16,"status":null},"geometry":{"type":"Polygon","coordinates":[[[4.02123546,50.97714005],[4.02119245,50.97709338],[4.02128644,50.97705873],[4.02132945,50.9771054],[4.02123546,50.97714005]]]}},{"type":"Feature","id":"gebouw/Gebouw.16059299/0","properties":{"source":"Digitaal Vlaanderen Gebouwenregister","source_id":"gebouw/Gebouw.16059299/0","kind":"building","height_m":7.88,"status":null},"geometry":{"type":"Polygon","coordinates":[[[4.0254175,50.97667905],[4.02533655,50.97671534],[4.02525675,50.97664555],[4.02533598,50.97660944],[4.02533811,50.97660847],[4.0254175,50.97667905]]]}},{"type":"Feature","id":"gebouw/Gebouw.16066922/0","properties":{"source":"Digitaal Vlaanderen Gebouwenregister","source_id":"gebouw/Gebouw.16066922/0","kind":"building","height_m":7.88,"status":null},"geometry":{"type":"Polygon","coordinates":[[[4.02310031,50.97634424],[4.02309456,50.97634594],[4.02306252,50.9763027],[4.02315202,50.97627627],[4.02318299,50.97631806],[4.02311875,50.97633703],[4.02313453,50.97635832],[4.02311501,50.97636408],[4.02310031,50.97634424]]]}},{"type":"Feature","id":"gebouw/Gebouw.16133038/0","properties":{"source":"Digitaal Vlaanderen Gebouwenregister","source_id":"gebouw/Gebouw.16133038/0","kind":"building","height_m":8.6,"status":null},"geometry":{"type":"Polygon","coordinates":[[[4.02143884,50.97703252],[4.02138881,50.97698426],[4.02144223,50.97696218],[4.02149226,50.97701044],[4.02143884,50.97703252]]]}},{"type":"Feature","id":"gebouw/Gebouw.16135776/0","properties":{"source":"Digitaal Vlaanderen Gebouwenregister","source_id":"gebouw/Gebouw.16135776/0","kind":"building","height_m":9.32,"status":null},"geometry":{"type":"Polygon","coordinates":[[[4.02615711,50.97624997],[4.02609692,50.97627589],[4.02601774,50.9762042],[4.02599699,50.97618542],[4.02597184,50.97616265],[4.02603068,50.97613729],[4.02605496,50.97615976],[4.02607275,50.97615209],[4.02607301,50.97615233],[4.02610375,50.97618078],[4.02608915,50.97618707],[4.02615548,50.97624845],[4.02615711,50.97624997]]]}},{"type":"Feature","id":"gebouw/Gebouw.16152662/0","properties":{"source":"Digitaal Vlaanderen Gebouwenregister","source_id":"gebouw/Gebouw.16152662/0","kind":"building","height_m":5.72,"status":null},"geometry":{"type":"Polygon","coordinates":[[[4.02552716,50.97625682],[4.02551872,50.97624933],[4.02546481,50.97627053],[4.02546914,50.97627492],[4.02543445,50.97628859],[4.02545926,50.97631446],[4.02553689,50.97639541],[4.02562839,50.97635943],[4.02552716,50.97625682]]]}},{"type":"Feature","id":"gebouw/Gebouw.16187439/0","properties":{"source":"Digitaal Vlaanderen Gebouwenregister","source_id":"gebouw/Gebouw.16187439/0","kind":"building","height_m":6.44,"status":null},"geometry":{"type":"Polygon","coordinates":[[[4.02105988,50.97738916],[4.02103189,50.97740167],[4.02099925,50.97741626],[4.02100535,50.97742169],[4.02099148,50.97742789],[4.02094353,50.97738513],[4.02098571,50.97736628],[4.02097616,50.97735776],[4.02097024,50.9773604],[4.02094522,50.9773381],[4.02094092,50.97733427],[4.02097915,50.97731718],[4.02105988,50.97738916]]]}},{"type":"Feature","id":"gebouw/Gebouw.16214145/0","properties":{"source":"Digitaal Vlaanderen Gebouwenregister","source_id":"gebouw/Gebouw.16214145/0","kind":"building","height_m":7.16,"status":null},"geometry":{"type":"Polygon","coordinates":[[[4.02609692,50.97627589],[4.02601914,50.97629917],[4.02597364,50.97625863],[4.02589215,50.97618604],[4.02588763,50.97618201],[4.02589389,50.97617931],[4.02592414,50.97616629],[4.02593331,50.97617478],[4.0259818,50.97621965],[4.02601774,50.9762042],[4.02609692,50.97627589]]]}},{"type":"Feature","id":"gebouw/Gebouw.16237330/0","properties":{"source":"Digitaal Vlaanderen Gebouwenregister","source_id":"gebouw/Gebouw.16237330/0","kind":"building","height_m":7.88,"status":null},"geometry":{"type":"Polygon","coordinates":[[[4.02645253,50.97601468],[4.02631715,50.97591727],[4.02645277,50.97584401],[4.02658654,50.97594201],[4.02645253,50.97601468]]]}},{"type":"Feature","id":"gebouw/Gebouw.16239674/0","properties":{"source":"Digitaal Vlaanderen Gebouwenregister","source_id":"gebouw/Gebouw.16239674/0","kind":"building","height_m":7.16,"status":null},"geometry":{"type":"Polygon","coordinates":[[[4.02149581,50.97744613],[4.02150015,50.97745887],[4.02150322,50.97746787],[4.02131136,50.97748027],[4.02122161,50.97748848],[4.02117624,50.97748898],[4.02117503,50.97748881],[4.02117416,50.97748828],[4.02117383,50.97748758],[4.02112282,50.97743906],[4.02100525,50.97732722],[4.02110827,50.97728727],[4.021096,50.97727447],[4.02118074,50.9772421],[4.02124218,50.97721862],[4.02122093,50.97719753],[4.02130522,50.97716368],[4.02133794,50.97719615],[4.0213827,50.97724057],[4.02138855,50.9772383],[4.02142649,50.97727595],[4.02139134,50.97729006],[4.02142285,50.97732134],[4.0214702,50.97736832],[4.0214136,50.97739105],[4.02140721,50.97739036],[4.02140752,50.97739133],[4.02137231,50.97740514],[4.0213378,50.97737008],[4.02128235,50.97739184],[4.02127143,50.97738075],[4.0213912,50.97733376],[4.02133551,50.97727718],[4.02118861,50.97733482],[4.02119259,50.97733887],[4.02117346,50.97734637],[4.02122518,50.9773989],[4.02127016,50.97744459],[4.02130776,50.97742686],[4.02148542,50.97741564],[4.02149581,50.97744613]]]}},{"type":"Feature","id":"gebouw/Gebouw.16240385/0","properties":{"source":"Digitaal Vlaanderen Gebouwenregister","source_id":"gebouw/Gebouw.16240385/0","kind":"building","height_m":5.0,"status":null},"geometry":{"type":"Polygon","coordinates":[[[4.02329674,50.97689424],[4.02328636,50.97689677],[4.02325003,50.9768375],[4.02332458,50.97681929],[4.0233619,50.97688017],[4.02340209,50.97694574],[4.02333792,50.97696142],[4.02329674,50.97689424]]]}},{"type":"Feature","id":"gebouw/Gebouw.16252848/0","properties":{"source":"Digitaal Vlaanderen Gebouwenregister","source_id":"gebouw/Gebouw.16252848/0","kind":"building","height_m":7.16,"status":null},"geometry":{"type":"Polygon","coordinates":[[[4.02421206,50.97676273],[4.02422251,50.97675956],[4.02416714,50.9766867],[4.0242861,50.97665029],[4.02431956,50.97669434],[4.02432916,50.97669143],[4.02437913,50.97675719],[4.0242399,50.97679936],[4.02421206,50.97676273]]]}},{"type":"Feature","id":"gebouw/Gebouw.16255330/0","properties":{"source":"Digitaal Vlaanderen Gebouwenregister","source_id":"gebouw/Gebouw.16255330/0","kind":"building","height_m":5.0,"status":null},"geometry":{"type":"Polygon","coordinates":[[[4.02283199,50.97727612],[4.02280627,50.97719708],[4.02278837,50.97719941],[4.02273022,50.9770207],[4.02252258,50.97704763],[4.02259418,50.97726768],[4.02256433,50.97727155],[4.02257659,50.97730923],[4.02283199,50.97727612]]]}},{"type":"Feature","id":"gebouw/Gebouw.16273676/0","properties":{"source":"Digitaal Vlaanderen Gebouwenregister","source_id":"gebouw/Gebouw.16273676/0","kind":"building","height_m":9.32,"status":null},"geometry":{"type":"Polygon","coordinates":[[[4.02497381,50.97704234],[4.02494556,50.9770145],[4.02499413,50.97699486],[4.02502237,50.97702271],[4.02497381,50.97704234]]]}},{"type":"Feature","id":"gebouw/Gebouw.16277299/0","properties":{"source":"Digitaal Vlaanderen Gebouwenregister","source_id":"gebouw/Gebouw.16277299/0","kind":"building","height_m":7.16,"status":null},"geometry":{"type":"Polygon","coordinates":[[[4.02423504,50.97660428],[4.02416635,50.97653948],[4.02422631,50.97651346],[4.0242827,50.97658711],[4.02423504,50.97660428]]]}},{"type":"Feature","id":"gebouw/Gebouw.16295598/0","properties":{"source":"Digitaal Vlaanderen Gebouwenregister","source_id":"gebouw/Gebouw.16295598/0","kind":"building","height_m":7.88,"status":null},"geometry":{"type":"Polygon","coordinates":[[[4.02600136,50.97668468],[4.02596086,50.97669955],[4.02597849,50.9767187],[4.02583828,50.97677015],[4.02579082,50.97671861],[4.02589846,50.97667826],[4.02589308,50.97667107],[4.02588849,50.97667244],[4.02584399,50.97662339],[4.02591767,50.97659554],[4.02600136,50.97668468]]]}},{"type":"Feature","id":"gebouw/Gebouw.16317857/0","properties":{"source":"Digitaal Vlaanderen Gebouwenregister","source_id":"gebouw/Gebouw.16317857/0","kind":"building","height_m":7.16,"status":null},"geometry":{"type":"Polygon","coordinates":[[[4.02447624,50.97671665],[4.02439687,50.97661096],[4.02454321,50.97656573],[4.02460188,50.97664358],[4.02453726,50.97666299],[4.02455899,50.97669189],[4.02447624,50.97671665]]]}},{"type":"Feature","id":"gebouw/Gebouw.16325606/0","properties":{"source":"Digitaal Vlaanderen Gebouwenregister","source_id":"gebouw/Gebouw.16325606/0","kind":"building","height_m":7.16,"status":null},"geometry":{"type":"Polygon","coordinates":[[[4.02397308,50.97688788],[4.02402873,50.97686869],[4.02404173,50.9768642],[4.02395342,50.97676214],[4.02377818,50.97682224],[4.02386672,50.97692456],[4.02397308,50.97688788]]]}},{"type":"Feature","id":"gebouw/Gebouw.16331016/0","properties":{"source":"Digitaal Vlaanderen Gebouwenregister","source_id":"gebouw/Gebouw.16331016/0","kind":"building","height_m":6.44,"status":null},"geometry":{"type":"Polygon","coordinates":[[[4.02233194,50.97619594],[4.02227313,50.97621165],[4.02221146,50.97622812],[4.02218675,50.97619462],[4.02218287,50.97618936],[4.02224501,50.9761723],[4.02226871,50.9761658],[4.0223044,50.976156],[4.02233194,50.97619594]]]}},{"type":"Feature","id":"gebouw/Gebouw.16341901/0","properties":{"source":"Digitaal Vlaanderen Gebouwenregister","source_id":"gebouw/Gebouw.16341901/0","kind":"building","height_m":6.44,"status":null},"geometry":{"type":"Polygon","coordinates":[[[4.02561173,50.97621508],[4.0255675,50.97623318],[4.02557316,50.97623873],[4.02552716,50.97625682],[4.02551872,50.97624933],[4.02552117,50.97624836],[4.02544613,50.97617229],[4.02548847,50.97615564],[4.02548037,50.97614769],[4.02552479,50.97613022],[4.02552511,50.97613009],[4.02561173,50.97621508]]]}},{"type":"Feature","id":"gebouw/Gebouw.16349512/0","properties":{"source":"Digitaal Vlaanderen Gebouwenregister","source_id":"gebouw/Gebouw.16349512/0","kind":"building","height_m":7.88,"status":null},"geometry":{"type":"Polygon","coordinates":[[[4.02649516,50.97645225],[4.02655391,50.97642691],[4.02655602,50.97642876],[4.02657513,50.97642003],[4.02660481,50.97644593],[4.02667828,50.97641238],[4.0266459,50.97638412],[4.02665819,50.97637851],[4.02660824,50.97633491],[4.02650378,50.97638259],[4.02653511,50.97640994],[4.02647602,50.97643543],[4.02649221,50.97644967],[4.02649516,50.97645225]]]}},{"type":"Feature","id":"gebouw/Gebouw.16350282/0","properties":{"source":"Digitaal Vlaanderen Gebouwenregister","source_id":"gebouw/Gebouw.16350282/0","kind":"building","height_m":7.88,"status":null},"geometry":{"type":"Polygon","coordinates":[[[4.02661854,50.97655343],[4.02652698,50.97659365],[4.02644805,50.97652737],[4.02641013,50.97654363],[4.02636623,50.97651057],[4.02640555,50.97649278],[4.02627597,50.97637992],[4.02627863,50.9763783],[4.02626987,50.976369],[4.02631751,50.97634723],[4.0263283,50.97635641],[4.02636126,50.97634015],[4.02634954,50.97632737],[4.02645487,50.97628597],[4.02650323,50.9763377],[4.02643642,50.97636426],[4.0264618,50.97638685],[4.0264365,50.97640068],[4.02649516,50.97645226],[4.02649918,50.97645043],[4.02661854,50.97655343]]]}},{"type":"Feature","id":"gebouw/Gebouw.16363125/0","properties":{"source":"Digitaal Vlaanderen Gebouwenregister","source_id":"gebouw/Gebouw.16363125/0","kind":"building","height_m":6.44,"status":null},"geometry":{"type":"Polygon","coordinates":[[[4.02550827,50.97595181],[4.02544342,50.9759773],[4.02540292,50.97599322],[4.02525187,50.9760526],[4.02521252,50.9760127],[4.02522085,50.97600943],[4.02521466,50.97600316],[4.02524267,50.97599215],[4.02523454,50.97598391],[4.02534154,50.97594185],[4.02538204,50.97592593],[4.02541445,50.97591319],[4.02541724,50.97591601],[4.0254574,50.97590023],[4.02550827,50.97595181]]]}},{"type":"Feature","id":"gebouw/Gebouw.16379119/0","properties":{"source":"Digitaal Vlaanderen Gebouwenregister","source_id":"gebouw/Gebouw.16379119/0","kind":"building","height_m":5.72,"status":null},"geometry":{"type":"Polygon","coordinates":[[[4.0251525,50.97654563],[4.02509502,50.97656828],[4.02498926,50.97646058],[4.02503375,50.9764432],[4.02499735,50.97640606],[4.02511774,50.9763576],[4.02517022,50.97640958],[4.02515706,50.97641488],[4.02523338,50.97649045],[4.02513641,50.97652948],[4.0251525,50.97654563]]]}},{"type":"Feature","id":"gebouw/Gebouw.16389942/0","properties":{"source":"Digitaal Vlaanderen Gebouwenregister","source_id":"gebouw/Gebouw.16389942/0","kind":"building","height_m":6.44,"status":null},"geometry":{"type":"Polygon","coordinates":[[[4.02192254,50.97739587],[4.02172911,50.97742141],[4.02158224,50.9774369],[4.02153953,50.97727561],[4.02152787,50.97723154],[4.02152079,50.97720481],[4.02151235,50.97719004],[4.02142891,50.97704389],[4.02160838,50.97700412],[4.02168577,50.97707469],[4.02154867,50.97710558],[4.02161453,50.97721342],[4.02162069,50.97723346],[4.02169859,50.97722701],[4.02173534,50.97737637],[4.02187977,50.97735719],[4.02185055,50.97733034],[4.0218648,50.9773248],[4.02172879,50.9771984],[4.02179301,50.97717247],[4.02187544,50.97724763],[4.02201465,50.97737457],[4.02198465,50.97738756],[4.02197126,50.97737491],[4.02192254,50.97739587]]]}},{"type":"Feature","id":"gebouw/Gebouw.16421805/0","properties":{"source":"Digitaal Vlaanderen Gebouwenregister","source_id":"gebouw/Gebouw.16421805/0","kind":"building","height_m":5.72,"status":null},"geometry":{"type":"Polygon","coordinates":[[[4.02463642,50.97696131],[4.02475273,50.97707319],[4.02462956,50.97712328],[4.02451394,50.97701205],[4.02463642,50.97696131]]]}},{"type":"Feature","id":"gebouw/Gebouw.16441254/0","properties":{"source":"Digitaal Vlaanderen Gebouwenregister","source_id":"gebouw/Gebouw.16441254/0","kind":"building","height_m":7.88,"status":null},"geometry":{"type":"Polygon","coordinates":[[[4.02519342,50.97756382],[4.02520822,50.97757785],[4.02520679,50.97757849],[4.02518638,50.97758766],[4.02507345,50.97763839],[4.0250193,50.97758545],[4.02507506,50.97756296],[4.02515744,50.97752973],[4.02519342,50.97756382]]]}},{"type":"Feature","id":"gebouw/Gebouw.16446064/0","properties":{"source":"Digitaal Vlaanderen Gebouwenregister","source_id":"gebouw/Gebouw.16446064/0","kind":"building","height_m":8.6,"status":null},"geometry":{"type":"Polygon","coordinates":[[[4.0248281,50.97620934],[4.0247952,50.97623016],[4.02485525,50.97626799],[4.02488816,50.97624717],[4.0248281,50.97620934]]]}},{"type":"Feature","id":"gebouw/Gebouw.16505257/0","properties":{"source":"Digitaal Vlaanderen Gebouwenregister","source_id":"gebouw/Gebouw.16505257/0","kind":"building","height_m":9.32,"status":null},"geometry":{"type":"Polygon","coordinates":[[[4.02621108,50.97654724],[4.02607263,50.97639945],[4.02599043,50.97642933],[4.02592206,50.97645418],[4.02598543,50.97652169],[4.02599495,50.97653183],[4.02606321,50.97650702],[4.02610238,50.97654883],[4.02611194,50.97654536],[4.02614059,50.97657677],[4.02621331,50.97654962],[4.02621108,50.97654724]]]}},{"type":"Feature","id":"gebouw/Gebouw.16521302/0","properties":{"source":"Digitaal Vlaanderen Gebouwenregister","source_id":"gebouw/Gebouw.16521302/0","kind":"building","height_m":5.0,"status":null},"geometry":{"type":"Polygon","coordinates":[[[4.02584747,50.97631566],[4.02576378,50.97635264],[4.02570295,50.97629776],[4.02569688,50.97630044],[4.02563103,50.97624103],[4.02572198,50.97620085],[4.02575854,50.9762343],[4.02578199,50.97625575],[4.02584747,50.97631566]]]}},{"type":"Feature","id":"gebouw/Gebouw.16734163/0","properties":{"source":"Digitaal Vlaanderen Gebouwenregister","source_id":"gebouw/Gebouw.16734163/0","kind":"building","height_m":8.6,"status":null},"geometry":{"type":"Polygon","coordinates":[[[4.02569867,50.97617952],[4.02567717,50.97618831],[4.02561173,50.97621508],[4.02552511,50.97613009],[4.02551881,50.9761239],[4.02560204,50.97609111],[4.02562964,50.97611637],[4.02569687,50.97617788],[4.02569867,50.97617952]]]}},{"type":"Feature","id":"gebouw/Gebouw.16804219/0","properties":{"source":"Digitaal Vlaanderen Gebouwenregister","source_id":"gebouw/Gebouw.16804219/0","kind":"building","height_m":8.6,"status":null},"geometry":{"type":"Polygon","coordinates":[[[4.02604091,50.97679675],[4.02601064,50.97676509],[4.02604601,50.97675161],[4.02607629,50.97678327],[4.02604091,50.97679675]]]}},{"type":"Feature","id":"gebouw/Gebouw.16829967/0","properties":{"source":"Digitaal Vlaanderen Gebouwenregister","source_id":"gebouw/Gebouw.16829967/0","kind":"building","height_m":5.0,"status":null},"geometry":{"type":"Polygon","coordinates":[[[4.02155129,50.97695206],[4.02183415,50.9768307],[4.02204183,50.97702233],[4.02176004,50.9771424],[4.02168577,50.97707469],[4.02160838,50.97700412],[4.02155129,50.97695206]]]}},{"type":"Feature","id":"gebouw/Gebouw.16881662/0","properties":{"source":"Digitaal Vlaanderen Gebouwenregister","source_id":"gebouw/Gebouw.16881662/0","kind":"building","height_m":5.0,"status":null},"geometry":{"type":"Polygon","coordinates":[[[4.02298311,50.97717415],[4.02297123,50.97713765],[4.02313037,50.97711702],[4.02316067,50.97721113],[4.02300873,50.97723063],[4.02298311,50.97717415]]]}},{"type":"Feature","id":"gebouw/Gebouw.16909915/0","properties":{"source":"Digitaal Vlaanderen Gebouwenregister","source_id":"gebouw/Gebouw.16909915/0","kind":"building","height_m":5.72,"status":null},"geometry":{"type":"Polygon","coordinates":[[[4.02481755,50.97664007],[4.02473203,50.97667101],[4.02462234,50.97655014],[4.02470847,50.97651988],[4.02481755,50.97664007]]]}},{"type":"Feature","id":"gebouw/Gebouw.17031699/0","properties":{"source":"Digitaal Vlaanderen Gebouwenregister","source_id":"gebouw/Gebouw.17031699/0","kind":"building","height_m":9.32,"status":null},"geometry":{"type":"Polygon","coordinates":[[[4.02596053,50.97653075],[4.02588762,50.97655727],[4.0258206,50.97649215],[4.02592206,50.97645418],[4.02598543,50.97652169],[4.02596053,50.97653075]]]}},{"type":"Feature","id":"gebouw/Gebouw.17225793/0","properties":{"source":"Digitaal Vlaanderen Gebouwenregister","source_id":"gebouw/Gebouw.17225793/0","kind":"building","height_m":7.88,"status":null},"geometry":{"type":"Polygon","coordinates":[[[4.02613059,50.9766763],[4.02608323,50.97669369],[4.02611317,50.9767262],[4.026059,50.97674609],[4.02600136,50.97668468],[4.02591767,50.97659554],[4.02595836,50.97658071],[4.02599945,50.97662532],[4.02606139,50.97660259],[4.02613059,50.9766763]]]}},{"type":"Feature","id":"gebouw/Gebouw.18115060/0","properties":{"source":"Digitaal Vlaanderen Gebouwenregister","source_id":"gebouw/Gebouw.18115060/0","kind":"building","height_m":8.6,"status":null},"geometry":{"type":"Polygon","coordinates":[[[4.02429674,50.9771281],[4.0244261,50.97707401],[4.0245107,50.97715464],[4.0244414,50.97718246],[4.02450052,50.97723872],[4.02443571,50.97726409],[4.02429674,50.9771281]]]}},{"type":"Feature","id":"gebouw/Gebouw.18342198/0","properties":{"source":"Digitaal Vlaanderen Gebouwenregister","source_id":"gebouw/Gebouw.18342198/0","kind":"building","height_m":5.0,"status":null},"geometry":{"type":"Polygon","coordinates":[[[4.02499655,50.97699075],[4.02492498,50.97702026],[4.02486605,50.97704456],[4.0248158,50.976996],[4.02487474,50.97697169],[4.02476975,50.97687022],[4.02484136,50.97684069],[4.02499655,50.97699075]]]}},{"type":"Feature","id":"gebouw/Gebouw.18462445/0","properties":{"source":"Digitaal Vlaanderen Gebouwenregister","source_id":"gebouw/Gebouw.18462445/0","kind":"building","height_m":5.72,"status":null},"geometry":{"type":"Polygon","coordinates":[[[4.02449876,50.97704471],[4.02454706,50.9770253],[4.02456388,50.97704203],[4.02458009,50.97703599],[4.02457477,50.97703123],[4.02463832,50.97700567],[4.02470518,50.97707194],[4.02465217,50.97709326],[4.02466662,50.97710758],[4.02459234,50.97713746],[4.02449876,50.97704471]]]}},{"type":"Feature","id":"gebouw/Gebouw.18504999/0","properties":{"source":"Digitaal Vlaanderen Gebouwenregister","source_id":"gebouw/Gebouw.18504999/0","kind":"building","height_m":6.44,"status":null},"geometry":{"type":"Polygon","coordinates":[[[4.02106899,50.97743495],[4.02107742,50.97744292],[4.020998,50.97747524],[4.02088538,50.97736887],[4.02096403,50.97733568],[4.02106899,50.97743495]]]}},{"type":"Feature","id":"gebouw/Gebouw.18729752/0","properties":{"source":"Digitaal Vlaanderen Gebouwenregister","source_id":"gebouw/Gebouw.18729752/0","kind":"building","height_m":9.32,"status":null},"geometry":{"type":"Polygon","coordinates":[[[4.02228638,50.97645539],[4.02224522,50.97646642],[4.02222468,50.97643251],[4.02226409,50.97642218],[4.02228638,50.97645539]]]}},{"type":"Feature","id":"gebouw/Gebouw.18729753/0","properties":{"source":"Digitaal Vlaanderen Gebouwenregister","source_id":"gebouw/Gebouw.18729753/0","kind":"building","height_m":5.0,"status":null},"geometry":{"type":"Polygon","coordinates":[[[4.0256025,50.9760026],[4.02553713,50.97603172],[4.02548078,50.97598017],[4.02554638,50.97595099],[4.0256025,50.9760026]]]}},{"type":"Feature","id":"gebouw/Gebouw.18958645/0","properties":{"source":"Digitaal Vlaanderen Gebouwenregister","source_id":"gebouw/Gebouw.18958645/0","kind":"building","height_m":9.32,"status":null},"geometry":{"type":"Polygon","coordinates":[[[4.02431778,50.97657449],[4.02429735,50.97654744],[4.02434255,50.97653474],[4.02435214,50.97654875],[4.02434129,50.97656839],[4.02431778,50.97657449]]]}},{"type":"Feature","id":"gebouw/Gebouw.18958875/0","properties":{"source":"Digitaal Vlaanderen Gebouwenregister","source_id":"gebouw/Gebouw.18958875/0","kind":"building","height_m":8.6,"status":null},"geometry":{"type":"Polygon","coordinates":[[[4.02457255,50.97632172],[4.02462192,50.97637837],[4.0245809,50.97639262],[4.02453153,50.97633597],[4.02457255,50.97632172]]]}},{"type":"Feature","id":"gebouw/Gebouw.18964187/0","properties":{"source":"Digitaal Vlaanderen Gebouwenregister","source_id":"gebouw/Gebouw.18964187/0","kind":"building","height_m":7.88,"status":null},"geometry":{"type":"Polygon","coordinates":[[[4.02517962,50.97716485],[4.02517751,50.97716573],[4.02512453,50.97718802],[4.02505689,50.97712394],[4.02511082,50.97710125],[4.02517962,50.97716485]]]}},{"type":"Feature","id":"gebouw/Gebouw.18965166/0","properties":{"source":"Digitaal Vlaanderen Gebouwenregister","source_id":"gebouw/Gebouw.18965166/0","kind":"building","height_m":7.16,"status":null},"geometry":{"type":"Polygon","coordinates":[[[4.02213423,50.97621308],[4.02215393,50.97624299],[4.02214531,50.97624525],[4.02209101,50.97625951],[4.02207431,50.97623415],[4.02206543,50.97622068],[4.02212835,50.97620416],[4.02213423,50.97621308]]]}},{"type":"Feature","id":"gebouw/Gebouw.18975422/0","properties":{"source":"Digitaal Vlaanderen Gebouwenregister","source_id":"gebouw/Gebouw.18975422/0","kind":"building","height_m":7.88,"status":null},"geometry":{"type":"Polygon","coordinates":[[[4.02462897,50.97714232],[4.02457558,50.97716433],[4.0245584,50.9771479],[4.0246106,50.97712536],[4.02462897,50.97714232]]]}},{"type":"Feature","id":"gebouw/Gebouw.19013705/0","properties":{"source":"Digitaal Vlaanderen Gebouwenregister","source_id":"gebouw/Gebouw.19013705/0","kind":"building","height_m":7.88,"status":null},"geometry":{"type":"Polygon","coordinates":[[[4.02221335,50.97643915],[4.02204623,50.9764829],[4.02201128,50.97642969],[4.02199538,50.97640547],[4.02200264,50.97640357],[4.02196573,50.97634738],[4.02212559,50.97630553],[4.02221335,50.97643915]]]}},{"type":"Feature","id":"gebouw/Gebouw.19790148/0","properties":{"source":"Digitaal Vlaanderen Gebouwenregister","source_id":"gebouw/Gebouw.19790148/0","kind":"building","height_m":5.0,"status":null},"geometry":{"type":"Polygon","coordinates":[[[4.02155703,50.97775013],[4.02171442,50.97765472],[4.02186506,50.97775375],[4.02170767,50.97784916],[4.02155703,50.97775013]]]}},{"type":"Feature","id":"gebouw/Gebouw.19844789/0","properties":{"source":"Digitaal Vlaanderen Gebouwenregister","source_id":"gebouw/Gebouw.19844789/0","kind":"building","height_m":9.32,"status":null},"geometry":{"type":"Polygon","coordinates":[[[4.02561173,50.97621508],[4.0255675,50.97623318],[4.02549053,50.97615483],[4.02548263,50.9761468],[4.02552479,50.97613022],[4.02552511,50.97613009],[4.02561173,50.97621508]]]}},{"type":"Feature","id":"gebouw/Gebouw.19844790/0","properties":{"source":"Digitaal Vlaanderen Gebouwenregister","source_id":"gebouw/Gebouw.19844790/0","kind":"building","height_m":5.0,"status":null},"geometry":{"type":"Polygon","coordinates":[[[4.02557301,50.97623879],[4.02552716,50.97625682],[4.02551872,50.97624933],[4.02552117,50.97624836],[4.02544613,50.97617229],[4.02549053,50.97615483],[4.0255675,50.97623318],[4.02557301,50.97623879]]]}},{"type":"Feature","id":"gebouw/Gebouw.19850827/0","properties":{"source":"Digitaal Vlaanderen Gebouwenregister","source_id":"gebouw/Gebouw.19850827/0","kind":"building","height_m":7.16,"status":null},"geometry":{"type":"Polygon","coordinates":[[[4.02524145,50.97577274],[4.02529494,50.97582275],[4.02513026,50.97589295],[4.02522182,50.97597856],[4.02514731,50.97601032],[4.02501521,50.97588681],[4.02508461,50.97585723],[4.02507114,50.97584464],[4.02524145,50.97577274]]]}},{"type":"Feature","id":"gebouw/Gebouw.19850828/0","properties":{"source":"Digitaal Vlaanderen Gebouwenregister","source_id":"gebouw/Gebouw.19850828/0","kind":"building","height_m":7.88,"status":null},"geometry":{"type":"Polygon","coordinates":[[[4.02524145,50.97577274],[4.02507114,50.97584464],[4.02503501,50.97581086],[4.02520481,50.97573848],[4.02524145,50.97577274]]]}},{"type":"Feature","id":"gebouw/Gebouw.19865224/0","properties":{"source":"Digitaal Vlaanderen Gebouwenregister","source_id":"gebouw/Gebouw.19865224/0","kind":"building","height_m":5.72,"status":null},"geometry":{"type":"Polygon","coordinates":[[[4.02149581,50.97744613],[4.02150015,50.97745887],[4.02150322,50.97746787],[4.02131136,50.97748027],[4.02122161,50.97748848],[4.02117624,50.97748898],[4.02117503,50.97748881],[4.02117416,50.97748828],[4.02117383,50.97748758],[4.02112282,50.97743906],[4.02100525,50.97732722],[4.02110827,50.97728727],[4.021096,50.97727447],[4.02118074,50.9772421],[4.02124218,50.97721862],[4.02122093,50.97719753],[4.02130522,50.97716368],[4.02133794,50.97719615],[4.0213827,50.97724057],[4.02138855,50.9772383],[4.02142649,50.97727595],[4.02139134,50.97729006],[4.02142286,50.97732134],[4.0213912,50.97733376],[4.02133551,50.97727718],[4.02118861,50.97733482],[4.02119259,50.97733887],[4.02117346,50.97734637],[4.02122518,50.9773989],[4.02127016,50.97744459],[4.02130776,50.97742686],[4.02148542,50.97741564],[4.02149581,50.97744613]]]}},{"type":"Feature","id":"gebouw/Gebouw.19865225/0","properties":{"source":"Digitaal Vlaanderen Gebouwenregister","source_id":"gebouw/Gebouw.19865225/0","kind":"building","height_m":6.44,"status":null},"geometry":{"type":"Polygon","coordinates":[[[4.02142286,50.97732134],[4.0214702,50.97736832],[4.0214136,50.97739105],[4.02140721,50.97739036],[4.02140752,50.97739133],[4.02137231,50.97740514],[4.0213378,50.97737008],[4.02128235,50.97739184],[4.02127143,50.97738075],[4.0213912,50.97733376],[4.02142286,50.97732134]]]}},{"type":"Feature","id":"gebouw/Gebouw.19867156/0","properties":{"source":"Digitaal Vlaanderen Gebouwenregister","source_id":"gebouw/Gebouw.19867156/0","kind":"building","height_m":5.72,"status":null},"geometry":{"type":"Polygon","coordinates":[[[4.02649516,50.97645225],[4.02640555,50.97649278],[4.02627597,50.97637992],[4.02636126,50.97634015],[4.02634954,50.97632737],[4.02645487,50.97628597],[4.02650323,50.9763377],[4.02649293,50.97634179],[4.02643642,50.97636426],[4.0264618,50.97638685],[4.0264365,50.97640068],[4.02647602,50.97643543],[4.02649221,50.97644967],[4.02649516,50.97645225]]]}},{"type":"Feature","id":"gebouw/Gebouw.19867157/0","properties":{"source":"Digitaal Vlaanderen Gebouwenregister","source_id":"gebouw/Gebouw.19867157/0","kind":"building","height_m":6.44,"status":null},"geometry":{"type":"Polygon","coordinates":[[[4.02649918,50.97645043],[4.02661854,50.97655343],[4.02652698,50.97659365],[4.02644805,50.97652737],[4.02641013,50.97654363],[4.02636623,50.97651057],[4.02640555,50.97649278],[4.02649516,50.97645225],[4.02649918,50.97645043]]]}},{"type":"Feature","id":"gebouw/Gebouw.19867216/0","properties":{"source":"Digitaal Vlaanderen Gebouwenregister","source_id":"gebouw/Gebouw.19867216/0","kind":"building","height_m":8.6,"status":null},"geometry":{"type":"Polygon","coordinates":[[[4.02525187,50.9760526],[4.02521252,50.9760127],[4.02517204,50.97603081],[4.02514731,50.97601032],[4.02522182,50.97597856],[4.02522973,50.97598596],[4.02534159,50.97594189],[4.02541445,50.97591319],[4.02541724,50.97591601],[4.02546739,50.97596788],[4.02540292,50.97599322],[4.02525187,50.9760526]]]}},{"type":"Feature","id":"gebouw/Gebouw.19867217/0","properties":{"source":"Digitaal Vlaanderen Gebouwenregister","source_id":"gebouw/Gebouw.19867217/0","kind":"building","height_m":9.32,"status":null},"geometry":{"type":"Polygon","coordinates":[[[4.02541724,50.97591601],[4.0254574,50.97590023],[4.02550827,50.97595181],[4.02546739,50.97596788],[4.02541724,50.97591601]]]}},{"type":"Feature","id":"gebouw/Gebouw.20145149/0","properties":{"source":"Digitaal Vlaanderen Gebouwenregister","source_id":"gebouw/Gebouw.20145149/0","kind":"building","height_m":7.16,"status":null},"geometry":{"type":"Polygon","coordinates":[[[4.02344985,50.98020179],[4.02351547,50.98016761],[4.02357299,50.98021163],[4.02350737,50.9802458],[4.02344985,50.98020179]]]}},{"type":"Feature","id":"gebouw/Gebouw.20145150/0","properties":{"source":"Digitaal Vlaanderen Gebouwenregister","source_id":"gebouw/Gebouw.20145150/0","kind":"building","height_m":7.88,"status":null},"geometry":{"type":"Polygon","coordinates":[[[4.02477508,50.97736664],[4.02473125,50.97738444],[4.02472836,50.9773816],[4.02468573,50.97733975],[4.02467643,50.97734353],[4.0246444,50.97731208],[4.02469753,50.97729051],[4.02477087,50.9773625],[4.02477508,50.97736664]]]}},{"type":"Feature","id":"gebouw/Gebouw.20146788/0","properties":{"source":"Digitaal Vlaanderen Gebouwenregister","source_id":"gebouw/Gebouw.20146788/0","kind":"building","height_m":7.88,"status":null},"geometry":{"type":"Polygon","coordinates":[[[4.02473451,50.98037363],[4.02471051,50.98038998],[4.02467918,50.98036475],[4.02470401,50.98035246],[4.02469937,50.98034873],[4.02470137,50.98034774],[4.02471473,50.98034113],[4.02470268,50.98033142],[4.02472793,50.98031893],[4.0247221,50.98031423],[4.02473704,50.98030684],[4.02478392,50.98034461],[4.02476927,50.98035186],[4.02477564,50.98035699],[4.02475026,50.98036954],[4.0247458,50.98036594],[4.02473451,50.98037363]]]}},{"type":"Feature","id":"gebouw/Gebouw.20146846/0","properties":{"source":"Digitaal Vlaanderen Gebouwenregister","source_id":"gebouw/Gebouw.20146846/0","kind":"building","height_m":9.32,"status":null},"geometry":{"type":"Polygon","coordinates":[[[4.02601914,50.97629917],[4.02596833,50.97631466],[4.02592812,50.9762792],[4.02584747,50.97631566],[4.02578199,50.97625575],[4.02575854,50.9762343],[4.02572198,50.97620085],[4.02577994,50.97617465],[4.02584558,50.97614498],[4.02584589,50.97614483],[4.02588763,50.97618201],[4.02589215,50.97618604],[4.02597364,50.97625863],[4.02601914,50.97629917]]]}},{"type":"Feature","id":"gebouw/Gebouw.20146975/0","properties":{"source":"Digitaal Vlaanderen Gebouwenregister","source_id":"gebouw/Gebouw.20146975/0","kind":"building","height_m":6.44,"status":null},"geometry":{"type":"Polygon","coordinates":[[[4.02215654,50.97623859],[4.02210689,50.97625163],[4.02217294,50.97635187],[4.02222259,50.97633884],[4.02215654,50.97623859]]]}},{"type":"Feature","id":"gebouw/Gebouw.20735068/0","properties":{"source":"Digitaal Vlaanderen Gebouwenregister","source_id":"gebouw/Gebouw.20735068/0","kind":"building","height_m":7.88,"status":null},"geometry":{"type":"Polygon","coordinates":[[[4.02499803,50.97703982],[4.02496104,50.97705511],[4.02492078,50.97707176],[4.02484309,50.97710389],[4.02470646,50.97697247],[4.02476582,50.97694866],[4.02476088,50.97694374],[4.0247794,50.97693607],[4.02482035,50.97691912],[4.02483488,50.97691311],[4.02484871,50.97692699],[4.0248717,50.97691749],[4.02499803,50.97703982]]]}},{"type":"Feature","id":"gebouw/Gebouw.30642245/0","properties":{"source":"Digitaal Vlaanderen Gebouwenregister","source_id":"gebouw/Gebouw.30642245/0","kind":"building","height_m":7.88,"status":null},"geometry":{"type":"Polygon","coordinates":[[[4.02581894,50.97602423],[4.02580759,50.97602917],[4.02581457,50.97603555],[4.02576645,50.9760565],[4.02576014,50.97605072],[4.02574873,50.97605569],[4.02572576,50.97603466],[4.02579646,50.97600388],[4.02581894,50.97602423]]]}},{"type":"Feature","id":"gebouw/Gebouw.30642246/0","properties":{"source":"Digitaal Vlaanderen Gebouwenregister","source_id":"gebouw/Gebouw.30642246/0","kind":"building","height_m":8.6,"status":null},"geometry":{"type":"Polygon","coordinates":[[[4.02605219,50.97680412],[4.0260824,50.97679263],[4.02612389,50.97683524],[4.02609368,50.97684672],[4.02605219,50.97680412]]]}},{"type":"Feature","id":"gebouw/Gebouw.30910388/0","properties":{"source":"Digitaal Vlaanderen Gebouwenregister","source_id":"gebouw/Gebouw.30910388/0","kind":"building","height_m":8.6,"status":null},"geometry":{"type":"Polygon","coordinates":[[[4.02492078,50.97707176],[4.0247794,50.97693607],[4.02482035,50.97691912],[4.02483488,50.97691311],[4.02484871,50.97692699],[4.0248717,50.97691749],[4.02499803,50.97703982],[4.02492078,50.97707176]]]}},{"type":"Feature","id":"gebouw/Gebouw.30910389/0","properties":{"source":"Digitaal Vlaanderen Gebouwenregister","source_id":"gebouw/Gebouw.30910389/0","kind":"building","height_m":9.32,"status":null},"geometry":{"type":"Polygon","coordinates":[[[4.0247794,50.97693607],[4.02492078,50.97707176],[4.02484309,50.97710389],[4.02470646,50.97697247],[4.02476582,50.97694866],[4.02476088,50.97694374],[4.0247794,50.97693607]]]}},{"type":"Feature","id":"gebouw/Gebouw.31145078/0","properties":{"source":"Digitaal Vlaanderen Gebouwenregister","source_id":"gebouw/Gebouw.31145078/0","kind":"building","height_m":9.32,"status":null},"geometry":{"type":"Polygon","coordinates":[[[4.02501858,50.9772604],[4.02491198,50.97715627],[4.02486655,50.97717481],[4.02493679,50.977242],[4.02494718,50.97725194],[4.02497473,50.97727829],[4.02501858,50.9772604]]]}},{"type":"Feature","id":"gebouw/Gebouw.31145083/0","properties":{"source":"Digitaal Vlaanderen Gebouwenregister","source_id":"gebouw/Gebouw.31145083/0","kind":"building","height_m":7.88,"status":null},"geometry":{"type":"Polygon","coordinates":[[[4.0209587,50.97849852],[4.02092096,50.97847084],[4.02094837,50.97845594],[4.02098612,50.97848362],[4.0209587,50.97849852]]]}},{"type":"Feature","id":"gebouw/Gebouw.31145103/0","properties":{"source":"Digitaal Vlaanderen Gebouwenregister","source_id":"gebouw/Gebouw.31145103/0","kind":"building","height_m":7.16,"status":null},"geometry":{"type":"Polygon","coordinates":[[[4.02076298,50.97778153],[4.02069518,50.97781325],[4.02068947,50.97781592],[4.02063021,50.97776542],[4.02061885,50.97775574],[4.02069236,50.97772135],[4.02076298,50.97778153]]]}},{"type":"Feature","id":"gebouw/Gebouw.31150419/0","properties":{"source":"Digitaal Vlaanderen Gebouwenregister","source_id":"gebouw/Gebouw.31150419/0","kind":"building","height_m":9.32,"status":null},"geometry":{"type":"Polygon","coordinates":[[[4.02562964,50.97611637],[4.02566847,50.97609833],[4.0256875,50.97611467],[4.025667,50.97612419],[4.0257181,50.97616802],[4.02569687,50.97617788],[4.02562964,50.97611637]]]}},{"type":"Feature","id":"gebouw/Gebouw.31615351/0","properties":{"source":"Digitaal Vlaanderen Gebouwenregister","source_id":"gebouw/Gebouw.31615351/0","kind":"building","height_m":8.6,"status":null},"geometry":{"type":"Polygon","coordinates":[[[4.02678069,50.97584855],[4.02662641,50.97574373],[4.02653671,50.97579662],[4.02665318,50.97587462],[4.0267018,50.97584609],[4.02674077,50.97587245],[4.02678069,50.97584855]]]}},{"type":"Feature","id":"gebouw/Gebouw.31615354/0","properties":{"source":"Digitaal Vlaanderen Gebouwenregister","source_id":"gebouw/Gebouw.31615354/0","kind":"building","height_m":5.72,"status":null},"geometry":{"type":"Polygon","coordinates":[[[4.02678225,50.97579853],[4.02683054,50.97577007],[4.02671466,50.97569172],[4.02662641,50.97574373],[4.02678069,50.97584855],[4.02682103,50.97582488],[4.02678225,50.97579853]]]}},{"type":"Feature","id":"gebouw/Gebouw.31689692/0","properties":{"source":"Digitaal Vlaanderen Gebouwenregister","source_id":"gebouw/Gebouw.31689692/0","kind":"building","height_m":9.32,"status":null},"geometry":{"type":"Polygon","coordinates":[[[4.02667382,50.97665543],[4.02686045,50.97657179],[4.0267533,50.9764765],[4.02656667,50.97656013],[4.02667382,50.97665543]]]}},{"type":"Feature","id":"gebouw/Gebouw.31805732/0","properties":{"source":"Digitaal Vlaanderen Gebouwenregister","source_id":"gebouw/Gebouw.31805732/0","kind":"building","height_m":5.0,"status":null},"geometry":{"type":"Polygon","coordinates":[[[4.02553689,50.97639541],[4.02545926,50.97631446],[4.02536765,50.97634947],[4.02527709,50.97638408],[4.02535627,50.97646532],[4.02544435,50.97643123],[4.02553689,50.97639541]]]}},{"type":"Feature","id":"gebouw/Gebouw.31806505/0","properties":{"source":"Digitaal Vlaanderen Gebouwenregister","source_id":"gebouw/Gebouw.31806505/0","kind":"building","height_m":7.16,"status":null},"geometry":{"type":"Polygon","coordinates":[[[4.02494718,50.97725194],[4.02493679,50.977242],[4.02486655,50.97717481],[4.02481484,50.97719606],[4.02489471,50.97727351],[4.02494718,50.97725194]]]}},{"type":"Feature","id":"gebouw/Gebouw.31806719/0","properties":{"source":"Digitaal Vlaanderen Gebouwenregister","source_id":"gebouw/Gebouw.31806719/0","kind":"building","height_m":5.0,"status":null},"geometry":{"type":"Polygon","coordinates":[[[4.02609081,50.97685074],[4.02611463,50.9768416],[4.02610745,50.97683414],[4.02611801,50.97683009],[4.0260486,50.97675221],[4.02600376,50.97676813],[4.02607557,50.97684636],[4.02608362,50.97684328],[4.02609081,50.97685074]]]}},{"type":"Feature","id":"gebouw/Gebouw.31806824/0","properties":{"source":"Digitaal Vlaanderen Gebouwenregister","source_id":"gebouw/Gebouw.31806824/0","kind":"building","height_m":5.0,"status":null},"geometry":{"type":"Polygon","coordinates":[[[4.02524677,50.9762987],[4.02518428,50.97623462],[4.02512305,50.97625841],[4.02518555,50.9763225],[4.02524677,50.9762987]]]}},{"type":"Feature","id":"gebouw/Gebouw.32047794/0","properties":{"source":"Digitaal Vlaanderen Gebouwenregister","source_id":"gebouw/Gebouw.32047794/0","kind":"building","height_m":6.44,"status":null},"geometry":{"type":"Polygon","coordinates":[[[4.02301606,50.97725224],[4.02300873,50.97723063],[4.02298311,50.97717415],[4.02285855,50.9771903],[4.02288652,50.97726904],[4.02301606,50.97725224]]]}},{"type":"Feature","id":"way/152613895","properties":{"source":"OpenStreetMap","source_id":"way/152613895","kind":"vegetation","name":null,"waterway":null,"landuse":"forest"},"geometry":{"type":"Polygon","coordinates":[[[4.0200446,50.9763391],[4.0197448,50.9760698],[4.0193771,50.9759112],[4.0192292,50.9758861],[4.0191213,50.9759263],[4.0188855,50.9760924],[4.0190334,50.9761654],[4.0191893,50.9760723],[4.019589,50.9762912],[4.0197688,50.9763944],[4.0198727,50.9764095],[4.0199726,50.9763768],[4.0200446,50.9763391]]]}},{"type":"Feature","id":"way/152613956","properties":{"source":"OpenStreetMap","source_id":"way/152613956","kind":"vegetation","name":null,"waterway":null,"landuse":"forest"},"geometry":{"type":"Polygon","coordinates":[[[4.0214408,50.9765305],[4.0212693,50.9765832],[4.0211454,50.9765857],[4.0210095,50.9765152],[4.0209415,50.9764523],[4.0208856,50.9763516],[4.0202301,50.9760119],[4.0204259,50.9758282],[4.0208696,50.9760295],[4.0212093,50.9757099],[4.0213053,50.9755589],[4.0213292,50.975423],[4.0212813,50.9753123],[4.0211294,50.9751235],[4.0212401,50.9750908],[4.0213871,50.9753239],[4.0214182,50.9755126],[4.0213447,50.9757208],[4.0212571,50.9760411],[4.0212316,50.9761194],[4.0214408,50.9765305]]]}},{"type":"Feature","id":"way/152614009","properties":{"source":"OpenStreetMap","source_id":"way/152614009","kind":"vegetation","name":null,"waterway":null,"landuse":"forest"},"geometry":{"type":"Polygon","coordinates":[[[4.025614,50.9799513],[4.0261801,50.9803441],[4.0264694,50.9801656],[4.0267023,50.9802402],[4.0269777,50.9803088],[4.0259837,50.9808241],[4.0257526,50.9806314],[4.0259952,50.9805077],[4.0253944,50.9800895],[4.025614,50.9799513]]]}},{"type":"Feature","id":"way/1250958027","properties":{"source":"OpenStreetMap","source_id":"way/1250958027","kind":"water","name":null,"waterway":null,"landuse":null},"geometry":{"type":"Polygon","coordinates":[[[4.0244105,50.9765174],[4.024414,50.9765433],[4.024507,50.9766145],[4.0245105,50.9766315],[4.0245506,50.9766641],[4.0245906,50.9766656],[4.0246,50.9766486],[4.0245835,50.9766197],[4.0247107,50.9765781],[4.0246954,50.9765166],[4.0246918,50.9764951],[4.0246377,50.9764343],[4.0245859,50.9764262],[4.0245506,50.9764388],[4.0245058,50.9764529],[4.0244199,50.9764974],[4.0244105,50.9765174]]]}}]}