{"type":"FeatureCollection","features":[{"type":"Feature","id":"gebouw/Gebouw.6238555/0","properties":{"source":"Digitaal Vlaanderen Gebouwenregister","source_id":"gebouw/Gebouw.6238555/0","kind":"building","height_m":5.72,"status":null},"geometry":{"type":"Polygon","coordinates":[[[4.02634705,50.98753921],[4.026301,50.98753151],[4.0263277,50.98746678],[4.02637738,50.9874748],[4.02638974,50.98747681],[4.02636346,50.98754195],[4.02634705,50.98753921]]]}},{"type":"Feature","id":"gebouw/Gebouw.15785056/0","properties":{"source":"Digitaal Vlaanderen Gebouwenregister","source_id":"gebouw/Gebouw.15785056/0","kind":"building","height_m":5.0,"status":null},"geometry":{"type":"Polygon","coordinates":[[[4.02319705,50.98460588],[4.02322331,50.98464179],[4.02314801,50.98466443],[4.02312133,50.98462791],[4.02319705,50.98460588]]]}},{"type":"Feature","id":"gebouw/Gebouw.16070587/0","properties":{"source":"Digitaal Vlaanderen Gebouwenregister","source_id":"gebouw/Gebouw.16070587/0","kind":"building","height_m":5.72,"status":null},"geometry":{"type":"Polygon","coordinates":[[[4.02461199,50.98343387],[4.02456334,50.98346397],[4.02446583,50.98340103],[4.02451461,50.98337091],[4.02461199,50.98343387]]]}},{"type":"Feature","id":"way/129833881","properties":{"source":"OpenStreetMap","source_id":"way/129833881","kind":"vegetation","name":null,"waterway":null,"landuse":"forest"},"geometry":{"type":"Polygon","coordinates":[[[4.0236012,50.9826457],[4.0230508,50.982173],[4.0224922,50.9824423],[4.0222053,50.9823124],[4.0213581,50.9827282],[4.0214119,50.9829251],[4.0214621,50.983123],[4.0214244,50.9833897],[4.021529,50.9835264],[4.0215524,50.9835935],[4.0215602,50.9836804],[4.0216457,50.9837701],[4.0218095,50.9840681],[4.0219979,50.9841696],[4.0226452,50.9840418],[4.0229027,50.9840308],[4.0233846,50.9838049],[4.0234939,50.983782],[4.0236214,50.9837705],[4.0237246,50.983799],[4.0249092,50.9848546],[4.0255132,50.9848448],[4.0257607,50.9848944],[4.0259975,50.9849911],[4.0261702,50.9850844],[4.0267505,50.9847892],[4.0264772,50.984396],[4.0272623,50.9845195],[4.0280272,50.9845449],[4.0264269,50.9835405],[4.0260897,50.9836197],[4.0257114,50.983594],[4.0245002,50.9830379],[4.0243362,50.9830993],[4.0239013,50.9827274],[4.0236012,50.9826457]]]}},{"type":"Feature","id":"way/129833885","properties":{"source":"OpenStreetMap","source_id":"way/129833885","kind":"vegetation","name":null,"waterway":null,"landuse":"forest"},"geometry":{"type":"Polygon","coordinates":[[[4.0228647,50.9857822],[4.0228003,50.9854544],[4.0237887,50.9853409],[4.023843,50.985541],[4.0244873,50.9860059],[4.0244202,50.9862296],[4.0242816,50.9862521],[4.0241291,50.986305],[4.0239757,50.9863907],[4.0228647,50.9857822]]]}},{"type":"Feature","id":"way/152642160","properties":{"source":"OpenStreetMap","source_id":"way/152642160","kind":"vegetation","name":null,"waterway":null,"landuse":"forest"},"geometry":{"type":"Polygon","coordinates":[[[4.0160784,50.9840495],[4.0160054,50.9841426],[4.014955,50.9837062],[4.0158238,50.982894],[4.0162649,50.9828816],[4.0167783,50.9829313],[4.0175287,50.9830515],[4.0179237,50.9831592],[4.0181541,50.9832048],[4.0181453,50.9832787],[4.0180433,50.9832974],[4.0177175,50.9831834],[4.0170822,50.9830653],[4.0163779,50.982999],[4.0155255,50.9838029],[4.0160784,50.9840495]]]}},{"type":"Feature","id":"way/152642221","properties":{"source":"OpenStreetMap","source_id":"way/152642221","kind":"vegetation","name":null,"waterway":null,"landuse":"forest"},"geometry":{"type":"Polygon","coordinates":[[[4.0207854,50.9864662],[4.0209725,50.9865417],[4.0210251,50.9865629],[4.0209087,50.9867387],[4.0204689,50.9871665],[4.0202501,50.9869745],[4.0207854,50.9864662]]]}},{"type":"Feature","id":"way/314628340","properties":{"source":"OpenStreetMap","source_id":"way/314628340","kind":"waterway","name":"Spechtmeersbeek","waterway":"stream","landuse":null},"geometry":{"type":"LineString","coordinates":[[4.0145577,50.9797304],[4.0145998,50.979772],[4.0148662,50.9799602],[4.0151782,50.980128],[4.0155486,50.9802548],[4.0158736,50.9803489],[4.0159845,50.9803796],[4.0160725,50.9804702],[4.016166,50.9805494],[4.0167054,50.9810363],[4.0169589,50.9812],[4.0171734,50.9813391],[4.0172774,50.9814782],[4.0173748,50.9817687],[4.0174398,50.9823497],[4.017471,50.9826034],[4.0179612,50.982528],[4.0182884,50.9825201],[4.0184547,50.9824863],[4.0185741,50.9824624],[4.0186961,50.9824187],[4.0189063,50.9823447],[4.019179,50.9822647],[4.0196286,50.9821592],[4.0197562,50.9821811],[4.0198629,50.9822549],[4.0201981,50.9824019],[4.0204959,50.9825082],[4.0207614,50.9826231],[4.0208821,50.9826805],[4.0211101,50.9827193],[4.0212183,50.9827539],[4.0212635,50.9827629],[4.0213988,50.9827528],[4.0214514,50.9829339],[4.0214855,50.9831181],[4.0214504,50.9833864],[4.02155,50.9834758],[4.0215848,50.9835265],[4.0215795,50.983594],[4.0216036,50.9836717],[4.0216709,50.9837657],[4.021837,50.98406],[4.0219952,50.9841343],[4.0220882,50.9841265],[4.022644,50.9840198],[4.0227409,50.9840111],[4.0228738,50.984004],[4.0231754,50.9838675],[4.0233516,50.9837921],[4.023491,50.9837542],[4.0236444,50.9837484],[4.0237574,50.9837831],[4.0238754,50.9839013],[4.0241544,50.9841411],[4.0245067,50.9844597],[4.0247066,50.9846299],[4.0249013,50.9848095],[4.0251957,50.9847959],[4.025533,50.9848233],[4.0257691,50.9848739],[4.0260132,50.9849685],[4.0261658,50.9850608],[4.0266714,50.9847942],[4.0268071,50.9848672],[4.0270646,50.984982],[4.0272845,50.9850276],[4.0275501,50.9850445],[4.0277861,50.9850428],[4.0280087,50.9850715],[4.0281982,50.9851095],[4.0282088,50.9851373],[4.0282335,50.9851662],[4.0283105,50.9851959],[4.0283262,50.9852012],[4.0283711,50.9852164],[4.0284114,50.985288],[4.0284356,50.9852888]]}},{"type":"Feature","id":"way/398065448","properties":{"source":"OpenStreetMap","source_id":"way/398065448","kind":"waterway","name":"Grootebeek - Porrebeek","waterway":"stream","landuse":null},"geometry":{"type":"LineString","coordinates":[[4.020255,50.9880331],[4.0203507,50.9879812]]}},{"type":"Feature","id":"way/1250958020","properties":{"source":"OpenStreetMap","source_id":"way/1250958020","kind":"water","name":null,"waterway":null,"landuse":null},"geometry":{"type":"Polygon","coordinates":[[[4.0185188,50.9831098],[4.0185268,50.9831321],[4.0186415,50.9831474],[4.01874,50.9831464],[4.0188078,50.983125],[4.0188934,50.9830264],[4.0189407,50.9830569],[4.0190396,50.9830712],[4.0191211,50.9830244],[4.0191744,50.9830224],[4.0192923,50.9830398],[4.0193932,50.9830393],[4.0194845,50.9830226],[4.0195394,50.982982],[4.0195281,50.9829262],[4.019473,50.9828811],[4.0194372,50.9828258],[4.0193658,50.9827702],[4.019323,50.9827809],[4.0190824,50.9828086],[4.0190428,50.9827797],[4.0188948,50.9828203],[4.0187501,50.98293],[4.0187959,50.9829502],[4.0187836,50.983003],[4.0185188,50.9831098]]]}}]}