{"type":"FeatureCollection","features":[{"type":"Feature","id":"gebouw/Gebouw.15862251/0","properties":{"source":"Digitaal Vlaanderen Gebouwenregister","source_id":"gebouw/Gebouw.15862251/0","kind":"building","height_m":9.32,"status":null},"geometry":{"type":"Polygon","coordinates":[[[4.02648876,50.92447794],[4.02646605,50.92449512],[4.02643815,50.92451623],[4.02638539,50.92448838],[4.02640347,50.9244747],[4.02640077,50.92447328],[4.02641115,50.92446543],[4.0264333,50.92444866],[4.02648876,50.92447794]]]}},{"type":"Feature","id":"gebouw/Gebouw.16025164/0","properties":{"source":"Digitaal Vlaanderen Gebouwenregister","source_id":"gebouw/Gebouw.16025164/0","kind":"building","height_m":5.72,"status":null},"geometry":{"type":"Polygon","coordinates":[[[4.02589161,50.92188703],[4.02583337,50.92186694],[4.02588609,50.92180588],[4.02594433,50.92182597],[4.02589161,50.92188703]]]}},{"type":"Feature","id":"gebouw/Gebouw.16050740/0","properties":{"source":"Digitaal Vlaanderen Gebouwenregister","source_id":"gebouw/Gebouw.16050740/0","kind":"building","height_m":9.32,"status":null},"geometry":{"type":"Polygon","coordinates":[[[4.02415337,50.92850418],[4.02402704,50.92845278],[4.02404261,50.92843749],[4.02416894,50.92848889],[4.02415337,50.92850418]]]}},{"type":"Feature","id":"gebouw/Gebouw.16502793/0","properties":{"source":"Digitaal Vlaanderen Gebouwenregister","source_id":"gebouw/Gebouw.16502793/0","kind":"building","height_m":9.32,"status":null},"geometry":{"type":"Polygon","coordinates":[[[4.02615492,50.92179461],[4.02609569,50.9218392],[4.02607367,50.92182751],[4.02603912,50.92185353],[4.02597176,50.92181743],[4.02612224,50.92170524],[4.02621724,50.92175616],[4.02622654,50.92174917],[4.02627483,50.9217748],[4.02620983,50.92182374],[4.02615492,50.92179461]]]}},{"type":"Feature","id":"gebouw/Gebouw.16736950/0","properties":{"source":"Digitaal Vlaanderen Gebouwenregister","source_id":"gebouw/Gebouw.16736950/0","kind":"building","height_m":9.32,"status":null},"geometry":{"type":"Polygon","coordinates":[[[4.01812951,50.92575365],[4.01809958,50.92573977],[4.01809031,50.92574775],[4.01799061,50.92569588],[4.01808927,50.9256109],[4.01823534,50.92566614],[4.01812951,50.92575365]]]}},{"type":"Feature","id":"gebouw/Gebouw.16737249/0","properties":{"source":"Digitaal Vlaanderen Gebouwenregister","source_id":"gebouw/Gebouw.16737249/0","kind":"building","height_m":7.88,"status":null},"geometry":{"type":"Polygon","coordinates":[[[4.0175075,50.92775452],[4.01757576,50.92769829],[4.01769693,50.92775585],[4.01762922,50.92781278],[4.0175075,50.92775452]]]}},{"type":"Feature","id":"gebouw/Gebouw.16737296/0","properties":{"source":"Digitaal Vlaanderen Gebouwenregister","source_id":"gebouw/Gebouw.16737296/0","kind":"building","height_m":6.44,"status":null},"geometry":{"type":"Polygon","coordinates":[[[4.018273,50.92629284],[4.01826966,50.92629566],[4.01821549,50.92626825],[4.01826627,50.92622518],[4.01827897,50.92623117],[4.01833969,50.92617968],[4.01838304,50.9262001],[4.01838029,50.92620242],[4.01837487,50.92620699],[4.018273,50.92629284]]]}},{"type":"Feature","id":"gebouw/Gebouw.16745684/0","properties":{"source":"Digitaal Vlaanderen Gebouwenregister","source_id":"gebouw/Gebouw.16745684/0","kind":"building","height_m":7.88,"status":null},"geometry":{"type":"Polygon","coordinates":[[[4.01662153,50.92638342],[4.01660758,50.92652566],[4.01647898,50.9265208],[4.01648602,50.92644729],[4.01655053,50.92644986],[4.016557,50.92638109],[4.01662153,50.92638342]]]}},{"type":"Feature","id":"gebouw/Gebouw.16746063/0","properties":{"source":"Digitaal Vlaanderen Gebouwenregister","source_id":"gebouw/Gebouw.16746063/0","kind":"building","height_m":8.6,"status":null},"geometry":{"type":"Polygon","coordinates":[[[4.01915994,50.92624304],[4.01920212,50.92620397],[4.01923927,50.92621999],[4.01919708,50.92625906],[4.01915994,50.92624304]]]}},{"type":"Feature","id":"gebouw/Gebouw.16746279/0","properties":{"source":"Digitaal Vlaanderen Gebouwenregister","source_id":"gebouw/Gebouw.16746279/0","kind":"building","height_m":7.88,"status":null},"geometry":{"type":"Polygon","coordinates":[[[4.01658783,50.92429252],[4.01649302,50.92438083],[4.01642453,50.92435147],[4.01654064,50.92424047],[4.01648231,50.92422059],[4.01649855,50.92420159],[4.0165555,50.92413495],[4.0166221,50.92415712],[4.01659225,50.92419122],[4.01666796,50.92421787],[4.01658783,50.92429252]]]}},{"type":"Feature","id":"gebouw/Gebouw.16746617/0","properties":{"source":"Digitaal Vlaanderen Gebouwenregister","source_id":"gebouw/Gebouw.16746617/0","kind":"building","height_m":9.32,"status":null},"geometry":{"type":"Polygon","coordinates":[[[4.01736452,50.92484909],[4.01747064,50.92475707],[4.01761576,50.92482393],[4.01750525,50.92492764],[4.01744265,50.924901],[4.01745362,50.92489013],[4.01736452,50.92484909]]]}},{"type":"Feature","id":"gebouw/Gebouw.16751700/0","properties":{"source":"Digitaal Vlaanderen Gebouwenregister","source_id":"gebouw/Gebouw.16751700/0","kind":"building","height_m":5.0,"status":null},"geometry":{"type":"Polygon","coordinates":[[[4.01731859,50.92455181],[4.01742508,50.92445565],[4.01749612,50.92448708],[4.01738963,50.92458324],[4.01736889,50.92457406],[4.01732264,50.9245536],[4.01731859,50.92455181]]]}},{"type":"Feature","id":"gebouw/Gebouw.16751851/0","properties":{"source":"Digitaal Vlaanderen Gebouwenregister","source_id":"gebouw/Gebouw.16751851/0","kind":"building","height_m":7.88,"status":null},"geometry":{"type":"Polygon","coordinates":[[[4.01877382,50.92692263],[4.01875366,50.92693286],[4.01870726,50.92689082],[4.018697,50.92689602],[4.01866943,50.92687431],[4.01874379,50.92683673],[4.01881868,50.92689989],[4.01877382,50.92692263]]]}},{"type":"Feature","id":"gebouw/Gebouw.16751955/0","properties":{"source":"Digitaal Vlaanderen Gebouwenregister","source_id":"gebouw/Gebouw.16751955/0","kind":"building","height_m":7.16,"status":null},"geometry":{"type":"Polygon","coordinates":[[[4.01758181,50.92704288],[4.01747016,50.92714079],[4.01736562,50.92709318],[4.01747726,50.92699526],[4.01749189,50.92700192],[4.01756215,50.92703392],[4.01758181,50.92704288]]]}},{"type":"Feature","id":"gebouw/Gebouw.16752270/0","properties":{"source":"Digitaal Vlaanderen Gebouwenregister","source_id":"gebouw/Gebouw.16752270/0","kind":"building","height_m":7.16,"status":null},"geometry":{"type":"Polygon","coordinates":[[[4.0169139,50.92843405],[4.01684935,50.92848785],[4.0166908,50.92841345],[4.01663233,50.92838601],[4.01658028,50.92836158],[4.01661259,50.92833403],[4.01666467,50.92835842],[4.01669742,50.92833052],[4.01673106,50.92834661],[4.01674434,50.92835296],[4.0169139,50.92843405]]]}},{"type":"Feature","id":"gebouw/Gebouw.16752374/0","properties":{"source":"Digitaal Vlaanderen Gebouwenregister","source_id":"gebouw/Gebouw.16752374/0","kind":"building","height_m":6.44,"status":null},"geometry":{"type":"Polygon","coordinates":[[[4.01738465,50.9265965],[4.01736203,50.92662706],[4.01742276,50.92664487],[4.01740994,50.92666033],[4.01742747,50.92666514],[4.0173874,50.92671121],[4.01737841,50.92672154],[4.01727145,50.9266915],[4.01727204,50.92669066],[4.01728363,50.92667668],[4.01734121,50.92660732],[4.01735698,50.9265883],[4.01738465,50.9265965]]]}},{"type":"Feature","id":"gebouw/Gebouw.16752378/0","properties":{"source":"Digitaal Vlaanderen Gebouwenregister","source_id":"gebouw/Gebouw.16752378/0","kind":"building","height_m":9.32,"status":null},"geometry":{"type":"Polygon","coordinates":[[[4.01691025,50.92440904],[4.01677236,50.92455008],[4.01671036,50.92450715],[4.01683354,50.92438115],[4.01685066,50.92436364],[4.01692664,50.92439228],[4.01691025,50.92440904]]]}},{"type":"Feature","id":"gebouw/Gebouw.16754318/0","properties":{"source":"Digitaal Vlaanderen Gebouwenregister","source_id":"gebouw/Gebouw.16754318/0","kind":"building","height_m":5.0,"status":null},"geometry":{"type":"Polygon","coordinates":[[[4.01645395,50.9240266],[4.01639926,50.92409388],[4.016277,50.92405859],[4.01630601,50.92402189],[4.01636818,50.92394323],[4.01643255,50.9238618],[4.01657222,50.92368511],[4.01664012,50.92370741],[4.01653852,50.92383734],[4.01659264,50.92385453],[4.01656102,50.92390086],[4.01655694,50.92389991],[4.01645395,50.9240266]]]}},{"type":"Feature","id":"gebouw/Gebouw.16754410/0","properties":{"source":"Digitaal Vlaanderen Gebouwenregister","source_id":"gebouw/Gebouw.16754410/0","kind":"building","height_m":5.72,"status":null},"geometry":{"type":"Polygon","coordinates":[[[4.01697511,50.92640159],[4.016931,50.92640471],[4.01691977,50.92632982],[4.01697353,50.92632942],[4.01697511,50.92640159]]]}},{"type":"Feature","id":"gebouw/Gebouw.16754486/0","properties":{"source":"Digitaal Vlaanderen Gebouwenregister","source_id":"gebouw/Gebouw.16754486/0","kind":"building","height_m":5.0,"status":null},"geometry":{"type":"Polygon","coordinates":[[[4.01881096,50.92567646],[4.01874811,50.92573534],[4.01866549,50.92565473],[4.01877674,50.92560876],[4.01880773,50.92558061],[4.01885543,50.92553729],[4.01887551,50.92551906],[4.01890892,50.92553464],[4.01884885,50.92558884],[4.01886534,50.92559653],[4.01883383,50.92562519],[4.01881901,50.92561751],[4.0188169,50.92561959],[4.01880661,50.92561403],[4.01879488,50.92562288],[4.01882477,50.92565031],[4.01879266,50.92566324],[4.01881096,50.92567646]]]}},{"type":"Feature","id":"gebouw/Gebouw.16754577/0","properties":{"source":"Digitaal Vlaanderen Gebouwenregister","source_id":"gebouw/Gebouw.16754577/0","kind":"building","height_m":5.0,"status":null},"geometry":{"type":"Polygon","coordinates":[[[4.01614898,50.92494553],[4.01619887,50.92487372],[4.01623892,50.92488484],[4.01618903,50.92495665],[4.01614898,50.92494553]]]}},{"type":"Feature","id":"gebouw/Gebouw.16754668/0","properties":{"source":"Digitaal Vlaanderen Gebouwenregister","source_id":"gebouw/Gebouw.16754668/0","kind":"building","height_m":5.0,"status":null},"geometry":{"type":"Polygon","coordinates":[[[4.01704501,50.9280743],[4.01711406,50.92801747],[4.01728228,50.9280991],[4.01721316,50.92815599],[4.01708384,50.92809317],[4.01704501,50.9280743]]]}},{"type":"Feature","id":"gebouw/Gebouw.16754676/0","properties":{"source":"Digitaal Vlaanderen Gebouwenregister","source_id":"gebouw/Gebouw.16754676/0","kind":"building","height_m":5.72,"status":null},"geometry":{"type":"Polygon","coordinates":[[[4.01798164,50.9263282],[4.01800522,50.92637291],[4.01795155,50.92638328],[4.01792933,50.92633732],[4.01798164,50.9263282]]]}},{"type":"Feature","id":"gebouw/Gebouw.16758222/0","properties":{"source":"Digitaal Vlaanderen Gebouwenregister","source_id":"gebouw/Gebouw.16758222/0","kind":"building","height_m":8.6,"status":null},"geometry":{"type":"Polygon","coordinates":[[[4.01884675,50.92534877],[4.0188698,50.92537164],[4.01877041,50.92541165],[4.01874736,50.92538878],[4.01884675,50.92534877]]]}},{"type":"Feature","id":"gebouw/Gebouw.16758314/0","properties":{"source":"Digitaal Vlaanderen Gebouwenregister","source_id":"gebouw/Gebouw.16758314/0","kind":"building","height_m":9.32,"status":null},"geometry":{"type":"Polygon","coordinates":[[[4.0171372,50.92798125],[4.01709656,50.9280137],[4.01699722,50.92796402],[4.01703674,50.92793245],[4.0171372,50.92798125]]]}},{"type":"Feature","id":"gebouw/Gebouw.16758682/0","properties":{"source":"Digitaal Vlaanderen Gebouwenregister","source_id":"gebouw/Gebouw.16758682/0","kind":"building","height_m":7.16,"status":null},"geometry":{"type":"Polygon","coordinates":[[[4.01721316,50.92815599],[4.01716509,50.92819517],[4.01713401,50.92818028],[4.0171118,50.92819846],[4.01701369,50.92815057],[4.01701591,50.92814875],[4.01708384,50.92809317],[4.01721316,50.92815599]]]}},{"type":"Feature","id":"gebouw/Gebouw.16758903/0","properties":{"source":"Digitaal Vlaanderen Gebouwenregister","source_id":"gebouw/Gebouw.16758903/0","kind":"building","height_m":5.0,"status":null},"geometry":{"type":"Polygon","coordinates":[[[4.01650965,50.92629167],[4.01652976,50.92631706],[4.01647827,50.92633335],[4.01645816,50.92630797],[4.01650965,50.92629167]]]}},{"type":"Feature","id":"gebouw/Gebouw.16758907/0","properties":{"source":"Digitaal Vlaanderen Gebouwenregister","source_id":"gebouw/Gebouw.16758907/0","kind":"building","height_m":7.88,"status":null},"geometry":{"type":"Polygon","coordinates":[[[4.01737733,50.92788413],[4.01748163,50.92793476],[4.0174208,50.9279848],[4.01729899,50.92792562],[4.01732555,50.92790377],[4.0173431,50.92791229],[4.01737733,50.92788413]]]}},{"type":"Feature","id":"gebouw/Gebouw.16758915/0","properties":{"source":"Digitaal Vlaanderen Gebouwenregister","source_id":"gebouw/Gebouw.16758915/0","kind":"building","height_m":8.6,"status":null},"geometry":{"type":"Polygon","coordinates":[[[4.01648674,50.92458167],[4.01647094,50.92460705],[4.01638399,50.92458337],[4.01639274,50.92456989],[4.01641291,50.9245388],[4.01642683,50.92453303],[4.01649174,50.92447572],[4.01657277,50.92452659],[4.01657152,50.92452722],[4.01648674,50.92458167]]]}},{"type":"Feature","id":"gebouw/Gebouw.16758952/0","properties":{"source":"Digitaal Vlaanderen Gebouwenregister","source_id":"gebouw/Gebouw.16758952/0","kind":"building","height_m":5.0,"status":null},"geometry":{"type":"Polygon","coordinates":[[[4.017706,50.92744368],[4.01767152,50.92747204],[4.0175602,50.92741797],[4.01759405,50.92739013],[4.017706,50.92744368]]]}},{"type":"Feature","id":"gebouw/Gebouw.16758991/0","properties":{"source":"Digitaal Vlaanderen Gebouwenregister","source_id":"gebouw/Gebouw.16758991/0","kind":"building","height_m":7.88,"status":null},"geometry":{"type":"Polygon","coordinates":[[[4.01629833,50.92831738],[4.0163861,50.92835983],[4.01642323,50.92832916],[4.01633546,50.92828671],[4.01629833,50.92831738]]]}},{"type":"Feature","id":"gebouw/Gebouw.16759086/0","properties":{"source":"Digitaal Vlaanderen Gebouwenregister","source_id":"gebouw/Gebouw.16759086/0","kind":"building","height_m":5.72,"status":null},"geometry":{"type":"Polygon","coordinates":[[[4.01628351,50.92466602],[4.01624724,50.92465669],[4.0162415,50.92465521],[4.01624335,50.92465287],[4.01630547,50.92456316],[4.0162916,50.92455959],[4.01631102,50.92453203],[4.01632282,50.92453529],[4.01640612,50.92443962],[4.01647339,50.92446901],[4.01645704,50.9244832],[4.01646298,50.92448596],[4.016413,50.92452892],[4.01640982,50.92452745],[4.01638244,50.9245518],[4.01636552,50.92457861],[4.01634798,50.9245741],[4.01628351,50.92466602]]]}},{"type":"Feature","id":"gebouw/Gebouw.16760145/0","properties":{"source":"Digitaal Vlaanderen Gebouwenregister","source_id":"gebouw/Gebouw.16760145/0","kind":"building","height_m":7.16,"status":null},"geometry":{"type":"Polygon","coordinates":[[[4.01761201,50.92715774],[4.01756549,50.92719703],[4.01752542,50.92717808],[4.01757194,50.92713878],[4.01761201,50.92715774]]]}},{"type":"Feature","id":"gebouw/Gebouw.16760306/0","properties":{"source":"Digitaal Vlaanderen Gebouwenregister","source_id":"gebouw/Gebouw.16760306/0","kind":"building","height_m":7.16,"status":null},"geometry":{"type":"Polygon","coordinates":[[[4.01845854,50.92722648],[4.01841291,50.92725686],[4.01836699,50.92722922],[4.01834729,50.92721737],[4.01839738,50.92718412],[4.01835292,50.9271574],[4.01843131,50.92710531],[4.01850464,50.92714937],[4.01844985,50.92718579],[4.01848654,50.92720784],[4.01845854,50.92722648]]]}},{"type":"Feature","id":"gebouw/Gebouw.16760368/0","properties":{"source":"Digitaal Vlaanderen Gebouwenregister","source_id":"gebouw/Gebouw.16760368/0","kind":"building","height_m":6.44,"status":null},"geometry":{"type":"Polygon","coordinates":[[[4.01882367,50.92633211],[4.01881721,50.92632899],[4.01880238,50.92634123],[4.01874074,50.92631138],[4.01876994,50.92628665],[4.01879491,50.9262655],[4.01881717,50.92627626],[4.01883827,50.92628647],[4.01888927,50.92624438],[4.01886021,50.92623031],[4.01894838,50.92615757],[4.01899034,50.92619573],[4.01882367,50.92633211]]]}},{"type":"Feature","id":"gebouw/Gebouw.16760382/0","properties":{"source":"Digitaal Vlaanderen Gebouwenregister","source_id":"gebouw/Gebouw.16760382/0","kind":"building","height_m":6.44,"status":null},"geometry":{"type":"Polygon","coordinates":[[[4.01646833,50.92521063],[4.01660017,50.92518205],[4.01658679,50.92515944],[4.01662908,50.92515014],[4.01663352,50.92514916],[4.01662747,50.92513044],[4.01661784,50.92510064],[4.01663113,50.92509914],[4.01662102,50.92507131],[4.01638804,50.92511884],[4.01644036,50.92521253],[4.01646833,50.92521063]]]}},{"type":"Feature","id":"gebouw/Gebouw.16760519/0","properties":{"source":"Digitaal Vlaanderen Gebouwenregister","source_id":"gebouw/Gebouw.16760519/0","kind":"building","height_m":9.32,"status":null},"geometry":{"type":"Polygon","coordinates":[[[4.01788564,50.92620124],[4.01786604,50.92621981],[4.01781703,50.92620032],[4.01780343,50.92621254],[4.01779461,50.92620893],[4.01776595,50.92619719],[4.01780316,50.92616452],[4.01786668,50.92610875],[4.01789855,50.92612359],[4.01790375,50.92612602],[4.01789539,50.92613331],[4.01790728,50.92613818],[4.01789871,50.92614503],[4.01796149,50.9261707],[4.01793552,50.92619768],[4.01790211,50.92618564],[4.01788564,50.92620124]]]}},{"type":"Feature","id":"gebouw/Gebouw.16760533/0","properties":{"source":"Digitaal Vlaanderen Gebouwenregister","source_id":"gebouw/Gebouw.16760533/0","kind":"building","height_m":9.32,"status":null},"geometry":{"type":"Polygon","coordinates":[[[4.01728363,50.92667668],[4.01727204,50.92669066],[4.01727052,50.92669008],[4.01724862,50.92668386],[4.01716158,50.92665913],[4.01717895,50.92664105],[4.01723795,50.92657965],[4.01725058,50.92658449],[4.01722804,50.92660795],[4.01726515,50.92661927],[4.01728593,50.9265898],[4.01730839,50.92659674],[4.01731605,50.92658626],[4.01733105,50.92659065],[4.01732172,50.92660191],[4.01734121,50.92660732],[4.01728363,50.92667668]]]}},{"type":"Feature","id":"gebouw/Gebouw.16760536/0","properties":{"source":"Digitaal Vlaanderen Gebouwenregister","source_id":"gebouw/Gebouw.16760536/0","kind":"building","height_m":6.44,"status":null},"geometry":{"type":"Polygon","coordinates":[[[4.01734774,50.92531335],[4.01727843,50.92529808],[4.017286,50.92528436],[4.01722876,50.92527249],[4.01727541,50.925181],[4.0173878,50.92521084],[4.01758245,50.92526301],[4.01755399,50.92530394],[4.01750423,50.92529013],[4.01750929,50.92528285],[4.01738379,50.92524799],[4.01734774,50.92531335]]]}},{"type":"Feature","id":"gebouw/Gebouw.16760598/0","properties":{"source":"Digitaal Vlaanderen Gebouwenregister","source_id":"gebouw/Gebouw.16760598/0","kind":"building","height_m":5.72,"status":null},"geometry":{"type":"Polygon","coordinates":[[[4.01671101,50.9264314],[4.01670837,50.92652963],[4.01660758,50.92652566],[4.01662153,50.92638342],[4.01665366,50.92638397],[4.01670452,50.92638483],[4.01670391,50.92643134],[4.01671101,50.9264314]]]}},{"type":"Feature","id":"gebouw/Gebouw.16760697/0","properties":{"source":"Digitaal Vlaanderen Gebouwenregister","source_id":"gebouw/Gebouw.16760697/0","kind":"building","height_m":6.44,"status":null},"geometry":{"type":"Polygon","coordinates":[[[4.01872514,50.92191603],[4.01850694,50.92183417],[4.01856585,50.92177144],[4.01878405,50.9218533],[4.01872514,50.92191603]]]}},{"type":"Feature","id":"gebouw/Gebouw.16761717/0","properties":{"source":"Digitaal Vlaanderen Gebouwenregister","source_id":"gebouw/Gebouw.16761717/0","kind":"building","height_m":5.0,"status":null},"geometry":{"type":"Polygon","coordinates":[[[4.01633638,50.92477092],[4.01630127,50.9247976],[4.01626354,50.92477767],[4.01629864,50.92475226],[4.01633638,50.92477092]]]}},{"type":"Feature","id":"gebouw/Gebouw.16761732/0","properties":{"source":"Digitaal Vlaanderen Gebouwenregister","source_id":"gebouw/Gebouw.16761732/0","kind":"building","height_m":5.72,"status":null},"geometry":{"type":"Polygon","coordinates":[[[4.01830525,50.925663],[4.01827231,50.92564638],[4.01832283,50.92560638],[4.01835576,50.92562299],[4.01830525,50.925663]]]}},{"type":"Feature","id":"gebouw/Gebouw.16761739/0","properties":{"source":"Digitaal Vlaanderen Gebouwenregister","source_id":"gebouw/Gebouw.16761739/0","kind":"building","height_m":5.72,"status":null},"geometry":{"type":"Polygon","coordinates":[[[4.01672089,50.9247719],[4.01670281,50.92477822],[4.01669742,50.92477312],[4.01670317,50.92476451],[4.01672666,50.92472934],[4.01671876,50.92471637],[4.01678662,50.92467478],[4.01683607,50.92473441],[4.01672089,50.9247719]]]}},{"type":"Feature","id":"gebouw/Gebouw.16761772/0","properties":{"source":"Digitaal Vlaanderen Gebouwenregister","source_id":"gebouw/Gebouw.16761772/0","kind":"building","height_m":9.32,"status":null},"geometry":{"type":"Polygon","coordinates":[[[4.01818931,50.92724898],[4.01824705,50.92727699],[4.01820716,50.92730997],[4.01822884,50.9273213],[4.01818307,50.92735928],[4.01812312,50.92733043],[4.01811174,50.92733988],[4.01800851,50.92728971],[4.01810685,50.92720889],[4.01816011,50.92723478],[4.01816536,50.92723731],[4.01816727,50.92723823],[4.01816122,50.92724324],[4.01818341,50.92725394],[4.01818931,50.92724898]]]}},{"type":"Feature","id":"gebouw/Gebouw.16761926/0","properties":{"source":"Digitaal Vlaanderen Gebouwenregister","source_id":"gebouw/Gebouw.16761926/0","kind":"building","height_m":9.32,"status":null},"geometry":{"type":"Polygon","coordinates":[[[4.01777072,50.92708119],[4.01780144,50.92709614],[4.01784696,50.92705796],[4.01799158,50.92712682],[4.01790686,50.92719789],[4.01776223,50.92712903],[4.0177677,50.92712444],[4.01773652,50.92710927],[4.01777072,50.92708119]]]}},{"type":"Feature","id":"gebouw/Gebouw.16761999/0","properties":{"source":"Digitaal Vlaanderen Gebouwenregister","source_id":"gebouw/Gebouw.16761999/0","kind":"building","height_m":6.44,"status":null},"geometry":{"type":"Polygon","coordinates":[[[4.01731797,50.92742429],[4.01735903,50.92744322],[4.01733188,50.92746674],[4.01729082,50.92744782],[4.01731797,50.92742429]]]}},{"type":"Feature","id":"gebouw/Gebouw.16762093/0","properties":{"source":"Digitaal Vlaanderen Gebouwenregister","source_id":"gebouw/Gebouw.16762093/0","kind":"building","height_m":8.6,"status":null},"geometry":{"type":"Polygon","coordinates":[[[4.01658922,50.92821113],[4.01661915,50.92818583],[4.01666525,50.92820761],[4.01663533,50.92823291],[4.01658922,50.92821113]]]}},{"type":"Feature","id":"gebouw/Gebouw.16762304/0","properties":{"source":"Digitaal Vlaanderen Gebouwenregister","source_id":"gebouw/Gebouw.16762304/0","kind":"building","height_m":9.32,"status":null},"geometry":{"type":"Polygon","coordinates":[[[4.01638804,50.92511884],[4.01633387,50.92512989],[4.01629865,50.92506137],[4.01634649,50.92505115],[4.01634083,50.92504063],[4.01661161,50.92498577],[4.01662199,50.92501466],[4.01675443,50.92500207],[4.01681851,50.92499033],[4.01680417,50.9249483],[4.01676415,50.92495419],[4.01675914,50.92493964],[4.01674653,50.92490302],[4.01674355,50.92489436],[4.0168017,50.92488579],[4.01672089,50.9247719],[4.01683607,50.92473441],[4.01689462,50.92481185],[4.0169297,50.92487164],[4.0169926,50.92502758],[4.01682072,50.92504563],[4.01667475,50.92506096],[4.01667463,50.92506097],[4.01663289,50.92506218],[4.01663487,50.92506849],[4.01662102,50.92507131],[4.01638804,50.92511884]]]}},{"type":"Feature","id":"gebouw/Gebouw.16762446/0","properties":{"source":"Digitaal Vlaanderen Gebouwenregister","source_id":"gebouw/Gebouw.16762446/0","kind":"building","height_m":5.72,"status":null},"geometry":{"type":"Polygon","coordinates":[[[4.01636818,50.92394323],[4.01630601,50.92402189],[4.01627233,50.92401237],[4.01629617,50.92397866],[4.01630378,50.92398118],[4.01633987,50.92393363],[4.01636818,50.92394323]]]}},{"type":"Feature","id":"gebouw/Gebouw.16762512/0","properties":{"source":"Digitaal Vlaanderen Gebouwenregister","source_id":"gebouw/Gebouw.16762512/0","kind":"building","height_m":7.88,"status":null},"geometry":{"type":"Polygon","coordinates":[[[4.01813474,50.92581956],[4.01817146,50.925837],[4.01813331,50.92586911],[4.01809658,50.92585167],[4.01813474,50.92581956]]]}},{"type":"Feature","id":"gebouw/Gebouw.16772839/0","properties":{"source":"Digitaal Vlaanderen Gebouwenregister","source_id":"gebouw/Gebouw.16772839/0","kind":"building","height_m":9.32,"status":null},"geometry":{"type":"Polygon","coordinates":[[[4.01691167,50.92547896],[4.01685565,50.92548344],[4.01685526,50.92548108],[4.01676227,50.92548738],[4.01675248,50.92544564],[4.01678985,50.92544257],[4.01678672,50.92543043],[4.01713316,50.92540464],[4.01713878,50.92540422],[4.01714832,50.92543839],[4.01715344,50.92545672],[4.01706361,50.92546673],[4.01706731,50.92547998],[4.01700279,50.92548717],[4.01699856,50.925472],[4.01696842,50.92547441],[4.01691167,50.92547896]]]}},{"type":"Feature","id":"gebouw/Gebouw.16772866/0","properties":{"source":"Digitaal Vlaanderen Gebouwenregister","source_id":"gebouw/Gebouw.16772866/0","kind":"building","height_m":8.6,"status":null},"geometry":{"type":"Polygon","coordinates":[[[4.01840712,50.92564855],[4.01825132,50.92577648],[4.0182254,50.92579776],[4.01817624,50.92577327],[4.01820118,50.9257528],[4.01835793,50.92562409],[4.01840712,50.92564855]]]}},{"type":"Feature","id":"gebouw/Gebouw.16773314/0","properties":{"source":"Digitaal Vlaanderen Gebouwenregister","source_id":"gebouw/Gebouw.16773314/0","kind":"building","height_m":8.6,"status":null},"geometry":{"type":"Polygon","coordinates":[[[4.01629696,50.92665762],[4.01621187,50.92674835],[4.01619208,50.92674096],[4.01608748,50.92670193],[4.0160374,50.92668324],[4.01610415,50.9266118],[4.01618267,50.92664151],[4.0162017,50.92662193],[4.01629696,50.92665762]]]}},{"type":"Feature","id":"gebouw/Gebouw.16773329/0","properties":{"source":"Digitaal Vlaanderen Gebouwenregister","source_id":"gebouw/Gebouw.16773329/0","kind":"building","height_m":9.32,"status":null},"geometry":{"type":"Polygon","coordinates":[[[4.01770432,50.92757754],[4.01777337,50.92752054],[4.01787268,50.92756859],[4.01784941,50.9275878],[4.01788123,50.92760312],[4.01783732,50.92764116],[4.01770432,50.92757754]]]}},{"type":"Feature","id":"gebouw/Gebouw.16773364/0","properties":{"source":"Digitaal Vlaanderen Gebouwenregister","source_id":"gebouw/Gebouw.16773364/0","kind":"building","height_m":9.32,"status":null},"geometry":{"type":"Polygon","coordinates":[[[4.01867245,50.92636923],[4.01865847,50.92636276],[4.01863465,50.92638331],[4.01860139,50.92636791],[4.01860428,50.92635448],[4.01861095,50.926354],[4.0186158,50.92635135],[4.0186175,50.92634834],[4.01861754,50.92634572],[4.01861425,50.92634387],[4.01860676,50.92634046],[4.01859921,50.92634709],[4.01856006,50.92632927],[4.01856864,50.92632174],[4.01855318,50.9263147],[4.01859131,50.92628177],[4.01863464,50.92624435],[4.0186483,50.92625056],[4.01867741,50.92622494],[4.01873819,50.92625158],[4.01868693,50.92629829],[4.01873171,50.92631903],[4.01870766,50.92633941],[4.01867245,50.92636923]]]}},{"type":"Feature","id":"gebouw/Gebouw.16773567/0","properties":{"source":"Digitaal Vlaanderen Gebouwenregister","source_id":"gebouw/Gebouw.16773567/0","kind":"building","height_m":9.32,"status":null},"geometry":{"type":"Polygon","coordinates":[[[4.01819621,50.92708951],[4.01802899,50.92698955],[4.01797452,50.92695699],[4.01800679,50.92693543],[4.01800198,50.92693255],[4.01802956,50.92691413],[4.01808441,50.92694691],[4.01811746,50.92692482],[4.01817527,50.92695938],[4.01813667,50.92698517],[4.01814169,50.92698817],[4.01814604,50.92698526],[4.01816794,50.92699836],[4.01817208,50.92699559],[4.01819393,50.92700866],[4.01819122,50.92701047],[4.01825629,50.92704936],[4.01819621,50.92708951]]]}},{"type":"Feature","id":"gebouw/Gebouw.16773584/0","properties":{"source":"Digitaal Vlaanderen Gebouwenregister","source_id":"gebouw/Gebouw.16773584/0","kind":"building","height_m":6.44,"status":null},"geometry":{"type":"Polygon","coordinates":[[[4.01718823,50.92455014],[4.01718694,50.92455124],[4.01700722,50.92470396],[4.01693771,50.92467072],[4.01693648,50.92467013],[4.01693886,50.92466806],[4.01701476,50.92460198],[4.01701975,50.92460422],[4.01701735,50.92460635],[4.01704989,50.92462186],[4.01715409,50.92453407],[4.01718823,50.92455014]]]}},{"type":"Feature","id":"gebouw/Gebouw.16773599/0","properties":{"source":"Digitaal Vlaanderen Gebouwenregister","source_id":"gebouw/Gebouw.16773599/0","kind":"building","height_m":7.16,"status":null},"geometry":{"type":"Polygon","coordinates":[[[4.01897398,50.92630715],[4.01892709,50.92634349],[4.01889636,50.9263673],[4.01882367,50.92633211],[4.01899034,50.92619573],[4.01903798,50.92623921],[4.01896403,50.92630251],[4.01897398,50.92630715]]]}},{"type":"Feature","id":"gebouw/Gebouw.16774939/0","properties":{"source":"Digitaal Vlaanderen Gebouwenregister","source_id":"gebouw/Gebouw.16774939/0","kind":"building","height_m":9.32,"status":null},"geometry":{"type":"Polygon","coordinates":[[[4.01894037,50.92546016],[4.01894563,50.92546541],[4.01892297,50.92547596],[4.01883524,50.92551682],[4.01885543,50.92553729],[4.01880773,50.92558061],[4.01873517,50.92550897],[4.01877146,50.92549446],[4.01873828,50.9254613],[4.01886104,50.92541224],[4.01887635,50.92542755],[4.01889878,50.92541858],[4.01894037,50.92546016]]]}},{"type":"Feature","id":"gebouw/Gebouw.16781750/0","properties":{"source":"Digitaal Vlaanderen Gebouwenregister","source_id":"gebouw/Gebouw.16781750/0","kind":"building","height_m":9.32,"status":null},"geometry":{"type":"Polygon","coordinates":[[[4.01761553,50.92628288],[4.01765095,50.92623459],[4.01774767,50.92626292],[4.01771393,50.92630893],[4.01762452,50.92628274],[4.01757097,50.92635576],[4.01731882,50.9262819],[4.01737069,50.92621116],[4.01761553,50.92628288]]]}},{"type":"Feature","id":"gebouw/Gebouw.16781860/0","properties":{"source":"Digitaal Vlaanderen Gebouwenregister","source_id":"gebouw/Gebouw.16781860/0","kind":"building","height_m":7.88,"status":null},"geometry":{"type":"Polygon","coordinates":[[[4.01657166,50.92452731],[4.01662227,50.92455989],[4.01661453,50.92456474],[4.01663219,50.92457561],[4.01667686,50.92460312],[4.01660212,50.92465096],[4.01657898,50.92468831],[4.01656668,50.92470817],[4.01656032,50.92471843],[4.01649466,50.92467782],[4.01644767,50.92464875],[4.01647094,50.92460705],[4.01648674,50.92458167],[4.01657152,50.92452722],[4.01657166,50.92452731]]]}},{"type":"Feature","id":"gebouw/Gebouw.16782278/0","properties":{"source":"Digitaal Vlaanderen Gebouwenregister","source_id":"gebouw/Gebouw.16782278/0","kind":"building","height_m":6.44,"status":null},"geometry":{"type":"Polygon","coordinates":[[[4.01806577,50.92600272],[4.0180532,50.92599661],[4.01802823,50.92598448],[4.01811906,50.92590982],[4.01812831,50.92591432],[4.01817266,50.92588125],[4.01818563,50.92588789],[4.01819795,50.92589419],[4.01806577,50.92600272]]]}},{"type":"Feature","id":"gebouw/Gebouw.16782283/0","properties":{"source":"Digitaal Vlaanderen Gebouwenregister","source_id":"gebouw/Gebouw.16782283/0","kind":"building","height_m":5.0,"status":null},"geometry":{"type":"Polygon","coordinates":[[[4.01875739,50.92609408],[4.01865202,50.92618408],[4.01857085,50.92614612],[4.01861129,50.92611158],[4.01856684,50.92609079],[4.01863177,50.92603533],[4.01875739,50.92609408]]]}},{"type":"Feature","id":"gebouw/Gebouw.16782290/0","properties":{"source":"Digitaal Vlaanderen Gebouwenregister","source_id":"gebouw/Gebouw.16782290/0","kind":"building","height_m":5.0,"status":null},"geometry":{"type":"Polygon","coordinates":[[[4.01731653,50.92462524],[4.01733665,50.92460705],[4.01745469,50.9246592],[4.01743424,50.92467769],[4.01744061,50.9246805],[4.01733198,50.92477871],[4.01735309,50.92478833],[4.01729764,50.92483693],[4.01720113,50.92479294],[4.01725088,50.92474934],[4.0172346,50.92474192],[4.01725118,50.92472739],[4.01721021,50.92470871],[4.01730447,50.92461991],[4.01731653,50.92462524]]]}},{"type":"Feature","id":"gebouw/Gebouw.16782413/0","properties":{"source":"Digitaal Vlaanderen Gebouwenregister","source_id":"gebouw/Gebouw.16782413/0","kind":"building","height_m":7.88,"status":null},"geometry":{"type":"Polygon","coordinates":[[[4.01644533,50.92537264],[4.01633844,50.92538337],[4.01633064,50.92535044],[4.01626596,50.92535494],[4.01625482,50.92529166],[4.0163157,50.92528738],[4.01643026,50.92527933],[4.016432,50.92528926],[4.01647163,50.92528648],[4.01647874,50.92532686],[4.01643778,50.92532974],[4.01644533,50.92537264]]]}},{"type":"Feature","id":"gebouw/Gebouw.16782505/0","properties":{"source":"Digitaal Vlaanderen Gebouwenregister","source_id":"gebouw/Gebouw.16782505/0","kind":"building","height_m":8.6,"status":null},"geometry":{"type":"Polygon","coordinates":[[[4.01678662,50.92467478],[4.01671876,50.92471637],[4.01672666,50.92472934],[4.01670317,50.92476451],[4.01657898,50.92468831],[4.01660212,50.92465096],[4.01667686,50.92460312],[4.01678818,50.9246736],[4.01678662,50.92467478]]]}},{"type":"Feature","id":"gebouw/Gebouw.16783439/0","properties":{"source":"Digitaal Vlaanderen Gebouwenregister","source_id":"gebouw/Gebouw.16783439/0","kind":"building","height_m":5.72,"status":null},"geometry":{"type":"Polygon","coordinates":[[[4.01699474,50.9244483],[4.017021,50.9244605],[4.01697908,50.92449776],[4.01702218,50.92452618],[4.0169798,50.92456173],[4.01689141,50.92463587],[4.01684446,50.92460201],[4.01698524,50.92444388],[4.01699474,50.9244483]]]}},{"type":"Feature","id":"gebouw/Gebouw.16783459/0","properties":{"source":"Digitaal Vlaanderen Gebouwenregister","source_id":"gebouw/Gebouw.16783459/0","kind":"building","height_m":5.0,"status":null},"geometry":{"type":"Polygon","coordinates":[[[4.01740795,50.92657882],[4.01742141,50.9265833],[4.01742403,50.92658048],[4.01743809,50.92658502],[4.01743552,50.92658799],[4.01746247,50.92659696],[4.0174745,50.92659842],[4.01746553,50.92660858],[4.01745557,50.92660527],[4.01744744,50.92661509],[4.01739152,50.92659853],[4.01740795,50.92657882]]]}},{"type":"Feature","id":"gebouw/Gebouw.16783781/0","properties":{"source":"Digitaal Vlaanderen Gebouwenregister","source_id":"gebouw/Gebouw.16783781/0","kind":"building","height_m":5.0,"status":null},"geometry":{"type":"Polygon","coordinates":[[[4.01684935,50.92848785],[4.01677119,50.92855386],[4.01663446,50.92848932],[4.01669229,50.92844053],[4.01667091,50.92843041],[4.0166908,50.92841345],[4.01684935,50.92848785]]]}},{"type":"Feature","id":"gebouw/Gebouw.16783805/0","properties":{"source":"Digitaal Vlaanderen Gebouwenregister","source_id":"gebouw/Gebouw.16783805/0","kind":"building","height_m":7.16,"status":null},"geometry":{"type":"Polygon","coordinates":[[[4.018044,50.92746838],[4.01797616,50.92752461],[4.01785404,50.92746576],[4.0179215,50.92740978],[4.018044,50.92746838]]]}},{"type":"Feature","id":"gebouw/Gebouw.16783905/0","properties":{"source":"Digitaal Vlaanderen Gebouwenregister","source_id":"gebouw/Gebouw.16783905/0","kind":"building","height_m":8.6,"status":null},"geometry":{"type":"Polygon","coordinates":[[[4.01770067,50.92675151],[4.01780267,50.92667305],[4.01790469,50.92672578],[4.0178025,50.92680439],[4.01774802,50.9267761],[4.01771013,50.92675642],[4.01770067,50.92675151]]]}},{"type":"Feature","id":"gebouw/Gebouw.16784084/0","properties":{"source":"Digitaal Vlaanderen Gebouwenregister","source_id":"gebouw/Gebouw.16784084/0","kind":"building","height_m":6.44,"status":null},"geometry":{"type":"Polygon","coordinates":[[[4.01801235,50.92633604],[4.01788592,50.92628315],[4.01794371,50.92623231],[4.01798252,50.92624723],[4.01796051,50.92626654],[4.01804493,50.92630344],[4.01801235,50.92633604]]]}},{"type":"Feature","id":"gebouw/Gebouw.16784294/0","properties":{"source":"Digitaal Vlaanderen Gebouwenregister","source_id":"gebouw/Gebouw.16784294/0","kind":"building","height_m":6.44,"status":null},"geometry":{"type":"Polygon","coordinates":[[[4.01890475,50.92685634],[4.01888452,50.92686656],[4.01880961,50.92680351],[4.01887328,50.92677134],[4.01895037,50.9268333],[4.01890475,50.92685634]]]}},{"type":"Feature","id":"gebouw/Gebouw.16784428/0","properties":{"source":"Digitaal Vlaanderen Gebouwenregister","source_id":"gebouw/Gebouw.16784428/0","kind":"building","height_m":7.16,"status":null},"geometry":{"type":"Polygon","coordinates":[[[4.01683354,50.92438115],[4.01671036,50.92450715],[4.01657965,50.92441712],[4.01665603,50.9243395],[4.01665695,50.92434012],[4.0166645,50.92434525],[4.01676287,50.92441196],[4.01680416,50.92436972],[4.01683354,50.92438115]]]}},{"type":"Feature","id":"gebouw/Gebouw.16785264/0","properties":{"source":"Digitaal Vlaanderen Gebouwenregister","source_id":"gebouw/Gebouw.16785264/0","kind":"building","height_m":9.32,"status":null},"geometry":{"type":"Polygon","coordinates":[[[4.01700755,50.92835469],[4.0169139,50.92843405],[4.01674434,50.92835296],[4.01679236,50.92831199],[4.01683244,50.92833077],[4.01687738,50.92829244],[4.01700755,50.92835469]]]}},{"type":"Feature","id":"gebouw/Gebouw.16785316/0","properties":{"source":"Digitaal Vlaanderen Gebouwenregister","source_id":"gebouw/Gebouw.16785316/0","kind":"building","height_m":6.44,"status":null},"geometry":{"type":"Polygon","coordinates":[[[4.01759405,50.92739013],[4.01762911,50.92736131],[4.01774043,50.92741538],[4.017706,50.92744368],[4.01759405,50.92739013]]]}},{"type":"Feature","id":"gebouw/Gebouw.16785530/0","properties":{"source":"Digitaal Vlaanderen Gebouwenregister","source_id":"gebouw/Gebouw.16785530/0","kind":"building","height_m":9.32,"status":null},"geometry":{"type":"Polygon","coordinates":[[[4.01754747,50.92641134],[4.01758171,50.92642283],[4.01755955,50.92644906],[4.0176018,50.9264617],[4.01759774,50.92646703],[4.01760175,50.92646844],[4.01756669,50.92651203],[4.01757271,50.92651393],[4.01755386,50.92653771],[4.01755049,50.92653634],[4.01753477,50.92655618],[4.01748386,50.9265401],[4.01751992,50.92649682],[4.01750943,50.92649315],[4.01752038,50.92648058],[4.01749641,50.92647262],[4.01754747,50.92641134]]]}},{"type":"Feature","id":"gebouw/Gebouw.16785688/0","properties":{"source":"Digitaal Vlaanderen Gebouwenregister","source_id":"gebouw/Gebouw.16785688/0","kind":"building","height_m":7.16,"status":null},"geometry":{"type":"Polygon","coordinates":[[[4.01854432,50.92601008],[4.01838689,50.92614237],[4.01836393,50.92613146],[4.01832929,50.92616056],[4.01826664,50.92613078],[4.0182855,50.92611492],[4.01830142,50.92610175],[4.01846036,50.92597017],[4.01847021,50.92597485],[4.01854432,50.92601008]]]}},{"type":"Feature","id":"gebouw/Gebouw.16785698/0","properties":{"source":"Digitaal Vlaanderen Gebouwenregister","source_id":"gebouw/Gebouw.16785698/0","kind":"building","height_m":9.32,"status":null},"geometry":{"type":"Polygon","coordinates":[[[4.01797277,50.92609447],[4.01802276,50.9261156],[4.01798895,50.92614754],[4.01793896,50.9261264],[4.01797277,50.92609447]]]}},{"type":"Feature","id":"gebouw/Gebouw.16785751/0","properties":{"source":"Digitaal Vlaanderen Gebouwenregister","source_id":"gebouw/Gebouw.16785751/0","kind":"building","height_m":7.16,"status":null},"geometry":{"type":"Polygon","coordinates":[[[4.01730125,50.92779172],[4.01726646,50.92781994],[4.01715483,50.92776497],[4.01718904,50.92773721],[4.01730125,50.92779172]]]}},{"type":"Feature","id":"gebouw/Gebouw.16785752/0","properties":{"source":"Digitaal Vlaanderen Gebouwenregister","source_id":"gebouw/Gebouw.16785752/0","kind":"building","height_m":7.88,"status":null},"geometry":{"type":"Polygon","coordinates":[[[4.01850251,50.92459361],[4.01844613,50.92455317],[4.0185025,50.92452137],[4.01855852,50.92456117],[4.01850251,50.92459361]]]}},{"type":"Feature","id":"gebouw/Gebouw.16785796/0","properties":{"source":"Digitaal Vlaanderen Gebouwenregister","source_id":"gebouw/Gebouw.16785796/0","kind":"building","height_m":9.32,"status":null},"geometry":{"type":"Polygon","coordinates":[[[4.01624739,50.92444927],[4.01613903,50.92442417],[4.01607049,50.92454237],[4.01607183,50.9245527],[4.01611368,50.9245624],[4.01616754,50.92457487],[4.01617373,50.92457631],[4.01624739,50.92444927]]]}},{"type":"Feature","id":"gebouw/Gebouw.16785809/0","properties":{"source":"Digitaal Vlaanderen Gebouwenregister","source_id":"gebouw/Gebouw.16785809/0","kind":"building","height_m":8.6,"status":null},"geometry":{"type":"Polygon","coordinates":[[[4.01792062,50.92724351],[4.0178948,50.92726355],[4.01783436,50.92723244],[4.01786018,50.9272124],[4.01792062,50.92724351]]]}},{"type":"Feature","id":"gebouw/Gebouw.16786149/0","properties":{"source":"Digitaal Vlaanderen Gebouwenregister","source_id":"gebouw/Gebouw.16786149/0","kind":"building","height_m":6.44,"status":null},"geometry":{"type":"Polygon","coordinates":[[[4.01793792,50.92728699],[4.01790469,50.92731466],[4.01779178,50.92726049],[4.01782489,50.92723292],[4.01789355,50.92726577],[4.01793792,50.92728699]]]}},{"type":"Feature","id":"gebouw/Gebouw.16786173/0","properties":{"source":"Digitaal Vlaanderen Gebouwenregister","source_id":"gebouw/Gebouw.16786173/0","kind":"building","height_m":8.6,"status":null},"geometry":{"type":"Polygon","coordinates":[[[4.01911258,50.92666093],[4.01907712,50.92668107],[4.01904925,50.92666139],[4.01899382,50.92662225],[4.01903111,50.92660042],[4.01911039,50.92655403],[4.01920477,50.92649879],[4.01929136,50.9265594],[4.01911258,50.92666093]]]}},{"type":"Feature","id":"gebouw/Gebouw.16794517/0","properties":{"source":"Digitaal Vlaanderen Gebouwenregister","source_id":"gebouw/Gebouw.16794517/0","kind":"building","height_m":8.6,"status":null},"geometry":{"type":"Polygon","coordinates":[[[4.01628184,50.92839525],[4.01626246,50.92841242],[4.01619054,50.92838],[4.01620737,50.92836509],[4.016249,50.92838385],[4.01625155,50.92838159],[4.01628184,50.92839525]]]}},{"type":"Feature","id":"gebouw/Gebouw.16794981/0","properties":{"source":"Digitaal Vlaanderen Gebouwenregister","source_id":"gebouw/Gebouw.16794981/0","kind":"building","height_m":5.0,"status":null},"geometry":{"type":"Polygon","coordinates":[[[4.01709523,50.92744626],[4.01714095,50.92740628],[4.0171838,50.92742585],[4.01713809,50.92746583],[4.01709523,50.92744626]]]}},{"type":"Feature","id":"gebouw/Gebouw.16796802/0","properties":{"source":"Digitaal Vlaanderen Gebouwenregister","source_id":"gebouw/Gebouw.16796802/0","kind":"building","height_m":5.72,"status":null},"geometry":{"type":"Polygon","coordinates":[[[4.01663592,50.92431148],[4.01661374,50.92433394],[4.01663029,50.92434047],[4.01655898,50.92440846],[4.01649302,50.92438083],[4.01658783,50.92429252],[4.01666796,50.92421787],[4.01667122,50.92421902],[4.01674804,50.924246],[4.0167098,50.92428486],[4.01667554,50.92427134],[4.01663592,50.92431148]]]}},{"type":"Feature","id":"gebouw/Gebouw.16796850/0","properties":{"source":"Digitaal Vlaanderen Gebouwenregister","source_id":"gebouw/Gebouw.16796850/0","kind":"building","height_m":5.0,"status":null},"geometry":{"type":"Polygon","coordinates":[[[4.01700863,50.92791879],[4.01704304,50.92789133],[4.01706965,50.92790464],[4.01717018,50.92795492],[4.0171372,50.92798125],[4.01703674,50.92793245],[4.01700863,50.92791879]]]}},{"type":"Feature","id":"gebouw/Gebouw.16796947/0","properties":{"source":"Digitaal Vlaanderen Gebouwenregister","source_id":"gebouw/Gebouw.16796947/0","kind":"building","height_m":9.32,"status":null},"geometry":{"type":"Polygon","coordinates":[[[4.0174208,50.9279848],[4.01735126,50.92804192],[4.01721445,50.9279754],[4.01724997,50.92794622],[4.01724562,50.92794243],[4.01724146,50.92793541],[4.01723898,50.92793001],[4.01723867,50.92792167],[4.01723917,50.92791629],[4.01724481,50.92790906],[4.01725316,50.92790336],[4.01728481,50.92791874],[4.01729899,50.92792562],[4.0174208,50.9279848]]]}},{"type":"Feature","id":"gebouw/Gebouw.16797064/0","properties":{"source":"Digitaal Vlaanderen Gebouwenregister","source_id":"gebouw/Gebouw.16797064/0","kind":"building","height_m":7.88,"status":null},"geometry":{"type":"Polygon","coordinates":[[[4.01641832,50.92524133],[4.01634198,50.92524725],[4.01630684,50.92524998],[4.01627963,50.92525209],[4.0162743,50.92522384],[4.01630023,50.92522208],[4.01633818,50.92521949],[4.01641289,50.9252144],[4.01641832,50.92524133]]]}},{"type":"Feature","id":"gebouw/Gebouw.16797145/0","properties":{"source":"Digitaal Vlaanderen Gebouwenregister","source_id":"gebouw/Gebouw.16797145/0","kind":"building","height_m":5.72,"status":null},"geometry":{"type":"Polygon","coordinates":[[[4.01658645,50.92799466],[4.01662892,50.92795524],[4.01667868,50.92797665],[4.01663621,50.92801607],[4.01658645,50.92799466]]]}},{"type":"Feature","id":"gebouw/Gebouw.16797263/0","properties":{"source":"Digitaal Vlaanderen Gebouwenregister","source_id":"gebouw/Gebouw.16797263/0","kind":"building","height_m":5.0,"status":null},"geometry":{"type":"Polygon","coordinates":[[[4.01685749,50.92689635],[4.0168784,50.92687601],[4.0167668,50.9268302],[4.01674571,50.92685071],[4.01672725,50.92686868],[4.01668604,50.92685182],[4.01680141,50.92673917],[4.01686929,50.92676696],[4.01687171,50.92676455],[4.01692346,50.92678563],[4.01692105,50.92678805],[4.01701312,50.92682584],[4.01689768,50.92693818],[4.01683919,50.92691417],[4.01685749,50.92689635]]]}},{"type":"Feature","id":"gebouw/Gebouw.16797288/0","properties":{"source":"Digitaal Vlaanderen Gebouwenregister","source_id":"gebouw/Gebouw.16797288/0","kind":"building","height_m":7.88,"status":null},"geometry":{"type":"Polygon","coordinates":[[[4.01830142,50.92610175],[4.01846036,50.92597017],[4.01836969,50.92592684],[4.01826146,50.9260173],[4.01825865,50.92601595],[4.01819913,50.9260657],[4.01822332,50.92607726],[4.01821714,50.92608243],[4.0182855,50.92611492],[4.01830142,50.92610175]]]}},{"type":"Feature","id":"gebouw/Gebouw.16797568/0","properties":{"source":"Digitaal Vlaanderen Gebouwenregister","source_id":"gebouw/Gebouw.16797568/0","kind":"building","height_m":7.88,"status":null},"geometry":{"type":"Polygon","coordinates":[[[4.01671101,50.9264314],[4.01674357,50.92643155],[4.01674306,50.92647002],[4.01675754,50.92647009],[4.01675875,50.92637728],[4.01688265,50.92637793],[4.0168817,50.9264503],[4.01684377,50.9264501],[4.01684357,50.92650324],[4.01675824,50.92650311],[4.01675801,50.92652993],[4.01670837,50.92652963],[4.01671101,50.9264314]]]}},{"type":"Feature","id":"gebouw/Gebouw.16797704/0","properties":{"source":"Digitaal Vlaanderen Gebouwenregister","source_id":"gebouw/Gebouw.16797704/0","kind":"building","height_m":5.0,"status":null},"geometry":{"type":"Polygon","coordinates":[[[4.01824876,50.92583605],[4.01821064,50.92586735],[4.01816708,50.92584565],[4.0182254,50.92579776],[4.01825132,50.92577648],[4.01827132,50.92576005],[4.01840712,50.92564855],[4.0184507,50.92567025],[4.01827525,50.9258143],[4.01824876,50.92583605]]]}},{"type":"Feature","id":"gebouw/Gebouw.16800897/0","properties":{"source":"Digitaal Vlaanderen Gebouwenregister","source_id":"gebouw/Gebouw.16800897/0","kind":"building","height_m":5.72,"status":null},"geometry":{"type":"Polygon","coordinates":[[[4.01738715,50.92426995],[4.01733011,50.92431933],[4.01737888,50.92434053],[4.01743457,50.92429232],[4.01738715,50.92426995]]]}},{"type":"Feature","id":"gebouw/Gebouw.16801007/0","properties":{"source":"Digitaal Vlaanderen Gebouwenregister","source_id":"gebouw/Gebouw.16801007/0","kind":"building","height_m":9.32,"status":null},"geometry":{"type":"Polygon","coordinates":[[[4.0174201,50.92754081],[4.01753259,50.92759497],[4.01750541,50.92761752],[4.01739265,50.92756358],[4.0174201,50.92754081]]]}},{"type":"Feature","id":"gebouw/Gebouw.16801191/0","properties":{"source":"Digitaal Vlaanderen Gebouwenregister","source_id":"gebouw/Gebouw.16801191/0","kind":"building","height_m":5.72,"status":null},"geometry":{"type":"Polygon","coordinates":[[[4.01783732,50.92764116],[4.01779043,50.9276787],[4.01775838,50.9276637],[4.01773531,50.92768276],[4.0176354,50.92763445],[4.01770141,50.92757995],[4.01770432,50.92757754],[4.01783732,50.92764116]]]}},{"type":"Feature","id":"gebouw/Gebouw.16801589/0","properties":{"source":"Digitaal Vlaanderen Gebouwenregister","source_id":"gebouw/Gebouw.16801589/0","kind":"building","height_m":5.0,"status":null},"geometry":{"type":"Polygon","coordinates":[[[4.01747453,50.92668623],[4.01742732,50.92673547],[4.01742726,50.92673545],[4.01737841,50.92672154],[4.0173874,50.92671121],[4.01742747,50.92666514],[4.01744576,50.92667016],[4.01753885,50.92657106],[4.01757346,50.92658428],[4.01759178,50.92656512],[4.01770836,50.92660966],[4.01760865,50.92671391],[4.01760286,50.9267117],[4.01760633,50.92670796],[4.0175188,50.92667558],[4.01749924,50.92669561],[4.0174968,50.92669476],[4.01747453,50.92668623]]]}},{"type":"Feature","id":"gebouw/Gebouw.16811697/0","properties":{"source":"Digitaal Vlaanderen Gebouwenregister","source_id":"gebouw/Gebouw.16811697/0","kind":"building","height_m":5.0,"status":null},"geometry":{"type":"Polygon","coordinates":[[[4.01612126,50.92414681],[4.01627065,50.92419358],[4.01623261,50.92425725],[4.01622483,50.92425508],[4.016202,50.92428746],[4.01603666,50.92423999],[4.01607277,50.9241846],[4.01607834,50.92418349],[4.01609152,50.92418086],[4.01612126,50.92414681]]]}},{"type":"Feature","id":"gebouw/Gebouw.16811741/0","properties":{"source":"Digitaal Vlaanderen Gebouwenregister","source_id":"gebouw/Gebouw.16811741/0","kind":"building","height_m":6.44,"status":null},"geometry":{"type":"Polygon","coordinates":[[[4.01785321,50.92661179],[4.01782133,50.92659654],[4.01781337,50.92660306],[4.01776281,50.92657884],[4.01778908,50.92655692],[4.01776215,50.92654402],[4.01780813,50.92650567],[4.01783503,50.92651855],[4.01786925,50.92649],[4.01792108,50.92651483],[4.01789445,50.92653665],[4.01792548,50.9265515],[4.01785321,50.92661179]]]}},{"type":"Feature","id":"gebouw/Gebouw.16812112/0","properties":{"source":"Digitaal Vlaanderen Gebouwenregister","source_id":"gebouw/Gebouw.16812112/0","kind":"building","height_m":6.44,"status":null},"geometry":{"type":"Polygon","coordinates":[[[4.01712195,50.92761513],[4.01716314,50.92763399],[4.01713587,50.92765778],[4.01709467,50.92763892],[4.01712195,50.92761513]]]}},{"type":"Feature","id":"gebouw/Gebouw.16812208/0","properties":{"source":"Digitaal Vlaanderen Gebouwenregister","source_id":"gebouw/Gebouw.16812208/0","kind":"building","height_m":5.0,"status":null},"geometry":{"type":"Polygon","coordinates":[[[4.01673952,50.92545044],[4.01664289,50.92545665],[4.01664921,50.92549598],[4.01674584,50.92548978],[4.01673952,50.92545044]]]}},{"type":"Feature","id":"gebouw/Gebouw.16812637/0","properties":{"source":"Digitaal Vlaanderen Gebouwenregister","source_id":"gebouw/Gebouw.16812637/0","kind":"building","height_m":6.44,"status":null},"geometry":{"type":"Polygon","coordinates":[[[4.01740795,50.92657882],[4.01739152,50.92659853],[4.01738465,50.9265965],[4.01735698,50.9265883],[4.01733783,50.92658247],[4.01729287,50.9265688],[4.0172834,50.92656592],[4.01731964,50.92652323],[4.01730741,50.92651879],[4.01730199,50.92651069],[4.01730774,50.92649609],[4.0173267,50.92647924],[4.0173383,50.92647531],[4.01735464,50.92647993],[4.01738592,50.92644026],[4.01736552,50.92643435],[4.01736275,50.92642677],[4.01737734,50.92640772],[4.0173934,50.92640507],[4.01738287,50.92640153],[4.01743224,50.92634006],[4.01757183,50.9263821],[4.01754747,50.92641134],[4.01749641,50.92647262],[4.01747276,50.92650102],[4.01741823,50.92656648],[4.01740795,50.92657882]]]}},{"type":"Feature","id":"gebouw/Gebouw.16813441/0","properties":{"source":"Digitaal Vlaanderen Gebouwenregister","source_id":"gebouw/Gebouw.16813441/0","kind":"building","height_m":5.72,"status":null},"geometry":{"type":"Polygon","coordinates":[[[4.01689182,50.92556412],[4.0168442,50.92556764],[4.01684603,50.92557754],[4.01672302,50.92558663],[4.01672264,50.92558461],[4.01671714,50.92555487],[4.01671414,50.92553863],[4.01683953,50.92552937],[4.01684042,50.92553418],[4.01688566,50.92553083],[4.01689182,50.92556412]]]}},{"type":"Feature","id":"gebouw/Gebouw.16813452/0","properties":{"source":"Digitaal Vlaanderen Gebouwenregister","source_id":"gebouw/Gebouw.16813452/0","kind":"building","height_m":8.6,"status":null},"geometry":{"type":"Polygon","coordinates":[[[4.01719389,50.92424627],[4.01725747,50.92418507],[4.01729762,50.92420159],[4.01723343,50.92426358],[4.01719389,50.92424627]]]}},{"type":"Feature","id":"gebouw/Gebouw.16813462/0","properties":{"source":"Digitaal Vlaanderen Gebouwenregister","source_id":"gebouw/Gebouw.16813462/0","kind":"building","height_m":5.72,"status":null},"geometry":{"type":"Polygon","coordinates":[[[4.01762922,50.92781278],[4.01756387,50.92786662],[4.01744272,50.92780788],[4.0175075,50.92775452],[4.01762922,50.92781278]]]}},{"type":"Feature","id":"gebouw/Gebouw.16813529/0","properties":{"source":"Digitaal Vlaanderen Gebouwenregister","source_id":"gebouw/Gebouw.16813529/0","kind":"building","height_m":8.6,"status":null},"geometry":{"type":"Polygon","coordinates":[[[4.01722214,50.92452132],[4.01726462,50.92454123],[4.01718212,50.92461155],[4.0171777,50.92460944],[4.01715138,50.92463144],[4.0171759,50.92464316],[4.017149,50.92466564],[4.01715872,50.92467028],[4.01707797,50.92473777],[4.01700722,50.92470396],[4.01718694,50.92455124],[4.01718823,50.92455014],[4.01722214,50.92452132]]]}},{"type":"Feature","id":"gebouw/Gebouw.16814123/0","properties":{"source":"Digitaal Vlaanderen Gebouwenregister","source_id":"gebouw/Gebouw.16814123/0","kind":"building","height_m":7.88,"status":null},"geometry":{"type":"Polygon","coordinates":[[[4.01664313,50.92485441],[4.01662062,50.92488811],[4.01656993,50.92487395],[4.0165933,50.92484048],[4.01664313,50.92485441]]]}},{"type":"Feature","id":"gebouw/Gebouw.16814344/0","properties":{"source":"Digitaal Vlaanderen Gebouwenregister","source_id":"gebouw/Gebouw.16814344/0","kind":"building","height_m":5.72,"status":null},"geometry":{"type":"Polygon","coordinates":[[[4.01911986,50.92620925],[4.01916287,50.92616931],[4.01920338,50.92618674],[4.01916037,50.92622668],[4.01911986,50.92620925]]]}},{"type":"Feature","id":"gebouw/Gebouw.16820778/0","properties":{"source":"Digitaal Vlaanderen Gebouwenregister","source_id":"gebouw/Gebouw.16820778/0","kind":"building","height_m":6.44,"status":null},"geometry":{"type":"Polygon","coordinates":[[[4.01763405,50.92428098],[4.01767397,50.92424525],[4.01781268,50.92430716],[4.01781659,50.92430417],[4.01785889,50.92432503],[4.0178178,50.92436184],[4.01763405,50.92428098]]]}},{"type":"Feature","id":"gebouw/Gebouw.16820834/0","properties":{"source":"Digitaal Vlaanderen Gebouwenregister","source_id":"gebouw/Gebouw.16820834/0","kind":"building","height_m":6.44,"status":null},"geometry":{"type":"Polygon","coordinates":[[[4.01659098,50.92340295],[4.01659684,50.92340457],[4.01656908,50.92344021],[4.016562,50.92343809],[4.01653064,50.92342872],[4.01655791,50.92339385],[4.01659098,50.92340295]]]}},{"type":"Feature","id":"gebouw/Gebouw.16821028/0","properties":{"source":"Digitaal Vlaanderen Gebouwenregister","source_id":"gebouw/Gebouw.16821028/0","kind":"building","height_m":5.0,"status":null},"geometry":{"type":"Polygon","coordinates":[[[4.01747276,50.92650102],[4.01749228,50.92650757],[4.01747092,50.92653255],[4.01747432,50.92653365],[4.01746395,50.92654538],[4.01747491,50.92654902],[4.01745116,50.92657812],[4.01741823,50.92656648],[4.01747276,50.92650102]]]}},{"type":"Feature","id":"gebouw/Gebouw.16821069/0","properties":{"source":"Digitaal Vlaanderen Gebouwenregister","source_id":"gebouw/Gebouw.16821069/0","kind":"building","height_m":9.32,"status":null},"geometry":{"type":"Polygon","coordinates":[[[4.01648231,50.92422059],[4.01638457,50.92433495],[4.01629471,50.92430463],[4.01636371,50.92422295],[4.01640229,50.92423597],[4.01643841,50.92419116],[4.01646033,50.9241885],[4.01649855,50.92420159],[4.01648231,50.92422059]]]}},{"type":"Feature","id":"gebouw/Gebouw.16821381/0","properties":{"source":"Digitaal Vlaanderen Gebouwenregister","source_id":"gebouw/Gebouw.16821381/0","kind":"building","height_m":7.16,"status":null},"geometry":{"type":"Polygon","coordinates":[[[4.01772503,50.9234694],[4.01770268,50.92349368],[4.01769428,50.92349059],[4.01766007,50.92347801],[4.01768243,50.92345372],[4.01771563,50.92346594],[4.01772503,50.9234694]]]}},{"type":"Feature","id":"gebouw/Gebouw.16821557/0","properties":{"source":"Digitaal Vlaanderen Gebouwenregister","source_id":"gebouw/Gebouw.16821557/0","kind":"building","height_m":7.88,"status":null},"geometry":{"type":"Polygon","coordinates":[[[4.01929615,50.92661803],[4.01925521,50.9266415],[4.01926848,50.92664971],[4.01917309,50.92670366],[4.01911258,50.92666093],[4.01929136,50.9265594],[4.01932337,50.9265824],[4.01927372,50.92661041],[4.01928586,50.92661911],[4.01929243,50.92661545],[4.01929615,50.92661803]]]}},{"type":"Feature","id":"gebouw/Gebouw.16828849/0","properties":{"source":"Digitaal Vlaanderen Gebouwenregister","source_id":"gebouw/Gebouw.16828849/0","kind":"building","height_m":6.44,"status":null},"geometry":{"type":"Polygon","coordinates":[[[4.01707163,50.92802341],[4.0170393,50.92805176],[4.01699511,50.92803162],[4.01702743,50.92800328],[4.01707163,50.92802341]]]}},{"type":"Feature","id":"gebouw/Gebouw.16828866/0","properties":{"source":"Digitaal Vlaanderen Gebouwenregister","source_id":"gebouw/Gebouw.16828866/0","kind":"building","height_m":8.6,"status":null},"geometry":{"type":"Polygon","coordinates":[[[4.01872534,50.92638394],[4.01868962,50.92641563],[4.01865099,50.92639823],[4.01868671,50.92636655],[4.01872534,50.92638394]]]}},{"type":"Feature","id":"gebouw/Gebouw.16829212/0","properties":{"source":"Digitaal Vlaanderen Gebouwenregister","source_id":"gebouw/Gebouw.16829212/0","kind":"building","height_m":5.72,"status":null},"geometry":{"type":"Polygon","coordinates":[[[4.01720534,50.92754886],[4.01724382,50.9275671],[4.01721278,50.92759327],[4.01717429,50.92757503],[4.01720534,50.92754886]]]}},{"type":"Feature","id":"gebouw/Gebouw.16829234/0","properties":{"source":"Digitaal Vlaanderen Gebouwenregister","source_id":"gebouw/Gebouw.16829234/0","kind":"building","height_m":6.44,"status":null},"geometry":{"type":"Polygon","coordinates":[[[4.01708427,50.92776097],[4.01713587,50.9277852],[4.01710845,50.92780852],[4.01705685,50.92778429],[4.01708427,50.92776097]]]}},{"type":"Feature","id":"gebouw/Gebouw.16829360/0","properties":{"source":"Digitaal Vlaanderen Gebouwenregister","source_id":"gebouw/Gebouw.16829360/0","kind":"building","height_m":6.44,"status":null},"geometry":{"type":"Polygon","coordinates":[[[4.01670478,50.92816828],[4.01667441,50.92815404],[4.01667884,50.92815027],[4.0166672,50.92814481],[4.01669674,50.92811964],[4.01670981,50.92812577],[4.01671505,50.9281213],[4.01674399,50.92813486],[4.01670478,50.92816828]]]}},{"type":"Feature","id":"gebouw/Gebouw.16847303/0","properties":{"source":"Digitaal Vlaanderen Gebouwenregister","source_id":"gebouw/Gebouw.16847303/0","kind":"building","height_m":7.88,"status":null},"geometry":{"type":"Polygon","coordinates":[[[4.01844268,50.92663427],[4.01851149,50.9267073],[4.01853789,50.92669674],[4.01856716,50.92671595],[4.01858414,50.92670595],[4.01865861,50.92675464],[4.01858615,50.92679863],[4.01861669,50.92682414],[4.01871144,50.92676558],[4.01869682,50.92675644],[4.01876134,50.92671549],[4.0186067,50.92661818],[4.01860014,50.92662233],[4.01853051,50.92657851],[4.01844268,50.92663427]]]}},{"type":"Feature","id":"gebouw/Gebouw.16847671/0","properties":{"source":"Digitaal Vlaanderen Gebouwenregister","source_id":"gebouw/Gebouw.16847671/0","kind":"building","height_m":5.72,"status":null},"geometry":{"type":"Polygon","coordinates":[[[4.01798436,50.92735763],[4.01798944,50.92735341],[4.01811166,50.92741224],[4.018044,50.92746838],[4.0179215,50.92740978],[4.01792868,50.92740382],[4.01798436,50.92735763]]]}},{"type":"Feature","id":"gebouw/Gebouw.16847701/0","properties":{"source":"Digitaal Vlaanderen Gebouwenregister","source_id":"gebouw/Gebouw.16847701/0","kind":"building","height_m":7.16,"status":null},"geometry":{"type":"Polygon","coordinates":[[[4.01920477,50.92649879],[4.01911039,50.92655403],[4.0190661,50.92652265],[4.01915346,50.92646282],[4.01917307,50.92647657],[4.01920477,50.92649879]]]}},{"type":"Feature","id":"gebouw/Gebouw.16847790/0","properties":{"source":"Digitaal Vlaanderen Gebouwenregister","source_id":"gebouw/Gebouw.16847790/0","kind":"building","height_m":5.72,"status":null},"geometry":{"type":"Polygon","coordinates":[[[4.01812465,50.92581487],[4.0180984,50.92580316],[4.01814864,50.92575819],[4.01817488,50.9257699],[4.01812465,50.92581487]]]}},{"type":"Feature","id":"gebouw/Gebouw.16847917/0","properties":{"source":"Digitaal Vlaanderen Gebouwenregister","source_id":"gebouw/Gebouw.16847917/0","kind":"building","height_m":6.44,"status":null},"geometry":{"type":"Polygon","coordinates":[[[4.01770085,50.92523277],[4.01768857,50.92525105],[4.01768402,50.92524971],[4.01768148,50.92525333],[4.01766887,50.92525011],[4.01766068,50.92525824],[4.01763854,50.92526939],[4.01763249,50.92527642],[4.01758245,50.92526301],[4.0173878,50.92521084],[4.01727541,50.925181],[4.01721094,50.92516329],[4.01721536,50.92515371],[4.0171991,50.92515016],[4.01721143,50.92512252],[4.01722832,50.92512574],[4.01723408,50.92511328],[4.01741477,50.92515421],[4.01752266,50.92519115],[4.0176384,50.92521984],[4.01764071,50.92521625],[4.01770085,50.92523277]]]}},{"type":"Feature","id":"gebouw/Gebouw.16847958/0","properties":{"source":"Digitaal Vlaanderen Gebouwenregister","source_id":"gebouw/Gebouw.16847958/0","kind":"building","height_m":5.72,"status":null},"geometry":{"type":"Polygon","coordinates":[[[4.01668775,50.92519224],[4.01683644,50.92518353],[4.01689219,50.92518027],[4.01691898,50.92516285],[4.01703454,50.92514793],[4.0170023,50.92504822],[4.01699936,50.9250486],[4.01688478,50.9250634],[4.01690577,50.92512833],[4.01689766,50.92512938],[4.01688178,50.92508027],[4.01683064,50.92508677],[4.01682072,50.92504563],[4.01667475,50.92506096],[4.01667463,50.92506097],[4.01668762,50.92512278],[4.01667715,50.92512311],[4.01667761,50.92512645],[4.01662747,50.92513044],[4.01663352,50.92514916],[4.01662908,50.92515014],[4.01665981,50.92518578],[4.01668625,50.9251832],[4.01668775,50.92519224]]]}},{"type":"Feature","id":"gebouw/Gebouw.16848078/0","properties":{"source":"Digitaal Vlaanderen Gebouwenregister","source_id":"gebouw/Gebouw.16848078/0","kind":"building","height_m":6.44,"status":null},"geometry":{"type":"Polygon","coordinates":[[[4.0181099,50.92609719],[4.01815229,50.92611686],[4.01808807,50.92617214],[4.01804568,50.92615247],[4.0181099,50.92609719]]]}},{"type":"Feature","id":"gebouw/Gebouw.16848173/0","properties":{"source":"Digitaal Vlaanderen Gebouwenregister","source_id":"gebouw/Gebouw.16848173/0","kind":"building","height_m":9.32,"status":null},"geometry":{"type":"Polygon","coordinates":[[[4.01884046,50.92688886],[4.01881868,50.92689989],[4.01874379,50.92683673],[4.01880961,50.92680351],[4.01888452,50.92686656],[4.01884046,50.92688886]]]}},{"type":"Feature","id":"gebouw/Gebouw.17042951/0","properties":{"source":"Digitaal Vlaanderen Gebouwenregister","source_id":"gebouw/Gebouw.17042951/0","kind":"building","height_m":6.44,"status":null},"geometry":{"type":"Polygon","coordinates":[[[4.01706579,50.92647304],[4.01704801,50.92650035],[4.01699475,50.92648651],[4.01701253,50.9264592],[4.01706579,50.92647304]]]}},{"type":"Feature","id":"gebouw/Gebouw.17058356/0","properties":{"source":"Digitaal Vlaanderen Gebouwenregister","source_id":"gebouw/Gebouw.17058356/0","kind":"building","height_m":5.0,"status":null},"geometry":{"type":"Polygon","coordinates":[[[4.01845098,50.92624211],[4.01834838,50.92632857],[4.018273,50.92629284],[4.01837487,50.92620699],[4.01838168,50.92621025],[4.01841765,50.92622646],[4.01845098,50.92624211]]]}},{"type":"Feature","id":"gebouw/Gebouw.17058459/0","properties":{"source":"Digitaal Vlaanderen Gebouwenregister","source_id":"gebouw/Gebouw.17058459/0","kind":"building","height_m":8.6,"status":null},"geometry":{"type":"Polygon","coordinates":[[[4.01871779,50.92639952],[4.01873881,50.92639063],[4.01878463,50.92643392],[4.01876361,50.92644281],[4.01871779,50.92639952]]]}},{"type":"Feature","id":"gebouw/Gebouw.17058519/0","properties":{"source":"Digitaal Vlaanderen Gebouwenregister","source_id":"gebouw/Gebouw.17058519/0","kind":"building","height_m":6.44,"status":null},"geometry":{"type":"Polygon","coordinates":[[[4.01750541,50.92761752],[4.01746974,50.92764711],[4.01735725,50.92759294],[4.01739265,50.92756358],[4.01750541,50.92761752]]]}},{"type":"Feature","id":"gebouw/Gebouw.17058747/0","properties":{"source":"Digitaal Vlaanderen Gebouwenregister","source_id":"gebouw/Gebouw.17058747/0","kind":"building","height_m":9.32,"status":null},"geometry":{"type":"Polygon","coordinates":[[[4.0190661,50.92652265],[4.01900762,50.92656271],[4.01894921,50.92652636],[4.01898071,50.92650614],[4.01896208,50.92649455],[4.01899457,50.92647369],[4.0189812,50.92646537],[4.01904004,50.92642759],[4.01906234,50.92644147],[4.01909027,50.92642353],[4.01915346,50.92646282],[4.0190661,50.92652265]]]}},{"type":"Feature","id":"gebouw/Gebouw.17059064/0","properties":{"source":"Digitaal Vlaanderen Gebouwenregister","source_id":"gebouw/Gebouw.17059064/0","kind":"building","height_m":5.72,"status":null},"geometry":{"type":"Polygon","coordinates":[[[4.01685924,50.92828376],[4.01688889,50.92825848],[4.01688511,50.92825671],[4.01694389,50.92820659],[4.01696959,50.92821863],[4.01697485,50.92821414],[4.01706269,50.92825528],[4.01706415,50.92825403],[4.01707444,50.92825866],[4.01707283,50.92826003],[4.01708518,50.92826602],[4.01704229,50.92830255],[4.01702004,50.92832176],[4.01703718,50.92832998],[4.01700755,50.92835469],[4.01687738,50.92829244],[4.01685924,50.92828376]]]}},{"type":"Feature","id":"gebouw/Gebouw.17059111/0","properties":{"source":"Digitaal Vlaanderen Gebouwenregister","source_id":"gebouw/Gebouw.17059111/0","kind":"building","height_m":9.32,"status":null},"geometry":{"type":"Polygon","coordinates":[[[4.01837945,50.92586722],[4.01834403,50.92584923],[4.01832695,50.92584056],[4.01829976,50.92586195],[4.01824876,50.92583605],[4.01827525,50.9258143],[4.0184507,50.92567025],[4.01851489,50.92570215],[4.01848493,50.92572794],[4.01852843,50.92575003],[4.01837945,50.92586722]]]}},{"type":"Feature","id":"gebouw/Gebouw.17071905/0","properties":{"source":"Digitaal Vlaanderen Gebouwenregister","source_id":"gebouw/Gebouw.17071905/0","kind":"building","height_m":7.88,"status":null},"geometry":{"type":"Polygon","coordinates":[[[4.01701103,50.9244241],[4.01700834,50.92442697],[4.0169903,50.92444623],[4.01695619,50.92448267],[4.01684446,50.92460201],[4.01677236,50.92455008],[4.01691025,50.92440904],[4.01692664,50.92439228],[4.01701103,50.9244241]]]}},{"type":"Feature","id":"gebouw/Gebouw.17120449/0","properties":{"source":"Digitaal Vlaanderen Gebouwenregister","source_id":"gebouw/Gebouw.17120449/0","kind":"building","height_m":7.16,"status":null},"geometry":{"type":"Polygon","coordinates":[[[4.0172212,50.92771114],[4.01733283,50.92776611],[4.01730125,50.92779172],[4.01718904,50.92773721],[4.0172212,50.92771114]]]}},{"type":"Feature","id":"gebouw/Gebouw.17120899/0","properties":{"source":"Digitaal Vlaanderen Gebouwenregister","source_id":"gebouw/Gebouw.17120899/0","kind":"building","height_m":8.6,"status":null},"geometry":{"type":"Polygon","coordinates":[[[4.0162994,50.9245616],[4.01624357,50.92465293],[4.01620853,50.92464285],[4.01622867,50.92460991],[4.01619908,50.92460272],[4.01632573,50.92440407],[4.01640612,50.92443962],[4.0162994,50.9245616]]]}},{"type":"Feature","id":"gebouw/Gebouw.18729647/0","properties":{"source":"Digitaal Vlaanderen Gebouwenregister","source_id":"gebouw/Gebouw.18729647/0","kind":"building","height_m":9.32,"status":null},"geometry":{"type":"Polygon","coordinates":[[[4.01758276,50.92428168],[4.01753197,50.92432583],[4.01748318,50.92430283],[4.01753319,50.92425905],[4.01758276,50.92428168]]]}},{"type":"Feature","id":"gebouw/Gebouw.18729648/0","properties":{"source":"Digitaal Vlaanderen Gebouwenregister","source_id":"gebouw/Gebouw.18729648/0","kind":"building","height_m":5.0,"status":null},"geometry":{"type":"Polygon","coordinates":[[[4.01779136,50.92437469],[4.01775234,50.92440889],[4.01771597,50.92439299],[4.0177539,50.92435856],[4.01779136,50.92437469]]]}},{"type":"Feature","id":"gebouw/Gebouw.18729842/0","properties":{"source":"Digitaal Vlaanderen Gebouwenregister","source_id":"gebouw/Gebouw.18729842/0","kind":"building","height_m":8.6,"status":null},"geometry":{"type":"Polygon","coordinates":[[[4.01643685,50.92840577],[4.01639854,50.92843708],[4.01635879,50.92841673],[4.01639559,50.92838582],[4.01643685,50.92840577]]]}},{"type":"Feature","id":"gebouw/Gebouw.18729843/0","properties":{"source":"Digitaal Vlaanderen Gebouwenregister","source_id":"gebouw/Gebouw.18729843/0","kind":"building","height_m":9.32,"status":null},"geometry":{"type":"Polygon","coordinates":[[[4.017157,50.92729984],[4.01709317,50.92735523],[4.01703358,50.92732959],[4.01709701,50.92727217],[4.017157,50.92729984]]]}},{"type":"Feature","id":"gebouw/Gebouw.18729845/0","properties":{"source":"Digitaal Vlaanderen Gebouwenregister","source_id":"gebouw/Gebouw.18729845/0","kind":"building","height_m":5.72,"status":null},"geometry":{"type":"Polygon","coordinates":[[[4.01905311,50.92675485],[4.01901732,50.92677572],[4.01897797,50.92674672],[4.01901328,50.92672732],[4.01905311,50.92675485]]]}},{"type":"Feature","id":"gebouw/Gebouw.18729846/0","properties":{"source":"Digitaal Vlaanderen Gebouwenregister","source_id":"gebouw/Gebouw.18729846/0","kind":"building","height_m":6.44,"status":null},"geometry":{"type":"Polygon","coordinates":[[[4.01912157,50.9253145],[4.01916328,50.92533283],[4.01913861,50.92535746],[4.01906999,50.92542595],[4.01901952,50.92540524],[4.01909389,50.92533911],[4.01912157,50.9253145]]]}},{"type":"Feature","id":"gebouw/Gebouw.19879227/0","properties":{"source":"Digitaal Vlaanderen Gebouwenregister","source_id":"gebouw/Gebouw.19879227/0","kind":"building","height_m":7.88,"status":null},"geometry":{"type":"Polygon","coordinates":[[[4.01840712,50.92564855],[4.01827132,50.92576005],[4.01822173,50.92573593],[4.01835793,50.92562409],[4.01840712,50.92564855]]]}},{"type":"Feature","id":"gebouw/Gebouw.19879228/0","properties":{"source":"Digitaal Vlaanderen Gebouwenregister","source_id":"gebouw/Gebouw.19879228/0","kind":"building","height_m":8.6,"status":null},"geometry":{"type":"Polygon","coordinates":[[[4.01827132,50.92576005],[4.01825132,50.92577648],[4.0182254,50.92579776],[4.01817624,50.92577327],[4.01820118,50.9257528],[4.01822173,50.92573593],[4.01827132,50.92576005]]]}},{"type":"Feature","id":"gebouw/Gebouw.19879370/0","properties":{"source":"Digitaal Vlaanderen Gebouwenregister","source_id":"gebouw/Gebouw.19879370/0","kind":"building","height_m":5.0,"status":null},"geometry":{"type":"Polygon","coordinates":[[[4.01697908,50.92449776],[4.01702218,50.92452618],[4.0169798,50.92456173],[4.01689141,50.92463587],[4.01684446,50.92460201],[4.01695619,50.92448267],[4.01697908,50.92449776]]]}},{"type":"Feature","id":"gebouw/Gebouw.19879371/0","properties":{"source":"Digitaal Vlaanderen Gebouwenregister","source_id":"gebouw/Gebouw.19879371/0","kind":"building","height_m":5.72,"status":null},"geometry":{"type":"Polygon","coordinates":[[[4.01701334,50.92445694],[4.017021,50.9244605],[4.01697908,50.92449776],[4.01695619,50.92448267],[4.0169903,50.92444623],[4.01701334,50.92445694]]]}},{"type":"Feature","id":"gebouw/Gebouw.19879517/0","properties":{"source":"Digitaal Vlaanderen Gebouwenregister","source_id":"gebouw/Gebouw.19879517/0","kind":"building","height_m":5.0,"status":null},"geometry":{"type":"Polygon","coordinates":[[[4.01647339,50.92446901],[4.01645704,50.9244832],[4.01646298,50.92448596],[4.016413,50.92452892],[4.01640982,50.92452745],[4.01638244,50.9245518],[4.01636552,50.92457861],[4.01634798,50.9245741],[4.0162994,50.9245616],[4.01640612,50.92443962],[4.01647339,50.92446901]]]}},{"type":"Feature","id":"gebouw/Gebouw.19879518/0","properties":{"source":"Digitaal Vlaanderen Gebouwenregister","source_id":"gebouw/Gebouw.19879518/0","kind":"building","height_m":5.72,"status":null},"geometry":{"type":"Polygon","coordinates":[[[4.01628588,50.92466263],[4.01628351,50.92466602],[4.01624724,50.92465669],[4.01624208,50.92465536],[4.01624357,50.92465293],[4.0162994,50.9245616],[4.01634798,50.9245741],[4.01628588,50.92466263]]]}},{"type":"Feature","id":"gebouw/Gebouw.19879669/0","properties":{"source":"Digitaal Vlaanderen Gebouwenregister","source_id":"gebouw/Gebouw.19879669/0","kind":"building","height_m":8.6,"status":null},"geometry":{"type":"Polygon","coordinates":[[[4.01612126,50.92414681],[4.01609152,50.92418086],[4.01607834,50.92418349],[4.01607277,50.9241846],[4.01602732,50.92416859],[4.01604846,50.92414196],[4.01606204,50.92412484],[4.01613644,50.92403109],[4.01614726,50.92401746],[4.01621328,50.92403839],[4.01612126,50.92414681]]]}},{"type":"Feature","id":"gebouw/Gebouw.19879671/0","properties":{"source":"Digitaal Vlaanderen Gebouwenregister","source_id":"gebouw/Gebouw.19879671/0","kind":"building","height_m":5.0,"status":null},"geometry":{"type":"Polygon","coordinates":[[[4.01614726,50.92401746],[4.01613644,50.92403109],[4.0161322,50.92402973],[4.01611217,50.92402331],[4.01612232,50.92400955],[4.01614726,50.92401746]]]}},{"type":"Feature","id":"gebouw/Gebouw.19880157/0","properties":{"source":"Digitaal Vlaanderen Gebouwenregister","source_id":"gebouw/Gebouw.19880157/0","kind":"building","height_m":7.16,"status":null},"geometry":{"type":"Polygon","coordinates":[[[4.0165045,50.9253667],[4.01648845,50.92527628],[4.016316,50.92528866],[4.01633064,50.92535044],[4.01633785,50.92538091],[4.0165045,50.9253667]]]}},{"type":"Feature","id":"gebouw/Gebouw.19880158/0","properties":{"source":"Digitaal Vlaanderen Gebouwenregister","source_id":"gebouw/Gebouw.19880158/0","kind":"building","height_m":7.88,"status":null},"geometry":{"type":"Polygon","coordinates":[[[4.01633785,50.92538091],[4.01633064,50.92535044],[4.016316,50.92528866],[4.01624907,50.92529343],[4.0162657,50.92538617],[4.01633785,50.92538091]]]}},{"type":"Feature","id":"gebouw/Gebouw.19881306/0","properties":{"source":"Digitaal Vlaanderen Gebouwenregister","source_id":"gebouw/Gebouw.19881306/0","kind":"building","height_m":7.88,"status":null},"geometry":{"type":"Polygon","coordinates":[[[4.01792108,50.92651483],[4.01789445,50.92653665],[4.01782133,50.92659654],[4.01781337,50.92660306],[4.01772987,50.92656235],[4.01780974,50.92649692],[4.01784175,50.92651253],[4.01786925,50.92649],[4.01792108,50.92651483]]]}},{"type":"Feature","id":"gebouw/Gebouw.19881307/0","properties":{"source":"Digitaal Vlaanderen Gebouwenregister","source_id":"gebouw/Gebouw.19881307/0","kind":"building","height_m":8.6,"status":null},"geometry":{"type":"Polygon","coordinates":[[[4.01789445,50.92653665],[4.01792548,50.9265515],[4.01785321,50.92661179],[4.01782133,50.92659654],[4.01789445,50.92653665]]]}},{"type":"Feature","id":"gebouw/Gebouw.20145711/0","properties":{"source":"Digitaal Vlaanderen Gebouwenregister","source_id":"gebouw/Gebouw.20145711/0","kind":"building","height_m":8.6,"status":null},"geometry":{"type":"Polygon","coordinates":[[[4.02577442,50.92787084],[4.02569719,50.92796302],[4.02569244,50.92796869],[4.02555931,50.92792414],[4.02553704,50.92791669],[4.02554372,50.92790871],[4.02561902,50.92781883],[4.02577442,50.92787084]]]}},{"type":"Feature","id":"gebouw/Gebouw.20146171/0","properties":{"source":"Digitaal Vlaanderen Gebouwenregister","source_id":"gebouw/Gebouw.20146171/0","kind":"building","height_m":7.16,"status":null},"geometry":{"type":"Polygon","coordinates":[[[4.01677702,50.92373394],[4.01679174,50.92371539],[4.01681026,50.92372126],[4.01681484,50.92371549],[4.01686598,50.9237317],[4.01684669,50.92375602],[4.01677702,50.92373394]]]}},{"type":"Feature","id":"gebouw/Gebouw.20146172/0","properties":{"source":"Digitaal Vlaanderen Gebouwenregister","source_id":"gebouw/Gebouw.20146172/0","kind":"building","height_m":7.88,"status":null},"geometry":{"type":"Polygon","coordinates":[[[4.01718544,50.92424407],[4.01718115,50.92424239],[4.0171493,50.9242299],[4.01705998,50.92432089],[4.01709612,50.92433506],[4.01718544,50.92424407]]]}},{"type":"Feature","id":"gebouw/Gebouw.20146174/0","properties":{"source":"Digitaal Vlaanderen Gebouwenregister","source_id":"gebouw/Gebouw.20146174/0","kind":"building","height_m":9.32,"status":null},"geometry":{"type":"Polygon","coordinates":[[[4.01737583,50.9273853],[4.01734172,50.92736953],[4.01737187,50.92734349],[4.01740598,50.92735926],[4.01737583,50.9273853]]]}},{"type":"Feature","id":"gebouw/Gebouw.30642592/0","properties":{"source":"Digitaal Vlaanderen Gebouwenregister","source_id":"gebouw/Gebouw.30642592/0","kind":"building","height_m":5.72,"status":null},"geometry":{"type":"Polygon","coordinates":[[[4.01935338,50.92840811],[4.01952998,50.92837856],[4.01960596,50.92855994],[4.01942936,50.92858949],[4.01935338,50.92840811]]]}},{"type":"Feature","id":"gebouw/Gebouw.30642596/0","properties":{"source":"Digitaal Vlaanderen Gebouwenregister","source_id":"gebouw/Gebouw.30642596/0","kind":"building","height_m":8.6,"status":null},"geometry":{"type":"Polygon","coordinates":[[[4.02053692,50.92702975],[4.0205767,50.92701458],[4.02060727,50.92704659],[4.02056748,50.92706176],[4.02053692,50.92702975]]]}},{"type":"Feature","id":"gebouw/Gebouw.30642598/0","properties":{"source":"Digitaal Vlaanderen Gebouwenregister","source_id":"gebouw/Gebouw.30642598/0","kind":"building","height_m":5.0,"status":null},"geometry":{"type":"Polygon","coordinates":[[[4.02607944,50.92478562],[4.026116,50.92475873],[4.02615599,50.92478045],[4.02611943,50.92480734],[4.02607944,50.92478562]]]}},{"type":"Feature","id":"gebouw/Gebouw.30642601/0","properties":{"source":"Digitaal Vlaanderen Gebouwenregister","source_id":"gebouw/Gebouw.30642601/0","kind":"building","height_m":7.16,"status":null},"geometry":{"type":"Polygon","coordinates":[[[4.01730521,50.92400505],[4.01728214,50.92402865],[4.01723252,50.92400855],[4.0172562,50.9239852],[4.01730521,50.92400505]]]}},{"type":"Feature","id":"gebouw/Gebouw.31144655/0","properties":{"source":"Digitaal Vlaanderen Gebouwenregister","source_id":"gebouw/Gebouw.31144655/0","kind":"building","height_m":7.16,"status":null},"geometry":{"type":"Polygon","coordinates":[[[4.01675893,50.9240993],[4.01670834,50.92408452],[4.01674037,50.92404072],[4.01679096,50.92405549],[4.01675893,50.9240993]]]}},{"type":"Feature","id":"gebouw/Gebouw.31145057/0","properties":{"source":"Digitaal Vlaanderen Gebouwenregister","source_id":"gebouw/Gebouw.31145057/0","kind":"building","height_m":9.32,"status":null},"geometry":{"type":"Polygon","coordinates":[[[4.01910542,50.92531027],[4.0191145,50.92531528],[4.01906837,50.92534864],[4.01906514,50.92534686],[4.01901817,50.92532093],[4.0190643,50.92528758],[4.01910542,50.92531027]]]}},{"type":"Feature","id":"gebouw/Gebouw.31524012/0","properties":{"source":"Digitaal Vlaanderen Gebouwenregister","source_id":"gebouw/Gebouw.31524012/0","kind":"building","height_m":6.44,"status":null},"geometry":{"type":"Polygon","coordinates":[[[4.017166,50.92491075],[4.01716529,50.92489508],[4.01712382,50.92489584],[4.01712453,50.9249115],[4.01712698,50.92491146],[4.01716277,50.9249108],[4.017166,50.92491075]]]}},{"type":"Feature","id":"gebouw/Gebouw.31804822/0","properties":{"source":"Digitaal Vlaanderen Gebouwenregister","source_id":"gebouw/Gebouw.31804822/0","kind":"building","height_m":5.0,"status":null},"geometry":{"type":"Polygon","coordinates":[[[4.01673765,50.92791815],[4.01678612,50.92787884],[4.0167478,50.92785997],[4.01669933,50.92789929],[4.01673765,50.92791815]]]}},{"type":"Feature","id":"gebouw/Gebouw.31804992/0","properties":{"source":"Digitaal Vlaanderen Gebouwenregister","source_id":"gebouw/Gebouw.31804992/0","kind":"building","height_m":6.44,"status":null},"geometry":{"type":"Polygon","coordinates":[[[4.01648259,50.92549197],[4.01656765,50.92548289],[4.01655259,50.9254266],[4.01646754,50.92543568],[4.01648259,50.92549197]]]}},{"type":"Feature","id":"gebouw/Gebouw.31805691/0","properties":{"source":"Digitaal Vlaanderen Gebouwenregister","source_id":"gebouw/Gebouw.31805691/0","kind":"building","height_m":5.72,"status":null},"geometry":{"type":"Polygon","coordinates":[[[4.02561902,50.92781883],[4.02577442,50.92787084],[4.02585952,50.92776927],[4.02570412,50.92771726],[4.02561902,50.92781883]]]}},{"type":"Feature","id":"gebouw/Gebouw.31805757/0","properties":{"source":"Digitaal Vlaanderen Gebouwenregister","source_id":"gebouw/Gebouw.31805757/0","kind":"building","height_m":7.88,"status":null},"geometry":{"type":"Polygon","coordinates":[[[4.01796062,50.92568729],[4.01791984,50.92572231],[4.01794811,50.92573546],[4.0179889,50.92570045],[4.01796062,50.92568729]]]}},{"type":"Feature","id":"gebouw/Gebouw.32033704/0","properties":{"source":"Digitaal Vlaanderen Gebouwenregister","source_id":"gebouw/Gebouw.32033704/0","kind":"building","height_m":7.16,"status":null},"geometry":{"type":"Polygon","coordinates":[[[4.02656632,50.9283616],[4.02660413,50.92837628],[4.02663712,50.92834237],[4.0265993,50.92832768],[4.02656632,50.9283616]]]}},{"type":"Feature","id":"gebouw/Gebouw.32033732/0","properties":{"source":"Digitaal Vlaanderen Gebouwenregister","source_id":"gebouw/Gebouw.32033732/0","kind":"building","height_m":7.16,"status":null},"geometry":{"type":"Polygon","coordinates":[[[4.02606883,50.92824897],[4.02614908,50.92817606],[4.0261185,50.92816239],[4.0260411,50.92823149],[4.02606883,50.92824897]]]}},{"type":"Feature","id":"gebouw/Gebouw.32033769/0","properties":{"source":"Digitaal Vlaanderen Gebouwenregister","source_id":"gebouw/Gebouw.32033769/0","kind":"building","height_m":8.6,"status":null},"geometry":{"type":"Polygon","coordinates":[[[4.02530672,50.92854433],[4.02545345,50.92850996],[4.02543677,50.92848152],[4.02529004,50.92851589],[4.02530672,50.92854433]]]}},{"type":"Feature","id":"gebouw/Gebouw.32033832/0","properties":{"source":"Digitaal Vlaanderen Gebouwenregister","source_id":"gebouw/Gebouw.32033832/0","kind":"building","height_m":8.6,"status":null},"geometry":{"type":"Polygon","coordinates":[[[4.02674531,50.92847199],[4.02678533,50.92843247],[4.02674052,50.92841435],[4.02670051,50.92845386],[4.02674531,50.92847199]]]}},{"type":"Feature","id":"gebouw/Gebouw.32033855/0","properties":{"source":"Digitaal Vlaanderen Gebouwenregister","source_id":"gebouw/Gebouw.32033855/0","kind":"building","height_m":5.0,"status":null},"geometry":{"type":"Polygon","coordinates":[[[4.01881588,50.92671303],[4.01884376,50.92673164],[4.01888063,50.92670959],[4.01885276,50.92669098],[4.01881588,50.92671303]]]}},{"type":"Feature","id":"gebouw/Gebouw.32033894/0","properties":{"source":"Digitaal Vlaanderen Gebouwenregister","source_id":"gebouw/Gebouw.32033894/0","kind":"building","height_m":7.88,"status":null},"geometry":{"type":"Polygon","coordinates":[[[4.02561554,50.92820563],[4.02565117,50.92824057],[4.02568679,50.92822606],[4.02565116,50.92819112],[4.02561554,50.92820563]]]}},{"type":"Feature","id":"gebouw/Gebouw.32033931/0","properties":{"source":"Digitaal Vlaanderen Gebouwenregister","source_id":"gebouw/Gebouw.32033931/0","kind":"building","height_m":9.32,"status":null},"geometry":{"type":"Polygon","coordinates":[[[4.02643216,50.92853021],[4.02646911,50.92850872],[4.02642838,50.92848075],[4.02639142,50.92850224],[4.02643216,50.92853021]]]}},{"type":"Feature","id":"gebouw/Gebouw.32033969/0","properties":{"source":"Digitaal Vlaanderen Gebouwenregister","source_id":"gebouw/Gebouw.32033969/0","kind":"building","height_m":6.44,"status":null},"geometry":{"type":"Polygon","coordinates":[[[4.0265358,50.92830213],[4.02649171,50.92834468],[4.02653156,50.92836117],[4.02654961,50.92834375],[4.02654562,50.9283421],[4.02657166,50.92831697],[4.0265358,50.92830213]]]}},{"type":"Feature","id":"way/146793097","properties":{"source":"OpenStreetMap","source_id":"way/146793097","kind":"vegetation","name":null,"waterway":null,"landuse":"forest"},"geometry":{"type":"Polygon","coordinates":[[[4.028511,50.9228261],[4.0272277,50.9227459],[4.0271488,50.922861],[4.0270077,50.9228793],[4.026933,50.9232928],[4.0269703,50.9240935],[4.0268658,50.9242363],[4.0265899,50.924425],[4.0262026,50.9245703],[4.0258788,50.9246592],[4.0257518,50.9246294],[4.0259228,50.9243904],[4.0260085,50.9242706],[4.0260827,50.9241183],[4.0262986,50.9239121],[4.0264736,50.923818],[4.0263827,50.9235658],[4.0264736,50.9233026],[4.0264845,50.923219],[4.0263787,50.9231396],[4.02645,50.922996],[4.026162,50.9229092],[4.026081,50.9228771],[4.0265356,50.9223466],[4.0269028,50.9224612],[4.0275688,50.9225778],[4.0285461,50.9227662],[4.028511,50.9228261]]]}},{"type":"Feature","id":"way/161419996","properties":{"source":"OpenStreetMap","source_id":"way/161419996","kind":"vegetation","name":null,"waterway":null,"landuse":"forest"},"geometry":{"type":"Polygon","coordinates":[[[4.0246679,50.9226115],[4.0239673,50.9230245],[4.0239261,50.9229622],[4.0240497,50.922679],[4.024161,50.9223413],[4.0242846,50.9220945],[4.0244536,50.9218997],[4.0245237,50.9218451],[4.0245237,50.9221205],[4.0245896,50.9223439],[4.0246679,50.9226115]]]}},{"type":"Feature","id":"way/161419997","properties":{"source":"OpenStreetMap","source_id":"way/161419997","kind":"vegetation","name":null,"waterway":null,"landuse":"forest"},"geometry":{"type":"Polygon","coordinates":[[[4.025846,50.9227523],[4.0250213,50.9239573],[4.0249543,50.9240547],[4.0248931,50.9240327],[4.0249455,50.9239573],[4.0250417,50.9237828],[4.0251146,50.923612],[4.0251262,50.9234614],[4.0251204,50.9232905],[4.0250563,50.9230609],[4.025846,50.9227523]]]}},{"type":"Feature","id":"way/161420005","properties":{"source":"OpenStreetMap","source_id":"way/161420005","kind":"vegetation","name":null,"waterway":null,"landuse":"forest"},"geometry":{"type":"Polygon","coordinates":[[[4.0238848,50.925034],[4.0240228,50.9249416],[4.0243994,50.9246895],[4.0246599,50.9245151],[4.025062,50.9241991],[4.0253412,50.9238868],[4.0254205,50.9239071],[4.0256041,50.9239952],[4.0251495,50.9244177],[4.0248551,50.9246455],[4.0245113,50.9248273],[4.024386,50.9249467],[4.0243131,50.9250184],[4.0240862,50.9251685],[4.0240239,50.9251005],[4.0238848,50.925034]]]}},{"type":"Feature","id":"way/161420032","properties":{"source":"OpenStreetMap","source_id":"way/161420032","kind":"vegetation","name":null,"waterway":null,"landuse":"forest"},"geometry":{"type":"Polygon","coordinates":[[[4.0248698,50.9231232],[4.0249275,50.9232661],[4.0249234,50.9235155],[4.0248781,50.9236974],[4.0247833,50.9238766],[4.0246555,50.9240429],[4.0244907,50.9242091],[4.0242269,50.9244014],[4.0239838,50.9245806],[4.0234728,50.9248845],[4.0234686,50.9247676],[4.0234315,50.9246637],[4.023312,50.9245468],[4.0231925,50.9244611],[4.0230565,50.924391],[4.0228587,50.9243442],[4.0226568,50.9243234],[4.0224219,50.9243416],[4.0241816,50.923435],[4.024433,50.9233103],[4.0248698,50.9231232]]]}},{"type":"Feature","id":"way/161420055","properties":{"source":"OpenStreetMap","source_id":"way/161420055","kind":"vegetation","name":null,"waterway":null,"landuse":"forest"},"geometry":{"type":"Polygon","coordinates":[[[4.0270611,50.921699],[4.0269824,50.9216531],[4.026286,50.9220793],[4.0264754,50.922195],[4.0270611,50.921699]]]}},{"type":"Feature","id":"way/161420060","properties":{"source":"OpenStreetMap","source_id":"way/161420060","kind":"vegetation","name":null,"waterway":null,"landuse":"forest"},"geometry":{"type":"Polygon","coordinates":[[[4.026081,50.9228771],[4.0253412,50.9238868],[4.0254205,50.9239071],[4.0259063,50.9233005],[4.026162,50.9229092],[4.026081,50.9228771]]]}},{"type":"Feature","id":"way/161420083","properties":{"source":"OpenStreetMap","source_id":"way/161420083","kind":"vegetation","name":null,"waterway":null,"landuse":"forest"},"geometry":{"type":"Polygon","coordinates":[[[4.0261899,50.9221663],[4.0263764,50.9222765],[4.0262977,50.92235],[4.0261928,50.9224272],[4.0259684,50.9225319],[4.0250067,50.9229434],[4.0249776,50.9228938],[4.0261899,50.9221663]]]}},{"type":"Feature","id":"way/161420086","properties":{"source":"OpenStreetMap","source_id":"way/161420086","kind":"vegetation","name":null,"waterway":null,"landuse":"forest"},"geometry":{"type":"Polygon","coordinates":[[[4.0258177,50.921923],[4.0248369,50.9225128],[4.0247462,50.9222815],[4.024705,50.9220737],[4.0247215,50.9218971],[4.0247709,50.92171],[4.0248327,50.9215983],[4.0250182,50.9214112],[4.0258177,50.921923]]]}},{"type":"Feature","id":"way/161424769","properties":{"source":"OpenStreetMap","source_id":"way/161424769","kind":"vegetation","name":null,"waterway":null,"landuse":"forest"},"geometry":{"type":"Polygon","coordinates":[[[4.0179706,50.9219892],[4.0171535,50.9217661],[4.0165933,50.9225441],[4.016012,50.9223583],[4.0159404,50.9224432],[4.0162647,50.9225335],[4.0160878,50.922738],[4.016568,50.9228946],[4.0163026,50.9231734],[4.0163726,50.9231918],[4.0164543,50.9232132],[4.0166649,50.9229769],[4.0173135,50.9231814],[4.0173978,50.9230805],[4.0166143,50.9228043],[4.017263,50.9218564],[4.0179243,50.922037],[4.0179706,50.9219892]]]}},{"type":"Feature","id":"way/161424799","properties":{"source":"OpenStreetMap","source_id":"way/161424799","kind":"vegetation","name":null,"waterway":null,"landuse":"forest"},"geometry":{"type":"Polygon","coordinates":[[[4.0188755,50.9253842],[4.0214148,50.9242804],[4.0225729,50.9236997],[4.0226159,50.9237241],[4.0212943,50.9244052],[4.0208422,50.9246386],[4.0197186,50.9251434],[4.0190035,50.9254248],[4.0188755,50.9253842]]]}},{"type":"Feature","id":"way/284497653","properties":{"source":"OpenStreetMap","source_id":"way/284497653","kind":"waterway","name":"Hoezebeek","waterway":"stream","landuse":null},"geometry":{"type":"LineString","coordinates":[[4.0238811,50.926925],[4.0239752,50.9265846],[4.0240171,50.9263734],[4.0240628,50.9263277],[4.0242342,50.9261141],[4.0243446,50.9260349],[4.0245008,50.9257972],[4.0245922,50.9257204],[4.0246299,50.9256255],[4.0247322,50.9256085],[4.0247861,50.9255746],[4.02484,50.9254863],[4.02498,50.9253301],[4.0250392,50.9252656],[4.0252332,50.9251502],[4.0252816,50.9250823],[4.0253517,50.9250653],[4.0253958,50.9250649],[4.0255368,50.9249185],[4.0255368,50.9248801],[4.0257653,50.9247024],[4.0257577,50.9246592],[4.0258138,50.9245867],[4.0259228,50.9243904],[4.0260085,50.9242706]]}},{"type":"Feature","id":"way/567043554","properties":{"source":"OpenStreetMap","source_id":"way/567043554","kind":"waterway","name":"Hoezebeek","waterway":"stream","landuse":null},"geometry":{"type":"LineString","coordinates":[[4.0269047,50.9226453],[4.026879,50.922691],[4.0265799,50.9227755],[4.0265532,50.9229176],[4.02645,50.922996],[4.0263787,50.9231396],[4.0264845,50.923219],[4.0264736,50.9233026],[4.0263827,50.9235658],[4.0264736,50.923818],[4.0262986,50.9239121],[4.0260827,50.9241183],[4.0260085,50.9242706]]}},{"type":"Feature","id":"way/677024064","properties":{"source":"OpenStreetMap","source_id":"way/677024064","kind":"waterway","name":"Zuidbeek","waterway":"stream","landuse":null},"geometry":{"type":"LineString","coordinates":[[4.0162566,50.9264584],[4.0164632,50.9267923],[4.0181208,50.9262124],[4.0181771,50.9262868]]}},{"type":"Feature","id":"way/677024066","properties":{"source":"OpenStreetMap","source_id":"way/677024066","kind":"waterway","name":"Zuidbeek","waterway":"stream","landuse":null},"geometry":{"type":"LineString","coordinates":[[4.0181771,50.9262868],[4.0182307,50.9263831],[4.0182441,50.9265606]]}},{"type":"Feature","id":"way/677024067","properties":{"source":"OpenStreetMap","source_id":"way/677024067","kind":"waterway","name":"Zuidbeek","waterway":"stream","landuse":null},"geometry":{"type":"LineString","coordinates":[[4.018857,50.9266866],[4.0190743,50.9267644],[4.0191735,50.926854],[4.0194391,50.926974],[4.0195222,50.9271118],[4.0196148,50.9271321],[4.0196832,50.9272005],[4.0197515,50.9272792]]}},{"type":"Feature","id":"way/677024068","properties":{"source":"OpenStreetMap","source_id":"way/677024068","kind":"waterway","name":"Zuidbeek","waterway":"stream","landuse":null},"geometry":{"type":"LineString","coordinates":[[4.0182441,50.9265606],[4.0186867,50.9266477],[4.018857,50.9266866]]}},{"type":"Feature","id":"way/677024069","properties":{"source":"OpenStreetMap","source_id":"way/677024069","kind":"waterway","name":"Zuidbeek","waterway":"stream","landuse":null},"geometry":{"type":"LineString","coordinates":[[4.0204261,50.9277069],[4.0208352,50.9279199],[4.0209183,50.9279436],[4.0214145,50.9275936],[4.0215003,50.9275649],[4.021664,50.9275294],[4.021849,50.9275108],[4.0226161,50.9277897],[4.0227637,50.9278692],[4.022828,50.9279841],[4.0228616,50.9280349]]}},{"type":"Feature","id":"way/677024070","properties":{"source":"OpenStreetMap","source_id":"way/677024070","kind":"waterway","name":"Zuidbeek","waterway":"stream","landuse":null},"geometry":{"type":"LineString","coordinates":[[4.0197515,50.9272792],[4.0198401,50.9274296],[4.0204261,50.9277069]]}},{"type":"Feature","id":"way/677024071","properties":{"source":"OpenStreetMap","source_id":"way/677024071","kind":"waterway","name":"Zuidbeek","waterway":"stream","landuse":null},"geometry":{"type":"LineString","coordinates":[[4.0228736,50.9280974],[4.0228689,50.9282229],[4.0228294,50.9283028],[4.0228529,50.9283337],[4.0229205,50.9283711]]}},{"type":"Feature","id":"way/677024072","properties":{"source":"OpenStreetMap","source_id":"way/677024072","kind":"waterway","name":"Zuidbeek","waterway":"stream","landuse":null},"geometry":{"type":"LineString","coordinates":[[4.0228616,50.9280349],[4.0228736,50.9280974]]}}]}