{"type":"FeatureCollection","features":[{"type":"Feature","id":"gebouw/Gebouw.15650230/0","properties":{"source":"Digitaal Vlaanderen Gebouwenregister","source_id":"gebouw/Gebouw.15650230/0","kind":"building","height_m":5.72,"status":null},"geometry":{"type":"Polygon","coordinates":[[[4.02622902,50.9736724],[4.02646677,50.97357511],[4.02651515,50.97362225],[4.0263766,50.97367894],[4.02637946,50.97368172],[4.02628026,50.97372232],[4.02622902,50.9736724]]]}},{"type":"Feature","id":"gebouw/Gebouw.15664746/0","properties":{"source":"Digitaal Vlaanderen Gebouwenregister","source_id":"gebouw/Gebouw.15664746/0","kind":"building","height_m":9.32,"status":null},"geometry":{"type":"Polygon","coordinates":[[[4.02508959,50.97264866],[4.02519242,50.9727213],[4.02513875,50.97275159],[4.02502987,50.97267675],[4.02508959,50.97264866]]]}},{"type":"Feature","id":"gebouw/Gebouw.15724895/0","properties":{"source":"Digitaal Vlaanderen Gebouwenregister","source_id":"gebouw/Gebouw.15724895/0","kind":"building","height_m":7.88,"status":null},"geometry":{"type":"Polygon","coordinates":[[[4.0168523,50.96937781],[4.01691808,50.96942256],[4.01685089,50.9694625],[4.01678486,50.96941732],[4.01657728,50.96927615],[4.01666416,50.96922408],[4.01687236,50.96936605],[4.0168523,50.96937781]]]}},{"type":"Feature","id":"gebouw/Gebouw.15755477/0","properties":{"source":"Digitaal Vlaanderen Gebouwenregister","source_id":"gebouw/Gebouw.15755477/0","kind":"building","height_m":7.16,"status":null},"geometry":{"type":"Polygon","coordinates":[[[4.02446042,50.97555218],[4.02433463,50.97560507],[4.02438898,50.97566659],[4.0245209,50.9756132],[4.02446042,50.97555218]]]}},{"type":"Feature","id":"gebouw/Gebouw.15784654/0","properties":{"source":"Digitaal Vlaanderen Gebouwenregister","source_id":"gebouw/Gebouw.15784654/0","kind":"building","height_m":7.88,"status":null},"geometry":{"type":"Polygon","coordinates":[[[4.02674404,50.97224043],[4.0267585,50.97223323],[4.02677907,50.97224969],[4.02672538,50.97227643],[4.02670539,50.97226044],[4.02671493,50.97225569],[4.02670826,50.97225035],[4.02673795,50.97223556],[4.02674404,50.97224043]]]}},{"type":"Feature","id":"gebouw/Gebouw.15788112/0","properties":{"source":"Digitaal Vlaanderen Gebouwenregister","source_id":"gebouw/Gebouw.15788112/0","kind":"building","height_m":7.88,"status":null},"geometry":{"type":"Polygon","coordinates":[[[4.02628603,50.97292996],[4.02628456,50.97293066],[4.02623663,50.9728952],[4.02628591,50.97287107],[4.02629426,50.97287813],[4.02633466,50.97285988],[4.02636968,50.97288993],[4.02628603,50.97292996]]]}},{"type":"Feature","id":"gebouw/Gebouw.15800727/0","properties":{"source":"Digitaal Vlaanderen Gebouwenregister","source_id":"gebouw/Gebouw.15800727/0","kind":"building","height_m":8.6,"status":null},"geometry":{"type":"Polygon","coordinates":[[[4.01842737,50.96896231],[4.01836613,50.9690231],[4.01824669,50.96897231],[4.01824867,50.96897001],[4.01824414,50.9689638],[4.01825601,50.96895136],[4.01826783,50.96895087],[4.0182781,50.96894149],[4.01825984,50.96893447],[4.01828581,50.96890811],[4.01842737,50.96896231]]]}},{"type":"Feature","id":"gebouw/Gebouw.15803261/0","properties":{"source":"Digitaal Vlaanderen Gebouwenregister","source_id":"gebouw/Gebouw.15803261/0","kind":"building","height_m":8.6,"status":null},"geometry":{"type":"Polygon","coordinates":[[[4.02645654,50.97217307],[4.02644621,50.97216439],[4.02647824,50.97214919],[4.02652847,50.97219139],[4.02653934,50.97218624],[4.02656784,50.97221019],[4.02653165,50.97222736],[4.02653533,50.97223045],[4.02645763,50.97226732],[4.02646479,50.97227334],[4.02638373,50.9723118],[4.02639868,50.97232436],[4.02632475,50.97235944],[4.026268,50.97231177],[4.02623527,50.97228427],[4.02623054,50.9722803],[4.02645654,50.97217307]]]}},{"type":"Feature","id":"gebouw/Gebouw.15806049/0","properties":{"source":"Digitaal Vlaanderen Gebouwenregister","source_id":"gebouw/Gebouw.15806049/0","kind":"building","height_m":5.0,"status":null},"geometry":{"type":"Polygon","coordinates":[[[4.01948349,50.97012993],[4.01942771,50.97015162],[4.01941801,50.97014453],[4.01938761,50.9701611],[4.01937656,50.97016712],[4.01900019,50.96989185],[4.01942676,50.96966369],[4.01949945,50.96971711],[4.01946127,50.96973783],[4.01954277,50.96979772],[4.01947042,50.96983476],[4.01939125,50.96977326],[4.01917262,50.96989138],[4.01947097,50.9701125],[4.01967625,50.97000112],[4.01972625,50.97004138],[4.01951408,50.97015396],[4.01948349,50.97012993]]]}},{"type":"Feature","id":"gebouw/Gebouw.15808196/0","properties":{"source":"Digitaal Vlaanderen Gebouwenregister","source_id":"gebouw/Gebouw.15808196/0","kind":"building","height_m":8.6,"status":null},"geometry":{"type":"Polygon","coordinates":[[[4.0177591,50.96948775],[4.01765176,50.96954931],[4.01757898,50.96949901],[4.01761371,50.96947683],[4.01756072,50.96944021],[4.01763069,50.969399],[4.01768016,50.96943319],[4.0177591,50.96948775]]]}},{"type":"Feature","id":"gebouw/Gebouw.15815983/0","properties":{"source":"Digitaal Vlaanderen Gebouwenregister","source_id":"gebouw/Gebouw.15815983/0","kind":"building","height_m":5.72,"status":null},"geometry":{"type":"Polygon","coordinates":[[[4.01821379,50.96988674],[4.01827662,50.96991918],[4.01824715,50.96994194],[4.01818432,50.9699095],[4.01821379,50.96988674]]]}},{"type":"Feature","id":"gebouw/Gebouw.15818530/0","properties":{"source":"Digitaal Vlaanderen Gebouwenregister","source_id":"gebouw/Gebouw.15818530/0","kind":"building","height_m":5.0,"status":null},"geometry":{"type":"Polygon","coordinates":[[[4.02513348,50.97368327],[4.02507534,50.97363156],[4.02501897,50.97365773],[4.02507642,50.97370883],[4.02513348,50.97368327]]]}},{"type":"Feature","id":"gebouw/Gebouw.15823552/0","properties":{"source":"Digitaal Vlaanderen Gebouwenregister","source_id":"gebouw/Gebouw.15823552/0","kind":"building","height_m":7.16,"status":null},"geometry":{"type":"Polygon","coordinates":[[[4.02609821,50.97310735],[4.02606599,50.973123],[4.02602404,50.97308326],[4.02605706,50.97306937],[4.02609821,50.97310735]]]}},{"type":"Feature","id":"gebouw/Gebouw.15834735/0","properties":{"source":"Digitaal Vlaanderen Gebouwenregister","source_id":"gebouw/Gebouw.15834735/0","kind":"building","height_m":5.0,"status":null},"geometry":{"type":"Polygon","coordinates":[[[4.02662181,50.9722081],[4.02662634,50.97221293],[4.02655441,50.97224769],[4.02653921,50.97223178],[4.02661968,50.97220094],[4.02660982,50.97218547],[4.02665778,50.97217096],[4.02667398,50.9721923],[4.02662181,50.9722081]]]}},{"type":"Feature","id":"gebouw/Gebouw.15836499/0","properties":{"source":"Digitaal Vlaanderen Gebouwenregister","source_id":"gebouw/Gebouw.15836499/0","kind":"building","height_m":5.0,"status":null},"geometry":{"type":"Polygon","coordinates":[[[4.01678407,50.96953544],[4.01666389,50.96945636],[4.01663122,50.969476],[4.01649627,50.96938244],[4.01644279,50.96941318],[4.01647712,50.9694369],[4.01652688,50.96947128],[4.01668776,50.96958242],[4.01669554,50.96958779],[4.01678407,50.96953544]]]}},{"type":"Feature","id":"gebouw/Gebouw.15853756/0","properties":{"source":"Digitaal Vlaanderen Gebouwenregister","source_id":"gebouw/Gebouw.15853756/0","kind":"building","height_m":6.44,"status":null},"geometry":{"type":"Polygon","coordinates":[[[4.01815514,50.96985566],[4.01819813,50.96987781],[4.01817459,50.96989603],[4.01813159,50.96987389],[4.01815514,50.96985566]]]}},{"type":"Feature","id":"gebouw/Gebouw.15854557/0","properties":{"source":"Digitaal Vlaanderen Gebouwenregister","source_id":"gebouw/Gebouw.15854557/0","kind":"building","height_m":8.6,"status":null},"geometry":{"type":"Polygon","coordinates":[[[4.02657136,50.97231692],[4.026536,50.97228703],[4.0266157,50.97224944],[4.02665106,50.97227934],[4.02657136,50.97231692]]]}},{"type":"Feature","id":"gebouw/Gebouw.15870890/0","properties":{"source":"Digitaal Vlaanderen Gebouwenregister","source_id":"gebouw/Gebouw.15870890/0","kind":"building","height_m":5.0,"status":null},"geometry":{"type":"Polygon","coordinates":[[[4.02668347,50.97413043],[4.0267071,50.97415159],[4.02664746,50.97417814],[4.02662427,50.97415737],[4.02660446,50.97413963],[4.02666411,50.97411309],[4.02668347,50.97413043]]]}},{"type":"Feature","id":"gebouw/Gebouw.15879518/0","properties":{"source":"Digitaal Vlaanderen Gebouwenregister","source_id":"gebouw/Gebouw.15879518/0","kind":"building","height_m":7.88,"status":null},"geometry":{"type":"Polygon","coordinates":[[[4.01752744,50.96963809],[4.01744184,50.96968589],[4.01742293,50.96969731],[4.01732879,50.9696301],[4.01735602,50.96961489],[4.0173786,50.96963101],[4.01745655,50.96958748],[4.01751264,50.96962752],[4.01752744,50.96963809]]]}},{"type":"Feature","id":"gebouw/Gebouw.15879826/0","properties":{"source":"Digitaal Vlaanderen Gebouwenregister","source_id":"gebouw/Gebouw.15879826/0","kind":"building","height_m":7.88,"status":null},"geometry":{"type":"Polygon","coordinates":[[[4.02551443,50.9733138],[4.0255466,50.97329876],[4.02559847,50.9733431],[4.0255663,50.97335813],[4.02551443,50.9733138]]]}},{"type":"Feature","id":"gebouw/Gebouw.15892345/0","properties":{"source":"Digitaal Vlaanderen Gebouwenregister","source_id":"gebouw/Gebouw.15892345/0","kind":"building","height_m":5.0,"status":null},"geometry":{"type":"Polygon","coordinates":[[[4.02627714,50.97302752],[4.02627145,50.97302323],[4.02626972,50.97302193],[4.02620551,50.97297357],[4.02628456,50.97293066],[4.02628603,50.97292996],[4.02631933,50.97295304],[4.02653461,50.97282925],[4.02653607,50.97282841],[4.02659233,50.9728674],[4.02659062,50.97286839],[4.02640792,50.97297393],[4.02639388,50.97296377],[4.02627714,50.97302752]]]}},{"type":"Feature","id":"gebouw/Gebouw.15894272/0","properties":{"source":"Digitaal Vlaanderen Gebouwenregister","source_id":"gebouw/Gebouw.15894272/0","kind":"building","height_m":6.44,"status":null},"geometry":{"type":"Polygon","coordinates":[[[4.02640648,50.97309768],[4.02629565,50.97315188],[4.02622578,50.97318605],[4.02618956,50.97315695],[4.02636927,50.97306781],[4.02640648,50.97309768]]]}},{"type":"Feature","id":"gebouw/Gebouw.15906090/0","properties":{"source":"Digitaal Vlaanderen Gebouwenregister","source_id":"gebouw/Gebouw.15906090/0","kind":"building","height_m":7.88,"status":null},"geometry":{"type":"Polygon","coordinates":[[[4.02680118,50.97306805],[4.02686927,50.97312806],[4.02665422,50.97322317],[4.0266161,50.97318904],[4.02656726,50.9732119],[4.02654017,50.97318803],[4.02680118,50.97306805]]]}},{"type":"Feature","id":"gebouw/Gebouw.15912151/0","properties":{"source":"Digitaal Vlaanderen Gebouwenregister","source_id":"gebouw/Gebouw.15912151/0","kind":"building","height_m":7.16,"status":null},"geometry":{"type":"Polygon","coordinates":[[[4.01810156,50.96905696],[4.01803994,50.96905624],[4.01802155,50.96904277],[4.01805208,50.96904226],[4.01805356,50.96901181],[4.01805384,50.96900598],[4.01814626,50.96900867],[4.01814719,50.96901432],[4.01814178,50.96904319],[4.01810142,50.96904245],[4.01810156,50.96905696]]]}},{"type":"Feature","id":"gebouw/Gebouw.15919779/0","properties":{"source":"Digitaal Vlaanderen Gebouwenregister","source_id":"gebouw/Gebouw.15919779/0","kind":"building","height_m":5.72,"status":null},"geometry":{"type":"Polygon","coordinates":[[[4.02654017,50.97318803],[4.02649351,50.97320948],[4.02647002,50.97318877],[4.02658859,50.97313514],[4.02656682,50.97311642],[4.02675798,50.97302748],[4.02680333,50.97306706],[4.02680118,50.97306805],[4.02654017,50.97318803]]]}},{"type":"Feature","id":"gebouw/Gebouw.15931861/0","properties":{"source":"Digitaal Vlaanderen Gebouwenregister","source_id":"gebouw/Gebouw.15931861/0","kind":"building","height_m":5.72,"status":null},"geometry":{"type":"Polygon","coordinates":[[[4.02608116,50.97255117],[4.02610777,50.9725686],[4.02605246,50.97260227],[4.02602584,50.97258484],[4.02608116,50.97255117]]]}},{"type":"Feature","id":"gebouw/Gebouw.15942310/0","properties":{"source":"Digitaal Vlaanderen Gebouwenregister","source_id":"gebouw/Gebouw.15942310/0","kind":"building","height_m":9.32,"status":null},"geometry":{"type":"Polygon","coordinates":[[[4.01806872,50.96981199],[4.01813422,50.96984691],[4.01810376,50.9698688],[4.01803972,50.96983382],[4.01799894,50.96981154],[4.01799605,50.96981358],[4.01772639,50.96966267],[4.01778862,50.96962035],[4.01782363,50.96959655],[4.01800337,50.9696951],[4.01797202,50.96971951],[4.01794578,50.96973994],[4.0179734,50.96975408],[4.01803578,50.96978602],[4.01802937,50.96979101],[4.01806872,50.96981199]]]}},{"type":"Feature","id":"gebouw/Gebouw.15949925/0","properties":{"source":"Digitaal Vlaanderen Gebouwenregister","source_id":"gebouw/Gebouw.15949925/0","kind":"building","height_m":8.6,"status":null},"geometry":{"type":"Polygon","coordinates":[[[4.01647712,50.9694369],[4.01643747,50.96945966],[4.01640553,50.96943809],[4.01641511,50.96943334],[4.0163661,50.96939945],[4.01639262,50.96938366],[4.01644279,50.96941318],[4.01647712,50.9694369]]]}},{"type":"Feature","id":"gebouw/Gebouw.15950279/0","properties":{"source":"Digitaal Vlaanderen Gebouwenregister","source_id":"gebouw/Gebouw.15950279/0","kind":"building","height_m":6.44,"status":null},"geometry":{"type":"Polygon","coordinates":[[[4.01763878,50.97086157],[4.01747551,50.97076788],[4.01745491,50.97078218],[4.01745097,50.97077992],[4.01714505,50.97060436],[4.01708956,50.97064291],[4.01694129,50.97055782],[4.01681884,50.97048755],[4.01702211,50.97034633],[4.01707771,50.97030771],[4.01754876,50.97057802],[4.01757147,50.97056225],[4.01767707,50.97062285],[4.01765444,50.97063857],[4.01765436,50.97063862],[4.01761694,50.97066462],[4.01778415,50.97076058],[4.01763878,50.97086157]]]}},{"type":"Feature","id":"gebouw/Gebouw.15973862/0","properties":{"source":"Digitaal Vlaanderen Gebouwenregister","source_id":"gebouw/Gebouw.15973862/0","kind":"building","height_m":6.44,"status":null},"geometry":{"type":"Polygon","coordinates":[[[4.02667275,50.97326804],[4.02672601,50.97331597],[4.02664984,50.97334971],[4.0266438,50.97334427],[4.02658274,50.97337099],[4.02653531,50.97332958],[4.02659574,50.97330253],[4.02667275,50.97326804]]]}},{"type":"Feature","id":"gebouw/Gebouw.15984498/0","properties":{"source":"Digitaal Vlaanderen Gebouwenregister","source_id":"gebouw/Gebouw.15984498/0","kind":"building","height_m":8.6,"status":null},"geometry":{"type":"Polygon","coordinates":[[[4.01668776,50.96958242],[4.01661118,50.9696279],[4.0165868,50.96961167],[4.0165847,50.96961292],[4.01647428,50.96953901],[4.01646353,50.96953907],[4.01645575,50.96953629],[4.01644789,50.96953182],[4.01644177,50.96952449],[4.01644098,50.96951781],[4.01644277,50.96951037],[4.01645121,50.96950198],[4.01646357,50.96949763],[4.01646919,50.96950179],[4.01652688,50.96947128],[4.01668776,50.96958242]]]}},{"type":"Feature","id":"gebouw/Gebouw.15987068/0","properties":{"source":"Digitaal Vlaanderen Gebouwenregister","source_id":"gebouw/Gebouw.15987068/0","kind":"building","height_m":9.32,"status":null},"geometry":{"type":"Polygon","coordinates":[[[4.01652652,50.96912498],[4.01657886,50.96911421],[4.0166046,50.96916408],[4.01655233,50.96917484],[4.01652652,50.96912498]]]}},{"type":"Feature","id":"gebouw/Gebouw.15995319/0","properties":{"source":"Digitaal Vlaanderen Gebouwenregister","source_id":"gebouw/Gebouw.15995319/0","kind":"building","height_m":7.88,"status":null},"geometry":{"type":"Polygon","coordinates":[[[4.02508147,50.97389638],[4.0250999,50.97391254],[4.02503605,50.97394156],[4.02501747,50.97392527],[4.02505714,50.97390723],[4.02504898,50.97390007],[4.0250776,50.97388706],[4.02508592,50.97389435],[4.02508147,50.97389638]]]}},{"type":"Feature","id":"gebouw/Gebouw.15995477/0","properties":{"source":"Digitaal Vlaanderen Gebouwenregister","source_id":"gebouw/Gebouw.15995477/0","kind":"building","height_m":5.72,"status":null},"geometry":{"type":"Polygon","coordinates":[[[4.01789955,50.96955038],[4.01806203,50.96964225],[4.0180669,50.96963882],[4.01809351,50.96965387],[4.01802119,50.96970488],[4.01800337,50.9696951],[4.01782363,50.96959655],[4.01789376,50.9695471],[4.01789955,50.96955038]]]}},{"type":"Feature","id":"gebouw/Gebouw.15998108/0","properties":{"source":"Digitaal Vlaanderen Gebouwenregister","source_id":"gebouw/Gebouw.15998108/0","kind":"building","height_m":5.0,"status":null},"geometry":{"type":"Polygon","coordinates":[[[4.01699003,50.96971182],[4.01713175,50.96980877],[4.01707561,50.96984149],[4.01706352,50.96983331],[4.01700648,50.96986641],[4.01700945,50.96986847],[4.01700738,50.96986961],[4.01700133,50.96986524],[4.01692699,50.96981156],[4.0169067,50.96979691],[4.01693898,50.96977809],[4.01691015,50.96975837],[4.01699003,50.96971182]]]}},{"type":"Feature","id":"gebouw/Gebouw.15998579/0","properties":{"source":"Digitaal Vlaanderen Gebouwenregister","source_id":"gebouw/Gebouw.15998579/0","kind":"building","height_m":6.44,"status":null},"geometry":{"type":"Polygon","coordinates":[[[4.02654363,50.97230306],[4.02647467,50.972337],[4.02649283,50.97235219],[4.0265043,50.97236179],[4.02657409,50.97232854],[4.02656345,50.97231964],[4.02654363,50.97230306]]]}},{"type":"Feature","id":"gebouw/Gebouw.16058935/0","properties":{"source":"Digitaal Vlaanderen Gebouwenregister","source_id":"gebouw/Gebouw.16058935/0","kind":"building","height_m":7.88,"status":null},"geometry":{"type":"Polygon","coordinates":[[[4.02659319,50.972868],[4.02656315,50.97288498],[4.02664116,50.97293972],[4.02648533,50.97302825],[4.02640792,50.97297393],[4.02659062,50.97286839],[4.02659233,50.9728674],[4.02659247,50.9728675],[4.02659319,50.972868]]]}},{"type":"Feature","id":"gebouw/Gebouw.16067213/0","properties":{"source":"Digitaal Vlaanderen Gebouwenregister","source_id":"gebouw/Gebouw.16067213/0","kind":"building","height_m":5.72,"status":null},"geometry":{"type":"Polygon","coordinates":[[[4.02598065,50.97404487],[4.02599998,50.97406314],[4.02594408,50.97408672],[4.02592475,50.97406846],[4.02598065,50.97404487]]]}},{"type":"Feature","id":"gebouw/Gebouw.16075131/0","properties":{"source":"Digitaal Vlaanderen Gebouwenregister","source_id":"gebouw/Gebouw.16075131/0","kind":"building","height_m":6.44,"status":null},"geometry":{"type":"Polygon","coordinates":[[[4.01926214,50.96901211],[4.01929928,50.96903311],[4.01925731,50.96906331],[4.01921985,50.96904254],[4.01926214,50.96901211]]]}},{"type":"Feature","id":"gebouw/Gebouw.16078452/0","properties":{"source":"Digitaal Vlaanderen Gebouwenregister","source_id":"gebouw/Gebouw.16078452/0","kind":"building","height_m":8.6,"status":null},"geometry":{"type":"Polygon","coordinates":[[[4.02671858,50.97258429],[4.02653236,50.97269443],[4.02648104,50.97266069],[4.02657472,50.97260388],[4.02658815,50.9726127],[4.0267536,50.97251238],[4.0267937,50.97253874],[4.02671858,50.97258429]]]}},{"type":"Feature","id":"gebouw/Gebouw.16089070/0","properties":{"source":"Digitaal Vlaanderen Gebouwenregister","source_id":"gebouw/Gebouw.16089070/0","kind":"building","height_m":7.88,"status":null},"geometry":{"type":"Polygon","coordinates":[[[4.01789489,50.96938077],[4.01791312,50.96939252],[4.0177591,50.96948775],[4.01768016,50.96943319],[4.01777588,50.96937697],[4.0177676,50.96937135],[4.01779992,50.96935236],[4.01780736,50.96935741],[4.01783811,50.96933934],[4.01788083,50.9693717],[4.01789489,50.96938077]]]}},{"type":"Feature","id":"gebouw/Gebouw.16105771/0","properties":{"source":"Digitaal Vlaanderen Gebouwenregister","source_id":"gebouw/Gebouw.16105771/0","kind":"building","height_m":7.16,"status":null},"geometry":{"type":"Polygon","coordinates":[[[4.0171985,50.9697545],[4.01711939,50.96969682],[4.01724833,50.96962616],[4.01731814,50.96967703],[4.0172289,50.96972529],[4.01723874,50.96973246],[4.0171985,50.9697545]]]}},{"type":"Feature","id":"gebouw/Gebouw.16116622/0","properties":{"source":"Digitaal Vlaanderen Gebouwenregister","source_id":"gebouw/Gebouw.16116622/0","kind":"building","height_m":7.88,"status":null},"geometry":{"type":"Polygon","coordinates":[[[4.02659201,50.9724279],[4.02638641,50.97252264],[4.02632637,50.97247134],[4.02643499,50.97242067],[4.02643851,50.97242367],[4.02649399,50.97239778],[4.02653976,50.97237643],[4.02654256,50.97237882],[4.02660138,50.97235138],[4.02663327,50.9723365],[4.02665579,50.97235574],[4.02666727,50.97235039],[4.0266956,50.97237459],[4.02668299,50.97238046],[4.02668717,50.97238404],[4.02665703,50.97239793],[4.02659201,50.9724279]]]}},{"type":"Feature","id":"gebouw/Gebouw.16116644/0","properties":{"source":"Digitaal Vlaanderen Gebouwenregister","source_id":"gebouw/Gebouw.16116644/0","kind":"building","height_m":8.6,"status":null},"geometry":{"type":"Polygon","coordinates":[[[4.0167669,50.96917971],[4.01686633,50.96912546],[4.01691798,50.9691632],[4.01703535,50.96910229],[4.01711767,50.96916378],[4.01699638,50.96922852],[4.01701008,50.96923853],[4.01691695,50.96928935],[4.0167669,50.96917971]]]}},{"type":"Feature","id":"gebouw/Gebouw.16116943/0","properties":{"source":"Digitaal Vlaanderen Gebouwenregister","source_id":"gebouw/Gebouw.16116943/0","kind":"building","height_m":7.16,"status":null},"geometry":{"type":"Polygon","coordinates":[[[4.01630021,50.96971298],[4.01617933,50.96977712],[4.01617714,50.96978723],[4.01615872,50.96979628],[4.01614387,50.96979594],[4.01613627,50.96979998],[4.01610471,50.96977446],[4.01609006,50.96978186],[4.0160422,50.96974369],[4.01618148,50.96967378],[4.01618339,50.9696753],[4.01622523,50.96965429],[4.01630021,50.96971298]]]}},{"type":"Feature","id":"gebouw/Gebouw.16119767/0","properties":{"source":"Digitaal Vlaanderen Gebouwenregister","source_id":"gebouw/Gebouw.16119767/0","kind":"building","height_m":9.32,"status":null},"geometry":{"type":"Polygon","coordinates":[[[4.01814606,50.96920937],[4.01808244,50.96925551],[4.01807967,50.96925381],[4.01785194,50.96910794],[4.01795722,50.96905069],[4.01800008,50.96902706],[4.01802155,50.96904277],[4.01803994,50.96905624],[4.01805135,50.96906459],[4.0179787,50.96911504],[4.01801152,50.96913227],[4.01802711,50.96912078],[4.01804956,50.96911975],[4.01807536,50.9691345],[4.01807665,50.9691463],[4.01807199,50.9691503],[4.01810916,50.96916962],[4.01809438,50.96918096],[4.01814606,50.96920937]]]}},{"type":"Feature","id":"gebouw/Gebouw.16122310/0","properties":{"source":"Digitaal Vlaanderen Gebouwenregister","source_id":"gebouw/Gebouw.16122310/0","kind":"building","height_m":5.72,"status":null},"geometry":{"type":"Polygon","coordinates":[[[4.01615258,50.97037047],[4.01615353,50.97036995],[4.01610418,50.97033914],[4.01601949,50.9703961],[4.01605532,50.9704227],[4.01615258,50.97037047]]]}},{"type":"Feature","id":"gebouw/Gebouw.16133671/0","properties":{"source":"Digitaal Vlaanderen Gebouwenregister","source_id":"gebouw/Gebouw.16133671/0","kind":"building","height_m":5.72,"status":null},"geometry":{"type":"Polygon","coordinates":[[[4.01893387,50.96899948],[4.01902934,50.96903916],[4.01895469,50.96911077],[4.01894359,50.96910616],[4.01893143,50.96911782],[4.01886358,50.96908962],[4.0188879,50.96906629],[4.01872863,50.96900011],[4.01873986,50.96898934],[4.01873776,50.96898849],[4.01874508,50.96898117],[4.01874737,50.96898212],[4.01879112,50.96894015],[4.01884706,50.9689634],[4.0188712,50.96894063],[4.01895847,50.96897694],[4.01893387,50.96899948]]]}},{"type":"Feature","id":"gebouw/Gebouw.16154817/0","properties":{"source":"Digitaal Vlaanderen Gebouwenregister","source_id":"gebouw/Gebouw.16154817/0","kind":"building","height_m":5.0,"status":null},"geometry":{"type":"Polygon","coordinates":[[[4.01681756,50.96968842],[4.01679709,50.96971548],[4.01675509,50.96970281],[4.01677556,50.96967575],[4.01681756,50.96968842]]]}},{"type":"Feature","id":"gebouw/Gebouw.16158016/0","properties":{"source":"Digitaal Vlaanderen Gebouwenregister","source_id":"gebouw/Gebouw.16158016/0","kind":"building","height_m":5.0,"status":null},"geometry":{"type":"Polygon","coordinates":[[[4.01754124,50.9691654],[4.01747267,50.96920092],[4.01740547,50.96914142],[4.01739166,50.96914763],[4.01726243,50.96903808],[4.01726871,50.96903513],[4.01725141,50.9690223],[4.01724636,50.96902501],[4.01722047,50.9690058],[4.01715934,50.96903865],[4.01723757,50.9690967],[4.01719468,50.96911992],[4.01694488,50.9689343],[4.01695205,50.96893089],[4.01698803,50.96891381],[4.01708063,50.96898191],[4.01716019,50.96893692],[4.01716769,50.96894321],[4.01724244,50.96890768],[4.01728961,50.96894723],[4.01729449,50.96894491],[4.01740973,50.96904156],[4.01743666,50.96902876],[4.01751801,50.96909698],[4.01748032,50.96911523],[4.01754124,50.9691654]]]}},{"type":"Feature","id":"gebouw/Gebouw.16158352/0","properties":{"source":"Digitaal Vlaanderen Gebouwenregister","source_id":"gebouw/Gebouw.16158352/0","kind":"building","height_m":5.0,"status":null},"geometry":{"type":"Polygon","coordinates":[[[4.02528561,50.97285697],[4.02531224,50.97287952],[4.02525894,50.9729046],[4.02523232,50.97288205],[4.02528561,50.97285697]]]}},{"type":"Feature","id":"gebouw/Gebouw.16163303/0","properties":{"source":"Digitaal Vlaanderen Gebouwenregister","source_id":"gebouw/Gebouw.16163303/0","kind":"building","height_m":6.44,"status":null},"geometry":{"type":"Polygon","coordinates":[[[4.02600193,50.97277706],[4.02612102,50.97270631],[4.02614774,50.97272424],[4.02620656,50.97268929],[4.02626479,50.97272837],[4.02608688,50.97283406],[4.02607991,50.97282939],[4.02604427,50.97285056],[4.02597682,50.9728053],[4.02601245,50.97278413],[4.02600193,50.97277706]]]}},{"type":"Feature","id":"gebouw/Gebouw.16163387/0","properties":{"source":"Digitaal Vlaanderen Gebouwenregister","source_id":"gebouw/Gebouw.16163387/0","kind":"building","height_m":6.44,"status":null},"geometry":{"type":"Polygon","coordinates":[[[4.0199234,50.96900889],[4.01992043,50.96898954],[4.01994006,50.96897497],[4.019971,50.96897272],[4.01999408,50.96898512],[4.01999676,50.96900446],[4.01997858,50.96902016],[4.01994677,50.96902203],[4.0199234,50.96900889]]]}},{"type":"Feature","id":"gebouw/Gebouw.16170598/0","properties":{"source":"Digitaal Vlaanderen Gebouwenregister","source_id":"gebouw/Gebouw.16170598/0","kind":"building","height_m":7.16,"status":null},"geometry":{"type":"Polygon","coordinates":[[[4.01843762,50.96981686],[4.01848672,50.96984318],[4.01846329,50.96985956],[4.01841456,50.96983332],[4.01843762,50.96981686]]]}},{"type":"Feature","id":"gebouw/Gebouw.16173486/0","properties":{"source":"Digitaal Vlaanderen Gebouwenregister","source_id":"gebouw/Gebouw.16173486/0","kind":"building","height_m":5.0,"status":null},"geometry":{"type":"Polygon","coordinates":[[[4.01869541,50.96905871],[4.01869167,50.96906229],[4.01881622,50.96913183],[4.01878848,50.96914907],[4.01882076,50.96916718],[4.01878446,50.96919529],[4.01884115,50.96922815],[4.01875461,50.969292],[4.01870711,50.96927013],[4.01870114,50.96927512],[4.01876933,50.96931097],[4.01871966,50.96935252],[4.01869214,50.9693387],[4.01865549,50.96936885],[4.01855135,50.96931805],[4.01854743,50.96932128],[4.01849536,50.96929632],[4.01859001,50.96921614],[4.01867623,50.96925654],[4.01876553,50.96919117],[4.01862392,50.96911405],[4.01862765,50.96911064],[4.01861581,50.96910547],[4.01846549,50.96924272],[4.01845802,50.96923942],[4.01842774,50.96926672],[4.01834256,50.96922905],[4.01846943,50.96911467],[4.01845456,50.96910808],[4.01856467,50.96900612],[4.01856739,50.96900359],[4.01869541,50.96905871]]]}},{"type":"Feature","id":"gebouw/Gebouw.16176535/0","properties":{"source":"Digitaal Vlaanderen Gebouwenregister","source_id":"gebouw/Gebouw.16176535/0","kind":"building","height_m":7.88,"status":null},"geometry":{"type":"Polygon","coordinates":[[[4.01820893,50.96940592],[4.01827879,50.96935566],[4.01829904,50.96936688],[4.01833279,50.96934269],[4.01848355,50.96942656],[4.01838026,50.96950087],[4.01820893,50.96940592]]]}},{"type":"Feature","id":"gebouw/Gebouw.16214590/0","properties":{"source":"Digitaal Vlaanderen Gebouwenregister","source_id":"gebouw/Gebouw.16214590/0","kind":"building","height_m":5.0,"status":null},"geometry":{"type":"Polygon","coordinates":[[[4.02659201,50.9724279],[4.02659862,50.97243355],[4.02660505,50.97243056],[4.02665677,50.97247483],[4.02644548,50.97257322],[4.02638641,50.97252264],[4.02659201,50.9724279]]]}},{"type":"Feature","id":"gebouw/Gebouw.16239563/0","properties":{"source":"Digitaal Vlaanderen Gebouwenregister","source_id":"gebouw/Gebouw.16239563/0","kind":"building","height_m":7.88,"status":null},"geometry":{"type":"Polygon","coordinates":[[[4.01672991,50.96975109],[4.01673483,50.96975498],[4.0166718,50.96978675],[4.0166155,50.96974223],[4.01667852,50.96971045],[4.01671466,50.96973903],[4.01672991,50.96975109]]]}},{"type":"Feature","id":"gebouw/Gebouw.16250887/0","properties":{"source":"Digitaal Vlaanderen Gebouwenregister","source_id":"gebouw/Gebouw.16250887/0","kind":"building","height_m":6.44,"status":null},"geometry":{"type":"Polygon","coordinates":[[[4.01711349,50.96951628],[4.01714434,50.96953984],[4.01710013,50.96956291],[4.01706928,50.96953936],[4.01711349,50.96951628]]]}},{"type":"Feature","id":"gebouw/Gebouw.16258168/0","properties":{"source":"Digitaal Vlaanderen Gebouwenregister","source_id":"gebouw/Gebouw.16258168/0","kind":"building","height_m":7.16,"status":null},"geometry":{"type":"Polygon","coordinates":[[[4.01681921,50.96985556],[4.0169345,50.96993524],[4.01688304,50.96996492],[4.01687064,50.96995629],[4.0168365,50.96997597],[4.016825,50.96996798],[4.01677387,50.96999741],[4.01668257,50.96993401],[4.01681921,50.96985556]]]}},{"type":"Feature","id":"gebouw/Gebouw.16290454/0","properties":{"source":"Digitaal Vlaanderen Gebouwenregister","source_id":"gebouw/Gebouw.16290454/0","kind":"building","height_m":8.6,"status":null},"geometry":{"type":"Polygon","coordinates":[[[4.01908309,50.97416654],[4.01912218,50.97413195],[4.01923504,50.97418274],[4.01919595,50.97421733],[4.01908309,50.97416654]]]}},{"type":"Feature","id":"gebouw/Gebouw.16328397/0","properties":{"source":"Digitaal Vlaanderen Gebouwenregister","source_id":"gebouw/Gebouw.16328397/0","kind":"building","height_m":5.72,"status":null},"geometry":{"type":"Polygon","coordinates":[[[4.02673315,50.97336183],[4.02673709,50.97336531],[4.02669777,50.97338308],[4.02669283,50.97337872],[4.02667132,50.97335975],[4.02671065,50.97334198],[4.02673315,50.97336183]]]}},{"type":"Feature","id":"gebouw/Gebouw.16331172/0","properties":{"source":"Digitaal Vlaanderen Gebouwenregister","source_id":"gebouw/Gebouw.16331172/0","kind":"building","height_m":7.88,"status":null},"geometry":{"type":"Polygon","coordinates":[[[4.02640648,50.97309768],[4.02629565,50.97315188],[4.02622578,50.97318605],[4.02622077,50.9731885],[4.02625705,50.97321749],[4.02644167,50.97312591],[4.02640648,50.97309768]]]}},{"type":"Feature","id":"gebouw/Gebouw.16336008/0","properties":{"source":"Digitaal Vlaanderen Gebouwenregister","source_id":"gebouw/Gebouw.16336008/0","kind":"building","height_m":7.16,"status":null},"geometry":{"type":"Polygon","coordinates":[[[4.02656682,50.97311642],[4.02652728,50.97313482],[4.02648709,50.97310026],[4.02652898,50.97308084],[4.02651862,50.97307194],[4.02666377,50.97300466],[4.02667151,50.97301132],[4.026715,50.97299114],[4.02675798,50.97302748],[4.02656682,50.97311642]]]}},{"type":"Feature","id":"gebouw/Gebouw.16349443/0","properties":{"source":"Digitaal Vlaanderen Gebouwenregister","source_id":"gebouw/Gebouw.16349443/0","kind":"building","height_m":8.6,"status":null},"geometry":{"type":"Polygon","coordinates":[[[4.02671858,50.97258429],[4.0267473,50.9726032],[4.02672407,50.97261746],[4.02671926,50.97270274],[4.02662478,50.97270077],[4.02658136,50.97272678],[4.02653236,50.97269443],[4.02671858,50.97258429]]]}},{"type":"Feature","id":"gebouw/Gebouw.16352244/0","properties":{"source":"Digitaal Vlaanderen Gebouwenregister","source_id":"gebouw/Gebouw.16352244/0","kind":"building","height_m":9.32,"status":null},"geometry":{"type":"Polygon","coordinates":[[[4.01814626,50.96900867],[4.01815142,50.96896112],[4.01823088,50.96896489],[4.01824669,50.96897231],[4.01836613,50.9690231],[4.01830983,50.96907785],[4.01822918,50.96904478],[4.01825863,50.96901929],[4.01814719,50.96901432],[4.01814626,50.96900867]]]}},{"type":"Feature","id":"gebouw/Gebouw.16362387/0","properties":{"source":"Digitaal Vlaanderen Gebouwenregister","source_id":"gebouw/Gebouw.16362387/0","kind":"building","height_m":9.32,"status":null},"geometry":{"type":"Polygon","coordinates":[[[4.02603059,50.97261875],[4.02611267,50.97257029],[4.02616689,50.9726069],[4.02599633,50.9727076],[4.0259394,50.97266917],[4.02602663,50.97261607],[4.02603059,50.97261875]]]}},{"type":"Feature","id":"gebouw/Gebouw.16362690/0","properties":{"source":"Digitaal Vlaanderen Gebouwenregister","source_id":"gebouw/Gebouw.16362690/0","kind":"building","height_m":5.72,"status":null},"geometry":{"type":"Polygon","coordinates":[[[4.01638953,50.96923106],[4.0164854,50.96929664],[4.0165219,50.96927537],[4.01642603,50.96920979],[4.01638953,50.96923106]]]}},{"type":"Feature","id":"gebouw/Gebouw.16400882/0","properties":{"source":"Digitaal Vlaanderen Gebouwenregister","source_id":"gebouw/Gebouw.16400882/0","kind":"building","height_m":5.72,"status":null},"geometry":{"type":"Polygon","coordinates":[[[4.02611558,50.97393765],[4.02614187,50.97396179],[4.02606721,50.97399419],[4.02604092,50.97397005],[4.02611558,50.97393765]]]}},{"type":"Feature","id":"gebouw/Gebouw.16403204/0","properties":{"source":"Digitaal Vlaanderen Gebouwenregister","source_id":"gebouw/Gebouw.16403204/0","kind":"building","height_m":9.32,"status":null},"geometry":{"type":"Polygon","coordinates":[[[4.01909144,50.96920747],[4.01906806,50.96922387],[4.01902093,50.96919726],[4.01904431,50.96918086],[4.01909144,50.96920747]]]}},{"type":"Feature","id":"gebouw/Gebouw.16433478/0","properties":{"source":"Digitaal Vlaanderen Gebouwenregister","source_id":"gebouw/Gebouw.16433478/0","kind":"building","height_m":8.6,"status":null},"geometry":{"type":"Polygon","coordinates":[[[4.02673258,50.97561226],[4.02671244,50.97562574],[4.02666048,50.97559765],[4.02666412,50.97559522],[4.0266831,50.9755826],[4.02673258,50.97561226]]]}},{"type":"Feature","id":"gebouw/Gebouw.16446214/0","properties":{"source":"Digitaal Vlaanderen Gebouwenregister","source_id":"gebouw/Gebouw.16446214/0","kind":"building","height_m":5.72,"status":null},"geometry":{"type":"Polygon","coordinates":[[[4.01791043,50.96935693],[4.01788083,50.9693717],[4.01783811,50.96933934],[4.0178262,50.96933091],[4.01787214,50.96927926],[4.01786407,50.96927418],[4.01791059,50.96924925],[4.01781996,50.96917622],[4.01753033,50.96932964],[4.01748851,50.96930073],[4.0176923,50.96919263],[4.01785194,50.96910794],[4.01807967,50.96925381],[4.01805312,50.96926903],[4.0180598,50.96927366],[4.01805754,50.96927496],[4.01805841,50.96927558],[4.01795176,50.96933631],[4.01791043,50.96935693]]]}},{"type":"Feature","id":"gebouw/Gebouw.16454194/0","properties":{"source":"Digitaal Vlaanderen Gebouwenregister","source_id":"gebouw/Gebouw.16454194/0","kind":"building","height_m":5.72,"status":null},"geometry":{"type":"Polygon","coordinates":[[[4.0251947,50.97279867],[4.02514752,50.97282087],[4.02510649,50.97278632],[4.02510863,50.97278502],[4.02499742,50.97269688],[4.02502987,50.97267675],[4.02513875,50.97275159],[4.0251947,50.97279867]]]}},{"type":"Feature","id":"gebouw/Gebouw.16502348/0","properties":{"source":"Digitaal Vlaanderen Gebouwenregister","source_id":"gebouw/Gebouw.16502348/0","kind":"building","height_m":6.44,"status":null},"geometry":{"type":"Polygon","coordinates":[[[4.01647659,50.96963878],[4.01643062,50.96966167],[4.01642696,50.96965873],[4.01640698,50.9696688],[4.01641053,50.96967164],[4.01635566,50.9696989],[4.01634509,50.96969034],[4.01630021,50.96971298],[4.01622523,50.96965429],[4.01627281,50.96963041],[4.01624449,50.96960791],[4.01622572,50.96959301],[4.01627891,50.96956631],[4.01629731,50.96958259],[4.01634806,50.96955733],[4.01639034,50.96959119],[4.0163971,50.96958782],[4.01643058,50.96961464],[4.01644037,50.96960977],[4.01647659,50.96963878]]]}},{"type":"Feature","id":"gebouw/Gebouw.16804455/0","properties":{"source":"Digitaal Vlaanderen Gebouwenregister","source_id":"gebouw/Gebouw.16804455/0","kind":"building","height_m":7.16,"status":null},"geometry":{"type":"Polygon","coordinates":[[[4.01904903,50.96928515],[4.01907658,50.96930757],[4.01900963,50.96934277],[4.0189792,50.96932005],[4.01904903,50.96928515]]]}},{"type":"Feature","id":"gebouw/Gebouw.16840451/0","properties":{"source":"Digitaal Vlaanderen Gebouwenregister","source_id":"gebouw/Gebouw.16840451/0","kind":"building","height_m":8.6,"status":null},"geometry":{"type":"Polygon","coordinates":[[[4.02637255,50.97274417],[4.02642132,50.97277674],[4.02622316,50.97289504],[4.02617439,50.97286247],[4.02637255,50.97274417]]]}},{"type":"Feature","id":"gebouw/Gebouw.18729045/0","properties":{"source":"Digitaal Vlaanderen Gebouwenregister","source_id":"gebouw/Gebouw.18729045/0","kind":"building","height_m":9.32,"status":null},"geometry":{"type":"Polygon","coordinates":[[[4.02589847,50.97428272],[4.02586226,50.97429779],[4.02583302,50.97427081],[4.02587032,50.97425452],[4.02589847,50.97428272]]]}},{"type":"Feature","id":"gebouw/Gebouw.18729755/0","properties":{"source":"Digitaal Vlaanderen Gebouwenregister","source_id":"gebouw/Gebouw.18729755/0","kind":"building","height_m":6.44,"status":null},"geometry":{"type":"Polygon","coordinates":[[[4.02541495,50.97296899],[4.02535074,50.97299955],[4.02530707,50.97296326],[4.0253717,50.97293325],[4.02541495,50.97296899]]]}},{"type":"Feature","id":"gebouw/Gebouw.18984732/0","properties":{"source":"Digitaal Vlaanderen Gebouwenregister","source_id":"gebouw/Gebouw.18984732/0","kind":"building","height_m":7.88,"status":null},"geometry":{"type":"Polygon","coordinates":[[[4.02548781,50.97303987],[4.02552655,50.97307397],[4.02546892,50.97310006],[4.02543019,50.97306595],[4.02548781,50.97303987]]]}},{"type":"Feature","id":"gebouw/Gebouw.19854063/0","properties":{"source":"Digitaal Vlaanderen Gebouwenregister","source_id":"gebouw/Gebouw.19854063/0","kind":"building","height_m":8.6,"status":null},"geometry":{"type":"Polygon","coordinates":[[[4.01753033,50.96932964],[4.01755922,50.96935149],[4.01748725,50.96938943],[4.01743565,50.9693525],[4.01741372,50.96933681],[4.01748586,50.96929877],[4.01748851,50.96930073],[4.01753033,50.96932964]]]}},{"type":"Feature","id":"gebouw/Gebouw.19854064/0","properties":{"source":"Digitaal Vlaanderen Gebouwenregister","source_id":"gebouw/Gebouw.19854064/0","kind":"building","height_m":9.32,"status":null},"geometry":{"type":"Polygon","coordinates":[[[4.01757783,50.96959112],[4.0175084,50.96954217],[4.01739028,50.96960896],[4.01729603,50.96954251],[4.01734614,50.96951428],[4.01734457,50.96951281],[4.01744583,50.96945615],[4.01749151,50.96948767],[4.01748073,50.96949376],[4.01752859,50.96952751],[4.01757898,50.96949901],[4.01765176,50.96954931],[4.01758582,50.96958659],[4.01757783,50.96959112]]]}},{"type":"Feature","id":"gebouw/Gebouw.19854529/0","properties":{"source":"Digitaal Vlaanderen Gebouwenregister","source_id":"gebouw/Gebouw.19854529/0","kind":"building","height_m":6.44,"status":null},"geometry":{"type":"Polygon","coordinates":[[[4.01800337,50.9696951],[4.01797202,50.96971951],[4.01794578,50.96973994],[4.01791122,50.96976611],[4.01772639,50.96966267],[4.01778862,50.96962035],[4.01782363,50.96959655],[4.01800337,50.9696951]]]}},{"type":"Feature","id":"gebouw/Gebouw.19854530/0","properties":{"source":"Digitaal Vlaanderen Gebouwenregister","source_id":"gebouw/Gebouw.19854530/0","kind":"building","height_m":7.16,"status":null},"geometry":{"type":"Polygon","coordinates":[[[4.0179734,50.96975408],[4.01803578,50.96978602],[4.01802937,50.96979101],[4.01806872,50.96981199],[4.01813422,50.96984691],[4.01810376,50.9698688],[4.01803972,50.96983382],[4.01799894,50.96981154],[4.01799605,50.96981358],[4.01791122,50.96976611],[4.01794578,50.96973994],[4.0179734,50.96975408]]]}},{"type":"Feature","id":"gebouw/Gebouw.19854593/0","properties":{"source":"Digitaal Vlaanderen Gebouwenregister","source_id":"gebouw/Gebouw.19854593/0","kind":"building","height_m":7.16,"status":null},"geometry":{"type":"Polygon","coordinates":[[[4.01765436,50.97063862],[4.01761694,50.97066462],[4.01747157,50.97076562],[4.01745097,50.97077992],[4.01714505,50.97060436],[4.01708956,50.97064291],[4.01694129,50.97055782],[4.01681884,50.97048755],[4.01687432,50.970449],[4.01701795,50.97034922],[4.01702211,50.97034633],[4.01707771,50.9703077],[4.01754876,50.97057802],[4.01765436,50.97063862]]]}},{"type":"Feature","id":"gebouw/Gebouw.19854594/0","properties":{"source":"Digitaal Vlaanderen Gebouwenregister","source_id":"gebouw/Gebouw.19854594/0","kind":"building","height_m":7.88,"status":null},"geometry":{"type":"Polygon","coordinates":[[[4.01761694,50.97066462],[4.01778415,50.97076058],[4.01763878,50.97086157],[4.01747157,50.97076562],[4.01761694,50.97066462]]]}},{"type":"Feature","id":"gebouw/Gebouw.19854595/0","properties":{"source":"Digitaal Vlaanderen Gebouwenregister","source_id":"gebouw/Gebouw.19854595/0","kind":"building","height_m":8.6,"status":null},"geometry":{"type":"Polygon","coordinates":[[[4.01754876,50.97057802],[4.01757147,50.97056225],[4.01767707,50.97062285],[4.01765444,50.97063857],[4.01765436,50.97063862],[4.01754876,50.97057802]]]}},{"type":"Feature","id":"gebouw/Gebouw.19856581/0","properties":{"source":"Digitaal Vlaanderen Gebouwenregister","source_id":"gebouw/Gebouw.19856581/0","kind":"building","height_m":7.16,"status":null},"geometry":{"type":"Polygon","coordinates":[[[4.02611605,50.9726379],[4.02591274,50.97273689],[4.0258516,50.9726888],[4.02606096,50.97259096],[4.02611605,50.9726379]]]}},{"type":"Feature","id":"gebouw/Gebouw.20145151/0","properties":{"source":"Digitaal Vlaanderen Gebouwenregister","source_id":"gebouw/Gebouw.20145151/0","kind":"building","height_m":8.6,"status":null},"geometry":{"type":"Polygon","coordinates":[[[4.0224363,50.97241561],[4.02243967,50.97239073],[4.0225337,50.97239582],[4.02253033,50.97242069],[4.0224363,50.97241561]]]}},{"type":"Feature","id":"gebouw/Gebouw.20145152/0","properties":{"source":"Digitaal Vlaanderen Gebouwenregister","source_id":"gebouw/Gebouw.20145152/0","kind":"building","height_m":9.32,"status":null},"geometry":{"type":"Polygon","coordinates":[[[4.01968328,50.96998654],[4.01957821,50.97003424],[4.01945488,50.96992594],[4.01955996,50.96987824],[4.01968328,50.96998654]]]}},{"type":"Feature","id":"gebouw/Gebouw.20145153/0","properties":{"source":"Digitaal Vlaanderen Gebouwenregister","source_id":"gebouw/Gebouw.20145153/0","kind":"building","height_m":5.0,"status":null},"geometry":{"type":"Polygon","coordinates":[[[4.01906799,50.96994824],[4.01901394,50.96990751],[4.01899284,50.96991867],[4.01896949,50.96993103],[4.01902354,50.96997176],[4.01904772,50.96995897],[4.01906799,50.96994824]]]}},{"type":"Feature","id":"gebouw/Gebouw.20145163/0","properties":{"source":"Digitaal Vlaanderen Gebouwenregister","source_id":"gebouw/Gebouw.20145163/0","kind":"building","height_m":7.16,"status":null},"geometry":{"type":"Polygon","coordinates":[[[4.02655099,50.9733182],[4.02652235,50.97329271],[4.02664084,50.97323964],[4.02666971,50.97326533],[4.02667275,50.97326804],[4.02659574,50.97330253],[4.02659284,50.97329995],[4.02659248,50.97329962],[4.02655099,50.9733182]]]}},{"type":"Feature","id":"gebouw/Gebouw.20146794/0","properties":{"source":"Digitaal Vlaanderen Gebouwenregister","source_id":"gebouw/Gebouw.20146794/0","kind":"building","height_m":7.16,"status":null},"geometry":{"type":"Polygon","coordinates":[[[4.02162998,50.97146528],[4.02164331,50.97145499],[4.02165383,50.97146043],[4.02167627,50.97144314],[4.02166601,50.97143784],[4.02168888,50.9714202],[4.02164032,50.97139674],[4.02158274,50.97143972],[4.02162998,50.97146528]]]}},{"type":"Feature","id":"gebouw/Gebouw.20146800/0","properties":{"source":"Digitaal Vlaanderen Gebouwenregister","source_id":"gebouw/Gebouw.20146800/0","kind":"building","height_m":6.44,"status":null},"geometry":{"type":"Polygon","coordinates":[[[4.02602675,50.97299141],[4.02598876,50.97300876],[4.0259359,50.97296263],[4.02597389,50.97294528],[4.02602675,50.97299141]]]}},{"type":"Feature","id":"gebouw/Gebouw.20146806/0","properties":{"source":"Digitaal Vlaanderen Gebouwenregister","source_id":"gebouw/Gebouw.20146806/0","kind":"building","height_m":5.72,"status":null},"geometry":{"type":"Polygon","coordinates":[[[4.01886034,50.96958265],[4.01883131,50.96960445],[4.0187553,50.96956409],[4.01878433,50.96954229],[4.01886034,50.96958265]]]}},{"type":"Feature","id":"gebouw/Gebouw.30642212/0","properties":{"source":"Digitaal Vlaanderen Gebouwenregister","source_id":"gebouw/Gebouw.30642212/0","kind":"building","height_m":9.32,"status":null},"geometry":{"type":"Polygon","coordinates":[[[4.02025979,50.96953022],[4.02031205,50.96958036],[4.02026569,50.96959963],[4.02021342,50.96954949],[4.02025979,50.96953022]]]}},{"type":"Feature","id":"gebouw/Gebouw.30642213/0","properties":{"source":"Digitaal Vlaanderen Gebouwenregister","source_id":"gebouw/Gebouw.30642213/0","kind":"building","height_m":5.0,"status":null},"geometry":{"type":"Polygon","coordinates":[[[4.02022868,50.9695159],[4.02019382,50.96949538],[4.02022607,50.96947353],[4.02026094,50.96949406],[4.02022868,50.9695159]]]}},{"type":"Feature","id":"gebouw/Gebouw.30642244/0","properties":{"source":"Digitaal Vlaanderen Gebouwenregister","source_id":"gebouw/Gebouw.30642244/0","kind":"building","height_m":7.16,"status":null},"geometry":{"type":"Polygon","coordinates":[[[4.02574938,50.97272173],[4.02578278,50.97274987],[4.02567315,50.97280173],[4.025635,50.97281977],[4.02560161,50.97279163],[4.02563975,50.97277358],[4.02574938,50.97272173]]]}},{"type":"Feature","id":"gebouw/Gebouw.31646518/0","properties":{"source":"Digitaal Vlaanderen Gebouwenregister","source_id":"gebouw/Gebouw.31646518/0","kind":"building","height_m":5.72,"status":null},"geometry":{"type":"Polygon","coordinates":[[[4.02623294,50.97204811],[4.02600489,50.97215393],[4.02607506,50.97221179],[4.02606123,50.97221837],[4.02602241,50.97223684],[4.02607103,50.97227755],[4.0262239,50.97220674],[4.02620646,50.97219176],[4.02624298,50.97217482],[4.02625836,50.97218804],[4.02631684,50.97216091],[4.02630527,50.97215097],[4.02633604,50.97213669],[4.02623294,50.97204811]]]}},{"type":"Feature","id":"gebouw/Gebouw.31804732/0","properties":{"source":"Digitaal Vlaanderen Gebouwenregister","source_id":"gebouw/Gebouw.31804732/0","kind":"building","height_m":5.72,"status":null},"geometry":{"type":"Polygon","coordinates":[[[4.01661563,50.96941568],[4.01667672,50.96937941],[4.01657584,50.96931167],[4.01651475,50.96934795],[4.01661563,50.96941568]]]}},{"type":"Feature","id":"gebouw/Gebouw.31804746/0","properties":{"source":"Digitaal Vlaanderen Gebouwenregister","source_id":"gebouw/Gebouw.31804746/0","kind":"building","height_m":5.72,"status":null},"geometry":{"type":"Polygon","coordinates":[[[4.02061581,50.9698664],[4.02054978,50.96979918],[4.02049171,50.96982192],[4.02055773,50.96988914],[4.02061581,50.9698664]]]}},{"type":"Feature","id":"gebouw/Gebouw.31805383/0","properties":{"source":"Digitaal Vlaanderen Gebouwenregister","source_id":"gebouw/Gebouw.31805383/0","kind":"building","height_m":5.72,"status":null},"geometry":{"type":"Polygon","coordinates":[[[4.02662399,50.97369732],[4.02664187,50.97368936],[4.02666404,50.97370922],[4.02669981,50.97369331],[4.02662799,50.97362897],[4.02657434,50.97365285],[4.02662399,50.97369732]]]}},{"type":"Feature","id":"gebouw/Gebouw.31805772/0","properties":{"source":"Digitaal Vlaanderen Gebouwenregister","source_id":"gebouw/Gebouw.31805772/0","kind":"building","height_m":8.6,"status":null},"geometry":{"type":"Polygon","coordinates":[[[4.02548104,50.97320118],[4.02554245,50.97317326],[4.02551371,50.97314805],[4.0254523,50.97317597],[4.02548104,50.97320118]]]}},{"type":"Feature","id":"gebouw/Gebouw.32033989/0","properties":{"source":"Digitaal Vlaanderen Gebouwenregister","source_id":"gebouw/Gebouw.32033989/0","kind":"building","height_m":5.72,"status":null},"geometry":{"type":"Polygon","coordinates":[[[4.02531056,50.97300588],[4.02528484,50.97298617],[4.0252239,50.97301787],[4.02524962,50.97303758],[4.02531056,50.97300588]]]}},{"type":"Feature","id":"way/152613931","properties":{"source":"OpenStreetMap","source_id":"way/152613931","kind":"vegetation","name":null,"waterway":null,"landuse":"forest"},"geometry":{"type":"Polygon","coordinates":[[[4.025569,50.9735244],[4.0257923,50.9736965],[4.0259202,50.973733],[4.0260362,50.9737871],[4.0261161,50.9738437],[4.0259816,50.9738875],[4.0258657,50.9739479],[4.0257937,50.9738951],[4.025438,50.9735679],[4.0255017,50.9735378],[4.0246713,50.972951],[4.0247335,50.9729248],[4.025569,50.9735244]]]}},{"type":"Feature","id":"way/152632788","properties":{"source":"OpenStreetMap","source_id":"way/152632788","kind":"vegetation","name":null,"waterway":null,"landuse":"forest"},"geometry":{"type":"Polygon","coordinates":[[[4.0233245,50.9722928],[4.0243175,50.9723228],[4.0247231,50.9721172],[4.0246073,50.9721255],[4.0239038,50.971788],[4.0233245,50.9722928]]]}},{"type":"Feature","id":"way/152632798","properties":{"source":"OpenStreetMap","source_id":"way/152632798","kind":"vegetation","name":null,"waterway":null,"landuse":"forest"},"geometry":{"type":"Polygon","coordinates":[[[4.0193796,50.9739559],[4.0186041,50.9736246],[4.0184412,50.9737651],[4.0189058,50.9739779],[4.0190445,50.9741261],[4.0191773,50.9741299],[4.0192604,50.9740421],[4.0193796,50.9739559]]]}},{"type":"Feature","id":"way/266667499","properties":{"source":"OpenStreetMap","source_id":"way/266667499","kind":"waterway","name":null,"waterway":"stream","landuse":null},"geometry":{"type":"LineString","coordinates":[[4.020406,50.9731954],[4.0194461,50.9726004],[4.0193748,50.9725562],[4.0189301,50.9722867],[4.0186441,50.972121],[4.0181209,50.9717588],[4.0176562,50.9714293],[4.0172273,50.9711101],[4.0170193,50.9709403]]}}]}