{"type":"FeatureCollection","features":[{"type":"Feature","id":"gebouw/Gebouw.15657600/0","properties":{"source":"Digitaal Vlaanderen Gebouwenregister","source_id":"gebouw/Gebouw.15657600/0","kind":"building","height_m":5.0,"status":null},"geometry":{"type":"Polygon","coordinates":[[[4.03262763,50.9216449],[4.03262912,50.92162243],[4.03271873,50.92157475],[4.03271495,50.92164405],[4.03262763,50.9216449]]]}},{"type":"Feature","id":"gebouw/Gebouw.15689254/0","properties":{"source":"Digitaal Vlaanderen Gebouwenregister","source_id":"gebouw/Gebouw.15689254/0","kind":"building","height_m":5.0,"status":null},"geometry":{"type":"Polygon","coordinates":[[[4.03647698,50.91945202],[4.0364898,50.91943989],[4.03649724,50.91944251],[4.03651095,50.91942903],[4.03650571,50.91942671],[4.03652037,50.91941144],[4.03646774,50.9193885],[4.03644075,50.91938307],[4.03645546,50.91935604],[4.03640891,50.91933055],[4.0364024,50.91932698],[4.03640228,50.91932717],[4.0363785,50.91936745],[4.03633818,50.91943833],[4.03633689,50.9194406],[4.03640942,50.91945591],[4.03645816,50.9194662],[4.03651598,50.9194822],[4.03652806,50.91946474],[4.03647698,50.91945202]]]}},{"type":"Feature","id":"gebouw/Gebouw.15697546/0","properties":{"source":"Digitaal Vlaanderen Gebouwenregister","source_id":"gebouw/Gebouw.15697546/0","kind":"building","height_m":7.88,"status":null},"geometry":{"type":"Polygon","coordinates":[[[4.03348742,50.92084589],[4.03351585,50.92084653],[4.03351128,50.92092645],[4.03348333,50.92092581],[4.0334818,50.9209545],[4.03331099,50.92095112],[4.0333164,50.92084198],[4.03341342,50.9208442],[4.03348742,50.92084589]]]}},{"type":"Feature","id":"gebouw/Gebouw.15712108/0","properties":{"source":"Digitaal Vlaanderen Gebouwenregister","source_id":"gebouw/Gebouw.15712108/0","kind":"building","height_m":9.32,"status":null},"geometry":{"type":"Polygon","coordinates":[[[4.03575815,50.92161345],[4.03581159,50.92154819],[4.03587786,50.92156971],[4.03592811,50.92150768],[4.03611817,50.9215692],[4.03608762,50.92160671],[4.03610658,50.92161288],[4.03607705,50.92164913],[4.03600801,50.92162667],[4.03597661,50.92166522],[4.03596115,50.92166019],[4.03594804,50.92167628],[4.03575815,50.92161345]]]}},{"type":"Feature","id":"gebouw/Gebouw.15734569/0","properties":{"source":"Digitaal Vlaanderen Gebouwenregister","source_id":"gebouw/Gebouw.15734569/0","kind":"building","height_m":7.88,"status":null},"geometry":{"type":"Polygon","coordinates":[[[4.03439997,50.92138174],[4.03451881,50.92133442],[4.03456606,50.92138276],[4.03456993,50.92138141],[4.03458267,50.92139392],[4.03457917,50.92139554],[4.0345915,50.92140747],[4.034474,50.92145602],[4.03439997,50.92138174]]]}},{"type":"Feature","id":"gebouw/Gebouw.15759814/0","properties":{"source":"Digitaal Vlaanderen Gebouwenregister","source_id":"gebouw/Gebouw.15759814/0","kind":"building","height_m":5.0,"status":null},"geometry":{"type":"Polygon","coordinates":[[[4.03693811,50.92112216],[4.03698055,50.92114896],[4.03693595,50.92117723],[4.03689306,50.9211502],[4.03693811,50.92112216]]]}},{"type":"Feature","id":"gebouw/Gebouw.15768315/0","properties":{"source":"Digitaal Vlaanderen Gebouwenregister","source_id":"gebouw/Gebouw.15768315/0","kind":"building","height_m":7.16,"status":null},"geometry":{"type":"Polygon","coordinates":[[[4.03643852,50.91982075],[4.03644142,50.91981812],[4.03649473,50.91984166],[4.03645926,50.91987375],[4.03641047,50.91985221],[4.03640977,50.91985284],[4.03640486,50.91985068],[4.03638055,50.91983994],[4.03641381,50.91980984],[4.03643852,50.91982075]]]}},{"type":"Feature","id":"gebouw/Gebouw.15771039/0","properties":{"source":"Digitaal Vlaanderen Gebouwenregister","source_id":"gebouw/Gebouw.15771039/0","kind":"building","height_m":7.88,"status":null},"geometry":{"type":"Polygon","coordinates":[[[4.03684904,50.91991503],[4.03681142,50.91994751],[4.03681302,50.91994819],[4.03674438,50.92000851],[4.03674327,50.92000781],[4.0365889,50.91993736],[4.03654119,50.91991553],[4.03653008,50.91991045],[4.03656041,50.91988373],[4.03658414,50.9198948],[4.03662749,50.91985998],[4.03660337,50.91984787],[4.03661413,50.91983945],[4.03664414,50.91981587],[4.03684904,50.91991503]]]}},{"type":"Feature","id":"gebouw/Gebouw.15773855/0","properties":{"source":"Digitaal Vlaanderen Gebouwenregister","source_id":"gebouw/Gebouw.15773855/0","kind":"building","height_m":9.32,"status":null},"geometry":{"type":"Polygon","coordinates":[[[4.03359594,50.92139526],[4.03359305,50.9214268],[4.03366656,50.92142949],[4.03366018,50.92149904],[4.03365213,50.92149875],[4.03364956,50.92151894],[4.0334501,50.92151092],[4.03346117,50.92139031],[4.03359594,50.92139526]]]}},{"type":"Feature","id":"gebouw/Gebouw.15773885/0","properties":{"source":"Digitaal Vlaanderen Gebouwenregister","source_id":"gebouw/Gebouw.15773885/0","kind":"building","height_m":5.72,"status":null},"geometry":{"type":"Polygon","coordinates":[[[4.03651477,50.92104465],[4.03646532,50.92110536],[4.03645065,50.92110058],[4.03643724,50.92111705],[4.03624669,50.92105508],[4.03629986,50.92098979],[4.03632557,50.92099816],[4.03633527,50.92098624],[4.03640405,50.92100862],[4.03648537,50.92103509],[4.03651477,50.92104465]]]}},{"type":"Feature","id":"gebouw/Gebouw.15776613/0","properties":{"source":"Digitaal Vlaanderen Gebouwenregister","source_id":"gebouw/Gebouw.15776613/0","kind":"building","height_m":9.32,"status":null},"geometry":{"type":"Polygon","coordinates":[[[4.03670145,50.92012049],[4.03666508,50.92015191],[4.03655789,50.92010365],[4.03650594,50.92008027],[4.03654427,50.92004778],[4.03670145,50.92012049]]]}},{"type":"Feature","id":"gebouw/Gebouw.15818270/0","properties":{"source":"Digitaal Vlaanderen Gebouwenregister","source_id":"gebouw/Gebouw.15818270/0","kind":"building","height_m":9.32,"status":null},"geometry":{"type":"Polygon","coordinates":[[[4.03571973,50.92169903],[4.03572973,50.92168718],[4.0357042,50.92167861],[4.03575815,50.92161345],[4.03594804,50.92167628],[4.0359345,50.9216929],[4.03595098,50.92169827],[4.03590068,50.92176003],[4.03571973,50.92169903]]]}},{"type":"Feature","id":"gebouw/Gebouw.15854335/0","properties":{"source":"Digitaal Vlaanderen Gebouwenregister","source_id":"gebouw/Gebouw.15854335/0","kind":"building","height_m":5.0,"status":null},"geometry":{"type":"Polygon","coordinates":[[[4.03738174,50.91939774],[4.03734783,50.91942302],[4.03728174,50.91938695],[4.03731433,50.91936267],[4.03738174,50.91939774]]]}},{"type":"Feature","id":"gebouw/Gebouw.15854666/0","properties":{"source":"Digitaal Vlaanderen Gebouwenregister","source_id":"gebouw/Gebouw.15854666/0","kind":"building","height_m":6.44,"status":null},"geometry":{"type":"Polygon","coordinates":[[[4.0370764,50.9205966],[4.03717634,50.92065625],[4.03713234,50.9206857],[4.03703241,50.92062605],[4.0370764,50.9205966]]]}},{"type":"Feature","id":"gebouw/Gebouw.15920000/0","properties":{"source":"Digitaal Vlaanderen Gebouwenregister","source_id":"gebouw/Gebouw.15920000/0","kind":"building","height_m":8.6,"status":null},"geometry":{"type":"Polygon","coordinates":[[[4.02966655,50.92176862],[4.02966723,50.92176349],[4.02972856,50.92176675],[4.02972947,50.92175985],[4.02976631,50.92173989],[4.0297769,50.9217399],[4.02977905,50.92172087],[4.02980485,50.92172158],[4.02980746,50.92172062],[4.02980982,50.92171987],[4.02981227,50.92171921],[4.02981477,50.92171864],[4.02981733,50.92171818],[4.02981993,50.92171782],[4.02982254,50.92171756],[4.02982516,50.9217174],[4.02982691,50.92171731],[4.02983158,50.92171744],[4.02983618,50.92171788],[4.02984069,50.92171863],[4.02984504,50.92171967],[4.02984937,50.92172107],[4.02985341,50.92172277],[4.02985712,50.92172474],[4.02986048,50.92172695],[4.02986222,50.92172814],[4.02987568,50.92172885],[4.02986118,50.92183794],[4.02979031,50.92183418],[4.02976555,50.92183286],[4.02976604,50.92182914],[4.02965926,50.92182347],[4.02966655,50.92176862]]]}},{"type":"Feature","id":"gebouw/Gebouw.15938163/0","properties":{"source":"Digitaal Vlaanderen Gebouwenregister","source_id":"gebouw/Gebouw.15938163/0","kind":"building","height_m":7.16,"status":null},"geometry":{"type":"Polygon","coordinates":[[[4.03309366,50.9217614],[4.03313024,50.92172439],[4.03319607,50.92175038],[4.03315949,50.9217874],[4.03309366,50.9217614]]]}},{"type":"Feature","id":"gebouw/Gebouw.15952823/0","properties":{"source":"Digitaal Vlaanderen Gebouwenregister","source_id":"gebouw/Gebouw.15952823/0","kind":"building","height_m":8.6,"status":null},"geometry":{"type":"Polygon","coordinates":[[[4.03645749,50.92086815],[4.0364496,50.92086442],[4.03655479,50.92077549],[4.03656202,50.9207789],[4.03656669,50.92077496],[4.0366304,50.92080506],[4.03662772,50.92080757],[4.03662365,50.92081137],[4.03666913,50.92083316],[4.03670974,50.92085262],[4.03661215,50.92093381],[4.0366022,50.92092946],[4.03657392,50.9209171],[4.03657191,50.92091893],[4.03654264,50.92090539],[4.03653036,50.92091509],[4.03644801,50.92087617],[4.03645749,50.92086815]]]}},{"type":"Feature","id":"gebouw/Gebouw.15963411/0","properties":{"source":"Digitaal Vlaanderen Gebouwenregister","source_id":"gebouw/Gebouw.15963411/0","kind":"building","height_m":6.44,"status":null},"geometry":{"type":"Polygon","coordinates":[[[4.03647262,50.92012931],[4.03643098,50.92010976],[4.03638279,50.92008714],[4.0363239,50.9200595],[4.03624526,50.92002259],[4.03619922,50.92012346],[4.0361208,50.92009289],[4.0360411,50.92028486],[4.03622831,50.9203146],[4.03624862,50.9203237],[4.03647262,50.92012931]]]}},{"type":"Feature","id":"gebouw/Gebouw.15986630/0","properties":{"source":"Digitaal Vlaanderen Gebouwenregister","source_id":"gebouw/Gebouw.15986630/0","kind":"building","height_m":6.44,"status":null},"geometry":{"type":"Polygon","coordinates":[[[4.03395131,50.92097274],[4.03395639,50.92086954],[4.03410797,50.92087252],[4.03410754,50.92088129],[4.03419777,50.92088307],[4.03419332,50.92097716],[4.03410083,50.92097543],[4.03410082,50.92097801],[4.03405716,50.92097714],[4.03405726,50.92097482],[4.03395131,50.92097274]]]}},{"type":"Feature","id":"gebouw/Gebouw.15993386/0","properties":{"source":"Digitaal Vlaanderen Gebouwenregister","source_id":"gebouw/Gebouw.15993386/0","kind":"building","height_m":7.16,"status":null},"geometry":{"type":"Polygon","coordinates":[[[4.03674181,50.91959557],[4.03669462,50.91963321],[4.0366657,50.91961872],[4.03671289,50.91958108],[4.03674181,50.91959557]]]}},{"type":"Feature","id":"gebouw/Gebouw.15995735/0","properties":{"source":"Digitaal Vlaanderen Gebouwenregister","source_id":"gebouw/Gebouw.15995735/0","kind":"building","height_m":5.0,"status":null},"geometry":{"type":"Polygon","coordinates":[[[4.03260598,50.92146871],[4.03260738,50.92144805],[4.03267592,50.92145],[4.03268348,50.92134364],[4.03263288,50.9213422],[4.0325629,50.92134021],[4.03251235,50.92133877],[4.03250549,50.92144515],[4.03250419,50.92146542],[4.03260598,50.92146871]]]}},{"type":"Feature","id":"gebouw/Gebouw.16003583/0","properties":{"source":"Digitaal Vlaanderen Gebouwenregister","source_id":"gebouw/Gebouw.16003583/0","kind":"building","height_m":5.72,"status":null},"geometry":{"type":"Polygon","coordinates":[[[4.03402288,50.92034538],[4.03398262,50.92036451],[4.03395348,50.92034],[4.03399374,50.92032087],[4.03402288,50.92034538]]]}},{"type":"Feature","id":"gebouw/Gebouw.16004279/0","properties":{"source":"Digitaal Vlaanderen Gebouwenregister","source_id":"gebouw/Gebouw.16004279/0","kind":"building","height_m":7.88,"status":null},"geometry":{"type":"Polygon","coordinates":[[[4.03324877,50.92137152],[4.03323858,50.92150541],[4.03313713,50.92150299],[4.0331501,50.92135494],[4.03321734,50.9213573],[4.03321655,50.92137074],[4.03324877,50.92137152]]]}},{"type":"Feature","id":"gebouw/Gebouw.16006512/0","properties":{"source":"Digitaal Vlaanderen Gebouwenregister","source_id":"gebouw/Gebouw.16006512/0","kind":"building","height_m":7.88,"status":null},"geometry":{"type":"Polygon","coordinates":[[[4.03698528,50.91987223],[4.0368904,50.91982656],[4.03688551,50.91983062],[4.03688475,50.91983125],[4.03673367,50.91975656],[4.03679551,50.91970416],[4.03684571,50.91972846],[4.03694266,50.91977539],[4.03704176,50.91982536],[4.03698528,50.91987223]]]}},{"type":"Feature","id":"gebouw/Gebouw.16011908/0","properties":{"source":"Digitaal Vlaanderen Gebouwenregister","source_id":"gebouw/Gebouw.16011908/0","kind":"building","height_m":7.16,"status":null},"geometry":{"type":"Polygon","coordinates":[[[4.03727959,50.91902844],[4.03734809,50.91906707],[4.0372951,50.91910461],[4.03719879,50.91905029],[4.03723918,50.91902168],[4.03726699,50.91903737],[4.03727959,50.91902844]]]}},{"type":"Feature","id":"gebouw/Gebouw.16030760/0","properties":{"source":"Digitaal Vlaanderen Gebouwenregister","source_id":"gebouw/Gebouw.16030760/0","kind":"building","height_m":7.88,"status":null},"geometry":{"type":"Polygon","coordinates":[[[4.0312644,50.91738347],[4.03123194,50.91734533],[4.03128015,50.91732894],[4.03131261,50.91736708],[4.0312644,50.91738347]]]}},{"type":"Feature","id":"gebouw/Gebouw.16040273/0","properties":{"source":"Digitaal Vlaanderen Gebouwenregister","source_id":"gebouw/Gebouw.16040273/0","kind":"building","height_m":7.88,"status":null},"geometry":{"type":"Polygon","coordinates":[[[4.03421095,50.9214994],[4.03418568,50.9215097],[4.03415269,50.92147735],[4.03417772,50.92146715],[4.03417274,50.92146227],[4.03427288,50.92142146],[4.03431677,50.92146448],[4.03421687,50.9215052],[4.03421095,50.9214994]]]}},{"type":"Feature","id":"gebouw/Gebouw.16042562/0","properties":{"source":"Digitaal Vlaanderen Gebouwenregister","source_id":"gebouw/Gebouw.16042562/0","kind":"building","height_m":7.88,"status":null},"geometry":{"type":"Polygon","coordinates":[[[4.03643724,50.92111705],[4.03642317,50.92113432],[4.03644044,50.92113994],[4.03641106,50.92117602],[4.03646622,50.92119397],[4.03643649,50.92123048],[4.03641889,50.92122475],[4.03638817,50.92126246],[4.0361961,50.92120088],[4.03624694,50.92113754],[4.0361938,50.92112002],[4.03624669,50.92105508],[4.03643724,50.92111705]]]}},{"type":"Feature","id":"gebouw/Gebouw.16048379/0","properties":{"source":"Digitaal Vlaanderen Gebouwenregister","source_id":"gebouw/Gebouw.16048379/0","kind":"building","height_m":7.88,"status":null},"geometry":{"type":"Polygon","coordinates":[[[4.03666508,50.92015191],[4.03655789,50.92010365],[4.03650594,50.92008027],[4.03649939,50.92009131],[4.03646686,50.92007591],[4.03643098,50.92010976],[4.03647262,50.92012931],[4.03661427,50.9201958],[4.03666508,50.92015191]]]}},{"type":"Feature","id":"gebouw/Gebouw.16074943/0","properties":{"source":"Digitaal Vlaanderen Gebouwenregister","source_id":"gebouw/Gebouw.16074943/0","kind":"building","height_m":7.16,"status":null},"geometry":{"type":"Polygon","coordinates":[[[4.0371161,50.91976761],[4.03704641,50.91982755],[4.03704176,50.91982536],[4.03694266,50.91977539],[4.03695612,50.91976452],[4.03691697,50.9197473],[4.03694842,50.91972098],[4.03692955,50.91971156],[4.03695065,50.9196942],[4.03700607,50.91972184],[4.03698666,50.91973739],[4.0370296,50.91975881],[4.03705549,50.91973805],[4.0371161,50.91976761]]]}},{"type":"Feature","id":"gebouw/Gebouw.16075479/0","properties":{"source":"Digitaal Vlaanderen Gebouwenregister","source_id":"gebouw/Gebouw.16075479/0","kind":"building","height_m":5.0,"status":null},"geometry":{"type":"Polygon","coordinates":[[[4.03469264,50.92045778],[4.03469243,50.92042633],[4.03474386,50.92042619],[4.03474407,50.92045764],[4.03469264,50.92045778]]]}},{"type":"Feature","id":"gebouw/Gebouw.16080976/0","properties":{"source":"Digitaal Vlaanderen Gebouwenregister","source_id":"gebouw/Gebouw.16080976/0","kind":"building","height_m":6.44,"status":null},"geometry":{"type":"Polygon","coordinates":[[[4.03741304,50.9193664],[4.03725936,50.91928322],[4.0373612,50.91920629],[4.03750503,50.91928462],[4.03744653,50.91932753],[4.03745765,50.91933347],[4.03741304,50.9193664]]]}},{"type":"Feature","id":"gebouw/Gebouw.16093366/0","properties":{"source":"Digitaal Vlaanderen Gebouwenregister","source_id":"gebouw/Gebouw.16093366/0","kind":"building","height_m":6.44,"status":null},"geometry":{"type":"Polygon","coordinates":[[[4.03655836,50.91967105],[4.03640238,50.91959496],[4.03638066,50.91963666],[4.03651718,50.91970455],[4.03655836,50.91967105]]]}},{"type":"Feature","id":"gebouw/Gebouw.16110522/0","properties":{"source":"Digitaal Vlaanderen Gebouwenregister","source_id":"gebouw/Gebouw.16110522/0","kind":"building","height_m":5.72,"status":null},"geometry":{"type":"Polygon","coordinates":[[[4.03410616,50.9214777],[4.03414928,50.92151829],[4.03409395,50.92154178],[4.03405082,50.9215012],[4.03410616,50.9214777]]]}},{"type":"Feature","id":"gebouw/Gebouw.16113535/0","properties":{"source":"Digitaal Vlaanderen Gebouwenregister","source_id":"gebouw/Gebouw.16113535/0","kind":"building","height_m":7.88,"status":null},"geometry":{"type":"Polygon","coordinates":[[[4.03471178,50.92056954],[4.03465963,50.92055583],[4.03467874,50.92052681],[4.03473089,50.92054052],[4.03471178,50.92056954]]]}},{"type":"Feature","id":"gebouw/Gebouw.16116995/0","properties":{"source":"Digitaal Vlaanderen Gebouwenregister","source_id":"gebouw/Gebouw.16116995/0","kind":"building","height_m":9.32,"status":null},"geometry":{"type":"Polygon","coordinates":[[[4.03467712,50.92044524],[4.03464041,50.92046741],[4.03460841,50.92044624],[4.03464512,50.92042407],[4.03467712,50.92044524]]]}},{"type":"Feature","id":"gebouw/Gebouw.16135605/0","properties":{"source":"Digitaal Vlaanderen Gebouwenregister","source_id":"gebouw/Gebouw.16135605/0","kind":"building","height_m":7.16,"status":null},"geometry":{"type":"Polygon","coordinates":[[[4.03613762,50.92057127],[4.03607105,50.92063222],[4.03599582,50.92070044],[4.03599355,50.92069937],[4.03596314,50.9207298],[4.03582033,50.92067501],[4.03585008,50.92064329],[4.03583337,50.92064079],[4.03585875,50.92057293],[4.03592514,50.92058286],[4.03595103,50.9205169],[4.03601442,50.92052697],[4.0360396,50.92053097],[4.03610611,50.9205605],[4.03610815,50.92055913],[4.03613762,50.92057127]]]}},{"type":"Feature","id":"gebouw/Gebouw.16140830/0","properties":{"source":"Digitaal Vlaanderen Gebouwenregister","source_id":"gebouw/Gebouw.16140830/0","kind":"building","height_m":9.32,"status":null},"geometry":{"type":"Polygon","coordinates":[[[4.03443378,50.92097639],[4.03443679,50.92089981],[4.03463853,50.92090298],[4.03463549,50.92097957],[4.03443378,50.92097639]]]}},{"type":"Feature","id":"gebouw/Gebouw.16142804/0","properties":{"source":"Digitaal Vlaanderen Gebouwenregister","source_id":"gebouw/Gebouw.16142804/0","kind":"building","height_m":9.32,"status":null},"geometry":{"type":"Polygon","coordinates":[[[4.03516511,50.92061414],[4.03515855,50.92061549],[4.03516162,50.92062226],[4.03511827,50.92063601],[4.03509883,50.92061151],[4.03508556,50.92059479],[4.0351008,50.92058996],[4.03510303,50.92058925],[4.035124,50.9205826],[4.03513169,50.92059228],[4.03514453,50.92058821],[4.03516511,50.92061414]]]}},{"type":"Feature","id":"gebouw/Gebouw.16153194/0","properties":{"source":"Digitaal Vlaanderen Gebouwenregister","source_id":"gebouw/Gebouw.16153194/0","kind":"building","height_m":5.72,"status":null},"geometry":{"type":"Polygon","coordinates":[[[4.03338999,50.92159996],[4.03338846,50.9216199],[4.03333785,50.92161857],[4.03334164,50.9215603],[4.03339292,50.92156165],[4.03338999,50.92159996]]]}},{"type":"Feature","id":"gebouw/Gebouw.16167954/0","properties":{"source":"Digitaal Vlaanderen Gebouwenregister","source_id":"gebouw/Gebouw.16167954/0","kind":"building","height_m":8.6,"status":null},"geometry":{"type":"Polygon","coordinates":[[[4.03443539,50.92043925],[4.0343843,50.92043952],[4.03436723,50.92043961],[4.0341618,50.92044071],[4.03416271,50.92050928],[4.03411552,50.92050954],[4.03411609,50.92055234],[4.0341602,50.9205521],[4.03416037,50.92056518],[4.03437836,50.92056402],[4.0344454,50.92056366],[4.03444374,50.9204392],[4.03443539,50.92043925]]]}},{"type":"Feature","id":"gebouw/Gebouw.16168258/0","properties":{"source":"Digitaal Vlaanderen Gebouwenregister","source_id":"gebouw/Gebouw.16168258/0","kind":"building","height_m":5.72,"status":null},"geometry":{"type":"Polygon","coordinates":[[[4.03715771,50.91973021],[4.0371158,50.91976625],[4.03711703,50.91976681],[4.0371161,50.91976761],[4.03705549,50.91973805],[4.03691211,50.91966811],[4.03694184,50.91964328],[4.0370154,50.91968101],[4.03702838,50.91967004],[4.03715771,50.91973021]]]}},{"type":"Feature","id":"gebouw/Gebouw.16192746/0","properties":{"source":"Digitaal Vlaanderen Gebouwenregister","source_id":"gebouw/Gebouw.16192746/0","kind":"building","height_m":7.16,"status":null},"geometry":{"type":"Polygon","coordinates":[[[4.03145515,50.92078663],[4.03145552,50.92078038],[4.03155384,50.92078266],[4.03154606,50.92091803],[4.03136113,50.9209139],[4.03136088,50.92092113],[4.03126405,50.92091877],[4.031264,50.92091165],[4.03115523,50.92090912],[4.03115983,50.92083003],[4.03126688,50.92083252],[4.03127012,50.92077678],[4.03136717,50.92077904],[4.03137146,50.92070524],[4.0313916,50.92070571],[4.03139103,50.92071551],[4.03145568,50.92071701],[4.03145164,50.92078654],[4.03145515,50.92078663]]]}},{"type":"Feature","id":"gebouw/Gebouw.16197204/0","properties":{"source":"Digitaal Vlaanderen Gebouwenregister","source_id":"gebouw/Gebouw.16197204/0","kind":"building","height_m":6.44,"status":null},"geometry":{"type":"Polygon","coordinates":[[[4.0366462,50.9200836],[4.03647984,50.92000697],[4.03652166,50.91996753],[4.03654531,50.91997814],[4.0365889,50.91993736],[4.03674327,50.92000781],[4.03674313,50.92000794],[4.03671035,50.92003618],[4.03670906,50.92003557],[4.03669278,50.92004884],[4.03668968,50.92004722],[4.0366462,50.9200836]]]}},{"type":"Feature","id":"gebouw/Gebouw.16202813/0","properties":{"source":"Digitaal Vlaanderen Gebouwenregister","source_id":"gebouw/Gebouw.16202813/0","kind":"building","height_m":7.88,"status":null},"geometry":{"type":"Polygon","coordinates":[[[4.03592811,50.92150768],[4.03598168,50.92144226],[4.03603926,50.92146066],[4.03607011,50.92142231],[4.03605469,50.92141727],[4.03607859,50.92138932],[4.03609402,50.92139414],[4.03613284,50.92134582],[4.03611674,50.92134099],[4.0361403,50.92131283],[4.03615649,50.92131817],[4.03618614,50.92127984],[4.03614399,50.92126582],[4.0361961,50.92120088],[4.03638817,50.92126246],[4.03636915,50.92128582],[4.03638388,50.92129061],[4.03639088,50.92129289],[4.03638112,50.92130487],[4.03640124,50.92131142],[4.03638261,50.92133429],[4.03639912,50.92133967],[4.03636269,50.9213844],[4.03635256,50.9213811],[4.0363412,50.92139504],[4.03634981,50.92139784],[4.03633107,50.92142085],[4.03630199,50.92145656],[4.03628638,50.92147572],[4.03627846,50.92147314],[4.03626671,50.92148756],[4.03627566,50.92149047],[4.03623742,50.92153742],[4.03621927,50.92153152],[4.03620203,50.92155269],[4.0361701,50.9215423],[4.03615946,50.92155536],[4.03613573,50.92154764],[4.03611817,50.9215692],[4.03592811,50.92150768]]]}},{"type":"Feature","id":"gebouw/Gebouw.16213968/0","properties":{"source":"Digitaal Vlaanderen Gebouwenregister","source_id":"gebouw/Gebouw.16213968/0","kind":"building","height_m":5.72,"status":null},"geometry":{"type":"Polygon","coordinates":[[[4.03675294,50.91933693],[4.03681594,50.91936962],[4.03685089,50.91938775],[4.03691838,50.91942276],[4.03695506,50.9193937],[4.03696985,50.9194016],[4.03709673,50.91930109],[4.03696143,50.91922884],[4.03683384,50.91932991],[4.03679263,50.9193074],[4.03675294,50.91933693]]]}},{"type":"Feature","id":"gebouw/Gebouw.16214471/0","properties":{"source":"Digitaal Vlaanderen Gebouwenregister","source_id":"gebouw/Gebouw.16214471/0","kind":"building","height_m":5.0,"status":null},"geometry":{"type":"Polygon","coordinates":[[[4.03139985,50.92145143],[4.0312903,50.92144968],[4.03121284,50.92144844],[4.03120927,50.92153763],[4.03093231,50.92153299],[4.03093993,50.92135157],[4.03097965,50.92135113],[4.03098124,50.92132898],[4.03110134,50.92126326],[4.03198552,50.92127747],[4.03197818,50.92146069],[4.03139985,50.92145143]]]}},{"type":"Feature","id":"gebouw/Gebouw.16234270/0","properties":{"source":"Digitaal Vlaanderen Gebouwenregister","source_id":"gebouw/Gebouw.16234270/0","kind":"building","height_m":7.16,"status":null},"geometry":{"type":"Polygon","coordinates":[[[4.03697328,50.9195864],[4.03691042,50.91955283],[4.03688124,50.91957462],[4.03677716,50.91952062],[4.0367604,50.91953391],[4.03674316,50.91954757],[4.03671825,50.9195343],[4.03673549,50.91952141],[4.03666979,50.91948632],[4.03667291,50.91948399],[4.0366503,50.91947192],[4.03664416,50.91947624],[4.03654146,50.91942326],[4.03656114,50.91940856],[4.03655842,50.91940715],[4.03658752,50.91938525],[4.03652583,50.9193542],[4.03663255,50.91927448],[4.03681594,50.91936962],[4.03685089,50.91938775],[4.03691838,50.91942276],[4.03708114,50.91950719],[4.03697328,50.9195864]]]}},{"type":"Feature","id":"gebouw/Gebouw.16310558/0","properties":{"source":"Digitaal Vlaanderen Gebouwenregister","source_id":"gebouw/Gebouw.16310558/0","kind":"building","height_m":8.6,"status":null},"geometry":{"type":"Polygon","coordinates":[[[4.03365344,50.92084198],[4.03384295,50.9208453],[4.03383819,50.92095378],[4.03383389,50.92095371],[4.03383312,50.92097118],[4.03375252,50.92096976],[4.03375313,50.92095258],[4.03362472,50.92095017],[4.03362982,50.92084157],[4.03365344,50.92084198]]]}},{"type":"Feature","id":"gebouw/Gebouw.16318529/0","properties":{"source":"Digitaal Vlaanderen Gebouwenregister","source_id":"gebouw/Gebouw.16318529/0","kind":"building","height_m":7.16,"status":null},"geometry":{"type":"Polygon","coordinates":[[[4.03688246,50.91988618],[4.03684904,50.91991503],[4.03664414,50.91981587],[4.03651948,50.91975553],[4.03655854,50.91972511],[4.03668619,50.91978859],[4.03688246,50.91988618]]]}},{"type":"Feature","id":"gebouw/Gebouw.16349833/0","properties":{"source":"Digitaal Vlaanderen Gebouwenregister","source_id":"gebouw/Gebouw.16349833/0","kind":"building","height_m":7.16,"status":null},"geometry":{"type":"Polygon","coordinates":[[[4.03338999,50.92159996],[4.03349611,50.9216027],[4.03349159,50.92167218],[4.03338468,50.92166941],[4.03338846,50.9216199],[4.03338999,50.92159996]]]}},{"type":"Feature","id":"gebouw/Gebouw.16373202/0","properties":{"source":"Digitaal Vlaanderen Gebouwenregister","source_id":"gebouw/Gebouw.16373202/0","kind":"building","height_m":9.32,"status":null},"geometry":{"type":"Polygon","coordinates":[[[4.03301996,50.92136155],[4.03301665,50.92144434],[4.03282282,50.92144215],[4.03282549,50.92134788],[4.03301709,50.92135005],[4.03301662,50.9213615],[4.03301996,50.92136155]]]}},{"type":"Feature","id":"gebouw/Gebouw.16374099/0","properties":{"source":"Digitaal Vlaanderen Gebouwenregister","source_id":"gebouw/Gebouw.16374099/0","kind":"building","height_m":5.0,"status":null},"geometry":{"type":"Polygon","coordinates":[[[4.03738807,50.91954857],[4.03729818,50.91961978],[4.03713783,50.9195366],[4.03716117,50.91951862],[4.03721111,50.91954381],[4.03722498,50.91953282],[4.03718994,50.91951514],[4.03721759,50.91949324],[4.03719531,50.919482],[4.03721934,50.91946385],[4.03727521,50.91949341],[4.03728806,50.91948281],[4.03733602,50.91944325],[4.03726011,50.91940309],[4.03731392,50.91936246],[4.03731433,50.91936267],[4.03732876,50.91937028],[4.03738495,50.9193999],[4.03734223,50.91943722],[4.03737194,50.91945262],[4.03734896,50.91947084],[4.03743231,50.91951352],[4.03739866,50.91954018],[4.03738807,50.91954857]]]}},{"type":"Feature","id":"gebouw/Gebouw.16379752/0","properties":{"source":"Digitaal Vlaanderen Gebouwenregister","source_id":"gebouw/Gebouw.16379752/0","kind":"building","height_m":7.88,"status":null},"geometry":{"type":"Polygon","coordinates":[[[4.03521149,50.9209343],[4.03512753,50.92084786],[4.03530943,50.92077699],[4.03539356,50.92086365],[4.03521149,50.9209343]]]}},{"type":"Feature","id":"gebouw/Gebouw.16384446/0","properties":{"source":"Digitaal Vlaanderen Gebouwenregister","source_id":"gebouw/Gebouw.16384446/0","kind":"building","height_m":5.72,"status":null},"geometry":{"type":"Polygon","coordinates":[[[4.03487267,50.92084596],[4.03486637,50.9209244],[4.03492418,50.92092626],[4.03493052,50.92084728],[4.03501526,50.92084999],[4.03500455,50.92098341],[4.03477761,50.92097614],[4.03478827,50.92084325],[4.03479405,50.92084344],[4.03484942,50.92084521],[4.03487267,50.92084596]]]}},{"type":"Feature","id":"gebouw/Gebouw.16390227/0","properties":{"source":"Digitaal Vlaanderen Gebouwenregister","source_id":"gebouw/Gebouw.16390227/0","kind":"building","height_m":5.0,"status":null},"geometry":{"type":"Polygon","coordinates":[[[4.03721393,50.9203815],[4.03722062,50.92038448],[4.0371526,50.92044565],[4.03703604,50.92039386],[4.03707319,50.92036045],[4.03709998,50.92037238],[4.03718897,50.92029363],[4.03715328,50.92027668],[4.03718705,50.92024738],[4.0372156,50.92026029],[4.03722639,50.9202513],[4.0372405,50.92025769],[4.03725791,50.92024216],[4.03733866,50.92027834],[4.0374113,50.9203109],[4.03736743,50.92035035],[4.03729458,50.92031798],[4.037251,50.92035716],[4.0372443,50.92035419],[4.03721393,50.9203815]]]}},{"type":"Feature","id":"gebouw/Gebouw.16394949/0","properties":{"source":"Digitaal Vlaanderen Gebouwenregister","source_id":"gebouw/Gebouw.16394949/0","kind":"building","height_m":7.88,"status":null},"geometry":{"type":"Polygon","coordinates":[[[4.03150492,50.92060013],[4.03150598,50.92063139],[4.03142131,50.92063191],[4.0314211,50.92060033],[4.03150492,50.92060013]]]}},{"type":"Feature","id":"gebouw/Gebouw.16411109/0","properties":{"source":"Digitaal Vlaanderen Gebouwenregister","source_id":"gebouw/Gebouw.16411109/0","kind":"building","height_m":5.72,"status":null},"geometry":{"type":"Polygon","coordinates":[[[4.03628059,50.92002427],[4.03621164,50.9199916],[4.03623683,50.91997035],[4.03630579,50.92000302],[4.03628059,50.92002427]]]}},{"type":"Feature","id":"gebouw/Gebouw.16427271/0","properties":{"source":"Digitaal Vlaanderen Gebouwenregister","source_id":"gebouw/Gebouw.16427271/0","kind":"building","height_m":5.0,"status":null},"geometry":{"type":"Polygon","coordinates":[[[4.03288287,50.920648],[4.03288395,50.92078394],[4.03279447,50.92078449],[4.03279418,50.92076543],[4.03277983,50.92076555],[4.03278042,50.92079647],[4.03272986,50.92079686],[4.03272979,50.92080595],[4.03266815,50.92080656],[4.03262287,50.92080701],[4.03262475,50.92088234],[4.03255109,50.92088307],[4.03255083,50.92087291],[4.03253569,50.92087307],[4.03253602,50.92089746],[4.03248563,50.92089765],[4.03248576,50.92090643],[4.03242622,50.92090683],[4.03242577,50.920898],[4.03241873,50.92089805],[4.0324163,50.92089807],[4.03241617,50.92089007],[4.03237527,50.92089001],[4.03237531,50.92089801],[4.03237335,50.92089802],[4.03236565,50.92089803],[4.03236566,50.92090707],[4.03230579,50.92090728],[4.03230559,50.92089879],[4.03225523,50.92089876],[4.03225525,50.92089007],[4.03222338,50.9208902],[4.0322238,50.92091247],[4.03217348,50.92091285],[4.03217354,50.92092186],[4.03211353,50.92092215],[4.0321131,50.92091359],[4.03206866,50.92091354],[4.03206884,50.92092254],[4.03195493,50.92092323],[4.03195452,50.92091445],[4.03191019,50.92091448],[4.03191013,50.92092364],[4.03185047,50.92092377],[4.03185029,50.92091514],[4.03179997,50.92091522],[4.03179937,50.92077435],[4.03185052,50.92077426],[4.03185049,50.920767],[4.03190731,50.9207669],[4.03190735,50.92077586],[4.03195278,50.92077578],[4.03195274,50.92076531],[4.03206627,50.92076511],[4.0320663,50.92077227],[4.03211263,50.92077219],[4.0321126,50.92076626],[4.03216862,50.92076616],[4.03216865,50.92077365],[4.0322206,50.92077356],[4.03222064,50.92078402],[4.03225295,50.92078397],[4.03225284,50.9207577],[4.03220871,50.92075778],[4.03220844,50.92069351],[4.03225451,50.92069343],[4.03225457,50.92070702],[4.03235771,50.92070684],[4.03235765,50.92069179],[4.03242697,50.92069167],[4.03242704,50.92070733],[4.03253239,50.92070715],[4.03253242,50.9207147],[4.03256431,50.92071465],[4.03256407,50.92065895],[4.03261231,50.92065887],[4.03261213,50.92061821],[4.03272578,50.92061801],[4.03272595,50.92065815],[4.03277705,50.92065806],[4.03277709,50.92066875],[4.03279179,50.92066873],[4.03279171,50.92064815],[4.03288287,50.920648]]]}},{"type":"Feature","id":"gebouw/Gebouw.16484198/0","properties":{"source":"Digitaal Vlaanderen Gebouwenregister","source_id":"gebouw/Gebouw.16484198/0","kind":"building","height_m":7.16,"status":null},"geometry":{"type":"Polygon","coordinates":[[[4.03673239,50.91956355],[4.03677305,50.91953234],[4.03682538,50.91955958],[4.03678473,50.91959079],[4.03673239,50.91956355]]]}},{"type":"Feature","id":"gebouw/Gebouw.16502643/0","properties":{"source":"Digitaal Vlaanderen Gebouwenregister","source_id":"gebouw/Gebouw.16502643/0","kind":"building","height_m":7.16,"status":null},"geometry":{"type":"Polygon","coordinates":[[[4.03692468,50.91984973],[4.03688246,50.91988618],[4.03668619,50.91978859],[4.03672741,50.91975351],[4.03673367,50.91975656],[4.03688475,50.91983125],[4.03692468,50.91984973]]]}},{"type":"Feature","id":"gebouw/Gebouw.16736721/0","properties":{"source":"Digitaal Vlaanderen Gebouwenregister","source_id":"gebouw/Gebouw.16736721/0","kind":"building","height_m":5.72,"status":null},"geometry":{"type":"Polygon","coordinates":[[[4.03700096,50.91791708],[4.03697731,50.91790357],[4.03692908,50.91793731],[4.03684183,50.91788747],[4.0368359,50.91789162],[4.0367735,50.91785597],[4.03689345,50.91776775],[4.03696925,50.91781105],[4.03697587,50.91780642],[4.03701224,50.9178272],[4.03700631,50.91783135],[4.03704657,50.91785435],[4.03701389,50.91787721],[4.03703815,50.91789107],[4.03700096,50.91791708]]]}},{"type":"Feature","id":"gebouw/Gebouw.16746271/0","properties":{"source":"Digitaal Vlaanderen Gebouwenregister","source_id":"gebouw/Gebouw.16746271/0","kind":"building","height_m":7.16,"status":null},"geometry":{"type":"Polygon","coordinates":[[[4.03420173,50.91978825],[4.03421004,50.91977863],[4.03426511,50.91971491],[4.03434356,50.91974336],[4.03431888,50.91977054],[4.03442216,50.919808],[4.03444827,50.91977924],[4.03452817,50.91980821],[4.03445953,50.91988384],[4.03433488,50.91983763],[4.03420173,50.91978825]]]}},{"type":"Feature","id":"gebouw/Gebouw.16746422/0","properties":{"source":"Digitaal Vlaanderen Gebouwenregister","source_id":"gebouw/Gebouw.16746422/0","kind":"building","height_m":5.0,"status":null},"geometry":{"type":"Polygon","coordinates":[[[4.03549589,50.91524391],[4.03512934,50.91537359],[4.03487318,50.91508424],[4.03523973,50.91495456],[4.03549589,50.91524391]]]}},{"type":"Feature","id":"gebouw/Gebouw.16754333/0","properties":{"source":"Digitaal Vlaanderen Gebouwenregister","source_id":"gebouw/Gebouw.16754333/0","kind":"building","height_m":5.72,"status":null},"geometry":{"type":"Polygon","coordinates":[[[4.02853417,50.91519384],[4.0284765,50.91515312],[4.02855981,50.91510063],[4.02862139,50.91514289],[4.02853417,50.91519384]]]}},{"type":"Feature","id":"gebouw/Gebouw.16754382/0","properties":{"source":"Digitaal Vlaanderen Gebouwenregister","source_id":"gebouw/Gebouw.16754382/0","kind":"building","height_m":5.72,"status":null},"geometry":{"type":"Polygon","coordinates":[[[4.02732286,50.91905909],[4.02728757,50.91902723],[4.02728295,50.91902935],[4.02720899,50.9190631],[4.02724045,50.91909338],[4.02732286,50.91905909]]]}},{"type":"Feature","id":"gebouw/Gebouw.16754462/0","properties":{"source":"Digitaal Vlaanderen Gebouwenregister","source_id":"gebouw/Gebouw.16754462/0","kind":"building","height_m":7.88,"status":null},"geometry":{"type":"Polygon","coordinates":[[[4.03418814,50.91532187],[4.03418083,50.91531342],[4.03396804,50.91538699],[4.03400511,50.91542984],[4.0341308,50.91538639],[4.03415405,50.91537835],[4.03421791,50.91535628],[4.03419455,50.91532928],[4.03418814,50.91532187]]]}},{"type":"Feature","id":"gebouw/Gebouw.16758807/0","properties":{"source":"Digitaal Vlaanderen Gebouwenregister","source_id":"gebouw/Gebouw.16758807/0","kind":"building","height_m":6.44,"status":null},"geometry":{"type":"Polygon","coordinates":[[[4.03412934,50.91921974],[4.03423768,50.91909887],[4.03430147,50.91912172],[4.03430533,50.91911742],[4.03432962,50.91912611],[4.03433972,50.91911993],[4.03435322,50.91911358],[4.03436795,50.91910968],[4.0343818,50.91910824],[4.03439575,50.91910828],[4.0344103,50.91911012],[4.0344226,50.91911319],[4.0344342,50.91911722],[4.03444419,50.91912229],[4.03445358,50.9191287],[4.03445844,50.91913437],[4.03446484,50.91914411],[4.03446655,50.91915806],[4.03446452,50.91917002],[4.03446469,50.91917385],[4.03447998,50.91918042],[4.03436428,50.9193095],[4.03434688,50.91930326],[4.03433335,50.91931052],[4.03431691,50.91931675],[4.03430257,50.91932004],[4.03428298,50.91932134],[4.03426497,50.9193186],[4.03424519,50.91931274],[4.03423129,50.91930632],[4.03422019,50.91929651],[4.03421275,50.9192843],[4.0342105,50.91926989],[4.0342119,50.91925958],[4.03421192,50.91925543],[4.03418962,50.91924694],[4.03419343,50.91924269],[4.03412934,50.91921974]]]}},{"type":"Feature","id":"gebouw/Gebouw.16760099/0","properties":{"source":"Digitaal Vlaanderen Gebouwenregister","source_id":"gebouw/Gebouw.16760099/0","kind":"building","height_m":9.32,"status":null},"geometry":{"type":"Polygon","coordinates":[[[4.02911848,50.91522436],[4.02915485,50.91524521],[4.02912448,50.91527033],[4.02908388,50.9152433],[4.02911848,50.91522436]]]}},{"type":"Feature","id":"gebouw/Gebouw.16761965/0","properties":{"source":"Digitaal Vlaanderen Gebouwenregister","source_id":"gebouw/Gebouw.16761965/0","kind":"building","height_m":7.16,"status":null},"geometry":{"type":"Polygon","coordinates":[[[4.03689185,50.91870709],[4.03687063,50.91881189],[4.03685819,50.91881089],[4.03670407,50.91879842],[4.03671163,50.91876109],[4.03673789,50.91876329],[4.03675209,50.91869541],[4.03689185,50.91870709]]]}},{"type":"Feature","id":"gebouw/Gebouw.16774666/0","properties":{"source":"Digitaal Vlaanderen Gebouwenregister","source_id":"gebouw/Gebouw.16774666/0","kind":"building","height_m":9.32,"status":null},"geometry":{"type":"Polygon","coordinates":[[[4.0367458,50.91644978],[4.03668275,50.91645236],[4.03668037,50.91642905],[4.036564,50.9164338],[4.03656034,50.91639799],[4.03655902,50.91639804],[4.03655705,50.91637837],[4.0365584,50.91637827],[4.03655035,50.9163003],[4.03660636,50.91629682],[4.03660219,50.9162699],[4.03657257,50.91625069],[4.03664184,50.91620801],[4.03667153,50.91622679],[4.03672039,50.91625769],[4.03667447,50.91628601],[4.03668273,50.91636859],[4.03673652,50.91636608],[4.0367458,50.91644978]]]}},{"type":"Feature","id":"gebouw/Gebouw.16774893/0","properties":{"source":"Digitaal Vlaanderen Gebouwenregister","source_id":"gebouw/Gebouw.16774893/0","kind":"building","height_m":6.44,"status":null},"geometry":{"type":"Polygon","coordinates":[[[4.02903339,50.91512315],[4.0289659,50.91516473],[4.02896256,50.91516251],[4.02886463,50.9150973],[4.02893274,50.91505612],[4.02903339,50.91512315]]]}},{"type":"Feature","id":"gebouw/Gebouw.16775261/0","properties":{"source":"Digitaal Vlaanderen Gebouwenregister","source_id":"gebouw/Gebouw.16775261/0","kind":"building","height_m":9.32,"status":null},"geometry":{"type":"Polygon","coordinates":[[[4.03653345,50.91621927],[4.0364936,50.91622054],[4.03649361,50.91624746],[4.03654335,50.91624523],[4.0366039,50.91621924],[4.03658545,50.91620102],[4.03653345,50.91621927]]]}},{"type":"Feature","id":"gebouw/Gebouw.16782170/0","properties":{"source":"Digitaal Vlaanderen Gebouwenregister","source_id":"gebouw/Gebouw.16782170/0","kind":"building","height_m":9.32,"status":null},"geometry":{"type":"Polygon","coordinates":[[[4.03705842,50.91510697],[4.03705342,50.91514959],[4.03694381,50.91514445],[4.03694882,50.91510183],[4.03705842,50.91510697]]]}},{"type":"Feature","id":"gebouw/Gebouw.16785474/0","properties":{"source":"Digitaal Vlaanderen Gebouwenregister","source_id":"gebouw/Gebouw.16785474/0","kind":"building","height_m":9.32,"status":null},"geometry":{"type":"Polygon","coordinates":[[[4.02841317,50.91511069],[4.02837286,50.91508264],[4.02832999,50.91510665],[4.02830302,50.91508747],[4.02825345,50.91511671],[4.02821033,50.91508563],[4.0283023,50.91503071],[4.02831107,50.91503649],[4.0283761,50.91499821],[4.02840649,50.91501885],[4.02842204,50.91500927],[4.02849634,50.91505828],[4.02841317,50.91511069]]]}},{"type":"Feature","id":"gebouw/Gebouw.16785962/0","properties":{"source":"Digitaal Vlaanderen Gebouwenregister","source_id":"gebouw/Gebouw.16785962/0","kind":"building","height_m":7.88,"status":null},"geometry":{"type":"Polygon","coordinates":[[[4.02910002,50.91508214],[4.02903339,50.91512315],[4.02893274,50.91505612],[4.02899841,50.91501624],[4.02910002,50.91508214]]]}},{"type":"Feature","id":"gebouw/Gebouw.16794235/0","properties":{"source":"Digitaal Vlaanderen Gebouwenregister","source_id":"gebouw/Gebouw.16794235/0","kind":"building","height_m":7.16,"status":null},"geometry":{"type":"Polygon","coordinates":[[[4.03369223,50.91950789],[4.0336725,50.91952458],[4.03363065,50.91955996],[4.03350283,50.91949955],[4.03354468,50.91946417],[4.03359897,50.91948983],[4.03361871,50.91947314],[4.03369223,50.91950789]]]}},{"type":"Feature","id":"gebouw/Gebouw.16801049/0","properties":{"source":"Digitaal Vlaanderen Gebouwenregister","source_id":"gebouw/Gebouw.16801049/0","kind":"building","height_m":9.32,"status":null},"geometry":{"type":"Polygon","coordinates":[[[4.02896256,50.91516251],[4.02886729,50.91522421],[4.02879921,50.91517888],[4.0287821,50.91516749],[4.02881447,50.91514785],[4.02879849,50.91513728],[4.02886463,50.9150973],[4.02896256,50.91516251]]]}},{"type":"Feature","id":"gebouw/Gebouw.16801199/0","properties":{"source":"Digitaal Vlaanderen Gebouwenregister","source_id":"gebouw/Gebouw.16801199/0","kind":"building","height_m":6.44,"status":null},"geometry":{"type":"Polygon","coordinates":[[[4.03674829,50.91845145],[4.03675003,50.91839838],[4.03680691,50.91839932],[4.0368103,50.91831758],[4.03695918,50.91832005],[4.03695479,50.91845416],[4.03674829,50.91845145]]]}},{"type":"Feature","id":"gebouw/Gebouw.16801344/0","properties":{"source":"Digitaal Vlaanderen Gebouwenregister","source_id":"gebouw/Gebouw.16801344/0","kind":"building","height_m":5.0,"status":null},"geometry":{"type":"Polygon","coordinates":[[[4.03559474,50.91535723],[4.0354585,50.91540427],[4.03541476,50.91535366],[4.035551,50.91530661],[4.03559474,50.91535723]]]}},{"type":"Feature","id":"gebouw/Gebouw.16801670/0","properties":{"source":"Digitaal Vlaanderen Gebouwenregister","source_id":"gebouw/Gebouw.16801670/0","kind":"building","height_m":7.88,"status":null},"geometry":{"type":"Polygon","coordinates":[[[4.03718533,50.91807003],[4.03714118,50.91810369],[4.0371057,50.91813074],[4.03705099,50.91809928],[4.03708836,50.9180718],[4.03713042,50.91804088],[4.03718533,50.91807003]]]}},{"type":"Feature","id":"gebouw/Gebouw.16801717/0","properties":{"source":"Digitaal Vlaanderen Gebouwenregister","source_id":"gebouw/Gebouw.16801717/0","kind":"building","height_m":6.44,"status":null},"geometry":{"type":"Polygon","coordinates":[[[4.03719167,50.91876265],[4.03719867,50.91872234],[4.03724249,50.91872538],[4.0372355,50.91876569],[4.03719167,50.91876265]]]}},{"type":"Feature","id":"gebouw/Gebouw.16812158/0","properties":{"source":"Digitaal Vlaanderen Gebouwenregister","source_id":"gebouw/Gebouw.16812158/0","kind":"building","height_m":9.32,"status":null},"geometry":{"type":"Polygon","coordinates":[[[4.0288687,50.91533731],[4.0289347,50.91529833],[4.02900849,50.91534727],[4.02881855,50.91545986],[4.02874396,50.91540936],[4.02881051,50.9153709],[4.02877856,50.91534995],[4.02883593,50.91531601],[4.0288687,50.91533731]]]}},{"type":"Feature","id":"gebouw/Gebouw.16813569/0","properties":{"source":"Digitaal Vlaanderen Gebouwenregister","source_id":"gebouw/Gebouw.16813569/0","kind":"building","height_m":7.16,"status":null},"geometry":{"type":"Polygon","coordinates":[[[4.03704337,50.91870221],[4.03704291,50.91870568],[4.03698752,50.91870278],[4.03699077,50.91867795],[4.03703922,50.91868049],[4.0370389,50.91868294],[4.03705934,50.91868401],[4.03705686,50.91870291],[4.03704337,50.91870221]]]}},{"type":"Feature","id":"gebouw/Gebouw.16828891/0","properties":{"source":"Digitaal Vlaanderen Gebouwenregister","source_id":"gebouw/Gebouw.16828891/0","kind":"building","height_m":6.44,"status":null},"geometry":{"type":"Polygon","coordinates":[[[4.03683319,50.91852051],[4.03684487,50.91852548],[4.03685557,50.91852119],[4.03701909,50.91853514],[4.03703489,50.91853648],[4.03703348,50.91854236],[4.03701646,50.91853904],[4.03698953,50.91854716],[4.03696778,50.91858095],[4.03696291,50.91858064],[4.03695994,50.9186022],[4.03696371,50.91860222],[4.03697177,50.91863637],[4.03674395,50.91861731],[4.0367457,50.91861371],[4.03675057,50.91861428],[4.03675191,50.91861439],[4.03675325,50.91861446],[4.0367546,50.91861449],[4.03675593,50.91861447],[4.03675723,50.91861446],[4.03675851,50.91861441],[4.03675979,50.91861434],[4.03676106,50.91861423],[4.03676234,50.91861411],[4.03676359,50.91861395],[4.03676484,50.91861376],[4.03676608,50.91861353],[4.03676702,50.91861331],[4.03676796,50.91861308],[4.03676887,50.91861282],[4.03676979,50.91861254],[4.03677087,50.91861239],[4.03677187,50.91861212],[4.03677278,50.91861172],[4.03677355,50.91861122],[4.03680857,50.91855351],[4.03680189,50.91855041],[4.03679687,50.91854622],[4.03679395,50.91854132],[4.03679335,50.91853609],[4.03679512,50.91853097],[4.03679912,50.91852637],[4.03680502,50.91852269],[4.03681233,50.91852021],[4.03681905,50.91851924],[4.03682505,50.91851922],[4.03682973,50.91851977],[4.03683319,50.91852051]]]}},{"type":"Feature","id":"gebouw/Gebouw.16840182/0","properties":{"source":"Digitaal Vlaanderen Gebouwenregister","source_id":"gebouw/Gebouw.16840182/0","kind":"building","height_m":6.44,"status":null},"geometry":{"type":"Polygon","coordinates":[[[4.03657661,50.91959052],[4.0365978,50.91959992],[4.03659344,50.91960385],[4.03658551,50.91961099],[4.03663517,50.91963317],[4.03661088,50.91965243],[4.03662911,50.9196605],[4.03659976,50.91968692],[4.03657633,50.91967982],[4.03655836,50.91967105],[4.03639832,50.91959299],[4.0364231,50.91953637],[4.03642822,50.91952468],[4.03657661,50.91959052]]]}},{"type":"Feature","id":"gebouw/Gebouw.16847204/0","properties":{"source":"Digitaal Vlaanderen Gebouwenregister","source_id":"gebouw/Gebouw.16847204/0","kind":"building","height_m":7.16,"status":null},"geometry":{"type":"Polygon","coordinates":[[[4.03408089,50.91888167],[4.03411115,50.91885571],[4.03421962,50.91890624],[4.03418936,50.9189322],[4.03408089,50.91888167]]]}},{"type":"Feature","id":"gebouw/Gebouw.16848103/0","properties":{"source":"Digitaal Vlaanderen Gebouwenregister","source_id":"gebouw/Gebouw.16848103/0","kind":"building","height_m":9.32,"status":null},"geometry":{"type":"Polygon","coordinates":[[[4.0292087,50.91520894],[4.02918801,50.9152261],[4.02916919,50.91524171],[4.02912742,50.91521984],[4.02915132,50.91520168],[4.02916915,50.91518813],[4.0292087,50.91520894]]]}},{"type":"Feature","id":"gebouw/Gebouw.17042814/0","properties":{"source":"Digitaal Vlaanderen Gebouwenregister","source_id":"gebouw/Gebouw.17042814/0","kind":"building","height_m":8.6,"status":null},"geometry":{"type":"Polygon","coordinates":[[[4.03459413,50.91521792],[4.03459911,50.9152235],[4.03462443,50.91521447],[4.03474762,50.91535245],[4.03477529,50.91534258],[4.034786,50.91535458],[4.03484186,50.91533465],[4.03489708,50.91539649],[4.03483902,50.91541721],[4.03489056,50.91547493],[4.0348997,50.91547169],[4.03491489,50.91548879],[4.03490581,50.91549202],[4.03499489,50.91559179],[4.03484966,50.91564361],[4.03450428,50.91525675],[4.0345713,50.91523284],[4.03456671,50.9152277],[4.03459413,50.91521792]]]}},{"type":"Feature","id":"gebouw/Gebouw.17043016/0","properties":{"source":"Digitaal Vlaanderen Gebouwenregister","source_id":"gebouw/Gebouw.17043016/0","kind":"building","height_m":7.88,"status":null},"geometry":{"type":"Polygon","coordinates":[[[4.03696839,50.91913621],[4.03701305,50.91912987],[4.03702377,50.91916006],[4.03702109,50.91916045],[4.03702498,50.91917139],[4.036983,50.91917735],[4.03696839,50.91913621]]]}},{"type":"Feature","id":"gebouw/Gebouw.17058338/0","properties":{"source":"Digitaal Vlaanderen Gebouwenregister","source_id":"gebouw/Gebouw.17058338/0","kind":"building","height_m":7.16,"status":null},"geometry":{"type":"Polygon","coordinates":[[[4.0284765,50.91515312],[4.0284453,50.91517279],[4.02838201,50.91513033],[4.02841317,50.91511069],[4.02849634,50.91505828],[4.02855981,50.91510063],[4.0284765,50.91515312]]]}},{"type":"Feature","id":"gebouw/Gebouw.17058681/0","properties":{"source":"Digitaal Vlaanderen Gebouwenregister","source_id":"gebouw/Gebouw.17058681/0","kind":"building","height_m":7.16,"status":null},"geometry":{"type":"Polygon","coordinates":[[[4.02865205,50.91526484],[4.0286102,50.91528929],[4.02855964,50.91531882],[4.02851998,50.91529319],[4.02856713,50.91526471],[4.02856344,50.91526226],[4.02856056,50.91526396],[4.02852848,50.91524272],[4.02857163,50.91521941],[4.02853417,50.91519384],[4.02862139,50.91514289],[4.02868664,50.91518693],[4.02866982,50.91519689],[4.02870223,50.91521657],[4.02863841,50.91525539],[4.02865205,50.91526484]]]}},{"type":"Feature","id":"gebouw/Gebouw.17059236/0","properties":{"source":"Digitaal Vlaanderen Gebouwenregister","source_id":"gebouw/Gebouw.17059236/0","kind":"building","height_m":8.6,"status":null},"geometry":{"type":"Polygon","coordinates":[[[4.03683765,50.91890426],[4.0368542,50.91889136],[4.03689385,50.91891169],[4.03687984,50.9189226],[4.03695294,50.91896007],[4.03689236,50.91900729],[4.03689561,50.91900896],[4.03681819,50.9190693],[4.0366563,50.91898593],[4.03671107,50.91894344],[4.03672436,50.91895025],[4.03680491,50.91888747],[4.03683765,50.91890426]]]}},{"type":"Feature","id":"gebouw/Gebouw.17120895/0","properties":{"source":"Digitaal Vlaanderen Gebouwenregister","source_id":"gebouw/Gebouw.17120895/0","kind":"building","height_m":5.72,"status":null},"geometry":{"type":"Polygon","coordinates":[[[4.03719852,50.91826571],[4.03715013,50.91823868],[4.03719018,50.91821003],[4.03736602,50.91830826],[4.03734528,50.9183231],[4.03721783,50.9182519],[4.03719852,50.91826571]]]}},{"type":"Feature","id":"gebouw/Gebouw.17120976/0","properties":{"source":"Digitaal Vlaanderen Gebouwenregister","source_id":"gebouw/Gebouw.17120976/0","kind":"building","height_m":8.6,"status":null},"geometry":{"type":"Polygon","coordinates":[[[4.03730411,50.91847734],[4.03728521,50.91850703],[4.03722377,50.9184914],[4.03724266,50.91846172],[4.03730411,50.91847734]]]}},{"type":"Feature","id":"gebouw/Gebouw.17121082/0","properties":{"source":"Digitaal Vlaanderen Gebouwenregister","source_id":"gebouw/Gebouw.17121082/0","kind":"building","height_m":9.32,"status":null},"geometry":{"type":"Polygon","coordinates":[[[4.03721387,50.91833786],[4.03715002,50.91838781],[4.0370031,50.91830436],[4.03688133,50.9182352],[4.03678037,50.91823388],[4.03678132,50.91819978],[4.03682177,50.91820137],[4.0368467,50.91818384],[4.03687867,50.91820157],[4.03690683,50.91818129],[4.03695771,50.91820953],[4.03697,50.91820067],[4.03702226,50.91822965],[4.03701075,50.91823795],[4.03705629,50.9182632],[4.03706628,50.91825601],[4.03721387,50.91833786]]]}},{"type":"Feature","id":"gebouw/Gebouw.18114774/0","properties":{"source":"Digitaal Vlaanderen Gebouwenregister","source_id":"gebouw/Gebouw.18114774/0","kind":"building","height_m":9.32,"status":null},"geometry":{"type":"Polygon","coordinates":[[[4.03196663,50.91496626],[4.03214236,50.914904],[4.0327122,50.91554595],[4.03218834,50.91573026],[4.03161782,50.91508982],[4.0317459,50.91504445],[4.03196663,50.91496626]]]}},{"type":"Feature","id":"gebouw/Gebouw.18729140/0","properties":{"source":"Digitaal Vlaanderen Gebouwenregister","source_id":"gebouw/Gebouw.18729140/0","kind":"building","height_m":7.16,"status":null},"geometry":{"type":"Polygon","coordinates":[[[4.03143079,50.91738525],[4.03139437,50.91742549],[4.03135759,50.91741189],[4.03139552,50.91737327],[4.03143079,50.91738525]]]}},{"type":"Feature","id":"gebouw/Gebouw.18729141/0","properties":{"source":"Digitaal Vlaanderen Gebouwenregister","source_id":"gebouw/Gebouw.18729141/0","kind":"building","height_m":7.88,"status":null},"geometry":{"type":"Polygon","coordinates":[[[4.03368043,50.91553423],[4.03364083,50.91554856],[4.03361102,50.91551813],[4.03365126,50.91550378],[4.03368043,50.91553423]]]}},{"type":"Feature","id":"gebouw/Gebouw.18729834/0","properties":{"source":"Digitaal Vlaanderen Gebouwenregister","source_id":"gebouw/Gebouw.18729834/0","kind":"building","height_m":7.88,"status":null},"geometry":{"type":"Polygon","coordinates":[[[4.03161312,50.92061647],[4.03161464,50.92064237],[4.03155887,50.92064192],[4.03155821,50.92061602],[4.03161312,50.92061647]]]}},{"type":"Feature","id":"gebouw/Gebouw.18730988/0","properties":{"source":"Digitaal Vlaanderen Gebouwenregister","source_id":"gebouw/Gebouw.18730988/0","kind":"building","height_m":7.16,"status":null},"geometry":{"type":"Polygon","coordinates":[[[4.0317542,50.91622586],[4.03175103,50.91627114],[4.03174016,50.9162708],[4.03171519,50.91627002],[4.03171571,50.91626344],[4.03171871,50.91622563],[4.0317542,50.91622586]]]}},{"type":"Feature","id":"gebouw/Gebouw.18730989/0","properties":{"source":"Digitaal Vlaanderen Gebouwenregister","source_id":"gebouw/Gebouw.18730989/0","kind":"building","height_m":7.88,"status":null},"geometry":{"type":"Polygon","coordinates":[[[4.03166822,50.91624915],[4.03168609,50.91624975],[4.03168612,50.91625454],[4.03168624,50.91627199],[4.03167955,50.91627178],[4.0316137,50.91626974],[4.03161441,50.91625258],[4.03161462,50.91624736],[4.03166822,50.91624915]]]}},{"type":"Feature","id":"gebouw/Gebouw.18730990/0","properties":{"source":"Digitaal Vlaanderen Gebouwenregister","source_id":"gebouw/Gebouw.18730990/0","kind":"building","height_m":8.6,"status":null},"geometry":{"type":"Polygon","coordinates":[[[4.03175562,50.91618622],[4.03175297,50.91620834],[4.03173314,50.91620708],[4.03168928,50.9162043],[4.03168052,50.91620374],[4.031681,50.91619177],[4.03168136,50.91618303],[4.03175562,50.91618622]]]}},{"type":"Feature","id":"gebouw/Gebouw.18951876/0","properties":{"source":"Digitaal Vlaanderen Gebouwenregister","source_id":"gebouw/Gebouw.18951876/0","kind":"building","height_m":9.32,"status":null},"geometry":{"type":"Polygon","coordinates":[[[4.03624862,50.9203237],[4.03622831,50.9203146],[4.0360411,50.92028486],[4.03599316,50.92027725],[4.03596071,50.92036833],[4.03600353,50.92037421],[4.03602944,50.92038378],[4.03598767,50.92041616],[4.03601489,50.92042775],[4.03596844,50.92046674],[4.03595103,50.9205169],[4.03601442,50.92052697],[4.03624862,50.9203237]]]}},{"type":"Feature","id":"gebouw/Gebouw.18951897/0","properties":{"source":"Digitaal Vlaanderen Gebouwenregister","source_id":"gebouw/Gebouw.18951897/0","kind":"building","height_m":9.32,"status":null},"geometry":{"type":"Polygon","coordinates":[[[4.03239407,50.92133684],[4.03238971,50.92144924],[4.03218706,50.9214461],[4.03216348,50.92144573],[4.03216442,50.92142152],[4.03216784,50.92133335],[4.03239407,50.92133684]]]}},{"type":"Feature","id":"gebouw/Gebouw.19006853/0","properties":{"source":"Digitaal Vlaanderen Gebouwenregister","source_id":"gebouw/Gebouw.19006853/0","kind":"building","height_m":8.6,"status":null},"geometry":{"type":"Polygon","coordinates":[[[4.03382212,50.92142674],[4.03382482,50.92138363],[4.03382744,50.92137882],[4.03383222,50.92137473],[4.0338387,50.92137173],[4.0338463,50.92137008],[4.03385435,50.92136995],[4.03386208,50.92137133],[4.03386882,50.92137411],[4.03387392,50.92137804],[4.03387695,50.92138275],[4.03398119,50.92138535],[4.03398165,50.92137219],[4.03405815,50.92137334],[4.03405597,50.92143191],[4.03399326,50.92143034],[4.03399091,50.92146803],[4.03381981,50.92146375],[4.03381999,50.92146082],[4.03382212,50.92142674]]]}},{"type":"Feature","id":"gebouw/Gebouw.19007292/0","properties":{"source":"Digitaal Vlaanderen Gebouwenregister","source_id":"gebouw/Gebouw.19007292/0","kind":"building","height_m":7.16,"status":null},"geometry":{"type":"Polygon","coordinates":[[[4.03324883,50.92137152],[4.03334875,50.92137392],[4.03334071,50.92150787],[4.03323858,50.92150541],[4.03324877,50.92137152],[4.03324883,50.92137152]]]}},{"type":"Feature","id":"gebouw/Gebouw.19014149/0","properties":{"source":"Digitaal Vlaanderen Gebouwenregister","source_id":"gebouw/Gebouw.19014149/0","kind":"building","height_m":5.0,"status":null},"geometry":{"type":"Polygon","coordinates":[[[4.03318072,50.92094847],[4.0329958,50.92094822],[4.03299582,50.92094243],[4.03299591,50.92091474],[4.0329961,50.9208569],[4.03318106,50.92085715],[4.03318072,50.92094847]]]}},{"type":"Feature","id":"gebouw/Gebouw.19845576/0","properties":{"source":"Digitaal Vlaanderen Gebouwenregister","source_id":"gebouw/Gebouw.19845576/0","kind":"building","height_m":6.44,"status":null},"geometry":{"type":"Polygon","coordinates":[[[4.03661088,50.91965243],[4.03661689,50.91964766],[4.0365417,50.91961626],[4.0365738,50.91958927],[4.03643328,50.919526],[4.03643171,50.91952572],[4.03643154,50.91952615],[4.03640238,50.91959496],[4.03655836,50.91967105],[4.03657633,50.91967982],[4.03661088,50.91965243]]]}},{"type":"Feature","id":"gebouw/Gebouw.19845577/0","properties":{"source":"Digitaal Vlaanderen Gebouwenregister","source_id":"gebouw/Gebouw.19845577/0","kind":"building","height_m":7.16,"status":null},"geometry":{"type":"Polygon","coordinates":[[[4.03659976,50.91968692],[4.03657633,50.91967982],[4.03661088,50.91965243],[4.03662911,50.9196605],[4.03665331,50.91967123],[4.03662396,50.91969766],[4.03659976,50.91968692]]]}},{"type":"Feature","id":"gebouw/Gebouw.19864665/0","properties":{"source":"Digitaal Vlaanderen Gebouwenregister","source_id":"gebouw/Gebouw.19864665/0","kind":"building","height_m":6.44,"status":null},"geometry":{"type":"Polygon","coordinates":[[[4.03691838,50.91942276],[4.03685089,50.91938775],[4.03681594,50.91936962],[4.03675294,50.91933693],[4.03663255,50.91927448],[4.03652583,50.9193542],[4.03658752,50.91938525],[4.03655842,50.91940715],[4.03656114,50.91940856],[4.03672838,50.91949532],[4.03677716,50.91952062],[4.03688124,50.91957462],[4.03691042,50.91955283],[4.03697328,50.9195864],[4.03708114,50.91950719],[4.03691838,50.91942276]]]}},{"type":"Feature","id":"gebouw/Gebouw.19864666/0","properties":{"source":"Digitaal Vlaanderen Gebouwenregister","source_id":"gebouw/Gebouw.19864666/0","kind":"building","height_m":7.16,"status":null},"geometry":{"type":"Polygon","coordinates":[[[4.03677716,50.91952062],[4.0367604,50.91953391],[4.03674316,50.91954757],[4.03671825,50.9195343],[4.03673549,50.91952141],[4.03666979,50.91948632],[4.03667291,50.91948399],[4.0366503,50.91947192],[4.03664416,50.91947624],[4.03654146,50.91942326],[4.03656114,50.91940856],[4.03672838,50.91949532],[4.03677716,50.91952062]]]}},{"type":"Feature","id":"gebouw/Gebouw.19880281/0","properties":{"source":"Digitaal Vlaanderen Gebouwenregister","source_id":"gebouw/Gebouw.19880281/0","kind":"building","height_m":5.72,"status":null},"geometry":{"type":"Polygon","coordinates":[[[4.03367126,50.91952562],[4.03363065,50.91955996],[4.03350283,50.91949955],[4.03354559,50.9194634],[4.03359897,50.91948983],[4.03367126,50.91952562]]]}},{"type":"Feature","id":"gebouw/Gebouw.19880282/0","properties":{"source":"Digitaal Vlaanderen Gebouwenregister","source_id":"gebouw/Gebouw.19880282/0","kind":"building","height_m":6.44,"status":null},"geometry":{"type":"Polygon","coordinates":[[[4.03367126,50.91952562],[4.03359897,50.91948983],[4.03361871,50.91947314],[4.03369223,50.91950789],[4.03367126,50.91952562]]]}},{"type":"Feature","id":"gebouw/Gebouw.20145807/0","properties":{"source":"Digitaal Vlaanderen Gebouwenregister","source_id":"gebouw/Gebouw.20145807/0","kind":"building","height_m":7.16,"status":null},"geometry":{"type":"Polygon","coordinates":[[[4.03314916,50.92069188],[4.03311345,50.92066352],[4.03322518,50.92060731],[4.03326088,50.92063567],[4.03314916,50.92069188]]]}},{"type":"Feature","id":"gebouw/Gebouw.20145810/0","properties":{"source":"Digitaal Vlaanderen Gebouwenregister","source_id":"gebouw/Gebouw.20145810/0","kind":"building","height_m":9.32,"status":null},"geometry":{"type":"Polygon","coordinates":[[[4.0338491,50.91548829],[4.03379254,50.91549888],[4.03377033,50.91545148],[4.03382689,50.91544089],[4.0338491,50.91548829]]]}},{"type":"Feature","id":"gebouw/Gebouw.20145811/0","properties":{"source":"Digitaal Vlaanderen Gebouwenregister","source_id":"gebouw/Gebouw.20145811/0","kind":"building","height_m":5.0,"status":null},"geometry":{"type":"Polygon","coordinates":[[[4.03386185,50.91547398],[4.03384408,50.91542539],[4.03390311,50.91541676],[4.03392088,50.91546536],[4.03386185,50.91547398]]]}},{"type":"Feature","id":"gebouw/Gebouw.20146065/0","properties":{"source":"Digitaal Vlaanderen Gebouwenregister","source_id":"gebouw/Gebouw.20146065/0","kind":"building","height_m":6.44,"status":null},"geometry":{"type":"Polygon","coordinates":[[[4.03645774,50.92077081],[4.03638536,50.92081688],[4.03631813,50.92077469],[4.03639051,50.92072861],[4.03645774,50.92077081]]]}},{"type":"Feature","id":"gebouw/Gebouw.20146066/0","properties":{"source":"Digitaal Vlaanderen Gebouwenregister","source_id":"gebouw/Gebouw.20146066/0","kind":"building","height_m":7.16,"status":null},"geometry":{"type":"Polygon","coordinates":[[[4.03670916,50.91864694],[4.03664573,50.91864337],[4.03665147,50.91860266],[4.03669669,50.91860521],[4.03669454,50.91862042],[4.03671276,50.91862145],[4.03670916,50.91864694]]]}},{"type":"Feature","id":"gebouw/Gebouw.20146072/0","properties":{"source":"Digitaal Vlaanderen Gebouwenregister","source_id":"gebouw/Gebouw.20146072/0","kind":"building","height_m":6.44,"status":null},"geometry":{"type":"Polygon","coordinates":[[[4.03360404,50.92160703],[4.03360819,50.92154548],[4.03367096,50.92154717],[4.03366681,50.92160872],[4.03360404,50.92160703]]]}},{"type":"Feature","id":"gebouw/Gebouw.20146999/0","properties":{"source":"Digitaal Vlaanderen Gebouwenregister","source_id":"gebouw/Gebouw.20146999/0","kind":"building","height_m":8.6,"status":null},"geometry":{"type":"Polygon","coordinates":[[[4.03692758,50.92051023],[4.03730703,50.9202757],[4.03747529,50.92012223],[4.03768386,50.92025705],[4.03709377,50.92062178],[4.03692432,50.92051225],[4.03692758,50.92051023]]]}},{"type":"Feature","id":"gebouw/Gebouw.30909773/0","properties":{"source":"Digitaal Vlaanderen Gebouwenregister","source_id":"gebouw/Gebouw.30909773/0","kind":"building","height_m":9.32,"status":null},"geometry":{"type":"Polygon","coordinates":[[[4.03623272,50.91981478],[4.03618542,50.91980758],[4.03619625,50.91977913],[4.03624355,50.91978633],[4.03623272,50.91981478]]]}},{"type":"Feature","id":"gebouw/Gebouw.30909775/0","properties":{"source":"Digitaal Vlaanderen Gebouwenregister","source_id":"gebouw/Gebouw.30909775/0","kind":"building","height_m":5.72,"status":null},"geometry":{"type":"Polygon","coordinates":[[[4.02997356,50.92160435],[4.02999001,50.92160523],[4.02997403,50.9217253],[4.02991595,50.92172222],[4.0299293,50.9216219],[4.02993193,50.92160214],[4.02997356,50.92160435]]]}},{"type":"Feature","id":"gebouw/Gebouw.30910079/0","properties":{"source":"Digitaal Vlaanderen Gebouwenregister","source_id":"gebouw/Gebouw.30910079/0","kind":"building","height_m":7.88,"status":null},"geometry":{"type":"Polygon","coordinates":[[[4.03669056,50.91801521],[4.03678071,50.91801286],[4.03678459,50.91807276],[4.03689177,50.91807003],[4.03690097,50.9182106],[4.03670368,50.91821576],[4.03669056,50.91801521]]]}},{"type":"Feature","id":"gebouw/Gebouw.31144702/0","properties":{"source":"Digitaal Vlaanderen Gebouwenregister","source_id":"gebouw/Gebouw.31144702/0","kind":"building","height_m":5.72,"status":null},"geometry":{"type":"Polygon","coordinates":[[[4.03546533,50.91886983],[4.03515796,50.91871568],[4.03523079,50.91865765],[4.03553817,50.9188118],[4.03546533,50.91886983]]]}},{"type":"Feature","id":"gebouw/Gebouw.31457277/0","properties":{"source":"Digitaal Vlaanderen Gebouwenregister","source_id":"gebouw/Gebouw.31457277/0","kind":"building","height_m":8.6,"status":null},"geometry":{"type":"Polygon","coordinates":[[[4.03651598,50.9194822],[4.03645816,50.9194662],[4.0364575,50.91946777],[4.03643328,50.919526],[4.0365738,50.91958927],[4.03657661,50.91959052],[4.03658712,50.91959518],[4.03661483,50.91957091],[4.03659891,50.91956364],[4.03663165,50.91953496],[4.03651598,50.9194822]]]}},{"type":"Feature","id":"gebouw/Gebouw.31805139/0","properties":{"source":"Digitaal Vlaanderen Gebouwenregister","source_id":"gebouw/Gebouw.31805139/0","kind":"building","height_m":6.44,"status":null},"geometry":{"type":"Polygon","coordinates":[[[4.02717945,50.91905353],[4.02725602,50.91902089],[4.02723313,50.91899943],[4.02715656,50.91903207],[4.02717945,50.91905353]]]}},{"type":"Feature","id":"gebouw/Gebouw.31805393/0","properties":{"source":"Digitaal Vlaanderen Gebouwenregister","source_id":"gebouw/Gebouw.31805393/0","kind":"building","height_m":7.88,"status":null},"geometry":{"type":"Polygon","coordinates":[[[4.03258806,50.92128183],[4.03258843,50.92130087],[4.03261094,50.92131382],[4.03264473,50.92131296],[4.03266495,50.92129791],[4.03266304,50.92127736],[4.03264025,50.92126524],[4.03260959,50.92126663],[4.03258806,50.92128183]]]}},{"type":"Feature","id":"gebouw/Gebouw.31943656/0","properties":{"source":"Digitaal Vlaanderen Gebouwenregister","source_id":"gebouw/Gebouw.31943656/0","kind":"building","height_m":7.16,"status":null},"geometry":{"type":"Polygon","coordinates":[[[4.0373467,50.918194],[4.0372847,50.91816236],[4.03743485,50.9180448],[4.03749685,50.91807643],[4.0373467,50.918194]]]}},{"type":"Feature","id":"gebouw/Gebouw.31943657/0","properties":{"source":"Digitaal Vlaanderen Gebouwenregister","source_id":"gebouw/Gebouw.31943657/0","kind":"building","height_m":7.88,"status":null},"geometry":{"type":"Polygon","coordinates":[[[4.0372847,50.91816349],[4.03743307,50.91804479],[4.03736044,50.91800851],[4.03721206,50.9181272],[4.0372847,50.91816349]]]}},{"type":"Feature","id":"gebouw/Gebouw.32033664/0","properties":{"source":"Digitaal Vlaanderen Gebouwenregister","source_id":"gebouw/Gebouw.32033664/0","kind":"building","height_m":8.6,"status":null},"geometry":{"type":"Polygon","coordinates":[[[4.03707599,50.91921145],[4.03709078,50.91918164],[4.03704754,50.91917306],[4.03703274,50.91920288],[4.03707599,50.91921145]]]}},{"type":"Feature","id":"gebouw/Gebouw.32033787/0","properties":{"source":"Digitaal Vlaanderen Gebouwenregister","source_id":"gebouw/Gebouw.32033787/0","kind":"building","height_m":6.44,"status":null},"geometry":{"type":"Polygon","coordinates":[[[4.03396946,50.92173789],[4.03392965,50.92170982],[4.03388298,50.92173626],[4.03392278,50.92176433],[4.03396946,50.92173789]]]}},{"type":"Feature","id":"gebouw/Gebouw.32033933/0","properties":{"source":"Digitaal Vlaanderen Gebouwenregister","source_id":"gebouw/Gebouw.32033933/0","kind":"building","height_m":5.72,"status":null},"geometry":{"type":"Polygon","coordinates":[[[4.03673064,50.91908375],[4.03666505,50.91908022],[4.03666035,50.91911506],[4.03672595,50.91911859],[4.03673064,50.91908375]]]}},{"type":"Feature","id":"way/161419995","properties":{"source":"OpenStreetMap","source_id":"way/161419995","kind":"vegetation","name":null,"waterway":null,"landuse":"forest"},"geometry":{"type":"Polygon","coordinates":[[[4.0364846,50.9182441],[4.0359776,50.9185252],[4.036135,50.9186299],[4.0360009,50.918944],[4.0368518,50.9193078],[4.0369276,50.9192582],[4.0370383,50.9193243],[4.0371257,50.9192692],[4.0370554,50.9191729],[4.0369218,50.91899],[4.0364846,50.9182441]]]}},{"type":"Feature","id":"way/161419998","properties":{"source":"OpenStreetMap","source_id":"way/161419998","kind":"vegetation","name":null,"waterway":null,"landuse":"forest"},"geometry":{"type":"Polygon","coordinates":[[[4.0283395,50.922173],[4.0281414,50.9220647],[4.0275323,50.921914],[4.0274624,50.9218901],[4.02734,50.9219159],[4.0271739,50.9218424],[4.0282171,50.9211535],[4.0291992,50.9205344],[4.0293206,50.9206037],[4.0289165,50.9208541],[4.0294993,50.9213133],[4.0283395,50.922173]]]}},{"type":"Feature","id":"way/161420007","properties":{"source":"OpenStreetMap","source_id":"way/161420007","kind":"vegetation","name":null,"waterway":null,"landuse":"forest"},"geometry":{"type":"Polygon","coordinates":[[[4.0337483,50.9173083],[4.0332356,50.9175339],[4.0332489,50.9174986],[4.0332609,50.9174363],[4.0332609,50.9173757],[4.0332436,50.9173167],[4.0332102,50.9172747],[4.0331394,50.9172124],[4.0333117,50.9172603],[4.0334198,50.917289],[4.0335013,50.9172991],[4.0335787,50.9173066],[4.0336481,50.9173066],[4.0337483,50.9173083]]]}},{"type":"Feature","id":"way/161420015","properties":{"source":"OpenStreetMap","source_id":"way/161420015","kind":"vegetation","name":null,"waterway":null,"landuse":"forest"},"geometry":{"type":"Polygon","coordinates":[[[4.0306755,50.9151743],[4.0307447,50.9151284],[4.0309583,50.9152041],[4.0311265,50.9152681],[4.0313375,50.9153456],[4.0314069,50.9153607],[4.0314897,50.9153506],[4.0315591,50.9153136],[4.0316205,50.9152698],[4.0316606,50.9152429],[4.031738,50.9152328],[4.0317674,50.9152412],[4.031714,50.9152866],[4.0317033,50.9153472],[4.03168,50.9155385],[4.0313665,50.9154647],[4.0309323,50.9153171],[4.0306755,50.9151743]]]}},{"type":"Feature","id":"way/161420020","properties":{"source":"OpenStreetMap","source_id":"way/161420020","kind":"vegetation","name":null,"waterway":null,"landuse":"forest"},"geometry":{"type":"Polygon","coordinates":[[[4.0314321,50.9192244],[4.0314302,50.9193327],[4.0314566,50.9193339],[4.0313754,50.9200457],[4.0313377,50.9201826],[4.0312848,50.9202707],[4.0312376,50.9203064],[4.0311715,50.9203326],[4.0311092,50.9203421],[4.031045,50.9203481],[4.0309846,50.9203362],[4.0309166,50.92031],[4.0303842,50.9199731],[4.0303577,50.919941],[4.0303445,50.9199077],[4.0303502,50.9198601],[4.0303804,50.9198124],[4.0304427,50.919772],[4.0314321,50.9192244]]]}},{"type":"Feature","id":"way/161420022","properties":{"source":"OpenStreetMap","source_id":"way/161420022","kind":"vegetation","name":null,"waterway":null,"landuse":"forest"},"geometry":{"type":"Polygon","coordinates":[[[4.0322313,50.9178937],[4.032071,50.9179762],[4.0320897,50.9178853],[4.0320523,50.9178836],[4.0321164,50.9174611],[4.0321859,50.9173079],[4.0322713,50.9172271],[4.0323941,50.9171985],[4.0324983,50.917185],[4.0326398,50.9171833],[4.0327333,50.9172002],[4.0328267,50.9172254],[4.0327386,50.9173382],[4.0326051,50.9173163],[4.0324983,50.9173348],[4.0323835,50.9173786],[4.0323915,50.9176277],[4.0323007,50.9176227],[4.0322313,50.9178937]]]}},{"type":"Feature","id":"way/161420039","properties":{"source":"OpenStreetMap","source_id":"way/161420039","kind":"vegetation","name":null,"waterway":null,"landuse":"forest"},"geometry":{"type":"Polygon","coordinates":[[[4.0278406,50.9156224],[4.0287699,50.9150584],[4.0290262,50.9152149],[4.0287859,50.9153648],[4.0289435,50.9154843],[4.029077,50.9155264],[4.0292826,50.9154102],[4.0296271,50.9156089],[4.0298647,50.9157469],[4.0300944,50.9155786],[4.0301611,50.9156089],[4.0294829,50.9161341],[4.0293915,50.916099],[4.0297285,50.9157857],[4.0297232,50.9157351],[4.0294295,50.9156813],[4.0291357,50.9156644],[4.0287939,50.9156813],[4.0285055,50.9157688],[4.028372,50.9157015],[4.0282145,50.9156156],[4.0280463,50.9156106],[4.0279285,50.9156808],[4.0278406,50.9156224]]]}},{"type":"Feature","id":"way/161420043","properties":{"source":"OpenStreetMap","source_id":"way/161420043","kind":"vegetation","name":null,"waterway":null,"landuse":"forest"},"geometry":{"type":"Polygon","coordinates":[[[4.0319859,50.918919],[4.0323224,50.9187995],[4.0325467,50.9187473],[4.0327309,50.9187338],[4.0329152,50.9187423],[4.0330754,50.9187726],[4.0332009,50.9188163],[4.0332917,50.9188685],[4.0333745,50.9189308],[4.0334599,50.9190183],[4.033508,50.9191092],[4.0335213,50.9192052],[4.0335106,50.9192759],[4.0334465,50.919382],[4.0333825,50.9194426],[4.0332863,50.9194964],[4.0331769,50.9195385],[4.0330487,50.9195688],[4.0328831,50.9195806],[4.0327042,50.9195688],[4.0325841,50.9195503],[4.0324666,50.9195183],[4.0323197,50.9194644],[4.0322182,50.9194139],[4.0321381,50.919355],[4.0320527,50.9192826],[4.0320073,50.9192187],[4.0319405,50.9191261],[4.0319432,50.9190857],[4.0319832,50.9190874],[4.0319859,50.918919]]]}},{"type":"Feature","id":"way/161420044","properties":{"source":"OpenStreetMap","source_id":"way/161420044","kind":"vegetation","name":null,"waterway":null,"landuse":"forest"},"geometry":{"type":"Polygon","coordinates":[[[4.0295938,50.9180604],[4.0295002,50.9180655],[4.0294972,50.9179024],[4.0296105,50.9176333],[4.0297389,50.9175336],[4.0299013,50.9174289],[4.0302412,50.9172765],[4.0306906,50.9170932],[4.0310795,50.9169194],[4.0313665,50.9167004],[4.0315478,50.9164504],[4.0316079,50.9162704],[4.0317153,50.9162752],[4.0317077,50.916393],[4.0316794,50.9165382],[4.0316511,50.916612],[4.0316152,50.9166882],[4.0315491,50.9167716],[4.0314566,50.9168394],[4.0312281,50.9169561],[4.0308863,50.9171084],[4.0304143,50.9172953],[4.0301235,50.917412],[4.0299536,50.9175001],[4.029863,50.9175536],[4.0297893,50.9176191],[4.0297176,50.9177024],[4.0296741,50.9177643],[4.0296269,50.9178584],[4.0296043,50.9179405],[4.0295948,50.9180048],[4.0295938,50.9180604]]]}},{"type":"Feature","id":"way/161420046","properties":{"source":"OpenStreetMap","source_id":"way/161420046","kind":"vegetation","name":null,"waterway":null,"landuse":"forest"},"geometry":{"type":"Polygon","coordinates":[[[4.0322312,50.9163993],[4.0322369,50.9163193],[4.0326607,50.9164375],[4.0331981,50.9162593],[4.0331564,50.9163517],[4.033232,50.9164255],[4.0334094,50.9165493],[4.0335529,50.9166088],[4.033738,50.9166398],[4.0339419,50.9166874],[4.0341269,50.9166993],[4.0342591,50.9166541],[4.0343346,50.9165779],[4.0344277,50.9165203],[4.0346783,50.916854],[4.0341307,50.9170874],[4.0338702,50.9171778],[4.0337078,50.9171969],[4.0335341,50.9171826],[4.0334094,50.9171659],[4.0327146,50.9169612],[4.0325296,50.9168921],[4.0323861,50.9168041],[4.0322728,50.9167207],[4.0322463,50.9166231],[4.0322312,50.916516],[4.0322312,50.9163993]]]}},{"type":"Feature","id":"way/161420049","properties":{"source":"OpenStreetMap","source_id":"way/161420049","kind":"vegetation","name":null,"waterway":null,"landuse":"forest"},"geometry":{"type":"Polygon","coordinates":[[[4.0315371,50.9182478],[4.0309782,50.9184609],[4.0308479,50.9184906],[4.0307346,50.9184978],[4.0306421,50.9184954],[4.0305363,50.9184751],[4.0304514,50.9184513],[4.0303588,50.9184156],[4.0302946,50.9183799],[4.0302191,50.9183323],[4.0301474,50.9182633],[4.0300983,50.9182026],[4.0300586,50.9181407],[4.0300454,50.9180383],[4.0300586,50.9179728],[4.0301058,50.917874],[4.0301927,50.9177776],[4.0302455,50.9177347],[4.03034,50.9176847],[4.03044,50.9176419],[4.0305665,50.9176109],[4.0306572,50.9175859],[4.0308082,50.9175836],[4.0309291,50.9175871],[4.0310782,50.9176157],[4.0312047,50.9176586],[4.0312878,50.9177014],[4.0313879,50.9177562],[4.0314521,50.9178169],[4.031505,50.9178788],[4.0315503,50.9179585],[4.0315692,50.9180419],[4.0315748,50.9181252],[4.0315503,50.9181276],[4.0315371,50.9182478]]]}},{"type":"Feature","id":"way/161420057","properties":{"source":"OpenStreetMap","source_id":"way/161420057","kind":"vegetation","name":null,"waterway":null,"landuse":"forest"},"geometry":{"type":"Polygon","coordinates":[[[4.0366799,50.9210643],[4.0346139,50.9201048],[4.0338099,50.9197715],[4.0334893,50.9198817],[4.0330522,50.9199809],[4.032755,50.9200544],[4.0324986,50.9201903],[4.0322713,50.9203703],[4.0320556,50.920521],[4.0319973,50.9206312],[4.0319536,50.9207024],[4.0318575,50.9206826],[4.0319245,50.9205375],[4.0321285,50.9203226],[4.0323645,50.9201389],[4.0326443,50.9199974],[4.0329386,50.9199092],[4.0332387,50.9198376],[4.0334893,50.9197751],[4.0336817,50.9196998],[4.0338186,50.9195859],[4.0339294,50.9194536],[4.0339935,50.9192791],[4.0339993,50.9191211],[4.0339585,50.9189999],[4.0338886,50.9187629],[4.0338798,50.9186159],[4.0339236,50.9183844],[4.0340285,50.9181971],[4.034212,50.9179693],[4.0343898,50.9178223],[4.0345734,50.9176937],[4.0348211,50.9175816],[4.0353165,50.9173795],[4.0355904,50.917262],[4.0358265,50.917126],[4.0361791,50.9169349],[4.0364209,50.9168229],[4.0373214,50.916494],[4.0373541,50.9166114],[4.0374683,50.9173101],[4.0374561,50.9176426],[4.0374602,50.9177748],[4.0375394,50.9185412],[4.0375378,50.9187102],[4.0375065,50.9188792],[4.0374943,50.9190255],[4.0374634,50.9191499],[4.0370888,50.9200187],[4.0367128,50.9209296],[4.0366799,50.9210643]]]}},{"type":"Feature","id":"way/161420058","properties":{"source":"OpenStreetMap","source_id":"way/161420058","kind":"vegetation","name":null,"waterway":null,"landuse":"forest"},"geometry":{"type":"Polygon","coordinates":[[[4.0306315,50.9186066],[4.030482,50.9187338],[4.0307127,50.9187602],[4.0298461,50.9192411],[4.0298933,50.9191697],[4.0299952,50.9189959],[4.0300424,50.9188304],[4.0300349,50.9186876],[4.0300103,50.9185804],[4.0299367,50.9184221],[4.029863,50.9183245],[4.0298043,50.9182201],[4.0297589,50.918077],[4.0297669,50.9179861],[4.0297776,50.9179087],[4.0298096,50.9178279],[4.0298684,50.9177471],[4.0299699,50.9176444],[4.0300633,50.917572],[4.0301942,50.9175097],[4.0304906,50.9173936],[4.0310567,50.9171579],[4.0313584,50.9170283],[4.031548,50.9169087],[4.0317468,50.9167408],[4.0316533,50.9177645],[4.031625,50.9177943],[4.0314985,50.9176836],[4.0313305,50.9175848],[4.0311907,50.9175312],[4.0310284,50.9174919],[4.030883,50.9174764],[4.0307074,50.9174788],[4.0305299,50.9175002],[4.0303788,50.9175383],[4.0302467,50.9175919],[4.0301277,50.9176478],[4.0300352,50.9177336],[4.0299615,50.9178264],[4.0299106,50.9179109],[4.0298936,50.9179978],[4.0298804,50.9180811],[4.0299011,50.9181787],[4.0299408,50.9182454],[4.0300125,50.9183311],[4.0300994,50.9184037],[4.0301843,50.9184668],[4.030309,50.9185228],[4.0303996,50.9185525],[4.0305223,50.9185894],[4.0306315,50.9186066]]]}},{"type":"Feature","id":"way/161420067","properties":{"source":"OpenStreetMap","source_id":"way/161420067","kind":"vegetation","name":null,"waterway":null,"landuse":"forest"},"geometry":{"type":"Polygon","coordinates":[[[4.0320269,50.9202088],[4.0317852,50.9201874],[4.0318683,50.919347],[4.0319211,50.9193351],[4.032008,50.919447],[4.032159,50.9195303],[4.0322988,50.9195946],[4.0324876,50.9196541],[4.0326386,50.9196827],[4.032801,50.9196946],[4.0329407,50.9196803],[4.0330993,50.9196708],[4.0332655,50.9196351],[4.0333599,50.919597],[4.0334619,50.919547],[4.0335449,50.9194827],[4.0335922,50.9194292],[4.0336431,50.9193554],[4.0336771,50.9192875],[4.0336903,50.9192268],[4.0336903,50.919159],[4.0336771,50.9190994],[4.033645,50.9190256],[4.0335884,50.9189364],[4.0334864,50.9188519],[4.0333637,50.9187673],[4.0332693,50.9187245],[4.0331447,50.918684],[4.0330068,50.9186495],[4.0328916,50.918634],[4.0327311,50.9186269],[4.0326009,50.9186352],[4.0324895,50.9186483],[4.0323951,50.9186662],[4.0323158,50.9186852],[4.034151,50.9178222],[4.0340793,50.9178972],[4.0339245,50.9180638],[4.0338301,50.9181972],[4.0337696,50.9183138],[4.0337243,50.9184614],[4.0337073,50.9185769],[4.033696,50.9187138],[4.0337168,50.9188126],[4.0337772,50.9190006],[4.0338112,50.9191232],[4.0338131,50.9192173],[4.0337866,50.9193304],[4.0337281,50.9194458],[4.0336526,50.9195208],[4.0335412,50.9196077],[4.0334354,50.9196601],[4.0333391,50.919691],[4.0332051,50.9197244],[4.033037,50.9197601],[4.0328916,50.9197982],[4.0327406,50.9198351],[4.0325083,50.9199172],[4.0323497,50.9199839],[4.0322383,50.9200541],[4.0321402,50.9201195],[4.0320269,50.9202088]]]}},{"type":"Feature","id":"way/161420078","properties":{"source":"OpenStreetMap","source_id":"way/161420078","kind":"vegetation","name":null,"waterway":null,"landuse":"forest"},"geometry":{"type":"Polygon","coordinates":[[[4.0328998,50.9172722],[4.0330055,50.9173472],[4.0330376,50.9174151],[4.0330263,50.9174627],[4.0329999,50.9175008],[4.0329394,50.9175365],[4.0323957,50.9177877],[4.0328998,50.9172722]]]}},{"type":"Feature","id":"way/327402370","properties":{"source":"OpenStreetMap","source_id":"way/327402370","kind":"vegetation","name":null,"waterway":null,"landuse":"forest"},"geometry":{"type":"Polygon","coordinates":[[[4.0362388,50.9216124],[4.0361931,50.9215846],[4.0361632,50.9215493],[4.0361521,50.92151],[4.0361609,50.9214704],[4.0361886,50.9214344],[4.0362326,50.9214056],[4.0362885,50.9213868],[4.036351,50.9213798],[4.0364138,50.9213853],[4.0364708,50.9214028],[4.0365165,50.9214305],[4.0365464,50.9214658],[4.0365575,50.9215051],[4.0365488,50.9215447],[4.036521,50.9215807],[4.0364771,50.9216095],[4.0364211,50.9216283],[4.0363587,50.9216353],[4.0362958,50.9216298],[4.0362388,50.9216124]]]}},{"type":"Feature","id":"way/327402371","properties":{"source":"OpenStreetMap","source_id":"way/327402371","kind":"vegetation","name":null,"waterway":null,"landuse":"forest"},"geometry":{"type":"Polygon","coordinates":[[[4.0344277,50.9165203],[4.0346896,50.9165564],[4.0349086,50.916535],[4.0349577,50.9164588],[4.0349502,50.9163565],[4.0349691,50.9162969],[4.0351088,50.9162565],[4.0351239,50.9161374],[4.0350484,50.9159589],[4.0348762,50.9157438],[4.0354131,50.915564],[4.0356942,50.9158644],[4.035606,50.915893],[4.0358671,50.9161732],[4.0369058,50.9157878],[4.0362768,50.9151143],[4.0365001,50.9150315],[4.0368799,50.915416],[4.0372122,50.9156708],[4.0374388,50.9158374],[4.0375785,50.9159946],[4.0357394,50.916585],[4.0350446,50.9167541],[4.0346783,50.916854],[4.0344277,50.9165203]]]}},{"type":"Feature","id":"way/562975537","properties":{"source":"OpenStreetMap","source_id":"way/562975537","kind":"waterway","name":"Hoezebeek","waterway":"stream","landuse":null},"geometry":{"type":"LineString","coordinates":[[4.0284365,50.921119],[4.0283662,50.9211722],[4.0280148,50.9213761],[4.0279272,50.9214634],[4.0279167,50.9215815],[4.0278271,50.9216783],[4.0276556,50.9218273],[4.0275892,50.9219279]]}},{"type":"Feature","id":"way/563842123","properties":{"source":"OpenStreetMap","source_id":"way/563842123","kind":"waterway","name":"Hoezebeek","waterway":"stream","landuse":null},"geometry":{"type":"LineString","coordinates":[[4.0274493,50.9204466],[4.0284365,50.921119]]}}]}