{"type":"FeatureCollection","features":[{"type":"Feature","id":"gebouw/Gebouw.16736718/0","properties":{"source":"Digitaal Vlaanderen Gebouwenregister","source_id":"gebouw/Gebouw.16736718/0","kind":"building","height_m":8.6,"status":null},"geometry":{"type":"Polygon","coordinates":[[[4.02827919,50.90691469],[4.02810465,50.90679822],[4.02813105,50.90678136],[4.0280733,50.9067427],[4.02819107,50.90667288],[4.02842397,50.90683156],[4.02827919,50.90691469]]]}},{"type":"Feature","id":"gebouw/Gebouw.16745689/0","properties":{"source":"Digitaal Vlaanderen Gebouwenregister","source_id":"gebouw/Gebouw.16745689/0","kind":"building","height_m":6.44,"status":null},"geometry":{"type":"Polygon","coordinates":[[[4.02761679,50.90662555],[4.02755445,50.90666926],[4.02753014,50.9066553],[4.02759131,50.90661223],[4.02761679,50.90662555]]]}},{"type":"Feature","id":"gebouw/Gebouw.16751605/0","properties":{"source":"Digitaal Vlaanderen Gebouwenregister","source_id":"gebouw/Gebouw.16751605/0","kind":"building","height_m":7.16,"status":null},"geometry":{"type":"Polygon","coordinates":[[[4.02687803,50.90807868],[4.02683141,50.90811931],[4.02678463,50.90809881],[4.02674597,50.90808187],[4.02683005,50.90801129],[4.026913,50.9080482],[4.02687951,50.90807739],[4.02687803,50.90807868]]]}},{"type":"Feature","id":"gebouw/Gebouw.16758610/0","properties":{"source":"Digitaal Vlaanderen Gebouwenregister","source_id":"gebouw/Gebouw.16758610/0","kind":"building","height_m":5.72,"status":null},"geometry":{"type":"Polygon","coordinates":[[[4.02765717,50.90657095],[4.02767799,50.90655873],[4.02768865,50.90655247],[4.02785531,50.90645464],[4.02778712,50.90640814],[4.02766124,50.90648195],[4.02766692,50.90648619],[4.02762687,50.90651069],[4.0275922,50.90648704],[4.02751751,50.90653088],[4.02750779,50.90653658],[4.02745719,50.90656629],[4.02749451,50.9065917],[4.02754495,50.9065621],[4.02754909,50.90656492],[4.02760143,50.90653364],[4.02765717,50.90657095]]]}},{"type":"Feature","id":"gebouw/Gebouw.16758765/0","properties":{"source":"Digitaal Vlaanderen Gebouwenregister","source_id":"gebouw/Gebouw.16758765/0","kind":"building","height_m":6.44,"status":null},"geometry":{"type":"Polygon","coordinates":[[[4.02740814,50.90701709],[4.02673489,50.90730821],[4.0266764,50.90733351],[4.02663742,50.90735036],[4.02671096,50.9074194],[4.02720926,50.90720377],[4.02720663,50.9072012],[4.02728059,50.90717001],[4.02727615,50.90716533],[4.02732905,50.90714299],[4.02732069,50.90713507],[4.02737589,50.90711177],[4.02739321,50.90712816],[4.02748421,50.90708647],[4.02740814,50.90701709]]]}},{"type":"Feature","id":"gebouw/Gebouw.16759065/0","properties":{"source":"Digitaal Vlaanderen Gebouwenregister","source_id":"gebouw/Gebouw.16759065/0","kind":"building","height_m":5.72,"status":null},"geometry":{"type":"Polygon","coordinates":[[[4.02683379,50.90652433],[4.02677486,50.90654334],[4.02675995,50.90652415],[4.02682226,50.90650359],[4.02683379,50.90652433]]]}},{"type":"Feature","id":"gebouw/Gebouw.16759069/0","properties":{"source":"Digitaal Vlaanderen Gebouwenregister","source_id":"gebouw/Gebouw.16759069/0","kind":"building","height_m":8.6,"status":null},"geometry":{"type":"Polygon","coordinates":[[[4.02724824,50.90753098],[4.02721628,50.90756215],[4.02715916,50.90753873],[4.02719113,50.90750756],[4.02724824,50.90753098]]]}},{"type":"Feature","id":"gebouw/Gebouw.16760410/0","properties":{"source":"Digitaal Vlaanderen Gebouwenregister","source_id":"gebouw/Gebouw.16760410/0","kind":"building","height_m":6.44,"status":null},"geometry":{"type":"Polygon","coordinates":[[[4.02744183,50.90678267],[4.02741778,50.90679632],[4.02736057,50.90675602],[4.02737901,50.90674556],[4.02739788,50.90675885],[4.02740349,50.90675567],[4.02744183,50.90678267]]]}},{"type":"Feature","id":"gebouw/Gebouw.16762017/0","properties":{"source":"Digitaal Vlaanderen Gebouwenregister","source_id":"gebouw/Gebouw.16762017/0","kind":"building","height_m":9.32,"status":null},"geometry":{"type":"Polygon","coordinates":[[[4.02691264,50.90789994],[4.02687803,50.90788525],[4.02692506,50.90784317],[4.02695909,50.90785838],[4.02691264,50.90789994]]]}},{"type":"Feature","id":"gebouw/Gebouw.16762065/0","properties":{"source":"Digitaal Vlaanderen Gebouwenregister","source_id":"gebouw/Gebouw.16762065/0","kind":"building","height_m":8.6,"status":null},"geometry":{"type":"Polygon","coordinates":[[[4.02702858,50.9068659],[4.02700323,50.90684491],[4.0270485,50.90682304],[4.02707386,50.90684403],[4.02702858,50.9068659]]]}},{"type":"Feature","id":"gebouw/Gebouw.16772934/0","properties":{"source":"Digitaal Vlaanderen Gebouwenregister","source_id":"gebouw/Gebouw.16772934/0","kind":"building","height_m":7.16,"status":null},"geometry":{"type":"Polygon","coordinates":[[[4.02704469,50.90803994],[4.02706659,50.90816411],[4.02692601,50.90817565],[4.02691448,50.90812084],[4.02693919,50.90810548],[4.02704469,50.90803994]]]}},{"type":"Feature","id":"gebouw/Gebouw.16774640/0","properties":{"source":"Digitaal Vlaanderen Gebouwenregister","source_id":"gebouw/Gebouw.16774640/0","kind":"building","height_m":5.72,"status":null},"geometry":{"type":"Polygon","coordinates":[[[4.02734732,50.90688643],[4.02739165,50.90693091],[4.02724591,50.90699068],[4.02720067,50.9069463],[4.02734732,50.90688643]]]}},{"type":"Feature","id":"gebouw/Gebouw.16783810/0","properties":{"source":"Digitaal Vlaanderen Gebouwenregister","source_id":"gebouw/Gebouw.16783810/0","kind":"building","height_m":5.72,"status":null},"geometry":{"type":"Polygon","coordinates":[[[4.02755552,50.90675083],[4.02755058,50.90674787],[4.02753328,50.90675884],[4.02751538,50.90674646],[4.02753296,50.90673576],[4.02753071,50.90673423],[4.02756976,50.90670836],[4.02759599,50.90672545],[4.02755552,50.90675083]]]}},{"type":"Feature","id":"gebouw/Gebouw.16785455/0","properties":{"source":"Digitaal Vlaanderen Gebouwenregister","source_id":"gebouw/Gebouw.16785455/0","kind":"building","height_m":5.72,"status":null},"geometry":{"type":"Polygon","coordinates":[[[4.02742821,50.90691025],[4.02740295,50.90688338],[4.02743833,50.90687009],[4.02746359,50.90689695],[4.02742821,50.90691025]]]}},{"type":"Feature","id":"gebouw/Gebouw.16785519/0","properties":{"source":"Digitaal Vlaanderen Gebouwenregister","source_id":"gebouw/Gebouw.16785519/0","kind":"building","height_m":6.44,"status":null},"geometry":{"type":"Polygon","coordinates":[[[4.02689195,50.90747379],[4.02692046,50.90749978],[4.02684813,50.90752981],[4.02682092,50.90750397],[4.02689195,50.90747379]]]}},{"type":"Feature","id":"gebouw/Gebouw.16786053/0","properties":{"source":"Digitaal Vlaanderen Gebouwenregister","source_id":"gebouw/Gebouw.16786053/0","kind":"building","height_m":7.88,"status":null},"geometry":{"type":"Polygon","coordinates":[[[4.02739538,50.90741253],[4.02702169,50.9075754],[4.02695557,50.90751431],[4.02729677,50.90736238],[4.02732621,50.90738706],[4.0273493,50.90737593],[4.02735261,50.90737901],[4.02737917,50.90736614],[4.02740635,50.90739201],[4.02738362,50.90740212],[4.02739538,50.90741253]]]}},{"type":"Feature","id":"gebouw/Gebouw.16794840/0","properties":{"source":"Digitaal Vlaanderen Gebouwenregister","source_id":"gebouw/Gebouw.16794840/0","kind":"building","height_m":9.32,"status":null},"geometry":{"type":"Polygon","coordinates":[[[4.02689487,50.90770459],[4.026836,50.9076727],[4.02688041,50.90763992],[4.02693929,50.90767181],[4.02689487,50.90770459]]]}},{"type":"Feature","id":"gebouw/Gebouw.16797635/0","properties":{"source":"Digitaal Vlaanderen Gebouwenregister","source_id":"gebouw/Gebouw.16797635/0","kind":"building","height_m":5.72,"status":null},"geometry":{"type":"Polygon","coordinates":[[[4.02746056,50.90680911],[4.0274391,50.90679504],[4.02750229,50.90675653],[4.02752375,50.9067706],[4.02746056,50.90680911]]]}},{"type":"Feature","id":"gebouw/Gebouw.16800910/0","properties":{"source":"Digitaal Vlaanderen Gebouwenregister","source_id":"gebouw/Gebouw.16800910/0","kind":"building","height_m":5.0,"status":null},"geometry":{"type":"Polygon","coordinates":[[[4.02731685,50.9066855],[4.02727875,50.90670668],[4.02724218,50.90668038],[4.02728028,50.9066592],[4.02731685,50.9066855]]]}},{"type":"Feature","id":"gebouw/Gebouw.16811891/0","properties":{"source":"Digitaal Vlaanderen Gebouwenregister","source_id":"gebouw/Gebouw.16811891/0","kind":"building","height_m":8.6,"status":null},"geometry":{"type":"Polygon","coordinates":[[[4.02766716,50.90669147],[4.02761338,50.90672304],[4.02758156,50.90670049],[4.02763614,50.90666988],[4.02766716,50.90669147]]]}},{"type":"Feature","id":"gebouw/Gebouw.16812056/0","properties":{"source":"Digitaal Vlaanderen Gebouwenregister","source_id":"gebouw/Gebouw.16812056/0","kind":"building","height_m":6.44,"status":null},"geometry":{"type":"Polygon","coordinates":[[[4.0279235,50.90650112],[4.02776008,50.90659696],[4.02779217,50.90661809],[4.02771522,50.90666326],[4.02766895,50.90669042],[4.02763811,50.90666935],[4.02764808,50.9066506],[4.02766216,50.90664236],[4.02767322,50.90663554],[4.02773621,50.9065967],[4.02767798,50.90655873],[4.02768864,50.90655247],[4.02785531,50.90645464],[4.0279235,50.90650112]]]}},{"type":"Feature","id":"gebouw/Gebouw.16821146/0","properties":{"source":"Digitaal Vlaanderen Gebouwenregister","source_id":"gebouw/Gebouw.16821146/0","kind":"building","height_m":9.32,"status":null},"geometry":{"type":"Polygon","coordinates":[[[4.02776954,50.90758796],[4.02769494,50.90762869],[4.02762978,50.90758168],[4.0275447,50.90752028],[4.02761736,50.90748272],[4.02776954,50.90758796]]]}},{"type":"Feature","id":"gebouw/Gebouw.16828483/0","properties":{"source":"Digitaal Vlaanderen Gebouwenregister","source_id":"gebouw/Gebouw.16828483/0","kind":"building","height_m":5.0,"status":null},"geometry":{"type":"Polygon","coordinates":[[[4.02745288,50.90650606],[4.02740038,50.90645358],[4.02716889,50.90653632],[4.02715179,50.90654243],[4.02657221,50.9067496],[4.02660353,50.90678342],[4.0266347,50.90681706],[4.02703485,50.90667467],[4.02712113,50.90664397],[4.02715858,50.90663064],[4.02716238,50.90662929],[4.02718794,50.9066202],[4.02732059,50.90657299],[4.027335,50.90656786],[4.02732321,50.90655368],[4.02745288,50.90650606]]]}},{"type":"Feature","id":"gebouw/Gebouw.17058690/0","properties":{"source":"Digitaal Vlaanderen Gebouwenregister","source_id":"gebouw/Gebouw.17058690/0","kind":"building","height_m":8.6,"status":null},"geometry":{"type":"Polygon","coordinates":[[[4.02781197,50.90681412],[4.02782173,50.90680739],[4.02778809,50.90678521],[4.02784278,50.90675392],[4.02787515,50.90677488],[4.02788224,50.90677046],[4.02794126,50.90681014],[4.02795156,50.90680351],[4.0279706,50.90681653],[4.02797961,50.90681112],[4.028005,50.90682821],[4.02799534,50.90683403],[4.0280131,50.90684664],[4.02793201,50.90689479],[4.02781197,50.90681412]]]}},{"type":"Feature","id":"gebouw/Gebouw.18161212/0","properties":{"source":"Digitaal Vlaanderen Gebouwenregister","source_id":"gebouw/Gebouw.18161212/0","kind":"building","height_m":9.32,"status":null},"geometry":{"type":"Polygon","coordinates":[[[4.03525919,50.90801474],[4.03590991,50.90778435],[4.03632566,50.90825498],[4.03567811,50.9084877],[4.03525919,50.90801474]]]}},{"type":"Feature","id":"gebouw/Gebouw.18729227/0","properties":{"source":"Digitaal Vlaanderen Gebouwenregister","source_id":"gebouw/Gebouw.18729227/0","kind":"building","height_m":9.32,"status":null},"geometry":{"type":"Polygon","coordinates":[[[4.03731869,50.90639148],[4.03649474,50.90653859],[4.03634903,50.9062049],[4.03722839,50.90604828],[4.03725452,50.90610687],[4.0371963,50.90611729],[4.03731869,50.90639148]]]}},{"type":"Feature","id":"gebouw/Gebouw.18729365/0","properties":{"source":"Digitaal Vlaanderen Gebouwenregister","source_id":"gebouw/Gebouw.18729365/0","kind":"building","height_m":7.88,"status":null},"geometry":{"type":"Polygon","coordinates":[[[4.02737272,50.90672894],[4.02734345,50.90674652],[4.02730424,50.90672153],[4.02733052,50.90670491],[4.02737272,50.90672894]]]}},{"type":"Feature","id":"gebouw/Gebouw.18729500/0","properties":{"source":"Digitaal Vlaanderen Gebouwenregister","source_id":"gebouw/Gebouw.18729500/0","kind":"building","height_m":9.32,"status":null},"geometry":{"type":"Polygon","coordinates":[[[4.0273113,50.90784555],[4.02725843,50.90788486],[4.0272186,50.9078634],[4.02727262,50.90782446],[4.0273113,50.90784555]]]}},{"type":"Feature","id":"gebouw/Gebouw.18729501/0","properties":{"source":"Digitaal Vlaanderen Gebouwenregister","source_id":"gebouw/Gebouw.18729501/0","kind":"building","height_m":5.0,"status":null},"geometry":{"type":"Polygon","coordinates":[[[4.02753845,50.90737135],[4.02752434,50.90737743],[4.0275347,50.90738608],[4.02749705,50.90740314],[4.02747466,50.90738366],[4.02752831,50.90736141],[4.02753845,50.90737135]]]}},{"type":"Feature","id":"gebouw/Gebouw.18729503/0","properties":{"source":"Digitaal Vlaanderen Gebouwenregister","source_id":"gebouw/Gebouw.18729503/0","kind":"building","height_m":6.44,"status":null},"geometry":{"type":"Polygon","coordinates":[[[4.02723501,50.90688993],[4.02719507,50.90690936],[4.02716511,50.90688368],[4.0272068,50.90686486],[4.02723501,50.90688993]]]}},{"type":"Feature","id":"gebouw/Gebouw.18729504/0","properties":{"source":"Digitaal Vlaanderen Gebouwenregister","source_id":"gebouw/Gebouw.18729504/0","kind":"building","height_m":7.16,"status":null},"geometry":{"type":"Polygon","coordinates":[[[4.02710559,50.90675032],[4.02705273,50.90670979],[4.0270136,50.90672465],[4.02701056,50.9067258],[4.02709901,50.90679693],[4.02714007,50.90677675],[4.02710565,50.90675036],[4.02710559,50.90675032]]]}},{"type":"Feature","id":"gebouw/Gebouw.18963531/0","properties":{"source":"Digitaal Vlaanderen Gebouwenregister","source_id":"gebouw/Gebouw.18963531/0","kind":"building","height_m":9.32,"status":null},"geometry":{"type":"Polygon","coordinates":[[[4.0341262,50.90715263],[4.03388496,50.90661163],[4.03387128,50.90658096],[4.03278066,50.90677537],[4.03313564,50.90699427],[4.0336569,50.90690075],[4.03379617,50.90721308],[4.03379985,50.90721243],[4.0338683,50.90736593],[4.03411317,50.90732228],[4.03404322,50.90716685],[4.0341262,50.90715263]]]}},{"type":"Feature","id":"gebouw/Gebouw.19790206/0","properties":{"source":"Digitaal Vlaanderen Gebouwenregister","source_id":"gebouw/Gebouw.19790206/0","kind":"building","height_m":6.44,"status":null},"geometry":{"type":"Polygon","coordinates":[[[4.03562288,50.9065122],[4.0356937,50.90649967],[4.03582316,50.90647675],[4.03589593,50.90646387],[4.03612989,50.90699223],[4.0359313,50.90702738],[4.03596505,50.90710362],[4.03530149,50.90722107],[4.03524099,50.90708444],[4.03486202,50.90715159],[4.03473543,50.90686597],[4.03498288,50.90682213],[4.03495802,50.90676603],[4.03502485,50.90675419],[4.03501587,50.90673335],[4.03566952,50.90661753],[4.03562288,50.9065122]]]}},{"type":"Feature","id":"gebouw/Gebouw.19880561/0","properties":{"source":"Digitaal Vlaanderen Gebouwenregister","source_id":"gebouw/Gebouw.19880561/0","kind":"building","height_m":5.72,"status":null},"geometry":{"type":"Polygon","coordinates":[[[4.02732059,50.90657299],[4.02718794,50.9066202],[4.02716238,50.90662929],[4.02715858,50.90663064],[4.02712113,50.90664397],[4.0271508,50.9066778],[4.0272628,50.90663852],[4.02726798,50.9066436],[4.02735671,50.90661248],[4.02732059,50.90657299]]]}},{"type":"Feature","id":"gebouw/Gebouw.19880866/0","properties":{"source":"Digitaal Vlaanderen Gebouwenregister","source_id":"gebouw/Gebouw.19880866/0","kind":"building","height_m":8.6,"status":null},"geometry":{"type":"Polygon","coordinates":[[[4.02779217,50.90661809],[4.02776008,50.90659696],[4.0279235,50.90650112],[4.02785531,50.90645464],[4.02768865,50.90655247],[4.02767799,50.90655873],[4.02773621,50.9065967],[4.02767322,50.90663554],[4.02767121,50.90663678],[4.02771239,50.90666492],[4.02771522,50.90666326],[4.02779217,50.90661809]]]}},{"type":"Feature","id":"gebouw/Gebouw.19880867/0","properties":{"source":"Digitaal Vlaanderen Gebouwenregister","source_id":"gebouw/Gebouw.19880867/0","kind":"building","height_m":9.32,"status":null},"geometry":{"type":"Polygon","coordinates":[[[4.02771239,50.90666492],[4.02766895,50.90669042],[4.02763811,50.90666935],[4.02764808,50.9066506],[4.02766216,50.90664236],[4.02767121,50.90663678],[4.02771239,50.90666492]]]}},{"type":"Feature","id":"gebouw/Gebouw.20146075/0","properties":{"source":"Digitaal Vlaanderen Gebouwenregister","source_id":"gebouw/Gebouw.20146075/0","kind":"building","height_m":8.6,"status":null},"geometry":{"type":"Polygon","coordinates":[[[4.02774696,50.90688148],[4.02778512,50.90685378],[4.02782349,50.90687491],[4.02778533,50.90690261],[4.02774696,50.90688148]]]}},{"type":"Feature","id":"gebouw/Gebouw.30642654/0","properties":{"source":"Digitaal Vlaanderen Gebouwenregister","source_id":"gebouw/Gebouw.30642654/0","kind":"building","height_m":5.0,"status":null},"geometry":{"type":"Polygon","coordinates":[[[4.03483771,50.9060741],[4.03451284,50.9061325],[4.03437095,50.90581693],[4.03436897,50.90581252],[4.0340387,50.90587188],[4.03385273,50.90545824],[4.03383799,50.90542545],[4.03405244,50.9053869],[4.03406497,50.90541477],[4.03443404,50.90534843],[4.03443964,50.90536088],[4.0347682,50.90530182],[4.03477154,50.90530925],[4.03482612,50.90543065],[4.0346342,50.90546515],[4.03473562,50.90569071],[4.03468168,50.90570041],[4.0347067,50.90575606],[4.03469561,50.90575805],[4.03469605,50.90575903],[4.03483771,50.9060741]]]}},{"type":"Feature","id":"gebouw/Gebouw.30642655/0","properties":{"source":"Digitaal Vlaanderen Gebouwenregister","source_id":"gebouw/Gebouw.30642655/0","kind":"building","height_m":5.72,"status":null},"geometry":{"type":"Polygon","coordinates":[[[4.03296479,50.90662086],[4.03333445,50.90655542],[4.03335629,50.90660474],[4.0337601,50.90653325],[4.03362956,50.90623844],[4.03364234,50.90623618],[4.03342248,50.90573965],[4.03263424,50.90587919],[4.03228539,50.90594094],[4.03236397,50.9061184],[4.03244972,50.90614738],[4.03251188,50.906289],[4.03279458,50.90623896],[4.03280354,50.90625905],[4.03296479,50.90662086]]]}},{"type":"Feature","id":"gebouw/Gebouw.30642656/0","properties":{"source":"Digitaal Vlaanderen Gebouwenregister","source_id":"gebouw/Gebouw.30642656/0","kind":"building","height_m":6.44,"status":null},"geometry":{"type":"Polygon","coordinates":[[[4.03348764,50.90751569],[4.03354551,50.90750469],[4.03356662,50.90754908],[4.03350875,50.90756008],[4.03348764,50.90751569]]]}},{"type":"Feature","id":"gebouw/Gebouw.30642657/0","properties":{"source":"Digitaal Vlaanderen Gebouwenregister","source_id":"gebouw/Gebouw.30642657/0","kind":"building","height_m":7.16,"status":null},"geometry":{"type":"Polygon","coordinates":[[[4.03223084,50.90826865],[4.03234687,50.90824841],[4.03236387,50.90828737],[4.03224784,50.9083076],[4.03223084,50.90826865]]]}},{"type":"Feature","id":"gebouw/Gebouw.30643816/0","properties":{"source":"Digitaal Vlaanderen Gebouwenregister","source_id":"gebouw/Gebouw.30643816/0","kind":"building","height_m":5.0,"status":null},"geometry":{"type":"Polygon","coordinates":[[[4.02718158,50.90751225],[4.02722523,50.90755352],[4.02718793,50.9075693],[4.02714427,50.90752802],[4.02718158,50.90751225]]]}},{"type":"Feature","id":"gebouw/Gebouw.31524178/0","properties":{"source":"Digitaal Vlaanderen Gebouwenregister","source_id":"gebouw/Gebouw.31524178/0","kind":"building","height_m":5.0,"status":null},"geometry":{"type":"Polygon","coordinates":[[[4.03546172,50.90635287],[4.03545151,50.90633001],[4.03543593,50.90633274],[4.03540547,50.90633808],[4.0354157,50.90636105],[4.03544613,50.90635564],[4.03546172,50.90635287]]]}},{"type":"Feature","id":"gebouw/Gebouw.31527701/0","properties":{"source":"Digitaal Vlaanderen Gebouwenregister","source_id":"gebouw/Gebouw.31527701/0","kind":"building","height_m":6.44,"status":null},"geometry":{"type":"Polygon","coordinates":[[[4.0339284,50.90579821],[4.03389629,50.90580405],[4.03390854,50.90583098],[4.03394065,50.90582514],[4.0339284,50.90579821]]]}},{"type":"Feature","id":"gebouw/Gebouw.31528586/0","properties":{"source":"Digitaal Vlaanderen Gebouwenregister","source_id":"gebouw/Gebouw.31528586/0","kind":"building","height_m":8.6,"status":null},"geometry":{"type":"Polygon","coordinates":[[[4.03736259,50.90582546],[4.03735358,50.90580512],[4.03728348,50.90581753],[4.0372839,50.90581847],[4.03729248,50.90583772],[4.03729356,50.90584012],[4.03736359,50.90582773],[4.03736259,50.90582546]]]}},{"type":"Feature","id":"gebouw/Gebouw.31531817/0","properties":{"source":"Digitaal Vlaanderen Gebouwenregister","source_id":"gebouw/Gebouw.31531817/0","kind":"building","height_m":6.44,"status":null},"geometry":{"type":"Polygon","coordinates":[[[4.03459573,50.90632111],[4.03458457,50.90629535],[4.03455015,50.90630131],[4.03456138,50.90632722],[4.03459573,50.90632111]]]}},{"type":"Feature","id":"gebouw/Gebouw.31534000/0","properties":{"source":"Digitaal Vlaanderen Gebouwenregister","source_id":"gebouw/Gebouw.31534000/0","kind":"building","height_m":5.72,"status":null},"geometry":{"type":"Polygon","coordinates":[[[4.0341945,50.90728241],[4.03420486,50.90730527],[4.03425185,50.90729675],[4.03424149,50.9072739],[4.0341945,50.90728241]]]}},{"type":"Feature","id":"gebouw/Gebouw.31545977/0","properties":{"source":"Digitaal Vlaanderen Gebouwenregister","source_id":"gebouw/Gebouw.31545977/0","kind":"building","height_m":5.72,"status":null},"geometry":{"type":"Polygon","coordinates":[[[4.03427324,50.9073389],[4.03426254,50.90731464],[4.03421411,50.90732321],[4.03422473,50.9073474],[4.03427324,50.9073389]]]}},{"type":"Feature","id":"gebouw/Gebouw.31678147/0","properties":{"source":"Digitaal Vlaanderen Gebouwenregister","source_id":"gebouw/Gebouw.31678147/0","kind":"building","height_m":7.88,"status":null},"geometry":{"type":"Polygon","coordinates":[[[4.03452486,50.9061349],[4.03483805,50.90607736],[4.03469365,50.90576315],[4.03438046,50.90582069],[4.03452486,50.9061349]]]}},{"type":"Feature","id":"gebouw/Gebouw.31806682/0","properties":{"source":"Digitaal Vlaanderen Gebouwenregister","source_id":"gebouw/Gebouw.31806682/0","kind":"building","height_m":8.6,"status":null},"geometry":{"type":"Polygon","coordinates":[[[4.02790878,50.90789463],[4.02790539,50.90789809],[4.02790249,50.90790199],[4.02790024,50.9079063],[4.02789881,50.90791097],[4.02789836,50.90791591],[4.027899,50.90792098],[4.02790081,50.90792605],[4.02790377,50.90793095],[4.02790781,50.90793554],[4.0279128,50.90793967],[4.02791853,50.90794324],[4.0279248,50.90794619],[4.02793138,50.9079485],[4.02793806,50.90795018],[4.02794465,50.90795128],[4.02795102,50.90795186],[4.02795745,50.90795199],[4.02796424,50.90795163],[4.02797128,50.9079507],[4.02797839,50.90794915],[4.02798537,50.90794693],[4.027992,50.90794404],[4.02799805,50.90794052],[4.02800328,50.90793644],[4.02800754,50.90793194],[4.02801071,50.90792714],[4.02801273,50.90792221],[4.02801364,50.90791731],[4.02801351,50.90791255],[4.02801248,50.90790805],[4.02801069,50.90790389],[4.0280083,50.90790012],[4.02800525,50.90789653],[4.02800136,50.90789299],[4.02799658,50.9078896],[4.02799089,50.90788649],[4.02798436,50.90788377],[4.02797709,50.90788159],[4.02796924,50.90788004],[4.02796104,50.90787921],[4.02795274,50.90787913],[4.02794459,50.90787979],[4.02793683,50.90788115],[4.02792965,50.90788311],[4.0279232,50.90788555],[4.02791756,50.90788837],[4.02791276,50.90789143],[4.02790878,50.90789463]]]}},{"type":"Feature","id":"gebouw/Gebouw.32033772/0","properties":{"source":"Digitaal Vlaanderen Gebouwenregister","source_id":"gebouw/Gebouw.32033772/0","kind":"building","height_m":5.72,"status":null},"geometry":{"type":"Polygon","coordinates":[[[4.03717882,50.90538043],[4.03730413,50.90535886],[4.03728628,50.90531741],[4.03716097,50.90533899],[4.03717882,50.90538043]]]}},{"type":"Feature","id":"gebouw/Gebouw.32033786/0","properties":{"source":"Digitaal Vlaanderen Gebouwenregister","source_id":"gebouw/Gebouw.32033786/0","kind":"building","height_m":5.72,"status":null},"geometry":{"type":"Polygon","coordinates":[[[4.02678671,50.90711988],[4.02684398,50.90709475],[4.02681662,50.90706982],[4.02675935,50.90709496],[4.02678671,50.90711988]]]}},{"type":"Feature","id":"gebouw/Gebouw.32046874/0","properties":{"source":"Digitaal Vlaanderen Gebouwenregister","source_id":"gebouw/Gebouw.32046874/0","kind":"building","height_m":9.32,"status":null},"geometry":{"type":"Polygon","coordinates":[[[4.03449671,50.90793639],[4.03451957,50.90796319],[4.03455174,50.90795207],[4.03452888,50.90792527],[4.03449671,50.90793639]]]}},{"type":"Feature","id":"way/161211119","properties":{"source":"OpenStreetMap","source_id":"way/161211119","kind":"vegetation","name":null,"waterway":null,"landuse":"forest"},"geometry":{"type":"Polygon","coordinates":[[[4.0348566,50.9078428],[4.0349555,50.9079666],[4.0350759,50.9082131],[4.033231,50.9084862],[4.032609,50.9085028],[4.0326889,50.905872],[4.0327688,50.9058297],[4.0328743,50.9058519],[4.032967,50.9058882],[4.0329926,50.9059204],[4.0329951,50.9061088],[4.0330022,50.90663],[4.0330406,50.9067288],[4.0331205,50.9068175],[4.033223,50.9073105],[4.0331783,50.9074496],[4.0332007,50.9075928],[4.0330844,50.9081495],[4.0336482,50.9081028],[4.0343175,50.9079933],[4.0348566,50.9078428]]]}},{"type":"Feature","id":"way/161211132","properties":{"source":"OpenStreetMap","source_id":"way/161211132","kind":"vegetation","name":null,"waterway":null,"landuse":"forest"},"geometry":{"type":"Polygon","coordinates":[[[4.0322223,50.9058873],[4.0320816,50.9059236],[4.0320049,50.9059962],[4.0319761,50.9062018],[4.0319569,50.9071957],[4.0319597,50.9076352],[4.0317438,50.9075956],[4.031458,50.9079295],[4.0309134,50.9075418],[4.0305834,50.9079067],[4.0299052,50.9077984],[4.0298103,50.9075475],[4.0297922,50.9073365],[4.0293582,50.9074249],[4.0290417,50.9072339],[4.0283002,50.9075618],[4.0283829,50.9076292],[4.0284198,50.9076125],[4.0284545,50.9076449],[4.0284325,50.9076547],[4.0287252,50.9079096],[4.028481,50.907978],[4.0281872,50.9082631],[4.0285308,50.9084626],[4.0287468,50.9087259],[4.0288653,50.9088703],[4.028481,50.9089672],[4.0285316,50.9090233],[4.0294087,50.9088123],[4.0296981,50.9080483],[4.0314916,50.9082885],[4.0319455,50.9084135],[4.0319711,50.9085231],[4.0318816,50.9085292],[4.0318685,50.9091357],[4.0320667,50.9091297],[4.032169,50.9071864],[4.0322223,50.9058873]]]}},{"type":"Feature","id":"way/769957490","properties":{"source":"OpenStreetMap","source_id":"way/769957490","kind":"waterway","name":null,"waterway":"stream","landuse":null},"geometry":{"type":"LineString","coordinates":[[4.0367873,50.9054175],[4.0367229,50.9054869],[4.037093,50.9062886]]}},{"type":"Feature","id":"way/769957491","properties":{"source":"OpenStreetMap","source_id":"way/769957491","kind":"waterway","name":null,"waterway":"stream","landuse":null},"geometry":{"type":"LineString","coordinates":[[4.0371494,50.906456],[4.0374766,50.9071191],[4.0376257,50.9070937]]}},{"type":"Feature","id":"way/769957492","properties":{"source":"OpenStreetMap","source_id":"way/769957492","kind":"waterway","name":null,"waterway":"stream","landuse":null},"geometry":{"type":"LineString","coordinates":[[4.0345586,50.9056649],[4.0350099,50.9066622]]}},{"type":"Feature","id":"way/769957493","properties":{"source":"OpenStreetMap","source_id":"way/769957493","kind":"waterway","name":null,"waterway":"stream","landuse":null},"geometry":{"type":"LineString","coordinates":[[4.0350505,50.9068416],[4.035392,50.9075568]]}},{"type":"Feature","id":"way/769957495","properties":{"source":"OpenStreetMap","source_id":"way/769957495","kind":"waterway","name":null,"waterway":"stream","landuse":null},"geometry":{"type":"LineString","coordinates":[[4.0331351,50.9081109],[4.0341436,50.9079756],[4.0351628,50.9078369],[4.0352889,50.9079874],[4.0356242,50.907913]]}}]}