{"type":"FeatureCollection","features":[{"type":"Feature","id":"gebouw/Gebouw.15876169/0","properties":{"source":"Digitaal Vlaanderen Gebouwenregister","source_id":"gebouw/Gebouw.15876169/0","kind":"building","height_m":5.72,"status":null},"geometry":{"type":"Polygon","coordinates":[[[4.0481642,50.92707342],[4.04812227,50.92706013],[4.04814305,50.92703394],[4.04818498,50.92704723],[4.0481642,50.92707342]]]}},{"type":"Feature","id":"gebouw/Gebouw.15889635/0","properties":{"source":"Digitaal Vlaanderen Gebouwenregister","source_id":"gebouw/Gebouw.15889635/0","kind":"building","height_m":9.32,"status":null},"geometry":{"type":"Polygon","coordinates":[[[4.04462397,50.92774985],[4.04464027,50.92775736],[4.04438907,50.92802285],[4.04437767,50.92801856],[4.04431704,50.92799238],[4.04428992,50.92798068],[4.0443628,50.92792256],[4.04435245,50.92791652],[4.04454167,50.92771932],[4.044569,50.92772979],[4.04465595,50.92763917],[4.04471363,50.92766148],[4.04462397,50.92774985]]]}},{"type":"Feature","id":"gebouw/Gebouw.15969179/0","properties":{"source":"Digitaal Vlaanderen Gebouwenregister","source_id":"gebouw/Gebouw.15969179/0","kind":"building","height_m":6.44,"status":null},"geometry":{"type":"Polygon","coordinates":[[[4.03773286,50.92847534],[4.03765263,50.928545],[4.03759858,50.92852027],[4.03757387,50.92850897],[4.03749383,50.92847234],[4.03749649,50.92847],[4.03792151,50.92809406],[4.03797347,50.92811721],[4.03798785,50.92812925],[4.03770441,50.92838261],[4.03779262,50.92842346],[4.03773286,50.92847534]]]}},{"type":"Feature","id":"gebouw/Gebouw.15973653/0","properties":{"source":"Digitaal Vlaanderen Gebouwenregister","source_id":"gebouw/Gebouw.15973653/0","kind":"building","height_m":7.16,"status":null},"geometry":{"type":"Polygon","coordinates":[[[4.03792151,50.92809406],[4.03749649,50.92847],[4.03749383,50.92847234],[4.0374617,50.92845778],[4.03738689,50.92842385],[4.03737801,50.92841983],[4.0373946,50.92840522],[4.03751673,50.92829669],[4.03756017,50.92831633],[4.03784708,50.92806088],[4.03792151,50.92809406]]]}},{"type":"Feature","id":"gebouw/Gebouw.16093427/0","properties":{"source":"Digitaal Vlaanderen Gebouwenregister","source_id":"gebouw/Gebouw.16093427/0","kind":"building","height_m":5.0,"status":null},"geometry":{"type":"Polygon","coordinates":[[[4.03812219,50.92823587],[4.03799085,50.92835423],[4.03803541,50.9283761],[4.03798341,50.92842161],[4.0379457,50.92845462],[4.03790205,50.92843425],[4.03782622,50.92839885],[4.03806139,50.92818941],[4.03812219,50.92823587]]]}},{"type":"Feature","id":"gebouw/Gebouw.16133748/0","properties":{"source":"Digitaal Vlaanderen Gebouwenregister","source_id":"gebouw/Gebouw.16133748/0","kind":"building","height_m":5.72,"status":null},"geometry":{"type":"Polygon","coordinates":[[[4.03787498,50.92864458],[4.03829121,50.92845435],[4.03836421,50.92841951],[4.03816032,50.92826699],[4.03812763,50.92829556],[4.0379457,50.92845462],[4.03792958,50.92846875],[4.03785659,50.92853268],[4.03769642,50.92867298],[4.03777647,50.92870822],[4.03781758,50.92867081],[4.03787498,50.92864458]]]}},{"type":"Feature","id":"gebouw/Gebouw.16410531/0","properties":{"source":"Digitaal Vlaanderen Gebouwenregister","source_id":"gebouw/Gebouw.16410531/0","kind":"building","height_m":7.88,"status":null},"geometry":{"type":"Polygon","coordinates":[[[4.04420112,50.92676605],[4.04432274,50.92682535],[4.04426943,50.92686802],[4.04414858,50.9268091],[4.04420112,50.92676605]]]}},{"type":"Feature","id":"gebouw/Gebouw.19828265/0","properties":{"source":"Digitaal Vlaanderen Gebouwenregister","source_id":"gebouw/Gebouw.19828265/0","kind":"building","height_m":6.44,"status":null},"geometry":{"type":"Polygon","coordinates":[[[4.0376133,50.92795555],[4.03772483,50.92785697],[4.03776526,50.92791651],[4.03768511,50.9279878],[4.0376133,50.92795555]]]}},{"type":"Feature","id":"gebouw/Gebouw.19859942/0","properties":{"source":"Digitaal Vlaanderen Gebouwenregister","source_id":"gebouw/Gebouw.19859942/0","kind":"building","height_m":7.88,"status":null},"geometry":{"type":"Polygon","coordinates":[[[4.03811243,50.92822811],[4.03806203,50.9281883],[4.03806107,50.92818915],[4.03782622,50.92839885],[4.03790205,50.92843425],[4.03799085,50.92835423],[4.03808057,50.92827443],[4.0381231,50.9282366],[4.03812314,50.92823656],[4.03811847,50.92823287],[4.03811243,50.92822811]]]}},{"type":"Feature","id":"gebouw/Gebouw.19859943/0","properties":{"source":"Digitaal Vlaanderen Gebouwenregister","source_id":"gebouw/Gebouw.19859943/0","kind":"building","height_m":8.6,"status":null},"geometry":{"type":"Polygon","coordinates":[[[4.03812763,50.92829556],[4.03808057,50.92827443],[4.03799085,50.92835423],[4.03790205,50.92843425],[4.0379457,50.92845462],[4.03812763,50.92829556]]]}},{"type":"Feature","id":"gebouw/Gebouw.19869286/0","properties":{"source":"Digitaal Vlaanderen Gebouwenregister","source_id":"gebouw/Gebouw.19869286/0","kind":"building","height_m":7.16,"status":null},"geometry":{"type":"Polygon","coordinates":[[[4.04188903,50.92861556],[4.04182062,50.92858184],[4.04221437,50.92826774],[4.04236256,50.92834196],[4.04198569,50.92864258],[4.04190547,50.92860247],[4.04188903,50.92861556]]]}},{"type":"Feature","id":"gebouw/Gebouw.20146195/0","properties":{"source":"Digitaal Vlaanderen Gebouwenregister","source_id":"gebouw/Gebouw.20146195/0","kind":"building","height_m":9.32,"status":null},"geometry":{"type":"Polygon","coordinates":[[[4.04413866,50.92681104],[4.04419814,50.92676175],[4.04432648,50.92682361],[4.04426699,50.9268729],[4.04413866,50.92681104]]]}},{"type":"Feature","id":"gebouw/Gebouw.20146196/0","properties":{"source":"Digitaal Vlaanderen Gebouwenregister","source_id":"gebouw/Gebouw.20146196/0","kind":"building","height_m":5.0,"status":null},"geometry":{"type":"Polygon","coordinates":[[[4.04389213,50.92712034],[4.0438545,50.92710183],[4.04388306,50.92707864],[4.04389516,50.92708459],[4.04394115,50.92704724],[4.04396669,50.9270598],[4.04389213,50.92712034]]]}},{"type":"Feature","id":"gebouw/Gebouw.20146197/0","properties":{"source":"Digitaal Vlaanderen Gebouwenregister","source_id":"gebouw/Gebouw.20146197/0","kind":"building","height_m":5.72,"status":null},"geometry":{"type":"Polygon","coordinates":[[[4.04442046,50.92758695],[4.04448194,50.92753532],[4.04454602,50.92756579],[4.04448454,50.92761742],[4.04442046,50.92758695]]]}},{"type":"Feature","id":"gebouw/Gebouw.32033903/0","properties":{"source":"Digitaal Vlaanderen Gebouwenregister","source_id":"gebouw/Gebouw.32033903/0","kind":"building","height_m":9.32,"status":null},"geometry":{"type":"Polygon","coordinates":[[[4.03838628,50.92851087],[4.03835799,50.92849893],[4.03831655,50.92853815],[4.03834458,50.92854997],[4.0383517,50.92855298],[4.03839314,50.92851376],[4.03838628,50.92851087]]]}},{"type":"Feature","id":"way/66986625","properties":{"source":"OpenStreetMap","source_id":"way/66986625","kind":"water","name":"Spiegelvijver","waterway":null,"landuse":null},"geometry":{"type":"Polygon","coordinates":[[[4.0463515,50.9288316],[4.0464829,50.9288794],[4.046511,50.9288498],[4.0465526,50.9288654],[4.04819,50.92712],[4.04795,50.92704],[4.046336,50.9287864],[4.0463789,50.928802],[4.0463515,50.9288316]]]}},{"type":"Feature","id":"way/200823291","properties":{"source":"OpenStreetMap","source_id":"way/200823291","kind":"water","name":null,"waterway":null,"landuse":null},"geometry":{"type":"Polygon","coordinates":[[[4.04207,50.9259707],[4.0423973,50.9259521],[4.0426708,50.9259234],[4.0427567,50.9258709],[4.0426762,50.9257966],[4.0425421,50.9257458],[4.0423087,50.9256714],[4.0422068,50.9255835],[4.042172,50.9254432],[4.0421505,50.9253857],[4.0420164,50.9253604],[4.0419091,50.9253891],[4.0419037,50.9255007],[4.0419198,50.925663],[4.0419708,50.9258168],[4.04207,50.9259707]]]}},{"type":"Feature","id":"way/200823293","properties":{"source":"OpenStreetMap","source_id":"way/200823293","kind":"water","name":null,"waterway":null,"landuse":null},"geometry":{"type":"Polygon","coordinates":[[[4.0430303,50.9258287],[4.0435131,50.9258304],[4.043674,50.9256833],[4.0437142,50.9255514],[4.0437276,50.9254162],[4.0433977,50.9252894],[4.0431831,50.9252606],[4.0430893,50.9254939],[4.0430303,50.9258287]]]}},{"type":"Feature","id":"way/268729610","properties":{"source":"OpenStreetMap","source_id":"way/268729610","kind":"waterway","name":null,"waterway":"stream","landuse":null},"geometry":{"type":"LineString","coordinates":[[4.0421403,50.9239351],[4.0434219,50.9237878]]}},{"type":"Feature","id":"way/268729611","properties":{"source":"OpenStreetMap","source_id":"way/268729611","kind":"waterway","name":null,"waterway":"stream","landuse":null},"geometry":{"type":"LineString","coordinates":[[4.0382955,50.9265148],[4.0383876,50.9270772],[4.0390418,50.9268843],[4.0417934,50.926073],[4.0417013,50.9255285]]}},{"type":"Feature","id":"way/268729612","properties":{"source":"OpenStreetMap","source_id":"way/268729612","kind":"waterway","name":null,"waterway":"stream","landuse":null},"geometry":{"type":"LineString","coordinates":[[4.0419976,50.9227749],[4.0421228,50.9228191],[4.0423807,50.9228712],[4.0428062,50.9229627],[4.0439152,50.92319],[4.0441005,50.9232152]]}},{"type":"Feature","id":"way/268729613","properties":{"source":"OpenStreetMap","source_id":"way/268729613","kind":"water","name":null,"waterway":null,"landuse":null},"geometry":{"type":"Polygon","coordinates":[[[4.0427209,50.9244127],[4.0429263,50.9244529],[4.0430962,50.9244127],[4.043167,50.9243234],[4.0431953,50.9242029],[4.0431741,50.9240289],[4.043075,50.9239619],[4.0428767,50.9239441],[4.0427422,50.923953],[4.042643,50.9240021],[4.0425935,50.9241092],[4.0426218,50.9242431],[4.0427209,50.9244127]]]}}]}