{"type":"FeatureCollection","features":[{"type":"Feature","id":"gebouw/Gebouw.15882114/0","properties":{"source":"Digitaal Vlaanderen Gebouwenregister","source_id":"gebouw/Gebouw.15882114/0","kind":"building","height_m":7.16,"status":null},"geometry":{"type":"Polygon","coordinates":[[[4.03772468,50.95999008],[4.03769458,50.95994335],[4.03778871,50.95991922],[4.0378188,50.95996595],[4.03772468,50.95999008]]]}},{"type":"Feature","id":"gebouw/Gebouw.16817097/0","properties":{"source":"Digitaal Vlaanderen Gebouwenregister","source_id":"gebouw/Gebouw.16817097/0","kind":"building","height_m":7.16,"status":null},"geometry":{"type":"Polygon","coordinates":[[[4.03786097,50.96002929],[4.03760602,50.96009408],[4.037587,50.96006422],[4.03766573,50.96004422],[4.03765021,50.96001984],[4.03765615,50.96001851],[4.03766288,50.96000847],[4.03768468,50.96000317],[4.03769838,50.96000637],[4.03782575,50.959974],[4.03785987,50.96002755],[4.03786097,50.96002929]]]}},{"type":"Feature","id":"gebouw/Gebouw.16989774/0","properties":{"source":"Digitaal Vlaanderen Gebouwenregister","source_id":"gebouw/Gebouw.16989774/0","kind":"building","height_m":7.88,"status":null},"geometry":{"type":"Polygon","coordinates":[[[4.04529582,50.95627393],[4.04523953,50.95631593],[4.04519395,50.95629087],[4.04525424,50.95625096],[4.04529582,50.95627393]]]}},{"type":"Feature","id":"gebouw/Gebouw.17000389/0","properties":{"source":"Digitaal Vlaanderen Gebouwenregister","source_id":"gebouw/Gebouw.17000389/0","kind":"building","height_m":5.0,"status":null},"geometry":{"type":"Polygon","coordinates":[[[4.04618218,50.95552159],[4.04610769,50.9555539],[4.0460879,50.95553571],[4.0461624,50.95550339],[4.04618218,50.95552159]]]}},{"type":"Feature","id":"gebouw/Gebouw.17008213/0","properties":{"source":"Digitaal Vlaanderen Gebouwenregister","source_id":"gebouw/Gebouw.17008213/0","kind":"building","height_m":8.6,"status":null},"geometry":{"type":"Polygon","coordinates":[[[4.04744949,50.95626152],[4.04739925,50.9562573],[4.04741342,50.95620568],[4.04746333,50.95621115],[4.04744949,50.95626152]]]}},{"type":"Feature","id":"gebouw/Gebouw.17008641/0","properties":{"source":"Digitaal Vlaanderen Gebouwenregister","source_id":"gebouw/Gebouw.17008641/0","kind":"building","height_m":9.32,"status":null},"geometry":{"type":"Polygon","coordinates":[[[4.04784974,50.95751557],[4.04778405,50.95755896],[4.04773535,50.95752954],[4.04780104,50.95748616],[4.04784974,50.95751557]]]}},{"type":"Feature","id":"gebouw/Gebouw.17008759/0","properties":{"source":"Digitaal Vlaanderen Gebouwenregister","source_id":"gebouw/Gebouw.17008759/0","kind":"building","height_m":8.6,"status":null},"geometry":{"type":"Polygon","coordinates":[[[4.04622306,50.95626964],[4.04621436,50.95627633],[4.04618046,50.95625859],[4.04625119,50.95620467],[4.04623156,50.95619396],[4.04634618,50.95610581],[4.0464025,50.95613163],[4.04625136,50.95624788],[4.04622306,50.95626964]]]}},{"type":"Feature","id":"gebouw/Gebouw.17014948/0","properties":{"source":"Digitaal Vlaanderen Gebouwenregister","source_id":"gebouw/Gebouw.17014948/0","kind":"building","height_m":9.32,"status":null},"geometry":{"type":"Polygon","coordinates":[[[4.04493055,50.95561097],[4.04496349,50.95562772],[4.04485815,50.95571289],[4.04482263,50.95569585],[4.044879,50.95565151],[4.04493055,50.95561097]]]}},{"type":"Feature","id":"gebouw/Gebouw.17038254/0","properties":{"source":"Digitaal Vlaanderen Gebouwenregister","source_id":"gebouw/Gebouw.17038254/0","kind":"building","height_m":6.44,"status":null},"geometry":{"type":"Polygon","coordinates":[[[4.04362859,50.95860336],[4.04369186,50.95856347],[4.04381087,50.95864532],[4.04374924,50.95868106],[4.04362859,50.95860336]]]}},{"type":"Feature","id":"gebouw/Gebouw.17038809/0","properties":{"source":"Digitaal Vlaanderen Gebouwenregister","source_id":"gebouw/Gebouw.17038809/0","kind":"building","height_m":7.88,"status":null},"geometry":{"type":"Polygon","coordinates":[[[4.04002077,50.95808426],[4.03938816,50.95835797],[4.03908987,50.95808297],[4.03972247,50.95780926],[4.04002077,50.95808426]]]}},{"type":"Feature","id":"gebouw/Gebouw.17038816/0","properties":{"source":"Digitaal Vlaanderen Gebouwenregister","source_id":"gebouw/Gebouw.17038816/0","kind":"building","height_m":7.88,"status":null},"geometry":{"type":"Polygon","coordinates":[[[4.04569513,50.95583268],[4.04563637,50.95580869],[4.04559697,50.95584028],[4.04547625,50.95593169],[4.04543754,50.95596143],[4.04543493,50.95596343],[4.04549189,50.95598943],[4.04550126,50.9559937],[4.04556156,50.95594739],[4.04555243,50.95594273],[4.045599,50.95590682],[4.04569513,50.95583268]]]}},{"type":"Feature","id":"gebouw/Gebouw.17038916/0","properties":{"source":"Digitaal Vlaanderen Gebouwenregister","source_id":"gebouw/Gebouw.17038916/0","kind":"building","height_m":9.32,"status":null},"geometry":{"type":"Polygon","coordinates":[[[4.04814134,50.95651581],[4.0480362,50.95664139],[4.04797661,50.95662168],[4.04810758,50.95646525],[4.04812162,50.95644848],[4.04818108,50.95646834],[4.04816046,50.95649298],[4.04814134,50.95651581]]]}},{"type":"Feature","id":"gebouw/Gebouw.17039084/0","properties":{"source":"Digitaal Vlaanderen Gebouwenregister","source_id":"gebouw/Gebouw.17039084/0","kind":"building","height_m":9.32,"status":null},"geometry":{"type":"Polygon","coordinates":[[[4.04702092,50.95925111],[4.04688756,50.95924231],[4.04685295,50.95922033],[4.04687359,50.95917661],[4.0467616,50.95915552],[4.04678422,50.95910763],[4.04672415,50.95909632],[4.04674289,50.95905663],[4.04631119,50.95874457],[4.0458037,50.9590246],[4.04554834,50.9591655],[4.04549666,50.95912814],[4.04536627,50.95920009],[4.04556131,50.95934171],[4.04546201,50.95939457],[4.04527995,50.95926457],[4.04493511,50.95945485],[4.04490559,50.95943351],[4.04479814,50.9594928],[4.04482766,50.95951414],[4.04481389,50.95952173],[4.04478892,50.95950368],[4.04468339,50.95956191],[4.04470836,50.95957996],[4.04450032,50.95969475],[4.04463818,50.9597944],[4.04456334,50.9598357],[4.04448519,50.95977921],[4.04440025,50.95982607],[4.04458279,50.95995802],[4.04474223,50.95987005],[4.0448397,50.9599405],[4.04561966,50.95951014],[4.04550287,50.95942572],[4.04560169,50.95937119],[4.04571986,50.95945661],[4.0461203,50.95923707],[4.04691625,50.95981281],[4.04741764,50.95953787],[4.04702092,50.95925111]]]}},{"type":"Feature","id":"gebouw/Gebouw.17053376/0","properties":{"source":"Digitaal Vlaanderen Gebouwenregister","source_id":"gebouw/Gebouw.17053376/0","kind":"building","height_m":7.88,"status":null},"geometry":{"type":"Polygon","coordinates":[[[4.04225306,50.9595883],[4.04236271,50.95967371],[4.04206359,50.95982687],[4.04195392,50.95974272],[4.04225306,50.9595883]]]}},{"type":"Feature","id":"gebouw/Gebouw.17055661/0","properties":{"source":"Digitaal Vlaanderen Gebouwenregister","source_id":"gebouw/Gebouw.17055661/0","kind":"building","height_m":5.0,"status":null},"geometry":{"type":"Polygon","coordinates":[[[4.04768719,50.95687737],[4.04776779,50.95692002],[4.04766799,50.95699525],[4.04758739,50.9569526],[4.04768719,50.95687737]]]}},{"type":"Feature","id":"gebouw/Gebouw.17057089/0","properties":{"source":"Digitaal Vlaanderen Gebouwenregister","source_id":"gebouw/Gebouw.17057089/0","kind":"building","height_m":5.0,"status":null},"geometry":{"type":"Polygon","coordinates":[[[4.04575631,50.95585824],[4.04573857,50.95585083],[4.04572655,50.95584581],[4.04569513,50.95583268],[4.045599,50.95590682],[4.04555243,50.95594273],[4.04556156,50.95594739],[4.04557997,50.95595678],[4.0455518,50.95597881],[4.04558053,50.95599347],[4.04575631,50.95585824]]]}},{"type":"Feature","id":"gebouw/Gebouw.17060930/0","properties":{"source":"Digitaal Vlaanderen Gebouwenregister","source_id":"gebouw/Gebouw.17060930/0","kind":"building","height_m":8.6,"status":null},"geometry":{"type":"Polygon","coordinates":[[[4.04079701,50.95997243],[4.04038548,50.96016718],[4.04033507,50.96012492],[4.04018723,50.96000101],[4.0401477,50.95996789],[4.04011862,50.95994351],[4.04006885,50.9599018],[4.04007794,50.95989761],[4.04009129,50.95989148],[4.04038817,50.95975502],[4.04140678,50.9593021],[4.04145705,50.95934464],[4.04148654,50.95936959],[4.04148763,50.95937052],[4.04150848,50.95938814],[4.04164985,50.9593215],[4.04200764,50.95962234],[4.04202415,50.95963623],[4.04193262,50.95967937],[4.04188129,50.95970357],[4.04188367,50.95970559],[4.04189393,50.95971428],[4.04211141,50.95989827],[4.04200199,50.95995998],[4.04186189,50.95985962],[4.04184382,50.95984669],[4.04121365,50.96014685],[4.04115292,50.96009578],[4.04093091,50.95990907],[4.04079701,50.95997243]]]}},{"type":"Feature","id":"gebouw/Gebouw.17062017/0","properties":{"source":"Digitaal Vlaanderen Gebouwenregister","source_id":"gebouw/Gebouw.17062017/0","kind":"building","height_m":5.0,"status":null},"geometry":{"type":"Polygon","coordinates":[[[4.04743763,50.95563155],[4.04736893,50.95564218],[4.04737166,50.95564771],[4.04702028,50.95571502],[4.04698718,50.95564991],[4.0473398,50.95558046],[4.04733786,50.95557653],[4.04740533,50.95556716],[4.04743763,50.95563155]]]}},{"type":"Feature","id":"gebouw/Gebouw.17069346/0","properties":{"source":"Digitaal Vlaanderen Gebouwenregister","source_id":"gebouw/Gebouw.17069346/0","kind":"building","height_m":5.0,"status":null},"geometry":{"type":"Polygon","coordinates":[[[4.04678392,50.95640877],[4.04668941,50.95647804],[4.04655354,50.9564058],[4.04658489,50.95638229],[4.04653035,50.95635328],[4.04662986,50.95627952],[4.04675621,50.95634671],[4.04672012,50.95637381],[4.04678392,50.95640877]]]}},{"type":"Feature","id":"gebouw/Gebouw.17069665/0","properties":{"source":"Digitaal Vlaanderen Gebouwenregister","source_id":"gebouw/Gebouw.17069665/0","kind":"building","height_m":7.88,"status":null},"geometry":{"type":"Polygon","coordinates":[[[4.04644956,50.9619152],[4.04640254,50.96194209],[4.04635268,50.96190777],[4.04640069,50.96187938],[4.04644956,50.9619152]]]}},{"type":"Feature","id":"gebouw/Gebouw.17069936/0","properties":{"source":"Digitaal Vlaanderen Gebouwenregister","source_id":"gebouw/Gebouw.17069936/0","kind":"building","height_m":6.44,"status":null},"geometry":{"type":"Polygon","coordinates":[[[4.04625179,50.95628467],[4.04622307,50.95626964],[4.04621753,50.95626674],[4.0464025,50.95613163],[4.04645167,50.95615774],[4.04641977,50.95618171],[4.04643308,50.95618877],[4.04634231,50.95625864],[4.04632273,50.95627371],[4.04628907,50.956267],[4.0462806,50.95626271],[4.04625179,50.95628467]]]}},{"type":"Feature","id":"gebouw/Gebouw.17074805/0","properties":{"source":"Digitaal Vlaanderen Gebouwenregister","source_id":"gebouw/Gebouw.17074805/0","kind":"building","height_m":9.32,"status":null},"geometry":{"type":"Polygon","coordinates":[[[4.04589943,50.96071592],[4.04590732,50.96071161],[4.04628372,50.96098681],[4.04569867,50.96130629],[4.0453204,50.96103042],[4.04532558,50.96102783],[4.04527278,50.96098897],[4.04526737,50.96099194],[4.04522709,50.96096259],[4.04528738,50.96092967],[4.0454642,50.96083314],[4.04545208,50.96082351],[4.04547395,50.96081122],[4.04548656,50.96082094],[4.04560845,50.96075439],[4.04570277,50.96082329],[4.04578622,50.96077773],[4.04589943,50.96071592]]]}},{"type":"Feature","id":"gebouw/Gebouw.17076087/0","properties":{"source":"Digitaal Vlaanderen Gebouwenregister","source_id":"gebouw/Gebouw.17076087/0","kind":"building","height_m":5.0,"status":null},"geometry":{"type":"Polygon","coordinates":[[[4.04135809,50.95916333],[4.04146881,50.95925828],[4.04037981,50.95975886],[4.03960539,50.96011482],[4.03955121,50.96006782],[4.03928418,50.9598361],[4.03911886,50.95969264],[4.03975423,50.95940059],[4.03974469,50.95939233],[4.03988192,50.95932913],[4.04108005,50.95877731],[4.04138264,50.95904585],[4.04127665,50.95909349],[4.04130726,50.95911974],[4.04142563,50.95906504],[4.0414755,50.9591095],[4.04135809,50.95916333]]]}},{"type":"Feature","id":"gebouw/Gebouw.17076894/0","properties":{"source":"Digitaal Vlaanderen Gebouwenregister","source_id":"gebouw/Gebouw.17076894/0","kind":"building","height_m":6.44,"status":null},"geometry":{"type":"Polygon","coordinates":[[[4.04733003,50.95623611],[4.04736112,50.95620383],[4.04731809,50.9561873],[4.04727757,50.95622938],[4.04725421,50.95626155],[4.04718606,50.95623551],[4.04718359,50.95623457],[4.04712897,50.95629128],[4.04714635,50.95629763],[4.0471202,50.95632477],[4.047211,50.95635971],[4.04733003,50.95623611]]]}},{"type":"Feature","id":"gebouw/Gebouw.17076901/0","properties":{"source":"Digitaal Vlaanderen Gebouwenregister","source_id":"gebouw/Gebouw.17076901/0","kind":"building","height_m":6.44,"status":null},"geometry":{"type":"Polygon","coordinates":[[[4.04305972,50.95750332],[4.0418405,50.95826751],[4.04179074,50.958236],[4.04148664,50.95804346],[4.04143726,50.95801219],[4.0414491,50.95800432],[4.04127857,50.95789615],[4.04218384,50.95732585],[4.0423547,50.95743422],[4.04277385,50.95717016],[4.04318085,50.95742665],[4.04305972,50.95750332]]]}},{"type":"Feature","id":"gebouw/Gebouw.17081261/0","properties":{"source":"Digitaal Vlaanderen Gebouwenregister","source_id":"gebouw/Gebouw.17081261/0","kind":"building","height_m":5.72,"status":null},"geometry":{"type":"Polygon","coordinates":[[[4.04783821,50.95982009],[4.04774753,50.95987091],[4.04771958,50.95985102],[4.04781026,50.9598002],[4.04783821,50.95982009]]]}},{"type":"Feature","id":"gebouw/Gebouw.17087064/0","properties":{"source":"Digitaal Vlaanderen Gebouwenregister","source_id":"gebouw/Gebouw.17087064/0","kind":"building","height_m":5.72,"status":null},"geometry":{"type":"Polygon","coordinates":[[[4.04518841,50.95642305],[4.0451484,50.95645333],[4.04512022,50.95643848],[4.04516024,50.9564082],[4.04518841,50.95642305]]]}},{"type":"Feature","id":"gebouw/Gebouw.17087111/0","properties":{"source":"Digitaal Vlaanderen Gebouwenregister","source_id":"gebouw/Gebouw.17087111/0","kind":"building","height_m":9.32,"status":null},"geometry":{"type":"Polygon","coordinates":[[[4.04739217,50.95717415],[4.04743725,50.95719972],[4.04736409,50.95725116],[4.04731902,50.95722559],[4.04739217,50.95717415]]]}},{"type":"Feature","id":"gebouw/Gebouw.17093589/0","properties":{"source":"Digitaal Vlaanderen Gebouwenregister","source_id":"gebouw/Gebouw.17093589/0","kind":"building","height_m":6.44,"status":null},"geometry":{"type":"Polygon","coordinates":[[[4.04631227,50.96183883],[4.04630748,50.96183544],[4.04618293,50.96190553],[4.04591412,50.96159909],[4.04610294,50.96149244],[4.04624292,50.9615937],[4.04624777,50.96159096],[4.04647151,50.96174882],[4.04631227,50.96183883]]]}},{"type":"Feature","id":"gebouw/Gebouw.17093865/0","properties":{"source":"Digitaal Vlaanderen Gebouwenregister","source_id":"gebouw/Gebouw.17093865/0","kind":"building","height_m":8.6,"status":null},"geometry":{"type":"Polygon","coordinates":[[[4.04633268,50.95631029],[4.04629059,50.95634183],[4.04624111,50.95637892],[4.04620344,50.95635848],[4.04629611,50.95629044],[4.04633268,50.95631029]]]}},{"type":"Feature","id":"gebouw/Gebouw.17094058/0","properties":{"source":"Digitaal Vlaanderen Gebouwenregister","source_id":"gebouw/Gebouw.17094058/0","kind":"building","height_m":6.44,"status":null},"geometry":{"type":"Polygon","coordinates":[[[4.04493055,50.95561097],[4.044879,50.95565151],[4.04482263,50.95569585],[4.04479457,50.95571792],[4.04475173,50.95569615],[4.04483671,50.95562947],[4.0448835,50.95559276],[4.04488792,50.95558929],[4.04493055,50.95561097]]]}},{"type":"Feature","id":"gebouw/Gebouw.17095514/0","properties":{"source":"Digitaal Vlaanderen Gebouwenregister","source_id":"gebouw/Gebouw.17095514/0","kind":"building","height_m":6.44,"status":null},"geometry":{"type":"Polygon","coordinates":[[[4.04056916,50.95652853],[4.04003439,50.95681162],[4.03952864,50.95643471],[4.03973117,50.9563263],[4.03967842,50.95628699],[4.03973406,50.9562572],[4.03968052,50.95621727],[4.03963566,50.95624126],[4.03957927,50.9561992],[4.03941199,50.95607442],[4.03945671,50.95605051],[4.03940441,50.9560115],[4.03931758,50.95605794],[4.03914447,50.95592882],[4.03923143,50.95588231],[4.03894101,50.95566569],[4.04090321,50.95461619],[4.04157894,50.95512308],[4.04196875,50.95491532],[4.04197099,50.954917],[4.04201314,50.95489445],[4.04267914,50.95539116],[4.04263698,50.95541371],[4.04274656,50.95549543],[4.04255265,50.95559916],[4.04262561,50.95565357],[4.04216863,50.955898],[4.04218702,50.95591171],[4.04173206,50.95615506],[4.04181828,50.95621936],[4.04168252,50.95629217],[4.0414993,50.95615678],[4.04078882,50.95654034],[4.04072612,50.95650164],[4.0401256,50.95604911],[4.04000923,50.95611072],[4.0401833,50.95624189],[4.04022922,50.95621758],[4.04043396,50.95637186],[4.04043908,50.95636915],[4.04052748,50.95643576],[4.04047965,50.95646108],[4.04054774,50.95651239],[4.04056916,50.95652853]]]}},{"type":"Feature","id":"gebouw/Gebouw.17097610/0","properties":{"source":"Digitaal Vlaanderen Gebouwenregister","source_id":"gebouw/Gebouw.17097610/0","kind":"building","height_m":8.6,"status":null},"geometry":{"type":"Polygon","coordinates":[[[4.04786422,50.95639392],[4.04783141,50.95638267],[4.04770385,50.95653207],[4.04770275,50.95653336],[4.04776465,50.95655457],[4.04776613,50.95655279],[4.04783909,50.95646564],[4.04782132,50.95644384],[4.04786422,50.95639392]]]}},{"type":"Feature","id":"gebouw/Gebouw.17098179/0","properties":{"source":"Digitaal Vlaanderen Gebouwenregister","source_id":"gebouw/Gebouw.17098179/0","kind":"building","height_m":5.0,"status":null},"geometry":{"type":"Polygon","coordinates":[[[4.04752096,50.96151682],[4.04742557,50.96156924],[4.04722283,50.9614221],[4.04712187,50.96147758],[4.04706014,50.96143279],[4.04725003,50.96131819],[4.0473507,50.961392],[4.04752096,50.96151682]]]}},{"type":"Feature","id":"gebouw/Gebouw.17099424/0","properties":{"source":"Digitaal Vlaanderen Gebouwenregister","source_id":"gebouw/Gebouw.17099424/0","kind":"building","height_m":9.32,"status":null},"geometry":{"type":"Polygon","coordinates":[[[4.03940721,50.95933763],[4.03972105,50.95920168],[4.03975855,50.95923714],[4.03987808,50.95918419],[4.03968109,50.95900326],[4.03975673,50.9589715],[4.03976154,50.95897618],[4.04005418,50.95884799],[4.04010207,50.95889236],[4.04006556,50.95890808],[4.0401528,50.9589889],[4.04018932,50.95897317],[4.04022119,50.9590027],[4.04045555,50.95890145],[4.04045262,50.95889837],[4.0408618,50.95872142],[4.0408111,50.95867245],[4.04087595,50.95864305],[4.04088941,50.9586239],[4.04088788,50.95860495],[4.04087322,50.95859024],[4.04084669,50.95858135],[4.04081521,50.95858298],[4.04080357,50.95858628],[4.04080063,50.95858358],[4.04070328,50.95849416],[4.04069837,50.95848965],[4.03970202,50.95892152],[4.03973303,50.95895016],[4.03965781,50.95898191],[4.03964021,50.95896532],[4.0388799,50.95929567],[4.03908109,50.95947889],[4.03940721,50.95933763]]]}},{"type":"Feature","id":"gebouw/Gebouw.17099661/0","properties":{"source":"Digitaal Vlaanderen Gebouwenregister","source_id":"gebouw/Gebouw.17099661/0","kind":"building","height_m":8.6,"status":null},"geometry":{"type":"Polygon","coordinates":[[[4.04708456,50.95577224],[4.04701508,50.95579509],[4.04702288,50.95580472],[4.0469095,50.95584128],[4.04677638,50.95569426],[4.04678106,50.95569262],[4.0467621,50.95566905],[4.04686904,50.95562902],[4.04687812,50.95562609],[4.04693711,50.95560702],[4.04700178,50.9556859],[4.04699854,50.95568709],[4.04702014,50.95571967],[4.04703529,50.95571407],[4.04708456,50.95577224]]]}},{"type":"Feature","id":"gebouw/Gebouw.17100082/0","properties":{"source":"Digitaal Vlaanderen Gebouwenregister","source_id":"gebouw/Gebouw.17100082/0","kind":"building","height_m":9.32,"status":null},"geometry":{"type":"Polygon","coordinates":[[[4.04603969,50.95950819],[4.04660057,50.95991413],[4.04640594,50.96002108],[4.04645244,50.96005503],[4.04637836,50.960096],[4.04635875,50.96008275],[4.04615741,50.96019327],[4.04617593,50.96020698],[4.04610063,50.96024804],[4.04605413,50.96021404],[4.04612783,50.96017385],[4.04578168,50.95992066],[4.04553944,50.95974695],[4.04574327,50.95963538],[4.04570538,50.95960777],[4.0457796,50.95956715],[4.04584495,50.95961478],[4.04603969,50.95950819]]]}},{"type":"Feature","id":"gebouw/Gebouw.17101257/0","properties":{"source":"Digitaal Vlaanderen Gebouwenregister","source_id":"gebouw/Gebouw.17101257/0","kind":"building","height_m":8.6,"status":null},"geometry":{"type":"Polygon","coordinates":[[[4.04587221,50.95590582],[4.045793,50.95596664],[4.04574793,50.95595038],[4.04582072,50.95588397],[4.04587221,50.95590582]]]}},{"type":"Feature","id":"gebouw/Gebouw.17101317/0","properties":{"source":"Digitaal Vlaanderen Gebouwenregister","source_id":"gebouw/Gebouw.17101317/0","kind":"building","height_m":6.44,"status":null},"geometry":{"type":"Polygon","coordinates":[[[4.04723168,50.96130473],[4.04729852,50.96126428],[4.04733221,50.96123024],[4.04740859,50.96124624],[4.04739969,50.96126278],[4.04747355,50.96131714],[4.04755365,50.96127479],[4.04766451,50.96129848],[4.04767148,50.96131691],[4.04748453,50.96141727],[4.04743474,50.96138028],[4.04742486,50.96138558],[4.04739877,50.9613662],[4.0473507,50.961392],[4.04725003,50.96131819],[4.04723168,50.96130473]]]}},{"type":"Feature","id":"gebouw/Gebouw.17101454/0","properties":{"source":"Digitaal Vlaanderen Gebouwenregister","source_id":"gebouw/Gebouw.17101454/0","kind":"building","height_m":9.32,"status":null},"geometry":{"type":"Polygon","coordinates":[[[4.04139773,50.95715093],[4.04162843,50.95732294],[4.04163272,50.95732065],[4.04172966,50.95739283],[4.04110808,50.9577258],[4.04094632,50.95760534],[4.04090269,50.95762846],[4.04081625,50.95756451],[4.04121242,50.95735254],[4.04113407,50.95729409],[4.04139773,50.95715093]]]}},{"type":"Feature","id":"gebouw/Gebouw.17101569/0","properties":{"source":"Digitaal Vlaanderen Gebouwenregister","source_id":"gebouw/Gebouw.17101569/0","kind":"building","height_m":6.44,"status":null},"geometry":{"type":"Polygon","coordinates":[[[4.04794941,50.95648671],[4.04786498,50.95658522],[4.04777836,50.95655695],[4.04784757,50.95647588],[4.04789177,50.95649094],[4.0479346,50.95644076],[4.04789067,50.9564258],[4.04793401,50.95637504],[4.04802002,50.95640433],[4.04794941,50.95648671]]]}},{"type":"Feature","id":"gebouw/Gebouw.17101653/0","properties":{"source":"Digitaal Vlaanderen Gebouwenregister","source_id":"gebouw/Gebouw.17101653/0","kind":"building","height_m":6.44,"status":null},"geometry":{"type":"Polygon","coordinates":[[[4.04810758,50.95646525],[4.04797661,50.95662168],[4.04786498,50.95658522],[4.04794941,50.95648671],[4.04800734,50.95650704],[4.0480113,50.95650254],[4.04803301,50.95647784],[4.04802873,50.95647634],[4.04805475,50.95644674],[4.04810758,50.95646525]]]}},{"type":"Feature","id":"gebouw/Gebouw.17101762/0","properties":{"source":"Digitaal Vlaanderen Gebouwenregister","source_id":"gebouw/Gebouw.17101762/0","kind":"building","height_m":9.32,"status":null},"geometry":{"type":"Polygon","coordinates":[[[4.04820946,50.95653752],[4.04810348,50.95666365],[4.04808347,50.95665703],[4.0480362,50.95664139],[4.04814134,50.95651581],[4.04820946,50.95653752]]]}},{"type":"Feature","id":"gebouw/Gebouw.17103331/0","properties":{"source":"Digitaal Vlaanderen Gebouwenregister","source_id":"gebouw/Gebouw.17103331/0","kind":"building","height_m":5.0,"status":null},"geometry":{"type":"Polygon","coordinates":[[[4.0457763,50.95620277],[4.04575939,50.9561941],[4.04577877,50.956179],[4.04575498,50.95616682],[4.04573013,50.95618616],[4.04571368,50.95617776],[4.0458228,50.95609396],[4.04583022,50.95609778],[4.04588231,50.95605739],[4.04591916,50.95607684],[4.04586854,50.95611749],[4.04585972,50.95612458],[4.04587216,50.95613186],[4.0457763,50.95620277]]]}},{"type":"Feature","id":"gebouw/Gebouw.17115411/0","properties":{"source":"Digitaal Vlaanderen Gebouwenregister","source_id":"gebouw/Gebouw.17115411/0","kind":"building","height_m":8.6,"status":null},"geometry":{"type":"Polygon","coordinates":[[[4.04784592,50.95766304],[4.04776427,50.95772157],[4.04773351,50.95770416],[4.04781595,50.95764607],[4.04784592,50.95766304]]]}},{"type":"Feature","id":"gebouw/Gebouw.17118629/0","properties":{"source":"Digitaal Vlaanderen Gebouwenregister","source_id":"gebouw/Gebouw.17118629/0","kind":"building","height_m":7.16,"status":null},"geometry":{"type":"Polygon","coordinates":[[[4.04752162,50.95599232],[4.04751096,50.95603638],[4.0474107,50.95599975],[4.04744884,50.95596276],[4.04746436,50.95597002],[4.04749005,50.9559435],[4.04749136,50.95593954],[4.04750352,50.95590281],[4.04754175,50.95590915],[4.04754975,50.95591047],[4.04753815,50.95594643],[4.04753142,50.95596511],[4.04752162,50.95599232]]]}},{"type":"Feature","id":"gebouw/Gebouw.17118916/0","properties":{"source":"Digitaal Vlaanderen Gebouwenregister","source_id":"gebouw/Gebouw.17118916/0","kind":"building","height_m":7.16,"status":null},"geometry":{"type":"Polygon","coordinates":[[[4.04734192,50.95664425],[4.04734454,50.95664555],[4.04733739,50.95665101],[4.04744281,50.95670797],[4.0474507,50.95670239],[4.0474953,50.95672629],[4.04738139,50.95680805],[4.04732373,50.95677734],[4.04723476,50.95672775],[4.04723089,50.9567256],[4.04734192,50.95664425]]]}},{"type":"Feature","id":"gebouw/Gebouw.17118993/0","properties":{"source":"Digitaal Vlaanderen Gebouwenregister","source_id":"gebouw/Gebouw.17118993/0","kind":"building","height_m":7.16,"status":null},"geometry":{"type":"Polygon","coordinates":[[[4.04474213,50.95603287],[4.04481213,50.95606299],[4.04477757,50.95609503],[4.04476199,50.95608833],[4.04474683,50.95610239],[4.04470098,50.95608266],[4.04471614,50.9560686],[4.04470757,50.95606492],[4.04474213,50.95603287]]]}},{"type":"Feature","id":"gebouw/Gebouw.17119175/0","properties":{"source":"Digitaal Vlaanderen Gebouwenregister","source_id":"gebouw/Gebouw.17119175/0","kind":"building","height_m":7.16,"status":null},"geometry":{"type":"Polygon","coordinates":[[[4.04365639,50.95735907],[4.04374216,50.95730489],[4.04377827,50.95728208],[4.04413517,50.95750748],[4.04414091,50.9575111],[4.04425834,50.95743693],[4.04449401,50.95758576],[4.04480225,50.95739107],[4.0441932,50.95700643],[4.04413254,50.95704475],[4.04365302,50.95674191],[4.04316613,50.95704944],[4.04365639,50.95735907]]]}},{"type":"Feature","id":"gebouw/Gebouw.17119224/0","properties":{"source":"Digitaal Vlaanderen Gebouwenregister","source_id":"gebouw/Gebouw.17119224/0","kind":"building","height_m":7.16,"status":null},"geometry":{"type":"Polygon","coordinates":[[[4.0472582,50.96168649],[4.04723673,50.96167329],[4.04722829,50.96167887],[4.04711785,50.96161219],[4.04701948,50.96167722],[4.04691652,50.96161511],[4.04684381,50.96157125],[4.04687938,50.96154773],[4.04695209,50.96159159],[4.04709908,50.9614974],[4.04711453,50.96150673],[4.04733177,50.9616379],[4.0472582,50.96168649]]]}},{"type":"Feature","id":"gebouw/Gebouw.17122382/0","properties":{"source":"Digitaal Vlaanderen Gebouwenregister","source_id":"gebouw/Gebouw.17122382/0","kind":"building","height_m":7.88,"status":null},"geometry":{"type":"Polygon","coordinates":[[[4.04456957,50.95587413],[4.04460949,50.95583683],[4.04465708,50.95585715],[4.04461716,50.95589445],[4.04456957,50.95587413]]]}},{"type":"Feature","id":"gebouw/Gebouw.17122757/0","properties":{"source":"Digitaal Vlaanderen Gebouwenregister","source_id":"gebouw/Gebouw.17122757/0","kind":"building","height_m":5.72,"status":null},"geometry":{"type":"Polygon","coordinates":[[[4.04665924,50.95975174],[4.04672748,50.95970795],[4.04685625,50.95978823],[4.04678809,50.95983184],[4.04665924,50.95975174]]]}},{"type":"Feature","id":"gebouw/Gebouw.17124168/0","properties":{"source":"Digitaal Vlaanderen Gebouwenregister","source_id":"gebouw/Gebouw.17124168/0","kind":"building","height_m":8.6,"status":null},"geometry":{"type":"Polygon","coordinates":[[[4.03817314,50.95837297],[4.03988098,50.9576384],[4.03968647,50.95745864],[4.03963717,50.95741307],[4.03952529,50.95746111],[4.03944922,50.95739108],[4.03952049,50.9573602],[4.03912498,50.95699364],[4.03890062,50.95709059],[4.03842443,50.95729636],[4.03807549,50.95744714],[4.03802109,50.95739692],[4.03756369,50.95759457],[4.03770488,50.9577249],[4.03763577,50.95775476],[4.03794145,50.95803695],[4.03795357,50.95803171],[4.03821752,50.95791765],[4.03829255,50.95798692],[4.03830117,50.95799487],[4.03793497,50.95815311],[4.03817314,50.95837297]]]}},{"type":"Feature","id":"gebouw/Gebouw.17125966/0","properties":{"source":"Digitaal Vlaanderen Gebouwenregister","source_id":"gebouw/Gebouw.17125966/0","kind":"building","height_m":7.88,"status":null},"geometry":{"type":"Polygon","coordinates":[[[4.04780137,50.9621389],[4.04768178,50.9620601],[4.04773515,50.96202792],[4.04785554,50.9621084],[4.04785195,50.9621105],[4.04790128,50.96214369],[4.04785119,50.96217173],[4.04780137,50.9621389]]]}},{"type":"Feature","id":"gebouw/Gebouw.17126350/0","properties":{"source":"Digitaal Vlaanderen Gebouwenregister","source_id":"gebouw/Gebouw.17126350/0","kind":"building","height_m":7.16,"status":null},"geometry":{"type":"Polygon","coordinates":[[[4.04423893,50.95630895],[4.04420528,50.95629453],[4.04423822,50.95626387],[4.04427187,50.95627828],[4.04423893,50.95630895]]]}},{"type":"Feature","id":"gebouw/Gebouw.17126385/0","properties":{"source":"Digitaal Vlaanderen Gebouwenregister","source_id":"gebouw/Gebouw.17126385/0","kind":"building","height_m":7.16,"status":null},"geometry":{"type":"Polygon","coordinates":[[[4.04610807,50.95622486],[4.04605927,50.95626239],[4.0460283,50.95624621],[4.0460861,50.95620208],[4.04606791,50.95619221],[4.04624188,50.95605841],[4.04629389,50.95608194],[4.04610807,50.95622486]]]}},{"type":"Feature","id":"gebouw/Gebouw.17129199/0","properties":{"source":"Digitaal Vlaanderen Gebouwenregister","source_id":"gebouw/Gebouw.17129199/0","kind":"building","height_m":7.16,"status":null},"geometry":{"type":"Polygon","coordinates":[[[4.04589823,50.95618931],[4.0459278,50.95620516],[4.04588421,50.95623759],[4.04585549,50.95622219],[4.04589823,50.95618931]]]}},{"type":"Feature","id":"gebouw/Gebouw.17129829/0","properties":{"source":"Digitaal Vlaanderen Gebouwenregister","source_id":"gebouw/Gebouw.17129829/0","kind":"building","height_m":7.16,"status":null},"geometry":{"type":"Polygon","coordinates":[[[4.04613134,50.95601003],[4.04599674,50.95611355],[4.0459668,50.9560982],[4.04599228,50.95607835],[4.04593772,50.95605042],[4.04598529,50.95601335],[4.04599931,50.95602053],[4.04605707,50.95597552],[4.04613134,50.95601003]]]}},{"type":"Feature","id":"gebouw/Gebouw.17131740/0","properties":{"source":"Digitaal Vlaanderen Gebouwenregister","source_id":"gebouw/Gebouw.17131740/0","kind":"building","height_m":7.16,"status":null},"geometry":{"type":"Polygon","coordinates":[[[4.04250419,50.96184761],[4.04247524,50.96186514],[4.04267182,50.96199229],[4.04265926,50.96200004],[4.04268462,50.96201644],[4.04268336,50.96204487],[4.0426568,50.96206097],[4.04266861,50.96206875],[4.0424661,50.96219147],[4.04221308,50.96202496],[4.04206972,50.96211184],[4.04123596,50.96156312],[4.04186898,50.9611821],[4.04184408,50.96116582],[4.04210346,50.96100763],[4.04195208,50.96090863],[4.04265686,50.96047879],[4.04281059,50.96057933],[4.04308397,50.96041259],[4.04338664,50.96061114],[4.04348872,50.9606781],[4.04361107,50.96075836],[4.04374267,50.96067834],[4.04390175,50.96078269],[4.04391388,50.96078245],[4.04397049,50.96082047],[4.04397176,50.9608278],[4.04413107,50.96093368],[4.04394167,50.96104734],[4.04388628,50.96101053],[4.04379502,50.96106581],[4.04255084,50.96181935],[4.04250419,50.96184761]]]}},{"type":"Feature","id":"gebouw/Gebouw.17135328/0","properties":{"source":"Digitaal Vlaanderen Gebouwenregister","source_id":"gebouw/Gebouw.17135328/0","kind":"building","height_m":5.0,"status":null},"geometry":{"type":"Polygon","coordinates":[[[4.04635999,50.95583341],[4.04648849,50.95589176],[4.04644339,50.95593099],[4.04644618,50.95593227],[4.04643776,50.95593959],[4.04643427,50.95593799],[4.04641862,50.95595129],[4.04629151,50.95589357],[4.04635999,50.95583341]]]}},{"type":"Feature","id":"gebouw/Gebouw.17142306/0","properties":{"source":"Digitaal Vlaanderen Gebouwenregister","source_id":"gebouw/Gebouw.17142306/0","kind":"building","height_m":9.32,"status":null},"geometry":{"type":"Polygon","coordinates":[[[4.04455189,50.95595854],[4.04462065,50.95597774],[4.04458808,50.95602426],[4.04451933,50.95600506],[4.04455189,50.95595854]]]}},{"type":"Feature","id":"gebouw/Gebouw.17142326/0","properties":{"source":"Digitaal Vlaanderen Gebouwenregister","source_id":"gebouw/Gebouw.17142326/0","kind":"building","height_m":8.6,"status":null},"geometry":{"type":"Polygon","coordinates":[[[4.04788683,50.96173297],[4.04794751,50.96177898],[4.04791512,50.96179602],[4.04778774,50.96169677],[4.04775059,50.96171537],[4.04771563,50.96168953],[4.04774813,50.96167259],[4.04772754,50.96165713],[4.04783707,50.96159953],[4.04793176,50.96167134],[4.04792757,50.96167354],[4.04795716,50.96169598],[4.04788683,50.96173297]]]}},{"type":"Feature","id":"gebouw/Gebouw.17144332/0","properties":{"source":"Digitaal Vlaanderen Gebouwenregister","source_id":"gebouw/Gebouw.17144332/0","kind":"building","height_m":6.44,"status":null},"geometry":{"type":"Polygon","coordinates":[[[4.04567862,50.95597199],[4.04562327,50.95601527],[4.04558053,50.95599347],[4.04575631,50.95585824],[4.04577282,50.95586513],[4.04577349,50.95586414],[4.04582015,50.95588269],[4.0458193,50.95588332],[4.04582072,50.95588397],[4.04574793,50.95595038],[4.04573546,50.95594588],[4.04571941,50.95594009],[4.04567862,50.95597199]]]}},{"type":"Feature","id":"gebouw/Gebouw.17146378/0","properties":{"source":"Digitaal Vlaanderen Gebouwenregister","source_id":"gebouw/Gebouw.17146378/0","kind":"building","height_m":7.88,"status":null},"geometry":{"type":"Polygon","coordinates":[[[4.04499922,50.9600999],[4.0450417,50.96011126],[4.04508711,50.96004354],[4.04504463,50.96003218],[4.04499922,50.9600999]]]}},{"type":"Feature","id":"gebouw/Gebouw.17149799/0","properties":{"source":"Digitaal Vlaanderen Gebouwenregister","source_id":"gebouw/Gebouw.17149799/0","kind":"building","height_m":6.44,"status":null},"geometry":{"type":"Polygon","coordinates":[[[4.04498734,50.95551424],[4.04488051,50.95557615],[4.04486152,50.95556308],[4.04485005,50.95556973],[4.04480451,50.95553838],[4.04481599,50.95553173],[4.04477789,50.95550551],[4.04487606,50.95544565],[4.0448791,50.95544768],[4.04488541,50.95544407],[4.04498734,50.95551424]]]}},{"type":"Feature","id":"gebouw/Gebouw.17160272/0","properties":{"source":"Digitaal Vlaanderen Gebouwenregister","source_id":"gebouw/Gebouw.17160272/0","kind":"building","height_m":7.16,"status":null},"geometry":{"type":"Polygon","coordinates":[[[4.04718848,50.96054707],[4.04667,50.96016822],[4.04689478,50.96004552],[4.04741326,50.96042437],[4.04718848,50.96054707]]]}},{"type":"Feature","id":"gebouw/Gebouw.17160320/0","properties":{"source":"Digitaal Vlaanderen Gebouwenregister","source_id":"gebouw/Gebouw.17160320/0","kind":"building","height_m":6.44,"status":null},"geometry":{"type":"Polygon","coordinates":[[[4.0424534,50.95970536],[4.04291002,50.96002992],[4.04267408,50.96016425],[4.04270874,50.96018854],[4.04206623,50.96054816],[4.04209412,50.96056769],[4.04204012,50.96059844],[4.04201223,50.9605789],[4.04112145,50.96108604],[4.04116557,50.96111694],[4.04096578,50.96123068],[4.04091847,50.96119753],[4.0408537,50.96123311],[4.04067221,50.96110133],[4.04051248,50.96118906],[4.0403801,50.96109293],[4.04053616,50.96100721],[4.04042218,50.96092446],[4.04053008,50.96086446],[4.04074694,50.96074388],[4.0405157,50.96057801],[4.04064083,50.96050843],[4.04049961,50.96040714],[4.04062737,50.9603361],[4.04076875,50.96043562],[4.04103631,50.96028665],[4.04108897,50.96025733],[4.04131966,50.96042258],[4.04147604,50.96033552],[4.04127099,50.96018863],[4.04186189,50.95985962],[4.04200199,50.95995998],[4.04211141,50.95989827],[4.0424534,50.95970536]]]}},{"type":"Feature","id":"gebouw/Gebouw.17160322/0","properties":{"source":"Digitaal Vlaanderen Gebouwenregister","source_id":"gebouw/Gebouw.17160322/0","kind":"building","height_m":7.88,"status":null},"geometry":{"type":"Polygon","coordinates":[[[4.04777313,50.95716629],[4.0478405,50.9571185],[4.04788989,50.95714627],[4.04782253,50.95719406],[4.04777313,50.95716629]]]}},{"type":"Feature","id":"gebouw/Gebouw.17160357/0","properties":{"source":"Digitaal Vlaanderen Gebouwenregister","source_id":"gebouw/Gebouw.17160357/0","kind":"building","height_m":7.88,"status":null},"geometry":{"type":"Polygon","coordinates":[[[4.04628376,50.96209886],[4.04638837,50.96203811],[4.04641339,50.96205529],[4.04650537,50.96200187],[4.04658726,50.96205885],[4.04651598,50.9620997],[4.04650409,50.96209138],[4.0464811,50.96210504],[4.046505,50.96212126],[4.04644389,50.96215564],[4.04644201,50.96215525],[4.04640075,50.96217921],[4.04628376,50.96209886]]]}},{"type":"Feature","id":"gebouw/Gebouw.17160378/0","properties":{"source":"Digitaal Vlaanderen Gebouwenregister","source_id":"gebouw/Gebouw.17160378/0","kind":"building","height_m":7.88,"status":null},"geometry":{"type":"Polygon","coordinates":[[[4.04044712,50.95701159],[4.04030783,50.95708592],[4.04028653,50.95707],[4.04024121,50.95703613],[4.04006004,50.9569007],[4.04001626,50.95686797],[4.03998023,50.95684104],[4.04003439,50.95681162],[4.04056916,50.95652853],[4.04054774,50.95651239],[4.04059487,50.95648744],[4.04066009,50.95653659],[4.04072612,50.95650164],[4.04078882,50.95654034],[4.04086834,50.9565991],[4.04125891,50.95638825],[4.04136261,50.95646487],[4.04084961,50.95673684],[4.04089622,50.95677158],[4.04044712,50.95701159]]]}},{"type":"Feature","id":"gebouw/Gebouw.17167313/0","properties":{"source":"Digitaal Vlaanderen Gebouwenregister","source_id":"gebouw/Gebouw.17167313/0","kind":"building","height_m":6.44,"status":null},"geometry":{"type":"Polygon","coordinates":[[[4.04553944,50.95974695],[4.04578168,50.95992066],[4.04574268,50.95994193],[4.04580173,50.95995757],[4.04567317,50.96014347],[4.04568705,50.9601472],[4.04569264,50.96013892],[4.04605558,50.9602366],[4.04596567,50.96036663],[4.04519104,50.96015291],[4.04523101,50.96009491],[4.0453825,50.96013656],[4.0455302,50.95992226],[4.04551671,50.9599111],[4.04526438,50.96004921],[4.04512741,50.9599494],[4.04552137,50.95973378],[4.04553944,50.95974695]]]}},{"type":"Feature","id":"gebouw/Gebouw.17169235/0","properties":{"source":"Digitaal Vlaanderen Gebouwenregister","source_id":"gebouw/Gebouw.17169235/0","kind":"building","height_m":9.32,"status":null},"geometry":{"type":"Polygon","coordinates":[[[4.04577268,50.95622277],[4.0456867,50.95628815],[4.04565934,50.95627379],[4.04574532,50.95620841],[4.04577268,50.95622277]]]}},{"type":"Feature","id":"gebouw/Gebouw.17171456/0","properties":{"source":"Digitaal Vlaanderen Gebouwenregister","source_id":"gebouw/Gebouw.17171456/0","kind":"building","height_m":5.72,"status":null},"geometry":{"type":"Polygon","coordinates":[[[4.04287135,50.95697337],[4.04291991,50.95694162],[4.04296229,50.95696747],[4.04291374,50.95699922],[4.04287135,50.95697337]]]}},{"type":"Feature","id":"gebouw/Gebouw.17177868/0","properties":{"source":"Digitaal Vlaanderen Gebouwenregister","source_id":"gebouw/Gebouw.17177868/0","kind":"building","height_m":5.72,"status":null},"geometry":{"type":"Polygon","coordinates":[[[4.03966407,50.95897281],[4.03964118,50.95895027],[4.03968446,50.95893274],[4.03970735,50.95895528],[4.03966407,50.95897281]]]}},{"type":"Feature","id":"gebouw/Gebouw.17180184/0","properties":{"source":"Digitaal Vlaanderen Gebouwenregister","source_id":"gebouw/Gebouw.17180184/0","kind":"building","height_m":5.0,"status":null},"geometry":{"type":"Polygon","coordinates":[[[4.04721788,50.96122459],[4.04722455,50.96122131],[4.04726759,50.96125197],[4.04721066,50.9612815],[4.04716631,50.96125101],[4.04714278,50.96123483],[4.04719043,50.96120771],[4.04721788,50.96122459]]]}},{"type":"Feature","id":"gebouw/Gebouw.17182060/0","properties":{"source":"Digitaal Vlaanderen Gebouwenregister","source_id":"gebouw/Gebouw.17182060/0","kind":"building","height_m":5.0,"status":null},"geometry":{"type":"Polygon","coordinates":[[[4.04601039,50.95623644],[4.04595947,50.9562756],[4.04592192,50.95625612],[4.04597283,50.95621696],[4.04601039,50.95623644]]]}},{"type":"Feature","id":"gebouw/Gebouw.17182415/0","properties":{"source":"Digitaal Vlaanderen Gebouwenregister","source_id":"gebouw/Gebouw.17182415/0","kind":"building","height_m":8.6,"status":null},"geometry":{"type":"Polygon","coordinates":[[[4.04623156,50.95619396],[4.04615769,50.95625077],[4.04610807,50.95622486],[4.04629389,50.95608194],[4.04634618,50.95610581],[4.04623156,50.95619396]]]}},{"type":"Feature","id":"gebouw/Gebouw.17182587/0","properties":{"source":"Digitaal Vlaanderen Gebouwenregister","source_id":"gebouw/Gebouw.17182587/0","kind":"building","height_m":6.44,"status":null},"geometry":{"type":"Polygon","coordinates":[[[4.04659955,50.955833],[4.04656412,50.95582849],[4.04655432,50.95583226],[4.04651241,50.9557935],[4.04648848,50.95580488],[4.04646266,50.95578111],[4.04645426,50.95577338],[4.0463691,50.955695],[4.04636477,50.95569101],[4.04651347,50.95562618],[4.04655035,50.9556101],[4.04665672,50.95570848],[4.04673035,50.95577659],[4.04665903,50.95580735],[4.04659955,50.955833]]]}},{"type":"Feature","id":"gebouw/Gebouw.17184264/0","properties":{"source":"Digitaal Vlaanderen Gebouwenregister","source_id":"gebouw/Gebouw.17184264/0","kind":"building","height_m":9.32,"status":null},"geometry":{"type":"Polygon","coordinates":[[[4.04783141,50.95638267],[4.04770385,50.95653207],[4.0476407,50.95651137],[4.04769652,50.95644627],[4.04778047,50.95634835],[4.04784255,50.95636963],[4.04783141,50.95638267]]]}},{"type":"Feature","id":"gebouw/Gebouw.17192701/0","properties":{"source":"Digitaal Vlaanderen Gebouwenregister","source_id":"gebouw/Gebouw.17192701/0","kind":"building","height_m":5.72,"status":null},"geometry":{"type":"Polygon","coordinates":[[[4.04733003,50.95623611],[4.04738137,50.95625487],[4.04733596,50.95630445],[4.04736966,50.95631677],[4.04729835,50.95639252],[4.047211,50.95635971],[4.04733003,50.95623611]]]}},{"type":"Feature","id":"gebouw/Gebouw.17192726/0","properties":{"source":"Digitaal Vlaanderen Gebouwenregister","source_id":"gebouw/Gebouw.17192726/0","kind":"building","height_m":8.6,"status":null},"geometry":{"type":"Polygon","coordinates":[[[4.0436717,50.96032902],[4.04356913,50.96039072],[4.04336981,50.96025841],[4.04339042,50.96024619],[4.04331538,50.96019573],[4.04331117,50.9601982],[4.04330612,50.96019477],[4.04339629,50.9601418],[4.04339952,50.960144],[4.04339677,50.96014568],[4.04347176,50.96019617],[4.04347982,50.96019172],[4.04352327,50.96022025],[4.04351527,50.9602253],[4.0436717,50.96032902]]]}},{"type":"Feature","id":"gebouw/Gebouw.17193465/0","properties":{"source":"Digitaal Vlaanderen Gebouwenregister","source_id":"gebouw/Gebouw.17193465/0","kind":"building","height_m":6.44,"status":null},"geometry":{"type":"Polygon","coordinates":[[[4.03929768,50.95902753],[4.03928364,50.95901401],[4.03871977,50.95925766],[4.03867849,50.95921912],[4.03860645,50.95925022],[4.03855679,50.95920325],[4.03862821,50.95917228],[4.0385972,50.95914298],[4.03871671,50.95909136],[4.0385348,50.95892073],[4.03983686,50.95836232],[4.03998203,50.95830007],[4.04002706,50.95834229],[4.0400531,50.95836671],[4.04014613,50.95832608],[4.04016392,50.95834507],[4.04022326,50.95831806],[4.04032782,50.95841522],[4.0404431,50.95836479],[4.04052,50.95843639],[4.04028494,50.95853727],[4.03964213,50.95881316],[4.0395192,50.95881823],[4.0396024,50.95889518],[4.03929768,50.95902753]]]}},{"type":"Feature","id":"gebouw/Gebouw.17194440/0","properties":{"source":"Digitaal Vlaanderen Gebouwenregister","source_id":"gebouw/Gebouw.17194440/0","kind":"building","height_m":7.88,"status":null},"geometry":{"type":"Polygon","coordinates":[[[4.04007325,50.95797482],[4.03984228,50.95776291],[4.03989417,50.95774022],[4.03998512,50.95782318],[4.04001509,50.95781008],[4.04015601,50.95793863],[4.04007325,50.95797482]]]}},{"type":"Feature","id":"gebouw/Gebouw.17194441/0","properties":{"source":"Digitaal Vlaanderen Gebouwenregister","source_id":"gebouw/Gebouw.17194441/0","kind":"building","height_m":8.6,"status":null},"geometry":{"type":"Polygon","coordinates":[[[4.04534744,50.95589219],[4.04548477,50.95578376],[4.04540768,50.9557447],[4.04532978,50.95580604],[4.04531876,50.95580045],[4.04525811,50.95584821],[4.04525422,50.95585538],[4.04525372,50.9558634],[4.0452553,50.95587002],[4.04525925,50.95587563],[4.0452646,50.95587906],[4.04532493,50.95590962],[4.04534744,50.95589219]]]}},{"type":"Feature","id":"gebouw/Gebouw.17195132/0","properties":{"source":"Digitaal Vlaanderen Gebouwenregister","source_id":"gebouw/Gebouw.17195132/0","kind":"building","height_m":7.16,"status":null},"geometry":{"type":"Polygon","coordinates":[[[4.03880509,50.95686063],[4.03856775,50.95696331],[4.03856285,50.95696543],[4.03836359,50.95678171],[4.03832055,50.95674202],[4.03816288,50.95681023],[4.03809,50.95684176],[4.03808675,50.95684317],[4.0380677,50.95682561],[4.03796521,50.9567311],[4.03791436,50.9567531],[4.03785077,50.95678062],[4.03740488,50.95636948],[4.03752363,50.95631811],[4.03728352,50.95609671],[4.03775706,50.95589184],[4.03795834,50.95607744],[4.03797319,50.95609113],[4.03804912,50.95605821],[4.03815677,50.95615726],[4.03819779,50.95613947],[4.03824052,50.95617928],[4.03839754,50.95632559],[4.03827958,50.95637609],[4.03880509,50.95686063]]]}},{"type":"Feature","id":"gebouw/Gebouw.17196221/0","properties":{"source":"Digitaal Vlaanderen Gebouwenregister","source_id":"gebouw/Gebouw.17196221/0","kind":"building","height_m":5.0,"status":null},"geometry":{"type":"Polygon","coordinates":[[[4.04772739,50.95583467],[4.04768365,50.95599234],[4.04759731,50.95598279],[4.04754754,50.95597728],[4.0475527,50.95595867],[4.04759128,50.95581961],[4.04772739,50.95583467]]]}},{"type":"Feature","id":"gebouw/Gebouw.17196481/0","properties":{"source":"Digitaal Vlaanderen Gebouwenregister","source_id":"gebouw/Gebouw.17196481/0","kind":"building","height_m":5.72,"status":null},"geometry":{"type":"Polygon","coordinates":[[[4.04658682,50.96030307],[4.04671087,50.96039339],[4.04662823,50.96043866],[4.04655714,50.9603863],[4.04650465,50.96034808],[4.04658682,50.96030307]]]}},{"type":"Feature","id":"gebouw/Gebouw.17196716/0","properties":{"source":"Digitaal Vlaanderen Gebouwenregister","source_id":"gebouw/Gebouw.17196716/0","kind":"building","height_m":8.6,"status":null},"geometry":{"type":"Polygon","coordinates":[[[4.04408797,50.95959446],[4.04394024,50.95968768],[4.04336159,50.95932191],[4.04350932,50.9592287],[4.04408797,50.95959446]]]}},{"type":"Feature","id":"gebouw/Gebouw.17197864/0","properties":{"source":"Digitaal Vlaanderen Gebouwenregister","source_id":"gebouw/Gebouw.17197864/0","kind":"building","height_m":8.6,"status":null},"geometry":{"type":"Polygon","coordinates":[[[4.04235647,50.95628976],[4.04249325,50.95639177],[4.04247331,50.95646169],[4.04090743,50.95729736],[4.04085295,50.95725664],[4.04080744,50.95728093],[4.0407522,50.95723964],[4.04046974,50.9570285],[4.04044712,50.95701159],[4.04089622,50.95677158],[4.04084961,50.95673684],[4.04136261,50.95646487],[4.04168252,50.95629217],[4.04181828,50.95621936],[4.04207673,50.95608113],[4.04235647,50.95628976]]]}},{"type":"Feature","id":"gebouw/Gebouw.17198036/0","properties":{"source":"Digitaal Vlaanderen Gebouwenregister","source_id":"gebouw/Gebouw.17198036/0","kind":"building","height_m":6.44,"status":null},"geometry":{"type":"Polygon","coordinates":[[[4.04802686,50.95686723],[4.04807094,50.95689264],[4.04800887,50.95693558],[4.04799599,50.95692816],[4.04796479,50.95691017],[4.04802686,50.95686723]]]}},{"type":"Feature","id":"gebouw/Gebouw.17198288/0","properties":{"source":"Digitaal Vlaanderen Gebouwenregister","source_id":"gebouw/Gebouw.17198288/0","kind":"building","height_m":6.44,"status":null},"geometry":{"type":"Polygon","coordinates":[[[4.04768575,50.95675038],[4.04763128,50.95679041],[4.04760689,50.95680834],[4.0475882,50.95682208],[4.04751015,50.9567826],[4.0475307,50.95676704],[4.04761041,50.95670667],[4.0476289,50.95671643],[4.04770995,50.9566541],[4.04778364,50.95667844],[4.04768575,50.95675038]]]}},{"type":"Feature","id":"gebouw/Gebouw.17199745/0","properties":{"source":"Digitaal Vlaanderen Gebouwenregister","source_id":"gebouw/Gebouw.17199745/0","kind":"building","height_m":7.16,"status":null},"geometry":{"type":"Polygon","coordinates":[[[4.04684975,50.95604778],[4.04702833,50.95613056],[4.0469395,50.956207],[4.04688342,50.956181],[4.04685111,50.95616603],[4.04672393,50.95610707],[4.04678909,50.956051],[4.04682608,50.95606815],[4.04684975,50.95604778]]]}},{"type":"Feature","id":"gebouw/Gebouw.17201729/0","properties":{"source":"Digitaal Vlaanderen Gebouwenregister","source_id":"gebouw/Gebouw.17201729/0","kind":"building","height_m":9.32,"status":null},"geometry":{"type":"Polygon","coordinates":[[[4.04792632,50.95672573],[4.04772097,50.95687685],[4.04765769,50.95684255],[4.04768818,50.95682014],[4.04785097,50.9567005],[4.04792632,50.95672573]]]}},{"type":"Feature","id":"gebouw/Gebouw.17203395/0","properties":{"source":"Digitaal Vlaanderen Gebouwenregister","source_id":"gebouw/Gebouw.17203395/0","kind":"building","height_m":9.32,"status":null},"geometry":{"type":"Polygon","coordinates":[[[4.04640069,50.96187938],[4.04643936,50.96185651],[4.04649094,50.96188903],[4.04647494,50.96189931],[4.04648963,50.96190851],[4.04646377,50.96192563],[4.04644956,50.9619152],[4.04640069,50.96187938]]]}},{"type":"Feature","id":"gebouw/Gebouw.17207220/0","properties":{"source":"Digitaal Vlaanderen Gebouwenregister","source_id":"gebouw/Gebouw.17207220/0","kind":"building","height_m":6.44,"status":null},"geometry":{"type":"Polygon","coordinates":[[[4.0467232,50.95925416],[4.04693577,50.95941037],[4.04670229,50.95953709],[4.04648972,50.95938088],[4.0467232,50.95925416]]]}},{"type":"Feature","id":"gebouw/Gebouw.17222395/0","properties":{"source":"Digitaal Vlaanderen Gebouwenregister","source_id":"gebouw/Gebouw.17222395/0","kind":"building","height_m":5.72,"status":null},"geometry":{"type":"Polygon","coordinates":[[[4.04788752,50.9562235],[4.04786751,50.95624683],[4.04783774,50.95628155],[4.0478835,50.95627485],[4.04791264,50.95624229],[4.04788752,50.9562235]]]}},{"type":"Feature","id":"gebouw/Gebouw.17222841/0","properties":{"source":"Digitaal Vlaanderen Gebouwenregister","source_id":"gebouw/Gebouw.17222841/0","kind":"building","height_m":9.32,"status":null},"geometry":{"type":"Polygon","coordinates":[[[4.04676306,50.95655609],[4.04668873,50.95661057],[4.04666064,50.95659497],[4.04673932,50.95653632],[4.04673451,50.95653374],[4.04675762,50.95651652],[4.04668734,50.95647956],[4.04668941,50.95647804],[4.04678392,50.95640877],[4.04682099,50.95638161],[4.0468234,50.95638289],[4.04689335,50.95642016],[4.04679925,50.95649062],[4.04682986,50.95650713],[4.04682727,50.95650903],[4.04676306,50.95655609]]]}},{"type":"Feature","id":"gebouw/Gebouw.17223899/0","properties":{"source":"Digitaal Vlaanderen Gebouwenregister","source_id":"gebouw/Gebouw.17223899/0","kind":"building","height_m":5.0,"status":null},"geometry":{"type":"Polygon","coordinates":[[[4.04457445,50.95623334],[4.04457593,50.95623415],[4.04454581,50.95625616],[4.04459851,50.95628491],[4.04462862,50.9562629],[4.04463368,50.95626566],[4.04469912,50.95621781],[4.04463989,50.9561855],[4.04457445,50.95623334]]]}},{"type":"Feature","id":"gebouw/Gebouw.17224364/0","properties":{"source":"Digitaal Vlaanderen Gebouwenregister","source_id":"gebouw/Gebouw.17224364/0","kind":"building","height_m":7.16,"status":null},"geometry":{"type":"Polygon","coordinates":[[[4.04550625,50.95888805],[4.04558836,50.95893993],[4.04592271,50.95872884],[4.04594741,50.95874444],[4.04690273,50.95813997],[4.04679486,50.95809688],[4.04589249,50.95773637],[4.04542031,50.95754701],[4.04531661,50.9576127],[4.04519294,50.95753483],[4.04509848,50.95759467],[4.04512552,50.9576117],[4.04483635,50.95779487],[4.04480975,50.95777812],[4.04471527,50.95783797],[4.04483793,50.95791521],[4.04445147,50.95816003],[4.04432116,50.9580777],[4.04402657,50.95826369],[4.04413644,50.95833311],[4.04415602,50.95834548],[4.04405511,50.95840919],[4.0451456,50.95909816],[4.04549233,50.95887926],[4.04550625,50.95888805]]]}},{"type":"Feature","id":"gebouw/Gebouw.17225736/0","properties":{"source":"Digitaal Vlaanderen Gebouwenregister","source_id":"gebouw/Gebouw.17225736/0","kind":"building","height_m":7.16,"status":null},"geometry":{"type":"Polygon","coordinates":[[[4.04457012,50.95929767],[4.04456463,50.95929419],[4.04456148,50.95929617],[4.04459187,50.9593154],[4.04450159,50.9593723],[4.04447256,50.95935393],[4.04428524,50.959472],[4.04434483,50.95950971],[4.0442485,50.95957043],[4.0441889,50.95953272],[4.04417648,50.95954055],[4.04316245,50.95889884],[4.04355274,50.95865285],[4.04360293,50.95868463],[4.04361909,50.95867311],[4.04369271,50.95872305],[4.04367792,50.95873237],[4.04385179,50.95884239],[4.044096,50.95868847],[4.04481488,50.9591434],[4.04458742,50.95928677],[4.04457012,50.95929767]]]}},{"type":"Feature","id":"gebouw/Gebouw.17232200/0","properties":{"source":"Digitaal Vlaanderen Gebouwenregister","source_id":"gebouw/Gebouw.17232200/0","kind":"building","height_m":9.32,"status":null},"geometry":{"type":"Polygon","coordinates":[[[4.04467318,50.956122],[4.04462412,50.95615934],[4.04470365,50.95620102],[4.04478824,50.95613817],[4.04471351,50.956099],[4.04467917,50.95612514],[4.04467318,50.956122]]]}},{"type":"Feature","id":"gebouw/Gebouw.17237348/0","properties":{"source":"Digitaal Vlaanderen Gebouwenregister","source_id":"gebouw/Gebouw.17237348/0","kind":"building","height_m":6.44,"status":null},"geometry":{"type":"Polygon","coordinates":[[[4.04379552,50.95849775],[4.04394469,50.9585931],[4.0438722,50.95863833],[4.04372303,50.95854298],[4.04379552,50.95849775]]]}},{"type":"Feature","id":"gebouw/Gebouw.17239513/0","properties":{"source":"Digitaal Vlaanderen Gebouwenregister","source_id":"gebouw/Gebouw.17239513/0","kind":"building","height_m":7.88,"status":null},"geometry":{"type":"Polygon","coordinates":[[[4.04769652,50.95644627],[4.04778047,50.95634835],[4.04783774,50.95628155],[4.04786751,50.95624683],[4.04778886,50.95621924],[4.04767048,50.95635383],[4.04762304,50.95633845],[4.04763266,50.95632724],[4.04761104,50.95632052],[4.04755623,50.95638445],[4.04757407,50.95639036],[4.04750801,50.9564674],[4.0476407,50.95651137],[4.04769652,50.95644627]]]}},{"type":"Feature","id":"gebouw/Gebouw.17239527/0","properties":{"source":"Digitaal Vlaanderen Gebouwenregister","source_id":"gebouw/Gebouw.17239527/0","kind":"building","height_m":7.88,"status":null},"geometry":{"type":"Polygon","coordinates":[[[4.0461883,50.95603579],[4.04601663,50.95616782],[4.04596354,50.95613908],[4.04599674,50.95611355],[4.04613134,50.95601003],[4.0461883,50.95603579]]]}},{"type":"Feature","id":"gebouw/Gebouw.17259156/0","properties":{"source":"Digitaal Vlaanderen Gebouwenregister","source_id":"gebouw/Gebouw.17259156/0","kind":"building","height_m":8.6,"status":null},"geometry":{"type":"Polygon","coordinates":[[[4.04467158,50.95690817],[4.04462571,50.95688554],[4.04465762,50.95685974],[4.04471392,50.95688751],[4.0446945,50.95690321],[4.04468407,50.95689807],[4.04467158,50.95690817]]]}},{"type":"Feature","id":"gebouw/Gebouw.17259206/0","properties":{"source":"Digitaal Vlaanderen Gebouwenregister","source_id":"gebouw/Gebouw.17259206/0","kind":"building","height_m":9.32,"status":null},"geometry":{"type":"Polygon","coordinates":[[[4.0452493,50.95573476],[4.04525926,50.95572732],[4.04530554,50.95569273],[4.04531588,50.95568501],[4.04525347,50.95565169],[4.04514428,50.95573329],[4.04514397,50.95572647],[4.04512534,50.95571618],[4.04511153,50.95571722],[4.04500705,50.95579003],[4.0449784,50.95580999],[4.04502294,50.95583376],[4.04505754,50.95580791],[4.04509899,50.95583003],[4.0451272,50.95580894],[4.04514052,50.95581605],[4.0452493,50.95573476]]]}},{"type":"Feature","id":"gebouw/Gebouw.17260752/0","properties":{"source":"Digitaal Vlaanderen Gebouwenregister","source_id":"gebouw/Gebouw.17260752/0","kind":"building","height_m":8.6,"status":null},"geometry":{"type":"Polygon","coordinates":[[[4.04772856,50.95711602],[4.04778743,50.95714393],[4.04776224,50.95716132],[4.04770451,50.9571329],[4.04772856,50.95711602]]]}},{"type":"Feature","id":"gebouw/Gebouw.17266492/0","properties":{"source":"Digitaal Vlaanderen Gebouwenregister","source_id":"gebouw/Gebouw.17266492/0","kind":"building","height_m":8.6,"status":null},"geometry":{"type":"Polygon","coordinates":[[[4.0461948,50.95564908],[4.04625525,50.95570326],[4.04610807,50.95576876],[4.04604672,50.95571377],[4.0461948,50.95564908]]]}},{"type":"Feature","id":"gebouw/Gebouw.17267242/0","properties":{"source":"Digitaal Vlaanderen Gebouwenregister","source_id":"gebouw/Gebouw.17267242/0","kind":"building","height_m":9.32,"status":null},"geometry":{"type":"Polygon","coordinates":[[[4.04682727,50.95650903],[4.04688443,50.95653988],[4.04698214,50.95646764],[4.04714395,50.95655496],[4.04701544,50.95665107],[4.04687369,50.95657415],[4.04683971,50.95659858],[4.04676306,50.95655609],[4.04682727,50.95650903]]]}},{"type":"Feature","id":"gebouw/Gebouw.17268824/0","properties":{"source":"Digitaal Vlaanderen Gebouwenregister","source_id":"gebouw/Gebouw.17268824/0","kind":"building","height_m":9.32,"status":null},"geometry":{"type":"Polygon","coordinates":[[[4.04806479,50.96092131],[4.04761389,50.96059621],[4.04777776,50.96050556],[4.04816421,50.96078419],[4.04817813,50.96077649],[4.04828012,50.96084987],[4.04820024,50.96089415],[4.0481942,50.96089676],[4.04818741,50.96089851],[4.04818096,50.96089939],[4.04817432,50.96089945],[4.04816809,50.96089869],[4.0481614,50.96089715],[4.04815646,50.9608952],[4.04815318,50.9608936],[4.04813686,50.96088197],[4.04806479,50.96092131]]]}},{"type":"Feature","id":"gebouw/Gebouw.17271928/0","properties":{"source":"Digitaal Vlaanderen Gebouwenregister","source_id":"gebouw/Gebouw.17271928/0","kind":"building","height_m":6.44,"status":null},"geometry":{"type":"Polygon","coordinates":[[[4.04582953,50.95609742],[4.04574688,50.95616011],[4.04571119,50.95614183],[4.04572816,50.95612861],[4.04571794,50.95612338],[4.04583485,50.95603234],[4.04587527,50.95605368],[4.04588231,50.95605739],[4.04582953,50.95609742]]]}},{"type":"Feature","id":"gebouw/Gebouw.17274151/0","properties":{"source":"Digitaal Vlaanderen Gebouwenregister","source_id":"gebouw/Gebouw.17274151/0","kind":"building","height_m":9.32,"status":null},"geometry":{"type":"Polygon","coordinates":[[[4.04700784,50.95585885],[4.04705559,50.95596381],[4.04681269,50.95600722],[4.04681088,50.95600318],[4.0467685,50.9559086],[4.04700784,50.95585885]]]}},{"type":"Feature","id":"gebouw/Gebouw.17277535/0","properties":{"source":"Digitaal Vlaanderen Gebouwenregister","source_id":"gebouw/Gebouw.17277535/0","kind":"building","height_m":6.44,"status":null},"geometry":{"type":"Polygon","coordinates":[[[4.04714825,50.95703613],[4.04709445,50.95700777],[4.04712711,50.956983],[4.04718095,50.95701138],[4.04714825,50.95703613]]]}},{"type":"Feature","id":"gebouw/Gebouw.17281316/0","properties":{"source":"Digitaal Vlaanderen Gebouwenregister","source_id":"gebouw/Gebouw.17281316/0","kind":"building","height_m":7.16,"status":null},"geometry":{"type":"Polygon","coordinates":[[[4.04511153,50.95571722],[4.04500705,50.95579003],[4.04492211,50.95574469],[4.04489962,50.95573268],[4.04489686,50.95571774],[4.04494111,50.95568389],[4.04497453,50.95570131],[4.04505844,50.95563526],[4.04515727,50.95568534],[4.04511153,50.95571722]]]}},{"type":"Feature","id":"gebouw/Gebouw.17281606/0","properties":{"source":"Digitaal Vlaanderen Gebouwenregister","source_id":"gebouw/Gebouw.17281606/0","kind":"building","height_m":9.32,"status":null},"geometry":{"type":"Polygon","coordinates":[[[4.04762032,50.95684625],[4.04758291,50.95682597],[4.0475882,50.95682208],[4.04760689,50.95680834],[4.04763128,50.95679041],[4.04768575,50.95675038],[4.04778364,50.95667844],[4.04785097,50.9567005],[4.04768818,50.95682014],[4.04765769,50.95684255],[4.04763907,50.95683246],[4.04762032,50.95684625]]]}},{"type":"Feature","id":"gebouw/Gebouw.17282148/0","properties":{"source":"Digitaal Vlaanderen Gebouwenregister","source_id":"gebouw/Gebouw.17282148/0","kind":"building","height_m":6.44,"status":null},"geometry":{"type":"Polygon","coordinates":[[[4.04606791,50.95619221],[4.04605695,50.95620064],[4.04603178,50.95618699],[4.04604029,50.95618073],[4.04601663,50.95616782],[4.0461883,50.95603579],[4.04624188,50.95605841],[4.04606791,50.95619221]]]}},{"type":"Feature","id":"gebouw/Gebouw.17286489/0","properties":{"source":"Digitaal Vlaanderen Gebouwenregister","source_id":"gebouw/Gebouw.17286489/0","kind":"building","height_m":7.16,"status":null},"geometry":{"type":"Polygon","coordinates":[[[4.04455363,50.95612545],[4.0445975,50.95608302],[4.04464249,50.95610157],[4.04459862,50.956144],[4.04455363,50.95612545]]]}},{"type":"Feature","id":"gebouw/Gebouw.17286825/0","properties":{"source":"Digitaal Vlaanderen Gebouwenregister","source_id":"gebouw/Gebouw.17286825/0","kind":"building","height_m":7.16,"status":null},"geometry":{"type":"Polygon","coordinates":[[[4.04660557,50.95647532],[4.04664688,50.95649781],[4.04657984,50.95654694],[4.04653853,50.95652445],[4.04660557,50.95647532]]]}},{"type":"Feature","id":"gebouw/Gebouw.17286907/0","properties":{"source":"Digitaal Vlaanderen Gebouwenregister","source_id":"gebouw/Gebouw.17286907/0","kind":"building","height_m":5.72,"status":null},"geometry":{"type":"Polygon","coordinates":[[[4.04615326,50.95631764],[4.04609318,50.95636374],[4.04606867,50.956351],[4.04612875,50.9563049],[4.04615326,50.95631764]]]}},{"type":"Feature","id":"gebouw/Gebouw.17294388/0","properties":{"source":"Digitaal Vlaanderen Gebouwenregister","source_id":"gebouw/Gebouw.17294388/0","kind":"building","height_m":9.32,"status":null},"geometry":{"type":"Polygon","coordinates":[[[4.04667873,50.96200502],[4.04651747,50.96189262],[4.04662502,50.96183108],[4.04678545,50.96194349],[4.04674847,50.96196454],[4.04675037,50.96196717],[4.04675111,50.96196907],[4.04675168,50.96197128],[4.0467514,50.96197369],[4.04675045,50.96197665],[4.04674963,50.9619781],[4.04674763,50.96198055],[4.04674579,50.96198206],[4.04674317,50.96198357],[4.04673976,50.96198503],[4.04673657,50.96198586],[4.04673307,50.96198646],[4.0467288,50.96198656],[4.04672493,50.96198645],[4.04672149,50.96198573],[4.04671768,50.9619848],[4.04671558,50.96198394],[4.04667873,50.96200502]]]}},{"type":"Feature","id":"gebouw/Gebouw.17294524/0","properties":{"source":"Digitaal Vlaanderen Gebouwenregister","source_id":"gebouw/Gebouw.17294524/0","kind":"building","height_m":6.44,"status":null},"geometry":{"type":"Polygon","coordinates":[[[4.04595957,50.95593998],[4.04584663,50.95602787],[4.04576697,50.95598664],[4.045793,50.95596664],[4.04587221,50.95590582],[4.0458748,50.95590693],[4.04587579,50.95590611],[4.04595957,50.95593998]]]}},{"type":"Feature","id":"gebouw/Gebouw.17300579/0","properties":{"source":"Digitaal Vlaanderen Gebouwenregister","source_id":"gebouw/Gebouw.17300579/0","kind":"building","height_m":6.44,"status":null},"geometry":{"type":"Polygon","coordinates":[[[4.04724913,50.95611101],[4.04718771,50.95617479],[4.04714646,50.9561589],[4.047209,50.95609414],[4.04722181,50.95609908],[4.04730227,50.95601778],[4.04732943,50.95602763],[4.04730346,50.9560546],[4.04724913,50.95611101]]]}},{"type":"Feature","id":"gebouw/Gebouw.17302149/0","properties":{"source":"Digitaal Vlaanderen Gebouwenregister","source_id":"gebouw/Gebouw.17302149/0","kind":"building","height_m":7.88,"status":null},"geometry":{"type":"Polygon","coordinates":[[[4.04761104,50.95632052],[4.04762691,50.95630154],[4.04753544,50.95627104],[4.04749379,50.95632087],[4.0475434,50.95633741],[4.0475148,50.95637163],[4.04752032,50.95637347],[4.04745623,50.95645013],[4.04750801,50.9564674],[4.04757407,50.95639036],[4.04755623,50.95638445],[4.04761104,50.95632052]]]}},{"type":"Feature","id":"gebouw/Gebouw.17302152/0","properties":{"source":"Digitaal Vlaanderen Gebouwenregister","source_id":"gebouw/Gebouw.17302152/0","kind":"building","height_m":5.0,"status":null},"geometry":{"type":"Polygon","coordinates":[[[4.04662823,50.96043866],[4.04683634,50.96059019],[4.04662661,50.96070507],[4.04662151,50.96070786],[4.0467338,50.96078604],[4.04651633,50.96090512],[4.0461256,50.96062063],[4.04621192,50.96057335],[4.04609495,50.96048805],[4.04623671,50.96041052],[4.04622299,50.96040015],[4.04622582,50.96037746],[4.04623723,50.96037109],[4.04626785,50.96039363],[4.0463529,50.96034737],[4.04647074,50.96043329],[4.04655714,50.9603863],[4.04662823,50.96043866]]]}},{"type":"Feature","id":"gebouw/Gebouw.17307377/0","properties":{"source":"Digitaal Vlaanderen Gebouwenregister","source_id":"gebouw/Gebouw.17307377/0","kind":"building","height_m":7.16,"status":null},"geometry":{"type":"Polygon","coordinates":[[[4.04734535,50.95607074],[4.04734748,50.95607156],[4.04729301,50.95612797],[4.04724913,50.95611101],[4.04730346,50.9560546],[4.04731034,50.95605725],[4.04737757,50.95598764],[4.0474107,50.95599975],[4.04742355,50.95600444],[4.04741373,50.95601461],[4.047417,50.9560299],[4.04737774,50.95607055],[4.04735427,50.9560615],[4.04734535,50.95607074]]]}},{"type":"Feature","id":"gebouw/Gebouw.17311397/0","properties":{"source":"Digitaal Vlaanderen Gebouwenregister","source_id":"gebouw/Gebouw.17311397/0","kind":"building","height_m":8.6,"status":null},"geometry":{"type":"Polygon","coordinates":[[[4.04720382,50.96208185],[4.04732753,50.96217057],[4.0471785,50.96225344],[4.04706073,50.96217033],[4.04716136,50.96211346],[4.04715474,50.96210914],[4.04720382,50.96208185]]]}},{"type":"Feature","id":"gebouw/Gebouw.17311421/0","properties":{"source":"Digitaal Vlaanderen Gebouwenregister","source_id":"gebouw/Gebouw.17311421/0","kind":"building","height_m":5.72,"status":null},"geometry":{"type":"Polygon","coordinates":[[[4.04813551,50.95690403],[4.04799719,50.95700119],[4.04798013,50.95701317],[4.04806893,50.95706299],[4.04819378,50.95697422],[4.04818872,50.95697117],[4.04821749,50.95695058],[4.04813551,50.95690403]]]}},{"type":"Feature","id":"gebouw/Gebouw.17320767/0","properties":{"source":"Digitaal Vlaanderen Gebouwenregister","source_id":"gebouw/Gebouw.17320767/0","kind":"building","height_m":6.44,"status":null},"geometry":{"type":"Polygon","coordinates":[[[4.04740721,50.95584711],[4.047446,50.95593761],[4.04724035,50.95597552],[4.04719931,50.95588671],[4.04714326,50.95589704],[4.04711663,50.95583946],[4.04748589,50.95577363],[4.047511,50.95582798],[4.04740721,50.95584711]]]}},{"type":"Feature","id":"gebouw/Gebouw.17347110/0","properties":{"source":"Digitaal Vlaanderen Gebouwenregister","source_id":"gebouw/Gebouw.17347110/0","kind":"building","height_m":7.88,"status":null},"geometry":{"type":"Polygon","coordinates":[[[4.0474031,50.95753305],[4.04744131,50.95755134],[4.04741089,50.9575767],[4.04737268,50.95755841],[4.0474031,50.95753305]]]}},{"type":"Feature","id":"gebouw/Gebouw.17369981/0","properties":{"source":"Digitaal Vlaanderen Gebouwenregister","source_id":"gebouw/Gebouw.17369981/0","kind":"building","height_m":9.32,"status":null},"geometry":{"type":"Polygon","coordinates":[[[4.04651347,50.95562618],[4.04636477,50.95569101],[4.04633214,50.95566195],[4.04641292,50.95562577],[4.04642696,50.95563828],[4.04649357,50.95560845],[4.04651347,50.95562618]]]}},{"type":"Feature","id":"gebouw/Gebouw.17370213/0","properties":{"source":"Digitaal Vlaanderen Gebouwenregister","source_id":"gebouw/Gebouw.17370213/0","kind":"building","height_m":5.0,"status":null},"geometry":{"type":"Polygon","coordinates":[[[4.04244806,50.95865136],[4.04227675,50.95854263],[4.04224542,50.95852274],[4.04212917,50.95859737],[4.04212589,50.95859539],[4.04212941,50.95859294],[4.04177969,50.95837301],[4.04177651,50.95837491],[4.04172349,50.95834143],[4.0418405,50.95826751],[4.04305972,50.95750332],[4.04398239,50.95808892],[4.04319341,50.95858478],[4.04287527,50.95838287],[4.04244806,50.95865136]],[[4.04204359,50.95839027],[4.04210093,50.95835512],[4.0419878,50.95828132],[4.04192948,50.95831721],[4.04204359,50.95839027]]]}},{"type":"Feature","id":"gebouw/Gebouw.17385753/0","properties":{"source":"Digitaal Vlaanderen Gebouwenregister","source_id":"gebouw/Gebouw.17385753/0","kind":"building","height_m":5.0,"status":null},"geometry":{"type":"Polygon","coordinates":[[[4.04760677,50.95600451],[4.04758674,50.95603023],[4.04754222,50.9560164],[4.04756455,50.95598774],[4.04760677,50.95600451]]]}},{"type":"Feature","id":"gebouw/Gebouw.17393705/0","properties":{"source":"Digitaal Vlaanderen Gebouwenregister","source_id":"gebouw/Gebouw.17393705/0","kind":"building","height_m":5.0,"status":null},"geometry":{"type":"Polygon","coordinates":[[[4.04595606,50.95659254],[4.04589923,50.95663514],[4.04585522,50.95661281],[4.04590952,50.95657011],[4.04593743,50.95654816],[4.04598386,50.95657171],[4.04595606,50.95659254]]]}},{"type":"Feature","id":"gebouw/Gebouw.17394334/0","properties":{"source":"Digitaal Vlaanderen Gebouwenregister","source_id":"gebouw/Gebouw.17394334/0","kind":"building","height_m":9.32,"status":null},"geometry":{"type":"Polygon","coordinates":[[[4.04598209,50.95553056],[4.04602043,50.95556541],[4.04585941,50.95563456],[4.04585792,50.95563318],[4.04582957,50.95564515],[4.04579398,50.95561311],[4.04582252,50.95560101],[4.04574533,50.95553085],[4.04584957,50.9554851],[4.04588646,50.95551864],[4.04592378,50.95550226],[4.04596376,50.9555386],[4.04598209,50.95553056]]]}},{"type":"Feature","id":"gebouw/Gebouw.18729261/0","properties":{"source":"Digitaal Vlaanderen Gebouwenregister","source_id":"gebouw/Gebouw.18729261/0","kind":"building","height_m":8.6,"status":null},"geometry":{"type":"Polygon","coordinates":[[[4.04730508,50.96117415],[4.04727547,50.96119171],[4.047233,50.96116359],[4.04726347,50.96114589],[4.04730508,50.96117415]]]}},{"type":"Feature","id":"gebouw/Gebouw.18729490/0","properties":{"source":"Digitaal Vlaanderen Gebouwenregister","source_id":"gebouw/Gebouw.18729490/0","kind":"building","height_m":7.16,"status":null},"geometry":{"type":"Polygon","coordinates":[[[4.04115688,50.96148188],[4.04115607,50.96147502],[4.04115153,50.96146551],[4.04114334,50.96145655],[4.04113189,50.96144894],[4.04111812,50.96144333],[4.04110331,50.96143999],[4.04109593,50.96143941],[4.04117018,50.96139354],[4.0412327,50.96143485],[4.04115688,50.96148188]]]}},{"type":"Feature","id":"gebouw/Gebouw.18729746/0","properties":{"source":"Digitaal Vlaanderen Gebouwenregister","source_id":"gebouw/Gebouw.18729746/0","kind":"building","height_m":5.0,"status":null},"geometry":{"type":"Polygon","coordinates":[[[4.03764229,50.96000603],[4.03760097,50.96001692],[4.03757877,50.95998244],[4.03761988,50.95997155],[4.03764229,50.96000603]]]}},{"type":"Feature","id":"gebouw/Gebouw.19889491/0","properties":{"source":"Digitaal Vlaanderen Gebouwenregister","source_id":"gebouw/Gebouw.19889491/0","kind":"building","height_m":9.32,"status":null},"geometry":{"type":"Polygon","coordinates":[[[4.04645167,50.95615774],[4.04641977,50.95618171],[4.04643308,50.95618877],[4.04634231,50.95625864],[4.04632273,50.95627371],[4.04628907,50.956267],[4.0462806,50.95626271],[4.04625136,50.95624788],[4.0464025,50.95613163],[4.04645167,50.95615774]]]}},{"type":"Feature","id":"gebouw/Gebouw.19889492/0","properties":{"source":"Digitaal Vlaanderen Gebouwenregister","source_id":"gebouw/Gebouw.19889492/0","kind":"building","height_m":5.0,"status":null},"geometry":{"type":"Polygon","coordinates":[[[4.0462806,50.95626271],[4.04625179,50.95628467],[4.04622306,50.95626964],[4.04625136,50.95624788],[4.0462806,50.95626271]]]}},{"type":"Feature","id":"gebouw/Gebouw.19891773/0","properties":{"source":"Digitaal Vlaanderen Gebouwenregister","source_id":"gebouw/Gebouw.19891773/0","kind":"building","height_m":9.32,"status":null},"geometry":{"type":"Polygon","coordinates":[[[4.04711453,50.96150673],[4.04733177,50.9616379],[4.0472582,50.96168649],[4.04723673,50.96167329],[4.04722829,50.96167887],[4.04711785,50.96161219],[4.04701948,50.96167722],[4.04696249,50.96164284],[4.04691652,50.96161511],[4.04695209,50.96159159],[4.04709908,50.9614974],[4.04711453,50.96150673]]]}},{"type":"Feature","id":"gebouw/Gebouw.19891774/0","properties":{"source":"Digitaal Vlaanderen Gebouwenregister","source_id":"gebouw/Gebouw.19891774/0","kind":"building","height_m":5.0,"status":null},"geometry":{"type":"Polygon","coordinates":[[[4.04695209,50.96159159],[4.04691652,50.96161511],[4.04689046,50.96159939],[4.04684381,50.96157125],[4.04687938,50.96154773],[4.04695209,50.96159159]]]}},{"type":"Feature","id":"gebouw/Gebouw.19892602/0","properties":{"source":"Digitaal Vlaanderen Gebouwenregister","source_id":"gebouw/Gebouw.19892602/0","kind":"building","height_m":6.44,"status":null},"geometry":{"type":"Polygon","coordinates":[[[4.04038817,50.95975502],[4.03989201,50.95932448],[4.04108005,50.95877731],[4.04138264,50.95904585],[4.04127665,50.95909349],[4.04130726,50.95911974],[4.04135809,50.95916333],[4.04146881,50.95925828],[4.04142895,50.9592766],[4.04139506,50.95929218],[4.04038817,50.95975502]]]}},{"type":"Feature","id":"gebouw/Gebouw.19892603/0","properties":{"source":"Digitaal Vlaanderen Gebouwenregister","source_id":"gebouw/Gebouw.19892603/0","kind":"building","height_m":7.16,"status":null},"geometry":{"type":"Polygon","coordinates":[[[4.04006885,50.9599018],[4.03960539,50.96011482],[4.03955121,50.96006782],[4.03928418,50.9598361],[4.03911886,50.95969264],[4.03975423,50.95940059],[4.03974469,50.95939233],[4.03989201,50.95932448],[4.04038817,50.95975502],[4.04009129,50.95989148],[4.04007794,50.95989761],[4.04006885,50.9599018]]]}},{"type":"Feature","id":"gebouw/Gebouw.19892701/0","properties":{"source":"Digitaal Vlaanderen Gebouwenregister","source_id":"gebouw/Gebouw.19892701/0","kind":"building","height_m":7.16,"status":null},"geometry":{"type":"Polygon","coordinates":[[[4.04305972,50.95750332],[4.0418405,50.95826751],[4.04179074,50.958236],[4.04148664,50.95804346],[4.04143726,50.95801219],[4.0414491,50.95800432],[4.0423547,50.95743422],[4.042774,50.95717026],[4.04318085,50.95742665],[4.04305972,50.95750332]]]}},{"type":"Feature","id":"gebouw/Gebouw.19892702/0","properties":{"source":"Digitaal Vlaanderen Gebouwenregister","source_id":"gebouw/Gebouw.19892702/0","kind":"building","height_m":7.88,"status":null},"geometry":{"type":"Polygon","coordinates":[[[4.0423547,50.95743422],[4.0414491,50.95800432],[4.04127857,50.95789615],[4.04218384,50.95732585],[4.0423547,50.95743422]]]}},{"type":"Feature","id":"gebouw/Gebouw.19894584/0","properties":{"source":"Digitaal Vlaanderen Gebouwenregister","source_id":"gebouw/Gebouw.19894584/0","kind":"building","height_m":7.16,"status":null},"geometry":{"type":"Polygon","coordinates":[[[4.04002077,50.95808426],[4.03938816,50.95835797],[4.03908987,50.95808297],[4.03972247,50.95780926],[4.03972627,50.95781277],[4.03989422,50.95773977],[4.03998512,50.95782318],[4.0400197,50.95780785],[4.04002447,50.9578117],[4.04001966,50.9578141],[4.04007202,50.95786246],[4.04007681,50.95786047],[4.04008292,50.95786606],[4.04007831,50.95786806],[4.04015394,50.95793903],[4.04007108,50.95797426],[4.03999849,50.95790502],[4.03988427,50.95795417],[4.04002077,50.95808426]]]}},{"type":"Feature","id":"gebouw/Gebouw.19895231/0","properties":{"source":"Digitaal Vlaanderen Gebouwenregister","source_id":"gebouw/Gebouw.19895231/0","kind":"building","height_m":9.32,"status":null},"geometry":{"type":"Polygon","coordinates":[[[4.04586854,50.95611749],[4.04585972,50.95612458],[4.04587216,50.95613186],[4.0457763,50.95620277],[4.04575939,50.9561941],[4.04577877,50.956179],[4.04575498,50.95616682],[4.04573013,50.95618616],[4.04571962,50.95618079],[4.04574688,50.95616011],[4.04582953,50.95609742],[4.04586854,50.95611749]]]}},{"type":"Feature","id":"gebouw/Gebouw.19895232/0","properties":{"source":"Digitaal Vlaanderen Gebouwenregister","source_id":"gebouw/Gebouw.19895232/0","kind":"building","height_m":5.0,"status":null},"geometry":{"type":"Polygon","coordinates":[[[4.04588231,50.95605739],[4.04591916,50.95607684],[4.04586854,50.95611749],[4.04582953,50.95609742],[4.04588231,50.95605739]]]}},{"type":"Feature","id":"gebouw/Gebouw.19897512/0","properties":{"source":"Digitaal Vlaanderen Gebouwenregister","source_id":"gebouw/Gebouw.19897512/0","kind":"building","height_m":8.6,"status":null},"geometry":{"type":"Polygon","coordinates":[[[4.04633268,50.95631029],[4.04629059,50.95634184],[4.04628315,50.95634741],[4.04624567,50.95632747],[4.04629611,50.95629044],[4.04633268,50.95631029]]]}},{"type":"Feature","id":"gebouw/Gebouw.19897513/0","properties":{"source":"Digitaal Vlaanderen Gebouwenregister","source_id":"gebouw/Gebouw.19897513/0","kind":"building","height_m":9.32,"status":null},"geometry":{"type":"Polygon","coordinates":[[[4.04628315,50.95634741],[4.04624111,50.95637892],[4.04620344,50.95635848],[4.04624567,50.95632747],[4.04628315,50.95634741]]]}},{"type":"Feature","id":"gebouw/Gebouw.19899813/0","properties":{"source":"Digitaal Vlaanderen Gebouwenregister","source_id":"gebouw/Gebouw.19899813/0","kind":"building","height_m":7.16,"status":null},"geometry":{"type":"Polygon","coordinates":[[[4.04673097,50.96078759],[4.04651633,50.96090512],[4.0461256,50.96062063],[4.04621192,50.96057335],[4.04609495,50.96048805],[4.04623671,50.96041052],[4.04622299,50.96040015],[4.04622582,50.96037746],[4.04623723,50.96037109],[4.04626785,50.96039363],[4.0463529,50.96034737],[4.04647074,50.96043329],[4.04634163,50.96050398],[4.04662151,50.96070786],[4.04673097,50.96078759]]]}},{"type":"Feature","id":"gebouw/Gebouw.19899814/0","properties":{"source":"Digitaal Vlaanderen Gebouwenregister","source_id":"gebouw/Gebouw.19899814/0","kind":"building","height_m":7.88,"status":null},"geometry":{"type":"Polygon","coordinates":[[[4.04662823,50.96043866],[4.04683634,50.96059019],[4.04662661,50.96070507],[4.04662151,50.96070786],[4.04634163,50.96050398],[4.04647074,50.96043329],[4.04655714,50.9603863],[4.04662823,50.96043866]]]}},{"type":"Feature","id":"gebouw/Gebouw.20145401/0","properties":{"source":"Digitaal Vlaanderen Gebouwenregister","source_id":"gebouw/Gebouw.20145401/0","kind":"building","height_m":7.16,"status":null},"geometry":{"type":"Polygon","coordinates":[[[4.04319973,50.96028909],[4.04322713,50.96027237],[4.04327336,50.96030257],[4.04324596,50.9603193],[4.04319973,50.96028909]]]}},{"type":"Feature","id":"gebouw/Gebouw.20145403/0","properties":{"source":"Digitaal Vlaanderen Gebouwenregister","source_id":"gebouw/Gebouw.20145403/0","kind":"building","height_m":8.6,"status":null},"geometry":{"type":"Polygon","coordinates":[[[4.04691146,50.95737163],[4.04687709,50.95735361],[4.04691318,50.95732616],[4.04694755,50.95734419],[4.04691146,50.95737163]]]}},{"type":"Feature","id":"gebouw/Gebouw.20146555/0","properties":{"source":"Digitaal Vlaanderen Gebouwenregister","source_id":"gebouw/Gebouw.20146555/0","kind":"building","height_m":6.44,"status":null},"geometry":{"type":"Polygon","coordinates":[[[4.04798788,50.95620439],[4.0480273,50.9562174],[4.04802262,50.95622306],[4.04804886,50.95623591],[4.04803113,50.95625631],[4.04800317,50.9562885],[4.0479365,50.9562665],[4.04798788,50.95620439]]]}},{"type":"Feature","id":"gebouw/Gebouw.20146652/0","properties":{"source":"Digitaal Vlaanderen Gebouwenregister","source_id":"gebouw/Gebouw.20146652/0","kind":"building","height_m":5.72,"status":null},"geometry":{"type":"Polygon","coordinates":[[[4.04516461,50.95626401],[4.04521001,50.95622668],[4.04524679,50.95624452],[4.04520139,50.95628185],[4.04516461,50.95626401]]]}},{"type":"Feature","id":"gebouw/Gebouw.20146653/0","properties":{"source":"Digitaal Vlaanderen Gebouwenregister","source_id":"gebouw/Gebouw.20146653/0","kind":"building","height_m":6.44,"status":null},"geometry":{"type":"Polygon","coordinates":[[[4.04455085,50.95605746],[4.04449852,50.95603902],[4.04456465,50.95596415],[4.04461698,50.95598259],[4.04455085,50.95605746]]]}},{"type":"Feature","id":"gebouw/Gebouw.20146654/0","properties":{"source":"Digitaal Vlaanderen Gebouwenregister","source_id":"gebouw/Gebouw.20146654/0","kind":"building","height_m":7.16,"status":null},"geometry":{"type":"Polygon","coordinates":[[[4.04671174,50.95660191],[4.04675121,50.95657234],[4.04678352,50.95658954],[4.04674405,50.95661911],[4.04671174,50.95660191]]]}},{"type":"Feature","id":"gebouw/Gebouw.20147124/0","properties":{"source":"Digitaal Vlaanderen Gebouwenregister","source_id":"gebouw/Gebouw.20147124/0","kind":"building","height_m":7.88,"status":null},"geometry":{"type":"Polygon","coordinates":[[[4.04728542,50.95554598],[4.0473375,50.95559293],[4.04691516,50.9557798],[4.04678379,50.95566136],[4.04677644,50.95565472],[4.04666211,50.95570531],[4.04665489,50.9556988],[4.04656208,50.95561512],[4.04729629,50.95529026],[4.04739475,50.95537904],[4.0474357,50.95541595],[4.04748296,50.95545857],[4.04728542,50.95554598]]]}},{"type":"Feature","id":"gebouw/Gebouw.20147148/0","properties":{"source":"Digitaal Vlaanderen Gebouwenregister","source_id":"gebouw/Gebouw.20147148/0","kind":"building","height_m":5.0,"status":null},"geometry":{"type":"Polygon","coordinates":[[[4.04691652,50.96161511],[4.04696249,50.96164284],[4.04693907,50.96165782],[4.04691979,50.96167015],[4.04684892,50.96162595],[4.04687385,50.96161001],[4.04689046,50.96159939],[4.04691652,50.96161511]]]}},{"type":"Feature","id":"gebouw/Gebouw.20230858/0","properties":{"source":"Digitaal Vlaanderen Gebouwenregister","source_id":"gebouw/Gebouw.20230858/0","kind":"building","height_m":7.88,"status":null},"geometry":{"type":"Polygon","coordinates":[[[4.04655035,50.9556101],[4.04664901,50.95570136],[4.04665068,50.9557029],[4.04665672,50.95570848],[4.04673035,50.95577659],[4.04660019,50.95583564],[4.04651966,50.9557607],[4.04646582,50.95578403],[4.04643512,50.95575577],[4.0463691,50.955695],[4.04636477,50.95569101],[4.04651347,50.95562618],[4.04655035,50.9556101]]]}},{"type":"Feature","id":"gebouw/Gebouw.20980666/0","properties":{"source":"Digitaal Vlaanderen Gebouwenregister","source_id":"gebouw/Gebouw.20980666/0","kind":"building","height_m":5.0,"status":null},"geometry":{"type":"Polygon","coordinates":[[[4.04798283,50.96172528],[4.04796409,50.96173506],[4.0482809,50.96197726],[4.04817234,50.9620339],[4.04805413,50.96209556],[4.04764251,50.96178088],[4.04772263,50.96169481],[4.04773876,50.96167747],[4.04774529,50.96167046],[4.04778661,50.96162607],[4.04780025,50.96161141],[4.04780606,50.96161584],[4.04791849,50.96170145],[4.0479382,50.96169116],[4.04794968,50.96169991],[4.04798283,50.96172528]]]}},{"type":"Feature","id":"gebouw/Gebouw.30641864/0","properties":{"source":"Digitaal Vlaanderen Gebouwenregister","source_id":"gebouw/Gebouw.30641864/0","kind":"building","height_m":5.72,"status":null},"geometry":{"type":"Polygon","coordinates":[[[4.04498888,50.95586227],[4.04496145,50.95584846],[4.04496973,50.95584158],[4.0449617,50.95583753],[4.04497968,50.95582328],[4.04499128,50.95582912],[4.04499643,50.95582505],[4.04502029,50.95583707],[4.04498888,50.95586227]]]}},{"type":"Feature","id":"gebouw/Gebouw.30641865/0","properties":{"source":"Digitaal Vlaanderen Gebouwenregister","source_id":"gebouw/Gebouw.30641865/0","kind":"building","height_m":6.44,"status":null},"geometry":{"type":"Polygon","coordinates":[[[4.04617631,50.9567421],[4.04621214,50.95671319],[4.04627817,50.95674467],[4.04624234,50.95677358],[4.04617631,50.9567421]]]}},{"type":"Feature","id":"gebouw/Gebouw.30641866/0","properties":{"source":"Digitaal Vlaanderen Gebouwenregister","source_id":"gebouw/Gebouw.30641866/0","kind":"building","height_m":7.16,"status":null},"geometry":{"type":"Polygon","coordinates":[[[4.04416276,50.95701558],[4.04413256,50.9570345],[4.04403817,50.95697443],[4.04406836,50.9569555],[4.04416276,50.95701558]]]}},{"type":"Feature","id":"gebouw/Gebouw.30641867/0","properties":{"source":"Digitaal Vlaanderen Gebouwenregister","source_id":"gebouw/Gebouw.30641867/0","kind":"building","height_m":7.88,"status":null},"geometry":{"type":"Polygon","coordinates":[[[4.04030077,50.95814595],[4.04027073,50.95811664],[4.04031937,50.95809676],[4.0403494,50.95812606],[4.04030077,50.95814595]]]}},{"type":"Feature","id":"gebouw/Gebouw.30641868/0","properties":{"source":"Digitaal Vlaanderen Gebouwenregister","source_id":"gebouw/Gebouw.30641868/0","kind":"building","height_m":8.6,"status":null},"geometry":{"type":"Polygon","coordinates":[[[4.04049961,50.96040714],[4.04064083,50.96050843],[4.0405157,50.96057801],[4.04074694,50.96074388],[4.04053008,50.96086446],[4.04033464,50.96072597],[4.0402018,50.96063184],[4.04006334,50.96053373],[4.04040604,50.96034083],[4.04049961,50.96040714]]]}},{"type":"Feature","id":"gebouw/Gebouw.30642255/0","properties":{"source":"Digitaal Vlaanderen Gebouwenregister","source_id":"gebouw/Gebouw.30642255/0","kind":"building","height_m":5.0,"status":null},"geometry":{"type":"Polygon","coordinates":[[[4.04019541,50.96079202],[4.04028142,50.9607539],[4.04034193,50.9608081],[4.04025592,50.96084622],[4.04019541,50.96079202]]]}},{"type":"Feature","id":"gebouw/Gebouw.31526665/0","properties":{"source":"Digitaal Vlaanderen Gebouwenregister","source_id":"gebouw/Gebouw.31526665/0","kind":"building","height_m":6.44,"status":null},"geometry":{"type":"Polygon","coordinates":[[[4.04288777,50.95693141],[4.04292083,50.95692872],[4.04295539,50.95692134],[4.04298901,50.95690861],[4.04301867,50.95689053],[4.04304138,50.95686804],[4.04305503,50.95684292],[4.04305901,50.95681732],[4.04305424,50.95679322],[4.04304264,50.95677199],[4.04302627,50.95675411],[4.04300371,50.95673765],[4.04297398,50.95672325],[4.04293775,50.95671261],[4.04289701,50.95670728],[4.04285485,50.95670818],[4.04281476,50.95671523],[4.04277974,50.95672738],[4.0427516,50.95674302],[4.04273083,50.9567604],[4.04271639,50.95677893],[4.04270706,50.95680061],[4.04270485,50.95682486],[4.04271153,50.95685024],[4.04272781,50.95687472],[4.04275284,50.95689618],[4.04278435,50.95691296],[4.04281924,50.95692424],[4.0428545,50.95693013],[4.04288777,50.95693141]]]}},{"type":"Feature","id":"gebouw/Gebouw.31529556/0","properties":{"source":"Digitaal Vlaanderen Gebouwenregister","source_id":"gebouw/Gebouw.31529556/0","kind":"building","height_m":6.44,"status":null},"geometry":{"type":"Polygon","coordinates":[[[4.04290897,50.9600204],[4.0429347,50.9600059],[4.04289025,50.95997445],[4.04286452,50.95998895],[4.04290897,50.9600204]]]}},{"type":"Feature","id":"gebouw/Gebouw.31535988/0","properties":{"source":"Digitaal Vlaanderen Gebouwenregister","source_id":"gebouw/Gebouw.31535988/0","kind":"building","height_m":5.72,"status":null},"geometry":{"type":"Polygon","coordinates":[[[4.03981672,50.95667413],[4.0397859,50.95669019],[4.03994915,50.95681024],[4.03997933,50.95679488],[4.03981672,50.95667413]]]}},{"type":"Feature","id":"gebouw/Gebouw.31805102/0","properties":{"source":"Digitaal Vlaanderen Gebouwenregister","source_id":"gebouw/Gebouw.31805102/0","kind":"building","height_m":5.0,"status":null},"geometry":{"type":"Polygon","coordinates":[[[4.0474506,50.95599087],[4.0475233,50.95599911],[4.04753926,50.95594295],[4.04746655,50.95593471],[4.0474506,50.95599087]]]}},{"type":"Feature","id":"gebouw/Gebouw.31805912/0","properties":{"source":"Digitaal Vlaanderen Gebouwenregister","source_id":"gebouw/Gebouw.31805912/0","kind":"building","height_m":8.6,"status":null},"geometry":{"type":"Polygon","coordinates":[[[4.04633996,50.95676196],[4.0463173,50.95678496],[4.04637047,50.95680585],[4.04639313,50.95678284],[4.04633996,50.95676196]]]}},{"type":"Feature","id":"gebouw/Gebouw.31805934/0","properties":{"source":"Digitaal Vlaanderen Gebouwenregister","source_id":"gebouw/Gebouw.31805934/0","kind":"building","height_m":9.32,"status":null},"geometry":{"type":"Polygon","coordinates":[[[4.041535,50.95921023],[4.04145022,50.95913598],[4.04138683,50.95916485],[4.04147162,50.9592391],[4.041535,50.95921023]]]}},{"type":"Feature","id":"gebouw/Gebouw.31806047/0","properties":{"source":"Digitaal Vlaanderen Gebouwenregister","source_id":"gebouw/Gebouw.31806047/0","kind":"building","height_m":5.0,"status":null},"geometry":{"type":"Polygon","coordinates":[[[4.04777242,50.95722422],[4.04785602,50.95716411],[4.04781317,50.95714034],[4.04772957,50.95720045],[4.04777242,50.95722422]]]}},{"type":"Feature","id":"gebouw/Gebouw.31806286/0","properties":{"source":"Digitaal Vlaanderen Gebouwenregister","source_id":"gebouw/Gebouw.31806286/0","kind":"building","height_m":5.72,"status":null},"geometry":{"type":"Polygon","coordinates":[[[4.03794688,50.95691407],[4.03797822,50.95694301],[4.03810923,50.95688639],[4.03807789,50.95685746],[4.03794688,50.95691407]]]}},{"type":"Feature","id":"gebouw/Gebouw.31806485/0","properties":{"source":"Digitaal Vlaanderen Gebouwenregister","source_id":"gebouw/Gebouw.31806485/0","kind":"building","height_m":7.88,"status":null},"geometry":{"type":"Polygon","coordinates":[[[4.04033877,50.95812915],[4.04057383,50.95802468],[4.0405237,50.95797969],[4.04028864,50.95808415],[4.04033877,50.95812915]]]}},{"type":"Feature","id":"gebouw/Gebouw.31806633/0","properties":{"source":"Digitaal Vlaanderen Gebouwenregister","source_id":"gebouw/Gebouw.31806633/0","kind":"building","height_m":8.6,"status":null},"geometry":{"type":"Polygon","coordinates":[[[4.04407083,50.95700042],[4.04412895,50.95703528],[4.0442014,50.9569871],[4.04414328,50.95695224],[4.04407083,50.95700042]]]}},{"type":"Feature","id":"gebouw/Gebouw.31806710/0","properties":{"source":"Digitaal Vlaanderen Gebouwenregister","source_id":"gebouw/Gebouw.31806710/0","kind":"building","height_m":8.6,"status":null},"geometry":{"type":"Polygon","coordinates":[[[4.03782054,50.95996608],[4.03782067,50.95996604],[4.03778689,50.95991302],[4.03769012,50.95994288],[4.03772066,50.9599926],[4.03782054,50.95996608]]]}},{"type":"Feature","id":"gebouw/Gebouw.32047699/0","properties":{"source":"Digitaal Vlaanderen Gebouwenregister","source_id":"gebouw/Gebouw.32047699/0","kind":"building","height_m":8.6,"status":null},"geometry":{"type":"Polygon","coordinates":[[[4.04559697,50.95584028],[4.04559592,50.95583976],[4.04548477,50.95578376],[4.04534744,50.95589219],[4.04539227,50.95591432],[4.04541067,50.95589984],[4.04547625,50.95593169],[4.04559697,50.95584028]]]}},{"type":"Feature","id":"gebouw/Gebouw.32047741/0","properties":{"source":"Digitaal Vlaanderen Gebouwenregister","source_id":"gebouw/Gebouw.32047741/0","kind":"building","height_m":8.6,"status":null},"geometry":{"type":"Polygon","coordinates":[[[4.03865535,50.95630779],[4.03869112,50.95629244],[4.03866425,50.95626746],[4.03862848,50.95628281],[4.03865535,50.95630779]]]}},{"type":"Feature","id":"gebouw/Gebouw.32047744/0","properties":{"source":"Digitaal Vlaanderen Gebouwenregister","source_id":"gebouw/Gebouw.32047744/0","kind":"building","height_m":5.72,"status":null},"geometry":{"type":"Polygon","coordinates":[[[4.04004234,50.95763908],[4.04006599,50.95766075],[4.04009654,50.9576478],[4.04007264,50.95762589],[4.04004234,50.95763908]]]}},{"type":"Feature","id":"gebouw/Gebouw.32047759/0","properties":{"source":"Digitaal Vlaanderen Gebouwenregister","source_id":"gebouw/Gebouw.32047759/0","kind":"building","height_m":6.44,"status":null},"geometry":{"type":"Polygon","coordinates":[[[4.04686383,50.95978925],[4.0468354,50.95980491],[4.04686755,50.95982774],[4.0468957,50.95981226],[4.04686383,50.95978925]]]}},{"type":"Feature","id":"way/998554441","properties":{"source":"OpenStreetMap","source_id":"way/998554441","kind":"vegetation","name":null,"waterway":null,"landuse":null},"geometry":{"type":"Polygon","coordinates":[[[4.0400786,50.9610969],[4.0402047,50.9611749],[4.0405172,50.9611906],[4.0408785,50.9610546],[4.0394373,50.9594408],[4.038845,50.9586487],[4.0386217,50.9586871],[4.0398463,50.9606685],[4.0400786,50.9610969]]]}},{"type":"Feature","id":"way/1299054256","properties":{"source":"OpenStreetMap","source_id":"way/1299054256","kind":"vegetation","name":null,"waterway":null,"landuse":"forest"},"geometry":{"type":"Polygon","coordinates":[[[4.0381635,50.9557519],[4.0385723,50.9558333],[4.0386486,50.9557801],[4.0382703,50.9554052],[4.0381668,50.9555737],[4.0381635,50.9557519]]]}}]}