{"type":"FeatureCollection","features":[{"type":"Feature","id":"gebouw/Gebouw.13577319/0","properties":{"source":"Digitaal Vlaanderen Gebouwenregister","source_id":"gebouw/Gebouw.13577319/0","kind":"building","height_m":5.0,"status":null},"geometry":{"type":"Polygon","coordinates":[[[4.04153399,50.90477262],[4.04152272,50.90474624],[4.04143278,50.9047627],[4.04142743,50.90475294],[4.04158323,50.90468481],[4.04154102,50.90464124],[4.04149452,50.90466276],[4.04148308,50.90465314],[4.04137025,50.90470667],[4.04142246,50.90475379],[4.04142776,50.90476538],[4.04144409,50.90480111],[4.041461,50.90483813],[4.04155466,50.90482101],[4.04155431,50.90481243],[4.04153852,50.90478324],[4.04153399,50.90477262]]]}},{"type":"Feature","id":"gebouw/Gebouw.16737267/0","properties":{"source":"Digitaal Vlaanderen Gebouwenregister","source_id":"gebouw/Gebouw.16737267/0","kind":"building","height_m":5.72,"status":null},"geometry":{"type":"Polygon","coordinates":[[[4.03980905,50.90823303],[4.03979478,50.90821517],[4.03986984,50.9081912],[4.03988411,50.90820906],[4.03980905,50.90823303]]]}},{"type":"Feature","id":"gebouw/Gebouw.16746462/0","properties":{"source":"Digitaal Vlaanderen Gebouwenregister","source_id":"gebouw/Gebouw.16746462/0","kind":"building","height_m":8.6,"status":null},"geometry":{"type":"Polygon","coordinates":[[[4.0437929,50.90808163],[4.04447643,50.90784722],[4.04465285,50.90805286],[4.04449906,50.9081056],[4.04493376,50.90861079],[4.04440338,50.90879322],[4.0437929,50.90808163]]]}},{"type":"Feature","id":"gebouw/Gebouw.16758699/0","properties":{"source":"Digitaal Vlaanderen Gebouwenregister","source_id":"gebouw/Gebouw.16758699/0","kind":"building","height_m":9.32,"status":null},"geometry":{"type":"Polygon","coordinates":[[[4.04325211,50.9074971],[4.04347611,50.90742062],[4.0434288,50.90736523],[4.04503354,50.9068173],[4.04525548,50.90707714],[4.04343372,50.90770708],[4.04333666,50.90759486],[4.04329952,50.90760805],[4.04327009,50.90757452],[4.04330697,50.90756133],[4.04325211,50.9074971]]]}},{"type":"Feature","id":"gebouw/Gebouw.16760623/0","properties":{"source":"Digitaal Vlaanderen Gebouwenregister","source_id":"gebouw/Gebouw.16760623/0","kind":"building","height_m":8.6,"status":null},"geometry":{"type":"Polygon","coordinates":[[[4.04514403,50.90847861],[4.0456522,50.90744666],[4.04606389,50.90752792],[4.04555458,50.90855943],[4.04514403,50.90847861]]]}},{"type":"Feature","id":"gebouw/Gebouw.16785333/0","properties":{"source":"Digitaal Vlaanderen Gebouwenregister","source_id":"gebouw/Gebouw.16785333/0","kind":"building","height_m":8.6,"status":null},"geometry":{"type":"Polygon","coordinates":[[[4.04300193,50.90739927],[4.04290922,50.90743121],[4.04284095,50.90735201],[4.04293366,50.90732006],[4.04300193,50.90739927]]]}},{"type":"Feature","id":"gebouw/Gebouw.16813705/0","properties":{"source":"Digitaal Vlaanderen Gebouwenregister","source_id":"gebouw/Gebouw.16813705/0","kind":"building","height_m":9.32,"status":null},"geometry":{"type":"Polygon","coordinates":[[[4.04645948,50.90669812],[4.04646856,50.90670161],[4.04677389,50.9063549],[4.04711347,50.90647522],[4.04719826,50.90637854],[4.04748133,50.90647933],[4.04744137,50.9065272],[4.04752402,50.90655672],[4.04749575,50.90658984],[4.04747214,50.90658168],[4.04745893,50.90659642],[4.04782392,50.90672579],[4.04766504,50.9069042],[4.04759296,50.90687901],[4.04733494,50.90716924],[4.04688722,50.90701032],[4.04688545,50.90701229],[4.04683576,50.90699466],[4.04682546,50.90700648],[4.04676863,50.9069865],[4.04677913,50.90697457],[4.04635035,50.90682242],[4.04645948,50.90669812]],[[4.04740804,50.90651648],[4.04724404,50.9064582],[4.04720308,50.90650651],[4.04736532,50.9065642],[4.04740804,50.90651648]]]}},{"type":"Feature","id":"gebouw/Gebouw.16814018/0","properties":{"source":"Digitaal Vlaanderen Gebouwenregister","source_id":"gebouw/Gebouw.16814018/0","kind":"building","height_m":7.88,"status":null},"geometry":{"type":"Polygon","coordinates":[[[4.04626428,50.9079286],[4.04626614,50.9079249],[4.04625937,50.90792376],[4.04629943,50.90783551],[4.04629175,50.907834],[4.04629306,50.90783104],[4.04629653,50.90783162],[4.04642386,50.90755023],[4.04641975,50.90754945],[4.04642141,50.90754569],[4.04683129,50.90762082],[4.04670696,50.90790952],[4.04668149,50.9079054],[4.046648,50.90791619],[4.04662904,50.90789667],[4.04658974,50.90798285],[4.04626428,50.9079286]]]}},{"type":"Feature","id":"gebouw/Gebouw.16828796/0","properties":{"source":"Digitaal Vlaanderen Gebouwenregister","source_id":"gebouw/Gebouw.16828796/0","kind":"building","height_m":8.6,"status":null},"geometry":{"type":"Polygon","coordinates":[[[4.04009673,50.90806251],[4.04002726,50.90798296],[4.04018347,50.90792842],[4.04025294,50.90800797],[4.04009673,50.90806251]]]}},{"type":"Feature","id":"gebouw/Gebouw.16829164/0","properties":{"source":"Digitaal Vlaanderen Gebouwenregister","source_id":"gebouw/Gebouw.16829164/0","kind":"building","height_m":6.44,"status":null},"geometry":{"type":"Polygon","coordinates":[[[4.03978679,50.9083108],[4.03970794,50.90833766],[4.03964539,50.90826426],[4.03972424,50.9082374],[4.03978679,50.9083108]]]}},{"type":"Feature","id":"gebouw/Gebouw.16848002/0","properties":{"source":"Digitaal Vlaanderen Gebouwenregister","source_id":"gebouw/Gebouw.16848002/0","kind":"building","height_m":7.16,"status":null},"geometry":{"type":"Polygon","coordinates":[[[4.03928364,50.90752466],[4.03932278,50.90758055],[4.03936652,50.90756931],[4.03933005,50.90751267],[4.03928364,50.90752466]]]}},{"type":"Feature","id":"gebouw/Gebouw.17042357/0","properties":{"source":"Digitaal Vlaanderen Gebouwenregister","source_id":"gebouw/Gebouw.17042357/0","kind":"building","height_m":7.16,"status":null},"geometry":{"type":"Polygon","coordinates":[[[4.03991544,50.90799392],[4.03985382,50.9079214],[4.03993442,50.90789401],[4.03999605,50.90796654],[4.03991544,50.90799392]]]}},{"type":"Feature","id":"gebouw/Gebouw.17058636/0","properties":{"source":"Digitaal Vlaanderen Gebouwenregister","source_id":"gebouw/Gebouw.17058636/0","kind":"building","height_m":5.0,"status":null},"geometry":{"type":"Polygon","coordinates":[[[4.04776817,50.90764181],[4.04784563,50.9075958],[4.04789366,50.90759679],[4.04789496,50.90758321],[4.04792021,50.90756839],[4.04794171,50.90756863],[4.0479433,50.90753806],[4.04802125,50.90749228],[4.04852147,50.90783273],[4.04826857,50.90798296],[4.04787852,50.90772048],[4.04789526,50.90771053],[4.04786977,50.90769338],[4.0478565,50.90770126],[4.04776817,50.90764181]]]}},{"type":"Feature","id":"gebouw/Gebouw.18114687/0","properties":{"source":"Digitaal Vlaanderen Gebouwenregister","source_id":"gebouw/Gebouw.18114687/0","kind":"building","height_m":7.16,"status":null},"geometry":{"type":"Polygon","coordinates":[[[4.0389518,50.90763133],[4.0386327,50.90726178],[4.03851693,50.90728123],[4.03844009,50.90719364],[4.03782569,50.90730258],[4.03786325,50.90734217],[4.03770583,50.90739807],[4.03774588,50.90749167],[4.03748985,50.90758208],[4.03747007,50.90756013],[4.0371647,50.90766778],[4.03718431,50.90769002],[4.03703728,50.90774183],[4.03720241,50.90793333],[4.03713136,50.9079578],[4.0373657,50.9082241],[4.03833713,50.90788238],[4.03831331,50.90785523],[4.0389518,50.90763133]]]}},{"type":"Feature","id":"gebouw/Gebouw.18964295/0","properties":{"source":"Digitaal Vlaanderen Gebouwenregister","source_id":"gebouw/Gebouw.18964295/0","kind":"building","height_m":5.0,"status":null},"geometry":{"type":"Polygon","coordinates":[[[4.038514,50.90562417],[4.03776833,50.90575453],[4.03770054,50.90576812],[4.0377059,50.90578022],[4.03790892,50.90623817],[4.03839256,50.90615312],[4.03823325,50.90579149],[4.03856384,50.90573155],[4.038514,50.90562417]]]}},{"type":"Feature","id":"gebouw/Gebouw.19879521/0","properties":{"source":"Digitaal Vlaanderen Gebouwenregister","source_id":"gebouw/Gebouw.19879521/0","kind":"building","height_m":7.88,"status":null},"geometry":{"type":"Polygon","coordinates":[[[4.04489365,50.90856418],[4.04493376,50.90861079],[4.04440338,50.90879322],[4.0437929,50.90808163],[4.04447296,50.90784841],[4.04464942,50.90805137],[4.04449742,50.90810325],[4.04462204,50.90825197],[4.04538451,50.90798742],[4.04552582,50.90770087],[4.04554089,50.90767031],[4.04554279,50.90766646],[4.04527712,50.90761242],[4.04523367,50.90756061],[4.04522388,50.90754893],[4.04556438,50.90742975],[4.04556943,50.90742802],[4.04559919,50.90743403],[4.04606389,50.90752792],[4.04555458,50.90855943],[4.04514403,50.90847861],[4.04489365,50.90856418]]]}},{"type":"Feature","id":"gebouw/Gebouw.20146019/0","properties":{"source":"Digitaal Vlaanderen Gebouwenregister","source_id":"gebouw/Gebouw.20146019/0","kind":"building","height_m":8.6,"status":null},"geometry":{"type":"Polygon","coordinates":[[[4.04755329,50.90701771],[4.04744039,50.90716295],[4.04759429,50.90721077],[4.04770719,50.90706554],[4.04755329,50.90701771]]]}},{"type":"Feature","id":"gebouw/Gebouw.20146053/0","properties":{"source":"Digitaal Vlaanderen Gebouwenregister","source_id":"gebouw/Gebouw.20146053/0","kind":"building","height_m":7.88,"status":null},"geometry":{"type":"Polygon","coordinates":[[[4.0431092,50.90732803],[4.0431457,50.90737097],[4.04310567,50.90738457],[4.04308108,50.90739292],[4.04305127,50.90740306],[4.04299203,50.90733336],[4.04308415,50.90730206],[4.04308646,50.90730127],[4.0431092,50.90732803]]]}},{"type":"Feature","id":"gebouw/Gebouw.20146054/0","properties":{"source":"Digitaal Vlaanderen Gebouwenregister","source_id":"gebouw/Gebouw.20146054/0","kind":"building","height_m":8.6,"status":null},"geometry":{"type":"Polygon","coordinates":[[[4.04334138,50.90788227],[4.04341731,50.90785732],[4.04348955,50.90794521],[4.04341363,50.90797016],[4.04334138,50.90788227]]]}},{"type":"Feature","id":"gebouw/Gebouw.20146055/0","properties":{"source":"Digitaal Vlaanderen Gebouwenregister","source_id":"gebouw/Gebouw.20146055/0","kind":"building","height_m":9.32,"status":null},"geometry":{"type":"Polygon","coordinates":[[[4.0411714,50.90789588],[4.04110602,50.90781795],[4.0412574,50.90776719],[4.04132278,50.90784512],[4.0411714,50.90789588]]]}},{"type":"Feature","id":"gebouw/Gebouw.20146057/0","properties":{"source":"Digitaal Vlaanderen Gebouwenregister","source_id":"gebouw/Gebouw.20146057/0","kind":"building","height_m":5.72,"status":null},"geometry":{"type":"Polygon","coordinates":[[[4.03962873,50.90802545],[4.03971517,50.90812621],[4.03962383,50.90815753],[4.03953739,50.90805677],[4.03962873,50.90802545]]]}},{"type":"Feature","id":"gebouw/Gebouw.20147113/0","properties":{"source":"Digitaal Vlaanderen Gebouwenregister","source_id":"gebouw/Gebouw.20147113/0","kind":"building","height_m":5.0,"status":null},"geometry":{"type":"Polygon","coordinates":[[[4.04713213,50.90685427],[4.04706123,50.90683188],[4.04686174,50.90708433],[4.04607577,50.90683605],[4.04608306,50.90682682],[4.04533514,50.90659055],[4.04565896,50.90618077],[4.04596345,50.90627746],[4.046116,50.90608084],[4.04765586,50.906563],[4.04742176,50.90686476],[4.04718335,50.90678945],[4.04713213,50.90685427]]]}},{"type":"Feature","id":"gebouw/Gebouw.20147114/0","properties":{"source":"Digitaal Vlaanderen Gebouwenregister","source_id":"gebouw/Gebouw.20147114/0","kind":"building","height_m":5.72,"status":null},"geometry":{"type":"Polygon","coordinates":[[[4.0476395,50.90691855],[4.04770256,50.9068387],[4.0480157,50.90693756],[4.04795264,50.9070174],[4.0476395,50.90691855]]]}},{"type":"Feature","id":"gebouw/Gebouw.30742078/0","properties":{"source":"Digitaal Vlaanderen Gebouwenregister","source_id":"gebouw/Gebouw.30742078/0","kind":"building","height_m":7.16,"status":null},"geometry":{"type":"Polygon","coordinates":[[[4.03770054,50.90576812],[4.03776833,50.90575453],[4.038514,50.90562417],[4.03878962,50.90557599],[4.03875151,50.90549039],[4.03883274,50.90547593],[4.03879452,50.90539008],[4.03896175,50.90536031],[4.03884291,50.90509336],[4.03757451,50.90531913],[4.03718398,50.90538863],[4.0373773,50.90582289],[4.03737839,50.90582535],[4.03770054,50.90576812]]]}},{"type":"Feature","id":"gebouw/Gebouw.31079515/0","properties":{"source":"Digitaal Vlaanderen Gebouwenregister","source_id":"gebouw/Gebouw.31079515/0","kind":"building","height_m":8.6,"status":null},"geometry":{"type":"Polygon","coordinates":[[[4.04153961,50.9047575],[4.04150924,50.90472921],[4.04159856,50.90469087],[4.04162894,50.90471916],[4.04153961,50.9047575]]]}},{"type":"Feature","id":"gebouw/Gebouw.31526162/0","properties":{"source":"Digitaal Vlaanderen Gebouwenregister","source_id":"gebouw/Gebouw.31526162/0","kind":"building","height_m":7.16,"status":null},"geometry":{"type":"Polygon","coordinates":[[[4.0478165,50.90709929],[4.04775027,50.90707762],[4.04773312,50.90709958],[4.04779935,50.90712049],[4.0478165,50.90709929]]]}},{"type":"Feature","id":"gebouw/Gebouw.31541023/0","properties":{"source":"Digitaal Vlaanderen Gebouwenregister","source_id":"gebouw/Gebouw.31541023/0","kind":"building","height_m":7.16,"status":null},"geometry":{"type":"Polygon","coordinates":[[[4.03784626,50.90681309],[4.03784117,50.9068018],[4.03778716,50.90681172],[4.03775417,50.90681778],[4.0377591,50.9068286],[4.03776477,50.90684107],[4.03785174,50.90682522],[4.03784626,50.90681309]]]}},{"type":"Feature","id":"gebouw/Gebouw.31805211/0","properties":{"source":"Digitaal Vlaanderen Gebouwenregister","source_id":"gebouw/Gebouw.31805211/0","kind":"building","height_m":7.88,"status":null},"geometry":{"type":"Polygon","coordinates":[[[4.03962541,50.90802002],[4.0397856,50.90796401],[4.03973491,50.90790605],[4.03957472,50.90796206],[4.03962541,50.90802002]]]}},{"type":"Feature","id":"gebouw/Gebouw.31805248/0","properties":{"source":"Digitaal Vlaanderen Gebouwenregister","source_id":"gebouw/Gebouw.31805248/0","kind":"building","height_m":9.32,"status":null},"geometry":{"type":"Polygon","coordinates":[[[4.04524791,50.90671529],[4.04515042,50.90660726],[4.04501843,50.90665488],[4.04511172,50.90675825],[4.04511592,50.90676291],[4.04512045,50.90676127],[4.04524791,50.90671529]]]}},{"type":"Feature","id":"way/161090645","properties":{"source":"OpenStreetMap","source_id":"way/161090645","kind":"vegetation","name":null,"waterway":null,"landuse":"forest"},"geometry":{"type":"Polygon","coordinates":[[[4.039959,50.9072103],[4.0395692,50.907256],[4.0394843,50.9072699],[4.0394726,50.9073589],[4.0387268,50.9074594],[4.0387055,50.9071966],[4.0396182,50.9070308],[4.0401089,50.9069525],[4.040352,50.9068452],[4.0408236,50.9062933],[4.0408723,50.9061246],[4.0402821,50.905772],[4.0407026,50.9052915],[4.0410984,50.904851],[4.0412425,50.9047396],[4.0415321,50.9046103],[4.0417586,50.9045736],[4.0419554,50.9045537],[4.0420331,50.9045797],[4.0420544,50.9047305],[4.0420988,50.9048154],[4.0421683,50.9048374],[4.0425231,50.905161],[4.0425798,50.9051315],[4.0430028,50.9053553],[4.0430271,50.9054319],[4.0421081,50.9054963],[4.0424533,50.9058244],[4.0429639,50.9057784],[4.0433529,50.9057876],[4.0434209,50.90599],[4.0439996,50.9062874],[4.0431098,50.9067259],[4.0415441,50.9065327],[4.0407515,50.9072379],[4.0405327,50.9070877],[4.0402605,50.9071735],[4.039959,50.9072103]]]}},{"type":"Feature","id":"way/302912173","properties":{"source":"OpenStreetMap","source_id":"way/302912173","kind":"waterway","name":"Wildebeek","waterway":"stream","landuse":null},"geometry":{"type":"LineString","coordinates":[[4.0474848,50.9053638],[4.0477215,50.9056147]]}},{"type":"Feature","id":"way/628805528","properties":{"source":"OpenStreetMap","source_id":"way/628805528","kind":"water","name":null,"waterway":null,"landuse":null},"geometry":{"type":"Polygon","coordinates":[[[4.0376146,50.9070686],[4.0384899,50.9069209],[4.0384829,50.907121],[4.0376942,50.9072492],[4.0376257,50.9070937],[4.0376146,50.9070686]]]}},{"type":"Feature","id":"way/697747050","properties":{"source":"OpenStreetMap","source_id":"way/697747050","kind":"vegetation","name":null,"waterway":null,"landuse":"forest"},"geometry":{"type":"Polygon","coordinates":[[[4.0372519,50.9076875],[4.0382764,50.9075081],[4.038439,50.9074055],[4.0384187,50.9071646],[4.0371096,50.907403],[4.0372519,50.9076875]]]}},{"type":"Feature","id":"way/769957489","properties":{"source":"OpenStreetMap","source_id":"way/769957489","kind":"waterway","name":null,"waterway":"stream","landuse":null},"geometry":{"type":"LineString","coordinates":[[4.039462,50.9069772],[4.0399501,50.9059066]]}},{"type":"Feature","id":"way/769957494","properties":{"source":"OpenStreetMap","source_id":"way/769957494","kind":"waterway","name":null,"waterway":"stream","landuse":null},"geometry":{"type":"LineString","coordinates":[[4.0376819,50.9075588],[4.037617,50.9074199],[4.0374766,50.9071191]]}},{"type":"Feature","id":"way/769957496","properties":{"source":"OpenStreetMap","source_id":"way/769957496","kind":"waterway","name":null,"waterway":"stream","landuse":null},"geometry":{"type":"LineString","coordinates":[[4.0359164,50.9078552],[4.037617,50.9074199],[4.0381809,50.9072938],[4.0384045,50.9073476]]}},{"type":"Feature","id":"way/769957497","properties":{"source":"OpenStreetMap","source_id":"way/769957497","kind":"waterway","name":null,"waterway":"stream","landuse":null},"geometry":{"type":"LineString","coordinates":[[4.038746,50.9073297],[4.0397827,50.9071477],[4.0402583,50.90714],[4.0406323,50.9070067]]}},{"type":"Feature","id":"way/769957498","properties":{"source":"OpenStreetMap","source_id":"way/769957498","kind":"waterway","name":null,"waterway":"stream","landuse":null},"geometry":{"type":"LineString","coordinates":[[4.0400653,50.9076306],[4.0398352,50.9073081]]}}]}