{"type":"FeatureCollection","features":[{"type":"Feature","id":"gebouw/Gebouw.15653860/0","properties":{"source":"Digitaal Vlaanderen Gebouwenregister","source_id":"gebouw/Gebouw.15653860/0","kind":"building","height_m":8.6,"status":null},"geometry":{"type":"Polygon","coordinates":[[[4.05226009,50.99417538],[4.0522726,50.99420473],[4.05213277,50.99422847],[4.05212011,50.99419877],[4.0520053,50.99421827],[4.05197309,50.99414972],[4.05202384,50.99414147],[4.05200902,50.99410655],[4.05207428,50.99409547],[4.05205952,50.99406087],[4.05220103,50.99403684],[4.05221493,50.99406945],[4.05226009,50.99417538]]]}},{"type":"Feature","id":"gebouw/Gebouw.15673130/0","properties":{"source":"Digitaal Vlaanderen Gebouwenregister","source_id":"gebouw/Gebouw.15673130/0","kind":"building","height_m":7.88,"status":null},"geometry":{"type":"Polygon","coordinates":[[[4.04835601,50.98997646],[4.04820156,50.9899982],[4.04820188,50.9899996],[4.04819943,50.98999981],[4.04817353,50.98992533],[4.04815956,50.98988514],[4.04820774,50.98987846],[4.04822204,50.9899196],[4.04833126,50.98990491],[4.04835601,50.98997646]]]}},{"type":"Feature","id":"gebouw/Gebouw.15673402/0","properties":{"source":"Digitaal Vlaanderen Gebouwenregister","source_id":"gebouw/Gebouw.15673402/0","kind":"building","height_m":7.16,"status":null},"geometry":{"type":"Polygon","coordinates":[[[4.05128221,50.99370415],[4.05126505,50.99373902],[4.05125801,50.99373764],[4.05125437,50.99374503],[4.05120824,50.99373599],[4.05121163,50.9937291],[4.05120183,50.99372718],[4.05121925,50.9936918],[4.05128221,50.99370415]]]}},{"type":"Feature","id":"gebouw/Gebouw.15684758/0","properties":{"source":"Digitaal Vlaanderen Gebouwenregister","source_id":"gebouw/Gebouw.15684758/0","kind":"building","height_m":8.6,"status":null},"geometry":{"type":"Polygon","coordinates":[[[4.04827123,50.98966576],[4.04833038,50.9896658],[4.04833029,50.98970014],[4.04827115,50.9897001],[4.04827123,50.98966576]]]}},{"type":"Feature","id":"gebouw/Gebouw.15687139/0","properties":{"source":"Digitaal Vlaanderen Gebouwenregister","source_id":"gebouw/Gebouw.15687139/0","kind":"building","height_m":9.32,"status":null},"geometry":{"type":"Polygon","coordinates":[[[4.0490452,50.99054503],[4.04905859,50.99057867],[4.04900549,50.99058734],[4.04899162,50.99055352],[4.0490452,50.99054503]]]}},{"type":"Feature","id":"gebouw/Gebouw.15694233/0","properties":{"source":"Digitaal Vlaanderen Gebouwenregister","source_id":"gebouw/Gebouw.15694233/0","kind":"building","height_m":6.44,"status":null},"geometry":{"type":"Polygon","coordinates":[[[4.0482335,50.99184535],[4.04816818,50.99181657],[4.04820412,50.99178407],[4.04826944,50.99181285],[4.0482335,50.99184535]]]}},{"type":"Feature","id":"gebouw/Gebouw.15699728/0","properties":{"source":"Digitaal Vlaanderen Gebouwenregister","source_id":"gebouw/Gebouw.15699728/0","kind":"building","height_m":6.44,"status":null},"geometry":{"type":"Polygon","coordinates":[[[4.04841264,50.9919196],[4.04835944,50.99190551],[4.0483845,50.99186781],[4.04843769,50.99188189],[4.04841264,50.9919196]]]}},{"type":"Feature","id":"gebouw/Gebouw.15699767/0","properties":{"source":"Digitaal Vlaanderen Gebouwenregister","source_id":"gebouw/Gebouw.15699767/0","kind":"building","height_m":9.32,"status":null},"geometry":{"type":"Polygon","coordinates":[[[4.0502864,50.99153696],[4.05022791,50.99148695],[4.05031436,50.99144668],[4.05044554,50.99155883],[4.05030486,50.99162437],[4.05023217,50.99156223],[4.0502864,50.99153696]]]}},{"type":"Feature","id":"gebouw/Gebouw.15708654/0","properties":{"source":"Digitaal Vlaanderen Gebouwenregister","source_id":"gebouw/Gebouw.15708654/0","kind":"building","height_m":7.16,"status":null},"geometry":{"type":"Polygon","coordinates":[[[4.04994844,50.98932097],[4.04981443,50.98942145],[4.04979553,50.98941166],[4.04979077,50.98940594],[4.04978969,50.98939808],[4.04979244,50.98939301],[4.0498023,50.98938534],[4.04974995,50.98935868],[4.04986022,50.98927478],[4.04994844,50.98932097]]]}},{"type":"Feature","id":"gebouw/Gebouw.15718064/0","properties":{"source":"Digitaal Vlaanderen Gebouwenregister","source_id":"gebouw/Gebouw.15718064/0","kind":"building","height_m":8.6,"status":null},"geometry":{"type":"Polygon","coordinates":[[[4.0486937,50.99014929],[4.04890339,50.99011838],[4.04892603,50.99017995],[4.0488199,50.9901955],[4.04883724,50.99024265],[4.04872423,50.9902592],[4.04871039,50.99022155],[4.04866813,50.99022774],[4.04864118,50.99015703],[4.0486937,50.99014929]]]}},{"type":"Feature","id":"gebouw/Gebouw.15720397/0","properties":{"source":"Digitaal Vlaanderen Gebouwenregister","source_id":"gebouw/Gebouw.15720397/0","kind":"building","height_m":5.0,"status":null},"geometry":{"type":"Polygon","coordinates":[[[4.04849153,50.99177766],[4.04851096,50.99180536],[4.048468,50.99181736],[4.04844857,50.99178967],[4.04849153,50.99177766]]]}},{"type":"Feature","id":"gebouw/Gebouw.15730203/0","properties":{"source":"Digitaal Vlaanderen Gebouwenregister","source_id":"gebouw/Gebouw.15730203/0","kind":"building","height_m":9.32,"status":null},"geometry":{"type":"Polygon","coordinates":[[[4.04937362,50.99224877],[4.04932905,50.99221199],[4.04936682,50.99219377],[4.04941138,50.99223055],[4.04937362,50.99224877]]]}},{"type":"Feature","id":"gebouw/Gebouw.15773931/0","properties":{"source":"Digitaal Vlaanderen Gebouwenregister","source_id":"gebouw/Gebouw.15773931/0","kind":"building","height_m":8.6,"status":null},"geometry":{"type":"Polygon","coordinates":[[[4.04863856,50.98938504],[4.0485273,50.98947064],[4.04851637,50.98946499],[4.04849142,50.98948419],[4.04847937,50.98947698],[4.04847223,50.98947147],[4.04846881,50.98946659],[4.04846613,50.98946057],[4.04846585,50.98945525],[4.04846628,50.98945078],[4.04846827,50.98944631],[4.04847171,50.98944186],[4.04843718,50.98942399],[4.04846632,50.98940146],[4.04845751,50.98939692],[4.04847826,50.98938088],[4.04845672,50.98936978],[4.04846686,50.98936194],[4.04845349,50.98935505],[4.04846518,50.989346],[4.04845838,50.98934256],[4.04849592,50.98931297],[4.04863856,50.98938504]]]}},{"type":"Feature","id":"gebouw/Gebouw.15781435/0","properties":{"source":"Digitaal Vlaanderen Gebouwenregister","source_id":"gebouw/Gebouw.15781435/0","kind":"building","height_m":8.6,"status":null},"geometry":{"type":"Polygon","coordinates":[[[4.04900582,50.99237547],[4.04888479,50.99243141],[4.04878163,50.99234253],[4.04878393,50.99234146],[4.04878477,50.99234218],[4.04890415,50.99228603],[4.04899832,50.99236887],[4.04900582,50.99237547]]]}},{"type":"Feature","id":"gebouw/Gebouw.15793021/0","properties":{"source":"Digitaal Vlaanderen Gebouwenregister","source_id":"gebouw/Gebouw.15793021/0","kind":"building","height_m":9.32,"status":null},"geometry":{"type":"Polygon","coordinates":[[[4.04950809,50.99217039],[4.0495683,50.99214245],[4.04961067,50.99217882],[4.04954958,50.99220601],[4.04950809,50.99217039]]]}},{"type":"Feature","id":"gebouw/Gebouw.15800475/0","properties":{"source":"Digitaal Vlaanderen Gebouwenregister","source_id":"gebouw/Gebouw.15800475/0","kind":"building","height_m":8.6,"status":null},"geometry":{"type":"Polygon","coordinates":[[[4.05289488,50.99338256],[4.05286883,50.99334094],[4.0529238,50.99332724],[4.05294985,50.99336886],[4.05289488,50.99338256]]]}},{"type":"Feature","id":"gebouw/Gebouw.15801002/0","properties":{"source":"Digitaal Vlaanderen Gebouwenregister","source_id":"gebouw/Gebouw.15801002/0","kind":"building","height_m":5.0,"status":null},"geometry":{"type":"Polygon","coordinates":[[[4.04830411,50.99194651],[4.04826674,50.99191213],[4.04831083,50.99189304],[4.0483482,50.99192743],[4.04830411,50.99194651]]]}},{"type":"Feature","id":"gebouw/Gebouw.15805861/0","properties":{"source":"Digitaal Vlaanderen Gebouwenregister","source_id":"gebouw/Gebouw.15805861/0","kind":"building","height_m":5.72,"status":null},"geometry":{"type":"Polygon","coordinates":[[[4.05013341,50.99164184],[4.05008764,50.99164853],[4.05007717,50.99161997],[4.05012294,50.99161328],[4.05013341,50.99164184]]]}},{"type":"Feature","id":"gebouw/Gebouw.15812670/0","properties":{"source":"Digitaal Vlaanderen Gebouwenregister","source_id":"gebouw/Gebouw.15812670/0","kind":"building","height_m":9.32,"status":null},"geometry":{"type":"Polygon","coordinates":[[[4.05033039,50.99060339],[4.05033497,50.9906066],[4.0503115,50.99061995],[4.0503054,50.99061568],[4.05028818,50.99062547],[4.05019675,50.99056146],[4.05032283,50.99049359],[4.05034983,50.99051357],[4.05041206,50.99047817],[4.05047412,50.99052162],[4.05033039,50.99060339]]]}},{"type":"Feature","id":"gebouw/Gebouw.15815714/0","properties":{"source":"Digitaal Vlaanderen Gebouwenregister","source_id":"gebouw/Gebouw.15815714/0","kind":"building","height_m":8.6,"status":null},"geometry":{"type":"Polygon","coordinates":[[[4.04925734,50.99235782],[4.04922023,50.99232711],[4.04926682,50.9923047],[4.04930392,50.99233542],[4.04925734,50.99235782]]]}},{"type":"Feature","id":"gebouw/Gebouw.15823294/0","properties":{"source":"Digitaal Vlaanderen Gebouwenregister","source_id":"gebouw/Gebouw.15823294/0","kind":"building","height_m":7.88,"status":null},"geometry":{"type":"Polygon","coordinates":[[[4.04944133,50.99208756],[4.049482,50.99211947],[4.04935401,50.99217927],[4.04926273,50.99209785],[4.04938128,50.99204309],[4.04938009,50.99204213],[4.04938213,50.9920411],[4.0493834,50.99204209],[4.04944133,50.99208756]]]}},{"type":"Feature","id":"gebouw/Gebouw.15826617/0","properties":{"source":"Digitaal Vlaanderen Gebouwenregister","source_id":"gebouw/Gebouw.15826617/0","kind":"building","height_m":6.44,"status":null},"geometry":{"type":"Polygon","coordinates":[[[4.04851537,50.990617],[4.04837634,50.99063797],[4.04837668,50.99063885],[4.04837391,50.99063926],[4.04834525,50.99056317],[4.04844615,50.99054804],[4.04844455,50.99054379],[4.04842975,50.99054601],[4.04842038,50.99052114],[4.04847813,50.99051297],[4.04851537,50.990617]]]}},{"type":"Feature","id":"gebouw/Gebouw.15829406/0","properties":{"source":"Digitaal Vlaanderen Gebouwenregister","source_id":"gebouw/Gebouw.15829406/0","kind":"building","height_m":8.6,"status":null},"geometry":{"type":"Polygon","coordinates":[[[4.05034594,50.99198157],[4.05039946,50.99200345],[4.05036816,50.99203394],[4.05031465,50.99201206],[4.05034594,50.99198157]]]}},{"type":"Feature","id":"gebouw/Gebouw.15834227/0","properties":{"source":"Digitaal Vlaanderen Gebouwenregister","source_id":"gebouw/Gebouw.15834227/0","kind":"building","height_m":7.16,"status":null},"geometry":{"type":"Polygon","coordinates":[[[4.0501896,50.99192327],[4.05015664,50.99189439],[4.05021114,50.99186961],[4.0502441,50.9918985],[4.0501896,50.99192327]]]}},{"type":"Feature","id":"gebouw/Gebouw.15836892/0","properties":{"source":"Digitaal Vlaanderen Gebouwenregister","source_id":"gebouw/Gebouw.15836892/0","kind":"building","height_m":5.72,"status":null},"geometry":{"type":"Polygon","coordinates":[[[4.04883257,50.99085985],[4.04884693,50.99089857],[4.04880055,50.99090543],[4.04879976,50.99090329],[4.04878752,50.9909051],[4.04877395,50.99086851],[4.04883257,50.99085985]]]}},{"type":"Feature","id":"gebouw/Gebouw.15844596/0","properties":{"source":"Digitaal Vlaanderen Gebouwenregister","source_id":"gebouw/Gebouw.15844596/0","kind":"building","height_m":8.6,"status":null},"geometry":{"type":"Polygon","coordinates":[[[4.04863651,50.99038855],[4.04864908,50.99042261],[4.04858292,50.99043235],[4.04857034,50.99039828],[4.04863651,50.99038855]]]}},{"type":"Feature","id":"gebouw/Gebouw.15856448/0","properties":{"source":"Digitaal Vlaanderen Gebouwenregister","source_id":"gebouw/Gebouw.15856448/0","kind":"building","height_m":9.32,"status":null},"geometry":{"type":"Polygon","coordinates":[[[4.04824242,50.99047733],[4.04823134,50.99044754],[4.04829055,50.99043876],[4.04830164,50.99046855],[4.04824242,50.99047733]]]}},{"type":"Feature","id":"gebouw/Gebouw.15856668/0","properties":{"source":"Digitaal Vlaanderen Gebouwenregister","source_id":"gebouw/Gebouw.15856668/0","kind":"building","height_m":6.44,"status":null},"geometry":{"type":"Polygon","coordinates":[[[4.04866384,50.99025861],[4.0487113,50.99025281],[4.04871937,50.99027902],[4.04867191,50.99028482],[4.04866384,50.99025861]]]}},{"type":"Feature","id":"gebouw/Gebouw.15859231/0","properties":{"source":"Digitaal Vlaanderen Gebouwenregister","source_id":"gebouw/Gebouw.15859231/0","kind":"building","height_m":7.16,"status":null},"geometry":{"type":"Polygon","coordinates":[[[4.05092659,50.99305458],[4.05102072,50.99301016],[4.05105629,50.99304019],[4.05096216,50.9930846],[4.05092659,50.99305458]]]}},{"type":"Feature","id":"gebouw/Gebouw.15882191/0","properties":{"source":"Digitaal Vlaanderen Gebouwenregister","source_id":"gebouw/Gebouw.15882191/0","kind":"building","height_m":7.16,"status":null},"geometry":{"type":"Polygon","coordinates":[[[4.04877038,50.98923388],[4.04877113,50.98923329],[4.04867308,50.98918365],[4.04858403,50.98925372],[4.04868208,50.98930336],[4.04877038,50.98923388]]]}},{"type":"Feature","id":"gebouw/Gebouw.15882302/0","properties":{"source":"Digitaal Vlaanderen Gebouwenregister","source_id":"gebouw/Gebouw.15882302/0","kind":"building","height_m":6.44,"status":null},"geometry":{"type":"Polygon","coordinates":[[[4.04961825,50.98931269],[4.04968735,50.98934806],[4.04955496,50.98944839],[4.04948191,50.98940907],[4.04961825,50.98931269]]]}},{"type":"Feature","id":"gebouw/Gebouw.15887025/0","properties":{"source":"Digitaal Vlaanderen Gebouwenregister","source_id":"gebouw/Gebouw.15887025/0","kind":"building","height_m":5.0,"status":null},"geometry":{"type":"Polygon","coordinates":[[[4.05107737,50.99222899],[4.05082472,50.9923092],[4.05084973,50.99234057],[4.05075598,50.99237034],[4.05065165,50.99240181],[4.05064065,50.99238467],[4.05070907,50.99236258],[4.05069557,50.99234615],[4.0507011,50.99234459],[4.05063047,50.99225715],[4.05063785,50.9922543],[4.05061614,50.9922306],[4.05067803,50.9922124],[4.05066471,50.99219596],[4.05071205,50.9921807],[4.05073314,50.99220674],[4.05099412,50.99212489],[4.05099641,50.99212768],[4.05099388,50.9921286],[4.0510713,50.99222685],[4.05107571,50.99222594],[4.05107737,50.99222899]]]}},{"type":"Feature","id":"gebouw/Gebouw.15891906/0","properties":{"source":"Digitaal Vlaanderen Gebouwenregister","source_id":"gebouw/Gebouw.15891906/0","kind":"building","height_m":6.44,"status":null},"geometry":{"type":"Polygon","coordinates":[[[4.04914674,50.98980464],[4.04915902,50.98980281],[4.04917214,50.98984008],[4.04902253,50.98986057],[4.04899966,50.98979405],[4.04892682,50.98980402],[4.04890043,50.98972725],[4.04896377,50.98971858],[4.04896183,50.98971295],[4.04900979,50.98970686],[4.04904675,50.98970217],[4.04905765,50.98970704],[4.0490591,50.98971196],[4.04907885,50.98970963],[4.04908003,50.98971365],[4.04910623,50.98971057],[4.04912906,50.98977161],[4.04910305,50.98977548],[4.04911437,50.98980575],[4.04914543,50.98980112],[4.04914674,50.98980464]]]}},{"type":"Feature","id":"gebouw/Gebouw.15894349/0","properties":{"source":"Digitaal Vlaanderen Gebouwenregister","source_id":"gebouw/Gebouw.15894349/0","kind":"building","height_m":6.44,"status":null},"geometry":{"type":"Polygon","coordinates":[[[4.05197147,50.99402239],[4.05205797,50.99398536],[4.05208612,50.99401154],[4.05199962,50.99404855],[4.05197147,50.99402239]]]}},{"type":"Feature","id":"gebouw/Gebouw.15894661/0","properties":{"source":"Digitaal Vlaanderen Gebouwenregister","source_id":"gebouw/Gebouw.15894661/0","kind":"building","height_m":9.32,"status":null},"geometry":{"type":"Polygon","coordinates":[[[4.04954101,50.99055922],[4.04952127,50.99050484],[4.04951973,50.99050061],[4.04940293,50.99051928],[4.04943631,50.99061071],[4.04943508,50.99061106],[4.04943551,50.99061247],[4.04955505,50.99059791],[4.04954101,50.99055922]]]}},{"type":"Feature","id":"gebouw/Gebouw.15901065/0","properties":{"source":"Digitaal Vlaanderen Gebouwenregister","source_id":"gebouw/Gebouw.15901065/0","kind":"building","height_m":8.6,"status":null},"geometry":{"type":"Polygon","coordinates":[[[4.0500856,50.99096709],[4.0501169,50.99099952],[4.05005109,50.99102483],[4.05001978,50.9909924],[4.0500856,50.99096709]]]}},{"type":"Feature","id":"gebouw/Gebouw.15906625/0","properties":{"source":"Digitaal Vlaanderen Gebouwenregister","source_id":"gebouw/Gebouw.15906625/0","kind":"building","height_m":5.0,"status":null},"geometry":{"type":"Polygon","coordinates":[[[4.04922767,50.99182236],[4.04922914,50.99182367],[4.04922719,50.99182453],[4.04922569,50.99182375],[4.04910531,50.99187971],[4.04903095,50.99181601],[4.04915739,50.9917596],[4.04917545,50.99177573],[4.04922767,50.99182236]]]}},{"type":"Feature","id":"gebouw/Gebouw.15919386/0","properties":{"source":"Digitaal Vlaanderen Gebouwenregister","source_id":"gebouw/Gebouw.15919386/0","kind":"building","height_m":5.0,"status":null},"geometry":{"type":"Polygon","coordinates":[[[4.05095164,50.99248234],[4.05090136,50.99241983],[4.0509811,50.99239429],[4.05099344,50.99240964],[4.0510386,50.99239518],[4.05099047,50.99233533],[4.05112825,50.99229146],[4.05116697,50.99233989],[4.0511542,50.99234426],[4.05120101,50.99240246],[4.05095164,50.99248234]]]}},{"type":"Feature","id":"gebouw/Gebouw.15925212/0","properties":{"source":"Digitaal Vlaanderen Gebouwenregister","source_id":"gebouw/Gebouw.15925212/0","kind":"building","height_m":6.44,"status":null},"geometry":{"type":"Polygon","coordinates":[[[4.04905405,50.99120223],[4.04896537,50.9912149],[4.04895753,50.99119286],[4.04904556,50.99118016],[4.04905405,50.99120223]]]}},{"type":"Feature","id":"gebouw/Gebouw.15929704/0","properties":{"source":"Digitaal Vlaanderen Gebouwenregister","source_id":"gebouw/Gebouw.15929704/0","kind":"building","height_m":5.0,"status":null},"geometry":{"type":"Polygon","coordinates":[[[4.04853872,50.99095726],[4.04844396,50.99096994],[4.04843642,50.99094752],[4.04838615,50.99095425],[4.04836056,50.99087812],[4.04850425,50.9908589],[4.04853055,50.99093395],[4.04853872,50.99095726]]]}},{"type":"Feature","id":"gebouw/Gebouw.15939957/0","properties":{"source":"Digitaal Vlaanderen Gebouwenregister","source_id":"gebouw/Gebouw.15939957/0","kind":"building","height_m":8.6,"status":null},"geometry":{"type":"Polygon","coordinates":[[[4.04983734,50.99013164],[4.04977533,50.99017619],[4.04981683,50.99019654],[4.04987411,50.99015118],[4.04983734,50.99013164]]]}},{"type":"Feature","id":"gebouw/Gebouw.15944870/0","properties":{"source":"Digitaal Vlaanderen Gebouwenregister","source_id":"gebouw/Gebouw.15944870/0","kind":"building","height_m":7.88,"status":null},"geometry":{"type":"Polygon","coordinates":[[[4.04815789,50.98934344],[4.0482738,50.98925258],[4.04834261,50.98928754],[4.04830777,50.98931522],[4.04832697,50.98932485],[4.04832227,50.98932813],[4.04834155,50.98933913],[4.04830795,50.98936722],[4.04833894,50.98938297],[4.04828194,50.98942766],[4.04819011,50.989381],[4.0482065,50.98936815],[4.04815789,50.98934344]]]}},{"type":"Feature","id":"gebouw/Gebouw.15949902/0","properties":{"source":"Digitaal Vlaanderen Gebouwenregister","source_id":"gebouw/Gebouw.15949902/0","kind":"building","height_m":7.16,"status":null},"geometry":{"type":"Polygon","coordinates":[[[4.04985393,50.99087599],[4.04989573,50.99085429],[4.04993149,50.99088173],[4.04988969,50.99090343],[4.04985393,50.99087599]]]}},{"type":"Feature","id":"gebouw/Gebouw.15950548/0","properties":{"source":"Digitaal Vlaanderen Gebouwenregister","source_id":"gebouw/Gebouw.15950548/0","kind":"building","height_m":8.6,"status":null},"geometry":{"type":"Polygon","coordinates":[[[4.05075496,50.99236906],[4.05079138,50.99241474],[4.05065695,50.99245875],[4.05061895,50.99241251],[4.05065165,50.99240181],[4.05072278,50.99237926],[4.05075496,50.99236906]]]}},{"type":"Feature","id":"gebouw/Gebouw.15973676/0","properties":{"source":"Digitaal Vlaanderen Gebouwenregister","source_id":"gebouw/Gebouw.15973676/0","kind":"building","height_m":8.6,"status":null},"geometry":{"type":"Polygon","coordinates":[[[4.05222671,50.99391211],[4.05208714,50.993975],[4.05198202,50.99388208],[4.0520937,50.99383189],[4.0520954,50.99383339],[4.05211088,50.99382625],[4.0521818,50.99388818],[4.05219399,50.99388319],[4.05222671,50.99391211]]]}},{"type":"Feature","id":"gebouw/Gebouw.15976948/0","properties":{"source":"Digitaal Vlaanderen Gebouwenregister","source_id":"gebouw/Gebouw.15976948/0","kind":"building","height_m":5.72,"status":null},"geometry":{"type":"Polygon","coordinates":[[[4.05173079,50.99313295],[4.05173717,50.99314293],[4.05176133,50.99313624],[4.05180651,50.99320532],[4.05173149,50.99322486],[4.05173741,50.99323522],[4.05172394,50.99323829],[4.0517302,50.99324926],[4.05172458,50.99325038],[4.05171021,50.99325345],[4.05170275,50.99325613],[4.05169358,50.9932602],[4.05172889,50.99329065],[4.05163099,50.99333588],[4.05162707,50.99333249],[4.0516187,50.99333636],[4.05155263,50.9932794],[4.05155938,50.99327629],[4.05154921,50.99326752],[4.0515945,50.99324659],[4.0515897,50.99324245],[4.05161722,50.99322974],[4.05162863,50.99322288],[4.05163655,50.99321493],[4.05164198,50.99320689],[4.05164479,50.99320057],[4.05164628,50.99319498],[4.05164594,50.99319046],[4.05162808,50.99316254],[4.05164044,50.99315939],[4.05163856,50.99315646],[4.05173079,50.99313295]]]}},{"type":"Feature","id":"gebouw/Gebouw.15981915/0","properties":{"source":"Digitaal Vlaanderen Gebouwenregister","source_id":"gebouw/Gebouw.15981915/0","kind":"building","height_m":8.6,"status":null},"geometry":{"type":"Polygon","coordinates":[[[4.04870389,50.99125387],[4.04870087,50.99125438],[4.04869247,50.99123468],[4.04866963,50.99118108],[4.04866785,50.9911769],[4.04868278,50.99117474],[4.04881374,50.99115576],[4.04882334,50.99115436],[4.04884733,50.99123298],[4.04884444,50.99123333],[4.04884403,50.99123229],[4.04870377,50.99125309],[4.04870389,50.99125387]]]}},{"type":"Feature","id":"gebouw/Gebouw.15982138/0","properties":{"source":"Digitaal Vlaanderen Gebouwenregister","source_id":"gebouw/Gebouw.15982138/0","kind":"building","height_m":7.88,"status":null},"geometry":{"type":"Polygon","coordinates":[[[4.04848709,50.99025962],[4.04838923,50.9902736],[4.04836272,50.99019827],[4.04855353,50.99017156],[4.04855321,50.99017068],[4.04855599,50.99017028],[4.04859075,50.99026508],[4.04855142,50.9902707],[4.04854329,50.99024801],[4.04853744,50.99024884],[4.04853866,50.99025225],[4.04848709,50.99025962]]]}},{"type":"Feature","id":"gebouw/Gebouw.15987420/0","properties":{"source":"Digitaal Vlaanderen Gebouwenregister","source_id":"gebouw/Gebouw.15987420/0","kind":"building","height_m":5.72,"status":null},"geometry":{"type":"Polygon","coordinates":[[[4.04971579,50.99063257],[4.04970974,50.99063977],[4.04967381,50.99062772],[4.04969818,50.99059878],[4.04973543,50.99061127],[4.04973227,50.99061502],[4.04974075,50.99062455],[4.04973145,50.99063446],[4.04971579,50.99063257]]]}},{"type":"Feature","id":"gebouw/Gebouw.15989660/0","properties":{"source":"Digitaal Vlaanderen Gebouwenregister","source_id":"gebouw/Gebouw.15989660/0","kind":"building","height_m":5.72,"status":null},"geometry":{"type":"Polygon","coordinates":[[[4.049539,50.99080996],[4.04965694,50.99079327],[4.04969221,50.99088945],[4.04957174,50.99090626],[4.04957112,50.99090451],[4.04957254,50.99090431],[4.049539,50.99080996]]]}},{"type":"Feature","id":"gebouw/Gebouw.15990119/0","properties":{"source":"Digitaal Vlaanderen Gebouwenregister","source_id":"gebouw/Gebouw.15990119/0","kind":"building","height_m":8.6,"status":null},"geometry":{"type":"Polygon","coordinates":[[[4.0504294,50.99067355],[4.05043159,50.99067548],[4.05042596,50.99067825],[4.05047998,50.99072491],[4.05049139,50.99071947],[4.05054439,50.99076494],[4.05044923,50.99080913],[4.05045225,50.99081172],[4.05039077,50.99084027],[4.05027693,50.99074262],[4.0504294,50.99067355]]]}},{"type":"Feature","id":"gebouw/Gebouw.15995268/0","properties":{"source":"Digitaal Vlaanderen Gebouwenregister","source_id":"gebouw/Gebouw.15995268/0","kind":"building","height_m":6.44,"status":null},"geometry":{"type":"Polygon","coordinates":[[[4.05057418,50.99147713],[4.05053988,50.99149276],[4.05048621,50.99144585],[4.05057522,50.99140529],[4.05051414,50.99135335],[4.05060035,50.99131296],[4.05060219,50.99131478],[4.05060324,50.99131412],[4.05060532,50.99131532],[4.05062677,50.99130506],[4.05063747,50.99130482],[4.05064689,50.9913063],[4.05065463,50.99131003],[4.05065693,50.99131003],[4.05066943,50.99132158],[4.05068777,50.99133751],[4.0506915,50.99134347],[4.05068978,50.99134994],[4.05068639,50.9913539],[4.05068287,50.9913562],[4.05066081,50.99136594],[4.05072642,50.99142328],[4.05058586,50.99148733],[4.05057418,50.99147713]]]}},{"type":"Feature","id":"gebouw/Gebouw.16000424/0","properties":{"source":"Digitaal Vlaanderen Gebouwenregister","source_id":"gebouw/Gebouw.16000424/0","kind":"building","height_m":9.32,"status":null},"geometry":{"type":"Polygon","coordinates":[[[4.04866213,50.99251193],[4.04857588,50.99255251],[4.04847281,50.99246473],[4.04858982,50.99241018],[4.04858921,50.99240942],[4.04859137,50.99240839],[4.0485937,50.99241031],[4.04866236,50.99246723],[4.0486657,50.99246999],[4.04863141,50.99248647],[4.04866213,50.99251193]]]}},{"type":"Feature","id":"gebouw/Gebouw.16000779/0","properties":{"source":"Digitaal Vlaanderen Gebouwenregister","source_id":"gebouw/Gebouw.16000779/0","kind":"building","height_m":7.88,"status":null},"geometry":{"type":"Polygon","coordinates":[[[4.05079801,50.99205944],[4.05084946,50.99204272],[4.05088151,50.99208221],[4.05070436,50.99213545],[4.05065462,50.9920759],[4.05064671,50.99207853],[4.05061069,50.9920354],[4.05074156,50.99199186],[4.05079801,50.99205944]]]}},{"type":"Feature","id":"gebouw/Gebouw.16011744/0","properties":{"source":"Digitaal Vlaanderen Gebouwenregister","source_id":"gebouw/Gebouw.16011744/0","kind":"building","height_m":5.0,"status":null},"geometry":{"type":"Polygon","coordinates":[[[4.0486767,50.99090766],[4.04867851,50.9909125],[4.04853055,50.99093395],[4.04850425,50.9908589],[4.04865033,50.99083716],[4.04865498,50.99084958],[4.0486767,50.99090766]]]}},{"type":"Feature","id":"gebouw/Gebouw.16014109/0","properties":{"source":"Digitaal Vlaanderen Gebouwenregister","source_id":"gebouw/Gebouw.16014109/0","kind":"building","height_m":9.32,"status":null},"geometry":{"type":"Polygon","coordinates":[[[4.04931135,50.98999232],[4.04942986,50.98997583],[4.04946967,50.99008984],[4.04935312,50.99010605],[4.04933868,50.9900647],[4.04923908,50.99007856],[4.04921371,50.9900059],[4.04922844,50.99000385],[4.04931135,50.98999232]]]}},{"type":"Feature","id":"gebouw/Gebouw.16014202/0","properties":{"source":"Digitaal Vlaanderen Gebouwenregister","source_id":"gebouw/Gebouw.16014202/0","kind":"building","height_m":5.72,"status":null},"geometry":{"type":"Polygon","coordinates":[[[4.04997427,50.9918144],[4.04988928,50.9917809],[4.04994461,50.991725],[4.05013268,50.99179914],[4.05004408,50.99188866],[4.04994083,50.99184809],[4.04997427,50.9918144]]]}},{"type":"Feature","id":"gebouw/Gebouw.16016715/0","properties":{"source":"Digitaal Vlaanderen Gebouwenregister","source_id":"gebouw/Gebouw.16016715/0","kind":"building","height_m":5.72,"status":null},"geometry":{"type":"Polygon","coordinates":[[[4.0487202,50.9910478],[4.04877259,50.99104004],[4.04878397,50.99107061],[4.04873157,50.99107837],[4.0487202,50.9910478]]]}},{"type":"Feature","id":"gebouw/Gebouw.16022167/0","properties":{"source":"Digitaal Vlaanderen Gebouwenregister","source_id":"gebouw/Gebouw.16022167/0","kind":"building","height_m":5.0,"status":null},"geometry":{"type":"Polygon","coordinates":[[[4.05254756,50.99340204],[4.05250798,50.9933373],[4.05263589,50.99330616],[4.05265852,50.9933438],[4.0526738,50.9933401],[4.05270652,50.99339385],[4.05258674,50.99342435],[4.05257012,50.99339655],[4.05254756,50.99340204]]]}},{"type":"Feature","id":"gebouw/Gebouw.16025180/0","properties":{"source":"Digitaal Vlaanderen Gebouwenregister","source_id":"gebouw/Gebouw.16025180/0","kind":"building","height_m":7.16,"status":null},"geometry":{"type":"Polygon","coordinates":[[[4.05169072,50.9930405],[4.05168254,50.99304443],[4.05170025,50.99305907],[4.05152464,50.99314145],[4.05146586,50.99309265],[4.05150593,50.99306757],[4.05148177,50.99304487],[4.05156518,50.99300464],[4.05159133,50.99302667],[4.05164385,50.99300152],[4.05169072,50.9930405]]]}},{"type":"Feature","id":"gebouw/Gebouw.16027453/0","properties":{"source":"Digitaal Vlaanderen Gebouwenregister","source_id":"gebouw/Gebouw.16027453/0","kind":"building","height_m":5.72,"status":null},"geometry":{"type":"Polygon","coordinates":[[[4.05004791,50.98957688],[4.04992483,50.98966697],[4.04989731,50.98965217],[4.04993861,50.98962156],[4.04979618,50.989545],[4.04996219,50.98941746],[4.05005415,50.98946535],[4.0500576,50.98948662],[4.04998337,50.98954173],[4.05004791,50.98957688]]]}},{"type":"Feature","id":"gebouw/Gebouw.16042855/0","properties":{"source":"Digitaal Vlaanderen Gebouwenregister","source_id":"gebouw/Gebouw.16042855/0","kind":"building","height_m":7.16,"status":null},"geometry":{"type":"Polygon","coordinates":[[[4.04872642,50.98935919],[4.04875786,50.98937684],[4.04879202,50.98935261],[4.04876057,50.98933495],[4.04872642,50.98935919]]]}},{"type":"Feature","id":"gebouw/Gebouw.16051286/0","properties":{"source":"Digitaal Vlaanderen Gebouwenregister","source_id":"gebouw/Gebouw.16051286/0","kind":"building","height_m":9.32,"status":null},"geometry":{"type":"Polygon","coordinates":[[[4.0496752,50.99116818],[4.04966919,50.99116885],[4.04966875,50.99116726],[4.04967037,50.99116698],[4.04963533,50.99107528],[4.04975574,50.99105823],[4.0497794,50.99112498],[4.04979018,50.99115538],[4.04978382,50.99115609],[4.0496752,50.99116818]]]}},{"type":"Feature","id":"gebouw/Gebouw.16053114/0","properties":{"source":"Digitaal Vlaanderen Gebouwenregister","source_id":"gebouw/Gebouw.16053114/0","kind":"building","height_m":5.0,"status":null},"geometry":{"type":"Polygon","coordinates":[[[4.04908054,50.99119774],[4.04904191,50.99109145],[4.04925198,50.99106216],[4.04927509,50.9911282],[4.04916966,50.9911431],[4.04918466,50.99118267],[4.04908054,50.99119774]]]}},{"type":"Feature","id":"gebouw/Gebouw.16058507/0","properties":{"source":"Digitaal Vlaanderen Gebouwenregister","source_id":"gebouw/Gebouw.16058507/0","kind":"building","height_m":7.16,"status":null},"geometry":{"type":"Polygon","coordinates":[[[4.0482702,50.99038432],[4.0482811,50.990419],[4.04821583,50.99042718],[4.04820493,50.9903925],[4.0482702,50.99038432]]]}},{"type":"Feature","id":"gebouw/Gebouw.16061634/0","properties":{"source":"Digitaal Vlaanderen Gebouwenregister","source_id":"gebouw/Gebouw.16061634/0","kind":"building","height_m":5.72,"status":null},"geometry":{"type":"Polygon","coordinates":[[[4.04879776,50.98969499],[4.04873456,50.98970313],[4.04872487,50.98967323],[4.04878807,50.98966508],[4.04879776,50.98969499]]]}},{"type":"Feature","id":"gebouw/Gebouw.16064514/0","properties":{"source":"Digitaal Vlaanderen Gebouwenregister","source_id":"gebouw/Gebouw.16064514/0","kind":"building","height_m":7.88,"status":null},"geometry":{"type":"Polygon","coordinates":[[[4.04975574,50.99105823],[4.04963533,50.99107528],[4.049635,50.99107435],[4.04960476,50.99098788],[4.04960286,50.99098815],[4.04960243,50.99098647],[4.04972585,50.9909739],[4.04973461,50.99099862],[4.04975574,50.99105823]]]}},{"type":"Feature","id":"gebouw/Gebouw.16064796/0","properties":{"source":"Digitaal Vlaanderen Gebouwenregister","source_id":"gebouw/Gebouw.16064796/0","kind":"building","height_m":9.32,"status":null},"geometry":{"type":"Polygon","coordinates":[[[4.04925218,50.9915712],[4.04918756,50.99158013],[4.04917545,50.99154522],[4.04924007,50.99153629],[4.04925218,50.9915712]]]}},{"type":"Feature","id":"gebouw/Gebouw.16075741/0","properties":{"source":"Digitaal Vlaanderen Gebouwenregister","source_id":"gebouw/Gebouw.16075741/0","kind":"building","height_m":7.16,"status":null},"geometry":{"type":"Polygon","coordinates":[[[4.05077706,50.99191384],[4.05057909,50.99197667],[4.05053509,50.9919205],[4.05056892,50.99190994],[4.05051615,50.99184258],[4.05052465,50.99182706],[4.05054851,50.99181948],[4.05055226,50.99182418],[4.05067466,50.99178533],[4.05077706,50.99191384]]]}},{"type":"Feature","id":"gebouw/Gebouw.16080763/0","properties":{"source":"Digitaal Vlaanderen Gebouwenregister","source_id":"gebouw/Gebouw.16080763/0","kind":"building","height_m":9.32,"status":null},"geometry":{"type":"Polygon","coordinates":[[[4.04908656,50.99229203],[4.04911252,50.99231606],[4.04899832,50.99236887],[4.04890415,50.99228603],[4.04901904,50.99223312],[4.04901838,50.99223226],[4.04902094,50.9922313],[4.04902479,50.99223487],[4.04908656,50.99229203]]]}},{"type":"Feature","id":"gebouw/Gebouw.16080902/0","properties":{"source":"Digitaal Vlaanderen Gebouwenregister","source_id":"gebouw/Gebouw.16080902/0","kind":"building","height_m":8.6,"status":null},"geometry":{"type":"Polygon","coordinates":[[[4.05009883,50.98978517],[4.04984768,50.98997321],[4.04976215,50.98992872],[4.04974345,50.98994303],[4.04973,50.98993601],[4.04985045,50.98984236],[4.04991186,50.98979461],[4.04994857,50.98981371],[4.04988604,50.98986156],[4.04989146,50.98986438],[4.050037,50.989753],[4.05009783,50.98978465],[4.05009883,50.98978517]]]}},{"type":"Feature","id":"gebouw/Gebouw.16084184/0","properties":{"source":"Digitaal Vlaanderen Gebouwenregister","source_id":"gebouw/Gebouw.16084184/0","kind":"building","height_m":7.88,"status":null},"geometry":{"type":"Polygon","coordinates":[[[4.04840973,50.9912965],[4.04825574,50.99131872],[4.0482564,50.9913202],[4.04825171,50.99132089],[4.04822563,50.99125012],[4.04827993,50.99124215],[4.04828061,50.99123807],[4.04828351,50.99123012],[4.04828864,50.99122372],[4.04829865,50.99121656],[4.04837837,50.9912052],[4.04840973,50.9912965]]]}},{"type":"Feature","id":"gebouw/Gebouw.16088211/0","properties":{"source":"Digitaal Vlaanderen Gebouwenregister","source_id":"gebouw/Gebouw.16088211/0","kind":"building","height_m":9.32,"status":null},"geometry":{"type":"Polygon","coordinates":[[[4.04933386,50.99232336],[4.04928959,50.99228463],[4.04934377,50.99225884],[4.04939075,50.99229775],[4.04933386,50.99232336]]]}},{"type":"Feature","id":"gebouw/Gebouw.16096318/0","properties":{"source":"Digitaal Vlaanderen Gebouwenregister","source_id":"gebouw/Gebouw.16096318/0","kind":"building","height_m":5.0,"status":null},"geometry":{"type":"Polygon","coordinates":[[[4.05002905,50.98970349],[4.04996539,50.98975299],[4.04991418,50.98972546],[4.04996302,50.9896875],[4.04992483,50.98966697],[4.05004791,50.98957688],[4.05009925,50.98960448],[4.04999225,50.98968377],[4.05002905,50.98970349]]]}},{"type":"Feature","id":"gebouw/Gebouw.16105604/0","properties":{"source":"Digitaal Vlaanderen Gebouwenregister","source_id":"gebouw/Gebouw.16105604/0","kind":"building","height_m":7.88,"status":null},"geometry":{"type":"Polygon","coordinates":[[[4.04866275,50.99059673],[4.048663,50.99059745],[4.04866022,50.99059783],[4.04865991,50.99059696],[4.04851537,50.990617],[4.04847813,50.99051297],[4.04861757,50.99049322],[4.04862809,50.99052284],[4.04863704,50.99052162],[4.04864765,50.9905526],[4.04866275,50.99059673]]]}},{"type":"Feature","id":"gebouw/Gebouw.16114033/0","properties":{"source":"Digitaal Vlaanderen Gebouwenregister","source_id":"gebouw/Gebouw.16114033/0","kind":"building","height_m":8.6,"status":null},"geometry":{"type":"Polygon","coordinates":[[[4.04887222,50.99096448],[4.04883074,50.99096969],[4.04881821,50.99092998],[4.04885969,50.99092477],[4.04887222,50.99096448]]]}},{"type":"Feature","id":"gebouw/Gebouw.16117251/0","properties":{"source":"Digitaal Vlaanderen Gebouwenregister","source_id":"gebouw/Gebouw.16117251/0","kind":"building","height_m":7.16,"status":null},"geometry":{"type":"Polygon","coordinates":[[[4.04867787,50.99031847],[4.0486739,50.99030622],[4.04870786,50.99030185],[4.04872281,50.99034805],[4.04868933,50.99035237],[4.04868728,50.99034603],[4.04867053,50.99034819],[4.0486616,50.99032057],[4.04867787,50.99031847]]]}},{"type":"Feature","id":"gebouw/Gebouw.16130706/0","properties":{"source":"Digitaal Vlaanderen Gebouwenregister","source_id":"gebouw/Gebouw.16130706/0","kind":"building","height_m":7.88,"status":null},"geometry":{"type":"Polygon","coordinates":[[[4.05128602,50.99293321],[4.05133311,50.99297272],[4.05126769,50.99300378],[4.05122064,50.9929643],[4.051194,50.99294195],[4.05125943,50.9929109],[4.05128602,50.99293321]]]}},{"type":"Feature","id":"gebouw/Gebouw.16132937/0","properties":{"source":"Digitaal Vlaanderen Gebouwenregister","source_id":"gebouw/Gebouw.16132937/0","kind":"building","height_m":6.44,"status":null},"geometry":{"type":"Polygon","coordinates":[[[4.04955075,50.9894792],[4.04961099,50.98951098],[4.04957544,50.98953783],[4.0495152,50.98950605],[4.04955075,50.9894792]]]}},{"type":"Feature","id":"gebouw/Gebouw.16146048/0","properties":{"source":"Digitaal Vlaanderen Gebouwenregister","source_id":"gebouw/Gebouw.16146048/0","kind":"building","height_m":6.44,"status":null},"geometry":{"type":"Polygon","coordinates":[[[4.04922591,50.9892104],[4.04927342,50.98917536],[4.04933298,50.98920753],[4.04928546,50.98924257],[4.04922591,50.9892104]]]}},{"type":"Feature","id":"gebouw/Gebouw.16148489/0","properties":{"source":"Digitaal Vlaanderen Gebouwenregister","source_id":"gebouw/Gebouw.16148489/0","kind":"building","height_m":5.0,"status":null},"geometry":{"type":"Polygon","coordinates":[[[4.04830913,50.99094579],[4.04828905,50.99088864],[4.04833934,50.9908816],[4.04835941,50.99093876],[4.04830913,50.99094579]]]}},{"type":"Feature","id":"gebouw/Gebouw.16150333/0","properties":{"source":"Digitaal Vlaanderen Gebouwenregister","source_id":"gebouw/Gebouw.16150333/0","kind":"building","height_m":7.16,"status":null},"geometry":{"type":"Polygon","coordinates":[[[4.05019852,50.98983923],[4.05035073,50.98991938],[4.05018845,50.99004213],[4.05003777,50.98996409],[4.05019852,50.98983923]]]}},{"type":"Feature","id":"gebouw/Gebouw.16155550/0","properties":{"source":"Digitaal Vlaanderen Gebouwenregister","source_id":"gebouw/Gebouw.16155550/0","kind":"building","height_m":8.6,"status":null},"geometry":{"type":"Polygon","coordinates":[[[4.04950528,50.99072403],[4.04962514,50.99070653],[4.04965694,50.99079327],[4.049539,50.99080996],[4.04950732,50.99072558],[4.04950592,50.99072579],[4.04950528,50.99072403]]]}},{"type":"Feature","id":"gebouw/Gebouw.16182436/0","properties":{"source":"Digitaal Vlaanderen Gebouwenregister","source_id":"gebouw/Gebouw.16182436/0","kind":"building","height_m":7.88,"status":null},"geometry":{"type":"Polygon","coordinates":[[[4.04971,50.99198023],[4.04977274,50.99203442],[4.0496324,50.99209914],[4.0495649,50.99204022],[4.04956,50.99203594],[4.04961342,50.9920113],[4.04955523,50.99196105],[4.04964165,50.9919212],[4.04964525,50.99192431],[4.04971,50.99198023]]]}},{"type":"Feature","id":"gebouw/Gebouw.16189653/0","properties":{"source":"Digitaal Vlaanderen Gebouwenregister","source_id":"gebouw/Gebouw.16189653/0","kind":"building","height_m":7.88,"status":null},"geometry":{"type":"Polygon","coordinates":[[[4.04814423,50.99171845],[4.04811658,50.9916432],[4.04818187,50.99163365],[4.04815951,50.99157279],[4.04826336,50.99155759],[4.04831337,50.9916937],[4.04814423,50.99171845]]]}},{"type":"Feature","id":"gebouw/Gebouw.16189762/0","properties":{"source":"Digitaal Vlaanderen Gebouwenregister","source_id":"gebouw/Gebouw.16189762/0","kind":"building","height_m":5.72,"status":null},"geometry":{"type":"Polygon","coordinates":[[[4.05274012,50.99250377],[4.05270787,50.99246516],[4.05277685,50.99244221],[4.0528091,50.99248082],[4.05274012,50.99250377]]]}},{"type":"Feature","id":"gebouw/Gebouw.16197729/0","properties":{"source":"Digitaal Vlaanderen Gebouwenregister","source_id":"gebouw/Gebouw.16197729/0","kind":"building","height_m":6.44,"status":null},"geometry":{"type":"Polygon","coordinates":[[[4.05057879,50.99100218],[4.05063052,50.99097938],[4.05069632,50.99103887],[4.05054441,50.99110571],[4.05052212,50.99108587],[4.05047772,50.99110467],[4.05049166,50.99111772],[4.05041842,50.99114964],[4.05036903,50.99110451],[4.0504484,50.99106861],[4.05046385,50.99108222],[4.05049932,50.99106618],[4.05047719,50.99104669],[4.05044673,50.99101986],[4.05044423,50.99101766],[4.05054622,50.99097273],[4.05057879,50.99100218]]]}},{"type":"Feature","id":"gebouw/Gebouw.16200779/0","properties":{"source":"Digitaal Vlaanderen Gebouwenregister","source_id":"gebouw/Gebouw.16200779/0","kind":"building","height_m":5.0,"status":null},"geometry":{"type":"Polygon","coordinates":[[[4.04886969,50.99197113],[4.04888476,50.99198343],[4.04888268,50.9919843],[4.04888165,50.99198356],[4.04876525,50.99203826],[4.04867003,50.99195527],[4.04865543,50.99194254],[4.0487705,50.99189013],[4.04879279,50.99190834],[4.04886969,50.99197113]]]}},{"type":"Feature","id":"gebouw/Gebouw.16200789/0","properties":{"source":"Digitaal Vlaanderen Gebouwenregister","source_id":"gebouw/Gebouw.16200789/0","kind":"building","height_m":7.16,"status":null},"geometry":{"type":"Polygon","coordinates":[[[4.05031508,50.9902884],[4.0504127,50.99035546],[4.05030197,50.99041967],[4.05029816,50.99041712],[4.05027279,50.99043223],[4.05022483,50.99040018],[4.05014313,50.99044886],[4.05013709,50.99044483],[4.05004249,50.99050121],[4.05000193,50.9904741],[4.05009856,50.99041394],[4.05031508,50.9902884]]]}},{"type":"Feature","id":"gebouw/Gebouw.16206282/0","properties":{"source":"Digitaal Vlaanderen Gebouwenregister","source_id":"gebouw/Gebouw.16206282/0","kind":"building","height_m":5.72,"status":null},"geometry":{"type":"Polygon","coordinates":[[[4.05185326,50.99377395],[4.05180274,50.99379631],[4.05175744,50.99375557],[4.05204857,50.99362667],[4.05209754,50.99367072],[4.05203716,50.99369746],[4.05203565,50.9937023],[4.05203465,50.9937042],[4.05203214,50.99370572],[4.05201805,50.99371054],[4.05206141,50.99374954],[4.0519435,50.99380175],[4.05193636,50.99379533],[4.0518966,50.99381293],[4.05185326,50.99377395]]]}},{"type":"Feature","id":"gebouw/Gebouw.16219912/0","properties":{"source":"Digitaal Vlaanderen Gebouwenregister","source_id":"gebouw/Gebouw.16219912/0","kind":"building","height_m":6.44,"status":null},"geometry":{"type":"Polygon","coordinates":[[[4.04921971,50.99240566],[4.04919378,50.99238355],[4.04923016,50.99236669],[4.04925432,50.99238747],[4.0492694,50.99240044],[4.04923314,50.99241712],[4.04921971,50.99240566]]]}},{"type":"Feature","id":"gebouw/Gebouw.16231416/0","properties":{"source":"Digitaal Vlaanderen Gebouwenregister","source_id":"gebouw/Gebouw.16231416/0","kind":"building","height_m":8.6,"status":null},"geometry":{"type":"Polygon","coordinates":[[[4.04928731,50.99173237],[4.0492191,50.99167455],[4.0492234,50.99167252],[4.04920221,50.99165456],[4.04933901,50.99159037],[4.04936525,50.99161264],[4.04949293,50.99172206],[4.04941313,50.99175956],[4.04934763,50.99170403],[4.04928886,50.99173164],[4.04928731,50.99173237]]]}},{"type":"Feature","id":"gebouw/Gebouw.16240179/0","properties":{"source":"Digitaal Vlaanderen Gebouwenregister","source_id":"gebouw/Gebouw.16240179/0","kind":"building","height_m":7.88,"status":null},"geometry":{"type":"Polygon","coordinates":[[[4.04861441,50.99158443],[4.04846074,50.99160586],[4.0484381,50.9915319],[4.04844067,50.99153162],[4.04844078,50.99153241],[4.04859072,50.99151034],[4.04861441,50.99158443]]]}},{"type":"Feature","id":"gebouw/Gebouw.16245795/0","properties":{"source":"Digitaal Vlaanderen Gebouwenregister","source_id":"gebouw/Gebouw.16245795/0","kind":"building","height_m":9.32,"status":null},"geometry":{"type":"Polygon","coordinates":[[[4.04987143,50.99206817],[4.04980455,50.99209792],[4.04976771,50.99206493],[4.04978228,50.99205805],[4.04976367,50.99204235],[4.04981318,50.99201899],[4.04987143,50.99206817]]]}},{"type":"Feature","id":"gebouw/Gebouw.16253348/0","properties":{"source":"Digitaal Vlaanderen Gebouwenregister","source_id":"gebouw/Gebouw.16253348/0","kind":"building","height_m":9.32,"status":null},"geometry":{"type":"Polygon","coordinates":[[[4.05181435,50.99390687],[4.05173514,50.99394154],[4.05170752,50.9939164],[4.05178673,50.99388174],[4.05181435,50.99390687]]]}},{"type":"Feature","id":"gebouw/Gebouw.16253610/0","properties":{"source":"Digitaal Vlaanderen Gebouwenregister","source_id":"gebouw/Gebouw.16253610/0","kind":"building","height_m":6.44,"status":null},"geometry":{"type":"Polygon","coordinates":[[[4.05140902,50.99345938],[4.05138367,50.9934374],[4.05147438,50.99339575],[4.05149972,50.99341773],[4.05140902,50.99345938]]]}},{"type":"Feature","id":"gebouw/Gebouw.16256012/0","properties":{"source":"Digitaal Vlaanderen Gebouwenregister","source_id":"gebouw/Gebouw.16256012/0","kind":"building","height_m":7.16,"status":null},"geometry":{"type":"Polygon","coordinates":[[[4.04868811,50.98937467],[4.04873539,50.98939832],[4.0487054,50.9894222],[4.04865812,50.98939854],[4.04868811,50.98937467]]]}},{"type":"Feature","id":"gebouw/Gebouw.16277148/0","properties":{"source":"Digitaal Vlaanderen Gebouwenregister","source_id":"gebouw/Gebouw.16277148/0","kind":"building","height_m":9.32,"status":null},"geometry":{"type":"Polygon","coordinates":[[[4.05129048,50.99257344],[4.05128011,50.99256035],[4.05117702,50.99259288],[4.05117218,50.99258678],[4.05114424,50.99259559],[4.05111237,50.99255537],[4.0511398,50.99254672],[4.05110743,50.99250585],[4.05125649,50.99245828],[4.05128995,50.99250004],[4.05128175,50.9925028],[4.05129318,50.99251685],[4.05130137,50.99251475],[4.05130679,50.99252059],[4.05135237,50.99250603],[4.05138272,50.99254434],[4.05129048,50.99257344]]]}},{"type":"Feature","id":"gebouw/Gebouw.16279437/0","properties":{"source":"Digitaal Vlaanderen Gebouwenregister","source_id":"gebouw/Gebouw.16279437/0","kind":"building","height_m":9.32,"status":null},"geometry":{"type":"Polygon","coordinates":[[[4.05048008,50.99224344],[4.05044701,50.99220244],[4.05054681,50.99217199],[4.05057988,50.99221298],[4.05048008,50.99224344]]]}},{"type":"Feature","id":"gebouw/Gebouw.16279634/0","properties":{"source":"Digitaal Vlaanderen Gebouwenregister","source_id":"gebouw/Gebouw.16279634/0","kind":"building","height_m":5.0,"status":null},"geometry":{"type":"Polygon","coordinates":[[[4.04963801,50.98998159],[4.04963137,50.99000506],[4.04957153,50.98999833],[4.04957817,50.98997485],[4.04963801,50.98998159]]]}},{"type":"Feature","id":"gebouw/Gebouw.16284659/0","properties":{"source":"Digitaal Vlaanderen Gebouwenregister","source_id":"gebouw/Gebouw.16284659/0","kind":"building","height_m":9.32,"status":null},"geometry":{"type":"Polygon","coordinates":[[[4.04856681,50.99109663],[4.04850723,50.99109302],[4.04851081,50.99106952],[4.04857039,50.99107313],[4.04856681,50.99109663]]]}},{"type":"Feature","id":"gebouw/Gebouw.16308254/0","properties":{"source":"Digitaal Vlaanderen Gebouwenregister","source_id":"gebouw/Gebouw.16308254/0","kind":"building","height_m":7.88,"status":null},"geometry":{"type":"Polygon","coordinates":[[[4.05047739,50.99203831],[4.0504521,50.99200661],[4.05053577,50.99198002],[4.05056107,50.99201172],[4.05047739,50.99203831]]]}},{"type":"Feature","id":"gebouw/Gebouw.16308930/0","properties":{"source":"Digitaal Vlaanderen Gebouwenregister","source_id":"gebouw/Gebouw.16308930/0","kind":"building","height_m":5.72,"status":null},"geometry":{"type":"Polygon","coordinates":[[[4.04942931,50.98987041],[4.04932456,50.989886],[4.0492979,50.98981465],[4.04922883,50.98982485],[4.04918713,50.98971242],[4.0491371,50.98971987],[4.04912614,50.98969051],[4.04927082,50.98966898],[4.04928615,50.98971001],[4.04929156,50.98970921],[4.04930503,50.98974527],[4.04937846,50.98973434],[4.04942931,50.98987041]]]}},{"type":"Feature","id":"gebouw/Gebouw.16310574/0","properties":{"source":"Digitaal Vlaanderen Gebouwenregister","source_id":"gebouw/Gebouw.16310574/0","kind":"building","height_m":5.0,"status":null},"geometry":{"type":"Polygon","coordinates":[[[4.04882243,50.99246164],[4.04886528,50.99244115],[4.04889954,50.99246967],[4.0488567,50.99249017],[4.04882243,50.99246164]]]}},{"type":"Feature","id":"gebouw/Gebouw.16320965/0","properties":{"source":"Digitaal Vlaanderen Gebouwenregister","source_id":"gebouw/Gebouw.16320965/0","kind":"building","height_m":7.16,"status":null},"geometry":{"type":"Polygon","coordinates":[[[4.04856696,50.99127355],[4.04856733,50.99127476],[4.04856443,50.99127511],[4.04856403,50.99127407],[4.04840973,50.9912965],[4.04837837,50.9912052],[4.04843542,50.99119705],[4.04844065,50.9912142],[4.04852185,50.99120433],[4.04854498,50.99120152],[4.0485508,50.99122059],[4.04855197,50.99122443],[4.04856696,50.99127355]]]}},{"type":"Feature","id":"gebouw/Gebouw.16331994/0","properties":{"source":"Digitaal Vlaanderen Gebouwenregister","source_id":"gebouw/Gebouw.16331994/0","kind":"building","height_m":5.0,"status":null},"geometry":{"type":"Polygon","coordinates":[[[4.05238462,50.99442926],[4.05226205,50.99438733],[4.05224289,50.99435246],[4.05220768,50.99436017],[4.05219181,50.99432591],[4.05223045,50.99431879],[4.05221479,50.99428498],[4.05229764,50.9942697],[4.05232727,50.99433368],[4.05243549,50.9943719],[4.05238462,50.99442926]]]}},{"type":"Feature","id":"gebouw/Gebouw.16334341/0","properties":{"source":"Digitaal Vlaanderen Gebouwenregister","source_id":"gebouw/Gebouw.16334341/0","kind":"building","height_m":6.44,"status":null},"geometry":{"type":"Polygon","coordinates":[[[4.04876525,50.99203826],[4.04864682,50.99209271],[4.04864767,50.99209343],[4.04864538,50.99209451],[4.04864283,50.99209213],[4.04859735,50.99211409],[4.04853172,50.99205993],[4.04857627,50.99203964],[4.04856885,50.99203315],[4.04858727,50.99202476],[4.04856336,50.99200385],[4.04867003,50.99195527],[4.04876525,50.99203826]]]}},{"type":"Feature","id":"gebouw/Gebouw.16339033/0","properties":{"source":"Digitaal Vlaanderen Gebouwenregister","source_id":"gebouw/Gebouw.16339033/0","kind":"building","height_m":7.88,"status":null},"geometry":{"type":"Polygon","coordinates":[[[4.04994083,50.99184809],[4.05004408,50.99188866],[4.04995287,50.9919808],[4.04976495,50.99190652],[4.0498217,50.99184934],[4.04990638,50.99188281],[4.04994083,50.99184809]]]}},{"type":"Feature","id":"gebouw/Gebouw.16339116/0","properties":{"source":"Digitaal Vlaanderen Gebouwenregister","source_id":"gebouw/Gebouw.16339116/0","kind":"building","height_m":7.16,"status":null},"geometry":{"type":"Polygon","coordinates":[[[4.05155983,50.99351545],[4.05162335,50.99348581],[4.05157974,50.99344858],[4.05172933,50.99337878],[4.05173707,50.99338538],[4.05174594,50.99338486],[4.05175895,50.99339603],[4.05175592,50.99340148],[4.0518151,50.993452],[4.05160199,50.99355144],[4.05155983,50.99351545]]]}},{"type":"Feature","id":"gebouw/Gebouw.16341617/0","properties":{"source":"Digitaal Vlaanderen Gebouwenregister","source_id":"gebouw/Gebouw.16341617/0","kind":"building","height_m":8.6,"status":null},"geometry":{"type":"Polygon","coordinates":[[[4.04898963,50.99193464],[4.04891283,50.99187288],[4.04891793,50.99187036],[4.04891273,50.99184651],[4.04895237,50.99182628],[4.04898744,50.99183542],[4.04903095,50.99181601],[4.04910531,50.99187971],[4.04899074,50.99193273],[4.04899198,50.99193369],[4.04898963,50.99193464]]]}},{"type":"Feature","id":"gebouw/Gebouw.16346413/0","properties":{"source":"Digitaal Vlaanderen Gebouwenregister","source_id":"gebouw/Gebouw.16346413/0","kind":"building","height_m":9.32,"status":null},"geometry":{"type":"Polygon","coordinates":[[[4.04954409,50.9902914],[4.04942534,50.9903083],[4.04941025,50.99026605],[4.04931209,50.99028002],[4.04928868,50.9902145],[4.0492994,50.99021297],[4.04939794,50.99019895],[4.04950559,50.99018362],[4.04954409,50.9902914]]]}},{"type":"Feature","id":"gebouw/Gebouw.16349838/0","properties":{"source":"Digitaal Vlaanderen Gebouwenregister","source_id":"gebouw/Gebouw.16349838/0","kind":"building","height_m":5.72,"status":null},"geometry":{"type":"Polygon","coordinates":[[[4.04835487,50.99215152],[4.04832214,50.99212391],[4.04844155,50.99206754],[4.04851928,50.99213117],[4.04851683,50.99213236],[4.04851558,50.99213168],[4.04839953,50.9921862],[4.04840038,50.99218693],[4.0483981,50.992188],[4.04835487,50.99215152]]]}},{"type":"Feature","id":"gebouw/Gebouw.16352087/0","properties":{"source":"Digitaal Vlaanderen Gebouwenregister","source_id":"gebouw/Gebouw.16352087/0","kind":"building","height_m":7.16,"status":null},"geometry":{"type":"Polygon","coordinates":[[[4.05031508,50.9902884],[4.05009856,50.99041394],[4.05004574,50.99037867],[4.050178,50.99029985],[4.05010114,50.99024848],[4.0501314,50.99023227],[4.05012646,50.99022859],[4.05013344,50.99022486],[4.05012503,50.9902186],[4.05016067,50.99019951],[4.0501702,50.99020659],[4.05022242,50.99017644],[4.05035404,50.99026581],[4.05031508,50.9902884]]]}},{"type":"Feature","id":"gebouw/Gebouw.16356999/0","properties":{"source":"Digitaal Vlaanderen Gebouwenregister","source_id":"gebouw/Gebouw.16356999/0","kind":"building","height_m":5.72,"status":null},"geometry":{"type":"Polygon","coordinates":[[[4.04935401,50.99217927],[4.04923827,50.99223346],[4.04919933,50.99220016],[4.0491854,50.99218825],[4.0491431,50.99215209],[4.04914511,50.99215125],[4.04914601,50.99215202],[4.0491821,50.9921349],[4.04926273,50.99209785],[4.04935401,50.99217927]]]}},{"type":"Feature","id":"gebouw/Gebouw.16357693/0","properties":{"source":"Digitaal Vlaanderen Gebouwenregister","source_id":"gebouw/Gebouw.16357693/0","kind":"building","height_m":6.44,"status":null},"geometry":{"type":"Polygon","coordinates":[[[4.0512216,50.99279401],[4.05120684,50.99278183],[4.05116052,50.99280419],[4.05109977,50.99275405],[4.05126891,50.99267366],[4.05134232,50.99273517],[4.0512216,50.99279401]]]}},{"type":"Feature","id":"gebouw/Gebouw.16365291/0","properties":{"source":"Digitaal Vlaanderen Gebouwenregister","source_id":"gebouw/Gebouw.16365291/0","kind":"building","height_m":8.6,"status":null},"geometry":{"type":"Polygon","coordinates":[[[4.04983367,50.99093718],[4.04986942,50.99096615],[4.04993203,50.99093537],[4.04992687,50.99093119],[4.04993802,50.9909257],[4.04990742,50.99090092],[4.04983367,50.99093718]]]}},{"type":"Feature","id":"gebouw/Gebouw.16368659/0","properties":{"source":"Digitaal Vlaanderen Gebouwenregister","source_id":"gebouw/Gebouw.16368659/0","kind":"building","height_m":9.32,"status":null},"geometry":{"type":"Polygon","coordinates":[[[4.05134232,50.99273517],[4.05144524,50.99282011],[4.05132597,50.99287767],[4.05125243,50.99281698],[4.05124989,50.99281821],[4.05124481,50.99281402],[4.05122961,50.99282135],[4.05121041,50.99280551],[4.05122626,50.99279786],[4.0512216,50.99279401],[4.05134232,50.99273517]]]}},{"type":"Feature","id":"gebouw/Gebouw.16370434/0","properties":{"source":"Digitaal Vlaanderen Gebouwenregister","source_id":"gebouw/Gebouw.16370434/0","kind":"building","height_m":7.16,"status":null},"geometry":{"type":"Polygon","coordinates":[[[4.04879412,50.99100496],[4.04872831,50.99101418],[4.04871797,50.99098476],[4.04878377,50.99097554],[4.04879412,50.99100496]]]}},{"type":"Feature","id":"gebouw/Gebouw.16373805/0","properties":{"source":"Digitaal Vlaanderen Gebouwenregister","source_id":"gebouw/Gebouw.16373805/0","kind":"building","height_m":5.0,"status":null},"geometry":{"type":"Polygon","coordinates":[[[4.04994169,50.99104778],[4.0499804,50.99104331],[4.04999292,50.99108652],[4.0499542,50.99109099],[4.04994169,50.99104778]]]}},{"type":"Feature","id":"gebouw/Gebouw.16373937/0","properties":{"source":"Digitaal Vlaanderen Gebouwenregister","source_id":"gebouw/Gebouw.16373937/0","kind":"building","height_m":9.32,"status":null},"geometry":{"type":"Polygon","coordinates":[[[4.04921802,50.99096711],[4.04900595,50.9909971],[4.04896718,50.99089182],[4.04907052,50.99087567],[4.04908689,50.9909207],[4.0491952,50.99090371],[4.04921802,50.99096711]]]}},{"type":"Feature","id":"gebouw/Gebouw.16379071/0","properties":{"source":"Digitaal Vlaanderen Gebouwenregister","source_id":"gebouw/Gebouw.16379071/0","kind":"building","height_m":6.44,"status":null},"geometry":{"type":"Polygon","coordinates":[[[4.0482404,50.9925464],[4.04820583,50.99256432],[4.0481752,50.99254021],[4.0482101,50.99252256],[4.0482404,50.9925464]]]}},{"type":"Feature","id":"gebouw/Gebouw.16405397/0","properties":{"source":"Digitaal Vlaanderen Gebouwenregister","source_id":"gebouw/Gebouw.16405397/0","kind":"building","height_m":5.72,"status":null},"geometry":{"type":"Polygon","coordinates":[[[4.04857588,50.99255251],[4.04845982,50.99260711],[4.04842799,50.99258016],[4.04842555,50.99258131],[4.04840791,50.99256636],[4.04835287,50.99251969],[4.04835503,50.99251868],[4.0483558,50.99251926],[4.04847281,50.99246473],[4.04857588,50.99255251]]]}},{"type":"Feature","id":"gebouw/Gebouw.16405692/0","properties":{"source":"Digitaal Vlaanderen Gebouwenregister","source_id":"gebouw/Gebouw.16405692/0","kind":"building","height_m":6.44,"status":null},"geometry":{"type":"Polygon","coordinates":[[[4.04918791,50.9914781],[4.04916361,50.99140864],[4.04920058,50.99140349],[4.04920022,50.99140243],[4.04930447,50.99138678],[4.04932862,50.99145298],[4.04939193,50.99144428],[4.04941549,50.9915098],[4.04924234,50.99153459],[4.04922097,50.9914735],[4.04918791,50.9914781]]]}},{"type":"Feature","id":"gebouw/Gebouw.16416403/0","properties":{"source":"Digitaal Vlaanderen Gebouwenregister","source_id":"gebouw/Gebouw.16416403/0","kind":"building","height_m":7.16,"status":null},"geometry":{"type":"Polygon","coordinates":[[[4.04959895,50.98987989],[4.04957829,50.98990892],[4.0495336,50.98989625],[4.04955426,50.98986723],[4.04959895,50.98987989]]]}},{"type":"Feature","id":"gebouw/Gebouw.16424526/0","properties":{"source":"Digitaal Vlaanderen Gebouwenregister","source_id":"gebouw/Gebouw.16424526/0","kind":"building","height_m":9.32,"status":null},"geometry":{"type":"Polygon","coordinates":[[[4.04892707,50.99048349],[4.04903347,50.99046832],[4.0490553,50.9905293],[4.04884569,50.99056134],[4.04884034,50.99054679],[4.04882419,50.99054953],[4.04881728,50.99054687],[4.04881022,50.99053378],[4.04881437,50.99052626],[4.04882308,50.99052497],[4.04881145,50.99049386],[4.04879837,50.99045889],[4.04891132,50.9904414],[4.04892707,50.99048349]]]}},{"type":"Feature","id":"gebouw/Gebouw.16430042/0","properties":{"source":"Digitaal Vlaanderen Gebouwenregister","source_id":"gebouw/Gebouw.16430042/0","kind":"building","height_m":9.32,"status":null},"geometry":{"type":"Polygon","coordinates":[[[4.05183504,50.99407852],[4.05187057,50.99406244],[4.0519078,50.99409522],[4.05187272,50.99411168],[4.05183504,50.99407852]]]}},{"type":"Feature","id":"gebouw/Gebouw.16430485/0","properties":{"source":"Digitaal Vlaanderen Gebouwenregister","source_id":"gebouw/Gebouw.16430485/0","kind":"building","height_m":5.72,"status":null},"geometry":{"type":"Polygon","coordinates":[[[4.04879805,50.98976633],[4.04884692,50.98990355],[4.04874979,50.98991733],[4.0487257,50.9898497],[4.04865082,50.98986032],[4.04862603,50.98979073],[4.04879805,50.98976633]]]}},{"type":"Feature","id":"gebouw/Gebouw.16432766/0","properties":{"source":"Digitaal Vlaanderen Gebouwenregister","source_id":"gebouw/Gebouw.16432766/0","kind":"building","height_m":5.0,"status":null},"geometry":{"type":"Polygon","coordinates":[[[4.04894463,50.99158356],[4.04889545,50.99144642],[4.04899983,50.99143151],[4.04902173,50.99149257],[4.04908991,50.99148283],[4.04911719,50.99155891],[4.04894463,50.99158356]]]}},{"type":"Feature","id":"gebouw/Gebouw.16438308/0","properties":{"source":"Digitaal Vlaanderen Gebouwenregister","source_id":"gebouw/Gebouw.16438308/0","kind":"building","height_m":8.6,"status":null},"geometry":{"type":"Polygon","coordinates":[[[4.04829643,50.99028685],[4.04824376,50.99029437],[4.04823638,50.99027309],[4.04821756,50.9902188],[4.04822034,50.99021839],[4.04822066,50.99021927],[4.04836272,50.99019827],[4.04838923,50.9902736],[4.04829643,50.99028685]]]}},{"type":"Feature","id":"gebouw/Gebouw.16444127/0","properties":{"source":"Digitaal Vlaanderen Gebouwenregister","source_id":"gebouw/Gebouw.16444127/0","kind":"building","height_m":5.0,"status":null},"geometry":{"type":"Polygon","coordinates":[[[4.04912642,50.9916462],[4.04913856,50.99164015],[4.04912887,50.9916323],[4.04917496,50.99161001],[4.04921446,50.99164162],[4.04917202,50.99166277],[4.04916908,50.99166041],[4.04915375,50.99166805],[4.04912642,50.9916462]]]}},{"type":"Feature","id":"gebouw/Gebouw.16451240/0","properties":{"source":"Digitaal Vlaanderen Gebouwenregister","source_id":"gebouw/Gebouw.16451240/0","kind":"building","height_m":5.72,"status":null},"geometry":{"type":"Polygon","coordinates":[[[4.04951973,50.99050061],[4.04940293,50.99051928],[4.04937088,50.99043176],[4.0493691,50.99043176],[4.04936828,50.99043028],[4.04948725,50.99041111],[4.04951973,50.99050061]]]}},{"type":"Feature","id":"gebouw/Gebouw.16454168/0","properties":{"source":"Digitaal Vlaanderen Gebouwenregister","source_id":"gebouw/Gebouw.16454168/0","kind":"building","height_m":7.16,"status":null},"geometry":{"type":"Polygon","coordinates":[[[4.04832041,50.99206462],[4.04826018,50.99207355],[4.0482428,50.99202685],[4.04830302,50.99201791],[4.04832041,50.99206462]]]}},{"type":"Feature","id":"gebouw/Gebouw.16464354/0","properties":{"source":"Digitaal Vlaanderen Gebouwenregister","source_id":"gebouw/Gebouw.16464354/0","kind":"building","height_m":7.88,"status":null},"geometry":{"type":"Polygon","coordinates":[[[4.04967022,50.99124791],[4.04988027,50.99121785],[4.04991836,50.99132291],[4.04982174,50.99133686],[4.04980755,50.99129306],[4.04969226,50.99130922],[4.04967022,50.99124791]]]}},{"type":"Feature","id":"gebouw/Gebouw.16480000/0","properties":{"source":"Digitaal Vlaanderen Gebouwenregister","source_id":"gebouw/Gebouw.16480000/0","kind":"building","height_m":8.6,"status":null},"geometry":{"type":"Polygon","coordinates":[[[4.0494197,50.99202548],[4.04946023,50.99200693],[4.04951223,50.99205479],[4.04947365,50.99207244],[4.0494197,50.99202548]]]}},{"type":"Feature","id":"gebouw/Gebouw.16487392/0","properties":{"source":"Digitaal Vlaanderen Gebouwenregister","source_id":"gebouw/Gebouw.16487392/0","kind":"building","height_m":8.6,"status":null},"geometry":{"type":"Polygon","coordinates":[[[4.04895682,50.991926],[4.04892879,50.99193914],[4.04888258,50.99189989],[4.04891061,50.99188675],[4.04895682,50.991926]]]}},{"type":"Feature","id":"gebouw/Gebouw.16487541/0","properties":{"source":"Digitaal Vlaanderen Gebouwenregister","source_id":"gebouw/Gebouw.16487541/0","kind":"building","height_m":5.0,"status":null},"geometry":{"type":"Polygon","coordinates":[[[4.04887845,50.9907941],[4.04913856,50.99075595],[4.0491609,50.99081742],[4.04905492,50.99083276],[4.04907052,50.99087567],[4.04896718,50.99089182],[4.04891713,50.99089916],[4.04887845,50.9907941]]]}},{"type":"Feature","id":"gebouw/Gebouw.16487554/0","properties":{"source":"Digitaal Vlaanderen Gebouwenregister","source_id":"gebouw/Gebouw.16487554/0","kind":"building","height_m":9.32,"status":null},"geometry":{"type":"Polygon","coordinates":[[[4.04891118,50.991666],[4.048898,50.99163241],[4.04894521,50.99162503],[4.04894771,50.99163139],[4.04896143,50.99162925],[4.04896923,50.99164913],[4.04895492,50.99165137],[4.04895282,50.99165972],[4.04891118,50.991666]]]}},{"type":"Feature","id":"gebouw/Gebouw.16492296/0","properties":{"source":"Digitaal Vlaanderen Gebouwenregister","source_id":"gebouw/Gebouw.16492296/0","kind":"building","height_m":6.44,"status":null},"geometry":{"type":"Polygon","coordinates":[[[4.04831315,50.99107379],[4.04825291,50.99108215],[4.04823833,50.9910403],[4.04829857,50.99103194],[4.04831315,50.99107379]]]}},{"type":"Feature","id":"gebouw/Gebouw.16504626/0","properties":{"source":"Digitaal Vlaanderen Gebouwenregister","source_id":"gebouw/Gebouw.16504626/0","kind":"building","height_m":8.6,"status":null},"geometry":{"type":"Polygon","coordinates":[[[4.05303933,50.99352741],[4.05304768,50.99354167],[4.0528924,50.99357792],[4.05288685,50.99356846],[4.0528763,50.99355046],[4.05303158,50.9935142],[4.05303933,50.99352741]]]}},{"type":"Feature","id":"gebouw/Gebouw.16508364/0","properties":{"source":"Digitaal Vlaanderen Gebouwenregister","source_id":"gebouw/Gebouw.16508364/0","kind":"building","height_m":8.6,"status":null},"geometry":{"type":"Polygon","coordinates":[[[4.0487269,50.99148967],[4.04875744,50.99156445],[4.04861441,50.99158443],[4.04859072,50.99151034],[4.0487248,50.99149138],[4.04872418,50.99149019],[4.0487269,50.99148967]]]}},{"type":"Feature","id":"gebouw/Gebouw.16679717/0","properties":{"source":"Digitaal Vlaanderen Gebouwenregister","source_id":"gebouw/Gebouw.16679717/0","kind":"building","height_m":8.6,"status":null},"geometry":{"type":"Polygon","coordinates":[[[4.04991503,50.99160911],[4.04980844,50.99162452],[4.04978617,50.99156316],[4.04999664,50.99153213],[4.05000046,50.99154213],[4.05004086,50.99153604],[4.05006157,50.99159073],[4.05002877,50.99159547],[4.05004449,50.99163877],[4.04993172,50.99165508],[4.04991503,50.99160911]]]}},{"type":"Feature","id":"gebouw/Gebouw.16679908/0","properties":{"source":"Digitaal Vlaanderen Gebouwenregister","source_id":"gebouw/Gebouw.16679908/0","kind":"building","height_m":5.0,"status":null},"geometry":{"type":"Polygon","coordinates":[[[4.04998179,50.99121289],[4.050036,50.99120696],[4.05004398,50.99123598],[4.04998976,50.99124191],[4.04998179,50.99121289]]]}},{"type":"Feature","id":"gebouw/Gebouw.16723252/0","properties":{"source":"Digitaal Vlaanderen Gebouwenregister","source_id":"gebouw/Gebouw.16723252/0","kind":"building","height_m":5.0,"status":null},"geometry":{"type":"Polygon","coordinates":[[[4.04855432,50.99034229],[4.04862859,50.99033161],[4.04864442,50.9903755],[4.04857015,50.99038617],[4.04855432,50.99034229]]]}},{"type":"Feature","id":"gebouw/Gebouw.16735064/0","properties":{"source":"Digitaal Vlaanderen Gebouwenregister","source_id":"gebouw/Gebouw.16735064/0","kind":"building","height_m":7.16,"status":null},"geometry":{"type":"Polygon","coordinates":[[[4.04863218,50.9918171],[4.04861131,50.9917926],[4.0486781,50.99176994],[4.04869898,50.99179444],[4.04863218,50.9918171]]]}},{"type":"Feature","id":"gebouw/Gebouw.16766936/0","properties":{"source":"Digitaal Vlaanderen Gebouwenregister","source_id":"gebouw/Gebouw.16766936/0","kind":"building","height_m":7.88,"status":null},"geometry":{"type":"Polygon","coordinates":[[[4.05263309,50.99349453],[4.05278136,50.99346039],[4.05283958,50.99356159],[4.05266783,50.99360094],[4.05264506,50.99356136],[4.05266864,50.99355603],[4.05263309,50.99349453]]]}},{"type":"Feature","id":"gebouw/Gebouw.16830417/0","properties":{"source":"Digitaal Vlaanderen Gebouwenregister","source_id":"gebouw/Gebouw.16830417/0","kind":"building","height_m":6.44,"status":null},"geometry":{"type":"Polygon","coordinates":[[[4.04833126,50.98990491],[4.04849378,50.98988307],[4.04851384,50.98995367],[4.04851144,50.98995413],[4.04851089,50.98995314],[4.04835601,50.98997646],[4.04833126,50.98990491]]]}},{"type":"Feature","id":"gebouw/Gebouw.18505469/0","properties":{"source":"Digitaal Vlaanderen Gebouwenregister","source_id":"gebouw/Gebouw.18505469/0","kind":"building","height_m":7.16,"status":null},"geometry":{"type":"Polygon","coordinates":[[[4.04872318,50.99030989],[4.04873787,50.99034668],[4.04869387,50.99035408],[4.04867864,50.99031742],[4.04872318,50.99030989]]]}},{"type":"Feature","id":"gebouw/Gebouw.18729425/0","properties":{"source":"Digitaal Vlaanderen Gebouwenregister","source_id":"gebouw/Gebouw.18729425/0","kind":"building","height_m":5.72,"status":null},"geometry":{"type":"Polygon","coordinates":[[[4.04944032,50.98936052],[4.049397,50.98939443],[4.04939932,50.98939553],[4.04934807,50.98943869],[4.04933358,50.98939513],[4.04935977,50.98937307],[4.04934804,50.98936752],[4.04938831,50.98933592],[4.04944032,50.98936052]]]}},{"type":"Feature","id":"gebouw/Gebouw.18729426/0","properties":{"source":"Digitaal Vlaanderen Gebouwenregister","source_id":"gebouw/Gebouw.18729426/0","kind":"building","height_m":6.44,"status":null},"geometry":{"type":"Polygon","coordinates":[[[4.04954257,50.98999128],[4.04947972,50.99000122],[4.04944844,50.98991997],[4.04951194,50.98991016],[4.04954257,50.98999128]]]}},{"type":"Feature","id":"gebouw/Gebouw.18729615/0","properties":{"source":"Digitaal Vlaanderen Gebouwenregister","source_id":"gebouw/Gebouw.18729615/0","kind":"building","height_m":6.44,"status":null},"geometry":{"type":"Polygon","coordinates":[[[4.05029454,50.99165848],[4.05025289,50.99167622],[4.05022706,50.99165401],[4.05026983,50.99163609],[4.05029454,50.99165848]]]}},{"type":"Feature","id":"gebouw/Gebouw.18950994/0","properties":{"source":"Digitaal Vlaanderen Gebouwenregister","source_id":"gebouw/Gebouw.18950994/0","kind":"building","height_m":9.32,"status":null},"geometry":{"type":"Polygon","coordinates":[[[4.05006373,50.99060768],[4.05008009,50.99059766],[4.05007786,50.99059621],[4.05011121,50.99057577],[4.05013066,50.99058879],[4.05012949,50.99060684],[4.05011057,50.99061889],[4.05010197,50.99061331],[4.05009216,50.99061965],[4.05007903,50.99061884],[4.05006373,50.99060768]]]}},{"type":"Feature","id":"gebouw/Gebouw.18975045/0","properties":{"source":"Digitaal Vlaanderen Gebouwenregister","source_id":"gebouw/Gebouw.18975045/0","kind":"building","height_m":8.6,"status":null},"geometry":{"type":"Polygon","coordinates":[[[4.04891132,50.9904414],[4.04889459,50.99039667],[4.04900068,50.99038086],[4.04897781,50.99031972],[4.04875852,50.9903524],[4.04876175,50.99036104],[4.0487816,50.99041407],[4.04879837,50.99045889],[4.04891132,50.9904414]]]}},{"type":"Feature","id":"gebouw/Gebouw.19013716/0","properties":{"source":"Digitaal Vlaanderen Gebouwenregister","source_id":"gebouw/Gebouw.19013716/0","kind":"building","height_m":5.72,"status":null},"geometry":{"type":"Polygon","coordinates":[[[4.04841468,50.99106511],[4.04835555,50.99107237],[4.04834548,50.99103971],[4.04840461,50.99103245],[4.04841468,50.99106511]]]}},{"type":"Feature","id":"gebouw/Gebouw.19019262/0","properties":{"source":"Digitaal Vlaanderen Gebouwenregister","source_id":"gebouw/Gebouw.19019262/0","kind":"building","height_m":7.16,"status":null},"geometry":{"type":"Polygon","coordinates":[[[4.05101347,50.99275977],[4.05104201,50.99278352],[4.0509536,50.99282584],[4.05092506,50.99280209],[4.05093486,50.99279688],[4.05101347,50.99275977]]]}},{"type":"Feature","id":"gebouw/Gebouw.19790081/0","properties":{"source":"Digitaal Vlaanderen Gebouwenregister","source_id":"gebouw/Gebouw.19790081/0","kind":"building","height_m":7.16,"status":null},"geometry":{"type":"Polygon","coordinates":[[[4.04920978,50.99100349],[4.04915501,50.99101153],[4.04914516,50.99098484],[4.04919993,50.99097679],[4.04920978,50.99100349]]]}},{"type":"Feature","id":"gebouw/Gebouw.19839751/0","properties":{"source":"Digitaal Vlaanderen Gebouwenregister","source_id":"gebouw/Gebouw.19839751/0","kind":"building","height_m":5.72,"status":null},"geometry":{"type":"Polygon","coordinates":[[[4.05107737,50.99222899],[4.05101189,50.99224977],[4.05082472,50.9923092],[4.05084875,50.99233934],[4.05075496,50.99236906],[4.05072278,50.99237926],[4.05070907,50.99236258],[4.05069556,50.99234615],[4.0507011,50.99234459],[4.05076945,50.99232533],[4.05068553,50.99222167],[4.05067803,50.9922124],[4.05066471,50.99219596],[4.05071205,50.9921807],[4.05073314,50.99220674],[4.05092642,50.99214612],[4.05099412,50.99212489],[4.0509964,50.99212768],[4.05099388,50.9921286],[4.0510713,50.99222685],[4.05107571,50.99222594],[4.05107737,50.99222899]]]}},{"type":"Feature","id":"gebouw/Gebouw.19839752/0","properties":{"source":"Digitaal Vlaanderen Gebouwenregister","source_id":"gebouw/Gebouw.19839752/0","kind":"building","height_m":6.44,"status":null},"geometry":{"type":"Polygon","coordinates":[[[4.05068553,50.99222167],[4.05076945,50.99232533],[4.0507011,50.99234459],[4.05063047,50.99225715],[4.05063785,50.9922543],[4.05061614,50.9922306],[4.05067803,50.9922124],[4.05068553,50.99222167]]]}},{"type":"Feature","id":"gebouw/Gebouw.19839753/0","properties":{"source":"Digitaal Vlaanderen Gebouwenregister","source_id":"gebouw/Gebouw.19839753/0","kind":"building","height_m":7.16,"status":null},"geometry":{"type":"Polygon","coordinates":[[[4.05072278,50.99237926],[4.05065165,50.99240181],[4.05064065,50.99238467],[4.05070907,50.99236258],[4.05072278,50.99237926]]]}},{"type":"Feature","id":"gebouw/Gebouw.19856333/0","properties":{"source":"Digitaal Vlaanderen Gebouwenregister","source_id":"gebouw/Gebouw.19856333/0","kind":"building","height_m":5.0,"status":null},"geometry":{"type":"Polygon","coordinates":[[[4.05164385,50.99300152],[4.05169072,50.9930405],[4.05168254,50.99304443],[4.05170025,50.99305907],[4.05152464,50.99314145],[4.05146586,50.99309265],[4.05150593,50.99306757],[4.05157899,50.99303258],[4.05159133,50.99302667],[4.05164385,50.99300152]]]}},{"type":"Feature","id":"gebouw/Gebouw.19856334/0","properties":{"source":"Digitaal Vlaanderen Gebouwenregister","source_id":"gebouw/Gebouw.19856334/0","kind":"building","height_m":5.72,"status":null},"geometry":{"type":"Polygon","coordinates":[[[4.05159133,50.99302667],[4.05157899,50.99303258],[4.05150593,50.99306757],[4.05148177,50.99304487],[4.05156518,50.99300464],[4.05159133,50.99302667]]]}},{"type":"Feature","id":"gebouw/Gebouw.20145214/0","properties":{"source":"Digitaal Vlaanderen Gebouwenregister","source_id":"gebouw/Gebouw.20145214/0","kind":"building","height_m":8.6,"status":null},"geometry":{"type":"Polygon","coordinates":[[[4.05267372,50.99366424],[4.05268945,50.99369114],[4.05262606,50.99370591],[4.05261033,50.99367901],[4.05267372,50.99366424]]]}},{"type":"Feature","id":"gebouw/Gebouw.20145215/0","properties":{"source":"Digitaal Vlaanderen Gebouwenregister","source_id":"gebouw/Gebouw.20145215/0","kind":"building","height_m":9.32,"status":null},"geometry":{"type":"Polygon","coordinates":[[[4.04815743,50.99126668],[4.04821039,50.9912589],[4.04822685,50.99130356],[4.0481739,50.99131134],[4.04815743,50.99126668]]]}},{"type":"Feature","id":"gebouw/Gebouw.20145216/0","properties":{"source":"Digitaal Vlaanderen Gebouwenregister","source_id":"gebouw/Gebouw.20145216/0","kind":"building","height_m":5.0,"status":null},"geometry":{"type":"Polygon","coordinates":[[[4.05085161,50.99130061],[4.05089071,50.99129424],[4.05090344,50.9913254],[4.05086434,50.99133177],[4.05085161,50.99130061]]]}},{"type":"Feature","id":"gebouw/Gebouw.20145217/0","properties":{"source":"Digitaal Vlaanderen Gebouwenregister","source_id":"gebouw/Gebouw.20145217/0","kind":"building","height_m":5.72,"status":null},"geometry":{"type":"Polygon","coordinates":[[[4.04947565,50.99067547],[4.0494635,50.99064261],[4.04953996,50.99063135],[4.04955211,50.99066421],[4.04947565,50.99067547]]]}},{"type":"Feature","id":"gebouw/Gebouw.20145218/0","properties":{"source":"Digitaal Vlaanderen Gebouwenregister","source_id":"gebouw/Gebouw.20145218/0","kind":"building","height_m":6.44,"status":null},"geometry":{"type":"Polygon","coordinates":[[[4.04828409,50.99055403],[4.04833284,50.99054765],[4.04834714,50.99059121],[4.04829838,50.99059758],[4.04828409,50.99055403]]]}},{"type":"Feature","id":"gebouw/Gebouw.20145220/0","properties":{"source":"Digitaal Vlaanderen Gebouwenregister","source_id":"gebouw/Gebouw.20145220/0","kind":"building","height_m":7.88,"status":null},"geometry":{"type":"Polygon","coordinates":[[[4.0488701,50.98929464],[4.04883049,50.98927547],[4.04886242,50.98924919],[4.04890203,50.98926836],[4.0488701,50.98929464]]]}},{"type":"Feature","id":"gebouw/Gebouw.20145229/0","properties":{"source":"Digitaal Vlaanderen Gebouwenregister","source_id":"gebouw/Gebouw.20145229/0","kind":"building","height_m":9.32,"status":null},"geometry":{"type":"Polygon","coordinates":[[[4.05124549,50.9932978],[4.05121646,50.99327361],[4.05127701,50.99324467],[4.05130604,50.99326886],[4.05124549,50.9932978]]]}},{"type":"Feature","id":"gebouw/Gebouw.20145230/0","properties":{"source":"Digitaal Vlaanderen Gebouwenregister","source_id":"gebouw/Gebouw.20145230/0","kind":"building","height_m":5.0,"status":null},"geometry":{"type":"Polygon","coordinates":[[[4.04843281,50.98974554],[4.04842602,50.98972619],[4.04842985,50.98972566],[4.04842669,50.98971664],[4.04846721,50.98971097],[4.04847022,50.98971955],[4.04847508,50.98971887],[4.04848203,50.98973866],[4.04843281,50.98974554]]]}},{"type":"Feature","id":"gebouw/Gebouw.20145231/0","properties":{"source":"Digitaal Vlaanderen Gebouwenregister","source_id":"gebouw/Gebouw.20145231/0","kind":"building","height_m":5.72,"status":null},"geometry":{"type":"Polygon","coordinates":[[[4.04847184,50.9895972],[4.04843732,50.98958],[4.04843563,50.98953348],[4.04847153,50.98950477],[4.04854294,50.98954034],[4.04847184,50.9895972]]]}},{"type":"Feature","id":"gebouw/Gebouw.20145233/0","properties":{"source":"Digitaal Vlaanderen Gebouwenregister","source_id":"gebouw/Gebouw.20145233/0","kind":"building","height_m":7.16,"status":null},"geometry":{"type":"Polygon","coordinates":[[[4.04932424,50.98924568],[4.04926849,50.98928879],[4.04929516,50.98935665],[4.04936916,50.98930135],[4.04933415,50.98928268],[4.04935893,50.98926416],[4.04932424,50.98924568]]]}},{"type":"Feature","id":"gebouw/Gebouw.20146832/0","properties":{"source":"Digitaal Vlaanderen Gebouwenregister","source_id":"gebouw/Gebouw.20146832/0","kind":"building","height_m":9.32,"status":null},"geometry":{"type":"Polygon","coordinates":[[[4.04820117,50.99193951],[4.04824133,50.99193116],[4.04827688,50.99199927],[4.04823672,50.99200762],[4.04820117,50.99193951]]]}},{"type":"Feature","id":"gebouw/Gebouw.20146853/0","properties":{"source":"Digitaal Vlaanderen Gebouwenregister","source_id":"gebouw/Gebouw.20146853/0","kind":"building","height_m":9.32,"status":null},"geometry":{"type":"Polygon","coordinates":[[[4.04993231,50.99105046],[4.04996911,50.99103789],[4.04999348,50.99106631],[4.04995668,50.99107888],[4.04993231,50.99105046]]]}},{"type":"Feature","id":"gebouw/Gebouw.20146977/0","properties":{"source":"Digitaal Vlaanderen Gebouwenregister","source_id":"gebouw/Gebouw.20146977/0","kind":"building","height_m":7.88,"status":null},"geometry":{"type":"Polygon","coordinates":[[[4.04885305,50.99089923],[4.04880844,50.99090582],[4.048794,50.99086691],[4.04883861,50.99086032],[4.04885305,50.99089923]]]}},{"type":"Feature","id":"gebouw/Gebouw.30642402/0","properties":{"source":"Digitaal Vlaanderen Gebouwenregister","source_id":"gebouw/Gebouw.30642402/0","kind":"building","height_m":5.0,"status":null},"geometry":{"type":"Polygon","coordinates":[[[4.05101347,50.99275977],[4.05093486,50.99279688],[4.05092292,50.99278172],[4.05086099,50.99270309],[4.05100372,50.9926574],[4.05104471,50.99270767],[4.05099218,50.99273081],[4.05101347,50.99275977]]]}},{"type":"Feature","id":"gebouw/Gebouw.30642403/0","properties":{"source":"Digitaal Vlaanderen Gebouwenregister","source_id":"gebouw/Gebouw.30642403/0","kind":"building","height_m":5.72,"status":null},"geometry":{"type":"Polygon","coordinates":[[[4.05275459,50.99341621],[4.0527424,50.99339613],[4.05282033,50.9933773],[4.05283251,50.99339738],[4.05275459,50.99341621]]]}},{"type":"Feature","id":"gebouw/Gebouw.30642832/0","properties":{"source":"Digitaal Vlaanderen Gebouwenregister","source_id":"gebouw/Gebouw.30642832/0","kind":"building","height_m":7.16,"status":null},"geometry":{"type":"Polygon","coordinates":[[[4.04893595,50.99171405],[4.04896878,50.99169794],[4.04897945,50.99170513],[4.04902276,50.99168213],[4.04899929,50.99166053],[4.04891849,50.99169988],[4.04893595,50.99171405]]]}},{"type":"Feature","id":"gebouw/Gebouw.30643799/0","properties":{"source":"Digitaal Vlaanderen Gebouwenregister","source_id":"gebouw/Gebouw.30643799/0","kind":"building","height_m":7.88,"status":null},"geometry":{"type":"Polygon","coordinates":[[[4.04926813,50.99238121],[4.04921819,50.99240502],[4.04918313,50.99237572],[4.04923308,50.99235192],[4.04926813,50.99238121]]]}},{"type":"Feature","id":"gebouw/Gebouw.30644195/0","properties":{"source":"Digitaal Vlaanderen Gebouwenregister","source_id":"gebouw/Gebouw.30644195/0","kind":"building","height_m":5.72,"status":null},"geometry":{"type":"Polygon","coordinates":[[[4.04803374,50.99092707],[4.04817759,50.99090654],[4.04817727,50.99090566],[4.04822074,50.99089917],[4.04825814,50.99099896],[4.04829124,50.99099409],[4.04830489,50.99103101],[4.04829857,50.99103194],[4.04831315,50.99107379],[4.04825291,50.99108215],[4.04823833,50.9910403],[4.04825293,50.99103815],[4.04823946,50.99100171],[4.04806867,50.99102685],[4.0480672,50.99102265],[4.04803374,50.99092707]]]}},{"type":"Feature","id":"gebouw/Gebouw.30909771/0","properties":{"source":"Digitaal Vlaanderen Gebouwenregister","source_id":"gebouw/Gebouw.30909771/0","kind":"building","height_m":7.88,"status":null},"geometry":{"type":"Polygon","coordinates":[[[4.0488376,50.99012023],[4.04882182,50.99007754],[4.04887453,50.99006979],[4.04889031,50.99011247],[4.0488376,50.99012023]]]}},{"type":"Feature","id":"gebouw/Gebouw.31145060/0","properties":{"source":"Digitaal Vlaanderen Gebouwenregister","source_id":"gebouw/Gebouw.31145060/0","kind":"building","height_m":6.44,"status":null},"geometry":{"type":"Polygon","coordinates":[[[4.0509205,50.99344665],[4.05087987,50.99340913],[4.05094594,50.99338061],[4.05098658,50.99341813],[4.0509205,50.99344665]]]}},{"type":"Feature","id":"gebouw/Gebouw.31151001/0","properties":{"source":"Digitaal Vlaanderen Gebouwenregister","source_id":"gebouw/Gebouw.31151001/0","kind":"building","height_m":5.0,"status":null},"geometry":{"type":"Polygon","coordinates":[[[4.05164385,50.99300152],[4.05169072,50.9930405],[4.05168254,50.99304443],[4.05170025,50.99305907],[4.05152464,50.99314145],[4.05146586,50.99309265],[4.05143496,50.9930679],[4.05148199,50.99304505],[4.05156518,50.99300464],[4.05159133,50.99302667],[4.05164385,50.99300152]]]}},{"type":"Feature","id":"gebouw/Gebouw.31601800/0","properties":{"source":"Digitaal Vlaanderen Gebouwenregister","source_id":"gebouw/Gebouw.31601800/0","kind":"building","height_m":9.32,"status":null},"geometry":{"type":"Polygon","coordinates":[[[4.05066409,50.99168448],[4.05083798,50.99160604],[4.05078281,50.99155715],[4.05060908,50.9916365],[4.05066409,50.99168448]]]}},{"type":"Feature","id":"gebouw/Gebouw.31805199/0","properties":{"source":"Digitaal Vlaanderen Gebouwenregister","source_id":"gebouw/Gebouw.31805199/0","kind":"building","height_m":9.32,"status":null},"geometry":{"type":"Polygon","coordinates":[[[4.05039032,50.99170823],[4.05033927,50.99166423],[4.0502974,50.99168358],[4.05034841,50.99172754],[4.05036134,50.99173869],[4.05040321,50.99171934],[4.05039032,50.99170823]]]}},{"type":"Feature","id":"gebouw/Gebouw.31806035/0","properties":{"source":"Digitaal Vlaanderen Gebouwenregister","source_id":"gebouw/Gebouw.31806035/0","kind":"building","height_m":6.44,"status":null},"geometry":{"type":"Polygon","coordinates":[[[4.05076057,50.99153761],[4.05072793,50.99150896],[4.05055432,50.99159136],[4.05058645,50.99161785],[4.05060356,50.99163195],[4.05060908,50.9916365],[4.05078281,50.99155715],[4.05076057,50.99153761]]]}},{"type":"Feature","id":"gebouw/Gebouw.31806411/0","properties":{"source":"Digitaal Vlaanderen Gebouwenregister","source_id":"gebouw/Gebouw.31806411/0","kind":"building","height_m":5.0,"status":null},"geometry":{"type":"Polygon","coordinates":[[[4.0495624,50.99221395],[4.04963824,50.99217948],[4.04960072,50.99214659],[4.04952487,50.99218105],[4.0495624,50.99221395]]]}},{"type":"Feature","id":"gebouw/Gebouw.31806644/0","properties":{"source":"Digitaal Vlaanderen Gebouwenregister","source_id":"gebouw/Gebouw.31806644/0","kind":"building","height_m":6.44,"status":null},"geometry":{"type":"Polygon","coordinates":[[[4.04874638,50.99101264],[4.04880174,50.99100536],[4.04877916,50.99093704],[4.0487238,50.99094433],[4.04874638,50.99101264]]]}},{"type":"Feature","id":"gebouw/Gebouw.32033730/0","properties":{"source":"Digitaal Vlaanderen Gebouwenregister","source_id":"gebouw/Gebouw.32033730/0","kind":"building","height_m":5.72,"status":null},"geometry":{"type":"Polygon","coordinates":[[[4.04989481,50.99033564],[4.04986333,50.99035874],[4.04991582,50.99038722],[4.04994729,50.99036411],[4.04989481,50.99033564]]]}},{"type":"Feature","id":"gebouw/Gebouw.32033893/0","properties":{"source":"Digitaal Vlaanderen Gebouwenregister","source_id":"gebouw/Gebouw.32033893/0","kind":"building","height_m":7.16,"status":null},"geometry":{"type":"Polygon","coordinates":[[[4.049621,50.99032514],[4.04958202,50.99033145],[4.04959628,50.99036653],[4.04963527,50.99036022],[4.049621,50.99032514]]]}},{"type":"Feature","id":"way/152496284","properties":{"source":"OpenStreetMap","source_id":"way/152496284","kind":"vegetation","name":null,"waterway":null,"landuse":"forest"},"geometry":{"type":"Polygon","coordinates":[[[4.0600918,50.990374],[4.0583054,50.9917618],[4.0577583,50.9915187],[4.0565996,50.9926532],[4.0565346,50.9927533],[4.0565247,50.9929547],[4.0564717,50.9933474],[4.0565329,50.9937581],[4.0566348,50.9941226],[4.056798,50.9941329],[4.0579555,50.9941447],[4.0578294,50.9945387],[4.0578101,50.9946315],[4.0582542,50.9948566],[4.0584186,50.9949727],[4.0584676,50.9949891],[4.0586479,50.9950143],[4.0587024,50.9958439],[4.0574686,50.995648],[4.0565888,50.9955434],[4.0558003,50.9955704],[4.0554677,50.9955501],[4.0547759,50.9954185],[4.0544541,50.9953746],[4.0542566,50.9947731],[4.0542379,50.9947195],[4.0542853,50.9947063],[4.0544249,50.9946688],[4.0545352,50.9945762],[4.054615,50.9944861],[4.0546037,50.9942045],[4.0545264,50.993846],[4.0541962,50.9932937],[4.0539645,50.9927608],[4.0536689,50.9923507],[4.0534423,50.9920963],[4.0545521,50.9915089],[4.0538947,50.9910297],[4.0533006,50.9904961],[4.0530757,50.9902274],[4.0530007,50.9899915],[4.0529373,50.9898317],[4.0544137,50.9889967],[4.0547367,50.9889858],[4.054927,50.9889169],[4.0550193,50.9888043],[4.054679,50.9887009],[4.0544108,50.9885774],[4.05401,50.9883542],[4.0540446,50.9881],[4.0541773,50.9879839],[4.054431,50.9878168],[4.0545521,50.9877551],[4.053956,50.9873333],[4.0542312,50.9872594],[4.0551597,50.9871307],[4.055596,50.9877333],[4.055821,50.9879003],[4.0562708,50.9881654],[4.0566284,50.9883106],[4.0562189,50.9886047],[4.0574128,50.9891347],[4.0581568,50.9889495],[4.0583112,50.9890191],[4.0595864,50.9896177],[4.0593723,50.9896512],[4.0590777,50.9897063],[4.0586821,50.9897989],[4.0582156,50.9899247],[4.0580448,50.9900069],[4.0577867,50.9901486],[4.0576273,50.9902442],[4.0575122,50.9903495],[4.0573456,50.9905428],[4.0571146,50.9908264],[4.0568446,50.9911806],[4.0567496,50.9913214],[4.057354,50.9914848],[4.057634,50.9911364],[4.0579243,50.9908318],[4.0582737,50.9905246],[4.0593783,50.9898777],[4.0600918,50.990374]]]}},{"type":"Feature","id":"way/398195868","properties":{"source":"OpenStreetMap","source_id":"way/398195868","kind":"waterway","name":"Grootebeek - Porrebeek","waterway":"stream","landuse":null},"geometry":{"type":"LineString","coordinates":[[4.0537426,50.9948291],[4.0538511,50.9948138],[4.0539333,50.9948011]]}},{"type":"Feature","id":"way/398195872","properties":{"source":"OpenStreetMap","source_id":"way/398195872","kind":"waterway","name":"Kleine Meersbeek","waterway":"stream","landuse":null},"geometry":{"type":"LineString","coordinates":[[4.0595622,50.9896029],[4.0593755,50.9896359],[4.0590682,50.9896925],[4.0586743,50.9897853],[4.0582061,50.9899087],[4.0580312,50.9899912],[4.0577677,50.9901355],[4.0576027,50.9902299],[4.0574817,50.9903376],[4.0572962,50.9905356],[4.0570864,50.9908164],[4.0568015,50.9911715],[4.0566976,50.9913197],[4.0565722,50.9915743],[4.0564261,50.9917897],[4.0560867,50.9922332],[4.0558779,50.9924733],[4.0556049,50.9927653],[4.055595,50.992827],[4.0555627,50.9928742],[4.0553205,50.9931053],[4.0549303,50.9935042],[4.0546867,50.9936778],[4.0546107,50.9938061]]}}]}