{"type":"FeatureCollection","features":[{"type":"Feature","id":"gebouw/Gebouw.16127944/0","properties":{"source":"Digitaal Vlaanderen Gebouwenregister","source_id":"gebouw/Gebouw.16127944/0","kind":"building","height_m":5.0,"status":null},"geometry":{"type":"Polygon","coordinates":[[[4.04822795,50.96848416],[4.04827766,50.96852192],[4.0481775,50.96857349],[4.04811738,50.96852748],[4.04813623,50.96851804],[4.04814399,50.9685245],[4.04822795,50.96848416]]]}},{"type":"Feature","id":"gebouw/Gebouw.16989266/0","properties":{"source":"Digitaal Vlaanderen Gebouwenregister","source_id":"gebouw/Gebouw.16989266/0","kind":"building","height_m":5.0,"status":null},"geometry":{"type":"Polygon","coordinates":[[[4.05800027,50.96456081],[4.05802797,50.96451149],[4.05806586,50.96451997],[4.05803816,50.96456929],[4.05800027,50.96456081]]]}},{"type":"Feature","id":"gebouw/Gebouw.17015779/0","properties":{"source":"Digitaal Vlaanderen Gebouwenregister","source_id":"gebouw/Gebouw.17015779/0","kind":"building","height_m":7.88,"status":null},"geometry":{"type":"Polygon","coordinates":[[[4.05869248,50.96399531],[4.05868336,50.96399163],[4.05865161,50.96402381],[4.05860279,50.96400458],[4.05863452,50.96397197],[4.05861508,50.96396414],[4.05866044,50.96391905],[4.05873784,50.96395021],[4.05869248,50.96399531]]]}},{"type":"Feature","id":"gebouw/Gebouw.17053546/0","properties":{"source":"Digitaal Vlaanderen Gebouwenregister","source_id":"gebouw/Gebouw.17053546/0","kind":"building","height_m":9.32,"status":null},"geometry":{"type":"Polygon","coordinates":[[[4.05076256,50.96331886],[4.05081627,50.96324943],[4.05083683,50.96325577],[4.05099506,50.96310394],[4.05110225,50.96316274],[4.05089798,50.96336331],[4.05076256,50.96331886]]]}},{"type":"Feature","id":"gebouw/Gebouw.17054816/0","properties":{"source":"Digitaal Vlaanderen Gebouwenregister","source_id":"gebouw/Gebouw.17054816/0","kind":"building","height_m":6.44,"status":null},"geometry":{"type":"Polygon","coordinates":[[[4.05637019,50.96225328],[4.05634665,50.96227288],[4.05630205,50.96225115],[4.05632559,50.96223155],[4.05637019,50.96225328]]]}},{"type":"Feature","id":"gebouw/Gebouw.17057090/0","properties":{"source":"Digitaal Vlaanderen Gebouwenregister","source_id":"gebouw/Gebouw.17057090/0","kind":"building","height_m":5.72,"status":null},"geometry":{"type":"Polygon","coordinates":[[[4.05868087,50.96236222],[4.05842883,50.96245026],[4.05837927,50.96239224],[4.05855429,50.96233263],[4.05857975,50.96236329],[4.05865735,50.96233487],[4.05868087,50.96236222]]]}},{"type":"Feature","id":"gebouw/Gebouw.17062113/0","properties":{"source":"Digitaal Vlaanderen Gebouwenregister","source_id":"gebouw/Gebouw.17062113/0","kind":"building","height_m":8.6,"status":null},"geometry":{"type":"Polygon","coordinates":[[[4.05823832,50.96276362],[4.05816108,50.96283964],[4.05808205,50.96280641],[4.05804704,50.9627917],[4.05794866,50.96275034],[4.05789865,50.96279779],[4.05780519,50.9627585],[4.05776274,50.96274065],[4.05787081,50.96263773],[4.05790218,50.96265092],[4.05790935,50.96264411],[4.05792041,50.96264876],[4.05812386,50.96273429],[4.05813995,50.96272227],[4.05816107,50.96273115],[4.05823832,50.96276362]]]}},{"type":"Feature","id":"gebouw/Gebouw.17069780/0","properties":{"source":"Digitaal Vlaanderen Gebouwenregister","source_id":"gebouw/Gebouw.17069780/0","kind":"building","height_m":5.0,"status":null},"geometry":{"type":"Polygon","coordinates":[[[4.05813327,50.96456755],[4.0581538,50.964533],[4.05804749,50.96450782],[4.05802697,50.96454237],[4.05805543,50.96454788],[4.0580987,50.96455755],[4.05813327,50.96456755]]]}},{"type":"Feature","id":"gebouw/Gebouw.17072441/0","properties":{"source":"Digitaal Vlaanderen Gebouwenregister","source_id":"gebouw/Gebouw.17072441/0","kind":"building","height_m":5.72,"status":null},"geometry":{"type":"Polygon","coordinates":[[[4.05856762,50.96231103],[4.05854138,50.96228121],[4.05862936,50.96225078],[4.0586639,50.96223883],[4.05870422,50.96222506],[4.05873104,50.96225803],[4.05869102,50.96227101],[4.05856762,50.96231103]]]}},{"type":"Feature","id":"gebouw/Gebouw.17072496/0","properties":{"source":"Digitaal Vlaanderen Gebouwenregister","source_id":"gebouw/Gebouw.17072496/0","kind":"building","height_m":5.0,"status":null},"geometry":{"type":"Polygon","coordinates":[[[4.05804082,50.96295675],[4.05797035,50.9629285],[4.05800763,50.96289102],[4.0580781,50.96291927],[4.05804082,50.96295675]]]}},{"type":"Feature","id":"gebouw/Gebouw.17076052/0","properties":{"source":"Digitaal Vlaanderen Gebouwenregister","source_id":"gebouw/Gebouw.17076052/0","kind":"building","height_m":5.0,"status":null},"geometry":{"type":"Polygon","coordinates":[[[4.04870976,50.96436051],[4.04874701,50.96439362],[4.04871933,50.96440604],[4.04868468,50.96437525],[4.04866545,50.96438388],[4.04869893,50.96441363],[4.04858869,50.96446309],[4.0485526,50.96443102],[4.04870976,50.96436051]]]}},{"type":"Feature","id":"gebouw/Gebouw.17093410/0","properties":{"source":"Digitaal Vlaanderen Gebouwenregister","source_id":"gebouw/Gebouw.17093410/0","kind":"building","height_m":8.6,"status":null},"geometry":{"type":"Polygon","coordinates":[[[4.05616917,50.96861016],[4.05623268,50.96864413],[4.05620893,50.96866005],[4.05622136,50.96866733],[4.05617992,50.96869647],[4.0561046,50.96865418],[4.05616917,50.96861016]]]}},{"type":"Feature","id":"gebouw/Gebouw.17101392/0","properties":{"source":"Digitaal Vlaanderen Gebouwenregister","source_id":"gebouw/Gebouw.17101392/0","kind":"building","height_m":5.0,"status":null},"geometry":{"type":"Polygon","coordinates":[[[4.05868087,50.96236222],[4.05869935,50.96238369],[4.05865744,50.96239666],[4.05870304,50.96245061],[4.05861483,50.96248064],[4.05861298,50.96247789],[4.05856519,50.96249575],[4.05855223,50.96248117],[4.05853925,50.96248479],[4.05854974,50.96250011],[4.05849003,50.96250757],[4.05848079,50.96249458],[4.05846958,50.96249793],[4.05842883,50.96245026],[4.05868087,50.96236222]]]}},{"type":"Feature","id":"gebouw/Gebouw.17109576/0","properties":{"source":"Digitaal Vlaanderen Gebouwenregister","source_id":"gebouw/Gebouw.17109576/0","kind":"building","height_m":5.72,"status":null},"geometry":{"type":"Polygon","coordinates":[[[4.04896177,50.96447458],[4.04908442,50.96441832],[4.04917874,50.96449933],[4.04928192,50.96445084],[4.04933191,50.96449325],[4.04922243,50.96454281],[4.04935923,50.96465909],[4.04938808,50.96464553],[4.04941365,50.96466722],[4.04938439,50.96468104],[4.04975963,50.96501164],[4.04963497,50.96506859],[4.04962969,50.96506295],[4.04939488,50.96516896],[4.04872786,50.96458186],[4.04896177,50.96447458]]]}},{"type":"Feature","id":"gebouw/Gebouw.17123637/0","properties":{"source":"Digitaal Vlaanderen Gebouwenregister","source_id":"gebouw/Gebouw.17123637/0","kind":"building","height_m":9.32,"status":null},"geometry":{"type":"Polygon","coordinates":[[[4.05828134,50.9626166],[4.05820923,50.96267049],[4.05804079,50.96260522],[4.05805456,50.96259337],[4.0580026,50.96257048],[4.05805497,50.96252061],[4.05813515,50.96247873],[4.05817892,50.96250931],[4.05810966,50.96254783],[4.05828134,50.9626166]]]}},{"type":"Feature","id":"gebouw/Gebouw.17124462/0","properties":{"source":"Digitaal Vlaanderen Gebouwenregister","source_id":"gebouw/Gebouw.17124462/0","kind":"building","height_m":8.6,"status":null},"geometry":{"type":"Polygon","coordinates":[[[4.04962657,50.96375003],[4.04965106,50.96371932],[4.0495875,50.9636995],[4.04956284,50.96373048],[4.04924471,50.96363443],[4.04915174,50.96375558],[4.0498232,50.96395811],[4.04994885,50.96389658],[4.05001,50.96381689],[4.04994727,50.96379809],[4.04991606,50.96383796],[4.04962657,50.96375003]]]}},{"type":"Feature","id":"gebouw/Gebouw.17126529/0","properties":{"source":"Digitaal Vlaanderen Gebouwenregister","source_id":"gebouw/Gebouw.17126529/0","kind":"building","height_m":5.0,"status":null},"geometry":{"type":"Polygon","coordinates":[[[4.05859811,50.96424714],[4.05856245,50.96423162],[4.05860426,50.96419329],[4.05863993,50.96420882],[4.05859811,50.96424714]]]}},{"type":"Feature","id":"gebouw/Gebouw.17133311/0","properties":{"source":"Digitaal Vlaanderen Gebouwenregister","source_id":"gebouw/Gebouw.17133311/0","kind":"building","height_m":9.32,"status":null},"geometry":{"type":"Polygon","coordinates":[[[4.05599003,50.96870716],[4.05601801,50.96868743],[4.05606132,50.96871191],[4.05603333,50.96873165],[4.05599003,50.96870716]]]}},{"type":"Feature","id":"gebouw/Gebouw.17143959/0","properties":{"source":"Digitaal Vlaanderen Gebouwenregister","source_id":"gebouw/Gebouw.17143959/0","kind":"building","height_m":5.0,"status":null},"geometry":{"type":"Polygon","coordinates":[[[4.05872772,50.96279516],[4.05857484,50.96294469],[4.05856181,50.96295744],[4.05851866,50.96293984],[4.05857555,50.96288597],[4.05854564,50.96287378],[4.05858579,50.96283572],[4.0586584,50.9627669],[4.05872772,50.96279516]]]}},{"type":"Feature","id":"gebouw/Gebouw.17149510/0","properties":{"source":"Digitaal Vlaanderen Gebouwenregister","source_id":"gebouw/Gebouw.17149510/0","kind":"building","height_m":5.0,"status":null},"geometry":{"type":"Polygon","coordinates":[[[4.05231061,50.96397147],[4.05227066,50.96394582],[4.05232228,50.96391367],[4.05236223,50.96393932],[4.05231061,50.96397147]]]}},{"type":"Feature","id":"gebouw/Gebouw.17153847/0","properties":{"source":"Digitaal Vlaanderen Gebouwenregister","source_id":"gebouw/Gebouw.17153847/0","kind":"building","height_m":7.88,"status":null},"geometry":{"type":"Polygon","coordinates":[[[4.05872753,50.96266091],[4.05871591,50.96265502],[4.05866536,50.96259682],[4.05866385,50.96259723],[4.05860084,50.962527],[4.05878311,50.96246333],[4.05880791,50.96245467],[4.05879349,50.9624371],[4.05878108,50.96242196],[4.058767,50.96240477],[4.05884833,50.9623776],[4.05886155,50.96239192],[4.0589178,50.96237121],[4.05894931,50.96240528],[4.05897064,50.96239783],[4.05905792,50.9624924],[4.05910403,50.96247666],[4.05914003,50.96251873],[4.05872753,50.96266091]],[[4.0588066,50.96249259],[4.05881765,50.96250651],[4.05873378,50.96253433],[4.0587821,50.96258751],[4.05892099,50.96253862],[4.05892513,50.96254273],[4.05896173,50.96252931],[4.0588977,50.96246187],[4.0588066,50.96249259]]]}},{"type":"Feature","id":"gebouw/Gebouw.17168125/0","properties":{"source":"Digitaal Vlaanderen Gebouwenregister","source_id":"gebouw/Gebouw.17168125/0","kind":"building","height_m":6.44,"status":null},"geometry":{"type":"Polygon","coordinates":[[[4.05008068,50.96271143],[4.05024683,50.96276187],[4.05015011,50.96288893],[4.05084184,50.96309892],[4.05068749,50.9633012],[4.05072715,50.96331327],[4.05049694,50.96361498],[4.05036742,50.96357556],[4.0502741,50.96369786],[4.04937935,50.96342558],[4.04968809,50.96302097],[4.04969004,50.96302163],[4.04969125,50.96302328],[4.04972639,50.96301562],[4.04972415,50.96301382],[4.04972518,50.96301259],[4.04982947,50.96304425],[4.05008068,50.96271143]]]}},{"type":"Feature","id":"gebouw/Gebouw.17180878/0","properties":{"source":"Digitaal Vlaanderen Gebouwenregister","source_id":"gebouw/Gebouw.17180878/0","kind":"building","height_m":5.72,"status":null},"geometry":{"type":"Polygon","coordinates":[[[4.05474551,50.96865121],[4.05480248,50.96866309],[4.05479138,50.96868431],[4.05473424,50.9686724],[4.05474213,50.96865757],[4.05474551,50.96865121]]]}},{"type":"Feature","id":"gebouw/Gebouw.17184023/0","properties":{"source":"Digitaal Vlaanderen Gebouwenregister","source_id":"gebouw/Gebouw.17184023/0","kind":"building","height_m":7.16,"status":null},"geometry":{"type":"Polygon","coordinates":[[[4.05871696,50.96366385],[4.05870623,50.96365874],[4.05867539,50.96368486],[4.05868834,50.96369111],[4.05876637,50.96372875],[4.05879811,50.96370246],[4.05871696,50.96366385]]]}},{"type":"Feature","id":"gebouw/Gebouw.17187619/0","properties":{"source":"Digitaal Vlaanderen Gebouwenregister","source_id":"gebouw/Gebouw.17187619/0","kind":"building","height_m":5.72,"status":null},"geometry":{"type":"Polygon","coordinates":[[[4.04946698,50.96543627],[4.0493838,50.96536285],[4.0495256,50.96529879],[4.04960878,50.96537222],[4.04946698,50.96543627]]]}},{"type":"Feature","id":"gebouw/Gebouw.17192723/0","properties":{"source":"Digitaal Vlaanderen Gebouwenregister","source_id":"gebouw/Gebouw.17192723/0","kind":"building","height_m":6.44,"status":null},"geometry":{"type":"Polygon","coordinates":[[[4.05076229,50.96242354],[4.05087883,50.96239439],[4.05116283,50.96284715],[4.05093193,50.96290491],[4.0506824,50.96273565],[4.05056393,50.96254678],[4.05051143,50.96255991],[4.05047829,50.96250708],[4.05044207,50.96251614],[4.05043528,50.96250532],[4.05042531,50.96250782],[4.05037884,50.96243372],[4.05071581,50.96234943],[4.05076229,50.96242354]]]}},{"type":"Feature","id":"gebouw/Gebouw.17196831/0","properties":{"source":"Digitaal Vlaanderen Gebouwenregister","source_id":"gebouw/Gebouw.17196831/0","kind":"building","height_m":5.72,"status":null},"geometry":{"type":"Polygon","coordinates":[[[4.05840596,50.9626299],[4.05854089,50.96269064],[4.05853946,50.96269186],[4.05843577,50.96278038],[4.05849625,50.9628076],[4.05850844,50.96281309],[4.05840093,50.96291201],[4.05831593,50.96287745],[4.05840079,50.96279755],[4.05830187,50.96275238],[4.05830982,50.96274685],[4.05828445,50.96273275],[4.05827172,50.96271644],[4.0582806,50.96271111],[4.05821901,50.96267597],[4.05820923,50.96267049],[4.05828134,50.9626166],[4.05832686,50.96258542],[4.0583293,50.96258671],[4.0583307,50.96258594],[4.05840596,50.9626299]]]}},{"type":"Feature","id":"gebouw/Gebouw.17198245/0","properties":{"source":"Digitaal Vlaanderen Gebouwenregister","source_id":"gebouw/Gebouw.17198245/0","kind":"building","height_m":5.72,"status":null},"geometry":{"type":"Polygon","coordinates":[[[4.0586302,50.96546986],[4.05867952,50.96545138],[4.05872497,50.96549976],[4.05867565,50.96551823],[4.0586302,50.96546986]]]}},{"type":"Feature","id":"gebouw/Gebouw.17207509/0","properties":{"source":"Digitaal Vlaanderen Gebouwenregister","source_id":"gebouw/Gebouw.17207509/0","kind":"building","height_m":7.88,"status":null},"geometry":{"type":"Polygon","coordinates":[[[4.04811246,50.96315286],[4.0480118,50.96320814],[4.04859131,50.96362904],[4.0484607,50.96370075],[4.04851994,50.96374377],[4.04715833,50.96449136],[4.04661948,50.96409915],[4.04649371,50.96416649],[4.04639614,50.96409539],[4.04652091,50.96402763],[4.04606992,50.96370045],[4.04743283,50.96295209],[4.04755989,50.96304437],[4.04825923,50.96266189],[4.04790242,50.96239404],[4.04907366,50.96177179],[4.04943198,50.96204076],[4.049748,50.96228145],[4.04973983,50.96228564],[4.04973252,50.96227999],[4.04973786,50.96227742],[4.0496625,50.96222079],[4.04956343,50.9622734],[4.04964558,50.96233544],[4.04911747,50.96261487],[4.04917293,50.96265596],[4.0491593,50.96272329],[4.04911044,50.96275037],[4.0491856,50.96280732],[4.04897679,50.96292196],[4.04879298,50.96277921],[4.04811246,50.96315286]]]}},{"type":"Feature","id":"gebouw/Gebouw.17210286/0","properties":{"source":"Digitaal Vlaanderen Gebouwenregister","source_id":"gebouw/Gebouw.17210286/0","kind":"building","height_m":6.44,"status":null},"geometry":{"type":"Polygon","coordinates":[[[4.04962181,50.96536783],[4.04953648,50.96529221],[4.04960863,50.96525975],[4.04969396,50.96533537],[4.04962181,50.96536783]]]}},{"type":"Feature","id":"gebouw/Gebouw.17213898/0","properties":{"source":"Digitaal Vlaanderen Gebouwenregister","source_id":"gebouw/Gebouw.17213898/0","kind":"building","height_m":6.44,"status":null},"geometry":{"type":"Polygon","coordinates":[[[4.05843131,50.96293319],[4.0584176,50.96294667],[4.05839095,50.96293586],[4.05840489,50.96292214],[4.05845469,50.96287313],[4.05850655,50.96289416],[4.05845648,50.9629434],[4.05843131,50.96293319]]]}},{"type":"Feature","id":"gebouw/Gebouw.17222383/0","properties":{"source":"Digitaal Vlaanderen Gebouwenregister","source_id":"gebouw/Gebouw.17222383/0","kind":"building","height_m":7.16,"status":null},"geometry":{"type":"Polygon","coordinates":[[[4.05860474,50.96362049],[4.05852945,50.96358899],[4.05856172,50.96355894],[4.05863701,50.96359043],[4.05860474,50.96362049]]]}},{"type":"Feature","id":"gebouw/Gebouw.17223696/0","properties":{"source":"Digitaal Vlaanderen Gebouwenregister","source_id":"gebouw/Gebouw.17223696/0","kind":"building","height_m":5.0,"status":null},"geometry":{"type":"Polygon","coordinates":[[[4.05874448,50.96316579],[4.05870751,50.96314943],[4.05875075,50.96311047],[4.0587891,50.96312741],[4.05874448,50.96316579]]]}},{"type":"Feature","id":"gebouw/Gebouw.17266537/0","properties":{"source":"Digitaal Vlaanderen Gebouwenregister","source_id":"gebouw/Gebouw.17266537/0","kind":"building","height_m":5.72,"status":null},"geometry":{"type":"Polygon","coordinates":[[[4.05866436,50.9643384],[4.05859069,50.96430691],[4.05862573,50.96427424],[4.0586994,50.96430573],[4.05866436,50.9643384]]]}},{"type":"Feature","id":"gebouw/Gebouw.17270917/0","properties":{"source":"Digitaal Vlaanderen Gebouwenregister","source_id":"gebouw/Gebouw.17270917/0","kind":"building","height_m":9.32,"status":null},"geometry":{"type":"Polygon","coordinates":[[[4.05865671,50.9641047],[4.0586133,50.96408656],[4.0586451,50.96405612],[4.05864052,50.96405387],[4.05889109,50.96382805],[4.05893777,50.96384592],[4.05869586,50.96407744],[4.05868851,50.96407426],[4.05865671,50.9641047]]]}},{"type":"Feature","id":"gebouw/Gebouw.17274051/0","properties":{"source":"Digitaal Vlaanderen Gebouwenregister","source_id":"gebouw/Gebouw.17274051/0","kind":"building","height_m":7.88,"status":null},"geometry":{"type":"Polygon","coordinates":[[[4.05868833,50.96303777],[4.05871492,50.96301122],[4.05880004,50.96304521],[4.05877229,50.96307292],[4.05869277,50.96315233],[4.05854115,50.96309178],[4.05862183,50.96301121],[4.05868833,50.96303777]]]}},{"type":"Feature","id":"gebouw/Gebouw.17279843/0","properties":{"source":"Digitaal Vlaanderen Gebouwenregister","source_id":"gebouw/Gebouw.17279843/0","kind":"building","height_m":5.0,"status":null},"geometry":{"type":"Polygon","coordinates":[[[4.05829424,50.96301791],[4.05824471,50.96299743],[4.05826981,50.96297299],[4.05831934,50.96299347],[4.05829424,50.96301791]]]}},{"type":"Feature","id":"gebouw/Gebouw.17310984/0","properties":{"source":"Digitaal Vlaanderen Gebouwenregister","source_id":"gebouw/Gebouw.17310984/0","kind":"building","height_m":8.6,"status":null},"geometry":{"type":"Polygon","coordinates":[[[4.05791842,50.96387266],[4.05787467,50.96385385],[4.0579249,50.96380727],[4.05796866,50.96382608],[4.05791842,50.96387266]]]}},{"type":"Feature","id":"gebouw/Gebouw.17311171/0","properties":{"source":"Digitaal Vlaanderen Gebouwenregister","source_id":"gebouw/Gebouw.17311171/0","kind":"building","height_m":7.16,"status":null},"geometry":{"type":"Polygon","coordinates":[[[4.05811385,50.96460236],[4.0580348,50.96458468],[4.05805543,50.96454788],[4.0580987,50.96455755],[4.05809103,50.96457122],[4.05812682,50.96457923],[4.05811385,50.96460236]]]}},{"type":"Feature","id":"gebouw/Gebouw.18729677/0","properties":{"source":"Digitaal Vlaanderen Gebouwenregister","source_id":"gebouw/Gebouw.18729677/0","kind":"building","height_m":5.72,"status":null},"geometry":{"type":"Polygon","coordinates":[[[4.0528942,50.9682159],[4.0529131,50.96821888],[4.0529017,50.96825087],[4.05287705,50.96824682],[4.05285419,50.96824306],[4.05286857,50.96821186],[4.0528942,50.9682159]]]}},{"type":"Feature","id":"gebouw/Gebouw.20146568/0","properties":{"source":"Digitaal Vlaanderen Gebouwenregister","source_id":"gebouw/Gebouw.20146568/0","kind":"building","height_m":5.72,"status":null},"geometry":{"type":"Polygon","coordinates":[[[4.04924069,50.96342417],[4.04928938,50.96343807],[4.04927163,50.96346286],[4.04922295,50.96344896],[4.04924069,50.96342417]]]}},{"type":"Feature","id":"gebouw/Gebouw.30644435/0","properties":{"source":"Digitaal Vlaanderen Gebouwenregister","source_id":"gebouw/Gebouw.30644435/0","kind":"building","height_m":7.16,"status":null},"geometry":{"type":"Polygon","coordinates":[[[4.05850844,50.96281309],[4.05840093,50.96291201],[4.05831593,50.96287745],[4.05842631,50.9627762],[4.05843578,50.96278038],[4.05849625,50.9628076],[4.05850844,50.96281309]]]}},{"type":"Feature","id":"gebouw/Gebouw.30644436/0","properties":{"source":"Digitaal Vlaanderen Gebouwenregister","source_id":"gebouw/Gebouw.30644436/0","kind":"building","height_m":7.88,"status":null},"geometry":{"type":"Polygon","coordinates":[[[4.05853946,50.96269186],[4.05845457,50.96276433],[4.05835576,50.96272002],[4.05832234,50.96274974],[4.05828445,50.96273275],[4.05827172,50.96271644],[4.0582806,50.96271111],[4.05820923,50.96267049],[4.05828134,50.9626166],[4.05832686,50.96258542],[4.0583293,50.96258671],[4.0583307,50.96258594],[4.05835956,50.9626028],[4.0583715,50.96260977],[4.05838337,50.96261671],[4.05839495,50.96262347],[4.05840596,50.9626299],[4.05854089,50.96269064],[4.05853946,50.96269186]]]}},{"type":"Feature","id":"gebouw/Gebouw.30644443/0","properties":{"source":"Digitaal Vlaanderen Gebouwenregister","source_id":"gebouw/Gebouw.30644443/0","kind":"building","height_m":7.88,"status":null},"geometry":{"type":"Polygon","coordinates":[[[4.04811246,50.96315286],[4.04879298,50.96277921],[4.04897679,50.96292196],[4.0491856,50.96280732],[4.04911044,50.96275037],[4.0491593,50.96272329],[4.04917293,50.96265596],[4.04911747,50.96261487],[4.04964558,50.96233544],[4.04956343,50.9622734],[4.0496625,50.96222079],[4.04973786,50.96227742],[4.04973252,50.96227999],[4.04973983,50.96228564],[4.049748,50.96228145],[4.04907366,50.96177179],[4.04790242,50.96239404],[4.04825923,50.96266189],[4.04755989,50.96304437],[4.04743283,50.96295209],[4.04606959,50.96370067],[4.04715862,50.96449139],[4.04851994,50.96374377],[4.0484607,50.96370075],[4.04859131,50.96362904],[4.0480118,50.96320814],[4.04811246,50.96315286]]]}},{"type":"Feature","id":"gebouw/Gebouw.31805065/0","properties":{"source":"Digitaal Vlaanderen Gebouwenregister","source_id":"gebouw/Gebouw.31805065/0","kind":"building","height_m":8.6,"status":null},"geometry":{"type":"Polygon","coordinates":[[[4.05878608,50.9631276],[4.05874809,50.96311205],[4.05870734,50.96315176],[4.05874533,50.96316731],[4.05878608,50.9631276]]]}},{"type":"Feature","id":"gebouw/Gebouw.31805319/0","properties":{"source":"Digitaal Vlaanderen Gebouwenregister","source_id":"gebouw/Gebouw.31805319/0","kind":"building","height_m":5.0,"status":null},"geometry":{"type":"Polygon","coordinates":[[[4.05854763,50.96420164],[4.05861674,50.96413843],[4.05858681,50.96412538],[4.0585177,50.96418859],[4.05854763,50.96420164]]]}},{"type":"Feature","id":"gebouw/Gebouw.31805982/0","properties":{"source":"Digitaal Vlaanderen Gebouwenregister","source_id":"gebouw/Gebouw.31805982/0","kind":"building","height_m":8.6,"status":null},"geometry":{"type":"Polygon","coordinates":[[[4.05798773,50.96457675],[4.05802639,50.96458583],[4.05804667,50.9645514],[4.05800801,50.96454232],[4.05798773,50.96457675]]]}},{"type":"Feature","id":"gebouw/Gebouw.32035863/0","properties":{"source":"Digitaal Vlaanderen Gebouwenregister","source_id":"gebouw/Gebouw.32035863/0","kind":"building","height_m":9.32,"status":null},"geometry":{"type":"Polygon","coordinates":[[[4.05864505,50.96321209],[4.05867693,50.96322647],[4.05871173,50.9631957],[4.05867985,50.96318132],[4.05864505,50.96321209]]]}},{"type":"Feature","id":"gebouw/Gebouw.32036012/0","properties":{"source":"Digitaal Vlaanderen Gebouwenregister","source_id":"gebouw/Gebouw.32036012/0","kind":"building","height_m":5.72,"status":null},"geometry":{"type":"Polygon","coordinates":[[[4.05831348,50.96349892],[4.05834879,50.96346545],[4.05831224,50.96345007],[4.05827692,50.96348354],[4.05831348,50.96349892]]]}},{"type":"Feature","id":"way/146643763","properties":{"source":"OpenStreetMap","source_id":"way/146643763","kind":"vegetation","name":null,"waterway":null,"landuse":"forest"},"geometry":{"type":"Polygon","coordinates":[[[4.0489301,50.9664805],[4.0488523,50.9666017],[4.048952,50.9667208],[4.0494188,50.967036],[4.0497674,50.9673025],[4.0500415,50.9675577],[4.0504766,50.9679199],[4.050566,50.9679724],[4.0507124,50.9679365],[4.0518149,50.9677713],[4.0521653,50.96748],[4.0503617,50.9670501],[4.0500773,50.9666307],[4.0497078,50.9663173],[4.050563,50.9660714],[4.0508699,50.9658237],[4.0509623,50.9657176],[4.0511411,50.9655122],[4.0511947,50.9651969],[4.0511739,50.9644387],[4.0511053,50.9643299],[4.0510015,50.9642998],[4.0500058,50.9640108],[4.0499492,50.9641159],[4.0501697,50.964176],[4.050271,50.9642586],[4.0505958,50.9643468],[4.050852,50.9644125],[4.0509385,50.9644669],[4.0509683,50.9645551],[4.0510159,50.9647596],[4.0510338,50.9651706],[4.0509861,50.9653114],[4.0509444,50.9653977],[4.0508759,50.9654427],[4.0508014,50.9654897],[4.0507895,50.9655553],[4.0507329,50.9656398],[4.0506137,50.9658612],[4.0504021,50.965987],[4.0501041,50.9660958],[4.0495499,50.9662366],[4.0492936,50.9662966],[4.0492191,50.9663754],[4.0491327,50.9664449],[4.049096,50.9664514],[4.0490165,50.9664655],[4.0489894,50.9664702],[4.0489301,50.9664805]]]}},{"type":"Feature","id":"way/146721391","properties":{"source":"OpenStreetMap","source_id":"way/146721391","kind":"vegetation","name":null,"waterway":null,"landuse":"forest"},"geometry":{"type":"Polygon","coordinates":[[[4.05554,50.9627096],[4.0554152,50.9626573],[4.0553509,50.9625999],[4.0552892,50.9625409],[4.055241,50.9625122],[4.055174,50.9625392],[4.0551151,50.9626118],[4.0550802,50.9626691],[4.0549436,50.9627164],[4.0550686,50.9624541],[4.0552961,50.9623479],[4.0554524,50.9622424],[4.0555384,50.9624447],[4.05554,50.9627096]]]}},{"type":"Feature","id":"way/146721419","properties":{"source":"OpenStreetMap","source_id":"way/146721419","kind":"vegetation","name":null,"waterway":null,"landuse":"forest"},"geometry":{"type":"Polygon","coordinates":[[[4.0550686,50.9624541],[4.0549436,50.9627164],[4.0547051,50.9629037],[4.0540877,50.962674],[4.0550686,50.9624541]]]}},{"type":"Feature","id":"way/146724462","properties":{"source":"OpenStreetMap","source_id":"way/146724462","kind":"vegetation","name":null,"waterway":null,"landuse":"forest"},"geometry":{"type":"Polygon","coordinates":[[[4.0558969,50.9673589],[4.0558185,50.9673895],[4.0557624,50.9674114],[4.0556032,50.9674544],[4.055463,50.9674603],[4.0553077,50.967458],[4.055194,50.9674496],[4.0545024,50.9669902],[4.054995,50.9667134],[4.0556696,50.9670809],[4.0558098,50.9672217],[4.0558666,50.9673076],[4.0558969,50.9673589]]]}},{"type":"Feature","id":"way/146724463","properties":{"source":"OpenStreetMap","source_id":"way/146724463","kind":"vegetation","name":null,"waterway":null,"landuse":"forest"},"geometry":{"type":"Polygon","coordinates":[[[4.0564399,50.9656281],[4.0560685,50.9657999],[4.0549469,50.9649026],[4.0548991,50.9649339],[4.0547574,50.9650267],[4.0546892,50.9651078],[4.054621,50.9651842],[4.0540905,50.9652987],[4.0538101,50.9654372],[4.0536661,50.9654801],[4.0535903,50.9653274],[4.0535145,50.9647164],[4.0553561,50.9645589],[4.0551818,50.9646783],[4.0564399,50.9656281]]]}},{"type":"Feature","id":"way/146724471","properties":{"source":"OpenStreetMap","source_id":"way/146724471","kind":"vegetation","name":null,"waterway":null,"landuse":"forest"},"geometry":{"type":"Polygon","coordinates":[[[4.0548749,50.9639957],[4.0548189,50.9640058],[4.0545888,50.9640471],[4.0541435,50.964127],[4.0540052,50.9641359],[4.0539595,50.9641389],[4.054062,50.96383],[4.0548749,50.9639957]]]}},{"type":"Feature","id":"way/146724474","properties":{"source":"OpenStreetMap","source_id":"way/146724474","kind":"vegetation","name":null,"waterway":null,"landuse":"forest"},"geometry":{"type":"Polygon","coordinates":[[[4.0562091,50.9675756],[4.0561453,50.967632],[4.0556577,50.9680636],[4.0553982,50.9679848],[4.0560272,50.9674956],[4.0562091,50.9675756]]]}},{"type":"Feature","id":"way/146724477","properties":{"source":"OpenStreetMap","source_id":"way/146724477","kind":"vegetation","name":null,"waterway":null,"landuse":"forest"},"geometry":{"type":"Polygon","coordinates":[[[4.0531962,50.9640625],[4.0531507,50.9642153],[4.052048,50.963979],[4.051776,50.9638685],[4.0523547,50.9633884],[4.0525823,50.9634516],[4.0522224,50.9638048],[4.0524781,50.9638725],[4.0531962,50.9640625]]]}},{"type":"Feature","id":"way/446330786","properties":{"source":"OpenStreetMap","source_id":"way/446330786","kind":"waterway","name":"Dender","waterway":"river","landuse":null},"geometry":{"type":"LineString","coordinates":[[4.0452544,50.9388061],[4.0445589,50.9397193],[4.043344,50.9406466],[4.0430315,50.9409649],[4.0425925,50.9415246],[4.042241,50.9419563],[4.0416174,50.9425442],[4.0388972,50.9456288],[4.0373386,50.9474057],[4.0370058,50.9478864],[4.0368267,50.9483774],[4.0369154,50.949147],[4.0369399,50.9493592],[4.0371269,50.9520992],[4.0372982,50.9542423],[4.0373998,50.9556594],[4.0375488,50.9569762],[4.0378663,50.9579813],[4.0384083,50.9588242],[4.0385458,50.9590534],[4.0391003,50.9598798],[4.0400216,50.9613449],[4.0403134,50.9618622],[4.0425812,50.9633037],[4.0431607,50.9634822],[4.0439653,50.9636319],[4.0468653,50.965617],[4.0482587,50.9665162],[4.0493382,50.9672096],[4.049992,50.9677432],[4.0509295,50.9685611],[4.0518757,50.9693845],[4.0530197,50.970327],[4.053996,50.971172],[4.0544086,50.9715578],[4.0562354,50.9731224],[4.0583699,50.9749471],[4.059501,50.9759383],[4.0608159,50.9770619],[4.0620048,50.9780881],[4.063482,50.9793508],[4.0652269,50.9808337],[4.0662503,50.9817163],[4.0669128,50.9822828],[4.0673517,50.9827011],[4.0677125,50.9831347],[4.0684817,50.9841249],[4.0693322,50.9853425],[4.0704806,50.9870435],[4.0719042,50.9891009],[4.0727235,50.9903254],[4.0734147,50.9913051],[4.074344,50.9926362],[4.0753281,50.9940451],[4.0763398,50.9954856],[4.0771774,50.9966524],[4.077832,50.9977817],[4.0779739,50.998208],[4.0780929,50.9994612]]}},{"type":"Feature","id":"way/767803088","properties":{"source":"OpenStreetMap","source_id":"way/767803088","kind":"water","name":null,"waterway":null,"landuse":null},"geometry":{"type":"Polygon","coordinates":[[[4.0484354,50.9683196],[4.0484199,50.9683104],[4.0484075,50.9682996],[4.0483986,50.9682876],[4.0483934,50.9682746],[4.0483923,50.9682613],[4.0483951,50.9682481],[4.0484019,50.9682355],[4.0484123,50.9682239],[4.0484261,50.9682137],[4.0484426,50.9682054],[4.0484613,50.9681992],[4.0484816,50.9681953],[4.0485027,50.968194],[4.0485238,50.9681951],[4.0485441,50.9681988],[4.048563,50.9682048],[4.0485798,50.968213],[4.0485938,50.968223],[4.0486045,50.9682345],[4.0486116,50.9682471],[4.0486147,50.9682602],[4.0486139,50.9682736],[4.0486091,50.9682865],[4.0486004,50.9682987],[4.0485883,50.9683096],[4.0485731,50.9683189],[4.0485553,50.9683262],[4.0485357,50.9683312],[4.048515,50.9683339],[4.0484938,50.968334],[4.048473,50.9683316],[4.0484533,50.9683267],[4.0484354,50.9683196]]]}},{"type":"Feature","id":"way/767803090","properties":{"source":"OpenStreetMap","source_id":"way/767803090","kind":"water","name":null,"waterway":null,"landuse":null},"geometry":{"type":"Polygon","coordinates":[[[4.0482478,50.968222],[4.0482294,50.9682111],[4.0482146,50.9681982],[4.0482039,50.9681838],[4.0481978,50.9681684],[4.0481964,50.9681525],[4.0481998,50.9681367],[4.0482079,50.9681216],[4.0482203,50.9681078],[4.0482367,50.9680957],[4.0482565,50.9680858],[4.0482788,50.9680784],[4.048303,50.9680738],[4.0483281,50.9680722],[4.0483533,50.9680735],[4.0483776,50.9680779],[4.0484001,50.9680851],[4.0484201,50.9680948],[4.0484368,50.9681068],[4.0484496,50.9681205],[4.048458,50.9681355],[4.0484618,50.9681512],[4.0484608,50.9681671],[4.048455,50.9681826],[4.0484447,50.9681971],[4.0484302,50.9682101],[4.0484121,50.9682212],[4.0483909,50.9682299],[4.0483676,50.9682359],[4.0483428,50.968239],[4.0483176,50.9682392],[4.0482927,50.9682363],[4.0482848,50.9682343],[4.0482692,50.9682305],[4.0482585,50.9682263],[4.0482478,50.968222]]]}},{"type":"Feature","id":"way/767804086","properties":{"source":"OpenStreetMap","source_id":"way/767804086","kind":"water","name":null,"waterway":null,"landuse":null},"geometry":{"type":"Polygon","coordinates":[[[4.0485143,50.9687045],[4.04848,50.9686842],[4.0484524,50.9686602],[4.0484325,50.9686333],[4.0484211,50.9686046],[4.0484185,50.968575],[4.0484248,50.9685456],[4.0484399,50.9685176],[4.0484631,50.9684918],[4.0484936,50.9684692],[4.0485304,50.9684508],[4.0485714,50.9684372],[4.0486171,50.9684284],[4.0486639,50.9684254],[4.0487108,50.9684279],[4.048756,50.9684361],[4.048798,50.9684495],[4.0488352,50.9684676],[4.0488663,50.9684898],[4.0488901,50.9685154],[4.0489059,50.9685433],[4.0489129,50.9685726],[4.048911,50.9686022],[4.0489003,50.9686311],[4.0488811,50.9686581],[4.0488541,50.9686824],[4.0488203,50.968703],[4.0487814,50.968719],[4.0487374,50.9687304],[4.0486912,50.9687363],[4.0486442,50.9687365],[4.0485979,50.9687311],[4.0485541,50.9687203],[4.0485143,50.9687045]]]}},{"type":"Feature","id":"way/767805024","properties":{"source":"OpenStreetMap","source_id":"way/767805024","kind":"water","name":null,"waterway":null,"landuse":null},"geometry":{"type":"Polygon","coordinates":[[[4.0490557,50.9687127],[4.0490314,50.9687155],[4.0488516,50.9688065],[4.0488403,50.9687969],[4.0488044,50.9688157],[4.0487871,50.9688011],[4.0487254,50.9688327],[4.0487919,50.9688843],[4.0488523,50.9688523],[4.0488489,50.9688492],[4.048868,50.9688391],[4.0494129,50.9692544],[4.0496398,50.9691372],[4.0496426,50.9691187],[4.0496257,50.969106],[4.0495892,50.9691251],[4.0490557,50.9687127]]]}},{"type":"Feature","id":"way/929714746","properties":{"source":"OpenStreetMap","source_id":"way/929714746","kind":"water","name":null,"waterway":null,"landuse":null},"geometry":{"type":"Polygon","coordinates":[[[4.0570863,50.9643595],[4.0571073,50.9643218],[4.0571671,50.9642464],[4.0572076,50.9642352],[4.057282,50.9642484],[4.057916,50.9644542],[4.0579225,50.9644817],[4.0579225,50.9645102],[4.0578853,50.9645673],[4.0578529,50.9645775],[4.0578044,50.9645683],[4.0574405,50.9644664],[4.0573903,50.9644573],[4.0572561,50.9644104],[4.0571396,50.9643819],[4.0570863,50.9643595]]]}},{"type":"Feature","id":"way/929714747","properties":{"source":"OpenStreetMap","source_id":"way/929714747","kind":"waterway","name":null,"waterway":"stream","landuse":null},"geometry":{"type":"LineString","coordinates":[[4.058921,50.9627703],[4.0588335,50.9627596],[4.0586585,50.9627273],[4.0585411,50.9627085],[4.0583597,50.9626991],[4.0581804,50.9627072],[4.0580267,50.9627206],[4.0578475,50.9627878],[4.0573203,50.9630177],[4.0569191,50.9631669],[4.0564431,50.9635123]]}},{"type":"Feature","id":"way/929714748","properties":{"source":"OpenStreetMap","source_id":"way/929714748","kind":"waterway","name":null,"waterway":"stream","landuse":null},"geometry":{"type":"LineString","coordinates":[[4.055758,50.9642315],[4.0558818,50.9642624],[4.0560419,50.9642704],[4.0570172,50.964425],[4.0580502,50.9647476],[4.0579755,50.9648095],[4.0570087,50.9653377],[4.0561593,50.9658054],[4.0561145,50.9657651],[4.0560803,50.9657597],[4.0560739,50.9657315],[4.0559971,50.9657006],[4.0549662,50.9649371],[4.0549385,50.9648888],[4.0551775,50.9646979],[4.0552851,50.9646445],[4.0558364,50.9642692],[4.055758,50.9642315]]}},{"type":"Feature","id":"way/929714749","properties":{"source":"OpenStreetMap","source_id":"way/929714749","kind":"waterway","name":null,"waterway":"stream","landuse":null},"geometry":{"type":"LineString","coordinates":[[4.055758,50.9642315],[4.0551839,50.9640782],[4.0551583,50.9640446],[4.0552885,50.9635446],[4.0553056,50.9633725],[4.0553141,50.9633389],[4.0553461,50.9633107]]}},{"type":"Feature","id":"way/929714750","properties":{"source":"OpenStreetMap","source_id":"way/929714750","kind":"waterway","name":null,"waterway":"stream","landuse":null},"geometry":{"type":"LineString","coordinates":[[4.0534972,50.9641321],[4.053505,50.9641329],[4.053717,50.9641543],[4.0540052,50.9641359],[4.0545888,50.9640471],[4.0548189,50.9640058],[4.0551515,50.964053]]}},{"type":"Feature","id":"way/929714751","properties":{"source":"OpenStreetMap","source_id":"way/929714751","kind":"waterway","name":null,"waterway":"stream","landuse":null},"geometry":{"type":"LineString","coordinates":[[4.053505,50.9641329],[4.053527,50.9646476],[4.0535441,50.9651892],[4.0535533,50.9652619],[4.0535655,50.9653586],[4.0536103,50.965407],[4.0536956,50.9654876]]}},{"type":"Feature","id":"way/929714752","properties":{"source":"OpenStreetMap","source_id":"way/929714752","kind":"water","name":null,"waterway":null,"landuse":null},"geometry":{"type":"Polygon","coordinates":[[[4.052223,50.9638935],[4.0522038,50.963876],[4.0522059,50.9638464],[4.052238,50.9638397],[4.0524578,50.9638787],[4.0524781,50.9638725],[4.0524919,50.9638921],[4.0525709,50.9639096],[4.0525986,50.9639311],[4.0525773,50.9639593],[4.0525368,50.9639661],[4.0524535,50.9639419],[4.0523255,50.9639123],[4.052223,50.9638935]]]}},{"type":"Feature","id":"way/929714753","properties":{"source":"OpenStreetMap","source_id":"way/929714753","kind":"waterway","name":null,"waterway":"stream","landuse":null},"geometry":{"type":"LineString","coordinates":[[4.0536956,50.9654876],[4.0541512,50.9653027],[4.054621,50.9651842],[4.0546892,50.9651078],[4.0547574,50.9650267],[4.0548991,50.9649339]]}},{"type":"Feature","id":"way/929714754","properties":{"source":"OpenStreetMap","source_id":"way/929714754","kind":"waterway","name":null,"waterway":"stream","landuse":null},"geometry":{"type":"LineString","coordinates":[[4.0548991,50.9649339],[4.0549469,50.9649026]]}},{"type":"Feature","id":"way/929714755","properties":{"source":"OpenStreetMap","source_id":"way/929714755","kind":"waterway","name":null,"waterway":"stream","landuse":null},"geometry":{"type":"LineString","coordinates":[[4.0510113,50.9657684],[4.0525614,50.9664251],[4.0526918,50.9663187],[4.0528878,50.9660983],[4.0529437,50.9660481],[4.0530162,50.9659967],[4.0532317,50.9659346],[4.0535104,50.9657439],[4.0536956,50.9654876]]}},{"type":"Feature","id":"way/929714756","properties":{"source":"OpenStreetMap","source_id":"way/929714756","kind":"waterway","name":null,"waterway":"stream","landuse":null},"geometry":{"type":"LineString","coordinates":[[4.0512705,50.9649792],[4.0535533,50.9652619]]}},{"type":"Feature","id":"way/929714758","properties":{"source":"OpenStreetMap","source_id":"way/929714758","kind":"waterway","name":null,"waterway":"stream","landuse":null},"geometry":{"type":"LineString","coordinates":[[4.0553169,50.9623652],[4.0541107,50.9626545],[4.0540486,50.9626469],[4.0540247,50.9626488],[4.0537428,50.9626998],[4.0533383,50.962811],[4.0529748,50.9629337],[4.052718,50.9630781],[4.0523865,50.9632889],[4.05211,50.9635402],[4.051833,50.963798],[4.0515499,50.9640088],[4.0511631,50.9641952],[4.050932,50.9643079],[4.0510791,50.964367],[4.0511122,50.9644295],[4.0511355,50.9645943],[4.0511551,50.9648522],[4.0511674,50.9651139],[4.0511527,50.9653698],[4.0510491,50.9655601],[4.0509743,50.9656497],[4.050932,50.9657103],[4.0506109,50.9659897],[4.0503026,50.9661295],[4.0498944,50.96627],[4.0496382,50.9663182],[4.0494065,50.9663939],[4.0490915,50.9665355],[4.0489894,50.9664702],[4.0487667,50.9663279],[4.0484051,50.9660978],[4.0480251,50.9658674],[4.0477143,50.9656643],[4.0477419,50.9655458],[4.0477243,50.9654899],[4.0476291,50.9654466],[4.0474042,50.9654698],[4.0473478,50.965459],[4.0470524,50.9652625],[4.0466203,50.9649811],[4.0460564,50.9646109],[4.0460196,50.9645683],[4.0459884,50.9645322],[4.0463059,50.9643458],[4.046727,50.9640409]]}},{"type":"Feature","id":"way/929714759","properties":{"source":"OpenStreetMap","source_id":"way/929714759","kind":"waterway","name":null,"waterway":"stream","landuse":null},"geometry":{"type":"LineString","coordinates":[[4.0468604,50.9639436],[4.0469948,50.9638455],[4.0475488,50.9635104],[4.0480312,50.963214],[4.0483419,50.9630271],[4.0486766,50.9631071],[4.0490762,50.9629025],[4.0487305,50.9626319],[4.0487373,50.9626064],[4.0492613,50.9623246],[4.049762,50.9620629],[4.0498617,50.9620096],[4.0501396,50.961861],[4.0502842,50.9619868],[4.0505876,50.9622165],[4.0509461,50.9624929],[4.0509664,50.9625338],[4.0509504,50.9625689],[4.0507666,50.9626743]]}},{"type":"Feature","id":"way/929714764","properties":{"source":"OpenStreetMap","source_id":"way/929714764","kind":"waterway","name":null,"waterway":"stream","landuse":null},"geometry":{"type":"LineString","coordinates":[[4.0507124,50.9679365],[4.0518149,50.9677713],[4.0526601,50.9671135],[4.0532064,50.9669052],[4.0544732,50.9664872],[4.0551498,50.966821],[4.0556696,50.9670809],[4.055841,50.9673311],[4.0558185,50.9673895]]}},{"type":"Feature","id":"way/929714766","properties":{"source":"OpenStreetMap","source_id":"way/929714766","kind":"waterway","name":null,"waterway":"stream","landuse":null},"geometry":{"type":"LineString","coordinates":[[4.0599805,50.9654496],[4.0600102,50.9654894],[4.0598319,50.965569],[4.0594566,50.9657047],[4.0594529,50.9657492],[4.0584235,50.9662149],[4.0573162,50.9667203],[4.0567291,50.9669263],[4.0559538,50.9673356],[4.0558185,50.9673895],[4.0556694,50.9674469],[4.0555061,50.9674735],[4.0553104,50.9674651],[4.0551949,50.9674239],[4.0551146,50.9674593],[4.0548753,50.9675671],[4.054607,50.9676979],[4.05445,50.9677648],[4.0543388,50.9678287],[4.0541621,50.9679781],[4.0539685,50.9681603],[4.0538474,50.9682805],[4.0538178,50.9683385],[4.0538544,50.9684432]]}},{"type":"Feature","id":"way/929714767","properties":{"source":"OpenStreetMap","source_id":"way/929714767","kind":"waterway","name":null,"waterway":"stream","landuse":null},"geometry":{"type":"LineString","coordinates":[[4.0538544,50.9684432],[4.0539679,50.9684536]]}},{"type":"Feature","id":"way/929714769","properties":{"source":"OpenStreetMap","source_id":"way/929714769","kind":"waterway","name":null,"waterway":"stream","landuse":null},"geometry":{"type":"LineString","coordinates":[[4.0594566,50.9657047],[4.0591775,50.9655546],[4.0590113,50.9655989],[4.058741,50.9656379],[4.0586114,50.9656167],[4.0583946,50.9654588],[4.0582566,50.965363],[4.0582569,50.9652347],[4.0584148,50.9650546],[4.0584805,50.9649796],[4.0584254,50.9649405],[4.0582988,50.9649391],[4.0582087,50.9648859],[4.0581383,50.9648132],[4.0580502,50.9647476]]}},{"type":"Feature","id":"way/929714788","properties":{"source":"OpenStreetMap","source_id":"way/929714788","kind":"waterway","name":null,"waterway":"stream","landuse":null},"geometry":{"type":"LineString","coordinates":[[4.0563382,50.9635632],[4.056155,50.9636024],[4.056123,50.9636212],[4.055758,50.9642315]]}},{"type":"Feature","id":"way/929714789","properties":{"source":"OpenStreetMap","source_id":"way/929714789","kind":"waterway","name":null,"waterway":"stream","landuse":null},"geometry":{"type":"LineString","coordinates":[[4.0564431,50.9635123],[4.0563382,50.9635632]]}},{"type":"Feature","id":"way/929714790","properties":{"source":"OpenStreetMap","source_id":"way/929714790","kind":"waterway","name":null,"waterway":"stream","landuse":null},"geometry":{"type":"LineString","coordinates":[[4.0526499,50.9639459],[4.0531578,50.9640696],[4.053384,50.9641206]]}},{"type":"Feature","id":"way/929714791","properties":{"source":"OpenStreetMap","source_id":"way/929714791","kind":"waterway","name":null,"waterway":"stream","landuse":null},"geometry":{"type":"LineString","coordinates":[[4.053384,50.9641206],[4.0534972,50.9641321]]}},{"type":"Feature","id":"way/929714792","properties":{"source":"OpenStreetMap","source_id":"way/929714792","kind":"waterway","name":null,"waterway":"stream","landuse":null},"geometry":{"type":"LineString","coordinates":[[4.0553931,50.9632704],[4.0553922,50.9631816],[4.0553547,50.9631467],[4.0553867,50.9630768],[4.0554592,50.9629827],[4.0555083,50.9628335],[4.055487,50.9626588],[4.0554166,50.9624881],[4.0553397,50.9624088],[4.0553169,50.9623652]]}},{"type":"Feature","id":"way/929714793","properties":{"source":"OpenStreetMap","source_id":"way/929714793","kind":"waterway","name":null,"waterway":"stream","landuse":null},"geometry":{"type":"LineString","coordinates":[[4.0553461,50.9633107],[4.0553931,50.9632704]]}},{"type":"Feature","id":"way/1076768652","properties":{"source":"OpenStreetMap","source_id":"way/1076768652","kind":"waterway","name":null,"waterway":"stream","landuse":null},"geometry":{"type":"LineString","coordinates":[[4.0490939,50.9673986],[4.0491559,50.9674519]]}},{"type":"Feature","id":"way/1076768653","properties":{"source":"OpenStreetMap","source_id":"way/1076768653","kind":"waterway","name":null,"waterway":"stream","landuse":null},"geometry":{"type":"LineString","coordinates":[[4.0481513,50.9666946],[4.0484944,50.9669327],[4.0488555,50.967205],[4.0490939,50.9673986]]}}]}