{"type":"FeatureCollection","features":[{"type":"Feature","id":"gebouw/Gebouw.15805215/0","properties":{"source":"Digitaal Vlaanderen Gebouwenregister","source_id":"gebouw/Gebouw.15805215/0","kind":"building","height_m":9.32,"status":null},"geometry":{"type":"Polygon","coordinates":[[[4.04966973,50.9713051],[4.04981409,50.97136132],[4.04977914,50.97139059],[4.04963933,50.97133439],[4.04966973,50.9713051]]]}},{"type":"Feature","id":"gebouw/Gebouw.16021777/0","properties":{"source":"Digitaal Vlaanderen Gebouwenregister","source_id":"gebouw/Gebouw.16021777/0","kind":"building","height_m":6.44,"status":null},"geometry":{"type":"Polygon","coordinates":[[[4.05466448,50.97389924],[4.05472431,50.97393595],[4.05457784,50.97402868],[4.05451877,50.97399149],[4.05466448,50.97389924]]]}},{"type":"Feature","id":"gebouw/Gebouw.16208267/0","properties":{"source":"Digitaal Vlaanderen Gebouwenregister","source_id":"gebouw/Gebouw.16208267/0","kind":"building","height_m":8.6,"status":null},"geometry":{"type":"Polygon","coordinates":[[[4.05688583,50.9756296],[4.0570203,50.97551396],[4.0570953,50.97554921],[4.05695941,50.97566251],[4.05688583,50.9756296]]]}},{"type":"Feature","id":"gebouw/Gebouw.16234166/0","properties":{"source":"Digitaal Vlaanderen Gebouwenregister","source_id":"gebouw/Gebouw.16234166/0","kind":"building","height_m":7.88,"status":null},"geometry":{"type":"Polygon","coordinates":[[[4.04888908,50.97538886],[4.04895817,50.97545347],[4.04888289,50.975483],[4.04881156,50.97541949],[4.04888908,50.97538886]]]}},{"type":"Feature","id":"gebouw/Gebouw.16293501/0","properties":{"source":"Digitaal Vlaanderen Gebouwenregister","source_id":"gebouw/Gebouw.16293501/0","kind":"building","height_m":5.0,"status":null},"geometry":{"type":"Polygon","coordinates":[[[4.04878268,50.97542907],[4.04885016,50.97549291],[4.04882656,50.9755038],[4.04875867,50.97543955],[4.04878268,50.97542907]]]}},{"type":"Feature","id":"gebouw/Gebouw.16295872/0","properties":{"source":"Digitaal Vlaanderen Gebouwenregister","source_id":"gebouw/Gebouw.16295872/0","kind":"building","height_m":8.6,"status":null},"geometry":{"type":"Polygon","coordinates":[[[4.04883351,50.96992678],[4.048887,50.96997232],[4.04881637,50.97000539],[4.04876081,50.9699622],[4.04883351,50.96992678]]]}},{"type":"Feature","id":"gebouw/Gebouw.16476660/0","properties":{"source":"Digitaal Vlaanderen Gebouwenregister","source_id":"gebouw/Gebouw.16476660/0","kind":"building","height_m":7.88,"status":null},"geometry":{"type":"Polygon","coordinates":[[[4.05376596,50.97434873],[4.05379043,50.97436719],[4.05374938,50.97438887],[4.05372491,50.97437041],[4.05376596,50.97434873]]]}},{"type":"Feature","id":"gebouw/Gebouw.17062832/0","properties":{"source":"Digitaal Vlaanderen Gebouwenregister","source_id":"gebouw/Gebouw.17062832/0","kind":"building","height_m":7.16,"status":null},"geometry":{"type":"Polygon","coordinates":[[[4.05845958,50.97385442],[4.0584115,50.97388328],[4.05847278,50.973924],[4.05852087,50.97389514],[4.05845958,50.97385442]]]}},{"type":"Feature","id":"gebouw/Gebouw.17129392/0","properties":{"source":"Digitaal Vlaanderen Gebouwenregister","source_id":"gebouw/Gebouw.17129392/0","kind":"building","height_m":5.0,"status":null},"geometry":{"type":"Polygon","coordinates":[[[4.05553418,50.97014843],[4.05560379,50.97015304],[4.05559773,50.97018952],[4.05556981,50.97018767],[4.05557047,50.97018371],[4.0555277,50.97018088],[4.05553418,50.97014843]]]}},{"type":"Feature","id":"gebouw/Gebouw.17171119/0","properties":{"source":"Digitaal Vlaanderen Gebouwenregister","source_id":"gebouw/Gebouw.17171119/0","kind":"building","height_m":5.0,"status":null},"geometry":{"type":"Polygon","coordinates":[[[4.05224906,50.96984451],[4.0522576,50.96984534],[4.05229729,50.96984922],[4.05231368,50.96985148],[4.05230272,50.96989522],[4.0522392,50.96988888],[4.05224685,50.96985446],[4.05224906,50.96984451]]]}},{"type":"Feature","id":"gebouw/Gebouw.18985229/0","properties":{"source":"Digitaal Vlaanderen Gebouwenregister","source_id":"gebouw/Gebouw.18985229/0","kind":"building","height_m":7.88,"status":null},"geometry":{"type":"Polygon","coordinates":[[[4.05729379,50.97538674],[4.05713248,50.97551929],[4.05705351,50.97548066],[4.05721457,50.97534831],[4.05729379,50.97538674]]]}},{"type":"Feature","id":"gebouw/Gebouw.20146709/0","properties":{"source":"Digitaal Vlaanderen Gebouwenregister","source_id":"gebouw/Gebouw.20146709/0","kind":"building","height_m":6.44,"status":null},"geometry":{"type":"Polygon","coordinates":[[[4.05620048,50.97330716],[4.05623978,50.97328828],[4.05627935,50.97332113],[4.05624005,50.97334001],[4.05620048,50.97330716]]]}},{"type":"Feature","id":"gebouw/Gebouw.31144714/0","properties":{"source":"Digitaal Vlaanderen Gebouwenregister","source_id":"gebouw/Gebouw.31144714/0","kind":"building","height_m":9.32,"status":null},"geometry":{"type":"Polygon","coordinates":[[[4.05556729,50.97010526],[4.05561004,50.97010955],[4.05560122,50.97014454],[4.05555848,50.97014025],[4.05556729,50.97010526]]]}},{"type":"Feature","id":"gebouw/Gebouw.31888316/0","properties":{"source":"Digitaal Vlaanderen Gebouwenregister","source_id":"gebouw/Gebouw.31888316/0","kind":"building","height_m":8.6,"status":null},"geometry":{"type":"Polygon","coordinates":[[[4.04880368,50.97064239],[4.04870475,50.97053425],[4.04891418,50.97045787],[4.0490131,50.97056601],[4.04880368,50.97064239]]]}},{"type":"Feature","id":"way/146643838","properties":{"source":"OpenStreetMap","source_id":"way/146643838","kind":"water","name":"Ketshoek","waterway":null,"landuse":null},"geometry":{"type":"Polygon","coordinates":[[[4.0532647,50.9700547],[4.0532171,50.9700255],[4.0532187,50.9699851],[4.0532823,50.9699678],[4.0535052,50.9699347],[4.0540475,50.9699308],[4.0544505,50.969957],[4.055121,50.9701134],[4.0553995,50.9701654],[4.0555818,50.9702203],[4.0557148,50.9702211],[4.0557928,50.9702825],[4.0560139,50.9703283],[4.0561107,50.97037],[4.0561891,50.970403],[4.0562964,50.9704826],[4.0563075,50.9705262],[4.0563317,50.9706599],[4.0562757,50.9707834],[4.0560982,50.9709778],[4.0558376,50.9710919],[4.0556149,50.9711051],[4.0552414,50.971112],[4.054897,50.9711143],[4.0547559,50.9711593],[4.0546314,50.9712008],[4.0545712,50.9712321],[4.0545626,50.9712573],[4.0545369,50.9712637],[4.0545079,50.9712448],[4.0544387,50.9712563],[4.0543733,50.9712095],[4.054315,50.9711479],[4.0543443,50.9711159],[4.0543807,50.9710663],[4.0544831,50.9710202],[4.0546179,50.9709774],[4.0548112,50.9709486],[4.0548923,50.9709549],[4.0549243,50.9709628],[4.0550133,50.9709778],[4.0552222,50.9709727],[4.0554976,50.9709387],[4.0557831,50.97087],[4.05586,50.9708311],[4.0559464,50.9707646],[4.0559836,50.9706946],[4.0560023,50.9706399],[4.0559999,50.9705882],[4.0559599,50.9705227],[4.0558718,50.9704505],[4.0556662,50.9704012],[4.0554535,50.9703664],[4.0554085,50.9703783],[4.0553347,50.9703422],[4.0545898,50.9701455],[4.0544073,50.9701006],[4.0542066,50.9700788],[4.054003,50.9700694],[4.0537973,50.9700686],[4.0536846,50.9700589],[4.0536421,50.9700728],[4.0535812,50.9700463],[4.0534548,50.9700436],[4.0532647,50.9700547]]]}},{"type":"Feature","id":"way/147427302","properties":{"source":"OpenStreetMap","source_id":"way/147427302","kind":"vegetation","name":null,"waterway":null,"landuse":"forest"},"geometry":{"type":"Polygon","coordinates":[[[4.0537176,50.9734222],[4.0528217,50.9739398],[4.0524978,50.9739184],[4.0522502,50.9740081],[4.0518281,50.9741553],[4.0528017,50.9747647],[4.0526729,50.9752038],[4.0529607,50.9754534],[4.054926,50.9745602],[4.0545009,50.9741571],[4.0542137,50.9738729],[4.0540209,50.9736637],[4.0538035,50.9735216],[4.0537176,50.9734222]]]}},{"type":"Feature","id":"way/152482504","properties":{"source":"OpenStreetMap","source_id":"way/152482504","kind":"vegetation","name":null,"waterway":null,"landuse":"forest"},"geometry":{"type":"Polygon","coordinates":[[[4.0491992,50.9711892],[4.0493492,50.9712535],[4.052911,50.9728403],[4.0530409,50.9727301],[4.053271,50.9728155],[4.054455,50.9720446],[4.0541106,50.9717835],[4.0538618,50.9719939],[4.052902,50.9725938],[4.0497241,50.9712672],[4.051042,50.9705768],[4.0513069,50.9707188],[4.0522395,50.9701475],[4.052162,50.969985],[4.0498953,50.9680621],[4.0491559,50.9674519],[4.0485692,50.9677232],[4.0494938,50.9684668],[4.0495075,50.9685211],[4.0500159,50.9689242],[4.0502939,50.9691891],[4.0504805,50.9694056],[4.0507767,50.9696383],[4.0509413,50.9696912],[4.0511257,50.969779],[4.0515679,50.9701232],[4.0515894,50.9701933],[4.0515706,50.9702398],[4.0515481,50.970275],[4.0514955,50.9703141],[4.0507874,50.9706316],[4.0499747,50.9710159],[4.0498547,50.971026],[4.0497483,50.9710041],[4.0489773,50.9703704],[4.0490574,50.9704644],[4.0492317,50.9707499],[4.0493578,50.9710556],[4.0491992,50.9711892]]]}},{"type":"Feature","id":"way/152482618","properties":{"source":"OpenStreetMap","source_id":"way/152482618","kind":"vegetation","name":null,"waterway":null,"landuse":"forest"},"geometry":{"type":"Polygon","coordinates":[[[4.0567938,50.9753911],[4.0568804,50.9754254],[4.0570538,50.9754644],[4.0572469,50.9754878],[4.0576951,50.9754207],[4.0577942,50.9755813],[4.0580369,50.9755034],[4.058183,50.9756219],[4.0582479,50.9755926],[4.058366,50.9756534],[4.0582694,50.9757638],[4.0588599,50.9760298],[4.0590174,50.9761413],[4.0591086,50.9761086],[4.0580323,50.9750882],[4.057779,50.9751465],[4.0574057,50.975255],[4.0572087,50.9752964],[4.0567835,50.9753412],[4.0564456,50.9753351],[4.0564603,50.9750415],[4.0562779,50.9748979],[4.0557495,50.9751276],[4.0555724,50.9749891],[4.0554976,50.9750292],[4.0555482,50.9753802],[4.0558355,50.975416],[4.0562341,50.975455],[4.0564644,50.9754348],[4.056665,50.9753989],[4.0567938,50.9753911]]]}},{"type":"Feature","id":"way/152482692","properties":{"source":"OpenStreetMap","source_id":"way/152482692","kind":"water","name":null,"waterway":null,"landuse":null},"geometry":{"type":"Polygon","coordinates":[[[4.0555028,50.9743148],[4.0555672,50.9743193],[4.0561578,50.9747993],[4.0561685,50.9748422],[4.055875,50.9750157],[4.055807,50.9750292],[4.0557641,50.9750112],[4.055195,50.9745222],[4.0551843,50.9744793],[4.0552129,50.97445],[4.0555028,50.9743148]]]}},{"type":"Feature","id":"way/234174611","properties":{"source":"OpenStreetMap","source_id":"way/234174611","kind":"waterway","name":null,"waterway":"stream","landuse":null},"geometry":{"type":"LineString","coordinates":[[4.0510011,50.9717159],[4.051567,50.9714322],[4.0520981,50.9711704],[4.0521249,50.9711636],[4.0521705,50.9711788],[4.0524575,50.9712988],[4.0527016,50.97139],[4.0528089,50.9714153],[4.0530073,50.9714862],[4.0534043,50.9716433],[4.0535947,50.9717126],[4.0537423,50.9717717],[4.0538817,50.9718342],[4.0539327,50.9718325],[4.0539783,50.9718071],[4.0540024,50.9717734],[4.0540783,50.9717327]]}},{"type":"Feature","id":"way/672839809","properties":{"source":"OpenStreetMap","source_id":"way/672839809","kind":"vegetation","name":null,"waterway":null,"landuse":"forest"},"geometry":{"type":"Polygon","coordinates":[[[4.0548923,50.9709549],[4.0549243,50.9709628],[4.0550133,50.9709778],[4.0552222,50.9709727],[4.0554976,50.9709387],[4.0557831,50.97087],[4.05586,50.9708311],[4.0559464,50.9707646],[4.0559836,50.9706946],[4.0560023,50.9706399],[4.0559999,50.9705882],[4.0559599,50.9705227],[4.0558718,50.9704505],[4.0556662,50.9704012],[4.0554535,50.9703664],[4.0554085,50.9703783],[4.0548923,50.9709549]]]}},{"type":"Feature","id":"way/672839810","properties":{"source":"OpenStreetMap","source_id":"way/672839810","kind":"vegetation","name":null,"waterway":null,"landuse":"forest"},"geometry":{"type":"Polygon","coordinates":[[[4.0564358,50.9709009],[4.0573924,50.9711649],[4.0586753,50.9715202],[4.0594489,50.9709596],[4.0593285,50.9709196],[4.0593196,50.9709167],[4.0591387,50.9708645],[4.0589052,50.9708099],[4.0587808,50.9707672],[4.0586226,50.9706984],[4.0584682,50.9706391],[4.0583363,50.9706107],[4.0580085,50.9706012],[4.0577976,50.9706012],[4.0577298,50.9705774],[4.057613,50.9704778],[4.0576044,50.9704643],[4.0574716,50.9704654],[4.0566805,50.9704381],[4.0565229,50.9704586],[4.0564358,50.9709009]]]}},{"type":"Feature","id":"way/767805022","properties":{"source":"OpenStreetMap","source_id":"way/767805022","kind":"water","name":null,"waterway":null,"landuse":null},"geometry":{"type":"Polygon","coordinates":[[[4.0483339,50.9695328],[4.0489053,50.9692368],[4.0488541,50.9691979],[4.0488777,50.9691857],[4.0488273,50.969113],[4.0488421,50.9690951],[4.0488459,50.9690859],[4.0488466,50.9690737],[4.0488412,50.9690637],[4.0488345,50.9690569],[4.0488211,50.9690495],[4.0488019,50.9690454],[4.0487842,50.9690454],[4.0487678,50.9690486],[4.048747,50.9690501],[4.0487373,50.9690602],[4.0487413,50.9690655],[4.0487381,50.9690715],[4.0487363,50.9690775],[4.0487383,50.9690866],[4.0487359,50.9690981],[4.048708,50.9691115],[4.0487279,50.9691244],[4.0487531,50.9691084],[4.0487675,50.9691099],[4.0487822,50.969113],[4.0488022,50.9691135],[4.0488116,50.969119],[4.0488507,50.9691738],[4.0488344,50.9691816],[4.0487947,50.96915],[4.0482216,50.9694439],[4.0483339,50.9695328]]]}},{"type":"Feature","id":"way/767806580","properties":{"source":"OpenStreetMap","source_id":"way/767806580","kind":"water","name":null,"waterway":null,"landuse":null},"geometry":{"type":"Polygon","coordinates":[[[4.0495429,50.9696329],[4.0495331,50.9696284],[4.0495247,50.9696229],[4.0495182,50.9696165],[4.0495137,50.9696094],[4.0495115,50.9696019],[4.0495115,50.9695942],[4.0495138,50.9695867],[4.0495184,50.9695797],[4.049525,50.9695732],[4.0495333,50.9695677],[4.0495432,50.9695633],[4.0495543,50.9695602],[4.0495661,50.9695584],[4.0495782,50.9695581],[4.0495902,50.9695592],[4.0496016,50.9695617],[4.0496121,50.9695655],[4.0496213,50.9695705],[4.0496287,50.9695766],[4.0496342,50.9695834],[4.0496376,50.9695907],[4.0496387,50.9695983],[4.0496376,50.9696059],[4.0496341,50.9696132],[4.0496285,50.96962],[4.049621,50.969626],[4.0496118,50.9696309],[4.0496013,50.9696347],[4.0495898,50.9696372],[4.0495778,50.9696383],[4.0495657,50.9696379],[4.0495539,50.9696361],[4.0495429,50.9696329]]]}},{"type":"Feature","id":"way/767806582","properties":{"source":"OpenStreetMap","source_id":"way/767806582","kind":"water","name":null,"waterway":null,"landuse":null},"geometry":{"type":"Polygon","coordinates":[[[4.0497701,50.9695537],[4.0497258,50.9695275],[4.0496903,50.9694966],[4.0496646,50.969462],[4.0496499,50.9694249],[4.0496465,50.9693868],[4.0496547,50.9693489],[4.0496741,50.9693127],[4.049704,50.9692795],[4.0497421,50.9692488],[4.0497885,50.9692246],[4.0498334,50.9692084],[4.0498956,50.9691948],[4.0499605,50.9691896],[4.0500093,50.9691912],[4.050049,50.9691956],[4.0500889,50.9692041],[4.0501342,50.9692187],[4.0501804,50.9692403],[4.0502281,50.9692734],[4.0502603,50.9693086],[4.0502814,50.969346],[4.0502894,50.9693821],[4.0502861,50.9694215],[4.0502712,50.9694593],[4.050243,50.9694939],[4.0502082,50.9695252],[4.0501646,50.9695518],[4.0501138,50.9695727],[4.0500577,50.9695872],[4.0499982,50.9695947],[4.0499375,50.969595],[4.0498779,50.969588],[4.0498214,50.9695741],[4.0497701,50.9695537]]]}},{"type":"Feature","id":"way/767806584","properties":{"source":"OpenStreetMap","source_id":"way/767806584","kind":"water","name":null,"waterway":null,"landuse":null},"geometry":{"type":"Polygon","coordinates":[[[4.0498426,50.970061],[4.0497986,50.9700345],[4.0497633,50.9700033],[4.0497381,50.9699685],[4.0497236,50.9699312],[4.0497206,50.969893],[4.0497291,50.969855],[4.0497488,50.9698188],[4.049779,50.9697855],[4.0498186,50.9697564],[4.0498662,50.9697326],[4.0499201,50.9697148],[4.0499783,50.9697037],[4.0500389,50.9696997],[4.0500995,50.969703],[4.0501583,50.9697122],[4.0502124,50.9697306],[4.0502611,50.9697541],[4.0503017,50.9697831],[4.0503329,50.9698164],[4.0503535,50.9698528],[4.0503627,50.969891],[4.0503603,50.9699296],[4.0503462,50.9699672],[4.050321,50.9700024],[4.0502856,50.970034],[4.0502414,50.9700608],[4.0501899,50.9700818],[4.050133,50.9700962],[4.0500727,50.9701036],[4.0500114,50.9701037],[4.0499511,50.9700963],[4.0498942,50.970082],[4.0498426,50.970061]]]}},{"type":"Feature","id":"way/767806586","properties":{"source":"OpenStreetMap","source_id":"way/767806586","kind":"water","name":null,"waterway":null,"landuse":null},"geometry":{"type":"Polygon","coordinates":[[[4.0489801,50.9699624],[4.0489359,50.9699362],[4.0489003,50.9699053],[4.0488747,50.9698706],[4.0488599,50.9698336],[4.0488566,50.9697954],[4.0488647,50.9697576],[4.048883,50.969721],[4.0489117,50.9696876],[4.0489505,50.9696579],[4.0490043,50.9696306],[4.0490531,50.9696144],[4.0491114,50.969603],[4.049173,50.9695984],[4.0492343,50.9696018],[4.0492927,50.9696117],[4.0493459,50.9696286],[4.0493965,50.9696536],[4.049437,50.9696833],[4.0494679,50.969717],[4.0494874,50.9697541],[4.0494965,50.9697917],[4.0494956,50.9698239],[4.0494798,50.9698677],[4.0494559,50.9699027],[4.04942,50.9699347],[4.0493771,50.9699613],[4.049325,50.9699827],[4.0492688,50.969997],[4.0492083,50.9700033],[4.0491472,50.9700049],[4.0490879,50.969998],[4.0490314,50.9699828],[4.0489801,50.9699624]]]}},{"type":"Feature","id":"way/767808340","properties":{"source":"OpenStreetMap","source_id":"way/767808340","kind":"water","name":null,"waterway":null,"landuse":null},"geometry":{"type":"Polygon","coordinates":[[[4.0505633,50.9705067],[4.0505442,50.9705168],[4.0505525,50.9705336],[4.0505557,50.9705455],[4.0505587,50.9705586],[4.05056,50.9705797],[4.0505564,50.9706],[4.0505498,50.9706183],[4.050542,50.9706366],[4.0505286,50.9706514],[4.0505152,50.9706633],[4.0504977,50.9706768],[4.05048,50.9706885],[4.0504617,50.9706986],[4.0502754,50.9707876],[4.0502848,50.9707964],[4.0502717,50.9708027],[4.0502623,50.9707952],[4.0499754,50.9709286],[4.0499617,50.970936],[4.0499465,50.9709419],[4.0499344,50.9709463],[4.0499165,50.9709505],[4.0498989,50.9709523],[4.0498807,50.9709527],[4.0498642,50.9709517],[4.0498456,50.9709489],[4.0498327,50.9709451],[4.0498225,50.9709417],[4.0498101,50.9709363],[4.0498008,50.9709311],[4.0497927,50.9709262],[4.0497862,50.9709203],[4.0497794,50.9709136],[4.0497738,50.9709065],[4.0497702,50.9708996],[4.0497661,50.9708918],[4.0497645,50.9708826],[4.0497642,50.9708759],[4.0497649,50.9708684],[4.0497668,50.9708613],[4.0497686,50.9708554],[4.0497731,50.9708484],[4.0497763,50.9708432],[4.0497811,50.9708379],[4.049788,50.9708297],[4.0497776,50.9708231],[4.049766,50.9708253],[4.0497568,50.9708261],[4.0497492,50.9708267],[4.0497412,50.9708273],[4.0497314,50.9708273],[4.049722,50.9708271],[4.0497134,50.9708265],[4.0497054,50.9708253],[4.0496968,50.9708241],[4.0496891,50.9708217],[4.0496785,50.9708184],[4.0496702,50.9708154],[4.0496628,50.9708123],[4.0496551,50.9708083],[4.0496457,50.9708027],[4.0496399,50.9707983],[4.0496341,50.9707936],[4.0496279,50.9707872],[4.0496225,50.9707798],[4.0496171,50.97077],[4.0496141,50.9707593],[4.049613,50.9707497],[4.0496139,50.9707392],[4.0496195,50.9707244],[4.0496278,50.9707127],[4.049635,50.9707052],[4.0496267,50.9706976],[4.049608,50.9707006],[4.0495963,50.9707014],[4.0495832,50.9707014],[4.0495714,50.9707011],[4.0495449,50.9706968],[4.0495257,50.9706912],[4.0495051,50.9706827],[4.0494867,50.9706689],[4.0494723,50.9706532],[4.0494657,50.970641],[4.0494628,50.970625],[4.0494651,50.9706072],[4.049474,50.970591],[4.0494863,50.9705768],[4.0495012,50.9705665],[4.0495159,50.9705588],[4.0495277,50.9705539],[4.0496843,50.9704809],[4.0498155,50.9704187],[4.0498007,50.9704052],[4.0505961,50.9700236],[4.0506079,50.9700338],[4.0506137,50.9700381],[4.0509053,50.9698995],[4.0509185,50.9698916],[4.0509342,50.9698861],[4.0509467,50.9698822],[4.0509649,50.9698786],[4.0509827,50.9698774],[4.0510009,50.9698777],[4.0510173,50.9698793],[4.0510356,50.9698827],[4.0510482,50.9698869],[4.051058,50.9698907],[4.0510699,50.9698965],[4.0510787,50.969902],[4.0510864,50.9699073],[4.0510924,50.9699134],[4.0510986,50.9699203],[4.0511036,50.9699276],[4.0511064,50.9699346],[4.0511099,50.9699426],[4.0511112,50.9699516],[4.0511117,50.9699585],[4.0511099,50.9699661],[4.0511083,50.969973],[4.0511055,50.9699788],[4.0511013,50.9699857],[4.0510971,50.9699913],[4.0510897,50.9699997],[4.0511032,50.9700079],[4.0511166,50.9700055],[4.0511262,50.970004],[4.0511335,50.9700037],[4.0511414,50.9700034],[4.0511512,50.9700037],[4.0511606,50.9700042],[4.0511691,50.9700052],[4.0511771,50.9700066],[4.0511855,50.9700081],[4.051193,50.9700108],[4.0512033,50.9700144],[4.0512113,50.9700178],[4.0512184,50.970021],[4.0512258,50.9700253],[4.0512346,50.9700313],[4.05124,50.9700359],[4.0512453,50.9700408],[4.051251,50.9700474],[4.0512557,50.9700551],[4.0512603,50.9700649],[4.0512623,50.9700758],[4.0512625,50.9700854],[4.0512607,50.9700959],[4.0512537,50.9701107],[4.0512497,50.970117],[4.051242,50.9701259],[4.0512523,50.970134],[4.0512615,50.9701325],[4.0512753,50.9701308],[4.051287,50.9701304],[4.0513001,50.9701308],[4.0513119,50.9701316],[4.0513379,50.9701368],[4.0513567,50.970143],[4.0513764,50.9701522],[4.0513936,50.9701667],[4.0514066,50.9701828],[4.0514121,50.9701953],[4.0514135,50.9702113],[4.0514097,50.970229],[4.0513994,50.9702448],[4.0513851,50.9702583],[4.0513698,50.9702679],[4.0513548,50.9702745],[4.0513491,50.9702771],[4.0510663,50.9704116],[4.0510754,50.9704193],[4.0510617,50.9704255],[4.0510514,50.9704177],[4.0508614,50.9705085],[4.0508345,50.9705198],[4.0508049,50.9705286],[4.0507752,50.9705348],[4.0507424,50.9705389],[4.0507125,50.9705389],[4.0506826,50.9705376],[4.0506542,50.9705346],[4.0506315,50.9705291],[4.0506009,50.970521],[4.0505633,50.9705067]]]}},{"type":"Feature","id":"way/767813339","properties":{"source":"OpenStreetMap","source_id":"way/767813339","kind":"water","name":null,"waterway":null,"landuse":null},"geometry":{"type":"Polygon","coordinates":[[[4.0477391,50.9690439],[4.0480542,50.9688809],[4.048077,50.9688311],[4.0481052,50.9688159],[4.0481186,50.9688226],[4.0483493,50.9687069],[4.048411,50.9687534],[4.0483868,50.9687652],[4.0484163,50.9687888],[4.0484378,50.9687796],[4.0484968,50.9688268],[4.0482956,50.9689265],[4.0483117,50.9689392],[4.0482487,50.9689696],[4.0482406,50.9689611],[4.0481682,50.9689704],[4.0480649,50.9690228],[4.0481119,50.9690583],[4.0481454,50.9690718],[4.0482393,50.9691419],[4.0482554,50.9691651],[4.0482688,50.9691592],[4.0482929,50.969178],[4.0483094,50.9691699],[4.0483245,50.969149],[4.0483124,50.9691385],[4.0483208,50.9691334],[4.0483077,50.9691222],[4.0485303,50.9690076],[4.0485229,50.969],[4.0485632,50.9689797],[4.0486906,50.9690815],[4.0486758,50.9690891],[4.0486684,50.9690827],[4.0484217,50.9692086],[4.0483868,50.969182],[4.0483392,50.9691921],[4.0482721,50.9692242],[4.048242,50.9692175],[4.0481622,50.9691626],[4.04813,50.9691778],[4.0480643,50.9691288],[4.0480924,50.9691165],[4.0480737,50.9690844],[4.0480234,50.9690426],[4.0478544,50.9691322],[4.0477391,50.9690439]]]}},{"type":"Feature","id":"way/780654505","properties":{"source":"OpenStreetMap","source_id":"way/780654505","kind":"waterway","name":"Molenbeek - Ter Erpenbeek","waterway":"stream","landuse":null},"geometry":{"type":"LineString","coordinates":[[4.0447978,50.968533],[4.0449059,50.9686046],[4.0452993,50.9688519],[4.0456473,50.9691302],[4.0461007,50.9695078],[4.0463863,50.9697436],[4.0465413,50.9698554],[4.0468284,50.9700135],[4.0472127,50.9702299],[4.0475077,50.9703754],[4.0477845,50.9705074],[4.0481102,50.9706859],[4.0483028,50.9707848],[4.048629,50.9709124],[4.0489552,50.9710304],[4.0492748,50.971161],[4.0506205,50.9716988],[4.0528696,50.9726518],[4.0530409,50.9727301],[4.0532679,50.9728144],[4.053271,50.9728155],[4.053364,50.9728463],[4.0533677,50.9728475],[4.0534581,50.9729113],[4.0534592,50.972913],[4.0535867,50.9731111],[4.0537176,50.9734222],[4.0538035,50.9735216],[4.0540209,50.9736637],[4.0542137,50.9738729],[4.0545009,50.9741571],[4.054926,50.9745602],[4.0554976,50.9750292],[4.0556333,50.9751388],[4.0557892,50.975224],[4.0560875,50.9752267],[4.0564456,50.9753351],[4.0567835,50.9753412],[4.0572087,50.9752964],[4.0574057,50.975255],[4.057779,50.9751465],[4.0579144,50.9751388],[4.0580416,50.975193],[4.0590768,50.9761383]]}},{"type":"Feature","id":"way/780654513","properties":{"source":"OpenStreetMap","source_id":"way/780654513","kind":"waterway","name":null,"waterway":"stream","landuse":null},"geometry":{"type":"LineString","coordinates":[[4.0491559,50.9674519],[4.0498953,50.9680621],[4.0515638,50.9694797],[4.052162,50.969985],[4.0522395,50.9701475],[4.0523472,50.9702521],[4.0524257,50.9703001],[4.0527849,50.9706194],[4.0540783,50.9717327]]}},{"type":"Feature","id":"way/787504890","properties":{"source":"OpenStreetMap","source_id":"way/787504890","kind":"waterway","name":"Kleine Meersbeek","waterway":"stream","landuse":null},"geometry":{"type":"LineString","coordinates":[[4.0486215,50.9743735],[4.0486939,50.9744504]]}},{"type":"Feature","id":"way/929714765","properties":{"source":"OpenStreetMap","source_id":"way/929714765","kind":"waterway","name":null,"waterway":"stream","landuse":null},"geometry":{"type":"LineString","coordinates":[[4.0539679,50.9684536],[4.0540425,50.9684605],[4.0546781,50.9685216],[4.0553753,50.9685828],[4.056026,50.9686554],[4.0562816,50.9687175],[4.0565825,50.9688148],[4.0567664,50.9689151],[4.0569828,50.9690633],[4.0572574,50.9692131],[4.057497,50.9693656],[4.0575595,50.9694273],[4.0575718,50.9694894],[4.0575203,50.9696214],[4.0574804,50.9697345],[4.0574443,50.9698955],[4.0574449,50.9699719],[4.0574872,50.9701278],[4.0575344,50.9702552],[4.0575969,50.9704088]]}},{"type":"Feature","id":"way/929714768","properties":{"source":"OpenStreetMap","source_id":"way/929714768","kind":"waterway","name":null,"waterway":"stream","landuse":null},"geometry":{"type":"LineString","coordinates":[[4.0594149,50.9709583],[4.0586753,50.9715202],[4.0583777,50.9717369],[4.0579581,50.9719142],[4.0570147,50.9723167],[4.0561924,50.9726608]]}},{"type":"Feature","id":"way/929714770","properties":{"source":"OpenStreetMap","source_id":"way/929714770","kind":"waterway","name":null,"waterway":"stream","landuse":null},"geometry":{"type":"LineString","coordinates":[[4.0598023,50.9668871],[4.0593957,50.9670256],[4.0585922,50.9662258],[4.0580106,50.9664967],[4.0570854,50.9669046],[4.0567439,50.9670074],[4.056507,50.9671412],[4.0561825,50.9673036],[4.0557995,50.9674711],[4.0556181,50.9675237],[4.055467,50.9675318],[4.0552051,50.9675215],[4.0551297,50.9675318],[4.0549682,50.9675925],[4.0546502,50.967754],[4.0544619,50.9678406],[4.0544249,50.9678564],[4.0542938,50.9679624],[4.0539747,50.9682661],[4.0539321,50.9683286],[4.053931,50.9683669],[4.0539779,50.9683858],[4.0544261,50.9684355],[4.054799,50.9684564],[4.0552638,50.9685027],[4.0559612,50.9685712],[4.0562776,50.9686398],[4.0566095,50.9687446],[4.0568026,50.9688535],[4.0569019,50.968924],[4.0570235,50.9690047],[4.0573831,50.9691975],[4.0576616,50.9694079],[4.0576851,50.9694825],[4.0575805,50.9697714],[4.0575528,50.9699488],[4.0576019,50.9701511],[4.0576841,50.9703608],[4.0577395,50.9704757],[4.0577897,50.970516],[4.0578697,50.9705348],[4.0579882,50.9705375],[4.0582646,50.9705335],[4.0583937,50.9705442],[4.0585164,50.9705711],[4.0586114,50.9706054],[4.0586936,50.970647],[4.0589646,50.9707552],[4.0591772,50.9708034],[4.0592777,50.9708261],[4.0594715,50.9708997],[4.0595376,50.9709346],[4.0597436,50.9710805],[4.0597873,50.9711255],[4.0600061,50.9714984],[4.060132,50.9716261],[4.0602761,50.971737],[4.0603807,50.9718075],[4.0604863,50.9718606],[4.0608918,50.9720427],[4.0609676,50.9720669],[4.0610135,50.9720891],[4.0610732,50.9721106],[4.0614051,50.9722564],[4.0615737,50.9723552],[4.0618106,50.9725447],[4.0618586,50.9725843],[4.0623047,50.97297],[4.0623314,50.9729754]]}},{"type":"Feature","id":"way/929714785","properties":{"source":"OpenStreetMap","source_id":"way/929714785","kind":"waterway","name":null,"waterway":"stream","landuse":null},"geometry":{"type":"LineString","coordinates":[[4.0576631,50.9705153],[4.0577231,50.9705624],[4.0577575,50.9705802],[4.0578206,50.970591],[4.0578997,50.9705952],[4.0580743,50.9705914],[4.0583305,50.9705979],[4.0584372,50.9706195],[4.0586394,50.9707002],[4.0587712,50.9707596],[4.0589256,50.9708114],[4.0591387,50.9708645],[4.0593285,50.9709196]]}},{"type":"Feature","id":"way/929714786","properties":{"source":"OpenStreetMap","source_id":"way/929714786","kind":"waterway","name":null,"waterway":"stream","landuse":null},"geometry":{"type":"LineString","coordinates":[[4.057624,50.9704524],[4.0576631,50.9705153]]}},{"type":"Feature","id":"way/929714787","properties":{"source":"OpenStreetMap","source_id":"way/929714787","kind":"waterway","name":null,"waterway":"stream","landuse":null},"geometry":{"type":"LineString","coordinates":[[4.0575969,50.9704088],[4.057624,50.9704524]]}}]}