{"type":"FeatureCollection","features":[{"type":"Feature","id":"gebouw/Gebouw.13039021/0","properties":{"source":"Digitaal Vlaanderen Gebouwenregister","source_id":"gebouw/Gebouw.13039021/0","kind":"building","height_m":6.44,"status":null},"geometry":{"type":"Polygon","coordinates":[[[4.05245074,50.90747081],[4.05244318,50.90750496],[4.05245726,50.90750633],[4.05243455,50.90760437],[4.05242731,50.90760386],[4.05242071,50.90760858],[4.05241228,50.90761195],[4.0524027,50.90761368],[4.05239273,50.90761365],[4.0523833,50.90761188],[4.05237501,50.90760854],[4.05236851,50.90760387],[4.05236431,50.90759825],[4.05231142,50.90759321],[4.05232048,50.90755045],[4.05227383,50.90754666],[4.05229331,50.90745689],[4.05245074,50.90747081]]]}},{"type":"Feature","id":"gebouw/Gebouw.13099492/0","properties":{"source":"Digitaal Vlaanderen Gebouwenregister","source_id":"gebouw/Gebouw.13099492/0","kind":"building","height_m":5.0,"status":null},"geometry":{"type":"Polygon","coordinates":[[[4.05301778,50.90827425],[4.05303679,50.90825371],[4.05304919,50.90825823],[4.05306673,50.90822993],[4.05306684,50.90822976],[4.05306766,50.90822843],[4.05297216,50.90819378],[4.05295533,50.90818768],[4.05292252,50.90818148],[4.05292212,50.90818234],[4.05280362,50.90815862],[4.05276086,50.90824612],[4.05295288,50.90828363],[4.05302432,50.90831301],[4.05303836,50.90828208],[4.05301778,50.90827425]],[[4.05291954,50.90824436],[4.05293024,50.9082201],[4.05296479,50.90822749],[4.05300585,50.90824244],[4.05298718,50.90826261],[4.05295888,50.90825185],[4.05291954,50.90824436]]]}},{"type":"Feature","id":"gebouw/Gebouw.13150870/0","properties":{"source":"Digitaal Vlaanderen Gebouwenregister","source_id":"gebouw/Gebouw.13150870/0","kind":"building","height_m":8.6,"status":null},"geometry":{"type":"Polygon","coordinates":[[[4.05202589,50.90713369],[4.05193929,50.90713603],[4.0519402,50.90716859],[4.05198648,50.90716572],[4.05198743,50.90717307],[4.05202851,50.90717697],[4.05202589,50.90713369]]]}},{"type":"Feature","id":"gebouw/Gebouw.14741480/0","properties":{"source":"Digitaal Vlaanderen Gebouwenregister","source_id":"gebouw/Gebouw.14741480/0","kind":"building","height_m":8.6,"status":null},"geometry":{"type":"Polygon","coordinates":[[[4.05249771,50.90733477],[4.05249397,50.90735095],[4.05247987,50.90741186],[4.05243315,50.90740753],[4.05243163,50.90741414],[4.05230679,50.90740294],[4.05232269,50.90733178],[4.05232553,50.90731907],[4.05238035,50.90732407],[4.05249771,50.90733477]]]}},{"type":"Feature","id":"gebouw/Gebouw.16737213/0","properties":{"source":"Digitaal Vlaanderen Gebouwenregister","source_id":"gebouw/Gebouw.16737213/0","kind":"building","height_m":7.16,"status":null},"geometry":{"type":"Polygon","coordinates":[[[4.05045783,50.90746538],[4.05037862,50.90741283],[4.05040765,50.90739534],[4.05048686,50.90744789],[4.05045783,50.90746538]]]}},{"type":"Feature","id":"gebouw/Gebouw.16737262/0","properties":{"source":"Digitaal Vlaanderen Gebouwenregister","source_id":"gebouw/Gebouw.16737262/0","kind":"building","height_m":7.16,"status":null},"geometry":{"type":"Polygon","coordinates":[[[4.04817827,50.90740106],[4.04829965,50.90732993],[4.04829006,50.90732344],[4.04841894,50.90724752],[4.04862379,50.90738715],[4.04864469,50.90737506],[4.04867132,50.90737579],[4.0487407,50.90742315],[4.0487395,50.90743969],[4.04871908,50.90745188],[4.04872879,50.90745846],[4.04847884,50.9076061],[4.04817827,50.90740106]]]}},{"type":"Feature","id":"gebouw/Gebouw.16752032/0","properties":{"source":"Digitaal Vlaanderen Gebouwenregister","source_id":"gebouw/Gebouw.16752032/0","kind":"building","height_m":7.16,"status":null},"geometry":{"type":"Polygon","coordinates":[[[4.04846936,50.90607183],[4.04847397,50.90605961],[4.04852063,50.9060672],[4.04853338,50.90603414],[4.04854514,50.90603595],[4.04856001,50.90599749],[4.04854821,50.90599567],[4.04855099,50.90598848],[4.04839607,50.90596455],[4.04838753,50.90598793],[4.04824315,50.9059647],[4.04823206,50.90599304],[4.04814881,50.90598001],[4.04811499,50.90606639],[4.04833024,50.90610008],[4.04835131,50.90604225],[4.04836572,50.90604393],[4.04836151,50.90605554],[4.04846936,50.90607183]]]}},{"type":"Feature","id":"gebouw/Gebouw.16760441/0","properties":{"source":"Digitaal Vlaanderen Gebouwenregister","source_id":"gebouw/Gebouw.16760441/0","kind":"building","height_m":8.6,"status":null},"geometry":{"type":"Polygon","coordinates":[[[4.05062837,50.90705109],[4.05055595,50.907092],[4.05053014,50.90707575],[4.05046552,50.90710985],[4.05049003,50.90712925],[4.05036824,50.90719806],[4.05042576,50.90723797],[4.05038391,50.90726221],[4.05097405,50.90766959],[4.0510075,50.90765168],[4.05100788,50.90764896],[4.05105248,50.90765149],[4.05106041,50.90759548],[4.05101581,50.90759296],[4.05103629,50.90744827],[4.05085107,50.90728912],[4.05075966,50.90722629],[4.0507904,50.90720774],[4.05069192,50.90713806],[4.05072492,50.90711941],[4.05062837,50.90705109]]]}},{"type":"Feature","id":"gebouw/Gebouw.16760514/0","properties":{"source":"Digitaal Vlaanderen Gebouwenregister","source_id":"gebouw/Gebouw.16760514/0","kind":"building","height_m":5.72,"status":null},"geometry":{"type":"Polygon","coordinates":[[[4.0483822,50.90671185],[4.04845009,50.90672516],[4.04843643,50.90675303],[4.04836853,50.90673973],[4.0483822,50.90671185]]]}},{"type":"Feature","id":"gebouw/Gebouw.16775315/0","properties":{"source":"Digitaal Vlaanderen Gebouwenregister","source_id":"gebouw/Gebouw.16775315/0","kind":"building","height_m":7.88,"status":null},"geometry":{"type":"Polygon","coordinates":[[[4.04975651,50.90715122],[4.04939129,50.90736497],[4.04914206,50.90719472],[4.0490658,50.90714262],[4.04905649,50.90713626],[4.04920056,50.90705195],[4.04918623,50.90704217],[4.04934709,50.90694803],[4.04933405,50.90693912],[4.04939434,50.90690384],[4.04975651,50.90715122]]]}},{"type":"Feature","id":"gebouw/Gebouw.16782097/0","properties":{"source":"Digitaal Vlaanderen Gebouwenregister","source_id":"gebouw/Gebouw.16782097/0","kind":"building","height_m":7.16,"status":null},"geometry":{"type":"Polygon","coordinates":[[[4.04844249,50.90623698],[4.04842719,50.90627622],[4.04827168,50.90625199],[4.04827338,50.90624873],[4.04825578,50.90624616],[4.04824639,50.9062705],[4.04821402,50.90626256],[4.04810669,50.90623623],[4.04812688,50.90619285],[4.04823381,50.90620968],[4.0482554,50.90614484],[4.04831001,50.90615293],[4.04831189,50.90614828],[4.0484378,50.90616693],[4.04842262,50.9062079],[4.04841349,50.90623256],[4.04844249,50.90623698]]]}},{"type":"Feature","id":"gebouw/Gebouw.16782339/0","properties":{"source":"Digitaal Vlaanderen Gebouwenregister","source_id":"gebouw/Gebouw.16782339/0","kind":"building","height_m":5.0,"status":null},"geometry":{"type":"Polygon","coordinates":[[[4.04935093,50.90616152],[4.04912078,50.90618041],[4.04910699,50.90612907],[4.04902674,50.90613471],[4.04901902,50.90614775],[4.04894868,50.90617661],[4.04883576,50.90613827],[4.04864809,50.90607456],[4.04864724,50.906074],[4.04864642,50.90607342],[4.04864565,50.90607281],[4.04864491,50.90607219],[4.04864385,50.90607124],[4.04864312,50.9060704],[4.04864253,50.90606951],[4.04864218,50.90606879],[4.04864195,50.90606805],[4.04864182,50.90606729],[4.04870348,50.90598118],[4.04874354,50.90599176],[4.04875496,50.90599478],[4.04873657,50.90587981],[4.04873599,50.90587617],[4.04873161,50.90584875],[4.04872872,50.90583069],[4.04872698,50.90581979],[4.04872508,50.90580792],[4.04872463,50.9058051],[4.04872345,50.90579769],[4.0487225,50.90579167],[4.04871944,50.90577279],[4.04881742,50.90576682],[4.04885274,50.90576467],[4.04906789,50.90575156],[4.04913638,50.90574739],[4.0491672,50.90574552],[4.04916916,50.90575926],[4.04917015,50.90576614],[4.04917071,50.90577011],[4.04917169,50.90577691],[4.04917717,50.90581528],[4.04922063,50.90581314],[4.04922145,50.90582121],[4.04922313,50.90583793],[4.04926599,50.90583522],[4.04927587,50.90591324],[4.04928924,50.90591253],[4.04929912,50.90595886],[4.04930612,50.90595773],[4.0493324,50.9060679],[4.04926156,50.90607339],[4.04926978,50.90610281],[4.04933607,50.90609673],[4.04935093,50.90616152]]]}},{"type":"Feature","id":"gebouw/Gebouw.16785217/0","properties":{"source":"Digitaal Vlaanderen Gebouwenregister","source_id":"gebouw/Gebouw.16785217/0","kind":"building","height_m":5.72,"status":null},"geometry":{"type":"Polygon","coordinates":[[[4.04878726,50.90749912],[4.04890474,50.90757969],[4.04878062,50.90765204],[4.04866314,50.90757147],[4.04878726,50.90749912]]]}},{"type":"Feature","id":"gebouw/Gebouw.16794612/0","properties":{"source":"Digitaal Vlaanderen Gebouwenregister","source_id":"gebouw/Gebouw.16794612/0","kind":"building","height_m":6.44,"status":null},"geometry":{"type":"Polygon","coordinates":[[[4.05029183,50.9073575],[4.05053132,50.90752084],[4.05037588,50.90761194],[4.0501364,50.9074486],[4.05029183,50.9073575]]]}},{"type":"Feature","id":"gebouw/Gebouw.16797618/0","properties":{"source":"Digitaal Vlaanderen Gebouwenregister","source_id":"gebouw/Gebouw.16797618/0","kind":"building","height_m":8.6,"status":null},"geometry":{"type":"Polygon","coordinates":[[[4.04858033,50.90699031],[4.04862756,50.90698851],[4.04863178,50.90703285],[4.04875543,50.90702815],[4.04874759,50.90694566],[4.0487862,50.90694419],[4.04877897,50.90686812],[4.04868913,50.90687153],[4.04868859,50.90686585],[4.04856893,50.9068704],[4.04858033,50.90699031]]]}},{"type":"Feature","id":"gebouw/Gebouw.16801183/0","properties":{"source":"Digitaal Vlaanderen Gebouwenregister","source_id":"gebouw/Gebouw.16801183/0","kind":"building","height_m":5.0,"status":null},"geometry":{"type":"Polygon","coordinates":[[[4.04880608,50.90676749],[4.04883575,50.90671526],[4.04890062,50.90673088],[4.04886776,50.90678223],[4.04901976,50.9068197],[4.04898748,50.90687565],[4.04876751,50.90682107],[4.04880002,50.90676609],[4.04880608,50.90676749]]]}},{"type":"Feature","id":"gebouw/Gebouw.16801443/0","properties":{"source":"Digitaal Vlaanderen Gebouwenregister","source_id":"gebouw/Gebouw.16801443/0","kind":"building","height_m":5.72,"status":null},"geometry":{"type":"Polygon","coordinates":[[[4.04836886,50.9064177],[4.04839162,50.90642349],[4.04839237,50.90642227],[4.04845421,50.90632148],[4.04833042,50.90629111],[4.04829302,50.90635417],[4.04820152,50.90633227],[4.04816905,50.9063245],[4.04814711,50.90636225],[4.04813893,50.90636011],[4.04813171,50.90637252],[4.04805214,50.90635401],[4.04803039,50.90639147],[4.04810927,50.90641109],[4.04833766,50.90646787],[4.04836886,50.9064177]]]}},{"type":"Feature","id":"gebouw/Gebouw.16811968/0","properties":{"source":"Digitaal Vlaanderen Gebouwenregister","source_id":"gebouw/Gebouw.16811968/0","kind":"building","height_m":8.6,"status":null},"geometry":{"type":"Polygon","coordinates":[[[4.04987504,50.90667292],[4.04993364,50.90670753],[4.0499214,50.9067167],[4.04996638,50.90674627],[4.0499777,50.90673863],[4.05003934,50.90677286],[4.05008767,50.90673886],[4.05015688,50.90677678],[4.05021731,50.90677737],[4.05021716,50.90678701],[4.05028526,50.90678799],[4.0502878,50.90687009],[4.05022271,50.90687017],[4.05022285,50.90687748],[4.05017662,50.90687816],[4.05017694,50.90690152],[4.05007029,50.90690226],[4.05006359,50.90687246],[4.04991653,50.90678123],[4.04981625,50.90684615],[4.04970771,50.90678152],[4.04963649,50.90682933],[4.0495244,50.90676259],[4.04958916,50.90670764],[4.04973867,50.90660726],[4.04986277,50.90668116],[4.04987504,50.90667292]]]}},{"type":"Feature","id":"gebouw/Gebouw.17059182/0","properties":{"source":"Digitaal Vlaanderen Gebouwenregister","source_id":"gebouw/Gebouw.17059182/0","kind":"building","height_m":5.0,"status":null},"geometry":{"type":"Polygon","coordinates":[[[4.04878556,50.90713914],[4.04885815,50.90717087],[4.04891494,50.90711892],[4.04884258,50.90708698],[4.04878556,50.90713914]]]}},{"type":"Feature","id":"gebouw/Gebouw.17071721/0","properties":{"source":"Digitaal Vlaanderen Gebouwenregister","source_id":"gebouw/Gebouw.17071721/0","kind":"building","height_m":6.44,"status":null},"geometry":{"type":"Polygon","coordinates":[[[4.05036201,50.90801073],[4.0503034,50.90797134],[4.05034509,50.90794686],[4.05027505,50.90789949],[4.05023354,50.90792413],[4.05009084,50.9078271],[4.05007995,50.90781969],[4.05009492,50.9078109],[4.0500775,50.90779895],[4.05006226,50.90780779],[4.04990803,50.90770361],[4.04994883,50.90767886],[4.0498792,50.90763161],[4.04983776,50.90765606],[4.04977934,50.90761684],[4.04982078,50.90759223],[4.04981923,50.90759122],[4.04997528,50.90749924],[4.05021412,50.90766123],[4.05056077,50.90789632],[4.05040468,50.90798718],[4.05040339,50.90798629],[4.05036201,50.90801073]]]}},{"type":"Feature","id":"gebouw/Gebouw.17071747/0","properties":{"source":"Digitaal Vlaanderen Gebouwenregister","source_id":"gebouw/Gebouw.17071747/0","kind":"building","height_m":5.0,"status":null},"geometry":{"type":"Polygon","coordinates":[[[4.04854446,50.90657396],[4.048567,50.90657973],[4.04854009,50.90662899],[4.04841942,50.90659878],[4.04845008,50.90654982],[4.04849908,50.90656235],[4.04850669,50.90654968],[4.04857243,50.90644294],[4.04870637,50.90647591],[4.04864219,50.90658102],[4.04864064,50.90658357],[4.04863442,50.90658191],[4.04861681,50.90661239],[4.04857317,50.90660204],[4.0485914,50.90657022],[4.04855169,50.90656142],[4.04854446,50.90657396]]]}},{"type":"Feature","id":"gebouw/Gebouw.18359702/0","properties":{"source":"Digitaal Vlaanderen Gebouwenregister","source_id":"gebouw/Gebouw.18359702/0","kind":"building","height_m":7.88,"status":null},"geometry":{"type":"Polygon","coordinates":[[[4.05246154,50.90792424],[4.05246076,50.90792719],[4.05245199,50.90796026],[4.0523991,50.90795706],[4.05239053,50.90795654],[4.05239123,50.90795189],[4.05239609,50.90791972],[4.05246154,50.90792424]]]}},{"type":"Feature","id":"gebouw/Gebouw.19879376/0","properties":{"source":"Digitaal Vlaanderen Gebouwenregister","source_id":"gebouw/Gebouw.19879376/0","kind":"building","height_m":9.32,"status":null},"geometry":{"type":"Polygon","coordinates":[[[4.04864219,50.90658102],[4.04864064,50.90658357],[4.04863442,50.90658191],[4.04861681,50.90661239],[4.04857317,50.90660204],[4.0485914,50.90657022],[4.04855169,50.90656142],[4.04854446,50.90657396],[4.04849908,50.90656235],[4.04850669,50.90654968],[4.04857243,50.90644294],[4.04870637,50.90647591],[4.04864219,50.90658102]]]}},{"type":"Feature","id":"gebouw/Gebouw.19879377/0","properties":{"source":"Digitaal Vlaanderen Gebouwenregister","source_id":"gebouw/Gebouw.19879377/0","kind":"building","height_m":5.0,"status":null},"geometry":{"type":"Polygon","coordinates":[[[4.04854446,50.90657396],[4.048567,50.90657973],[4.04854009,50.90662899],[4.04841942,50.90659878],[4.04845008,50.90654982],[4.04849908,50.90656235],[4.04854446,50.90657396]]]}},{"type":"Feature","id":"gebouw/Gebouw.31144671/0","properties":{"source":"Digitaal Vlaanderen Gebouwenregister","source_id":"gebouw/Gebouw.31144671/0","kind":"building","height_m":8.6,"status":null},"geometry":{"type":"Polygon","coordinates":[[[4.04849407,50.90673005],[4.04848979,50.90673743],[4.04846246,50.90678452],[4.04837165,50.90676263],[4.04840202,50.9067103],[4.04849407,50.90673005]]]}},{"type":"Feature","id":"gebouw/Gebouw.31787813/0","properties":{"source":"Digitaal Vlaanderen Gebouwenregister","source_id":"gebouw/Gebouw.31787813/0","kind":"building","height_m":5.72,"status":null},"geometry":{"type":"Polygon","coordinates":[[[4.05194583,50.90718536],[4.05193902,50.90721922],[4.05199279,50.90722355],[4.05199961,50.90718969],[4.05194583,50.90718536]]]}},{"type":"Feature","id":"gebouw/Gebouw.31791844/0","properties":{"source":"Digitaal Vlaanderen Gebouwenregister","source_id":"gebouw/Gebouw.31791844/0","kind":"building","height_m":5.0,"status":null},"geometry":{"type":"Polygon","coordinates":[[[4.05194583,50.90718536],[4.05193902,50.90721922],[4.05199279,50.90722355],[4.05199961,50.90718969],[4.05194583,50.90718536]]]}},{"type":"Feature","id":"way/161090609","properties":{"source":"OpenStreetMap","source_id":"way/161090609","kind":"vegetation","name":null,"waterway":null,"landuse":"forest"},"geometry":{"type":"Polygon","coordinates":[[[4.0494999,50.9058636],[4.0494355,50.90598],[4.0493616,50.9059974],[4.0491863,50.9059887],[4.0490367,50.9059757],[4.0489507,50.9059919],[4.0489507,50.9060516],[4.0489645,50.9061253],[4.0489748,50.9061795],[4.0490264,50.9062087],[4.0489834,50.9063226],[4.0491141,50.9063594],[4.0491725,50.9063833],[4.0491639,50.9064169],[4.0490058,50.9066434],[4.0488407,50.9065784],[4.0488046,50.9065079],[4.048698,50.9064624],[4.0485829,50.9064461],[4.0485124,50.9063985],[4.0485278,50.9063291],[4.0484849,50.906264],[4.0484367,50.9061903],[4.0483817,50.9061795],[4.0482855,50.9061697],[4.048258,50.9061383],[4.0482648,50.9061079],[4.0482923,50.9060657],[4.0482734,50.9060299],[4.0482115,50.9059811],[4.0481531,50.9059334],[4.0480499,50.9059182],[4.0479967,50.9058824],[4.0479399,50.9057654],[4.0478292,50.905711],[4.0480866,50.9055892],[4.0483149,50.9056821],[4.0492843,50.9058295],[4.0494999,50.9058636]]]}},{"type":"Feature","id":"way/161090624","properties":{"source":"OpenStreetMap","source_id":"way/161090624","kind":"vegetation","name":null,"waterway":null,"landuse":"forest"},"geometry":{"type":"Polygon","coordinates":[[[4.0514293,50.9064099],[4.0511887,50.906579],[4.0509583,50.9064576],[4.0510924,50.9063622],[4.0508758,50.9062625],[4.0507486,50.9063167],[4.050477,50.9060543],[4.0503257,50.9060717],[4.0502775,50.9059589],[4.049927,50.9059909],[4.0499586,50.9058835],[4.0497033,50.9058759],[4.0497887,50.9057834],[4.0495721,50.9057292],[4.0494999,50.9058636],[4.0492843,50.9058295],[4.0493141,50.9057854],[4.0493006,50.9056495],[4.0490373,50.905548],[4.048848,50.9055363],[4.04873,50.90556],[4.0485036,50.9056002],[4.0483149,50.9056821],[4.0480866,50.9055892],[4.0478292,50.905711],[4.0472503,50.9059848],[4.0478046,50.906181],[4.0477085,50.9063074],[4.0468262,50.9060018],[4.0371126,50.9093566],[4.0370609,50.9092908],[4.0499265,50.9047408],[4.0499577,50.9047721],[4.0500335,50.9048481],[4.0494306,50.905167],[4.049309,50.905308],[4.0493674,50.905446],[4.0496591,50.9055441],[4.0501307,50.9056852],[4.0502718,50.9054828],[4.0504128,50.9054399],[4.0505975,50.9054951],[4.0504906,50.9056024],[4.0503982,50.9057434],[4.0504322,50.9058446],[4.0506413,50.906004],[4.0507628,50.9061083],[4.0511081,50.9062463],[4.0511543,50.9062698],[4.0514293,50.9064099]]]}},{"type":"Feature","id":"way/161090651","properties":{"source":"OpenStreetMap","source_id":"way/161090651","kind":"water","name":null,"waterway":null,"landuse":null},"geometry":{"type":"Polygon","coordinates":[[[4.0495491,50.9060497],[4.049633,50.9060558],[4.0496695,50.9060673],[4.0496719,50.9060827],[4.0496731,50.9061018],[4.0496549,50.9061156],[4.0496099,50.9061225],[4.0493558,50.9061355],[4.0492148,50.9061309],[4.0490969,50.9061325],[4.0490459,50.9061225],[4.0490215,50.906111],[4.0490179,50.9060972],[4.0490313,50.9060719],[4.0490519,50.9060574],[4.0491151,50.9060428],[4.0492391,50.9060474],[4.0494142,50.9060474],[4.0495491,50.9060497]]]}},{"type":"Feature","id":"way/257820896","properties":{"source":"OpenStreetMap","source_id":"way/257820896","kind":"waterway","name":"Wildebeek","waterway":"stream","landuse":null},"geometry":{"type":"LineString","coordinates":[[4.0477215,50.9056147],[4.0478354,50.9057151],[4.0479856,50.9058361],[4.0482303,50.9058948],[4.0484278,50.9059264],[4.0485752,50.9059747],[4.048706,50.9060343],[4.0489563,50.9060887],[4.0490179,50.9060972],[4.0491622,50.906108],[4.0496719,50.9060827]]}},{"type":"Feature","id":"way/582142765","properties":{"source":"OpenStreetMap","source_id":"way/582142765","kind":"water","name":null,"waterway":null,"landuse":null},"geometry":{"type":"Polygon","coordinates":[[[4.0514371,50.9066025],[4.0515238,50.9066282],[4.0513398,50.9067308],[4.0513486,50.9067453],[4.0513681,50.9067498],[4.0514141,50.9067476],[4.0514937,50.9067509],[4.0516176,50.9067509],[4.0516671,50.9067565],[4.0517114,50.9067799],[4.0517592,50.9068123],[4.0518547,50.9068781],[4.0519149,50.9069216],[4.0519485,50.9069518],[4.0519609,50.9069707],[4.0519485,50.9069964],[4.0519273,50.9070433],[4.0518981,50.9070741],[4.0519027,50.9070984],[4.051922,50.9071069],[4.0519556,50.9071091],[4.0519892,50.9071002],[4.0520299,50.9070868],[4.0520688,50.9070756],[4.0520936,50.9070756],[4.0521361,50.9070834],[4.0522033,50.9071147],[4.0522423,50.9071348],[4.0522617,50.9071515],[4.0522706,50.9071716],[4.0522706,50.9071928],[4.0522723,50.9072151],[4.052267,50.9072397],[4.0522617,50.9072631],[4.0522635,50.9072865],[4.0522865,50.9072999],[4.0523254,50.9073021],[4.0523555,50.9073021],[4.0524281,50.9072988],[4.0525289,50.9072977],[4.0526156,50.907301],[4.0526528,50.9073133],[4.0526705,50.9073256],[4.0526829,50.9073412],[4.0526935,50.907368],[4.0527059,50.9074204],[4.0527165,50.9074494],[4.0527254,50.9074762],[4.0527466,50.9074963],[4.0527944,50.9075108],[4.0528439,50.9075376],[4.0528669,50.9075599],[4.0528846,50.9075878],[4.0529023,50.9076179],[4.0529182,50.9076425],[4.0529413,50.9076559],[4.0530209,50.9076849],[4.053074,50.9077039],[4.05312,50.9077262],[4.0531501,50.9077518],[4.053166,50.907773],[4.0531625,50.9078043],[4.0531501,50.9078299],[4.0531341,50.9078545],[4.0531217,50.907879],[4.0531271,50.9079002],[4.0531837,50.9079147],[4.0532332,50.9079281],[4.0532633,50.9079426],[4.0532704,50.907975],[4.0533359,50.9081457],[4.0533447,50.9082194],[4.0533483,50.9082953],[4.0533571,50.9084236],[4.0533518,50.9084883],[4.05335,50.9085385],[4.0533642,50.9085586],[4.0534279,50.9085753],[4.0534651,50.9085898],[4.0534456,50.9086334],[4.0534102,50.90863],[4.05335,50.9086077],[4.0533164,50.9085831],[4.0532934,50.9085318],[4.0533005,50.9084771],[4.0533022,50.9084292],[4.0532969,50.90836],[4.0532916,50.9082573],[4.0532934,50.9081904],[4.0532828,50.9081245],[4.0532509,50.9080453],[4.0532315,50.9079817],[4.0532173,50.9079549],[4.0531996,50.907946],[4.0531837,50.9079449],[4.0531394,50.9079337],[4.0531023,50.9079259],[4.0530793,50.9079014],[4.0530793,50.9078908],[4.0530793,50.9078802],[4.0530899,50.9078511],[4.0531058,50.9078333],[4.05312,50.9078087],[4.053117,50.9077868],[4.053117,50.9077677],[4.0531123,50.9077522],[4.0530843,50.9077353],[4.0530516,50.9077235],[4.0529745,50.9076926],[4.0529185,50.9076705],[4.0528893,50.907655],[4.0528706,50.9076292],[4.0528391,50.9075799],[4.0528158,50.9075453],[4.0527667,50.9075299],[4.0527189,50.9075107],[4.052685,50.9074864],[4.0526757,50.9074599],[4.0526593,50.9074158],[4.052643,50.9073686],[4.0526301,50.9073399],[4.0525881,50.9073274],[4.0525122,50.9073267],[4.0523266,50.9073259],[4.0522869,50.9073252],[4.0522554,50.90732],[4.0522332,50.9073083],[4.0522262,50.9072899],[4.0522227,50.9072678],[4.0522297,50.907245],[4.0522343,50.9072081],[4.0522285,50.9071728],[4.0522203,50.9071551],[4.05219,50.9071367],[4.0521538,50.9071213],[4.0521129,50.9071073],[4.0520907,50.9071058],[4.052051,50.9071139],[4.0520055,50.9071316],[4.0519646,50.9071353],[4.0519273,50.9071331],[4.0518934,50.9071242],[4.0518724,50.9071073],[4.0518631,50.9070962],[4.0518689,50.90708],[4.0518794,50.9070587],[4.0518841,50.9070425],[4.0519039,50.9070123],[4.0519109,50.9069917],[4.0519156,50.9069748],[4.0519168,50.9069623],[4.0519016,50.9069542],[4.0518783,50.9069343],[4.051688,50.9068062],[4.0516681,50.9067907],[4.0516319,50.9067789],[4.0515934,50.906776],[4.0515432,50.9067753],[4.0514404,50.9067738],[4.0513727,50.9067745],[4.0513505,50.9067701],[4.0513237,50.9067657],[4.051305,50.9067539],[4.051298,50.9067384],[4.0513003,50.9067267],[4.0513179,50.9067156],[4.0513424,50.9067009],[4.0513821,50.9066656],[4.0514371,50.9066025]]]}},{"type":"Feature","id":"way/861081101","properties":{"source":"OpenStreetMap","source_id":"way/861081101","kind":"water","name":null,"waterway":null,"landuse":null},"geometry":{"type":"Polygon","coordinates":[[[4.0483211,50.9081587],[4.048383,50.9081816],[4.0484229,50.9081844],[4.0485184,50.9080884],[4.0485264,50.908065],[4.0484547,50.9080343],[4.0483043,50.9081358],[4.0483211,50.9081587]]]}}]}